[{"town":"十条西十八丁目","koaza":"","lat":43.188931,"lng":141.755694,"zip":"0680030"},{"town":"十条西十九丁目","koaza":"","lat":43.188323,"lng":141.754857,"zip":"0680030"},{"town":"十条西一丁目","koaza":"","lat":43.197341,"lng":141.772115,"zip":"0680030"},{"town":"十条西二十丁目","koaza":"","lat":43.188273,"lng":141.753778,"zip":"0680030"},{"town":"十条西二十一丁目","koaza":"","lat":43.187694,"lng":141.753057,"zip":"0680030"},{"town":"十条西二十二丁目","koaza":"","lat":43.187522,"lng":141.751914,"zip":"0680030"},{"town":"十条西二十三丁目","koaza":"","lat":43.186334,"lng":141.749971,"zip":"0680030"},{"town":"十条西二丁目","koaza":"","lat":43.196894,"lng":141.771126,"zip":"0680030"},{"town":"十条西三丁目","koaza":"","lat":43.196335,"lng":141.770123,"zip":"0680030"},{"town":"十条西四丁目","koaza":"","lat":43.195859,"lng":141.769175,"zip":"0680030"},{"town":"十条西五丁目","koaza":"","lat":43.195361,"lng":141.768175,"zip":"0680030"},{"town":"十条東一丁目","koaza":"","lat":43.197871,"lng":141.772934,"zip":"0680010"},{"town":"十条東二丁目","koaza":"","lat":43.197932,"lng":141.774231,"zip":"0680010"},{"town":"十条東三丁目","koaza":"","lat":43.198374,"lng":141.775065,"zip":"0680010"},{"town":"十条東四丁目","koaza":"","lat":43.199103,"lng":141.775566,"zip":"0680010"},{"town":"十条東五丁目","koaza":"","lat":43.199833,"lng":141.776477,"zip":"0680010"},{"town":"十条東六丁目","koaza":"","lat":43.200367,"lng":141.777462,"zip":"0680010"},{"town":"十条東七丁目","koaza":"","lat":43.200903,"lng":141.778272,"zip":"0680010"},{"town":"十一条西一丁目","koaza":"","lat":43.196656,"lng":141.77266,"zip":"0680031"},{"town":"十一条西二丁目","koaza":"","lat":43.196071,"lng":141.771742,"zip":"0680031"},{"town":"十一条西三丁目","koaza":"","lat":43.195607,"lng":141.770805,"zip":"0680031"},{"town":"十一条西四丁目","koaza":"","lat":43.19513,"lng":141.769861,"zip":"0680031"},{"town":"十一条西五丁目","koaza":"","lat":43.194626,"lng":141.768854,"zip":"0680031"},{"town":"十一条東一丁目","koaza":"","lat":43.197056,"lng":141.773698,"zip":"0680011"},{"town":"十二条西一丁目","koaza":"","lat":43.19579,"lng":141.77354,"zip":"0680032"},{"town":"十二条西二丁目","koaza":"","lat":43.195119,"lng":141.77272,"zip":"0680032"},{"town":"十二条西三丁目","koaza":"","lat":43.194844,"lng":141.771383,"zip":"0680032"},{"town":"十二条西四丁目","koaza":"","lat":43.194543,"lng":141.770412,"zip":"0680032"},{"town":"十二条西五丁目","koaza":"","lat":43.194012,"lng":141.769595,"zip":"0680032"},{"town":"十二条東一丁目","koaza":"","lat":43.196322,"lng":141.774207,"zip":"0680012"},{"town":"十三条西一丁目","koaza":"","lat":43.195139,"lng":141.774054,"zip":"0680033"},{"town":"十三条西三丁目","koaza":"","lat":43.194237,"lng":141.772078,"zip":"0680033"},{"town":"十三条西四丁目","koaza":"","lat":43.193962,"lng":141.770961,"zip":"0680033"},{"town":"十三条西五丁目","koaza":"","lat":43.193321,"lng":141.770123,"zip":"0680033"},{"town":"一条西十丁目","koaza":"","lat":43.20116,"lng":141.755958,"zip":"0680021"},{"town":"一条西十一丁目","koaza":"","lat":43.200869,"lng":141.754589,"zip":"0680021"},{"town":"一条西十二丁目","koaza":"","lat":43.200427,"lng":141.753657,"zip":"0680021"},{"town":"一条西十三丁目","koaza":"","lat":43.200102,"lng":141.752691,"zip":"0680021"},{"town":"一条西十四丁目","koaza":"","lat":43.199498,"lng":141.751783,"zip":"0680021"},{"town":"一条西一丁目","koaza":"","lat":43.205339,"lng":141.764365,"zip":"0680021"},{"town":"一条西二丁目","koaza":"","lat":43.204868,"lng":141.763302,"zip":"0680021"},{"town":"一条西三丁目","koaza":"","lat":43.204382,"lng":141.762359,"zip":"0680021"},{"town":"一条西四丁目","koaza":"","lat":43.203917,"lng":141.761441,"zip":"0680021"},{"town":"一条西五丁目","koaza":"","lat":43.203451,"lng":141.760508,"zip":"0680021"},{"town":"一条西六丁目","koaza":"","lat":43.202992,"lng":141.759588,"zip":"0680021"},{"town":"一条西七丁目","koaza":"","lat":43.202569,"lng":141.758818,"zip":"0680021"},{"town":"一条西八丁目","koaza":"","lat":43.202052,"lng":141.757812,"zip":"0680021"},{"town":"一条西九丁目","koaza":"","lat":43.201563,"lng":141.756822,"zip":"0680021"},{"town":"一条東十丁目","koaza":"","lat":43.21066,"lng":141.773203,"zip":"0680001"},{"town":"一条東十一丁目","koaza":"","lat":43.211346,"lng":141.774708,"zip":"0680001"},{"town":"一条東十二丁目","koaza":"","lat":43.212429,"lng":141.777111,"zip":"0680001"},{"town":"一条東十三丁目","koaza":"","lat":43.213316,"lng":141.778422,"zip":"0680001"},{"town":"一条東十四丁目","koaza":"","lat":43.214371,"lng":141.780151,"zip":"0680001"},{"town":"一条東十五丁目","koaza":"","lat":43.215811,"lng":141.781807,"zip":"0680001"},{"town":"一条東十六丁目","koaza":"","lat":43.217104,"lng":141.783336,"zip":"0680001"},{"town":"一条東十七丁目","koaza":"","lat":43.218375,"lng":141.784513,"zip":"0680001"},{"town":"一条東一丁目","koaza":"","lat":43.206219,"lng":141.764852,"zip":"0680001"},{"town":"一条東二丁目","koaza":"","lat":43.20665,"lng":141.76605,"zip":"0680001"},{"town":"一条東三丁目","koaza":"","lat":43.207101,"lng":141.766949,"zip":"0680001"},{"town":"一条東四丁目","koaza":"","lat":43.207548,"lng":141.767829,"zip":"0680001"},{"town":"一条東五丁目","koaza":"","lat":43.208073,"lng":141.768536,"zip":"0680001"},{"town":"一条東六丁目","koaza":"","lat":43.208509,"lng":141.769663,"zip":"0680001"},{"town":"一条東七丁目","koaza":"","lat":43.209194,"lng":141.770325,"zip":"0680001"},{"town":"一条東八丁目","koaza":"","lat":43.209603,"lng":141.771386,"zip":"0680001"},{"town":"一条東九丁目","koaza":"","lat":43.210071,"lng":141.772381,"zip":"0680001"},{"town":"二条西十丁目","koaza":"","lat":43.200511,"lng":141.75653,"zip":"0680022"},{"town":"二条西十一丁目","koaza":"","lat":43.199994,"lng":141.755515,"zip":"0680022"},{"town":"二条西十二丁目","koaza":"","lat":43.199499,"lng":141.754556,"zip":"0680022"},{"town":"二条西十三丁目","koaza":"","lat":43.19938,"lng":141.753287,"zip":"0680022"},{"town":"二条西十四丁目","koaza":"","lat":43.198887,"lng":141.752402,"zip":"0680022"},{"town":"二条西十五丁目","koaza":"","lat":43.198736,"lng":141.751177,"zip":"0680022"},{"town":"二条西十六丁目","koaza":"","lat":43.198137,"lng":141.75037,"zip":"0680022"},{"town":"二条西一丁目","koaza":"","lat":43.204641,"lng":141.765014,"zip":"0680022"},{"town":"二条西二丁目","koaza":"","lat":43.204269,"lng":141.763885,"zip":"0680022"},{"town":"二条西三丁目","koaza":"","lat":43.203792,"lng":141.762936,"zip":"0680022"},{"town":"二条西四丁目","koaza":"","lat":43.203292,"lng":141.76205,"zip":"0680022"},{"town":"二条西五丁目","koaza":"","lat":43.202857,"lng":141.761081,"zip":"0680022"},{"town":"二条西六丁目","koaza":"","lat":43.20243,"lng":141.760167,"zip":"0680022"},{"town":"二条西七丁目","koaza":"","lat":43.201972,"lng":141.759283,"zip":"0680022"},{"town":"二条西八丁目","koaza":"","lat":43.201453,"lng":141.758418,"zip":"0680022"},{"town":"二条西九丁目","koaza":"","lat":43.200994,"lng":141.757503,"zip":"0680022"},{"town":"二条東十丁目","koaza":"","lat":43.209905,"lng":141.774042,"zip":"0680002"},{"town":"二条東十一丁目","koaza":"","lat":43.210618,"lng":141.775893,"zip":"0680002"},{"town":"二条東十二丁目","koaza":"","lat":43.211592,"lng":141.77717,"zip":"0680002"},{"town":"二条東十三丁目","koaza":"","lat":43.212471,"lng":141.779084,"zip":"0680002"},{"town":"二条東十四丁目","koaza":"","lat":43.213344,"lng":141.780777,"zip":"0680002"},{"town":"二条東十五丁目","koaza":"","lat":43.214861,"lng":141.783517,"zip":"0680002"},{"town":"二条東十六丁目","koaza":"","lat":43.216381,"lng":141.784721,"zip":"0680002"},{"town":"二条東十七丁目","koaza":"","lat":43.217702,"lng":141.785709,"zip":"0680002"},{"town":"二条東十八丁目","koaza":"","lat":43.219096,"lng":141.786622,"zip":"0680002"},{"town":"二条東一丁目","koaza":"","lat":43.205212,"lng":141.765829,"zip":"0680002"},{"town":"二条東二丁目","koaza":"","lat":43.205753,"lng":141.767025,"zip":"0680002"},{"town":"二条東三丁目","koaza":"","lat":43.206166,"lng":141.767839,"zip":"0680002"},{"town":"二条東四丁目","koaza":"","lat":43.206604,"lng":141.768773,"zip":"0680002"},{"town":"二条東五丁目","koaza":"","lat":43.206901,"lng":141.769883,"zip":"0680002"},{"town":"二条東六丁目","koaza":"","lat":43.207479,"lng":141.770886,"zip":"0680002"},{"town":"二条東七丁目","koaza":"","lat":43.208302,"lng":141.771236,"zip":"0680002"},{"town":"二条東八丁目","koaza":"","lat":43.208694,"lng":141.772205,"zip":"0680002"},{"town":"二条東九丁目","koaza":"","lat":43.209405,"lng":141.773086,"zip":"0680002"},{"town":"三条西十丁目","koaza":"","lat":43.19985,"lng":141.757169,"zip":"0680023"},{"town":"三条西十一丁目","koaza":"","lat":43.199348,"lng":141.756133,"zip":"0680023"},{"town":"三条西十二丁目","koaza":"","lat":43.198866,"lng":141.755156,"zip":"0680023"},{"town":"三条西十三丁目","koaza":"","lat":43.19878,"lng":141.754018,"zip":"0680023"},{"town":"三条西十四丁目","koaza":"","lat":43.198268,"lng":141.753015,"zip":"0680023"},{"town":"三条西十五丁目","koaza":"","lat":43.19778,"lng":141.752086,"zip":"0680023"},{"town":"三条西十六丁目","koaza":"","lat":43.197323,"lng":141.751143,"zip":"0680023"},{"town":"三条西十七丁目","koaza":"","lat":43.197235,"lng":141.75002,"zip":"0680023"},{"town":"三条西十八丁目","koaza":"","lat":43.196393,"lng":141.74936,"zip":"0680023"},{"town":"三条西一丁目","koaza":"","lat":43.204006,"lng":141.765771,"zip":"0680023"},{"town":"三条西二丁目","koaza":"","lat":43.203539,"lng":141.764604,"zip":"0680023"},{"town":"三条西三丁目","koaza":"","lat":43.203145,"lng":141.763741,"zip":"0680023"},{"town":"三条西四丁目","koaza":"","lat":43.202688,"lng":141.762658,"zip":"0680023"},{"town":"三条西五丁目","koaza":"","lat":43.20218,"lng":141.761771,"zip":"0680023"},{"town":"三条西六丁目","koaza":"","lat":43.201742,"lng":141.76086,"zip":"0680023"},{"town":"三条西七丁目","koaza":"","lat":43.201338,"lng":141.759891,"zip":"0680023"},{"town":"三条西八丁目","koaza":"","lat":43.200845,"lng":141.759138,"zip":"0680023"},{"town":"三条西九丁目","koaza":"","lat":43.200326,"lng":141.758151,"zip":"0680023"},{"town":"三条東十丁目","koaza":"","lat":43.209203,"lng":141.774641,"zip":"0680003"},{"town":"三条東十一丁目","koaza":"","lat":43.209784,"lng":141.776353,"zip":"0680003"},{"town":"三条東十二丁目","koaza":"","lat":43.21062,"lng":141.777768,"zip":"0680003"},{"town":"三条東十三丁目","koaza":"","lat":43.211628,"lng":141.779587,"zip":"0680003"},{"town":"三条東十四丁目","koaza":"","lat":43.212581,"lng":141.781453,"zip":"0680003"},{"town":"三条東十六丁目","koaza":"","lat":43.217171,"lng":141.786804,"zip":"0680003"},{"town":"三条東十七丁目","koaza":"","lat":43.218102,"lng":141.788897,"zip":"0680003"},{"town":"三条東十八丁目","koaza":"","lat":43.219272,"lng":141.790842,"zip":"0680003"},{"town":"三条東一丁目","koaza":"","lat":43.204554,"lng":141.766592,"zip":"0680003"},{"town":"三条東二丁目","koaza":"","lat":43.205049,"lng":141.767543,"zip":"0680003"},{"town":"三条東三丁目","koaza":"","lat":43.205443,"lng":141.76838,"zip":"0680003"},{"town":"三条東四丁目","koaza":"","lat":43.205989,"lng":141.769526,"zip":"0680003"},{"town":"三条東七丁目","koaza":"","lat":43.207716,"lng":141.771964,"zip":"0680003"},{"town":"三条東八丁目","koaza":"","lat":43.208165,"lng":141.77233,"zip":"0680003"},{"town":"三条東九丁目","koaza":"","lat":43.208267,"lng":141.773557,"zip":"0680003"},{"town":"四条西十丁目","koaza":"","lat":43.199103,"lng":141.757886,"zip":"0680024"},{"town":"四条西十一丁目","koaza":"","lat":43.198597,"lng":141.756839,"zip":"0680024"},{"town":"四条西十二丁目","koaza":"","lat":43.198066,"lng":141.755768,"zip":"0680024"},{"town":"四条西十三丁目","koaza":"","lat":43.198031,"lng":141.754582,"zip":"0680024"},{"town":"四条西十四丁目","koaza":"","lat":43.197551,"lng":141.753682,"zip":"0680024"},{"town":"四条西十五丁目","koaza":"","lat":43.197124,"lng":141.752614,"zip":"0680024"},{"town":"四条西十六丁目","koaza":"","lat":43.196597,"lng":141.751794,"zip":"0680024"},{"town":"四条西十七丁目","koaza":"","lat":43.196148,"lng":141.750893,"zip":"0680024"},{"town":"四条西十八丁目","koaza":"","lat":43.195444,"lng":141.749694,"zip":"0680024"},{"town":"四条西一丁目","koaza":"","lat":43.203299,"lng":141.766293,"zip":"0680024"},{"town":"四条西二丁目","koaza":"","lat":43.202812,"lng":141.765313,"zip":"0680024"},{"town":"四条西三丁目","koaza":"","lat":43.202347,"lng":141.764398,"zip":"0680024"},{"town":"四条西四丁目","koaza":"","lat":43.20188,"lng":141.76346,"zip":"0680024"},{"town":"四条西五丁目","koaza":"","lat":43.20141,"lng":141.762497,"zip":"0680024"},{"town":"四条西六丁目","koaza":"","lat":43.200951,"lng":141.761567,"zip":"0680024"},{"town":"四条西七丁目","koaza":"","lat":43.200517,"lng":141.76065,"zip":"0680024"},{"town":"四条西八丁目","koaza":"","lat":43.200057,"lng":141.759736,"zip":"0680024"},{"town":"四条西九丁目","koaza":"","lat":43.199584,"lng":141.758843,"zip":"0680024"},{"town":"四条東十丁目","koaza":"","lat":43.208556,"lng":141.775243,"zip":"0680004"},{"town":"四条東十一丁目","koaza":"","lat":43.209084,"lng":141.776964,"zip":"0680004"},{"town":"四条東十二丁目","koaza":"","lat":43.210341,"lng":141.779114,"zip":"0680004"},{"town":"四条東十三丁目","koaza":"","lat":43.210997,"lng":141.780421,"zip":"0680004"},{"town":"四条東十四丁目","koaza":"","lat":43.211874,"lng":141.782122,"zip":"0680004"},{"town":"四条東十五丁目","koaza":"","lat":43.212997,"lng":141.783269,"zip":"0680004"},{"town":"四条東十六丁目","koaza":"","lat":43.214502,"lng":141.786309,"zip":"0680004"},{"town":"四条東十七丁目","koaza":"","lat":43.216363,"lng":141.79002,"zip":"0680004"},{"town":"四条東十八丁目","koaza":"","lat":43.217699,"lng":141.79288,"zip":"0680004"},{"town":"四条東一丁目","koaza":"","lat":43.203847,"lng":141.767122,"zip":"0680004"},{"town":"四条東二丁目","koaza":"","lat":43.204319,"lng":141.76824,"zip":"0680004"},{"town":"四条東三丁目","koaza":"","lat":43.204758,"lng":141.769167,"zip":"0680004"},{"town":"四条東四丁目","koaza":"","lat":43.205432,"lng":141.769915,"zip":"0680004"},{"town":"四条東五丁目","koaza":"","lat":43.20609,"lng":141.770692,"zip":"0680004"},{"town":"四条東六丁目","koaza":"","lat":43.206563,"lng":141.771491,"zip":"0680004"},{"town":"四条東七丁目","koaza":"","lat":43.206997,"lng":141.772538,"zip":"0680004"},{"town":"四条東八丁目","koaza":"","lat":43.20754,"lng":141.772904,"zip":"0680004"},{"town":"四条東九丁目","koaza":"","lat":43.207561,"lng":141.774281,"zip":"0680004"},{"town":"五条西十丁目","koaza":"","lat":43.198331,"lng":141.758604,"zip":"0680025"},{"town":"五条西十一丁目","koaza":"","lat":43.197739,"lng":141.757466,"zip":"0680025"},{"town":"五条西十二丁目","koaza":"","lat":43.197306,"lng":141.756599,"zip":"0680025"},{"town":"五条西十三丁目","koaza":"","lat":43.197247,"lng":141.755322,"zip":"0680025"},{"town":"五条西十四丁目","koaza":"","lat":43.196767,"lng":141.754412,"zip":"0680025"},{"town":"五条西十五丁目","koaza":"","lat":43.196284,"lng":141.753463,"zip":"0680025"},{"town":"五条西十六丁目","koaza":"","lat":43.19581,"lng":141.752524,"zip":"0680025"},{"town":"五条西十七丁目","koaza":"","lat":43.195351,"lng":141.751618,"zip":"0680025"},{"town":"五条西十八丁目","koaza":"","lat":43.194875,"lng":141.750665,"zip":"0680025"},{"town":"五条西十九丁目","koaza":"","lat":43.194253,"lng":141.749675,"zip":"0680025"},{"town":"五条西一丁目","koaza":"","lat":43.202599,"lng":141.766961,"zip":"0680025"},{"town":"五条西二丁目","koaza":"","lat":43.202118,"lng":141.765971,"zip":"0680025"},{"town":"五条西三丁目","koaza":"","lat":43.201604,"lng":141.76496,"zip":"0680025"},{"town":"五条西四丁目","koaza":"","lat":43.201146,"lng":141.764131,"zip":"0680025"},{"town":"五条西五丁目","koaza":"","lat":43.200618,"lng":141.763206,"zip":"0680025"},{"town":"五条西六丁目","koaza":"","lat":43.20016,"lng":141.762272,"zip":"0680025"},{"town":"五条西七丁目","koaza":"","lat":43.199718,"lng":141.761231,"zip":"0680025"},{"town":"五条西八丁目","koaza":"","lat":43.199318,"lng":141.760556,"zip":"0680025"},{"town":"五条西九丁目","koaza":"","lat":43.19881,"lng":141.75955,"zip":"0680025"},{"town":"五条東十丁目","koaza":"","lat":43.207663,"lng":141.776013,"zip":"0680005"},{"town":"五条東十一丁目","koaza":"","lat":43.208147,"lng":141.777831,"zip":"0680005"},{"town":"五条東十二丁目","koaza":"","lat":43.209118,"lng":141.779915,"zip":"0680005"},{"town":"五条東十三丁目","koaza":"","lat":43.209863,"lng":141.781441,"zip":"0680005"},{"town":"五条東十四丁目","koaza":"","lat":43.210838,"lng":141.782987,"zip":"0680005"},{"town":"五条東十五丁目","koaza":"","lat":43.211917,"lng":141.785464,"zip":"0680005"},{"town":"五条東十六丁目","koaza":"","lat":43.213578,"lng":141.788327,"zip":"0680005"},{"town":"五条東十七丁目","koaza":"","lat":43.214315,"lng":141.791562,"zip":"0680005"},{"town":"五条東十八丁目","koaza":"","lat":43.215392,"lng":141.794622,"zip":"0680005"},{"town":"五条東一丁目","koaza":"","lat":43.203097,"lng":141.767991,"zip":"0680005"},{"town":"五条東二丁目","koaza":"","lat":43.203399,"lng":141.769127,"zip":"0680005"},{"town":"五条東三丁目","koaza":"","lat":43.20391,"lng":141.769985,"zip":"0680005"},{"town":"五条東四丁目","koaza":"","lat":43.204792,"lng":141.770379,"zip":"0680005"},{"town":"五条東五丁目","koaza":"","lat":43.20532,"lng":141.771404,"zip":"0680005"},{"town":"五条東六丁目","koaza":"","lat":43.205904,"lng":141.772401,"zip":"0680005"},{"town":"五条東七丁目","koaza":"","lat":43.206389,"lng":141.773402,"zip":"0680005"},{"town":"五条東八丁目","koaza":"","lat":43.206358,"lng":141.774844,"zip":"0680005"},{"town":"六条西十丁目","koaza":"","lat":43.197454,"lng":141.759438,"zip":"0680026"},{"town":"六条西十一丁目","koaza":"","lat":43.196937,"lng":141.75842,"zip":"0680026"},{"town":"六条西十二丁目","koaza":"","lat":43.196433,"lng":141.757441,"zip":"0680026"},{"town":"六条西十三丁目","koaza":"","lat":43.196259,"lng":141.75638,"zip":"0680026"},{"town":"六条西十四丁目","koaza":"","lat":43.195705,"lng":141.755445,"zip":"0680026"},{"town":"六条西十五丁目","koaza":"","lat":43.195214,"lng":141.754505,"zip":"0680026"},{"town":"六条西十六丁目","koaza":"","lat":43.194745,"lng":141.753507,"zip":"0680026"},{"town":"六条西十七丁目","koaza":"","lat":43.194636,"lng":141.752302,"zip":"0680026"},{"town":"六条西十八丁目","koaza":"","lat":43.194156,"lng":141.751361,"zip":"0680026"},{"town":"六条西十九丁目","koaza":"","lat":43.193681,"lng":141.750455,"zip":"0680026"},{"town":"六条西一丁目","koaza":"","lat":43.201822,"lng":141.767698,"zip":"0680026"},{"town":"六条西二十丁目","koaza":"","lat":43.19299,"lng":141.749374,"zip":"0680026"},{"town":"六条西二丁目","koaza":"","lat":43.201226,"lng":141.766805,"zip":"0680026"},{"town":"六条西三丁目","koaza":"","lat":43.200775,"lng":141.765871,"zip":"0680026"},{"town":"六条西四丁目","koaza":"","lat":43.200264,"lng":141.764967,"zip":"0680026"},{"town":"六条西五丁目","koaza":"","lat":43.199728,"lng":141.764053,"zip":"0680026"},{"town":"六条西六丁目","koaza":"","lat":43.199253,"lng":141.763125,"zip":"0680026"},{"town":"六条西七丁目","koaza":"","lat":43.199033,"lng":141.762026,"zip":"0680026"},{"town":"六条西八丁目","koaza":"","lat":43.198379,"lng":141.7613,"zip":"0680026"},{"town":"六条西九丁目","koaza":"","lat":43.19792,"lng":141.760392,"zip":"0680026"},{"town":"六条東十丁目","koaza":"","lat":43.206577,"lng":141.776975,"zip":"0680006"},{"town":"六条東十一丁目","koaza":"","lat":43.206623,"lng":141.779055,"zip":"0680006"},{"town":"六条東十二丁目","koaza":"","lat":43.207596,"lng":141.780794,"zip":"0680006"},{"town":"六条東十三丁目","koaza":"","lat":43.208397,"lng":141.782931,"zip":"0680006"},{"town":"六条東十四丁目","koaza":"","lat":43.209377,"lng":141.784117,"zip":"0680006"},{"town":"六条東一丁目","koaza":"","lat":43.202384,"lng":141.768671,"zip":"0680006"},{"town":"六条東二丁目","koaza":"","lat":43.202748,"lng":141.769754,"zip":"0680006"},{"town":"六条東三丁目","koaza":"","lat":43.202947,"lng":141.770768,"zip":"0680006"},{"town":"六条東四丁目","koaza":"","lat":43.203757,"lng":141.771791,"zip":"0680006"},{"town":"六条東五丁目","koaza":"","lat":43.204639,"lng":141.772034,"zip":"0680006"},{"town":"六条東六丁目","koaza":"","lat":43.204608,"lng":141.773351,"zip":"0680006"},{"town":"六条東七丁目","koaza":"","lat":43.205387,"lng":141.774635,"zip":"0680006"},{"town":"六条東八丁目","koaza":"","lat":43.205173,"lng":141.775241,"zip":"0680006"},{"town":"六条東九丁目","koaza":"","lat":43.205645,"lng":141.776141,"zip":"0680006"},{"town":"七条西十丁目","koaza":"","lat":43.196204,"lng":141.760625,"zip":"0680027"},{"town":"七条西十一丁目","koaza":"","lat":43.195707,"lng":141.759633,"zip":"0680027"},{"town":"七条西十二丁目","koaza":"","lat":43.195205,"lng":141.758623,"zip":"0680027"},{"town":"七条西十三丁目","koaza":"","lat":43.194725,"lng":141.757668,"zip":"0680027"},{"town":"七条西十四丁目","koaza":"","lat":43.194293,"lng":141.756816,"zip":"0680027"},{"town":"七条西十五丁目","koaza":"","lat":43.193804,"lng":141.755849,"zip":"0680027"},{"town":"七条西十六丁目","koaza":"","lat":43.193267,"lng":141.7548,"zip":"0680027"},{"town":"七条西十七丁目","koaza":"","lat":43.193647,"lng":141.753383,"zip":"0680027"},{"town":"七条西十八丁目","koaza":"","lat":43.193104,"lng":141.752356,"zip":"0680027"},{"town":"七条西十九丁目","koaza":"","lat":43.192622,"lng":141.751463,"zip":"0680027"},{"town":"七条西一丁目","koaza":"","lat":43.200576,"lng":141.768676,"zip":"0680027"},{"town":"七条西二十丁目","koaza":"","lat":43.192124,"lng":141.750513,"zip":"0680027"},{"town":"七条西二十一丁目","koaza":"","lat":43.191645,"lng":141.749298,"zip":"0680027"},{"town":"七条西二十二丁目","koaza":"","lat":43.190732,"lng":141.74886,"zip":"0680027"},{"town":"七条西二丁目","koaza":"","lat":43.199919,"lng":141.768146,"zip":"0680027"},{"town":"七条西三丁目","koaza":"","lat":43.199503,"lng":141.767089,"zip":"0680027"},{"town":"七条西四丁目","koaza":"","lat":43.199003,"lng":141.766175,"zip":"0680027"},{"town":"七条西五丁目","koaza":"","lat":43.198505,"lng":141.765209,"zip":"0680027"},{"town":"七条西六丁目","koaza":"","lat":43.198031,"lng":141.764266,"zip":"0680027"},{"town":"七条西七丁目","koaza":"","lat":43.197617,"lng":141.763372,"zip":"0680027"},{"town":"七条西八丁目","koaza":"","lat":43.197181,"lng":141.762566,"zip":"0680027"},{"town":"七条西九丁目","koaza":"","lat":43.196674,"lng":141.761566,"zip":"0680027"},{"town":"七条東十丁目","koaza":"","lat":43.205507,"lng":141.777852,"zip":"0680007"},{"town":"七条東十一丁目","koaza":"","lat":43.205244,"lng":141.780139,"zip":"0680007"},{"town":"七条東十二丁目","koaza":"","lat":43.205854,"lng":141.782185,"zip":"0680007"},{"town":"七条東十三丁目","koaza":"","lat":43.207055,"lng":141.783776,"zip":"0680007"},{"town":"七条東十四丁目","koaza":"","lat":43.207626,"lng":141.784726,"zip":"0680007"},{"town":"七条東一丁目","koaza":"","lat":43.201075,"lng":141.769878,"zip":"0680007"},{"town":"七条東二丁目","koaza":"","lat":43.20167,"lng":141.770762,"zip":"0680007"},{"town":"七条東三丁目","koaza":"","lat":43.20186,"lng":141.771656,"zip":"0680007"},{"town":"七条東四丁目","koaza":"","lat":43.202341,"lng":141.772792,"zip":"0680007"},{"town":"七条東五丁目","koaza":"","lat":43.202788,"lng":141.773114,"zip":"0680007"},{"town":"七条東六丁目","koaza":"","lat":43.203411,"lng":141.774629,"zip":"0680007"},{"town":"七条東七丁目","koaza":"","lat":43.203383,"lng":141.775737,"zip":"0680007"},{"town":"七条東八丁目","koaza":"","lat":43.203828,"lng":141.776801,"zip":"0680007"},{"town":"七条東九丁目","koaza":"","lat":43.204598,"lng":141.777357,"zip":"0680007"},{"town":"八条西十丁目","koaza":"","lat":43.195124,"lng":141.76163,"zip":"0680028"},{"town":"八条西十一丁目","koaza":"","lat":43.194625,"lng":141.760649,"zip":"0680028"},{"town":"八条西十二丁目","koaza":"","lat":43.194128,"lng":141.759677,"zip":"0680028"},{"town":"八条西十三丁目","koaza":"","lat":43.193648,"lng":141.758732,"zip":"0680028"},{"town":"八条西十四丁目","koaza":"","lat":43.193203,"lng":141.757862,"zip":"0680028"},{"town":"八条西十五丁目","koaza":"","lat":43.192723,"lng":141.756926,"zip":"0680028"},{"town":"八条西十六丁目","koaza":"","lat":43.19223,"lng":141.755958,"zip":"0680028"},{"town":"八条西十七丁目","koaza":"","lat":43.192155,"lng":141.754659,"zip":"0680028"},{"town":"八条西十八丁目","koaza":"","lat":43.191667,"lng":141.753717,"zip":"0680028"},{"town":"八条西十九丁目","koaza":"","lat":43.191193,"lng":141.752802,"zip":"0680028"},{"town":"八条西一丁目","koaza":"","lat":43.199695,"lng":141.770031,"zip":"0680028"},{"town":"八条西二十丁目","koaza":"","lat":43.190705,"lng":141.751845,"zip":"0680028"},{"town":"八条西二十一丁目","koaza":"","lat":43.190167,"lng":141.75079,"zip":"0680028"},{"town":"八条西二十二丁目","koaza":"","lat":43.189686,"lng":141.749865,"zip":"0680028"},{"town":"八条西二十三丁目","koaza":"","lat":43.18909,"lng":141.748731,"zip":"0680028"},{"town":"八条西二丁目","koaza":"","lat":43.19894,"lng":141.769088,"zip":"0680028"},{"town":"八条西三丁目","koaza":"","lat":43.198447,"lng":141.768111,"zip":"0680028"},{"town":"八条西四丁目","koaza":"","lat":43.197959,"lng":141.767174,"zip":"0680028"},{"town":"八条西五丁目","koaza":"","lat":43.19734,"lng":141.766183,"zip":"0680028"},{"town":"八条西六丁目","koaza":"","lat":43.196979,"lng":141.765263,"zip":"0680028"},{"town":"八条西七丁目","koaza":"","lat":43.196618,"lng":141.764391,"zip":"0680028"},{"town":"八条西八丁目","koaza":"","lat":43.196054,"lng":141.763456,"zip":"0680028"},{"town":"八条西九丁目","koaza":"","lat":43.195605,"lng":141.762572,"zip":"0680028"},{"town":"八条東十丁目","koaza":"","lat":43.202818,"lng":141.780099,"zip":"0680008"},{"town":"八条東十一丁目","koaza":"","lat":43.2042,"lng":141.781701,"zip":"0680008"},{"town":"八条東十二丁目","koaza":"","lat":43.20556,"lng":141.78377,"zip":"0680008"},{"town":"八条東一丁目","koaza":"","lat":43.19987,"lng":141.771022,"zip":"0680008"},{"town":"八条東二丁目","koaza":"","lat":43.200362,"lng":141.771988,"zip":"0680008"},{"town":"八条東三丁目","koaza":"","lat":43.200956,"lng":141.772839,"zip":"0680008"},{"town":"八条東四丁目","koaza":"","lat":43.201161,"lng":141.773869,"zip":"0680008"},{"town":"八条東五丁目","koaza":"","lat":43.201703,"lng":141.774678,"zip":"0680008"},{"town":"八条東六丁目","koaza":"","lat":43.202326,"lng":141.775557,"zip":"0680008"},{"town":"九条西十丁目","koaza":"","lat":43.194074,"lng":141.762611,"zip":"0680029"},{"town":"九条西十一丁目","koaza":"","lat":43.193569,"lng":141.761636,"zip":"0680029"},{"town":"九条西十二丁目","koaza":"","lat":43.193078,"lng":141.760703,"zip":"0680029"},{"town":"九条西十三丁目","koaza":"","lat":43.192597,"lng":141.759764,"zip":"0680029"},{"town":"九条西十四丁目","koaza":"","lat":43.192144,"lng":141.758868,"zip":"0680029"},{"town":"九条西十五丁目","koaza":"","lat":43.191643,"lng":141.757803,"zip":"0680029"},{"town":"九条西十六丁目","koaza":"","lat":43.19118,"lng":141.756966,"zip":"0680029"},{"town":"九条西十七丁目","koaza":"","lat":43.190508,"lng":141.756232,"zip":"0680029"},{"town":"九条西十八丁目","koaza":"","lat":43.190272,"lng":141.755044,"zip":"0680029"},{"town":"九条西十九丁目","koaza":"","lat":43.189864,"lng":141.754065,"zip":"0680029"},{"town":"九条西一丁目","koaza":"","lat":43.198252,"lng":141.771068,"zip":"0680029"},{"town":"九条西二十丁目","koaza":"","lat":43.18935,"lng":141.75313,"zip":"0680029"},{"town":"九条西二十一丁目","koaza":"","lat":43.188979,"lng":141.752042,"zip":"0680029"},{"town":"九条西二十二丁目","koaza":"","lat":43.18867,"lng":141.750825,"zip":"0680029"},{"town":"九条西二十三丁目","koaza":"","lat":43.188213,"lng":141.74955,"zip":"0680029"},{"town":"九条西二丁目","koaza":"","lat":43.197912,"lng":141.770072,"zip":"0680029"},{"town":"九条西三丁目","koaza":"","lat":43.197396,"lng":141.769115,"zip":"0680029"},{"town":"九条西四丁目","koaza":"","lat":43.19692,"lng":141.768161,"zip":"0680029"},{"town":"九条西五丁目","koaza":"","lat":43.196438,"lng":141.76717,"zip":"0680029"},{"town":"九条西六丁目","koaza":"","lat":43.19595,"lng":141.766241,"zip":"0680029"},{"town":"九条西七丁目","koaza":"","lat":43.195486,"lng":141.765337,"zip":"0680029"},{"town":"九条西八丁目","koaza":"","lat":43.195022,"lng":141.764438,"zip":"0680029"},{"town":"九条西九丁目","koaza":"","lat":43.194566,"lng":141.763558,"zip":"0680029"},{"town":"九条東一丁目","koaza":"","lat":43.198891,"lng":141.771969,"zip":"0680009"},{"town":"九条東二丁目","koaza":"","lat":43.199833,"lng":141.773851,"zip":"0680009"},{"town":"九条東五丁目","koaza":"","lat":43.200769,"lng":141.775716,"zip":"0680009"},{"town":"九条東六丁目","koaza":"","lat":43.201273,"lng":141.77671,"zip":"0680009"},{"town":"九条東七丁目","koaza":"","lat":43.201691,"lng":141.777589,"zip":"0680009"},{"town":"九条東八丁目","koaza":"","lat":43.202311,"lng":141.778198,"zip":"0680009"},{"town":"九条東九丁目","koaza":"","lat":43.203731,"lng":141.779093,"zip":"0680009"},{"town":"朝日町","koaza":"","lat":43.170359,"lng":141.87684,"zip":"0683185"},{"town":"有明町中央","koaza":"","lat":43.204594,"lng":141.756864,"zip":"0680035"},{"town":"有明町南","koaza":"","lat":43.203852,"lng":141.759587,"zip":"0680034"},{"town":"大願町","koaza":"","lat":43.264713,"lng":141.767172,"zip":"0790183"},{"town":"岡山町","koaza":"","lat":43.24378,"lng":141.797405,"zip":"0790181"},{"town":"御茶の水町","koaza":"","lat":43.179252,"lng":141.685881,"zip":"0690384"},{"town":"かえで町一丁目","koaza":"","lat":43.200874,"lng":141.789631,"zip":"0680829"},{"town":"かえで町二丁目","koaza":"","lat":43.20019,"lng":141.791632,"zip":"0680829"},{"town":"かえで町三丁目","koaza":"","lat":43.201524,"lng":141.791765,"zip":"0680829"},{"town":"かえで町四丁目","koaza":"","lat":43.203527,"lng":141.791568,"zip":"0680829"},{"town":"かえで町五丁目","koaza":"","lat":43.203152,"lng":141.793665,"zip":"0680829"},{"town":"かえで町六丁目","koaza":"","lat":43.201744,"lng":141.79399,"zip":"0680829"},{"town":"かえで町七丁目","koaza":"","lat":43.200362,"lng":141.794132,"zip":"0680829"},{"town":"かえで町八丁目","koaza":"","lat":43.201145,"lng":141.796421,"zip":"0680829"},{"town":"春日町一丁目","koaza":"","lat":43.188893,"lng":141.771564,"zip":"0680827"},{"town":"春日町二丁目","koaza":"","lat":43.190621,"lng":141.775489,"zip":"0680827"},{"town":"春日町三丁目","koaza":"","lat":43.189467,"lng":141.777192,"zip":"0680827"},{"town":"春日町四丁目","koaza":"","lat":43.189911,"lng":141.78079,"zip":"0680827"},{"town":"金子町","koaza":"","lat":43.165518,"lng":141.726039,"zip":"0680847"},{"town":"上志文町","koaza":"","lat":43.168853,"lng":141.836506,"zip":"0680836"},{"town":"上幌向北一条一丁目","koaza":"","lat":43.187399,"lng":141.721933,"zip":"0690361"},{"town":"上幌向北一条二丁目","koaza":"","lat":43.185822,"lng":141.718807,"zip":"0690361"},{"town":"上幌向北一条三丁目","koaza":"","lat":43.18423,"lng":141.715739,"zip":"0690361"},{"town":"上幌向北一条四丁目","koaza":"","lat":43.182582,"lng":141.71252,"zip":"0690361"},{"town":"上幌向北一条五丁目","koaza":"","lat":43.181156,"lng":141.709599,"zip":"0690361"},{"town":"上幌向北一条六丁目","koaza":"","lat":43.179861,"lng":141.707096,"zip":"0690361"},{"town":"上幌向町","koaza":"","lat":43.195767,"lng":141.703126,"zip":"0690365"},{"town":"上幌向南一条一丁目","koaza":"","lat":43.186343,"lng":141.726375,"zip":"0690362"},{"town":"上幌向南一条二丁目","koaza":"","lat":43.183243,"lng":141.720987,"zip":"0690362"},{"town":"上幌向南一条三丁目","koaza":"","lat":43.181509,"lng":141.717897,"zip":"0690362"},{"town":"上幌向南一条四丁目","koaza":"","lat":43.179469,"lng":141.715166,"zip":"0690362"},{"town":"上幌向南一条五丁目","koaza":"","lat":43.178699,"lng":141.712442,"zip":"0690362"},{"town":"上幌向南一条六丁目","koaza":"","lat":43.177387,"lng":141.7098,"zip":"0690362"},{"town":"上幌向南二条五丁目","koaza":"","lat":43.177054,"lng":141.713889,"zip":"0690363"},{"town":"上幌向南二条六丁目","koaza":"","lat":43.175304,"lng":141.712227,"zip":"0690363"},{"town":"上幌向南二条七丁目","koaza":"","lat":43.174097,"lng":141.7094,"zip":"0690363"},{"town":"上幌向南二条八丁目","koaza":"","lat":43.173142,"lng":141.707526,"zip":"0690363"},{"town":"上幌向南二条九丁目","koaza":"","lat":43.172321,"lng":141.705816,"zip":"0690363"},{"town":"上幌向南三条六丁目","koaza":"","lat":43.173208,"lng":141.713332,"zip":"0690364"},{"town":"上幌向南三条七丁目","koaza":"","lat":43.171412,"lng":141.711557,"zip":"0690364"},{"town":"北一条西十一丁目","koaza":"","lat":43.20204,"lng":141.752884,"zip":"0680041"},{"town":"北一条西十三丁目","koaza":"","lat":43.201274,"lng":141.751076,"zip":"0680041"},{"town":"北一条西十四丁目","koaza":"","lat":43.200709,"lng":141.750149,"zip":"0680041"},{"town":"北一条西十五丁目","koaza":"","lat":43.200878,"lng":141.748933,"zip":"0680041"},{"town":"北一条西十六丁目","koaza":"","lat":43.199953,"lng":141.748703,"zip":"0680041"},{"town":"北一条西十七丁目","koaza":"","lat":43.199413,"lng":141.747763,"zip":"0680041"},{"town":"北一条西十八丁目","koaza":"","lat":43.199012,"lng":141.746679,"zip":"0680041"},{"town":"北一条西十九丁目","koaza":"","lat":43.198559,"lng":141.745804,"zip":"0680041"},{"town":"北一条西二十丁目","koaza":"","lat":43.198067,"lng":141.744858,"zip":"0680041"},{"town":"北一条西二丁目","koaza":"","lat":43.206682,"lng":141.760307,"zip":"0680041"},{"town":"北一条西三丁目","koaza":"","lat":43.206927,"lng":141.761265,"zip":"0680041"},{"town":"北二条西十丁目","koaza":"","lat":43.204677,"lng":141.752559,"zip":"0680042"},{"town":"北二条西十一丁目","koaza":"","lat":43.203821,"lng":141.751864,"zip":"0680042"},{"town":"北二条西十二丁目","koaza":"","lat":43.203294,"lng":141.751048,"zip":"0680042"},{"town":"北二条西十三丁目","koaza":"","lat":43.202838,"lng":141.749774,"zip":"0680042"},{"town":"北二条西十四丁目","koaza":"","lat":43.202254,"lng":141.748802,"zip":"0680042"},{"town":"北二条西十五丁目","koaza":"","lat":43.201849,"lng":141.747884,"zip":"0680042"},{"town":"北二条西十六丁目","koaza":"","lat":43.20138,"lng":141.746978,"zip":"0680042"},{"town":"北二条西十七丁目","koaza":"","lat":43.200911,"lng":141.746139,"zip":"0680042"},{"town":"北二条西十八丁目","koaza":"","lat":43.200509,"lng":141.745294,"zip":"0680042"},{"town":"北二条西十九丁目","koaza":"","lat":43.200065,"lng":141.744443,"zip":"0680042"},{"town":"北二条西二十丁目","koaza":"","lat":43.199515,"lng":141.743547,"zip":"0680042"},{"town":"北二条西二丁目","koaza":"","lat":43.208372,"lng":141.761267,"zip":"0680042"},{"town":"北二条西三丁目","koaza":"","lat":43.20771,"lng":141.759205,"zip":"0680042"},{"town":"北二条西四丁目","koaza":"","lat":43.207524,"lng":141.758098,"zip":"0680042"},{"town":"北二条西五丁目","koaza":"","lat":43.207044,"lng":141.757152,"zip":"0680042"},{"town":"北二条西六丁目","koaza":"","lat":43.206678,"lng":141.756197,"zip":"0680042"},{"town":"北二条西七丁目","koaza":"","lat":43.20614,"lng":141.75529,"zip":"0680042"},{"town":"北二条西八丁目","koaza":"","lat":43.205639,"lng":141.754419,"zip":"0680042"},{"town":"北二条西九丁目","koaza":"","lat":43.205173,"lng":141.753532,"zip":"0680042"},{"town":"北三条西十丁目","koaza":"","lat":43.205825,"lng":141.751461,"zip":"0680043"},{"town":"北三条西十一丁目","koaza":"","lat":43.205435,"lng":141.750241,"zip":"0680043"},{"town":"北三条西十二丁目","koaza":"","lat":43.204894,"lng":141.749466,"zip":"0680043"},{"town":"北三条西十三丁目","koaza":"","lat":43.204433,"lng":141.748302,"zip":"0680043"},{"town":"北三条西十四丁目","koaza":"","lat":43.203714,"lng":141.747404,"zip":"0680043"},{"town":"北三条西十五丁目","koaza":"","lat":43.20329,"lng":141.746517,"zip":"0680043"},{"town":"北三条西十六丁目","koaza":"","lat":43.202789,"lng":141.745629,"zip":"0680043"},{"town":"北三条西十七丁目","koaza":"","lat":43.202312,"lng":141.744723,"zip":"0680043"},{"town":"北三条西十八丁目","koaza":"","lat":43.20183,"lng":141.743823,"zip":"0680043"},{"town":"北三条西十九丁目","koaza":"","lat":43.201431,"lng":141.742803,"zip":"0680043"},{"town":"北三条西二十丁目","koaza":"","lat":43.200948,"lng":141.742018,"zip":"0680043"},{"town":"北三条西三丁目","koaza":"","lat":43.209105,"lng":141.757521,"zip":"0680043"},{"town":"北三条西四丁目","koaza":"","lat":43.208567,"lng":141.756871,"zip":"0680043"},{"town":"北三条西五丁目","koaza":"","lat":43.20801,"lng":141.755837,"zip":"0680043"},{"town":"北三条西六丁目","koaza":"","lat":43.207539,"lng":141.754916,"zip":"0680043"},{"town":"北三条西七丁目","koaza":"","lat":43.207143,"lng":141.754205,"zip":"0680043"},{"town":"北三条西八丁目","koaza":"","lat":43.206836,"lng":141.753274,"zip":"0680043"},{"town":"北三条西九丁目","koaza":"","lat":43.206367,"lng":141.752385,"zip":"0680043"},{"town":"北四条西十丁目","koaza":"","lat":43.207263,"lng":141.750128,"zip":"0680044"},{"town":"北四条西十一丁目","koaza":"","lat":43.2067,"lng":141.748984,"zip":"0680044"},{"town":"北四条西十二丁目","koaza":"","lat":43.206317,"lng":141.747916,"zip":"0680044"},{"town":"北四条西十三丁目","koaza":"","lat":43.205693,"lng":141.747156,"zip":"0680044"},{"town":"北四条西十四丁目","koaza":"","lat":43.20518,"lng":141.746057,"zip":"0680044"},{"town":"北四条西十五丁目","koaza":"","lat":43.204714,"lng":141.745187,"zip":"0680044"},{"town":"北四条西十六丁目","koaza":"","lat":43.204224,"lng":141.744295,"zip":"0680044"},{"town":"北四条西十七丁目","koaza":"","lat":43.203909,"lng":141.743235,"zip":"0680044"},{"town":"北四条西十八丁目","koaza":"","lat":43.203288,"lng":141.742445,"zip":"0680044"},{"town":"北四条西十九丁目","koaza":"","lat":43.202964,"lng":141.741389,"zip":"0680044"},{"town":"北四条西二十丁目","koaza":"","lat":43.202402,"lng":141.740687,"zip":"0680044"},{"town":"北四条西四丁目","koaza":"","lat":43.209438,"lng":141.755763,"zip":"0680044"},{"town":"北四条西五丁目","koaza":"","lat":43.209263,"lng":141.754462,"zip":"0680044"},{"town":"北四条西六丁目","koaza":"","lat":43.209074,"lng":141.753672,"zip":"0680044"},{"town":"北四条西七丁目","koaza":"","lat":43.208717,"lng":141.752925,"zip":"0680044"},{"town":"北四条西八丁目","koaza":"","lat":43.208204,"lng":141.751922,"zip":"0680044"},{"town":"北四条西九丁目","koaza":"","lat":43.207708,"lng":141.751041,"zip":"0680044"},{"town":"北五条西十丁目","koaza":"","lat":43.208999,"lng":141.748294,"zip":"0680045"},{"town":"北五条西十一丁目","koaza":"","lat":43.208293,"lng":141.747353,"zip":"0680045"},{"town":"北五条西十二丁目","koaza":"","lat":43.207737,"lng":141.746312,"zip":"0680045"},{"town":"北五条西十三丁目","koaza":"","lat":43.206987,"lng":141.74578,"zip":"0680045"},{"town":"北五条西十四丁目","koaza":"","lat":43.206483,"lng":141.744864,"zip":"0680045"},{"town":"北五条西十五丁目","koaza":"","lat":43.206056,"lng":141.743953,"zip":"0680045"},{"town":"北五条西十六丁目","koaza":"","lat":43.205542,"lng":141.743154,"zip":"0680045"},{"town":"北五条西十七丁目","koaza":"","lat":43.205121,"lng":141.742067,"zip":"0680045"},{"town":"北五条西十八丁目","koaza":"","lat":43.204582,"lng":141.741207,"zip":"0680045"},{"town":"北五条西十九丁目","koaza":"","lat":43.204123,"lng":141.740075,"zip":"0680045"},{"town":"北五条西二十丁目","koaza":"","lat":43.203715,"lng":141.739206,"zip":"0680045"},{"town":"北五条西六丁目","koaza":"","lat":43.210129,"lng":141.753065,"zip":"0680045"},{"town":"北五条西七丁目","koaza":"","lat":43.209856,"lng":141.751897,"zip":"0680045"},{"town":"北五条西八丁目","koaza":"","lat":43.209616,"lng":141.750275,"zip":"0680045"},{"town":"北五条西九丁目","koaza":"","lat":43.209572,"lng":141.749125,"zip":"0680045"},{"town":"北六条西十六丁目","koaza":"","lat":43.206704,"lng":141.742292,"zip":"0680061"},{"town":"北六条西十七丁目","koaza":"","lat":43.206513,"lng":141.740807,"zip":"0680061"},{"town":"北六条西十八丁目","koaza":"","lat":43.20616,"lng":141.739779,"zip":"0680061"},{"town":"北六条西十九丁目","koaza":"","lat":43.205741,"lng":141.738597,"zip":"0680061"},{"town":"北六条西二十丁目","koaza":"","lat":43.205405,"lng":141.737633,"zip":"0680061"},{"town":"北本町西一丁目","koaza":"","lat":43.209876,"lng":141.760029,"zip":"0680053"},{"town":"北本町西二丁目","koaza":"","lat":43.210088,"lng":141.758462,"zip":"0680053"},{"town":"北本町西三丁目","koaza":"","lat":43.209219,"lng":141.758075,"zip":"0680053"},{"town":"北本町東十丁目","koaza":"","lat":43.215116,"lng":141.769596,"zip":"0680057"},{"town":"北本町東一丁目","koaza":"","lat":43.210213,"lng":141.76161,"zip":"0680057"},{"town":"北本町東二丁目","koaza":"","lat":43.21061,"lng":141.762608,"zip":"0680057"},{"town":"北本町東三丁目","koaza":"","lat":43.211098,"lng":141.763201,"zip":"0680057"},{"town":"北本町東四丁目","koaza":"","lat":43.211845,"lng":141.763794,"zip":"0680057"},{"town":"北本町東五丁目","koaza":"","lat":43.212539,"lng":141.76456,"zip":"0680057"},{"town":"北本町東六丁目","koaza":"","lat":43.213068,"lng":141.765444,"zip":"0680057"},{"town":"北本町東七丁目","koaza":"","lat":43.213386,"lng":141.766632,"zip":"0680057"},{"town":"北本町東八丁目","koaza":"","lat":43.213964,"lng":141.767449,"zip":"0680057"},{"town":"北本町東九丁目","koaza":"","lat":43.214631,"lng":141.767933,"zip":"0680057"},{"town":"北村赤川","koaza":"","lat":43.250716,"lng":141.716186,"zip":"0681213"},{"town":"北村大願","koaza":"","lat":43.279266,"lng":141.732134,"zip":"0681203"},{"town":"北村栄町","koaza":"","lat":43.272888,"lng":141.704075,"zip":"0681204"},{"town":"北村砂浜","koaza":"","lat":43.171595,"lng":141.636994,"zip":"0690351"},{"town":"北村中央","koaza":"","lat":43.248635,"lng":141.679887,"zip":"0681212"},{"town":"北村豊里","koaza":"","lat":43.281696,"lng":141.680924,"zip":"0681205"},{"town":"北村中小屋","koaza":"","lat":43.295663,"lng":141.753809,"zip":"0681202"},{"town":"北村美唄達布","koaza":"","lat":43.226182,"lng":141.688672,"zip":"0681214"},{"town":"北村豊正","koaza":"","lat":43.311301,"lng":141.696904,"zip":"0681201"},{"town":"北村北都","koaza":"","lat":43.264826,"lng":141.670384,"zip":"0681161"},{"town":"北村幌達布","koaza":"","lat":43.20583,"lng":141.668797,"zip":"0681215"},{"town":"栗沢町越前","koaza":"","lat":43.111383,"lng":141.690232,"zip":"0680106"},{"town":"栗沢町上幌","koaza":"","lat":43.142464,"lng":141.823603,"zip":"0680112"},{"town":"栗沢町加茂川","koaza":"","lat":43.101425,"lng":141.76668,"zip":"0680133"},{"town":"栗沢町北幸穂","koaza":"","lat":43.130177,"lng":141.744856,"zip":"0680122"},{"town":"栗沢町北本町","koaza":"","lat":43.123116,"lng":141.742413,"zip":"0680121"},{"town":"栗沢町岐阜","koaza":"","lat":43.09574,"lng":141.709368,"zip":"0680135"},{"town":"栗沢町栗丘","koaza":"","lat":43.088272,"lng":141.763021,"zip":"0680134"},{"town":"栗沢町栗部","koaza":"","lat":43.148819,"lng":141.731278,"zip":"0680102"},{"town":"栗沢町耕成","koaza":"","lat":43.149095,"lng":141.748037,"zip":"0680104"},{"town":"栗沢町小西","koaza":"","lat":43.101843,"lng":141.73007,"zip":"0680131"},{"town":"栗沢町幸穂町","koaza":"","lat":43.117261,"lng":141.745071,"zip":"0680124"},{"town":"栗沢町自協","koaza":"","lat":43.114701,"lng":141.708146,"zip":"0680105"},{"town":"栗沢町砺波","koaza":"","lat":43.135641,"lng":141.728188,"zip":"0680103"},{"town":"栗沢町西本町","koaza":"","lat":43.117829,"lng":141.738536,"zip":"0680126"},{"town":"栗沢町西万字","koaza":"","lat":43.121024,"lng":141.978416,"zip":"0683165"},{"town":"栗沢町東本町","koaza":"","lat":43.121163,"lng":141.745941,"zip":"0680123"},{"town":"栗沢町必成","koaza":"","lat":43.119743,"lng":141.727107,"zip":"0680136"},{"town":"栗沢町北斗","koaza":"","lat":43.134577,"lng":141.680938,"zip":"0680101"},{"town":"栗沢町本町","koaza":"","lat":43.119254,"lng":141.741917,"zip":"0680127"},{"town":"栗沢町万字曙町","koaza":"","lat":43.13832,"lng":141.988458,"zip":"0683154"},{"town":"栗沢町万字旭町","koaza":"","lat":43.123565,"lng":141.990683,"zip":"0683162"},{"town":"栗沢町万字大平","koaza":"","lat":43.149623,"lng":141.970666,"zip":"0683151"},{"town":"栗沢町万字寿町","koaza":"","lat":43.135248,"lng":141.986658,"zip":"0683155"},{"town":"栗沢町万字幸町","koaza":"","lat":43.130707,"lng":142.015112,"zip":"0683152"},{"town":"栗沢町万字巴町","koaza":"","lat":43.144041,"lng":141.979287,"zip":"0683158"},{"town":"栗沢町万字仲町","koaza":"","lat":43.144331,"lng":141.983364,"zip":"0683153"},{"town":"栗沢町万字錦町","koaza":"","lat":43.133171,"lng":141.988907,"zip":"0683164"},{"town":"栗沢町万字西原町","koaza":"","lat":43.13405,"lng":141.993276,"zip":"0683163"},{"town":"栗沢町万字英町","koaza":"","lat":43.139002,"lng":141.984032,"zip":"0683156"},{"town":"栗沢町万字二見町","koaza":"","lat":43.114491,"lng":141.990439,"zip":"0683159"},{"town":"栗沢町万字睦町","koaza":"","lat":43.141359,"lng":141.983121,"zip":"0683157"},{"town":"栗沢町南幸穂","koaza":"","lat":43.113302,"lng":141.743097,"zip":"0680132"},{"town":"栗沢町南本町","koaza":"","lat":43.115685,"lng":141.741278,"zip":"0680125"},{"town":"栗沢町宮村","koaza":"","lat":43.146497,"lng":141.858,"zip":"0683161"},{"town":"栗沢町美流渡楓町","koaza":"","lat":43.124886,"lng":141.941392,"zip":"0683183"},{"town":"栗沢町美流渡栄町","koaza":"","lat":43.158414,"lng":141.91956,"zip":"0683172"},{"town":"栗沢町美流渡桜町","koaza":"","lat":43.150256,"lng":141.922398,"zip":"0683179"},{"town":"栗沢町美流渡末広町","koaza":"","lat":43.165706,"lng":141.908858,"zip":"0683177"},{"town":"栗沢町美流渡東栄町","koaza":"","lat":43.16558,"lng":141.9113,"zip":"0683176"},{"town":"栗沢町美流渡錦町","koaza":"","lat":43.159791,"lng":141.920067,"zip":"0683178"},{"town":"栗沢町美流渡西町","koaza":"","lat":43.140131,"lng":141.892019,"zip":"0683175"},{"town":"栗沢町美流渡東町","koaza":"","lat":43.142297,"lng":141.946333,"zip":"0683180"},{"town":"栗沢町美流渡本町","koaza":"","lat":43.16324,"lng":141.912127,"zip":"0683171"},{"town":"栗沢町美流渡緑町","koaza":"","lat":43.138002,"lng":141.932897,"zip":"0683182"},{"town":"栗沢町美流渡南町","koaza":"","lat":43.152705,"lng":141.919244,"zip":"0683181"},{"town":"栗沢町美流渡吉野町","koaza":"","lat":43.160615,"lng":141.913535,"zip":"0683174"},{"town":"栗沢町美流渡若葉町","koaza":"","lat":43.141847,"lng":141.929419,"zip":"0683173"},{"town":"栗沢町最上","koaza":"","lat":43.116146,"lng":141.768483,"zip":"0680115"},{"town":"栗沢町茂世丑","koaza":"","lat":43.114454,"lng":141.812673,"zip":"0680114"},{"town":"栗沢町由良","koaza":"","lat":43.139743,"lng":141.770364,"zip":"0680111"},{"town":"駒園一丁目","koaza":"","lat":43.186265,"lng":141.765972,"zip":"0680834"},{"town":"駒園二丁目","koaza":"","lat":43.184847,"lng":141.766254,"zip":"0680834"},{"town":"駒園三丁目","koaza":"","lat":43.183953,"lng":141.765946,"zip":"0680834"},{"town":"駒園四丁目","koaza":"","lat":43.183452,"lng":141.765447,"zip":"0680834"},{"town":"駒園五丁目","koaza":"","lat":43.182694,"lng":141.764756,"zip":"0680834"},{"town":"駒園六丁目","koaza":"","lat":43.182058,"lng":141.766319,"zip":"0680834"},{"town":"駒園七丁目","koaza":"","lat":43.179964,"lng":141.765559,"zip":"0680834"},{"town":"駒園八丁目","koaza":"","lat":43.178576,"lng":141.764337,"zip":"0680834"},{"town":"駒園九丁目","koaza":"","lat":43.175993,"lng":141.766194,"zip":"0680834"},{"town":"栄町一丁目","koaza":"","lat":43.218707,"lng":141.79609,"zip":"0680821"},{"town":"栄町二丁目","koaza":"","lat":43.21948,"lng":141.799636,"zip":"0680821"},{"town":"栄町三丁目","koaza":"","lat":43.220696,"lng":141.802984,"zip":"0680821"},{"town":"栄町四丁目","koaza":"","lat":43.222298,"lng":141.808159,"zip":"0680821"},{"town":"栄町五丁目","koaza":"","lat":43.216564,"lng":141.797638,"zip":"0680821"},{"town":"栄町六丁目","koaza":"","lat":43.217617,"lng":141.80077,"zip":"0680821"},{"town":"栄町七丁目","koaza":"","lat":43.218791,"lng":141.804206,"zip":"0680821"},{"town":"栄町八丁目","koaza":"","lat":43.220373,"lng":141.80863,"zip":"0680821"},{"town":"桜木一条一丁目","koaza":"","lat":43.212323,"lng":141.759209,"zip":"0680058"},{"town":"桜木一条二丁目","koaza":"","lat":43.212504,"lng":141.760596,"zip":"0680058"},{"town":"桜木一条三丁目","koaza":"","lat":43.213394,"lng":141.761244,"zip":"0680058"},{"town":"桜木一条四丁目","koaza":"","lat":43.213806,"lng":141.762313,"zip":"0680058"},{"town":"桜木一条五丁目","koaza":"","lat":43.214486,"lng":141.763412,"zip":"0680058"},{"town":"桜木一条六丁目","koaza":"","lat":43.215531,"lng":141.764382,"zip":"0680058"},{"town":"桜木一条七丁目","koaza":"","lat":43.216297,"lng":141.765688,"zip":"0680058"},{"town":"志文町","koaza":"","lat":43.162152,"lng":141.767125,"zip":"0680833"},{"town":"志文本町一条一丁目","koaza":"","lat":43.155474,"lng":141.744544,"zip":"0680841"},{"town":"志文本町一条二丁目","koaza":"","lat":43.15723,"lng":141.744744,"zip":"0680841"},{"town":"志文本町一条三丁目","koaza":"","lat":43.158312,"lng":141.744866,"zip":"0680841"},{"town":"志文本町一条四丁目","koaza":"","lat":43.159911,"lng":141.745077,"zip":"0680841"},{"town":"志文本町一条五丁目","koaza":"","lat":43.162207,"lng":141.745036,"zip":"0680841"},{"town":"志文本町一条六丁目","koaza":"","lat":43.162672,"lng":141.746164,"zip":"0680841"},{"town":"志文本町二条一丁目","koaza":"","lat":43.155522,"lng":141.745524,"zip":"0680842"},{"town":"志文本町二条二丁目","koaza":"","lat":43.157193,"lng":141.745666,"zip":"0680842"},{"town":"志文本町二条三丁目","koaza":"","lat":43.158304,"lng":141.745784,"zip":"0680842"},{"town":"志文本町二条四丁目","koaza":"","lat":43.159682,"lng":141.74595,"zip":"0680842"},{"town":"志文本町二条五丁目","koaza":"","lat":43.161256,"lng":141.745687,"zip":"0680842"},{"town":"志文本町二条六丁目","koaza":"","lat":43.161552,"lng":141.747058,"zip":"0680842"},{"town":"志文本町三条一丁目","koaza":"","lat":43.155685,"lng":141.746333,"zip":"0680843"},{"town":"志文本町三条二丁目","koaza":"","lat":43.157155,"lng":141.746473,"zip":"0680843"},{"town":"志文本町三条三丁目","koaza":"","lat":43.158323,"lng":141.746604,"zip":"0680843"},{"town":"志文本町三条四丁目","koaza":"","lat":43.159492,"lng":141.74681,"zip":"0680843"},{"town":"志文本町三条五丁目","koaza":"","lat":43.160039,"lng":141.747412,"zip":"0680843"},{"town":"志文本町三条六丁目","koaza":"","lat":43.16043,"lng":141.748451,"zip":"0680843"},{"town":"志文本町四条一丁目","koaza":"","lat":43.15543,"lng":141.747061,"zip":"0680844"},{"town":"志文本町四条二丁目","koaza":"","lat":43.156816,"lng":141.747164,"zip":"0680844"},{"town":"志文本町四条三丁目","koaza":"","lat":43.158063,"lng":141.747238,"zip":"0680844"},{"town":"志文本町四条四丁目","koaza":"","lat":43.1586,"lng":141.747725,"zip":"0680844"},{"town":"志文本町四条五丁目","koaza":"","lat":43.159137,"lng":141.749287,"zip":"0680844"},{"town":"志文本町五条一丁目","koaza":"","lat":43.155854,"lng":141.747844,"zip":"0680845"},{"town":"志文本町五条二丁目","koaza":"","lat":43.157299,"lng":141.747838,"zip":"0680845"},{"town":"志文本町五条三丁目","koaza":"","lat":43.155844,"lng":141.748662,"zip":"0680845"},{"town":"志文本町五条四丁目","koaza":"","lat":43.157189,"lng":141.749224,"zip":"0680845"},{"town":"志文本町五条五丁目","koaza":"","lat":43.157962,"lng":141.749968,"zip":"0680845"},{"town":"清水町","koaza":"","lat":43.178066,"lng":141.897372,"zip":"0683186"},{"town":"下志文町","koaza":"","lat":43.157781,"lng":141.733634,"zip":"0680846"},{"town":"総合公園","koaza":"","lat":43.192858,"lng":141.775307,"zip":"0680000"},{"town":"中幌向町","koaza":"","lat":43.157626,"lng":141.678803,"zip":"0690376"},{"town":"並木町","koaza":"","lat":43.190137,"lng":141.768049,"zip":"0680818"},{"town":"奈良町","koaza":"","lat":43.178344,"lng":141.919335,"zip":"0683187"},{"town":"西川町","koaza":"","lat":43.215323,"lng":141.727826,"zip":"0680048"},{"town":"鳩が丘一丁目","koaza":"","lat":43.197177,"lng":141.776726,"zip":"0680828"},{"town":"鳩が丘二丁目","koaza":"","lat":43.19935,"lng":141.77856,"zip":"0680828"},{"town":"鳩が丘三丁目","koaza":"","lat":43.195428,"lng":141.77799,"zip":"0680828"},{"town":"鳩が丘四丁目","koaza":"","lat":43.19628,"lng":141.780706,"zip":"0680828"},{"town":"東町","koaza":"","lat":43.225816,"lng":141.811628,"zip":"0680015"},{"town":"東町一条一丁目","koaza":"","lat":43.212778,"lng":141.773922,"zip":"0680013"},{"town":"東町一条二丁目","koaza":"","lat":43.214707,"lng":141.777058,"zip":"0680013"},{"town":"東町一条三丁目","koaza":"","lat":43.216004,"lng":141.779704,"zip":"0680013"},{"town":"東町一条四丁目","koaza":"","lat":43.218142,"lng":141.78198,"zip":"0680013"},{"town":"東町一条五丁目","koaza":"","lat":43.220846,"lng":141.788907,"zip":"0680013"},{"town":"東町一条六丁目","koaza":"","lat":43.222115,"lng":141.792914,"zip":"0680013"},{"town":"東町一条七丁目","koaza":"","lat":43.221781,"lng":141.797115,"zip":"0680013"},{"town":"東町一条八丁目","koaza":"","lat":43.22284,"lng":141.800485,"zip":"0680013"},{"town":"東町二条一丁目","koaza":"","lat":43.214281,"lng":141.773004,"zip":"0680014"},{"town":"東町二条二丁目","koaza":"","lat":43.216143,"lng":141.775519,"zip":"0680014"},{"town":"東町二条三丁目","koaza":"","lat":43.217321,"lng":141.778368,"zip":"0680014"},{"town":"東町二条四丁目","koaza":"","lat":43.219476,"lng":141.78223,"zip":"0680014"},{"town":"東町二条五丁目","koaza":"","lat":43.222033,"lng":141.787392,"zip":"0680014"},{"town":"東町二条六丁目","koaza":"","lat":43.223901,"lng":141.789741,"zip":"0680014"},{"town":"東町二条七丁目","koaza":"","lat":43.224882,"lng":141.793641,"zip":"0680014"},{"town":"東町二条八丁目","koaza":"","lat":43.225942,"lng":141.797421,"zip":"0680014"},{"town":"東山十丁目","koaza":"","lat":43.196175,"lng":141.786654,"zip":"0680820"},{"town":"東山一丁目","koaza":"","lat":43.193086,"lng":141.78584,"zip":"0680820"},{"town":"東山二丁目","koaza":"","lat":43.192693,"lng":141.783286,"zip":"0680820"},{"town":"東山三丁目","koaza":"","lat":43.191687,"lng":141.781688,"zip":"0680820"},{"town":"東山四丁目","koaza":"","lat":43.1904,"lng":141.783675,"zip":"0680820"},{"town":"東山五丁目","koaza":"","lat":43.190987,"lng":141.786735,"zip":"0680820"},{"town":"東山六丁目","koaza":"","lat":43.19106,"lng":141.790966,"zip":"0680820"},{"town":"東山七丁目","koaza":"","lat":43.193485,"lng":141.792757,"zip":"0680820"},{"town":"東山八丁目","koaza":"","lat":43.192744,"lng":141.789547,"zip":"0680820"},{"town":"東山九丁目","koaza":"","lat":43.196078,"lng":141.789989,"zip":"0680820"},{"town":"東山町","koaza":"","lat":43.188729,"lng":141.804107,"zip":"0680826"},{"town":"日の出北一丁目","koaza":"","lat":43.208816,"lng":141.786636,"zip":"0680824"},{"town":"日の出北二丁目","koaza":"","lat":43.209346,"lng":141.788163,"zip":"0680824"},{"town":"日の出北三丁目","koaza":"","lat":43.20993,"lng":141.789625,"zip":"0680824"},{"town":"日の出北四丁目","koaza":"","lat":43.210367,"lng":141.791239,"zip":"0680824"},{"town":"日の出台十丁目","koaza":"","lat":43.207871,"lng":141.804612,"zip":"0680822"},{"town":"日の出台一丁目","koaza":"","lat":43.211297,"lng":141.792574,"zip":"0680822"},{"town":"日の出台二丁目","koaza":"","lat":43.211857,"lng":141.794293,"zip":"0680822"},{"town":"日の出台三丁目","koaza":"","lat":43.212376,"lng":141.795765,"zip":"0680822"},{"town":"日の出台四丁目","koaza":"","lat":43.212993,"lng":141.806757,"zip":"0680822"},{"town":"日の出台五丁目","koaza":"","lat":43.208761,"lng":141.793496,"zip":"0680822"},{"town":"日の出台六丁目","koaza":"","lat":43.209103,"lng":141.795572,"zip":"0680822"},{"town":"日の出台七丁目","koaza":"","lat":43.209055,"lng":141.797069,"zip":"0680822"},{"town":"日の出台八丁目","koaza":"","lat":43.21108,"lng":141.801545,"zip":"0680822"},{"town":"日の出台九丁目","koaza":"","lat":43.208568,"lng":141.799485,"zip":"0680822"},{"town":"日の出町","koaza":"","lat":43.19563,"lng":141.814363,"zip":"0680825"},{"town":"日の出南一丁目","koaza":"","lat":43.206434,"lng":141.788689,"zip":"0680823"},{"town":"日の出南二丁目","koaza":"","lat":43.206978,"lng":141.791561,"zip":"0680823"},{"town":"日の出南三丁目","koaza":"","lat":43.206796,"lng":141.798859,"zip":"0680823"},{"town":"日の出南四丁目","koaza":"","lat":43.204889,"lng":141.790879,"zip":"0680823"},{"town":"ふじ町一条一丁目","koaza":"","lat":43.168549,"lng":141.756966,"zip":"0680831"},{"town":"ふじ町一条二丁目","koaza":"","lat":43.167468,"lng":141.75535,"zip":"0680831"},{"town":"ふじ町一条三丁目","koaza":"","lat":43.166807,"lng":141.753858,"zip":"0680831"},{"town":"ふじ町一条四丁目","koaza":"","lat":43.166161,"lng":141.752834,"zip":"0680831"},{"town":"ふじ町一条五丁目","koaza":"","lat":43.165478,"lng":141.751346,"zip":"0680831"},{"town":"ふじ町一条六丁目","koaza":"","lat":43.164445,"lng":141.749369,"zip":"0680831"},{"town":"ふじ町一条七丁目","koaza":"","lat":43.163489,"lng":141.747521,"zip":"0680831"},{"town":"ふじ町二条一丁目","koaza":"","lat":43.167042,"lng":141.758001,"zip":"0680832"},{"town":"ふじ町二条二丁目","koaza":"","lat":43.166275,"lng":141.756458,"zip":"0680832"},{"town":"ふじ町二条三丁目","koaza":"","lat":43.165631,"lng":141.755236,"zip":"0680832"},{"town":"ふじ町二条四丁目","koaza":"","lat":43.16497,"lng":141.75395,"zip":"0680832"},{"town":"ふじ町二条五丁目","koaza":"","lat":43.164235,"lng":141.752518,"zip":"0680832"},{"town":"ふじ町二条六丁目","koaza":"","lat":43.163228,"lng":141.750487,"zip":"0680832"},{"town":"ふじ町二条七丁目","koaza":"","lat":43.16231,"lng":141.748591,"zip":"0680832"},{"town":"双葉町","koaza":"","lat":43.156438,"lng":141.698777,"zip":"0690366"},{"town":"宝水町","koaza":"","lat":43.200165,"lng":141.859603,"zip":"0680837"},{"town":"幌向北一条一丁目","koaza":"","lat":43.155105,"lng":141.659296,"zip":"0690381"},{"town":"幌向北一条二丁目","koaza":"","lat":43.153575,"lng":141.656603,"zip":"0690381"},{"town":"幌向北一条三丁目","koaza":"","lat":43.152039,"lng":141.653279,"zip":"0690381"},{"town":"幌向北一条四丁目","koaza":"","lat":43.150625,"lng":141.650406,"zip":"0690381"},{"town":"幌向北一条五丁目","koaza":"","lat":43.149179,"lng":141.648212,"zip":"0690381"},{"town":"幌向北一条六丁目","koaza":"","lat":43.147493,"lng":141.645482,"zip":"0690381"},{"town":"幌向北一条七丁目","koaza":"","lat":43.145623,"lng":141.642635,"zip":"0690381"},{"town":"幌向北二条一丁目","koaza":"","lat":43.157139,"lng":141.657304,"zip":"0690382"},{"town":"幌向北二条二丁目","koaza":"","lat":43.155808,"lng":141.654425,"zip":"0690382"},{"town":"幌向北二条三丁目","koaza":"","lat":43.154317,"lng":141.651538,"zip":"0690382"},{"town":"幌向北二条四丁目","koaza":"","lat":43.15291,"lng":141.648579,"zip":"0690382"},{"town":"幌向北二条五丁目","koaza":"","lat":43.151519,"lng":141.645995,"zip":"0690382"},{"town":"幌向北二条六丁目","koaza":"","lat":43.150042,"lng":141.643069,"zip":"0690382"},{"town":"幌向北二条七丁目","koaza":"","lat":43.147972,"lng":141.641133,"zip":"0690382"},{"town":"幌向町","koaza":"","lat":43.160868,"lng":141.65644,"zip":"0690383"},{"town":"幌向南一条一丁目","koaza":"","lat":43.152729,"lng":141.660419,"zip":"0690371"},{"town":"幌向南一条二丁目","koaza":"","lat":43.151644,"lng":141.657644,"zip":"0690371"},{"town":"幌向南一条三丁目","koaza":"","lat":43.150266,"lng":141.654274,"zip":"0690371"},{"town":"幌向南一条四丁目","koaza":"","lat":43.148789,"lng":141.652662,"zip":"0690371"},{"town":"幌向南一条五丁目","koaza":"","lat":43.146603,"lng":141.649826,"zip":"0690371"},{"town":"幌向南二条一丁目","koaza":"","lat":43.150743,"lng":141.662752,"zip":"0690372"},{"town":"幌向南二条二丁目","koaza":"","lat":43.149425,"lng":141.659683,"zip":"0690372"},{"town":"幌向南二条三丁目","koaza":"","lat":43.148298,"lng":141.657105,"zip":"0690372"},{"town":"幌向南二条四丁目","koaza":"","lat":43.146546,"lng":141.654546,"zip":"0690372"},{"town":"幌向南二条五丁目","koaza":"","lat":43.145366,"lng":141.651802,"zip":"0690372"},{"town":"幌向南三条一丁目","koaza":"","lat":43.148511,"lng":141.66551,"zip":"0690373"},{"town":"幌向南三条二丁目","koaza":"","lat":43.147317,"lng":141.662498,"zip":"0690373"},{"town":"幌向南三条三丁目","koaza":"","lat":43.145597,"lng":141.659641,"zip":"0690373"},{"town":"幌向南三条四丁目","koaza":"","lat":43.144305,"lng":141.656682,"zip":"0690373"},{"town":"幌向南三条五丁目","koaza":"","lat":43.143255,"lng":141.654052,"zip":"0690373"},{"town":"幌向南四条一丁目","koaza":"","lat":43.146452,"lng":141.667436,"zip":"0690374"},{"town":"幌向南四条二丁目","koaza":"","lat":43.144621,"lng":141.664726,"zip":"0690374"},{"town":"幌向南四条三丁目","koaza":"","lat":43.143628,"lng":141.661508,"zip":"0690374"},{"town":"幌向南四条四丁目","koaza":"","lat":43.141174,"lng":141.659292,"zip":"0690374"},{"town":"幌向南五条一丁目","koaza":"","lat":43.143747,"lng":141.669658,"zip":"0690375"},{"town":"美園一条一丁目","koaza":"","lat":43.192143,"lng":141.762967,"zip":"0680811"},{"town":"美園一条二丁目","koaza":"","lat":43.191655,"lng":141.762051,"zip":"0680811"},{"town":"美園一条三丁目","koaza":"","lat":43.191168,"lng":141.761116,"zip":"0680811"},{"town":"美園一条四丁目","koaza":"","lat":43.190712,"lng":141.760216,"zip":"0680811"},{"town":"美園一条五丁目","koaza":"","lat":43.190198,"lng":141.759189,"zip":"0680811"},{"town":"美園一条六丁目","koaza":"","lat":43.189771,"lng":141.758334,"zip":"0680811"},{"town":"美園一条七丁目","koaza":"","lat":43.18915,"lng":141.757425,"zip":"0680811"},{"town":"美園一条八丁目","koaza":"","lat":43.187683,"lng":141.755605,"zip":"0680811"},{"town":"美園二条一丁目","koaza":"","lat":43.191073,"lng":141.763971,"zip":"0680812"},{"town":"美園二条二丁目","koaza":"","lat":43.190511,"lng":141.763251,"zip":"0680812"},{"town":"美園二条三丁目","koaza":"","lat":43.190033,"lng":141.762162,"zip":"0680812"},{"town":"美園二条四丁目","koaza":"","lat":43.189579,"lng":141.761279,"zip":"0680812"},{"town":"美園二条五丁目","koaza":"","lat":43.189114,"lng":141.76036,"zip":"0680812"},{"town":"美園二条六丁目","koaza":"","lat":43.188646,"lng":141.759401,"zip":"0680812"},{"town":"美園二条七丁目","koaza":"","lat":43.187981,"lng":141.758063,"zip":"0680812"},{"town":"美園二条八丁目","koaza":"","lat":43.187003,"lng":141.756157,"zip":"0680812"},{"town":"美園三条一丁目","koaza":"","lat":43.190307,"lng":141.764669,"zip":"0680813"},{"town":"美園三条二丁目","koaza":"","lat":43.189724,"lng":141.763827,"zip":"0680813"},{"town":"美園三条三丁目","koaza":"","lat":43.189243,"lng":141.762886,"zip":"0680813"},{"town":"美園三条四丁目","koaza":"","lat":43.188797,"lng":141.76201,"zip":"0680813"},{"town":"美園三条五丁目","koaza":"","lat":43.188341,"lng":141.761084,"zip":"0680813"},{"town":"美園三条六丁目","koaza":"","lat":43.187873,"lng":141.76014,"zip":"0680813"},{"town":"美園三条七丁目","koaza":"","lat":43.187203,"lng":141.758826,"zip":"0680813"},{"town":"美園三条八丁目","koaza":"","lat":43.186227,"lng":141.75691,"zip":"0680813"},{"town":"美園四条一丁目","koaza":"","lat":43.189341,"lng":141.765484,"zip":"0680814"},{"town":"美園四条二丁目","koaza":"","lat":43.188957,"lng":141.764559,"zip":"0680814"},{"town":"美園四条三丁目","koaza":"","lat":43.188436,"lng":141.763821,"zip":"0680814"},{"town":"美園四条四丁目","koaza":"","lat":43.187977,"lng":141.762787,"zip":"0680814"},{"town":"美園四条五丁目","koaza":"","lat":43.18752,"lng":141.761859,"zip":"0680814"},{"town":"美園四条六丁目","koaza":"","lat":43.18705,"lng":141.760916,"zip":"0680814"},{"town":"美園四条七丁目","koaza":"","lat":43.18638,"lng":141.759605,"zip":"0680814"},{"town":"美園四条八丁目","koaza":"","lat":43.185337,"lng":141.757442,"zip":"0680814"},{"town":"美園五条二丁目","koaza":"","lat":43.188228,"lng":141.765399,"zip":"0680815"},{"town":"美園五条三丁目","koaza":"","lat":43.187327,"lng":141.764824,"zip":"0680815"},{"town":"美園五条四丁目","koaza":"","lat":43.186401,"lng":141.764345,"zip":"0680815"},{"town":"美園五条五丁目","koaza":"","lat":43.186014,"lng":141.76315,"zip":"0680815"},{"town":"美園五条六丁目","koaza":"","lat":43.185491,"lng":141.762398,"zip":"0680815"},{"town":"美園五条七丁目","koaza":"","lat":43.184799,"lng":141.761096,"zip":"0680815"},{"town":"美園五条八丁目","koaza":"","lat":43.183907,"lng":141.759095,"zip":"0680815"},{"town":"美園六条六丁目","koaza":"","lat":43.184101,"lng":141.763759,"zip":"0680816"},{"town":"美園六条七丁目","koaza":"","lat":43.182573,"lng":141.76292,"zip":"0680816"},{"town":"美園六条八丁目","koaza":"","lat":43.181839,"lng":141.761043,"zip":"0680816"},{"town":"美園七条八丁目","koaza":"","lat":43.180142,"lng":141.762148,"zip":"0680817"},{"town":"緑が丘","koaza":"","lat":43.177354,"lng":141.791632,"zip":"0680835"},{"town":"緑が丘一丁目","koaza":"","lat":43.185646,"lng":141.77061,"zip":"0680835"},{"town":"緑が丘二丁目","koaza":"","lat":43.18583,"lng":141.777,"zip":"0680835"},{"town":"緑が丘三丁目","koaza":"","lat":43.182676,"lng":141.777102,"zip":"0680835"},{"town":"緑が丘四丁目","koaza":"","lat":43.18065,"lng":141.773715,"zip":"0680835"},{"town":"緑が丘五丁目","koaza":"","lat":43.180858,"lng":141.769544,"zip":"0680835"},{"town":"緑が丘六丁目","koaza":"","lat":43.176081,"lng":141.769065,"zip":"0680835"},{"town":"緑町一丁目","koaza":"","lat":43.212166,"lng":141.757008,"zip":"0680046"},{"town":"緑町二丁目","koaza":"","lat":43.210824,"lng":141.756184,"zip":"0680046"},{"town":"緑町三丁目","koaza":"","lat":43.212653,"lng":141.753738,"zip":"0680046"},{"town":"緑町四丁目","koaza":"","lat":43.211179,"lng":141.752094,"zip":"0680046"},{"town":"緑町五丁目","koaza":"","lat":43.213262,"lng":141.749548,"zip":"0680046"},{"town":"緑町六丁目","koaza":"","lat":43.211268,"lng":141.747672,"zip":"0680046"},{"town":"緑町七丁目","koaza":"","lat":43.212602,"lng":141.746022,"zip":"0680046"},{"town":"南町","koaza":"","lat":43.180522,"lng":141.751201,"zip":"0680810"},{"town":"南町一条一丁目","koaza":"","lat":43.186472,"lng":141.753142,"zip":"0680801"},{"town":"南町一条二丁目","koaza":"","lat":43.185693,"lng":141.751171,"zip":"0680801"},{"town":"南町二条一丁目","koaza":"","lat":43.185986,"lng":141.754097,"zip":"0680802"},{"town":"南町二条二丁目","koaza":"","lat":43.185366,"lng":141.752124,"zip":"0680802"},{"town":"南町三条一丁目","koaza":"","lat":43.185073,"lng":141.75497,"zip":"0680803"},{"town":"南町三条二丁目","koaza":"","lat":43.184247,"lng":141.753073,"zip":"0680803"},{"town":"南町四条一丁目","koaza":"","lat":43.184241,"lng":141.755776,"zip":"0680804"},{"town":"南町四条二丁目","koaza":"","lat":43.183349,"lng":141.753938,"zip":"0680804"},{"town":"南町五条一丁目","koaza":"","lat":43.182865,"lng":141.757096,"zip":"0680805"},{"town":"南町五条二丁目","koaza":"","lat":43.181951,"lng":141.75527,"zip":"0680805"},{"town":"南町六条一丁目","koaza":"","lat":43.180813,"lng":141.759105,"zip":"0680806"},{"town":"南町六条二丁目","koaza":"","lat":43.179917,"lng":141.757197,"zip":"0680806"},{"town":"南町七条一丁目","koaza":"","lat":43.178825,"lng":141.761074,"zip":"0680807"},{"town":"南町七条二丁目","koaza":"","lat":43.17788,"lng":141.759094,"zip":"0680807"},{"town":"南町七条三丁目","koaza":"","lat":43.176905,"lng":141.757162,"zip":"0680807"},{"town":"南町七条四丁目","koaza":"","lat":43.175941,"lng":141.755118,"zip":"0680807"},{"town":"南町七条五丁目","koaza":"","lat":43.1749,"lng":141.753548,"zip":"0680807"},{"town":"南町八条一丁目","koaza":"","lat":43.177122,"lng":141.763538,"zip":"0680808"},{"town":"南町八条二丁目","koaza":"","lat":43.176323,"lng":141.760518,"zip":"0680808"},{"town":"南町八条三丁目","koaza":"","lat":43.174351,"lng":141.759516,"zip":"0680808"},{"town":"南町八条四丁目","koaza":"","lat":43.173857,"lng":141.757095,"zip":"0680808"},{"town":"南町八条五丁目","koaza":"","lat":43.173003,"lng":141.75536,"zip":"0680808"},{"town":"南町九条一丁目","koaza":"","lat":43.174925,"lng":141.76522,"zip":"0680809"},{"town":"南町九条二丁目","koaza":"","lat":43.174934,"lng":141.762584,"zip":"0680809"},{"town":"南町九条三丁目","koaza":"","lat":43.172683,"lng":141.761225,"zip":"0680809"},{"town":"南町九条四丁目","koaza":"","lat":43.171783,"lng":141.759093,"zip":"0680809"},{"town":"南町九条五丁目","koaza":"","lat":43.17091,"lng":141.757324,"zip":"0680809"},{"town":"峰延町","koaza":"","lat":43.272876,"lng":141.787157,"zip":"0790182"},{"town":"稔町","koaza":"","lat":43.236138,"lng":141.759227,"zip":"0680016"},{"town":"毛陽町","koaza":"","lat":43.175575,"lng":141.967826,"zip":"0683188"},{"town":"元町一条西一丁目","koaza":"","lat":43.206725,"lng":141.763314,"zip":"0680051"},{"town":"元町一条西二丁目","koaza":"","lat":43.206721,"lng":141.762298,"zip":"0680051"},{"town":"元町一条東一丁目","koaza":"","lat":43.207221,"lng":141.76405,"zip":"0680054"},{"town":"元町一条東二丁目","koaza":"","lat":43.207645,"lng":141.765108,"zip":"0680054"},{"town":"元町一条東三丁目","koaza":"","lat":43.208174,"lng":141.76602,"zip":"0680054"},{"town":"元町一条東四丁目","koaza":"","lat":43.208784,"lng":141.767017,"zip":"0680054"},{"town":"元町一条東五丁目","koaza":"","lat":43.209158,"lng":141.768155,"zip":"0680054"},{"town":"元町一条東六丁目","koaza":"","lat":43.209865,"lng":141.76901,"zip":"0680054"},{"town":"元町一条東七丁目","koaza":"","lat":43.210798,"lng":141.769965,"zip":"0680054"},{"town":"元町一条東八丁目","koaza":"","lat":43.211101,"lng":141.771675,"zip":"0680054"},{"town":"元町一条東九丁目","koaza":"","lat":43.211553,"lng":141.772575,"zip":"0680054"},{"town":"元町二条西一丁目","koaza":"","lat":43.207941,"lng":141.762516,"zip":"0680052"},{"town":"元町二条西二丁目","koaza":"","lat":43.207539,"lng":141.76203,"zip":"0680052"},{"town":"元町二条東一丁目","koaza":"","lat":43.208083,"lng":141.76315,"zip":"0680055"},{"town":"元町二条東二丁目","koaza":"","lat":43.208424,"lng":141.763914,"zip":"0680055"},{"town":"元町二条東三丁目","koaza":"","lat":43.208993,"lng":141.765242,"zip":"0680055"},{"town":"元町二条東四丁目","koaza":"","lat":43.210566,"lng":141.767136,"zip":"0680055"},{"town":"元町二条東五丁目","koaza":"","lat":43.20996,"lng":141.767646,"zip":"0680055"},{"town":"元町二条東六丁目","koaza":"","lat":43.210793,"lng":141.768102,"zip":"0680055"},{"town":"元町二条東七丁目","koaza":"","lat":43.211734,"lng":141.768962,"zip":"0680055"},{"town":"元町二条東八丁目","koaza":"","lat":43.212381,"lng":141.770403,"zip":"0680055"},{"town":"元町二条東九丁目","koaza":"","lat":43.213096,"lng":141.770983,"zip":"0680055"},{"town":"元町三条東四丁目","koaza":"","lat":43.2103,"lng":141.765901,"zip":"0680056"},{"town":"元町三条東五丁目","koaza":"","lat":43.211374,"lng":141.766302,"zip":"0680056"},{"town":"大和一条一丁目","koaza":"","lat":43.197486,"lng":141.747684,"zip":"0680851"},{"town":"大和一条二丁目","koaza":"","lat":43.195078,"lng":141.745584,"zip":"0680851"},{"town":"大和一条三丁目","koaza":"","lat":43.19428,"lng":141.744195,"zip":"0680851"},{"town":"大和一条四丁目","koaza":"","lat":43.193717,"lng":141.742888,"zip":"0680851"},{"town":"大和一条五丁目","koaza":"","lat":43.192828,"lng":141.741348,"zip":"0680851"},{"town":"大和一条六丁目","koaza":"","lat":43.191936,"lng":141.739758,"zip":"0680851"},{"town":"大和一条七丁目","koaza":"","lat":43.191167,"lng":141.738153,"zip":"0680851"},{"town":"大和一条八丁目","koaza":"","lat":43.190136,"lng":141.735698,"zip":"0680851"},{"town":"大和一条九丁目","koaza":"","lat":43.189015,"lng":141.732343,"zip":"0680851"},{"town":"大和二条二丁目","koaza":"","lat":43.193163,"lng":141.747451,"zip":"0680852"},{"town":"大和二条三丁目","koaza":"","lat":43.192101,"lng":141.745879,"zip":"0680852"},{"town":"大和二条四丁目","koaza":"","lat":43.191286,"lng":141.744664,"zip":"0680852"},{"town":"大和二条五丁目","koaza":"","lat":43.190608,"lng":141.74318,"zip":"0680852"},{"town":"大和二条六丁目","koaza":"","lat":43.189813,"lng":141.741661,"zip":"0680852"},{"town":"大和二条七丁目","koaza":"","lat":43.189093,"lng":141.740222,"zip":"0680852"},{"town":"大和二条八丁目","koaza":"","lat":43.188183,"lng":141.738096,"zip":"0680852"},{"town":"大和二条九丁目","koaza":"","lat":43.186317,"lng":141.734092,"zip":"0680852"},{"town":"大和三条三丁目","koaza":"","lat":43.190848,"lng":141.747345,"zip":"0680853"},{"town":"大和三条四丁目","koaza":"","lat":43.1899,"lng":141.746159,"zip":"0680853"},{"town":"大和三条五丁目","koaza":"","lat":43.189072,"lng":141.744651,"zip":"0680853"},{"town":"大和三条六丁目","koaza":"","lat":43.188301,"lng":141.743038,"zip":"0680853"},{"town":"大和三条七丁目","koaza":"","lat":43.187163,"lng":141.741475,"zip":"0680853"},{"town":"大和三条八丁目","koaza":"","lat":43.186922,"lng":141.739702,"zip":"0680853"},{"town":"大和三条九丁目","koaza":"","lat":43.186053,"lng":141.738349,"zip":"0680853"},{"town":"大和四条四丁目","koaza":"","lat":43.188624,"lng":141.746954,"zip":"0680854"},{"town":"大和四条五丁目","koaza":"","lat":43.1877,"lng":141.745796,"zip":"0680854"},{"town":"大和四条六丁目","koaza":"","lat":43.187176,"lng":141.744154,"zip":"0680854"},{"town":"大和四条七丁目","koaza":"","lat":43.185304,"lng":141.74498,"zip":"0680854"},{"town":"大和四条八丁目","koaza":"","lat":43.183705,"lng":141.741587,"zip":"0680854"},{"town":"大和町","koaza":"","lat":43.181375,"lng":141.742346,"zip":"0680855"},{"town":"若駒一丁目","koaza":"","lat":43.19915,"lng":141.796647,"zip":"0680830"},{"town":"若駒二丁目","koaza":"","lat":43.198407,"lng":141.794241,"zip":"0680830"},{"town":"若駒三丁目","koaza":"","lat":43.197934,"lng":141.792073,"zip":"0680830"},{"town":"若松町","koaza":"","lat":43.20002,"lng":141.735086,"zip":"0680047"}]