[{"town":"字植原","koaza":"","lat":42.736365,"lng":140.201508,"zip":"0480600"},{"town":"字歌島","koaza":"","lat":42.784822,"lng":140.156029,"zip":"0480600"},{"town":"字江ノ島","koaza":"","lat":42.670551,"lng":140.035017,"zip":"0480600"},{"town":"字大平","koaza":"","lat":42.708843,"lng":140.082905,"zip":"0480600"},{"town":"字小川","koaza":"","lat":42.729716,"lng":140.12587,"zip":"0480600"},{"town":"字折川","koaza":"","lat":42.717836,"lng":140.153544,"zip":"0480600"},{"town":"字軽臼岱","koaza":"","lat":42.717307,"lng":140.098933,"zip":"0480600"},{"town":"字賀老","koaza":"","lat":42.628947,"lng":140.024972,"zip":"0480600"},{"town":"字栄磯","koaza":"","lat":42.730177,"lng":140.10546,"zip":"0480600"},{"town":"字栄浜","koaza":"","lat":42.677555,"lng":139.915168,"zip":"0480600"},{"town":"字千走","koaza":"","lat":42.66704,"lng":140.010844,"zip":"0480600"},{"town":"字泊","koaza":"","lat":42.686439,"lng":140.07303,"zip":"0480600"},{"town":"字冨浦","koaza":"","lat":42.791285,"lng":140.163621,"zip":"0480600"},{"town":"字豊岡","koaza":"","lat":42.771154,"lng":140.169533,"zip":"0480600"},{"town":"字豊浜","koaza":"","lat":42.729208,"lng":140.080583,"zip":"0480600"},{"town":"字豊平","koaza":"","lat":42.676282,"lng":140.06034,"zip":"0480600"},{"town":"字永豊町","koaza":"","lat":42.701562,"lng":140.077898,"zip":"0480600"},{"town":"字原歌町","koaza":"","lat":42.683036,"lng":139.981847,"zip":"0480600"},{"town":"字本目","koaza":"","lat":42.746914,"lng":140.132827,"zip":"0480600"},{"town":"字美川","koaza":"","lat":42.756954,"lng":140.166337,"zip":"0480600"},{"town":"字港","koaza":"","lat":42.742573,"lng":140.115895,"zip":"0480600"},{"town":"字持田","koaza":"","lat":42.641888,"lng":139.855158,"zip":"0480600"},{"town":"字元町","koaza":"","lat":42.675485,"lng":139.993557,"zip":"0480600"}]