[{"town":"字アトサヌプリ原野","koaza":"","lat":43.610507,"lng":144.456936,"zip":"0883200"},{"town":"字跡佐登","koaza":"","lat":43.663094,"lng":144.427295,"zip":"0883200"},{"town":"字跡佐登原野","koaza":"","lat":43.634685,"lng":144.466923,"zip":"0883200"},{"town":"字奥オソツベツ原野","koaza":"","lat":43.408241,"lng":144.396731,"zip":"0883200"},{"town":"字奥春別","koaza":"","lat":43.487166,"lng":144.378847,"zip":"0883200"},{"town":"字奥春別原野","koaza":"","lat":43.450913,"lng":144.414732,"zip":"0883200"},{"town":"字屈斜路","koaza":"","lat":43.571153,"lng":144.308898,"zip":"0883200"},{"town":"字屈斜路原野","koaza":"","lat":43.547685,"lng":144.340035,"zip":"0883200"},{"town":"字熊牛原野","koaza":"","lat":43.437181,"lng":144.507605,"zip":"0883200"},{"town":"字札友内","koaza":"","lat":43.526881,"lng":144.399769,"zip":"0883200"},{"town":"字サワンチサップ","koaza":"","lat":43.645743,"lng":144.40583,"zip":"0883200"},{"town":"字サンペコタン","koaza":"","lat":43.459343,"lng":144.47924,"zip":"0883200"},{"town":"字弟子屈","koaza":"","lat":43.490098,"lng":144.535675,"zip":"0883200"},{"town":"字弟子屈原野","koaza":"","lat":43.51076,"lng":144.471952,"zip":"0883200"},{"town":"字鐺別原野","koaza":"","lat":43.480474,"lng":144.416792,"zip":"0883200"},{"town":"朝日一丁目","koaza":"","lat":43.485899,"lng":144.466835,"zip":"0883204"},{"town":"朝日二丁目","koaza":"","lat":43.488532,"lng":144.463342,"zip":"0883204"},{"town":"朝日三丁目","koaza":"","lat":43.488974,"lng":144.471328,"zip":"0883204"},{"town":"朝日四丁目","koaza":"","lat":43.480304,"lng":144.476632,"zip":"0883204"},{"town":"字美留和","koaza":"","lat":43.556113,"lng":144.41893,"zip":"0883200"},{"town":"泉一丁目","koaza":"","lat":43.482032,"lng":144.460717,"zip":"0883212"},{"town":"泉二丁目","koaza":"","lat":43.479221,"lng":144.462366,"zip":"0883212"},{"town":"泉三丁目","koaza":"","lat":43.481462,"lng":144.467972,"zip":"0883212"},{"town":"泉四丁目","koaza":"","lat":43.475196,"lng":144.466551,"zip":"0883212"},{"town":"泉五丁目","koaza":"","lat":43.476619,"lng":144.470929,"zip":"0883212"},{"town":"川湯駅前一丁目","koaza":"","lat":43.615764,"lng":144.456503,"zip":"0883462"},{"town":"川湯駅前二丁目","koaza":"","lat":43.618007,"lng":144.457202,"zip":"0883462"},{"town":"川湯駅前三丁目","koaza":"","lat":43.616137,"lng":144.453701,"zip":"0883462"},{"town":"川湯温泉一丁目","koaza":"","lat":43.63699,"lng":144.438398,"zip":"0883465"},{"town":"川湯温泉二丁目","koaza":"","lat":43.637861,"lng":144.434467,"zip":"0883465"},{"town":"川湯温泉三丁目","koaza":"","lat":43.639503,"lng":144.437009,"zip":"0883465"},{"town":"川湯温泉四丁目","koaza":"","lat":43.642953,"lng":144.444956,"zip":"0883465"},{"town":"川湯温泉五丁目","koaza":"","lat":43.638383,"lng":144.44536,"zip":"0883465"},{"town":"川湯温泉六丁目","koaza":"","lat":43.635638,"lng":144.448617,"zip":"0883465"},{"town":"川湯温泉七丁目","koaza":"","lat":43.638993,"lng":144.451539,"zip":"0883465"},{"town":"字屈斜路市街","koaza":"","lat":43.564557,"lng":144.342158,"zip":"0883200"},{"town":"高栄一丁目","koaza":"","lat":43.486011,"lng":144.45306,"zip":"0883214"},{"town":"高栄二丁目","koaza":"","lat":43.483294,"lng":144.453874,"zip":"0883214"},{"town":"高栄三丁目","koaza":"","lat":43.482761,"lng":144.447265,"zip":"0883214"},{"town":"高栄四丁目","koaza":"","lat":43.480831,"lng":144.443144,"zip":"0883214"},{"town":"桜丘一丁目","koaza":"","lat":43.480524,"lng":144.455818,"zip":"0883213"},{"town":"桜丘二丁目","koaza":"","lat":43.474968,"lng":144.448891,"zip":"0883213"},{"town":"桜丘三丁目","koaza":"","lat":43.475321,"lng":144.445389,"zip":"0883213"},{"town":"鈴蘭一丁目","koaza":"","lat":43.490884,"lng":144.456874,"zip":"0883202"},{"town":"鈴蘭二丁目","koaza":"","lat":43.491758,"lng":144.452385,"zip":"0883202"},{"town":"鈴蘭三丁目","koaza":"","lat":43.494388,"lng":144.452653,"zip":"0883202"},{"town":"鈴蘭四丁目","koaza":"","lat":43.493806,"lng":144.455796,"zip":"0883202"},{"town":"鈴蘭五丁目","koaza":"","lat":43.494936,"lng":144.459636,"zip":"0883202"},{"town":"鈴蘭六丁目","koaza":"","lat":43.491468,"lng":144.461219,"zip":"0883202"},{"town":"中央一丁目","koaza":"","lat":43.486804,"lng":144.457474,"zip":"0883211"},{"town":"中央二丁目","koaza":"","lat":43.484609,"lng":144.459474,"zip":"0883211"},{"town":"中央三丁目","koaza":"","lat":43.484778,"lng":144.464614,"zip":"0883211"},{"town":"摩周一丁目","koaza":"","lat":43.497889,"lng":144.453272,"zip":"0883201"},{"town":"摩周二丁目","koaza":"","lat":43.499124,"lng":144.457036,"zip":"0883201"},{"town":"摩周三丁目","koaza":"","lat":43.505296,"lng":144.45202,"zip":"0883201"},{"town":"摩周四丁目","koaza":"","lat":43.503622,"lng":144.449422,"zip":"0883201"},{"town":"美里一丁目","koaza":"","lat":43.486943,"lng":144.448453,"zip":"0883215"},{"town":"美里二丁目","koaza":"","lat":43.485489,"lng":144.444214,"zip":"0883215"},{"town":"美里四丁目","koaza":"","lat":43.48928,"lng":144.445518,"zip":"0883215"},{"town":"美里五丁目","koaza":"","lat":43.487945,"lng":144.44214,"zip":"0883215"},{"town":"美里六丁目","koaza":"","lat":43.489912,"lng":144.438599,"zip":"0883215"},{"town":"湯の島一丁目","koaza":"","lat":43.488751,"lng":144.455882,"zip":"0883203"},{"town":"湯の島二丁目","koaza":"","lat":43.487536,"lng":144.452357,"zip":"0883203"},{"town":"湯の島三丁目","koaza":"","lat":43.491031,"lng":144.44902,"zip":"0883203"},{"town":"字鐺別","koaza":"","lat":43.459707,"lng":144.443994,"zip":"0883200"},{"town":"美里三丁目","koaza":"","lat":43.482993,"lng":144.438909,"zip":"0883215"}]