[{"town":"字阿歴内","koaza":"","lat":43.117955,"lng":144.630061,"zip":"0882300"},{"town":"字阿歴内原野","koaza":"","lat":43.093732,"lng":144.631885,"zip":"0882300"},{"town":"字ウライヤ","koaza":"","lat":43.155967,"lng":144.502237,"zip":"0882300"},{"town":"字オソツベツ","koaza":"","lat":43.353125,"lng":144.474504,"zip":"0882300"},{"town":"字オソツベツ原野","koaza":"","lat":43.198862,"lng":144.479256,"zip":"0882300"},{"town":"字オモチャリ","koaza":"","lat":43.294764,"lng":144.613884,"zip":"0882300"},{"town":"字上オソツベツ原野","koaza":"","lat":43.369519,"lng":144.419615,"zip":"0882300"},{"town":"字上多和","koaza":"","lat":43.391118,"lng":144.619237,"zip":"0882300"},{"town":"字上チャンベツ原野","koaza":"","lat":43.270622,"lng":144.651591,"zip":"0882300"},{"town":"字クチヨロ","koaza":"","lat":43.297095,"lng":144.390723,"zip":"0882300"},{"town":"字クチヨロ原野","koaza":"","lat":43.289563,"lng":144.429475,"zip":"0882300"},{"town":"字熊牛原野","koaza":"","lat":43.395589,"lng":144.567905,"zip":"0882300"},{"town":"字コッタロ","koaza":"","lat":43.236247,"lng":144.45131,"zip":"0882300"},{"town":"字コッタロ原野","koaza":"","lat":43.20209,"lng":144.508079,"zip":"0882300"},{"town":"字コムケップ","koaza":"","lat":43.280925,"lng":144.609365,"zip":"0882300"},{"town":"字栄","koaza":"","lat":43.333456,"lng":144.557414,"zip":"0882300"},{"town":"字サルボ","koaza":"","lat":43.167095,"lng":144.490393,"zip":"0882300"},{"town":"字シアンベツ","koaza":"","lat":43.476254,"lng":144.677521,"zip":"0882300"},{"town":"字標茶","koaza":"","lat":43.441327,"lng":144.611162,"zip":"0882300"},{"town":"字下チャンベツ","koaza":"","lat":43.193626,"lng":144.721527,"zip":"0882300"},{"town":"字シラルトロエトロ","koaza":"","lat":43.211234,"lng":144.545174,"zip":"0882300"},{"town":"字シロンド","koaza":"","lat":43.266084,"lng":144.569925,"zip":"0882300"},{"town":"字多和","koaza":"","lat":43.340095,"lng":144.608992,"zip":"0882300"},{"town":"字チャンベツ","koaza":"","lat":43.191125,"lng":144.756561,"zip":"0882300"},{"town":"字チャンベツ原野","koaza":"","lat":43.249244,"lng":144.635901,"zip":"0882300"},{"town":"字弟子屈","koaza":"","lat":43.483818,"lng":144.587718,"zip":"0882300"},{"town":"字塘路","koaza":"","lat":43.148277,"lng":144.505975,"zip":"0882300"},{"town":"字塘路原野","koaza":"","lat":43.155452,"lng":144.575415,"zip":"0882300"},{"town":"字中オソツベツ","koaza":"","lat":43.308929,"lng":144.507412,"zip":"0882300"},{"town":"字中オソツベツ原野","koaza":"","lat":43.315953,"lng":144.462748,"zip":"0882300"},{"town":"字中久著呂","koaza":"","lat":43.280262,"lng":144.376126,"zip":"0882300"},{"town":"字中久著呂市街地","koaza":"","lat":43.282346,"lng":144.374536,"zip":"0882300"},{"town":"字中久著呂市街地中通","koaza":"","lat":43.281775,"lng":144.373959,"zip":"0882300"},{"town":"字中久著呂市街地本通","koaza":"","lat":43.282194,"lng":144.372881,"zip":"0882300"},{"town":"字中チャンベツ","koaza":"","lat":43.193809,"lng":144.677739,"zip":"0882300"},{"town":"字中チャンベツ原野","koaza":"","lat":43.222656,"lng":144.704405,"zip":"0882300"},{"town":"字西熊牛原野","koaza":"","lat":43.365436,"lng":144.518544,"zip":"0882300"},{"town":"字西標茶","koaza":"","lat":43.316638,"lng":144.571559,"zip":"0882300"},{"town":"字虹別","koaza":"","lat":43.473937,"lng":144.645845,"zip":"0882300"},{"town":"字虹別原野","koaza":"","lat":43.499389,"lng":144.664125,"zip":"0882300"},{"town":"字虹別市街","koaza":"","lat":43.465595,"lng":144.672313,"zip":"0882300"},{"town":"字虹別市街一丁目","koaza":"","lat":43.465072,"lng":144.672246,"zip":"0882300"},{"town":"字虹別市街二丁目","koaza":"","lat":43.465281,"lng":144.674165,"zip":"0882300"},{"town":"字虹別市街三丁目","koaza":"","lat":43.465338,"lng":144.675059,"zip":"0882300"},{"town":"字虹別市街四丁目","koaza":"","lat":43.465675,"lng":144.676645,"zip":"0882300"},{"town":"字虹別市街五丁目","koaza":"","lat":43.466382,"lng":144.677408,"zip":"0882300"},{"town":"字ヌッパシュナイ","koaza":"","lat":43.395652,"lng":144.505979,"zip":"0882300"},{"town":"字ヌマオロ","koaza":"","lat":43.237393,"lng":144.477024,"zip":"0882300"},{"town":"字ヌマオロ原野","koaza":"","lat":43.342947,"lng":144.38542,"zip":"0882300"},{"town":"旭一丁目","koaza":"","lat":43.29987,"lng":144.608148,"zip":"0882301"},{"town":"旭二丁目","koaza":"","lat":43.300415,"lng":144.605713,"zip":"0882301"},{"town":"旭三丁目","koaza":"","lat":43.303748,"lng":144.60996,"zip":"0882301"},{"town":"旭四丁目","koaza":"","lat":43.303954,"lng":144.608317,"zip":"0882301"},{"town":"旭五丁目","koaza":"","lat":43.309751,"lng":144.612934,"zip":"0882301"},{"town":"旭六丁目","koaza":"","lat":43.309864,"lng":144.610854,"zip":"0882301"},{"town":"麻生十丁目","koaza":"","lat":43.288168,"lng":144.603339,"zip":"0882305"},{"town":"麻生一丁目","koaza":"","lat":43.295622,"lng":144.607922,"zip":"0882305"},{"town":"麻生二丁目","koaza":"","lat":43.293589,"lng":144.607196,"zip":"0882305"},{"town":"麻生三丁目","koaza":"","lat":43.294748,"lng":144.608991,"zip":"0882305"},{"town":"麻生四丁目","koaza":"","lat":43.291281,"lng":144.608393,"zip":"0882305"},{"town":"麻生五丁目","koaza":"","lat":43.290854,"lng":144.606326,"zip":"0882305"},{"town":"麻生六丁目","koaza":"","lat":43.287557,"lng":144.606734,"zip":"0882305"},{"town":"麻生七丁目","koaza":"","lat":43.289355,"lng":144.605836,"zip":"0882305"},{"town":"麻生八丁目","koaza":"","lat":43.288206,"lng":144.605179,"zip":"0882305"},{"town":"麻生九丁目","koaza":"","lat":43.286677,"lng":144.604328,"zip":"0882305"},{"town":"字マサコノヤシマ","koaza":"","lat":43.155809,"lng":144.504584,"zip":"0882300"},{"town":"字雷別","koaza":"","lat":43.209173,"lng":144.641255,"zip":"0882300"},{"town":"字ルルラン","koaza":"","lat":43.282742,"lng":144.595083,"zip":"0882300"},{"town":"開運十丁目","koaza":"","lat":43.291972,"lng":144.591839,"zip":"0882311"},{"town":"開運一丁目","koaza":"","lat":43.296588,"lng":144.600249,"zip":"0882311"},{"town":"開運二丁目","koaza":"","lat":43.299359,"lng":144.599252,"zip":"0882311"},{"town":"開運三丁目","koaza":"","lat":43.297322,"lng":144.598521,"zip":"0882311"},{"town":"開運四丁目","koaza":"","lat":43.299798,"lng":144.597666,"zip":"0882311"},{"town":"開運五丁目","koaza":"","lat":43.297511,"lng":144.597224,"zip":"0882311"},{"town":"開運六丁目","koaza":"","lat":43.300088,"lng":144.595977,"zip":"0882311"},{"town":"開運七丁目","koaza":"","lat":43.297332,"lng":144.595444,"zip":"0882311"},{"town":"開運八丁目","koaza":"","lat":43.298419,"lng":144.593699,"zip":"0882311"},{"town":"開運九丁目","koaza":"","lat":43.296823,"lng":144.588085,"zip":"0882311"},{"town":"川上十丁目","koaza":"","lat":43.304363,"lng":144.593847,"zip":"0882312"},{"town":"川上一丁目","koaza":"","lat":43.302599,"lng":144.603712,"zip":"0882312"},{"town":"川上二丁目","koaza":"","lat":43.300951,"lng":144.600015,"zip":"0882312"},{"town":"川上三丁目","koaza":"","lat":43.301904,"lng":144.60044,"zip":"0882312"},{"town":"川上四丁目","koaza":"","lat":43.303282,"lng":144.601046,"zip":"0882312"},{"town":"川上五丁目","koaza":"","lat":43.303836,"lng":144.598799,"zip":"0882312"},{"town":"川上六丁目","koaza":"","lat":43.302371,"lng":144.59904,"zip":"0882312"},{"town":"川上七丁目","koaza":"","lat":43.301305,"lng":144.598582,"zip":"0882312"},{"town":"川上八丁目","koaza":"","lat":43.30156,"lng":144.597025,"zip":"0882312"},{"town":"川上九丁目","koaza":"","lat":43.302781,"lng":144.597402,"zip":"0882312"},{"town":"桜十丁目","koaza":"","lat":43.293286,"lng":144.601781,"zip":"0882303"},{"town":"桜十一丁目","koaza":"","lat":43.292615,"lng":144.600444,"zip":"0882303"},{"town":"桜十二丁目","koaza":"","lat":43.291964,"lng":144.599479,"zip":"0882303"},{"town":"桜十三丁目","koaza":"","lat":43.290743,"lng":144.598261,"zip":"0882303"},{"town":"桜十四丁目","koaza":"","lat":43.292411,"lng":144.597512,"zip":"0882303"},{"town":"桜一丁目","koaza":"","lat":43.29617,"lng":144.606996,"zip":"0882303"},{"town":"桜二丁目","koaza":"","lat":43.295908,"lng":144.605383,"zip":"0882303"},{"town":"桜三丁目","koaza":"","lat":43.295245,"lng":144.605849,"zip":"0882303"},{"town":"桜四丁目","koaza":"","lat":43.294305,"lng":144.6057,"zip":"0882303"},{"town":"桜五丁目","koaza":"","lat":43.292834,"lng":144.604539,"zip":"0882303"},{"town":"桜六丁目","koaza":"","lat":43.291557,"lng":144.604208,"zip":"0882303"},{"town":"桜七丁目","koaza":"","lat":43.290795,"lng":144.602969,"zip":"0882303"},{"town":"桜八丁目","koaza":"","lat":43.289408,"lng":144.601201,"zip":"0882303"},{"town":"桜九丁目","koaza":"","lat":43.294252,"lng":144.603556,"zip":"0882303"},{"town":"常盤十丁目","koaza":"","lat":43.311394,"lng":144.599862,"zip":"0882313"},{"town":"常盤一丁目","koaza":"","lat":43.305351,"lng":144.606115,"zip":"0882313"},{"town":"常盤二丁目","koaza":"","lat":43.307472,"lng":144.606668,"zip":"0882313"},{"town":"常盤三丁目","koaza":"","lat":43.309268,"lng":144.606455,"zip":"0882313"},{"town":"常盤四丁目","koaza":"","lat":43.311032,"lng":144.606227,"zip":"0882313"},{"town":"常盤五丁目","koaza":"","lat":43.31393,"lng":144.605951,"zip":"0882313"},{"town":"常盤六丁目","koaza":"","lat":43.309666,"lng":144.602876,"zip":"0882313"},{"town":"常盤七丁目","koaza":"","lat":43.307652,"lng":144.603096,"zip":"0882313"},{"town":"常盤八丁目","koaza":"","lat":43.305506,"lng":144.601991,"zip":"0882313"},{"town":"常盤九丁目","koaza":"","lat":43.305657,"lng":144.599411,"zip":"0882313"},{"town":"富士一丁目","koaza":"","lat":43.297649,"lng":144.607246,"zip":"0882302"},{"town":"富士二丁目","koaza":"","lat":43.297862,"lng":144.605963,"zip":"0882302"},{"town":"富士三丁目","koaza":"","lat":43.298618,"lng":144.605446,"zip":"0882302"},{"town":"富士四丁目","koaza":"","lat":43.298533,"lng":144.604038,"zip":"0882302"},{"town":"富士五丁目","koaza":"","lat":43.296557,"lng":144.603932,"zip":"0882302"},{"town":"平和一丁目","koaza":"","lat":43.297892,"lng":144.608934,"zip":"0882304"},{"town":"平和二丁目","koaza":"","lat":43.300066,"lng":144.609879,"zip":"0882304"},{"town":"平和三丁目","koaza":"","lat":43.302619,"lng":144.61101,"zip":"0882304"},{"town":"平和四丁目","koaza":"","lat":43.305909,"lng":144.612459,"zip":"0882304"},{"town":"平和五丁目","koaza":"","lat":43.305805,"lng":144.616945,"zip":"0882304"},{"town":"平和六丁目","koaza":"","lat":43.303558,"lng":144.615871,"zip":"0882304"},{"town":"平和七丁目","koaza":"","lat":43.301861,"lng":144.615046,"zip":"0882304"},{"town":"平和八丁目","koaza":"","lat":43.299612,"lng":144.613599,"zip":"0882304"},{"town":"平和九丁目","koaza":"","lat":43.297052,"lng":144.611251,"zip":"0882304"}]