[{"town":"字秋田","koaza":"","lat":43.728017,"lng":143.603451,"zip":"0991100"},{"town":"字安住","koaza":"","lat":43.658206,"lng":143.526822,"zip":"0991100"},{"town":"字雄勝","koaza":"","lat":43.751886,"lng":143.647602,"zip":"0991100"},{"town":"字置戸","koaza":"","lat":43.680531,"lng":143.604078,"zip":"0991100"},{"town":"字春日","koaza":"","lat":43.594674,"lng":143.503396,"zip":"0991100"},{"town":"字勝山","koaza":"","lat":43.629126,"lng":143.517122,"zip":"0991100"},{"town":"字川南","koaza":"","lat":43.692303,"lng":143.656314,"zip":"0991100"},{"town":"字境野","koaza":"","lat":43.720619,"lng":143.655121,"zip":"0991100"},{"town":"字幸岡","koaza":"","lat":43.749303,"lng":143.623846,"zip":"0991100"},{"town":"字拓殖","koaza":"","lat":43.646258,"lng":143.555467,"zip":"0991100"},{"town":"字常元","koaza":"","lat":43.626698,"lng":143.453326,"zip":"0991100"},{"town":"字常盤","koaza":"","lat":43.676185,"lng":143.658955,"zip":"0991100"},{"town":"字豊住","koaza":"","lat":43.710844,"lng":143.628938,"zip":"0991100"},{"town":"字中里","koaza":"","lat":43.668152,"lng":143.543927,"zip":"0991100"},{"town":"字北光","koaza":"","lat":43.701857,"lng":143.599666,"zip":"0991100"}]