[{"town":"字大谷","koaza":"","lat":43.705849,"lng":143.782392,"zip":"0991400"},{"town":"字開盛","koaza":"","lat":43.68841,"lng":143.717685,"zip":"0991400"},{"town":"字柏丘","koaza":"","lat":43.749644,"lng":143.759373,"zip":"0991400"},{"town":"字協成","koaza":"","lat":43.696617,"lng":143.733435,"zip":"0991400"},{"town":"字清住","koaza":"","lat":43.716334,"lng":143.711712,"zip":"0991400"},{"town":"字駒里","koaza":"","lat":43.759368,"lng":143.684665,"zip":"0991400"},{"town":"字高園","koaza":"","lat":43.744861,"lng":143.724915,"zip":"0991400"},{"town":"字常盤","koaza":"","lat":43.675011,"lng":143.694163,"zip":"0991400"},{"town":"字豊坂","koaza":"","lat":43.700398,"lng":143.687071,"zip":"0991400"},{"town":"字西富","koaza":"","lat":43.720893,"lng":143.690745,"zip":"0991400"},{"town":"字日出","koaza":"","lat":43.745496,"lng":143.790713,"zip":"0991400"},{"town":"旭町","koaza":"","lat":43.724005,"lng":143.739991,"zip":"0991432"},{"town":"字福野","koaza":"","lat":43.770971,"lng":143.770012,"zip":"0991400"},{"town":"字北栄","koaza":"","lat":43.733629,"lng":143.687598,"zip":"0991400"},{"town":"字穂波","koaza":"","lat":43.731949,"lng":143.764602,"zip":"0991400"},{"town":"字実郷","koaza":"","lat":43.72044,"lng":143.756195,"zip":"0991400"},{"town":"字美園","koaza":"","lat":43.641891,"lng":143.652983,"zip":"0991400"},{"town":"字緑丘","koaza":"","lat":43.69929,"lng":143.758459,"zip":"0991400"},{"town":"字弥生","koaza":"","lat":43.76395,"lng":143.725756,"zip":"0991400"},{"town":"大町","koaza":"","lat":43.727913,"lng":143.736058,"zip":"0991436"},{"town":"栄町","koaza":"","lat":43.724112,"lng":143.735377,"zip":"0991434"},{"town":"末広町","koaza":"","lat":43.717516,"lng":143.737754,"zip":"0991417"},{"town":"仲町","koaza":"","lat":43.723989,"lng":143.737592,"zip":"0991433"},{"town":"西幸町","koaza":"","lat":43.730909,"lng":143.735779,"zip":"0991423"},{"town":"東幸町","koaza":"","lat":43.732058,"lng":143.742189,"zip":"0991403"},{"town":"東町","koaza":"","lat":43.7251,"lng":143.744621,"zip":"0991431"},{"town":"元町","koaza":"","lat":43.728097,"lng":143.739534,"zip":"0991437"},{"town":"若富町","koaza":"","lat":43.725161,"lng":143.73065,"zip":"0991435"},{"town":"若葉町","koaza":"","lat":43.730211,"lng":143.730006,"zip":"0991425"}]