[{"town":"一条通","koaza":"","lat":42.489955,"lng":143.27524,"zip":"0892141"},{"town":"二条通","koaza":"","lat":42.490823,"lng":143.27607,"zip":"0892142"},{"town":"三条通","koaza":"","lat":42.492371,"lng":143.276763,"zip":"0892143"},{"town":"暁町","koaza":"","lat":42.48926,"lng":143.28261,"zip":"0892145"},{"town":"字相川","koaza":"","lat":42.533336,"lng":143.086951,"zip":"0892100"},{"town":"字旭浜","koaza":"","lat":42.433915,"lng":143.396932,"zip":"0892100"},{"town":"字石坂","koaza":"","lat":42.448352,"lng":143.318685,"zip":"0892100"},{"town":"字尾田","koaza":"","lat":42.54772,"lng":143.1943,"zip":"0892100"},{"town":"字開進","koaza":"","lat":42.425085,"lng":143.002566,"zip":"0892100"},{"town":"字光地園","koaza":"","lat":42.491338,"lng":143.173058,"zip":"0892100"},{"town":"字幸徳","koaza":"","lat":42.481085,"lng":143.008486,"zip":"0892100"},{"town":"字下大樹","koaza":"","lat":42.499041,"lng":143.301335,"zip":"0892100"},{"town":"字生花","koaza":"","lat":42.613151,"lng":143.4299,"zip":"0892100"},{"town":"字大樹","koaza":"","lat":42.522541,"lng":143.249073,"zip":"0892100"},{"town":"字大全","koaza":"","lat":42.519302,"lng":143.212094,"zip":"0892100"},{"town":"字拓進","koaza":"","lat":42.544701,"lng":142.930377,"zip":"0892100"},{"town":"字中島","koaza":"","lat":42.442156,"lng":143.371737,"zip":"0892100"},{"town":"字浜大樹","koaza":"","lat":42.493813,"lng":143.441784,"zip":"0892100"},{"town":"字晩成","koaza":"","lat":42.546225,"lng":143.463847,"zip":"0892100"},{"town":"字日方","koaza":"","lat":42.471432,"lng":143.312415,"zip":"0892100"},{"town":"字美成","koaza":"","lat":42.500963,"lng":143.410939,"zip":"0892100"},{"town":"字振別","koaza":"","lat":42.490278,"lng":143.238706,"zip":"0892100"},{"town":"字芽武","koaza":"","lat":42.477424,"lng":143.370126,"zip":"0892100"},{"town":"字萠和","koaza":"","lat":42.517591,"lng":143.326117,"zip":"0892100"},{"town":"鏡町","koaza":"","lat":42.483151,"lng":143.276105,"zip":"0892147"},{"town":"柏木町","koaza":"","lat":42.500599,"lng":143.277423,"zip":"0892138"},{"town":"北通","koaza":"","lat":42.498624,"lng":143.276155,"zip":"0892137"},{"town":"高校通","koaza":"","lat":42.495259,"lng":143.270351,"zip":"0892151"},{"town":"寿通一丁目","koaza":"","lat":42.489239,"lng":143.275096,"zip":"0892146"},{"town":"寿通二丁目","koaza":"","lat":42.487998,"lng":143.276802,"zip":"0892146"},{"town":"寿通三丁目","koaza":"","lat":42.487175,"lng":143.278751,"zip":"0892146"},{"town":"寿通四丁目","koaza":"","lat":42.485481,"lng":143.279923,"zip":"0892146"},{"town":"寿通五丁目","koaza":"","lat":42.483944,"lng":143.281354,"zip":"0892146"},{"town":"幸町","koaza":"","lat":42.486411,"lng":143.265289,"zip":"0892154"},{"town":"栄通","koaza":"","lat":42.490796,"lng":143.278526,"zip":"0892140"},{"town":"新通一丁目","koaza":"","lat":42.497602,"lng":143.276204,"zip":"0892136"},{"town":"新通二丁目","koaza":"","lat":42.498183,"lng":143.274737,"zip":"0892136"},{"town":"新通三丁目","koaza":"","lat":42.498614,"lng":143.27359,"zip":"0892136"},{"town":"新通四丁目","koaza":"","lat":42.49809,"lng":143.270998,"zip":"0892136"},{"town":"仲通","koaza":"","lat":42.494164,"lng":143.279079,"zip":"0892133"},{"town":"西本通","koaza":"","lat":42.488823,"lng":143.272822,"zip":"0892152"},{"town":"東本通","koaza":"","lat":42.497428,"lng":143.279203,"zip":"0892134"},{"town":"双葉町","koaza":"","lat":42.496364,"lng":143.282693,"zip":"0892132"},{"town":"松山町","koaza":"","lat":42.494927,"lng":143.28663,"zip":"0892131"},{"town":"緑町","koaza":"","lat":42.491905,"lng":143.268384,"zip":"0892155"},{"town":"南通一丁目","koaza":"","lat":42.495656,"lng":143.274902,"zip":"0892135"},{"town":"南通二丁目","koaza":"","lat":42.496106,"lng":143.273513,"zip":"0892135"},{"town":"南通三丁目","koaza":"","lat":42.496585,"lng":143.272207,"zip":"0892135"}]