[{"town":"相生町","koaza":"","lat":42.880707,"lng":141.586875,"zip":"0611448"},{"town":"有明町一丁目","koaza":"","lat":42.888886,"lng":141.57097,"zip":"0611431"},{"town":"有明町二丁目","koaza":"","lat":42.890646,"lng":141.57308,"zip":"0611431"},{"town":"有明町三丁目","koaza":"","lat":42.891878,"lng":141.57511,"zip":"0611431"},{"town":"有明町四丁目","koaza":"","lat":42.889578,"lng":141.577013,"zip":"0611431"},{"town":"有明町五丁目","koaza":"","lat":42.888415,"lng":141.574785,"zip":"0611431"},{"town":"有明町六丁目","koaza":"","lat":42.886399,"lng":141.573234,"zip":"0611431"},{"town":"漁太","koaza":"","lat":42.941575,"lng":141.63541,"zip":"0611401"},{"town":"漁町","koaza":"","lat":42.879454,"lng":141.573873,"zip":"0611414"},{"town":"泉町","koaza":"","lat":42.87814,"lng":141.578085,"zip":"0611415"},{"town":"恵南","koaza":"","lat":42.857507,"lng":141.583424,"zip":"0611411"},{"town":"大町一丁目","koaza":"","lat":42.888567,"lng":141.568173,"zip":"0611424"},{"town":"大町二丁目","koaza":"","lat":42.887042,"lng":141.568926,"zip":"0611424"},{"town":"大町三丁目","koaza":"","lat":42.885706,"lng":141.569754,"zip":"0611424"},{"town":"大町四丁目","koaza":"","lat":42.884218,"lng":141.57056,"zip":"0611424"},{"town":"柏木町一丁目","koaza":"","lat":42.893308,"lng":141.559035,"zip":"0611423"},{"town":"柏木町二丁目","koaza":"","lat":42.894879,"lng":141.561828,"zip":"0611423"},{"town":"柏木町三丁目","koaza":"","lat":42.893763,"lng":141.563578,"zip":"0611423"},{"town":"春日","koaza":"","lat":42.923612,"lng":141.629166,"zip":"0611402"},{"town":"上山口","koaza":"","lat":42.895097,"lng":141.610072,"zip":"0611404"},{"town":"北柏木町一丁目","koaza":"","lat":42.903238,"lng":141.560285,"zip":"0611433"},{"town":"北柏木町二丁目","koaza":"","lat":42.901352,"lng":141.563323,"zip":"0611433"},{"town":"北柏木町三丁目","koaza":"","lat":42.89732,"lng":141.553853,"zip":"0611433"},{"town":"北柏木町四丁目","koaza":"","lat":42.904115,"lng":141.557086,"zip":"0611433"},{"town":"北柏木町五丁目","koaza":"","lat":42.907605,"lng":141.5537,"zip":"0611433"},{"town":"北島","koaza":"","lat":42.973995,"lng":141.608263,"zip":"0611366"},{"town":"京町","koaza":"","lat":42.881624,"lng":141.577974,"zip":"0611444"},{"town":"恵央町","koaza":"","lat":42.893339,"lng":141.571325,"zip":"0611432"},{"town":"黄金北一丁目","koaza":"","lat":42.890622,"lng":141.583022,"zip":"0611407"},{"town":"黄金北二丁目","koaza":"","lat":42.887107,"lng":141.584066,"zip":"0611407"},{"town":"黄金北三丁目","koaza":"","lat":42.889875,"lng":141.58634,"zip":"0611407"},{"town":"黄金北四丁目","koaza":"","lat":42.893274,"lng":141.588853,"zip":"0611407"},{"town":"黄金中央一丁目","koaza":"","lat":42.884877,"lng":141.58628,"zip":"0611449"},{"town":"黄金中央二丁目","koaza":"","lat":42.883744,"lng":141.588892,"zip":"0611449"},{"town":"黄金中央三丁目","koaza":"","lat":42.887159,"lng":141.591347,"zip":"0611449"},{"town":"黄金中央四丁目","koaza":"","lat":42.888216,"lng":141.588909,"zip":"0611449"},{"town":"黄金中央五丁目","koaza":"","lat":42.890935,"lng":141.592595,"zip":"0611449"},{"town":"黄金南一丁目","koaza":"","lat":42.880044,"lng":141.593407,"zip":"0611409"},{"town":"黄金南二丁目","koaza":"","lat":42.884472,"lng":141.592994,"zip":"0611409"},{"town":"黄金南三丁目","koaza":"","lat":42.883217,"lng":141.596636,"zip":"0611409"},{"town":"黄金南四丁目","koaza":"","lat":42.886192,"lng":141.598653,"zip":"0611409"},{"town":"黄金南五丁目","koaza":"","lat":42.887518,"lng":141.595177,"zip":"0611409"},{"town":"黄金南六丁目","koaza":"","lat":42.890446,"lng":141.597195,"zip":"0611409"},{"town":"黄金南七丁目","koaza":"","lat":42.889202,"lng":141.600707,"zip":"0611409"},{"town":"駒場町一丁目","koaza":"","lat":42.874306,"lng":141.580981,"zip":"0611417"},{"town":"駒場町二丁目","koaza":"","lat":42.872617,"lng":141.580422,"zip":"0611417"},{"town":"駒場町三丁目","koaza":"","lat":42.871402,"lng":141.578924,"zip":"0611417"},{"town":"駒場町四丁目","koaza":"","lat":42.867021,"lng":141.578373,"zip":"0611417"},{"town":"駒場町五丁目","koaza":"","lat":42.870131,"lng":141.583748,"zip":"0611417"},{"town":"駒場町六丁目","koaza":"","lat":42.871212,"lng":141.585298,"zip":"0611417"},{"town":"幸町一丁目","koaza":"","lat":42.886795,"lng":141.55966,"zip":"0611426"},{"town":"幸町二丁目","koaza":"","lat":42.885212,"lng":141.561251,"zip":"0611426"},{"town":"幸町三丁目","koaza":"","lat":42.882813,"lng":141.562339,"zip":"0611426"},{"town":"幸町四丁目","koaza":"","lat":42.881567,"lng":141.557742,"zip":"0611426"},{"town":"栄恵町","koaza":"","lat":42.879772,"lng":141.580277,"zip":"0611443"},{"town":"桜町一丁目","koaza":"","lat":42.876985,"lng":141.575726,"zip":"0611416"},{"town":"桜町二丁目","koaza":"","lat":42.875459,"lng":141.575068,"zip":"0611416"},{"town":"桜町三丁目","koaza":"","lat":42.873864,"lng":141.577698,"zip":"0611416"},{"town":"桜町四丁目","koaza":"","lat":42.87348,"lng":141.575253,"zip":"0611416"},{"town":"桜森","koaza":"","lat":42.884204,"lng":141.483736,"zip":"0611363"},{"town":"島松旭町一丁目","koaza":"","lat":42.922933,"lng":141.581636,"zip":"0611354"},{"town":"島松旭町二丁目","koaza":"","lat":42.924623,"lng":141.583608,"zip":"0611354"},{"town":"島松旭町三丁目","koaza":"","lat":42.922879,"lng":141.585493,"zip":"0611354"},{"town":"島松旭町四丁目","koaza":"","lat":42.921499,"lng":141.582716,"zip":"0611354"},{"town":"島松寿町一丁目","koaza":"","lat":42.920411,"lng":141.571493,"zip":"0611355"},{"town":"島松寿町二丁目","koaza":"","lat":42.914946,"lng":141.569691,"zip":"0611355"},{"town":"島松沢","koaza":"","lat":42.912946,"lng":141.510776,"zip":"0611363"},{"town":"島松仲町一丁目","koaza":"","lat":42.920576,"lng":141.575387,"zip":"0611352"},{"town":"島松仲町二丁目","koaza":"","lat":42.918716,"lng":141.575081,"zip":"0611352"},{"town":"島松仲町三丁目","koaza":"","lat":42.916307,"lng":141.574322,"zip":"0611352"},{"town":"島松東町一丁目","koaza":"","lat":42.920249,"lng":141.580501,"zip":"0611351"},{"town":"島松東町二丁目","koaza":"","lat":42.918501,"lng":141.580464,"zip":"0611351"},{"town":"島松東町三丁目","koaza":"","lat":42.917908,"lng":141.577827,"zip":"0611351"},{"town":"島松東町四丁目","koaza":"","lat":42.915208,"lng":141.575501,"zip":"0611351"},{"town":"島松本町一丁目","koaza":"","lat":42.922078,"lng":141.57535,"zip":"0611353"},{"town":"島松本町二丁目","koaza":"","lat":42.923583,"lng":141.576087,"zip":"0611353"},{"town":"島松本町三丁目","koaza":"","lat":42.925195,"lng":141.576931,"zip":"0611353"},{"town":"島松本町四丁目","koaza":"","lat":42.926624,"lng":141.57808,"zip":"0611353"},{"town":"下島松","koaza":"","lat":42.94076,"lng":141.581807,"zip":"0611364"},{"town":"白樺町一丁目","koaza":"","lat":42.866259,"lng":141.567138,"zip":"0611412"},{"town":"白樺町二丁目","koaza":"","lat":42.869596,"lng":141.575004,"zip":"0611412"},{"town":"白樺町三丁目","koaza":"","lat":42.865197,"lng":141.569249,"zip":"0611412"},{"town":"白樺町四丁目","koaza":"","lat":42.863328,"lng":141.571745,"zip":"0611412"},{"town":"新町","koaza":"","lat":42.88325,"lng":141.576134,"zip":"0611445"},{"town":"末広町","koaza":"","lat":42.881849,"lng":141.580755,"zip":"0611446"},{"town":"住吉町一丁目","koaza":"","lat":42.875718,"lng":141.582159,"zip":"0611441"},{"town":"住吉町二丁目","koaza":"","lat":42.876283,"lng":141.58385,"zip":"0611441"},{"town":"住吉町三丁目","koaza":"","lat":42.876591,"lng":141.585998,"zip":"0611441"},{"town":"住吉町四丁目","koaza":"","lat":42.877581,"lng":141.587275,"zip":"0611441"},{"town":"中央","koaza":"","lat":42.90964,"lng":141.623622,"zip":"0611403"},{"town":"戸磯","koaza":"","lat":42.873988,"lng":141.606348,"zip":"0611405"},{"town":"中島町一丁目","koaza":"","lat":42.892534,"lng":141.578342,"zip":"0611435"},{"town":"中島町二丁目","koaza":"","lat":42.891414,"lng":141.580558,"zip":"0611435"},{"town":"中島町三丁目","koaza":"","lat":42.89534,"lng":141.584329,"zip":"0611435"},{"town":"中島町四丁目","koaza":"","lat":42.895167,"lng":141.578479,"zip":"0611435"},{"town":"中島町五丁目","koaza":"","lat":42.896971,"lng":141.579138,"zip":"0611435"},{"town":"中島町六丁目","koaza":"","lat":42.898515,"lng":141.57747,"zip":"0611435"},{"town":"中島松","koaza":"","lat":42.93066,"lng":141.602829,"zip":"0611362"},{"town":"西島松","koaza":"","lat":42.915102,"lng":141.555368,"zip":"0611356"},{"town":"柏陽町一丁目","koaza":"","lat":42.899793,"lng":141.571324,"zip":"0611434"},{"town":"柏陽町三丁目","koaza":"","lat":42.898152,"lng":141.567018,"zip":"0611434"},{"town":"柏陽町四丁目","koaza":"","lat":42.896621,"lng":141.572876,"zip":"0611434"},{"town":"林田","koaza":"","lat":42.954185,"lng":141.623138,"zip":"0611361"},{"town":"盤尻","koaza":"","lat":42.844498,"lng":141.416141,"zip":"0611422"},{"town":"福住町一丁目","koaza":"","lat":42.886474,"lng":141.577552,"zip":"0611447"},{"town":"福住町二丁目","koaza":"","lat":42.884773,"lng":141.579339,"zip":"0611447"},{"town":"福住町三丁目","koaza":"","lat":42.885493,"lng":141.582221,"zip":"0611447"},{"town":"文京町一丁目","koaza":"","lat":42.887627,"lng":141.564385,"zip":"0611425"},{"town":"文京町二丁目","koaza":"","lat":42.886016,"lng":141.565219,"zip":"0611425"},{"town":"文京町三丁目","koaza":"","lat":42.884508,"lng":141.565837,"zip":"0611425"},{"town":"文京町四丁目","koaza":"","lat":42.882136,"lng":141.565834,"zip":"0611425"},{"town":"穂栄","koaza":"","lat":42.953752,"lng":141.602475,"zip":"0611365"},{"town":"牧場","koaza":"","lat":42.871914,"lng":141.559193,"zip":"0611421"},{"town":"美咲野一丁目","koaza":"","lat":42.880881,"lng":141.568331,"zip":"0611427"},{"town":"美咲野二丁目","koaza":"","lat":42.878179,"lng":141.566181,"zip":"0611427"},{"town":"美咲野三丁目","koaza":"","lat":42.877781,"lng":141.569534,"zip":"0611427"},{"town":"美咲野四丁目","koaza":"","lat":42.876479,"lng":141.56686,"zip":"0611427"},{"town":"美咲野五丁目","koaza":"","lat":42.875992,"lng":141.570447,"zip":"0611427"},{"town":"美咲野六丁目","koaza":"","lat":42.874408,"lng":141.571743,"zip":"0611427"},{"town":"緑町一丁目","koaza":"","lat":42.880982,"lng":141.583,"zip":"0611442"},{"town":"緑町二丁目","koaza":"","lat":42.87926,"lng":141.583718,"zip":"0611442"},{"town":"南島松","koaza":"","lat":42.909811,"lng":141.601432,"zip":"0611375"},{"town":"恵み野北一丁目","koaza":"","lat":42.909992,"lng":141.580427,"zip":"0611374"},{"town":"恵み野北二丁目","koaza":"","lat":42.908925,"lng":141.583496,"zip":"0611374"},{"town":"恵み野北三丁目","koaza":"","lat":42.907564,"lng":141.587263,"zip":"0611374"},{"town":"恵み野北四丁目","koaza":"","lat":42.909457,"lng":141.591716,"zip":"0611374"},{"town":"恵み野北五丁目","koaza":"","lat":42.910583,"lng":141.588612,"zip":"0611374"},{"town":"恵み野北六丁目","koaza":"","lat":42.911446,"lng":141.58359,"zip":"0611374"},{"town":"恵み野北七丁目","koaza":"","lat":42.912962,"lng":141.584707,"zip":"0611374"},{"town":"恵み野里美一丁目","koaza":"","lat":42.902769,"lng":141.57306,"zip":"0611376"},{"town":"恵み野里美二丁目","koaza":"","lat":42.90486,"lng":141.569588,"zip":"0611376"},{"town":"恵み野西一丁目","koaza":"","lat":42.904143,"lng":141.577678,"zip":"0611373"},{"town":"恵み野西二丁目","koaza":"","lat":42.901164,"lng":141.576529,"zip":"0611373"},{"town":"恵み野西三丁目","koaza":"","lat":42.900459,"lng":141.579835,"zip":"0611373"},{"town":"恵み野西四丁目","koaza":"","lat":42.90303,"lng":141.581627,"zip":"0611373"},{"town":"恵み野西五丁目","koaza":"","lat":42.905452,"lng":141.584506,"zip":"0611373"},{"town":"恵み野西六丁目","koaza":"","lat":42.906879,"lng":141.579633,"zip":"0611373"},{"town":"恵み野東一丁目","koaza":"","lat":42.90573,"lng":141.589716,"zip":"0611371"},{"town":"恵み野東二丁目","koaza":"","lat":42.90522,"lng":141.592213,"zip":"0611371"},{"town":"恵み野東三丁目","koaza":"","lat":42.902602,"lng":141.591791,"zip":"0611371"},{"town":"恵み野東四丁目","koaza":"","lat":42.904272,"lng":141.594889,"zip":"0611371"},{"town":"恵み野東五丁目","koaza":"","lat":42.90676,"lng":141.598602,"zip":"0611371"},{"town":"恵み野東六丁目","koaza":"","lat":42.907674,"lng":141.596662,"zip":"0611371"},{"town":"恵み野東七丁目","koaza":"","lat":42.908474,"lng":141.594494,"zip":"0611371"},{"town":"恵み野南一丁目","koaza":"","lat":42.89859,"lng":141.582885,"zip":"0611372"},{"town":"恵み野南二丁目","koaza":"","lat":42.900261,"lng":141.583941,"zip":"0611372"},{"town":"恵み野南三丁目","koaza":"","lat":42.900901,"lng":141.588975,"zip":"0611372"},{"town":"恵み野南四丁目","koaza":"","lat":42.903199,"lng":141.586577,"zip":"0611372"},{"town":"本町","koaza":"","lat":42.882151,"lng":141.57294,"zip":"0611413"},{"town":"和光町一丁目","koaza":"","lat":42.872518,"lng":141.588247,"zip":"0611406"},{"town":"和光町二丁目","koaza":"","lat":42.874534,"lng":141.590069,"zip":"0611406"},{"town":"和光町三丁目","koaza":"","lat":42.876339,"lng":141.592157,"zip":"0611406"},{"town":"和光町四丁目","koaza":"","lat":42.874367,"lng":141.594841,"zip":"0611406"},{"town":"和光町五丁目","koaza":"","lat":42.871544,"lng":141.59555,"zip":"0611406"},{"town":"柏木町","koaza":"","lat":42.88596,"lng":141.548273,"zip":"0611423"},{"town":"柏木町五丁目","koaza":"","lat":42.891298,"lng":141.566868,"zip":"0611423"},{"town":"柏木町四丁目","koaza":"","lat":42.890388,"lng":141.564102,"zip":"0611423"},{"town":"恵み野南五丁目","koaza":"","lat":42.899994,"lng":141.590339,"zip":"0611372"}]