[{"town":"字旭","koaza":"","lat":43.875959,"lng":144.530914,"zip":"0993600"},{"town":"字泉","koaza":"","lat":43.831193,"lng":144.492548,"zip":"0993600"},{"town":"字神浦","koaza":"","lat":43.839684,"lng":144.407799,"zip":"0993600"},{"town":"字上徳","koaza":"","lat":43.792283,"lng":144.434042,"zip":"0993600"},{"town":"字萱野","koaza":"","lat":43.855458,"lng":144.494772,"zip":"0993600"},{"town":"字共和","koaza":"","lat":43.840601,"lng":144.443811,"zip":"0993600"},{"town":"字小清水","koaza":"","lat":43.853167,"lng":144.470966,"zip":"0993600"},{"town":"字倉栄","koaza":"","lat":43.904201,"lng":144.435812,"zip":"0993600"},{"town":"字中里","koaza":"","lat":43.879159,"lng":144.489143,"zip":"0993600"},{"town":"字浜小清水","koaza":"","lat":43.93125,"lng":144.451644,"zip":"0993600"},{"town":"字東野","koaza":"","lat":43.849626,"lng":144.533345,"zip":"0993600"},{"town":"字北斗","koaza":"","lat":43.909468,"lng":144.488955,"zip":"0993600"},{"town":"字水上","koaza":"","lat":43.788021,"lng":144.492475,"zip":"0993600"},{"town":"字美和","koaza":"","lat":43.872785,"lng":144.451683,"zip":"0993600"},{"town":"字もこと山","koaza":"","lat":43.740139,"lng":144.431536,"zip":"0993600"},{"town":"字止別","koaza":"","lat":43.907892,"lng":144.530384,"zip":"0993600"},{"town":"元町一丁目","koaza":"","lat":43.859376,"lng":144.47216,"zip":"0993641"},{"town":"元町二丁目","koaza":"","lat":43.859637,"lng":144.45559,"zip":"0993641"}]