[{"town":"青葉町","koaza":"","lat":43.903122,"lng":144.660449,"zip":"0994117"},{"town":"字以久科北","koaza":"","lat":43.903467,"lng":144.702723,"zip":"0994100"},{"town":"字以久科南","koaza":"","lat":43.873093,"lng":144.703861,"zip":"0994100"},{"town":"字川上","koaza":"","lat":43.869893,"lng":144.633558,"zip":"0994100"},{"town":"字越川","koaza":"","lat":43.837439,"lng":144.810771,"zip":"0994100"},{"town":"字朱円","koaza":"","lat":43.904926,"lng":144.753514,"zip":"0994100"},{"town":"字朱円西","koaza":"","lat":43.905705,"lng":144.732721,"zip":"0994100"},{"town":"字朱円東","koaza":"","lat":43.876056,"lng":144.830945,"zip":"0994100"},{"town":"字大栄","koaza":"","lat":43.901021,"lng":144.576663,"zip":"0994100"},{"town":"字豊倉","koaza":"","lat":43.888641,"lng":144.670432,"zip":"0994100"},{"town":"字豊里","koaza":"","lat":43.801263,"lng":144.701911,"zip":"0994100"},{"town":"字中斜里","koaza":"","lat":43.869543,"lng":144.659556,"zip":"0994100"},{"town":"字日の出","koaza":"","lat":43.928071,"lng":144.86724,"zip":"0994100"},{"town":"朝日町","koaza":"","lat":43.91191,"lng":144.678049,"zip":"0994114"},{"town":"字富士","koaza":"","lat":43.813844,"lng":144.77831,"zip":"0994100"},{"town":"字真鯉","koaza":"","lat":43.977433,"lng":144.932959,"zip":"0994100"},{"town":"字美咲","koaza":"","lat":43.900776,"lng":144.619461,"zip":"0994100"},{"town":"字三井","koaza":"","lat":43.852542,"lng":144.688844,"zip":"0994100"},{"town":"字峰浜","koaza":"","lat":43.910548,"lng":144.835971,"zip":"0994100"},{"town":"字来運","koaza":"","lat":43.827987,"lng":144.658526,"zip":"0994100"},{"town":"ウトロ香川","koaza":"","lat":44.064691,"lng":145.00908,"zip":"0994351"},{"town":"ウトロ高原","koaza":"","lat":44.059076,"lng":144.978666,"zip":"0994352"},{"town":"ウトロ中島","koaza":"","lat":44.060672,"lng":144.995899,"zip":"0994353"},{"town":"ウトロ西","koaza":"","lat":44.067508,"lng":144.992302,"zip":"0994354"},{"town":"ウトロ東","koaza":"","lat":44.076618,"lng":145.013687,"zip":"0994355"},{"town":"大字遠音別村","koaza":"","lat":44.20071,"lng":145.239501,"zip":"0994100"},{"town":"光陽町","koaza":"","lat":43.903795,"lng":144.675475,"zip":"0994115"},{"town":"新光町","koaza":"","lat":43.904208,"lng":144.647632,"zip":"0994118"},{"town":"西町","koaza":"","lat":43.91151,"lng":144.648294,"zip":"0994147"},{"town":"文光町","koaza":"","lat":43.908813,"lng":144.660093,"zip":"0994116"},{"town":"本町","koaza":"","lat":43.911977,"lng":144.668654,"zip":"0994113"},{"town":"前浜町","koaza":"","lat":43.917198,"lng":144.667675,"zip":"0994111"},{"town":"港西町","koaza":"","lat":43.914905,"lng":144.650936,"zip":"0994146"},{"town":"港町","koaza":"","lat":43.913247,"lng":144.659566,"zip":"0994112"}]