[{"town":"字朝日","koaza":"","lat":42.403913,"lng":142.353819,"zip":"0592400"},{"town":"字東町","koaza":"","lat":42.361551,"lng":142.321835,"zip":"0592400"},{"town":"字泉","koaza":"","lat":42.605624,"lng":142.57352,"zip":"0592400"},{"town":"字岩清水","koaza":"","lat":42.569772,"lng":142.526242,"zip":"0592400"},{"town":"字大狩部","koaza":"","lat":42.412638,"lng":142.27015,"zip":"0592400"},{"town":"字大富","koaza":"","lat":42.39622,"lng":142.390642,"zip":"0592400"},{"town":"字共栄","koaza":"","lat":42.436124,"lng":142.307928,"zip":"0592400"},{"town":"字新栄","koaza":"","lat":42.468477,"lng":142.439095,"zip":"0592400"},{"town":"字新和","koaza":"","lat":42.531814,"lng":142.356155,"zip":"0592400"},{"town":"字節婦町","koaza":"","lat":42.392377,"lng":142.285606,"zip":"0592400"},{"town":"字太陽","koaza":"","lat":42.554226,"lng":142.466534,"zip":"0592400"},{"town":"字高江","koaza":"","lat":42.388396,"lng":142.318468,"zip":"0592400"},{"town":"字中央町","koaza":"","lat":42.363355,"lng":142.310268,"zip":"0592400"},{"town":"字西泊津","koaza":"","lat":42.362547,"lng":142.34203,"zip":"0592400"},{"town":"字万世","koaza":"","lat":42.415612,"lng":142.41815,"zip":"0592400"},{"town":"字美宇","koaza":"","lat":42.507,"lng":142.366594,"zip":"0592400"},{"town":"字東川","koaza":"","lat":42.465452,"lng":142.345868,"zip":"0592400"},{"town":"字東泊津","koaza":"","lat":42.377166,"lng":142.363178,"zip":"0592400"},{"town":"字古岸","koaza":"","lat":42.439659,"lng":142.397571,"zip":"0592400"},{"town":"字北星町","koaza":"","lat":42.366337,"lng":142.317559,"zip":"0592400"},{"town":"字本町","koaza":"","lat":42.356749,"lng":142.317437,"zip":"0592400"},{"town":"字緑丘","koaza":"","lat":42.415,"lng":142.380308,"zip":"0592400"},{"town":"字明和","koaza":"","lat":42.444678,"lng":142.442623,"zip":"0592400"},{"town":"字里平","koaza":"","lat":42.565148,"lng":142.446196,"zip":"0592400"},{"town":"字若園","koaza":"","lat":42.48712,"lng":142.419713,"zip":"0592400"}]