[{"town":"静内青柳町一丁目","koaza":"","lat":42.336349,"lng":142.36856,"zip":"0560019"},{"town":"静内青柳町二丁目","koaza":"","lat":42.334551,"lng":142.370403,"zip":"0560019"},{"town":"静内青柳町三丁目","koaza":"","lat":42.337148,"lng":142.371055,"zip":"0560019"},{"town":"静内青柳町四丁目","koaza":"","lat":42.336283,"lng":142.372577,"zip":"0560019"},{"town":"静内旭町一丁目","koaza":"","lat":42.346463,"lng":142.376459,"zip":"0560003"},{"town":"静内旭町二丁目","koaza":"","lat":42.34751,"lng":142.381755,"zip":"0560003"},{"town":"静内入船町","koaza":"","lat":42.325736,"lng":142.373098,"zip":"0560013"},{"town":"静内浦和","koaza":"","lat":42.33174,"lng":142.449184,"zip":"0592562"},{"town":"静内海岸町一丁目","koaza":"","lat":42.334189,"lng":142.363022,"zip":"0560015"},{"town":"静内海岸町二丁目","koaza":"","lat":42.338403,"lng":142.354457,"zip":"0560015"},{"town":"静内柏台","koaza":"","lat":42.351173,"lng":142.350887,"zip":"0560028"},{"town":"静内神森","koaza":"","lat":42.352769,"lng":142.385299,"zip":"0560002"},{"town":"静内川合","koaza":"","lat":42.330654,"lng":142.502986,"zip":"0592563"},{"town":"静内木場町一丁目","koaza":"","lat":42.340069,"lng":142.360174,"zip":"0560025"},{"town":"静内木場町二丁目","koaza":"","lat":42.339814,"lng":142.354102,"zip":"0560025"},{"town":"静内こうせい町一丁目","koaza":"","lat":42.344763,"lng":142.373515,"zip":"0560005"},{"town":"静内こうせい町二丁目","koaza":"","lat":42.346741,"lng":142.370255,"zip":"0560005"},{"town":"静内こうせい町三丁目","koaza":"","lat":42.349643,"lng":142.367251,"zip":"0560005"},{"town":"静内駒場","koaza":"","lat":42.346506,"lng":142.342764,"zip":"0560027"},{"town":"静内清水丘","koaza":"","lat":42.361158,"lng":142.36661,"zip":"0560007"},{"town":"静内末広町一丁目","koaza":"","lat":42.343213,"lng":142.357772,"zip":"0560026"},{"town":"静内末広町二丁目","koaza":"","lat":42.34337,"lng":142.35422,"zip":"0560026"},{"town":"静内末広町三丁目","koaza":"","lat":42.34335,"lng":142.350444,"zip":"0560026"},{"town":"静内高砂町一丁目","koaza":"","lat":42.347597,"lng":142.361924,"zip":"0560022"},{"town":"静内高砂町二丁目","koaza":"","lat":42.34935,"lng":142.359749,"zip":"0560022"},{"town":"静内高砂町三丁目","koaza":"","lat":42.351422,"lng":142.363658,"zip":"0560022"},{"town":"静内高見","koaza":"","lat":42.523816,"lng":142.714177,"zip":"0560146"},{"town":"静内田原","koaza":"","lat":42.386226,"lng":142.424749,"zip":"0560144"},{"town":"静内東別","koaza":"","lat":42.309639,"lng":142.529397,"zip":"0592566"},{"town":"静内ときわ町一丁目","koaza":"","lat":42.344408,"lng":142.365804,"zip":"0560023"},{"town":"静内ときわ町二丁目","koaza":"","lat":42.344916,"lng":142.369116,"zip":"0560023"},{"town":"静内ときわ町三丁目","koaza":"","lat":42.345887,"lng":142.366651,"zip":"0560023"},{"town":"静内ときわ町四丁目","koaza":"","lat":42.3468,"lng":142.364476,"zip":"0560023"},{"town":"静内豊畑","koaza":"","lat":42.389016,"lng":142.50363,"zip":"0560143"},{"town":"静内中野町一丁目","koaza":"","lat":42.349602,"lng":142.373474,"zip":"0560006"},{"town":"静内中野町二丁目","koaza":"","lat":42.351942,"lng":142.370631,"zip":"0560006"},{"town":"静内中野町三丁目","koaza":"","lat":42.354556,"lng":142.368181,"zip":"0560006"},{"town":"静内中野町四丁目","koaza":"","lat":42.354599,"lng":142.375087,"zip":"0560006"},{"town":"静内西川","koaza":"","lat":42.358887,"lng":142.517363,"zip":"0592564"},{"town":"静内農屋","koaza":"","lat":42.44485,"lng":142.546648,"zip":"0560142"},{"town":"静内花園","koaza":"","lat":42.355523,"lng":142.355753,"zip":"0560021"},{"town":"静内春立","koaza":"","lat":42.280992,"lng":142.48984,"zip":"0592565"},{"town":"静内古川町一丁目","koaza":"","lat":42.33468,"lng":142.366163,"zip":"0560014"},{"town":"静内古川町二丁目","koaza":"","lat":42.332952,"lng":142.368066,"zip":"0560014"},{"town":"静内本町一丁目","koaza":"","lat":42.33729,"lng":142.365351,"zip":"0560016"},{"town":"静内本町二丁目","koaza":"","lat":42.337191,"lng":142.363891,"zip":"0560016"},{"town":"静内本町三丁目","koaza":"","lat":42.336924,"lng":142.362264,"zip":"0560016"},{"town":"静内本町四丁目","koaza":"","lat":42.33777,"lng":142.360991,"zip":"0560016"},{"town":"静内本町五丁目","koaza":"","lat":42.336762,"lng":142.359999,"zip":"0560016"},{"town":"静内真歌","koaza":"","lat":42.341002,"lng":142.404368,"zip":"0560011"},{"town":"静内御園","koaza":"","lat":42.431414,"lng":142.476191,"zip":"0560141"},{"town":"静内緑町一丁目","koaza":"","lat":42.342143,"lng":142.372616,"zip":"0560004"},{"town":"静内緑町二丁目","koaza":"","lat":42.340904,"lng":142.371738,"zip":"0560004"},{"town":"静内緑町三丁目","koaza":"","lat":42.339578,"lng":142.372332,"zip":"0560004"},{"town":"静内緑町四丁目","koaza":"","lat":42.339156,"lng":142.374392,"zip":"0560004"},{"town":"静内緑町五丁目","koaza":"","lat":42.342498,"lng":142.374834,"zip":"0560004"},{"town":"静内緑町六丁目","koaza":"","lat":42.341547,"lng":142.375671,"zip":"0560004"},{"town":"静内緑町七丁目","koaza":"","lat":42.339152,"lng":142.3762,"zip":"0560004"},{"town":"静内緑町八丁目","koaza":"","lat":42.342272,"lng":142.378289,"zip":"0560004"},{"town":"静内御幸町一丁目","koaza":"","lat":42.339401,"lng":142.364212,"zip":"0560017"},{"town":"静内御幸町二丁目","koaza":"","lat":42.34001,"lng":142.366234,"zip":"0560017"},{"town":"静内御幸町三丁目","koaza":"","lat":42.34058,"lng":142.368273,"zip":"0560017"},{"town":"静内御幸町四丁目","koaza":"","lat":42.342246,"lng":142.365787,"zip":"0560017"},{"town":"静内御幸町五丁目","koaza":"","lat":42.342378,"lng":142.368684,"zip":"0560017"},{"town":"静内御幸町六丁目","koaza":"","lat":42.34276,"lng":142.370452,"zip":"0560017"},{"town":"静内目名","koaza":"","lat":42.367437,"lng":142.400329,"zip":"0560145"},{"town":"静内山手町一丁目","koaza":"","lat":42.34299,"lng":142.362852,"zip":"0560024"},{"town":"静内山手町二丁目","koaza":"","lat":42.344293,"lng":142.360296,"zip":"0560024"},{"town":"静内山手町三丁目","koaza":"","lat":42.345206,"lng":142.358696,"zip":"0560024"},{"town":"静内山手町四丁目","koaza":"","lat":42.346026,"lng":142.357028,"zip":"0560024"},{"town":"静内山手町五丁目","koaza":"","lat":42.346845,"lng":142.354995,"zip":"0560024"},{"town":"静内吉野町一丁目","koaza":"","lat":42.337253,"lng":142.366672,"zip":"0560018"},{"town":"静内吉野町二丁目","koaza":"","lat":42.338199,"lng":142.36798,"zip":"0560018"},{"town":"静内吉野町三丁目","koaza":"","lat":42.339106,"lng":142.36908,"zip":"0560018"},{"town":"静内吉野町四丁目","koaza":"","lat":42.339818,"lng":142.370256,"zip":"0560018"},{"town":"東静内","koaza":"","lat":42.300113,"lng":142.47875,"zip":"0592561"},{"town":"三石旭町","koaza":"","lat":42.254916,"lng":142.567017,"zip":"0593107"},{"town":"三石稲見","koaza":"","lat":42.292171,"lng":142.72701,"zip":"0593352"},{"town":"三石歌笛","koaza":"","lat":42.278104,"lng":142.677738,"zip":"0593351"},{"town":"三石川上","koaza":"","lat":42.322232,"lng":142.699297,"zip":"0593354"},{"town":"三石清瀬","koaza":"","lat":42.374796,"lng":142.755376,"zip":"0593353"},{"town":"三石鳧舞","koaza":"","lat":42.228132,"lng":142.624121,"zip":"0593233"},{"town":"三石越海町","koaza":"","lat":42.260226,"lng":142.529464,"zip":"0593111"},{"town":"三石富澤","koaza":"","lat":42.351402,"lng":142.629581,"zip":"0560000"},{"town":"三石豊岡","koaza":"","lat":42.293005,"lng":142.587637,"zip":"0593103"},{"town":"三石西端","koaza":"","lat":42.303935,"lng":142.566394,"zip":"0592571"},{"town":"三石西蓬莱","koaza":"","lat":42.265024,"lng":142.577192,"zip":"0593106"},{"town":"三石東蓬莱","koaza":"","lat":42.249502,"lng":142.590919,"zip":"0593105"},{"town":"三石福畑","koaza":"","lat":42.322374,"lng":142.655374,"zip":"0593102"},{"town":"三石蓬栄","koaza":"","lat":42.263861,"lng":142.607797,"zip":"0593104"},{"town":"三石本桐","koaza":"","lat":42.275039,"lng":142.650262,"zip":"0593231"},{"town":"三石本町","koaza":"","lat":42.262323,"lng":142.557704,"zip":"0593108"},{"town":"三石美河","koaza":"","lat":42.401932,"lng":142.689108,"zip":"0593355"},{"town":"三石港町","koaza":"","lat":42.259897,"lng":142.542778,"zip":"0593112"},{"town":"三石美野和","koaza":"","lat":42.239282,"lng":142.657183,"zip":"0593232"}]