[{"town":"十条通十丁目","koaza":"","lat":43.77494,"lng":142.368767,"zip":"0700000"},{"town":"十条通十一丁目","koaza":"","lat":43.774491,"lng":142.370215,"zip":"0700000"},{"town":"十条通十二丁目","koaza":"","lat":43.774054,"lng":142.371721,"zip":"0700000"},{"town":"十条通十三丁目","koaza":"","lat":43.773366,"lng":142.373161,"zip":"0700000"},{"town":"十条通十四丁目","koaza":"","lat":43.772777,"lng":142.374599,"zip":"0700000"},{"town":"十条通十五丁目","koaza":"","lat":43.77213,"lng":142.37587,"zip":"0700000"},{"town":"十条通十六丁目","koaza":"","lat":43.771521,"lng":142.37714,"zip":"0700000"},{"town":"十条通十七丁目","koaza":"","lat":43.770954,"lng":142.378939,"zip":"0700000"},{"town":"十条通十八丁目","koaza":"","lat":43.770921,"lng":142.380548,"zip":"0700000"},{"town":"十条通十九丁目","koaza":"","lat":43.770195,"lng":142.381264,"zip":"0700000"},{"town":"十条通二十丁目","koaza":"","lat":43.769889,"lng":142.382619,"zip":"0700000"},{"town":"十条通二十一丁目","koaza":"","lat":43.769891,"lng":142.384774,"zip":"0700000"},{"town":"十条通二十二丁目","koaza":"","lat":43.769961,"lng":142.38671,"zip":"0700000"},{"town":"十条通二十三丁目","koaza":"","lat":43.769874,"lng":142.388753,"zip":"0700000"},{"town":"十条通八丁目","koaza":"","lat":43.775226,"lng":142.365354,"zip":"0700000"},{"town":"十条通九丁目","koaza":"","lat":43.775343,"lng":142.367161,"zip":"0700000"},{"town":"十一条通十九丁目","koaza":"","lat":43.771317,"lng":142.381889,"zip":"0700000"},{"town":"十一条通二十丁目","koaza":"","lat":43.771207,"lng":142.382852,"zip":"0700000"},{"town":"十一条通二十一丁目","koaza":"","lat":43.77152,"lng":142.384665,"zip":"0700000"},{"town":"十一条通二十二丁目","koaza":"","lat":43.77192,"lng":142.386594,"zip":"0700000"},{"town":"十一条通二十三丁目","koaza":"","lat":43.771826,"lng":142.388463,"zip":"0700000"},{"town":"一条通十丁目","koaza":"","lat":43.764439,"lng":142.362999,"zip":"0700000"},{"town":"一条通十一丁目","koaza":"","lat":43.763983,"lng":142.36458,"zip":"0700000"},{"town":"一条通十二丁目","koaza":"","lat":43.763569,"lng":142.366022,"zip":"0700000"},{"town":"一条通十三丁目","koaza":"","lat":43.763141,"lng":142.367506,"zip":"0700000"},{"town":"一条通十四丁目","koaza":"","lat":43.762711,"lng":142.369004,"zip":"0700000"},{"town":"一条通十五丁目","koaza":"","lat":43.762268,"lng":142.370484,"zip":"0700000"},{"town":"一条通十六丁目","koaza":"","lat":43.761784,"lng":142.371772,"zip":"0700000"},{"town":"一条通十七丁目","koaza":"","lat":43.761378,"lng":142.37361,"zip":"0700000"},{"town":"一条通十八丁目","koaza":"","lat":43.760963,"lng":142.375035,"zip":"0700000"},{"town":"一条通十九丁目","koaza":"","lat":43.760529,"lng":142.376544,"zip":"0700000"},{"town":"一条通一丁目","koaza":"","lat":43.768412,"lng":142.349147,"zip":"0700000"},{"town":"一条通二十丁目","koaza":"","lat":43.760066,"lng":142.378124,"zip":"0700000"},{"town":"一条通二十一丁目","koaza":"","lat":43.759637,"lng":142.379578,"zip":"0700000"},{"town":"一条通二十二丁目","koaza":"","lat":43.759209,"lng":142.381056,"zip":"0700000"},{"town":"一条通二十三丁目","koaza":"","lat":43.758734,"lng":142.382649,"zip":"0700000"},{"town":"一条通二十四丁目","koaza":"","lat":43.758321,"lng":142.383874,"zip":"0700000"},{"town":"一条通二十五丁目","koaza":"","lat":43.757857,"lng":142.385751,"zip":"0700000"},{"town":"一条通二丁目","koaza":"","lat":43.767959,"lng":142.350738,"zip":"0700000"},{"town":"一条通三丁目","koaza":"","lat":43.767493,"lng":142.352355,"zip":"0700000"},{"town":"一条通四丁目","koaza":"","lat":43.767061,"lng":142.353841,"zip":"0700000"},{"town":"一条通五丁目","koaza":"","lat":43.766655,"lng":142.355251,"zip":"0700000"},{"town":"一条通六丁目","koaza":"","lat":43.766205,"lng":142.356803,"zip":"0700000"},{"town":"一条通七丁目","koaza":"","lat":43.765748,"lng":142.358404,"zip":"0700000"},{"town":"一条通八丁目","koaza":"","lat":43.765332,"lng":142.359882,"zip":"0700000"},{"town":"一条通九丁目","koaza":"","lat":43.764908,"lng":142.36137,"zip":"0700000"},{"town":"二条通十丁目","koaza":"","lat":43.765553,"lng":142.36361,"zip":"0700000"},{"town":"二条通十一丁目","koaza":"","lat":43.765098,"lng":142.365182,"zip":"0700000"},{"town":"二条通十二丁目","koaza":"","lat":43.764682,"lng":142.366626,"zip":"0700000"},{"town":"二条通十三丁目","koaza":"","lat":43.764255,"lng":142.368103,"zip":"0700000"},{"town":"二条通十四丁目","koaza":"","lat":43.763817,"lng":142.369617,"zip":"0700000"},{"town":"二条通十五丁目","koaza":"","lat":43.763378,"lng":142.371085,"zip":"0700000"},{"town":"二条通十六丁目","koaza":"","lat":43.762945,"lng":142.37266,"zip":"0700000"},{"town":"二条通十七丁目","koaza":"","lat":43.762482,"lng":142.374225,"zip":"0700000"},{"town":"二条通十八丁目","koaza":"","lat":43.762067,"lng":142.37565,"zip":"0700000"},{"town":"二条通十九丁目","koaza":"","lat":43.761622,"lng":142.377153,"zip":"0700000"},{"town":"二条通一丁目","koaza":"","lat":43.76952,"lng":142.349774,"zip":"0700000"},{"town":"二条通二十丁目","koaza":"","lat":43.761155,"lng":142.378729,"zip":"0700000"},{"town":"二条通二十一丁目","koaza":"","lat":43.76073,"lng":142.380183,"zip":"0700000"},{"town":"二条通二十二丁目","koaza":"","lat":43.760305,"lng":142.381676,"zip":"0700000"},{"town":"二条通二十三丁目","koaza":"","lat":43.759847,"lng":142.383292,"zip":"0700000"},{"town":"二条通二十四丁目","koaza":"","lat":43.75955,"lng":142.384316,"zip":"0700000"},{"town":"二条通二十五丁目","koaza":"","lat":43.759138,"lng":142.385702,"zip":"0700000"},{"town":"二条通二丁目","koaza":"","lat":43.769068,"lng":142.351346,"zip":"0700000"},{"town":"二条通三丁目","koaza":"","lat":43.768603,"lng":142.352956,"zip":"0700000"},{"town":"二条通四丁目","koaza":"","lat":43.768168,"lng":142.354465,"zip":"0700000"},{"town":"二条通五丁目","koaza":"","lat":43.767765,"lng":142.355865,"zip":"0700000"},{"town":"二条通六丁目","koaza":"","lat":43.767321,"lng":142.357413,"zip":"0700000"},{"town":"二条通七丁目","koaza":"","lat":43.766864,"lng":142.359026,"zip":"0700000"},{"town":"二条通八丁目","koaza":"","lat":43.766446,"lng":142.360496,"zip":"0700000"},{"town":"二条通九丁目","koaza":"","lat":43.766019,"lng":142.361988,"zip":"0700000"},{"town":"二条西二丁目","koaza":"","lat":43.771029,"lng":142.347429,"zip":"0700000"},{"town":"二条西三丁目","koaza":"","lat":43.771048,"lng":142.346021,"zip":"0700000"},{"town":"二条西四丁目","koaza":"","lat":43.770923,"lng":142.344331,"zip":"0700000"},{"town":"三条通十丁目","koaza":"","lat":43.766663,"lng":142.364223,"zip":"0700000"},{"town":"三条通十一丁目","koaza":"","lat":43.766212,"lng":142.365778,"zip":"0700000"},{"town":"三条通十二丁目","koaza":"","lat":43.765791,"lng":142.36723,"zip":"0700000"},{"town":"三条通十三丁目","koaza":"","lat":43.76536,"lng":142.368708,"zip":"0700000"},{"town":"三条通十四丁目","koaza":"","lat":43.764922,"lng":142.370255,"zip":"0700000"},{"town":"三条通十五丁目","koaza":"","lat":43.764456,"lng":142.371711,"zip":"0700000"},{"town":"三条通十六丁目","koaza":"","lat":43.76403,"lng":142.373249,"zip":"0700000"},{"town":"三条通十七丁目","koaza":"","lat":43.763565,"lng":142.374829,"zip":"0700000"},{"town":"三条通十八丁目","koaza":"","lat":43.763141,"lng":142.376246,"zip":"0700000"},{"town":"三条通十九丁目","koaza":"","lat":43.762689,"lng":142.377741,"zip":"0700000"},{"town":"三条通一丁目","koaza":"","lat":43.770645,"lng":142.350419,"zip":"0700000"},{"town":"三条通二十丁目","koaza":"","lat":43.762223,"lng":142.379325,"zip":"0700000"},{"town":"三条通二十一丁目","koaza":"","lat":43.761802,"lng":142.38078,"zip":"0700000"},{"town":"三条通二十二丁目","koaza":"","lat":43.761375,"lng":142.382277,"zip":"0700000"},{"town":"三条通二十三丁目","koaza":"","lat":43.76078,"lng":142.383969,"zip":"0700000"},{"town":"三条通二十四丁目","koaza":"","lat":43.760595,"lng":142.385572,"zip":"0700000"},{"town":"三条通二十五丁目","koaza":"","lat":43.760127,"lng":142.386378,"zip":"0700000"},{"town":"三条通二丁目","koaza":"","lat":43.770182,"lng":142.351962,"zip":"0700000"},{"town":"三条通三丁目","koaza":"","lat":43.769726,"lng":142.353556,"zip":"0700000"},{"town":"三条通四丁目","koaza":"","lat":43.769285,"lng":142.355087,"zip":"0700000"},{"town":"三条通五丁目","koaza":"","lat":43.768882,"lng":142.356486,"zip":"0700000"},{"town":"三条通六丁目","koaza":"","lat":43.768439,"lng":142.358034,"zip":"0700000"},{"town":"三条通七丁目","koaza":"","lat":43.767977,"lng":142.359649,"zip":"0700000"},{"town":"三条通八丁目","koaza":"","lat":43.767557,"lng":142.361112,"zip":"0700000"},{"town":"三条通九丁目","koaza":"","lat":43.767128,"lng":142.362611,"zip":"0700000"},{"town":"三条西一丁目","koaza":"","lat":43.771257,"lng":142.349089,"zip":"0700000"},{"town":"三条西二丁目","koaza":"","lat":43.771695,"lng":142.347897,"zip":"0700000"},{"town":"三条西三丁目","koaza":"","lat":43.772029,"lng":142.346193,"zip":"0700000"},{"town":"三条西四丁目","koaza":"","lat":43.772077,"lng":142.344743,"zip":"0700000"},{"town":"三条西五丁目","koaza":"","lat":43.772267,"lng":142.343283,"zip":"0700000"},{"town":"三条西六丁目","koaza":"","lat":43.773394,"lng":142.342014,"zip":"0700000"},{"town":"四条通十丁目","koaza":"","lat":43.767759,"lng":142.36484,"zip":"0700000"},{"town":"四条通十一丁目","koaza":"","lat":43.767314,"lng":142.366373,"zip":"0700000"},{"town":"四条通十二丁目","koaza":"","lat":43.766892,"lng":142.367826,"zip":"0700000"},{"town":"四条通十三丁目","koaza":"","lat":43.766456,"lng":142.369312,"zip":"0700000"},{"town":"四条通十四丁目","koaza":"","lat":43.765974,"lng":142.370961,"zip":"0700000"},{"town":"四条通十五丁目","koaza":"","lat":43.765574,"lng":142.372329,"zip":"0700000"},{"town":"四条通十六丁目","koaza":"","lat":43.76513,"lng":142.373853,"zip":"0700000"},{"town":"四条通十七丁目","koaza":"","lat":43.764667,"lng":142.37544,"zip":"0700000"},{"town":"四条通十八丁目","koaza":"","lat":43.764245,"lng":142.376854,"zip":"0700000"},{"town":"四条通十九丁目","koaza":"","lat":43.763794,"lng":142.378351,"zip":"0700000"},{"town":"四条通一丁目","koaza":"","lat":43.771903,"lng":142.350949,"zip":"0700000"},{"town":"四条通二十丁目","koaza":"","lat":43.763334,"lng":142.379945,"zip":"0700000"},{"town":"四条通二十一丁目","koaza":"","lat":43.762916,"lng":142.381401,"zip":"0700000"},{"town":"四条通二十二丁目","koaza":"","lat":43.762479,"lng":142.382887,"zip":"0700000"},{"town":"四条通二十三丁目","koaza":"","lat":43.761976,"lng":142.384281,"zip":"0700000"},{"town":"四条通二十四丁目","koaza":"","lat":43.761621,"lng":142.385918,"zip":"0700000"},{"town":"四条通二十五丁目","koaza":"","lat":43.761111,"lng":142.387356,"zip":"0700000"},{"town":"四条通二丁目","koaza":"","lat":43.771316,"lng":142.352595,"zip":"0700000"},{"town":"四条通三丁目","koaza":"","lat":43.770862,"lng":142.354166,"zip":"0700000"},{"town":"四条通四丁目","koaza":"","lat":43.77041,"lng":142.355707,"zip":"0700000"},{"town":"四条通五丁目","koaza":"","lat":43.769997,"lng":142.357117,"zip":"0700000"},{"town":"四条通六丁目","koaza":"","lat":43.769549,"lng":142.358657,"zip":"0700000"},{"town":"四条通七丁目","koaza":"","lat":43.769084,"lng":142.360263,"zip":"0700000"},{"town":"四条通八丁目","koaza":"","lat":43.768664,"lng":142.361722,"zip":"0700000"},{"town":"四条通九丁目","koaza":"","lat":43.768227,"lng":142.363232,"zip":"0700000"},{"town":"四条西一丁目","koaza":"","lat":43.772168,"lng":142.349573,"zip":"0700000"},{"town":"四条西二丁目","koaza":"","lat":43.772834,"lng":142.348293,"zip":"0700000"},{"town":"四条西三丁目","koaza":"","lat":43.773188,"lng":142.346873,"zip":"0700000"},{"town":"四条西四丁目","koaza":"","lat":43.773393,"lng":142.345222,"zip":"0700000"},{"town":"四条西五丁目","koaza":"","lat":43.773797,"lng":142.343743,"zip":"0700000"},{"town":"四条西六丁目","koaza":"","lat":43.774171,"lng":142.342439,"zip":"0700000"},{"town":"四条西七丁目","koaza":"","lat":43.774793,"lng":142.340975,"zip":"0700000"},{"town":"四条西八丁目","koaza":"","lat":43.775951,"lng":142.33918,"zip":"0700000"},{"town":"四条西九丁目","koaza":"","lat":43.777671,"lng":142.337615,"zip":"0700000"},{"town":"五条通十丁目","koaza":"","lat":43.768873,"lng":142.365469,"zip":"0700000"},{"town":"五条通十一丁目","koaza":"","lat":43.768434,"lng":142.366984,"zip":"0700000"},{"town":"五条通十二丁目","koaza":"","lat":43.76801,"lng":142.368441,"zip":"0700000"},{"town":"五条通十三丁目","koaza":"","lat":43.767573,"lng":142.369949,"zip":"0700000"},{"town":"五条通十四丁目","koaza":"","lat":43.767166,"lng":142.371493,"zip":"0700000"},{"town":"五条通十五丁目","koaza":"","lat":43.766697,"lng":142.372942,"zip":"0700000"},{"town":"五条通十六丁目","koaza":"","lat":43.766241,"lng":142.374463,"zip":"0700000"},{"town":"五条通十七丁目","koaza":"","lat":43.765774,"lng":142.376046,"zip":"0700000"},{"town":"五条通十八丁目","koaza":"","lat":43.765352,"lng":142.377459,"zip":"0700000"},{"town":"五条通十九丁目","koaza":"","lat":43.764905,"lng":142.378933,"zip":"0700000"},{"town":"五条通一丁目","koaza":"","lat":43.773154,"lng":142.351727,"zip":"0700000"},{"town":"五条通二十丁目","koaza":"","lat":43.764434,"lng":142.38053,"zip":"0700000"},{"town":"五条通二十一丁目","koaza":"","lat":43.764006,"lng":142.382012,"zip":"0700000"},{"town":"五条通二十二丁目","koaza":"","lat":43.76361,"lng":142.383507,"zip":"0700000"},{"town":"五条通二十三丁目","koaza":"","lat":43.7632,"lng":142.38514,"zip":"0700000"},{"town":"五条通二十四丁目","koaza":"","lat":43.762694,"lng":142.386621,"zip":"0700000"},{"town":"五条通二十五丁目","koaza":"","lat":43.762155,"lng":142.388063,"zip":"0700000"},{"town":"五条通二丁目","koaza":"","lat":43.772372,"lng":142.353185,"zip":"0700000"},{"town":"五条通三丁目","koaza":"","lat":43.772003,"lng":142.354784,"zip":"0700000"},{"town":"五条通四丁目","koaza":"","lat":43.771515,"lng":142.356322,"zip":"0700000"},{"town":"五条通五丁目","koaza":"","lat":43.771098,"lng":142.357744,"zip":"0700000"},{"town":"五条通六丁目","koaza":"","lat":43.770651,"lng":142.359275,"zip":"0700000"},{"town":"五条通七丁目","koaza":"","lat":43.770188,"lng":142.360884,"zip":"0700000"},{"town":"五条通八丁目","koaza":"","lat":43.769775,"lng":142.362344,"zip":"0700000"},{"town":"五条通九丁目","koaza":"","lat":43.76934,"lng":142.363862,"zip":"0700000"},{"town":"五条西一丁目","koaza":"","lat":43.773024,"lng":142.350045,"zip":"0700000"},{"town":"五条西二丁目","koaza":"","lat":43.77361,"lng":142.34873,"zip":"0700000"},{"town":"五条西三丁目","koaza":"","lat":43.773902,"lng":142.347435,"zip":"0700000"},{"town":"五条西四丁目","koaza":"","lat":43.774274,"lng":142.345722,"zip":"0700000"},{"town":"五条西五丁目","koaza":"","lat":43.775002,"lng":142.344273,"zip":"0700000"},{"town":"五条西六丁目","koaza":"","lat":43.775441,"lng":142.342745,"zip":"0700000"},{"town":"五条西七丁目","koaza":"","lat":43.77562,"lng":142.341011,"zip":"0700000"},{"town":"五条西八丁目","koaza":"","lat":43.776608,"lng":142.339998,"zip":"0700000"},{"town":"五条西九丁目","koaza":"","lat":43.778012,"lng":142.338524,"zip":"0700000"},{"town":"六条通十丁目","koaza":"","lat":43.770003,"lng":142.366102,"zip":"0700000"},{"town":"六条通十一丁目","koaza":"","lat":43.769568,"lng":142.367598,"zip":"0700000"},{"town":"六条通十二丁目","koaza":"","lat":43.769143,"lng":142.369063,"zip":"0700000"},{"town":"六条通十三丁目","koaza":"","lat":43.768718,"lng":142.370601,"zip":"0700000"},{"town":"六条通十四丁目","koaza":"","lat":43.768171,"lng":142.371801,"zip":"0700000"},{"town":"六条通十五丁目","koaza":"","lat":43.767809,"lng":142.373552,"zip":"0700000"},{"town":"六条通十六丁目","koaza":"","lat":43.767336,"lng":142.375061,"zip":"0700000"},{"town":"六条通十七丁目","koaza":"","lat":43.766858,"lng":142.376639,"zip":"0700000"},{"town":"六条通十八丁目","koaza":"","lat":43.766428,"lng":142.378051,"zip":"0700000"},{"town":"六条通十九丁目","koaza":"","lat":43.766005,"lng":142.379498,"zip":"0700000"},{"town":"六条通一丁目","koaza":"","lat":43.773907,"lng":142.352289,"zip":"0700000"},{"town":"六条通二十丁目","koaza":"","lat":43.765537,"lng":142.381104,"zip":"0700000"},{"town":"六条通二十一丁目","koaza":"","lat":43.76509,"lng":142.382626,"zip":"0700000"},{"town":"六条通二十二丁目","koaza":"","lat":43.764694,"lng":142.384115,"zip":"0700000"},{"town":"六条通二十三丁目","koaza":"","lat":43.764214,"lng":142.385676,"zip":"0700000"},{"town":"六条通二十四丁目","koaza":"","lat":43.763765,"lng":142.387181,"zip":"0700000"},{"town":"六条通二十五丁目","koaza":"","lat":43.763446,"lng":142.388378,"zip":"0700000"},{"town":"六条通二丁目","koaza":"","lat":43.773263,"lng":142.353683,"zip":"0700000"},{"town":"六条通三丁目","koaza":"","lat":43.772951,"lng":142.355254,"zip":"0700000"},{"town":"六条通四丁目","koaza":"","lat":43.7726,"lng":142.356923,"zip":"0700000"},{"town":"六条通五丁目","koaza":"","lat":43.772189,"lng":142.358399,"zip":"0700000"},{"town":"六条通六丁目","koaza":"","lat":43.771742,"lng":142.359872,"zip":"0700000"},{"town":"六条通七丁目","koaza":"","lat":43.771488,"lng":142.361494,"zip":"0700000"},{"town":"六条通八丁目","koaza":"","lat":43.770878,"lng":142.362904,"zip":"0700000"},{"town":"六条通九丁目","koaza":"","lat":43.770451,"lng":142.364486,"zip":"0700000"},{"town":"六条西一丁目","koaza":"","lat":43.77383,"lng":142.35051,"zip":"0700000"},{"town":"六条西二丁目","koaza":"","lat":43.774236,"lng":142.349088,"zip":"0700000"},{"town":"六条西三丁目","koaza":"","lat":43.774623,"lng":142.347683,"zip":"0700000"},{"town":"六条西四丁目","koaza":"","lat":43.775077,"lng":142.346183,"zip":"0700000"},{"town":"六条西五丁目","koaza":"","lat":43.775738,"lng":142.344703,"zip":"0700000"},{"town":"六条西六丁目","koaza":"","lat":43.77631,"lng":142.342665,"zip":"0700000"},{"town":"六条西七丁目","koaza":"","lat":43.776803,"lng":142.341101,"zip":"0700000"},{"town":"六条西八丁目","koaza":"","lat":43.77809,"lng":142.340046,"zip":"0700000"},{"town":"七条通十丁目","koaza":"","lat":43.771226,"lng":142.366778,"zip":"0700000"},{"town":"七条通十一丁目","koaza":"","lat":43.770653,"lng":142.36818,"zip":"0700000"},{"town":"七条通十二丁目","koaza":"","lat":43.770234,"lng":142.369649,"zip":"0700000"},{"town":"七条通十三丁目","koaza":"","lat":43.769765,"lng":142.371179,"zip":"0700000"},{"town":"七条通十四丁目","koaza":"","lat":43.769339,"lng":142.372709,"zip":"0700000"},{"town":"七条通十五丁目","koaza":"","lat":43.768903,"lng":142.374156,"zip":"0700000"},{"town":"七条通十六丁目","koaza":"","lat":43.768444,"lng":142.375673,"zip":"0700000"},{"town":"七条通十七丁目","koaza":"","lat":43.767972,"lng":142.37725,"zip":"0700000"},{"town":"七条通十八丁目","koaza":"","lat":43.767551,"lng":142.378664,"zip":"0700000"},{"town":"七条通十九丁目","koaza":"","lat":43.767139,"lng":142.380107,"zip":"0700000"},{"town":"七条通一丁目","koaza":"","lat":43.774694,"lng":142.352558,"zip":"0700000"},{"town":"七条通二十丁目","koaza":"","lat":43.766683,"lng":142.381725,"zip":"0700000"},{"town":"七条通二十一丁目","koaza":"","lat":43.766359,"lng":142.38328,"zip":"0700000"},{"town":"七条通二十二丁目","koaza":"","lat":43.765656,"lng":142.385073,"zip":"0700000"},{"town":"七条通二十三丁目","koaza":"","lat":43.765201,"lng":142.386378,"zip":"0700000"},{"town":"七条通二十四丁目","koaza":"","lat":43.76459,"lng":142.387972,"zip":"0700000"},{"town":"七条通二丁目","koaza":"","lat":43.774295,"lng":142.35429,"zip":"0700000"},{"town":"七条通三丁目","koaza":"","lat":43.773624,"lng":142.355613,"zip":"0700000"},{"town":"七条通四丁目","koaza":"","lat":43.773673,"lng":142.357331,"zip":"0700000"},{"town":"七条通五丁目","koaza":"","lat":43.773466,"lng":142.359124,"zip":"0700000"},{"town":"七条通六丁目","koaza":"","lat":43.772784,"lng":142.360757,"zip":"0700000"},{"town":"七条通七丁目","koaza":"","lat":43.772442,"lng":142.36198,"zip":"0700000"},{"town":"七条通八丁目","koaza":"","lat":43.771995,"lng":142.363748,"zip":"0700000"},{"town":"七条通九丁目","koaza":"","lat":43.771195,"lng":142.364726,"zip":"0700000"},{"town":"七条西一丁目","koaza":"","lat":43.774541,"lng":142.35119,"zip":"0700000"},{"town":"七条西二丁目","koaza":"","lat":43.775067,"lng":142.349551,"zip":"0700000"},{"town":"七条西三丁目","koaza":"","lat":43.775459,"lng":142.348155,"zip":"0700000"},{"town":"七条西四丁目","koaza":"","lat":43.775893,"lng":142.346651,"zip":"0700000"},{"town":"七条西五丁目","koaza":"","lat":43.776362,"lng":142.345047,"zip":"0700000"},{"town":"七条西六丁目","koaza":"","lat":43.777678,"lng":142.342381,"zip":"0700000"},{"town":"七条西七丁目","koaza":"","lat":43.778049,"lng":142.341326,"zip":"0700000"},{"town":"八条通十丁目","koaza":"","lat":43.772291,"lng":142.367364,"zip":"0700000"},{"town":"八条通十一丁目","koaza":"","lat":43.771717,"lng":142.368578,"zip":"0700000"},{"town":"八条通十二丁目","koaza":"","lat":43.771322,"lng":142.370232,"zip":"0700000"},{"town":"八条通十三丁目","koaza":"","lat":43.770847,"lng":142.371772,"zip":"0700000"},{"town":"八条通十四丁目","koaza":"","lat":43.770417,"lng":142.373302,"zip":"0700000"},{"town":"八条通十五丁目","koaza":"","lat":43.769991,"lng":142.374754,"zip":"0700000"},{"town":"八条通十六丁目","koaza":"","lat":43.769542,"lng":142.376279,"zip":"0700000"},{"town":"八条通十七丁目","koaza":"","lat":43.769079,"lng":142.377862,"zip":"0700000"},{"town":"八条通十八丁目","koaza":"","lat":43.768667,"lng":142.379277,"zip":"0700000"},{"town":"八条通十九丁目","koaza":"","lat":43.768246,"lng":142.380715,"zip":"0700000"},{"town":"八条通一丁目","koaza":"","lat":43.775495,"lng":142.353198,"zip":"0700000"},{"town":"八条通二十丁目","koaza":"","lat":43.767706,"lng":142.382422,"zip":"0700000"},{"town":"八条通二十一丁目","koaza":"","lat":43.767276,"lng":142.38402,"zip":"0700000"},{"town":"八条通二十二丁目","koaza":"","lat":43.766904,"lng":142.385232,"zip":"0700000"},{"town":"八条通二十三丁目","koaza":"","lat":43.766523,"lng":142.386881,"zip":"0700000"},{"town":"八条通二十四丁目","koaza":"","lat":43.765842,"lng":142.388239,"zip":"0700000"},{"town":"八条通二丁目","koaza":"","lat":43.77517,"lng":142.354137,"zip":"0700000"},{"town":"八条通五丁目","koaza":"","lat":43.774618,"lng":142.35944,"zip":"0700000"},{"town":"八条通六丁目","koaza":"","lat":43.774334,"lng":142.361271,"zip":"0700000"},{"town":"八条通七丁目","koaza":"","lat":43.773774,"lng":142.36276,"zip":"0700000"},{"town":"八条通八丁目","koaza":"","lat":43.773192,"lng":142.364133,"zip":"0700000"},{"town":"八条通九丁目","koaza":"","lat":43.772296,"lng":142.365513,"zip":"0700000"},{"town":"八条西一丁目","koaza":"","lat":43.775432,"lng":142.351577,"zip":"0700000"},{"town":"八条西二丁目","koaza":"","lat":43.775891,"lng":142.350005,"zip":"0700000"},{"town":"八条西三丁目","koaza":"","lat":43.776292,"lng":142.348631,"zip":"0700000"},{"town":"八条西四丁目","koaza":"","lat":43.776726,"lng":142.347131,"zip":"0700000"},{"town":"八条西五丁目","koaza":"","lat":43.777829,"lng":142.346068,"zip":"0700000"},{"town":"八条西六丁目","koaza":"","lat":43.778497,"lng":142.344413,"zip":"0700000"},{"town":"九条通十丁目","koaza":"","lat":43.773275,"lng":142.367898,"zip":"0700000"},{"town":"九条通十一丁目","koaza":"","lat":43.772867,"lng":142.369341,"zip":"0700000"},{"town":"九条通十二丁目","koaza":"","lat":43.772442,"lng":142.37084,"zip":"0700000"},{"town":"九条通十三丁目","koaza":"","lat":43.771959,"lng":142.372399,"zip":"0700000"},{"town":"九条通十四丁目","koaza":"","lat":43.771533,"lng":142.373746,"zip":"0700000"},{"town":"九条通十五丁目","koaza":"","lat":43.771122,"lng":142.375369,"zip":"0700000"},{"town":"九条通十六丁目","koaza":"","lat":43.770623,"lng":142.376869,"zip":"0700000"},{"town":"九条通十七丁目","koaza":"","lat":43.770153,"lng":142.37847,"zip":"0700000"},{"town":"九条通十八丁目","koaza":"","lat":43.769759,"lng":142.379884,"zip":"0700000"},{"town":"九条通十九丁目","koaza":"","lat":43.769112,"lng":142.381194,"zip":"0700000"},{"town":"九条通一丁目","koaza":"","lat":43.777101,"lng":142.354112,"zip":"0700000"},{"town":"九条通二十丁目","koaza":"","lat":43.7687,"lng":142.382828,"zip":"0700000"},{"town":"九条通二十一丁目","koaza":"","lat":43.768384,"lng":142.384281,"zip":"0700000"},{"town":"九条通二十二丁目","koaza":"","lat":43.768093,"lng":142.386367,"zip":"0700000"},{"town":"九条通二十三丁目","koaza":"","lat":43.767844,"lng":142.388443,"zip":"0700000"},{"town":"九条通二丁目","koaza":"","lat":43.776861,"lng":142.355225,"zip":"0700000"},{"town":"九条通七丁目","koaza":"","lat":43.774657,"lng":142.363332,"zip":"0700000"},{"town":"九条通八丁目","koaza":"","lat":43.774233,"lng":142.364785,"zip":"0700000"},{"town":"九条通九丁目","koaza":"","lat":43.77369,"lng":142.366118,"zip":"0700000"},{"town":"九条西一丁目","koaza":"","lat":43.777074,"lng":142.352328,"zip":"0700000"},{"town":"九条西二丁目","koaza":"","lat":43.777497,"lng":142.350773,"zip":"0700000"},{"town":"九条西三丁目","koaza":"","lat":43.777784,"lng":142.349494,"zip":"0700000"},{"town":"九条西四丁目","koaza":"","lat":43.778297,"lng":142.347847,"zip":"0700000"},{"town":"秋月一条一丁目","koaza":"","lat":43.793569,"lng":142.388622,"zip":"0700000"},{"town":"秋月一条二丁目","koaza":"","lat":43.793924,"lng":142.391191,"zip":"0700000"},{"town":"秋月二条一丁目","koaza":"","lat":43.790248,"lng":142.390204,"zip":"0700000"},{"town":"秋月二条二丁目","koaza":"","lat":43.791758,"lng":142.392831,"zip":"0700000"},{"town":"秋月三条一丁目","koaza":"","lat":43.788597,"lng":142.391621,"zip":"0700000"},{"town":"秋月三条二丁目","koaza":"","lat":43.790339,"lng":142.394437,"zip":"0700000"},{"town":"曙一条一丁目","koaza":"","lat":43.769046,"lng":142.347752,"zip":"0700000"},{"town":"曙一条二丁目","koaza":"","lat":43.769532,"lng":142.346583,"zip":"0700000"},{"town":"曙一条三丁目","koaza":"","lat":43.770134,"lng":142.345508,"zip":"0700000"},{"town":"曙一条四丁目","koaza":"","lat":43.769896,"lng":142.343973,"zip":"0700000"},{"town":"曙一条五丁目","koaza":"","lat":43.77032,"lng":142.342557,"zip":"0700000"},{"town":"曙一条六丁目","koaza":"","lat":43.770729,"lng":142.341116,"zip":"0700000"},{"town":"曙一条七丁目","koaza":"","lat":43.771044,"lng":142.339588,"zip":"0700000"},{"town":"曙一条八丁目","koaza":"","lat":43.771756,"lng":142.33704,"zip":"0700000"},{"town":"曙二条三丁目","koaza":"","lat":43.768916,"lng":142.344855,"zip":"0700000"},{"town":"曙二条四丁目","koaza":"","lat":43.768868,"lng":142.343314,"zip":"0700000"},{"town":"曙二条五丁目","koaza":"","lat":43.769246,"lng":142.341924,"zip":"0700000"},{"town":"曙二条六丁目","koaza":"","lat":43.769673,"lng":142.34049,"zip":"0700000"},{"town":"曙二条七丁目","koaza":"","lat":43.770028,"lng":142.338987,"zip":"0700000"},{"town":"曙二条八丁目","koaza":"","lat":43.770124,"lng":142.33683,"zip":"0700000"},{"town":"曙三条一丁目","koaza":"","lat":43.766255,"lng":142.34682,"zip":"0700000"},{"town":"曙三条二丁目","koaza":"","lat":43.767404,"lng":142.346217,"zip":"0700000"},{"town":"曙三条三丁目","koaza":"","lat":43.767221,"lng":142.343979,"zip":"0700000"},{"town":"曙三条四丁目","koaza":"","lat":43.767471,"lng":142.342283,"zip":"0700000"},{"town":"曙三条五丁目","koaza":"","lat":43.767759,"lng":142.341062,"zip":"0700000"},{"town":"曙三条六丁目","koaza":"","lat":43.76806,"lng":142.339554,"zip":"0700000"},{"town":"曙三条七丁目","koaza":"","lat":43.768672,"lng":142.338202,"zip":"0700000"},{"town":"曙北二条五丁目","koaza":"","lat":43.771122,"lng":142.34308,"zip":"0700000"},{"town":"曙北二条六丁目","koaza":"","lat":43.771542,"lng":142.341598,"zip":"0700000"},{"town":"曙北二条七丁目","koaza":"","lat":43.771976,"lng":142.340146,"zip":"0700000"},{"town":"曙北二条八丁目","koaza":"","lat":43.772574,"lng":142.339005,"zip":"0700000"},{"town":"曙北三条六丁目","koaza":"","lat":43.772212,"lng":142.341973,"zip":"0700000"},{"town":"曙北三条七丁目","koaza":"","lat":43.772913,"lng":142.340634,"zip":"0700000"},{"town":"字近文五線","koaza":"","lat":43.807224,"lng":142.354654,"zip":"0700000"},{"town":"字近文六線","koaza":"","lat":43.804931,"lng":142.344059,"zip":"0700000"},{"town":"字近文七線","koaza":"","lat":43.806261,"lng":142.335924,"zip":"0700000"},{"town":"字近文八線","koaza":"","lat":43.811098,"lng":142.334102,"zip":"0700000"},{"town":"旭岡一丁目","koaza":"","lat":43.792547,"lng":142.310521,"zip":"0700822"},{"town":"旭岡二丁目","koaza":"","lat":43.793865,"lng":142.312436,"zip":"0700822"},{"town":"旭岡三丁目","koaza":"","lat":43.795399,"lng":142.317639,"zip":"0700822"},{"town":"旭岡四丁目","koaza":"","lat":43.797184,"lng":142.320243,"zip":"0700822"},{"town":"旭岡五丁目","koaza":"","lat":43.798035,"lng":142.323517,"zip":"0700822"},{"town":"旭岡六丁目","koaza":"","lat":43.799288,"lng":142.325349,"zip":"0700822"},{"town":"旭町一条十丁目","koaza":"","lat":43.788698,"lng":142.348761,"zip":"0700000"},{"town":"旭町一条十一丁目","koaza":"","lat":43.789523,"lng":142.347764,"zip":"0700000"},{"town":"旭町一条十二丁目","koaza":"","lat":43.79038,"lng":142.346365,"zip":"0700000"},{"town":"旭町一条十三丁目","koaza":"","lat":43.791364,"lng":142.345062,"zip":"0700000"},{"town":"旭町一条十四丁目","koaza":"","lat":43.792265,"lng":142.343866,"zip":"0700000"},{"town":"旭町一条十五丁目","koaza":"","lat":43.793172,"lng":142.34257,"zip":"0700000"},{"town":"旭町一条十六丁目","koaza":"","lat":43.793984,"lng":142.341289,"zip":"0700000"},{"town":"旭町一条十七丁目","koaza":"","lat":43.795033,"lng":142.340408,"zip":"0700000"},{"town":"旭町一条十八丁目","koaza":"","lat":43.795738,"lng":142.338928,"zip":"0700000"},{"town":"旭町一条十九丁目","koaza":"","lat":43.796636,"lng":142.33767,"zip":"0700000"},{"town":"旭町一条一丁目","koaza":"","lat":43.779917,"lng":142.360701,"zip":"0700000"},{"town":"旭町一条二十丁目","koaza":"","lat":43.797529,"lng":142.336404,"zip":"0700000"},{"town":"旭町一条二十一丁目","koaza":"","lat":43.798058,"lng":142.334824,"zip":"0700000"},{"town":"旭町一条二丁目","koaza":"","lat":43.78158,"lng":142.358904,"zip":"0700000"},{"town":"旭町一条三丁目","koaza":"","lat":43.782658,"lng":142.357102,"zip":"0700000"},{"town":"旭町一条四丁目","koaza":"","lat":43.783227,"lng":142.355904,"zip":"0700000"},{"town":"旭町一条五丁目","koaza":"","lat":43.783946,"lng":142.354543,"zip":"0700000"},{"town":"旭町一条六丁目","koaza":"","lat":43.784963,"lng":142.35349,"zip":"0700000"},{"town":"旭町一条七丁目","koaza":"","lat":43.785909,"lng":142.352197,"zip":"0700000"},{"town":"旭町一条八丁目","koaza":"","lat":43.786978,"lng":142.351106,"zip":"0700000"},{"town":"旭町一条九丁目","koaza":"","lat":43.787778,"lng":142.349855,"zip":"0700000"},{"town":"旭町二条十丁目","koaza":"","lat":43.789769,"lng":142.350164,"zip":"0700000"},{"town":"旭町二条十一丁目","koaza":"","lat":43.790678,"lng":142.34923,"zip":"0700000"},{"town":"旭町二条十二丁目","koaza":"","lat":43.791517,"lng":142.347991,"zip":"0700000"},{"town":"旭町二条十三丁目","koaza":"","lat":43.792494,"lng":142.346665,"zip":"0700000"},{"town":"旭町二条十四丁目","koaza":"","lat":43.793405,"lng":142.345383,"zip":"0700000"},{"town":"旭町二条十五丁目","koaza":"","lat":43.794317,"lng":142.344199,"zip":"0700000"},{"town":"旭町二条十六丁目","koaza":"","lat":43.795312,"lng":142.343162,"zip":"0700000"},{"town":"旭町二条十七丁目","koaza":"","lat":43.796057,"lng":142.341885,"zip":"0700000"},{"town":"旭町二条十八丁目","koaza":"","lat":43.796935,"lng":142.340548,"zip":"0700000"},{"town":"旭町二条十九丁目","koaza":"","lat":43.797868,"lng":142.33938,"zip":"0700000"},{"town":"旭町二条一丁目","koaza":"","lat":43.781008,"lng":142.362553,"zip":"0700000"},{"town":"旭町二条二十丁目","koaza":"","lat":43.798583,"lng":142.337766,"zip":"0700000"},{"town":"旭町二条二丁目","koaza":"","lat":43.782615,"lng":142.360279,"zip":"0700000"},{"town":"旭町二条三丁目","koaza":"","lat":43.783569,"lng":142.358986,"zip":"0700000"},{"town":"旭町二条四丁目","koaza":"","lat":43.784393,"lng":142.357514,"zip":"0700000"},{"town":"旭町二条五丁目","koaza":"","lat":43.785389,"lng":142.356461,"zip":"0700000"},{"town":"旭町二条六丁目","koaza":"","lat":43.786134,"lng":142.355099,"zip":"0700000"},{"town":"旭町二条七丁目","koaza":"","lat":43.787141,"lng":142.35387,"zip":"0700000"},{"town":"旭町二条八丁目","koaza":"","lat":43.788075,"lng":142.352686,"zip":"0700000"},{"town":"旭町二条九丁目","koaza":"","lat":43.78894,"lng":142.351562,"zip":"0700000"},{"town":"江丹別町嵐山","koaza":"","lat":43.798116,"lng":142.270626,"zip":"0708051"},{"town":"江丹別町春日","koaza":"","lat":43.762877,"lng":142.240844,"zip":"0708052"},{"town":"江丹別町共和","koaza":"","lat":43.832865,"lng":142.253698,"zip":"0708053"},{"town":"江丹別町清水","koaza":"","lat":43.872019,"lng":142.23394,"zip":"0711171"},{"town":"江丹別町拓北","koaza":"","lat":43.931566,"lng":142.211657,"zip":"0711172"},{"town":"江丹別町中央","koaza":"","lat":43.894251,"lng":142.236561,"zip":"0711173"},{"town":"江丹別町富原","koaza":"","lat":43.927896,"lng":142.259507,"zip":"0711174"},{"town":"江丹別町中園","koaza":"","lat":43.859189,"lng":142.258226,"zip":"0711175"},{"town":"江丹別町西里","koaza":"","lat":43.893398,"lng":142.189161,"zip":"0711176"},{"town":"江丹別町芳野","koaza":"","lat":43.888648,"lng":142.263601,"zip":"0711177"},{"town":"大町一条十丁目","koaza":"","lat":43.791051,"lng":142.352015,"zip":"0700000"},{"town":"大町一条十一丁目","koaza":"","lat":43.791998,"lng":142.350969,"zip":"0700000"},{"town":"大町一条十二丁目","koaza":"","lat":43.792745,"lng":142.349604,"zip":"0700000"},{"town":"大町一条十三丁目","koaza":"","lat":43.793704,"lng":142.3483,"zip":"0700000"},{"town":"大町一条十四丁目","koaza":"","lat":43.794601,"lng":142.347043,"zip":"0700000"},{"town":"大町一条十五丁目","koaza":"","lat":43.795514,"lng":142.345786,"zip":"0700000"},{"town":"大町一条十六丁目","koaza":"","lat":43.79638,"lng":142.344683,"zip":"0700000"},{"town":"大町一条十七丁目","koaza":"","lat":43.79722,"lng":142.343492,"zip":"0700000"},{"town":"大町一条十八丁目","koaza":"","lat":43.798113,"lng":142.342231,"zip":"0700000"},{"town":"大町一条十九丁目","koaza":"","lat":43.799109,"lng":142.341011,"zip":"0700000"},{"town":"大町一条一丁目","koaza":"","lat":43.782004,"lng":142.36444,"zip":"0700000"},{"town":"大町一条二十丁目","koaza":"","lat":43.799647,"lng":142.33986,"zip":"0700000"},{"town":"大町一条二丁目","koaza":"","lat":43.783832,"lng":142.361921,"zip":"0700000"},{"town":"大町一条三丁目","koaza":"","lat":43.784806,"lng":142.360706,"zip":"0700000"},{"town":"大町一条四丁目","koaza":"","lat":43.785722,"lng":142.359368,"zip":"0700000"},{"town":"大町一条五丁目","koaza":"","lat":43.786684,"lng":142.358258,"zip":"0700000"},{"town":"大町一条六丁目","koaza":"","lat":43.787451,"lng":142.356919,"zip":"0700000"},{"town":"大町一条七丁目","koaza":"","lat":43.788383,"lng":142.355671,"zip":"0700000"},{"town":"大町一条八丁目","koaza":"","lat":43.78926,"lng":142.354364,"zip":"0700000"},{"town":"大町一条九丁目","koaza":"","lat":43.790146,"lng":142.353232,"zip":"0700000"},{"town":"大町二条十丁目","koaza":"","lat":43.792271,"lng":142.35366,"zip":"0700000"},{"town":"大町二条十一丁目","koaza":"","lat":43.793146,"lng":142.352516,"zip":"0700000"},{"town":"大町二条十二丁目","koaza":"","lat":43.793947,"lng":142.35122,"zip":"0700000"},{"town":"大町二条十三丁目","koaza":"","lat":43.794888,"lng":142.350009,"zip":"0700000"},{"town":"大町二条十四丁目","koaza":"","lat":43.795812,"lng":142.348719,"zip":"0700000"},{"town":"大町二条十五丁目","koaza":"","lat":43.796692,"lng":142.347394,"zip":"0700000"},{"town":"大町二条十六丁目","koaza":"","lat":43.797541,"lng":142.34628,"zip":"0700000"},{"town":"大町二条十七丁目","koaza":"","lat":43.798381,"lng":142.34506,"zip":"0700000"},{"town":"大町二条十八丁目","koaza":"","lat":43.79928,"lng":142.343847,"zip":"0700000"},{"town":"大町二条十九丁目","koaza":"","lat":43.800203,"lng":142.342573,"zip":"0700000"},{"town":"大町二条一丁目","koaza":"","lat":43.783036,"lng":142.366285,"zip":"0700000"},{"town":"大町二条二十丁目","koaza":"","lat":43.800598,"lng":142.341458,"zip":"0700000"},{"town":"大町二条二丁目","koaza":"","lat":43.784895,"lng":142.363393,"zip":"0700000"},{"town":"大町二条三丁目","koaza":"","lat":43.785939,"lng":142.362274,"zip":"0700000"},{"town":"大町二条四丁目","koaza":"","lat":43.786753,"lng":142.360802,"zip":"0700000"},{"town":"大町二条五丁目","koaza":"","lat":43.787745,"lng":142.359703,"zip":"0700000"},{"town":"大町二条六丁目","koaza":"","lat":43.788514,"lng":142.358368,"zip":"0700000"},{"town":"大町二条七丁目","koaza":"","lat":43.789434,"lng":142.357095,"zip":"0700000"},{"town":"大町二条八丁目","koaza":"","lat":43.790482,"lng":142.355947,"zip":"0700000"},{"town":"大町二条九丁目","koaza":"","lat":43.791331,"lng":142.354785,"zip":"0700000"},{"town":"大町三条四丁目","koaza":"","lat":43.787501,"lng":142.3623,"zip":"0700000"},{"town":"大町三条五丁目","koaza":"","lat":43.788558,"lng":142.360809,"zip":"0700000"},{"town":"大町三条六丁目","koaza":"","lat":43.789433,"lng":142.359586,"zip":"0700000"},{"town":"大町三条七丁目","koaza":"","lat":43.790365,"lng":142.358253,"zip":"0700000"},{"town":"大町三条八丁目","koaza":"","lat":43.791249,"lng":142.356991,"zip":"0700000"},{"town":"大町三条九丁目","koaza":"","lat":43.792367,"lng":142.355457,"zip":"0700000"},{"town":"神楽一条十丁目","koaza":"","lat":43.757938,"lng":142.359761,"zip":"0700000"},{"town":"神楽一条十一丁目","koaza":"","lat":43.756692,"lng":142.361497,"zip":"0700000"},{"town":"神楽一条十二丁目","koaza":"","lat":43.755643,"lng":142.362337,"zip":"0700000"},{"town":"神楽一条六丁目","koaza":"","lat":43.763131,"lng":142.351564,"zip":"0700000"},{"town":"神楽一条七丁目","koaza":"","lat":43.761619,"lng":142.354601,"zip":"0700000"},{"town":"神楽一条八丁目","koaza":"","lat":43.760131,"lng":142.356455,"zip":"0700000"},{"town":"神楽一条九丁目","koaza":"","lat":43.759351,"lng":142.358093,"zip":"0700000"},{"town":"神楽二条十丁目","koaza":"","lat":43.756695,"lng":142.358056,"zip":"0700000"},{"town":"神楽二条十一丁目","koaza":"","lat":43.7553,"lng":142.359341,"zip":"0700000"},{"town":"神楽二条十二丁目","koaza":"","lat":43.754149,"lng":142.360932,"zip":"0700000"},{"town":"神楽二条二丁目","koaza":"","lat":43.765159,"lng":142.345352,"zip":"0700000"},{"town":"神楽二条三丁目","koaza":"","lat":43.764556,"lng":142.34705,"zip":"0700000"},{"town":"神楽二条四丁目","koaza":"","lat":43.763271,"lng":142.348657,"zip":"0700000"},{"town":"神楽二条五丁目","koaza":"","lat":43.762382,"lng":142.350062,"zip":"0700000"},{"town":"神楽二条六丁目","koaza":"","lat":43.761443,"lng":142.351574,"zip":"0700000"},{"town":"神楽二条七丁目","koaza":"","lat":43.760401,"lng":142.353068,"zip":"0700000"},{"town":"神楽二条八丁目","koaza":"","lat":43.759035,"lng":142.354821,"zip":"0700000"},{"town":"神楽二条九丁目","koaza":"","lat":43.757683,"lng":142.356154,"zip":"0700000"},{"town":"神楽三条十丁目","koaza":"","lat":43.75549,"lng":142.356415,"zip":"0700000"},{"town":"神楽三条十一丁目","koaza":"","lat":43.754151,"lng":142.357932,"zip":"0700000"},{"town":"神楽三条十二丁目","koaza":"","lat":43.752781,"lng":142.360032,"zip":"0700000"},{"town":"神楽三条二丁目","koaza":"","lat":43.76388,"lng":142.345082,"zip":"0700000"},{"town":"神楽三条三丁目","koaza":"","lat":43.763345,"lng":142.346312,"zip":"0700000"},{"town":"神楽三条四丁目","koaza":"","lat":43.762516,"lng":142.34765,"zip":"0700000"},{"town":"神楽三条五丁目","koaza":"","lat":43.761547,"lng":142.348748,"zip":"0700000"},{"town":"神楽三条六丁目","koaza":"","lat":43.760495,"lng":142.350103,"zip":"0700000"},{"town":"神楽三条七丁目","koaza":"","lat":43.759197,"lng":142.351744,"zip":"0700000"},{"town":"神楽三条八丁目","koaza":"","lat":43.757973,"lng":142.353577,"zip":"0700000"},{"town":"神楽三条九丁目","koaza":"","lat":43.756539,"lng":142.354753,"zip":"0700000"},{"town":"神楽四条十丁目","koaza":"","lat":43.754262,"lng":142.355004,"zip":"0700000"},{"town":"神楽四条十一丁目","koaza":"","lat":43.753056,"lng":142.356545,"zip":"0700000"},{"town":"神楽四条十二丁目","koaza":"","lat":43.751101,"lng":142.358411,"zip":"0700000"},{"town":"神楽四条十三丁目","koaza":"","lat":43.748471,"lng":142.358514,"zip":"0700000"},{"town":"神楽四条十四丁目","koaza":"","lat":43.745976,"lng":142.358131,"zip":"0700000"},{"town":"神楽四条一丁目","koaza":"","lat":43.765222,"lng":142.343221,"zip":"0700000"},{"town":"神楽四条二丁目","koaza":"","lat":43.763648,"lng":142.34392,"zip":"0700000"},{"town":"神楽四条三丁目","koaza":"","lat":43.762378,"lng":142.344882,"zip":"0700000"},{"town":"神楽四条四丁目","koaza":"","lat":43.761374,"lng":142.345529,"zip":"0700000"},{"town":"神楽四条五丁目","koaza":"","lat":43.760821,"lng":142.346985,"zip":"0700000"},{"town":"神楽四条六丁目","koaza":"","lat":43.759353,"lng":142.348478,"zip":"0700000"},{"town":"神楽四条七丁目","koaza":"","lat":43.757969,"lng":142.349916,"zip":"0700000"},{"town":"神楽四条八丁目","koaza":"","lat":43.756886,"lng":142.351594,"zip":"0700000"},{"town":"神楽四条九丁目","koaza":"","lat":43.755483,"lng":142.353068,"zip":"0700000"},{"town":"神楽五条十丁目","koaza":"","lat":43.753535,"lng":142.35329,"zip":"0700000"},{"town":"神楽五条十一丁目","koaza":"","lat":43.752349,"lng":142.353985,"zip":"0700000"},{"town":"神楽五条十二丁目","koaza":"","lat":43.749731,"lng":142.356323,"zip":"0700000"},{"town":"神楽五条十三丁目","koaza":"","lat":43.747005,"lng":142.356844,"zip":"0700000"},{"town":"神楽五条十四丁目","koaza":"","lat":43.745134,"lng":142.357182,"zip":"0700000"},{"town":"神楽五条一丁目","koaza":"","lat":43.765704,"lng":142.341259,"zip":"0700000"},{"town":"神楽五条二丁目","koaza":"","lat":43.763178,"lng":142.342526,"zip":"0700000"},{"town":"神楽五条三丁目","koaza":"","lat":43.761884,"lng":142.343404,"zip":"0700000"},{"town":"神楽五条四丁目","koaza":"","lat":43.76072,"lng":142.344208,"zip":"0700000"},{"town":"神楽五条五丁目","koaza":"","lat":43.75975,"lng":142.3457,"zip":"0700000"},{"town":"神楽五条六丁目","koaza":"","lat":43.758464,"lng":142.347073,"zip":"0700000"},{"town":"神楽五条七丁目","koaza":"","lat":43.757287,"lng":142.348266,"zip":"0700000"},{"town":"神楽五条八丁目","koaza":"","lat":43.756162,"lng":142.349578,"zip":"0700000"},{"town":"神楽五条九丁目","koaza":"","lat":43.754442,"lng":142.351809,"zip":"0700000"},{"town":"神楽六条十丁目","koaza":"","lat":43.752567,"lng":142.351724,"zip":"0700000"},{"town":"神楽六条十一丁目","koaza":"","lat":43.751007,"lng":142.353108,"zip":"0700000"},{"town":"神楽六条十二丁目","koaza":"","lat":43.749142,"lng":142.354545,"zip":"0700000"},{"town":"神楽六条十三丁目","koaza":"","lat":43.746518,"lng":142.355096,"zip":"0700000"},{"town":"神楽六条十四丁目","koaza":"","lat":43.744831,"lng":142.356045,"zip":"0700000"},{"town":"神楽六条一丁目","koaza":"","lat":43.764837,"lng":142.338601,"zip":"0700000"},{"town":"神楽六条二丁目","koaza":"","lat":43.762602,"lng":142.340522,"zip":"0700000"},{"town":"神楽六条三丁目","koaza":"","lat":43.761283,"lng":142.341327,"zip":"0700000"},{"town":"神楽六条四丁目","koaza":"","lat":43.759885,"lng":142.342468,"zip":"0700000"},{"town":"神楽六条五丁目","koaza":"","lat":43.758476,"lng":142.343956,"zip":"0700000"},{"town":"神楽六条六丁目","koaza":"","lat":43.756879,"lng":142.344734,"zip":"0700000"},{"town":"神楽六条七丁目","koaza":"","lat":43.756254,"lng":142.346948,"zip":"0700000"},{"town":"神楽六条八丁目","koaza":"","lat":43.754858,"lng":142.348695,"zip":"0700000"},{"town":"神楽六条九丁目","koaza":"","lat":43.753657,"lng":142.350286,"zip":"0700000"},{"town":"神楽七条十丁目","koaza":"","lat":43.751533,"lng":142.349695,"zip":"0700000"},{"town":"神楽七条十一丁目","koaza":"","lat":43.749619,"lng":142.350631,"zip":"0700000"},{"town":"神楽七条十二丁目","koaza":"","lat":43.747468,"lng":142.351372,"zip":"0700000"},{"town":"神楽七条十三丁目","koaza":"","lat":43.74575,"lng":142.352736,"zip":"0700000"},{"town":"神楽七条十四丁目","koaza":"","lat":43.744115,"lng":142.353675,"zip":"0700000"},{"town":"神楽七条七丁目","koaza":"","lat":43.754735,"lng":142.345557,"zip":"0700000"},{"town":"神楽七条八丁目","koaza":"","lat":43.753503,"lng":142.346731,"zip":"0700000"},{"town":"神楽七条九丁目","koaza":"","lat":43.752174,"lng":142.348045,"zip":"0700000"},{"town":"神楽岡十条一丁目","koaza":"","lat":43.747317,"lng":142.360256,"zip":"0700000"},{"town":"神楽岡十条二丁目","koaza":"","lat":43.746473,"lng":142.362385,"zip":"0700000"},{"town":"神楽岡十条三丁目","koaza":"","lat":43.744735,"lng":142.363422,"zip":"0700000"},{"town":"神楽岡十条四丁目","koaza":"","lat":43.742484,"lng":142.364693,"zip":"0700000"},{"town":"神楽岡十条五丁目","koaza":"","lat":43.740177,"lng":142.366027,"zip":"0700000"},{"town":"神楽岡十条六丁目","koaza":"","lat":43.738199,"lng":142.367227,"zip":"0700000"},{"town":"神楽岡十条七丁目","koaza":"","lat":43.7365,"lng":142.368799,"zip":"0700000"},{"town":"神楽岡十条八丁目","koaza":"","lat":43.735212,"lng":142.369745,"zip":"0700000"},{"town":"神楽岡十条九丁目","koaza":"","lat":43.733818,"lng":142.371249,"zip":"0700000"},{"town":"神楽岡十一条一丁目","koaza":"","lat":43.746444,"lng":142.359753,"zip":"0700000"},{"town":"神楽岡十一条二丁目","koaza":"","lat":43.745688,"lng":142.361347,"zip":"0700000"},{"town":"神楽岡十一条三丁目","koaza":"","lat":43.744336,"lng":142.362014,"zip":"0700000"},{"town":"神楽岡十一条四丁目","koaza":"","lat":43.74205,"lng":142.363298,"zip":"0700000"},{"town":"神楽岡十一条五丁目","koaza":"","lat":43.739739,"lng":142.364667,"zip":"0700000"},{"town":"神楽岡十一条六丁目","koaza":"","lat":43.737702,"lng":142.365933,"zip":"0700000"},{"town":"神楽岡十一条七丁目","koaza":"","lat":43.735709,"lng":142.367413,"zip":"0700000"},{"town":"神楽岡十一条八丁目","koaza":"","lat":43.734685,"lng":142.368287,"zip":"0700000"},{"town":"神楽岡十一条九丁目","koaza":"","lat":43.733129,"lng":142.368673,"zip":"0700000"},{"town":"神楽岡十二条一丁目","koaza":"","lat":43.745763,"lng":142.358746,"zip":"0700000"},{"town":"神楽岡十二条二丁目","koaza":"","lat":43.745192,"lng":142.359252,"zip":"0700000"},{"town":"神楽岡十二条三丁目","koaza":"","lat":43.74379,"lng":142.360663,"zip":"0700000"},{"town":"神楽岡十二条四丁目","koaza":"","lat":43.741595,"lng":142.361909,"zip":"0700000"},{"town":"神楽岡十二条五丁目","koaza":"","lat":43.739315,"lng":142.363224,"zip":"0700000"},{"town":"神楽岡十二条六丁目","koaza":"","lat":43.736902,"lng":142.364672,"zip":"0700000"},{"town":"神楽岡十二条七丁目","koaza":"","lat":43.735548,"lng":142.36533,"zip":"0700000"},{"town":"神楽岡十二条八丁目","koaza":"","lat":43.733573,"lng":142.366398,"zip":"0700000"},{"town":"神楽岡十二条九丁目","koaza":"","lat":43.732236,"lng":142.367617,"zip":"0700000"},{"town":"神楽岡十三条三丁目","koaza":"","lat":43.743477,"lng":142.359085,"zip":"0700000"},{"town":"神楽岡十三条四丁目","koaza":"","lat":43.741189,"lng":142.360568,"zip":"0700000"},{"town":"神楽岡十三条五丁目","koaza":"","lat":43.738913,"lng":142.361871,"zip":"0700000"},{"town":"神楽岡十三条六丁目","koaza":"","lat":43.736374,"lng":142.363393,"zip":"0700000"},{"town":"神楽岡十三条七丁目","koaza":"","lat":43.734882,"lng":142.363934,"zip":"0700000"},{"town":"神楽岡十三条八丁目","koaza":"","lat":43.733118,"lng":142.36494,"zip":"0700000"},{"town":"神楽岡十三条九丁目","koaza":"","lat":43.731293,"lng":142.366099,"zip":"0700000"},{"town":"神楽岡十四条三丁目","koaza":"","lat":43.743108,"lng":142.35774,"zip":"0700000"},{"town":"神楽岡十四条四丁目","koaza":"","lat":43.740489,"lng":142.359072,"zip":"0700000"},{"town":"神楽岡十四条五丁目","koaza":"","lat":43.738499,"lng":142.360467,"zip":"0700000"},{"town":"神楽岡十四条六丁目","koaza":"","lat":43.735878,"lng":142.36123,"zip":"0700000"},{"town":"神楽岡十四条七丁目","koaza":"","lat":43.733758,"lng":142.362305,"zip":"0700000"},{"town":"神楽岡十四条八丁目","koaza":"","lat":43.732127,"lng":142.362994,"zip":"0700000"},{"town":"神楽岡十四条九丁目","koaza":"","lat":43.730803,"lng":142.363477,"zip":"0700000"},{"town":"神楽岡十五条三丁目","koaza":"","lat":43.742749,"lng":142.356328,"zip":"0700000"},{"town":"神楽岡十五条四丁目","koaza":"","lat":43.740298,"lng":142.357542,"zip":"0700000"},{"town":"神楽岡十五条五丁目","koaza":"","lat":43.737691,"lng":142.357446,"zip":"0700000"},{"town":"神楽岡十六条三丁目","koaza":"","lat":43.741749,"lng":142.353968,"zip":"0700000"},{"town":"神楽岡十六条四丁目","koaza":"","lat":43.739657,"lng":142.355424,"zip":"0700000"},{"town":"神楽岡一条四丁目","koaza":"","lat":43.747213,"lng":142.375565,"zip":"0700000"},{"town":"神楽岡一条五丁目","koaza":"","lat":43.744536,"lng":142.378389,"zip":"0700000"},{"town":"神楽岡一条六丁目","koaza":"","lat":43.742765,"lng":142.378543,"zip":"0700000"},{"town":"神楽岡一条七丁目","koaza":"","lat":43.740093,"lng":142.380384,"zip":"0700000"},{"town":"神楽岡二条四丁目","koaza":"","lat":43.746197,"lng":142.374259,"zip":"0700000"},{"town":"神楽岡二条五丁目","koaza":"","lat":43.744045,"lng":142.376683,"zip":"0700000"},{"town":"神楽岡二条六丁目","koaza":"","lat":43.741731,"lng":142.377976,"zip":"0700000"},{"town":"神楽岡二条七丁目","koaza":"","lat":43.73961,"lng":142.379158,"zip":"0700000"},{"town":"神楽岡三条四丁目","koaza":"","lat":43.745644,"lng":142.373536,"zip":"0700000"},{"town":"神楽岡三条五丁目","koaza":"","lat":43.743633,"lng":142.375338,"zip":"0700000"},{"town":"神楽岡三条六丁目","koaza":"","lat":43.741315,"lng":142.376627,"zip":"0700000"},{"town":"神楽岡三条七丁目","koaza":"","lat":43.739372,"lng":142.377751,"zip":"0700000"},{"town":"神楽岡四条四丁目","koaza":"","lat":43.745099,"lng":142.372197,"zip":"0700000"},{"town":"神楽岡四条五丁目","koaza":"","lat":43.743233,"lng":142.374,"zip":"0700000"},{"town":"神楽岡四条六丁目","koaza":"","lat":43.740908,"lng":142.375294,"zip":"0700000"},{"town":"神楽岡四条七丁目","koaza":"","lat":43.73881,"lng":142.376503,"zip":"0700000"},{"town":"神楽岡五条四丁目","koaza":"","lat":43.744522,"lng":142.371559,"zip":"0700000"},{"town":"神楽岡五条五丁目","koaza":"","lat":43.74285,"lng":142.372731,"zip":"0700000"},{"town":"神楽岡五条六丁目","koaza":"","lat":43.740522,"lng":142.37403,"zip":"0700000"},{"town":"神楽岡五条七丁目","koaza":"","lat":43.738603,"lng":142.375174,"zip":"0700000"},{"town":"神楽岡六条三丁目","koaza":"","lat":43.74524,"lng":142.369874,"zip":"0700000"},{"town":"神楽岡六条四丁目","koaza":"","lat":43.744344,"lng":142.37047,"zip":"0700000"},{"town":"神楽岡六条五丁目","koaza":"","lat":43.742411,"lng":142.37143,"zip":"0700000"},{"town":"神楽岡六条六丁目","koaza":"","lat":43.740023,"lng":142.372595,"zip":"0700000"},{"town":"神楽岡六条七丁目","koaza":"","lat":43.738221,"lng":142.373809,"zip":"0700000"},{"town":"神楽岡七条三丁目","koaza":"","lat":43.745805,"lng":142.367942,"zip":"0700000"},{"town":"神楽岡七条四丁目","koaza":"","lat":43.743964,"lng":142.368934,"zip":"0700000"},{"town":"神楽岡七条五丁目","koaza":"","lat":43.741838,"lng":142.370225,"zip":"0700000"},{"town":"神楽岡七条六丁目","koaza":"","lat":43.739734,"lng":142.371369,"zip":"0700000"},{"town":"神楽岡七条七丁目","koaza":"","lat":43.737743,"lng":142.372287,"zip":"0700000"},{"town":"神楽岡八条一丁目","koaza":"","lat":43.748607,"lng":142.36139,"zip":"0700000"},{"town":"神楽岡八条二丁目","koaza":"","lat":43.747495,"lng":142.364025,"zip":"0700000"},{"town":"神楽岡八条三丁目","koaza":"","lat":43.745463,"lng":142.366409,"zip":"0700000"},{"town":"神楽岡八条四丁目","koaza":"","lat":43.743213,"lng":142.367626,"zip":"0700000"},{"town":"神楽岡八条五丁目","koaza":"","lat":43.74092,"lng":142.368952,"zip":"0700000"},{"town":"神楽岡八条六丁目","koaza":"","lat":43.738947,"lng":142.370089,"zip":"0700000"},{"town":"神楽岡八条七丁目","koaza":"","lat":43.737253,"lng":142.370394,"zip":"0700000"},{"town":"神楽岡九条一丁目","koaza":"","lat":43.747944,"lng":142.360823,"zip":"0700000"},{"town":"神楽岡九条二丁目","koaza":"","lat":43.746918,"lng":142.363218,"zip":"0700000"},{"town":"神楽岡九条三丁目","koaza":"","lat":43.745052,"lng":142.364875,"zip":"0700000"},{"town":"神楽岡九条四丁目","koaza":"","lat":43.742761,"lng":142.366158,"zip":"0700000"},{"town":"神楽岡九条五丁目","koaza":"","lat":43.740523,"lng":142.367402,"zip":"0700000"},{"town":"神楽岡九条六丁目","koaza":"","lat":43.738484,"lng":142.368516,"zip":"0700000"},{"town":"神楽岡九条七丁目","koaza":"","lat":43.736868,"lng":142.369183,"zip":"0700000"},{"town":"柏木","koaza":"","lat":43.926673,"lng":142.420372,"zip":"0700000"},{"town":"上常盤町一丁目","koaza":"","lat":43.775995,"lng":142.365324,"zip":"0700041"},{"town":"上常盤町二丁目","koaza":"","lat":43.776538,"lng":142.364909,"zip":"0700041"},{"town":"上常盤町三丁目","koaza":"","lat":43.777077,"lng":142.363799,"zip":"0700041"},{"town":"神居一条十丁目","koaza":"","lat":43.760459,"lng":142.338476,"zip":"0700000"},{"town":"神居一条十一丁目","koaza":"","lat":43.759356,"lng":142.339746,"zip":"0700000"},{"town":"神居一条十二丁目","koaza":"","lat":43.758372,"lng":142.33999,"zip":"0700000"},{"town":"神居一条十三丁目","koaza":"","lat":43.757269,"lng":142.340541,"zip":"0700000"},{"town":"神居一条十四丁目","koaza":"","lat":43.756155,"lng":142.34129,"zip":"0700000"},{"town":"神居一条十五丁目","koaza":"","lat":43.755094,"lng":142.341992,"zip":"0700000"},{"town":"神居一条十六丁目","koaza":"","lat":43.754038,"lng":142.342667,"zip":"0700000"},{"town":"神居一条十七丁目","koaza":"","lat":43.752539,"lng":142.343454,"zip":"0700000"},{"town":"神居一条十八丁目","koaza":"","lat":43.750768,"lng":142.344992,"zip":"0700000"},{"town":"神居一条十九丁目","koaza":"","lat":43.7491,"lng":142.345635,"zip":"0700000"},{"town":"神居一条一丁目","koaza":"","lat":43.770165,"lng":142.332459,"zip":"0700000"},{"town":"神居一条二十丁目","koaza":"","lat":43.747583,"lng":142.346616,"zip":"0700000"},{"town":"神居一条二十一丁目","koaza":"","lat":43.745948,"lng":142.347246,"zip":"0700000"},{"town":"神居一条二丁目","koaza":"","lat":43.769212,"lng":142.333868,"zip":"0700000"},{"town":"神居一条三丁目","koaza":"","lat":43.768178,"lng":142.334294,"zip":"0700000"},{"town":"神居一条四丁目","koaza":"","lat":43.767212,"lng":142.33531,"zip":"0700000"},{"town":"神居一条五丁目","koaza":"","lat":43.766099,"lng":142.33613,"zip":"0700000"},{"town":"神居一条六丁目","koaza":"","lat":43.764918,"lng":142.336043,"zip":"0700000"},{"town":"神居一条七丁目","koaza":"","lat":43.763566,"lng":142.336501,"zip":"0700000"},{"town":"神居一条八丁目","koaza":"","lat":43.7625,"lng":142.336908,"zip":"0700000"},{"town":"神居一条九丁目","koaza":"","lat":43.761674,"lng":142.338068,"zip":"0700000"},{"town":"神居二条十丁目","koaza":"","lat":43.759735,"lng":142.33613,"zip":"0700000"},{"town":"神居二条十一丁目","koaza":"","lat":43.758626,"lng":142.336769,"zip":"0700000"},{"town":"神居二条十二丁目","koaza":"","lat":43.757581,"lng":142.337376,"zip":"0700000"},{"town":"神居二条十三丁目","koaza":"","lat":43.756508,"lng":142.338009,"zip":"0700000"},{"town":"神居二条十四丁目","koaza":"","lat":43.755382,"lng":142.338674,"zip":"0700000"},{"town":"神居二条十五丁目","koaza":"","lat":43.754272,"lng":142.33933,"zip":"0700000"},{"town":"神居二条十六丁目","koaza":"","lat":43.752915,"lng":142.340159,"zip":"0700000"},{"town":"神居二条十七丁目","koaza":"","lat":43.751428,"lng":142.341058,"zip":"0700000"},{"town":"神居二条十八丁目","koaza":"","lat":43.749959,"lng":142.342267,"zip":"0700000"},{"town":"神居二条十九丁目","koaza":"","lat":43.748503,"lng":142.343578,"zip":"0700000"},{"town":"神居二条一丁目","koaza":"","lat":43.769459,"lng":142.329995,"zip":"0700000"},{"town":"神居二条二十丁目","koaza":"","lat":43.746975,"lng":142.344479,"zip":"0700000"},{"town":"神居二条二十一丁目","koaza":"","lat":43.74533,"lng":142.345103,"zip":"0700000"},{"town":"神居二条二丁目","koaza":"","lat":43.768565,"lng":142.330964,"zip":"0700000"},{"town":"神居二条三丁目","koaza":"","lat":43.767384,"lng":142.331663,"zip":"0700000"},{"town":"神居二条四丁目","koaza":"","lat":43.766267,"lng":142.332316,"zip":"0700000"},{"town":"神居二条五丁目","koaza":"","lat":43.765157,"lng":142.332977,"zip":"0700000"},{"town":"神居二条六丁目","koaza":"","lat":43.76412,"lng":142.333595,"zip":"0700000"},{"town":"神居二条七丁目","koaza":"","lat":43.763046,"lng":142.334213,"zip":"0700000"},{"town":"神居二条八丁目","koaza":"","lat":43.761968,"lng":142.334828,"zip":"0700000"},{"town":"神居二条九丁目","koaza":"","lat":43.760887,"lng":142.335456,"zip":"0700000"},{"town":"神居三条十丁目","koaza":"","lat":43.759255,"lng":142.334582,"zip":"0700000"},{"town":"神居三条十一丁目","koaza":"","lat":43.758176,"lng":142.335138,"zip":"0700000"},{"town":"神居三条十二丁目","koaza":"","lat":43.757095,"lng":142.33581,"zip":"0700000"},{"town":"神居三条十三丁目","koaza":"","lat":43.756024,"lng":142.336402,"zip":"0700000"},{"town":"神居三条十四丁目","koaza":"","lat":43.754849,"lng":142.33705,"zip":"0700000"},{"town":"神居三条十五丁目","koaza":"","lat":43.753732,"lng":142.337663,"zip":"0700000"},{"town":"神居三条十六丁目","koaza":"","lat":43.752477,"lng":142.338634,"zip":"0700000"},{"town":"神居三条十七丁目","koaza":"","lat":43.750941,"lng":142.339524,"zip":"0700000"},{"town":"神居三条十八丁目","koaza":"","lat":43.749334,"lng":142.340201,"zip":"0700000"},{"town":"神居三条十九丁目","koaza":"","lat":43.747988,"lng":142.341605,"zip":"0700000"},{"town":"神居三条一丁目","koaza":"","lat":43.769145,"lng":142.329206,"zip":"0700000"},{"town":"神居三条二十丁目","koaza":"","lat":43.746385,"lng":142.342077,"zip":"0700000"},{"town":"神居三条二十一丁目","koaza":"","lat":43.744658,"lng":142.343054,"zip":"0700000"},{"town":"神居三条二丁目","koaza":"","lat":43.768062,"lng":142.329636,"zip":"0700000"},{"town":"神居三条三丁目","koaza":"","lat":43.767007,"lng":142.329986,"zip":"0700000"},{"town":"神居三条四丁目","koaza":"","lat":43.765682,"lng":142.33084,"zip":"0700000"},{"town":"神居三条五丁目","koaza":"","lat":43.764786,"lng":142.331771,"zip":"0700000"},{"town":"神居三条六丁目","koaza":"","lat":43.763752,"lng":142.332377,"zip":"0700000"},{"town":"神居三条七丁目","koaza":"","lat":43.762578,"lng":142.332681,"zip":"0700000"},{"town":"神居三条八丁目","koaza":"","lat":43.761481,"lng":142.333313,"zip":"0700000"},{"town":"神居三条九丁目","koaza":"","lat":43.760388,"lng":142.333931,"zip":"0700000"},{"town":"神居四条十丁目","koaza":"","lat":43.758701,"lng":142.332877,"zip":"0700000"},{"town":"神居四条十一丁目","koaza":"","lat":43.757611,"lng":142.333418,"zip":"0700000"},{"town":"神居四条十二丁目","koaza":"","lat":43.756639,"lng":142.334233,"zip":"0700000"},{"town":"神居四条十三丁目","koaza":"","lat":43.755558,"lng":142.334855,"zip":"0700000"},{"town":"神居四条十四丁目","koaza":"","lat":43.754419,"lng":142.335501,"zip":"0700000"},{"town":"神居四条十五丁目","koaza":"","lat":43.753274,"lng":142.336002,"zip":"0700000"},{"town":"神居四条十六丁目","koaza":"","lat":43.752003,"lng":142.337022,"zip":"0700000"},{"town":"神居四条十七丁目","koaza":"","lat":43.750521,"lng":142.33794,"zip":"0700000"},{"town":"神居四条十八丁目","koaza":"","lat":43.748882,"lng":142.338724,"zip":"0700000"},{"town":"神居四条十九丁目","koaza":"","lat":43.747415,"lng":142.340025,"zip":"0700000"},{"town":"神居四条一丁目","koaza":"","lat":43.768636,"lng":142.327542,"zip":"0700000"},{"town":"神居四条二十丁目","koaza":"","lat":43.745717,"lng":142.340448,"zip":"0700000"},{"town":"神居四条二十一丁目","koaza":"","lat":43.744135,"lng":142.341347,"zip":"0700000"},{"town":"神居四条二丁目","koaza":"","lat":43.767573,"lng":142.327932,"zip":"0700000"},{"town":"神居四条三丁目","koaza":"","lat":43.766419,"lng":142.328487,"zip":"0700000"},{"town":"神居四条四丁目","koaza":"","lat":43.765142,"lng":142.329082,"zip":"0700000"},{"town":"神居四条五丁目","koaza":"","lat":43.764449,"lng":142.330236,"zip":"0700000"},{"town":"神居四条六丁目","koaza":"","lat":43.763284,"lng":142.330817,"zip":"0700000"},{"town":"神居四条七丁目","koaza":"","lat":43.762111,"lng":142.331119,"zip":"0700000"},{"town":"神居四条八丁目","koaza":"","lat":43.760974,"lng":142.331635,"zip":"0700000"},{"town":"神居四条九丁目","koaza":"","lat":43.759829,"lng":142.332274,"zip":"0700000"},{"town":"神居五条十丁目","koaza":"","lat":43.758281,"lng":142.331241,"zip":"0700000"},{"town":"神居五条十一丁目","koaza":"","lat":43.757059,"lng":142.332028,"zip":"0700000"},{"town":"神居五条十二丁目","koaza":"","lat":43.75613,"lng":142.33236,"zip":"0700000"},{"town":"神居五条十三丁目","koaza":"","lat":43.755147,"lng":142.333525,"zip":"0700000"},{"town":"神居五条十四丁目","koaza":"","lat":43.753999,"lng":142.334237,"zip":"0700000"},{"town":"神居五条十五丁目","koaza":"","lat":43.75275,"lng":142.33486,"zip":"0700000"},{"town":"神居五条十六丁目","koaza":"","lat":43.751553,"lng":142.335713,"zip":"0700000"},{"town":"神居五条十七丁目","koaza":"","lat":43.750025,"lng":142.336584,"zip":"0700000"},{"town":"神居五条十八丁目","koaza":"","lat":43.748508,"lng":142.337466,"zip":"0700000"},{"town":"神居五条十九丁目","koaza":"","lat":43.746977,"lng":142.33793,"zip":"0700000"},{"town":"神居五条一丁目","koaza":"","lat":43.768148,"lng":142.325802,"zip":"0700000"},{"town":"神居五条二十丁目","koaza":"","lat":43.745196,"lng":142.337859,"zip":"0700000"},{"town":"神居五条二十一丁目","koaza":"","lat":43.743872,"lng":142.339736,"zip":"0700000"},{"town":"神居五条二丁目","koaza":"","lat":43.767074,"lng":142.326455,"zip":"0700000"},{"town":"神居五条三丁目","koaza":"","lat":43.765902,"lng":142.326833,"zip":"0700000"},{"town":"神居五条四丁目","koaza":"","lat":43.764791,"lng":142.327485,"zip":"0700000"},{"town":"神居五条五丁目","koaza":"","lat":43.763762,"lng":142.328213,"zip":"0700000"},{"town":"神居五条六丁目","koaza":"","lat":43.762685,"lng":142.328833,"zip":"0700000"},{"town":"神居五条七丁目","koaza":"","lat":43.761532,"lng":142.32966,"zip":"0700000"},{"town":"神居五条八丁目","koaza":"","lat":43.760451,"lng":142.33,"zip":"0700000"},{"town":"神居五条九丁目","koaza":"","lat":43.759328,"lng":142.330824,"zip":"0700000"},{"town":"神居六条十丁目","koaza":"","lat":43.757831,"lng":142.329929,"zip":"0700000"},{"town":"神居六条十一丁目","koaza":"","lat":43.756745,"lng":142.330386,"zip":"0700000"},{"town":"神居六条十二丁目","koaza":"","lat":43.755665,"lng":142.331112,"zip":"0700000"},{"town":"神居六条十三丁目","koaza":"","lat":43.754827,"lng":142.332029,"zip":"0700000"},{"town":"神居六条十四丁目","koaza":"","lat":43.753576,"lng":142.332749,"zip":"0700000"},{"town":"神居六条十五丁目","koaza":"","lat":43.752557,"lng":142.333449,"zip":"0700000"},{"town":"神居六条十六丁目","koaza":"","lat":43.751225,"lng":142.33423,"zip":"0700000"},{"town":"神居六条十七丁目","koaza":"","lat":43.749587,"lng":142.335174,"zip":"0700000"},{"town":"神居六条十八丁目","koaza":"","lat":43.748148,"lng":142.335991,"zip":"0700000"},{"town":"神居六条十九丁目","koaza":"","lat":43.746514,"lng":142.336375,"zip":"0700000"},{"town":"神居六条一丁目","koaza":"","lat":43.767915,"lng":142.324171,"zip":"0700000"},{"town":"神居六条二丁目","koaza":"","lat":43.766635,"lng":142.32502,"zip":"0700000"},{"town":"神居六条三丁目","koaza":"","lat":43.765464,"lng":142.325401,"zip":"0700000"},{"town":"神居六条四丁目","koaza":"","lat":43.764361,"lng":142.326058,"zip":"0700000"},{"town":"神居六条五丁目","koaza":"","lat":43.763273,"lng":142.326692,"zip":"0700000"},{"town":"神居六条六丁目","koaza":"","lat":43.762219,"lng":142.327307,"zip":"0700000"},{"town":"神居六条七丁目","koaza":"","lat":43.76115,"lng":142.327951,"zip":"0700000"},{"town":"神居六条八丁目","koaza":"","lat":43.760041,"lng":142.328621,"zip":"0700000"},{"town":"神居六条九丁目","koaza":"","lat":43.758941,"lng":142.329272,"zip":"0700000"},{"town":"神居七条十丁目","koaza":"","lat":43.757476,"lng":142.328783,"zip":"0700000"},{"town":"神居七条十一丁目","koaza":"","lat":43.756423,"lng":142.329136,"zip":"0700000"},{"town":"神居七条十二丁目","koaza":"","lat":43.75531,"lng":142.329865,"zip":"0700000"},{"town":"神居七条十三丁目","koaza":"","lat":43.75422,"lng":142.330513,"zip":"0700000"},{"town":"神居七条十四丁目","koaza":"","lat":43.753123,"lng":142.33119,"zip":"0700000"},{"town":"神居七条十五丁目","koaza":"","lat":43.752058,"lng":142.331864,"zip":"0700000"},{"town":"神居七条十六丁目","koaza":"","lat":43.750683,"lng":142.332765,"zip":"0700000"},{"town":"神居七条十七丁目","koaza":"","lat":43.749114,"lng":142.333701,"zip":"0700000"},{"town":"神居七条十八丁目","koaza":"","lat":43.747723,"lng":142.335076,"zip":"0700000"},{"town":"神居七条一丁目","koaza":"","lat":43.767425,"lng":142.32294,"zip":"0700000"},{"town":"神居七条二丁目","koaza":"","lat":43.766216,"lng":142.323637,"zip":"0700000"},{"town":"神居七条三丁目","koaza":"","lat":43.765123,"lng":142.324279,"zip":"0700000"},{"town":"神居七条四丁目","koaza":"","lat":43.764023,"lng":142.324932,"zip":"0700000"},{"town":"神居七条五丁目","koaza":"","lat":43.762935,"lng":142.325571,"zip":"0700000"},{"town":"神居七条六丁目","koaza":"","lat":43.761862,"lng":142.326195,"zip":"0700000"},{"town":"神居七条七丁目","koaza":"","lat":43.760742,"lng":142.326987,"zip":"0700000"},{"town":"神居七条八丁目","koaza":"","lat":43.759715,"lng":142.327486,"zip":"0700000"},{"town":"神居七条九丁目","koaza":"","lat":43.758591,"lng":142.32814,"zip":"0700000"},{"town":"神居八条十丁目","koaza":"","lat":43.757038,"lng":142.327805,"zip":"0700000"},{"town":"神居八条十一丁目","koaza":"","lat":43.755859,"lng":142.327433,"zip":"0700000"},{"town":"神居八条十二丁目","koaza":"","lat":43.754771,"lng":142.328102,"zip":"0700000"},{"town":"神居八条十三丁目","koaza":"","lat":43.753684,"lng":142.328681,"zip":"0700000"},{"town":"神居八条十四丁目","koaza":"","lat":43.752565,"lng":142.329704,"zip":"0700000"},{"town":"神居八条十五丁目","koaza":"","lat":43.751555,"lng":142.330247,"zip":"0700000"},{"town":"神居八条十六丁目","koaza":"","lat":43.749978,"lng":142.330522,"zip":"0700000"},{"town":"神居八条十七丁目","koaza":"","lat":43.748812,"lng":142.331889,"zip":"0700000"},{"town":"神居八条一丁目","koaza":"","lat":43.767262,"lng":142.32173,"zip":"0700000"},{"town":"神居八条二丁目","koaza":"","lat":43.765742,"lng":142.322473,"zip":"0700000"},{"town":"神居八条三丁目","koaza":"","lat":43.764795,"lng":142.323198,"zip":"0700000"},{"town":"神居八条四丁目","koaza":"","lat":43.763709,"lng":142.323848,"zip":"0700000"},{"town":"神居八条五丁目","koaza":"","lat":43.76257,"lng":142.324354,"zip":"0700000"},{"town":"神居八条六丁目","koaza":"","lat":43.761545,"lng":142.325211,"zip":"0700000"},{"town":"神居八条七丁目","koaza":"","lat":43.760266,"lng":142.325828,"zip":"0700000"},{"town":"神居八条八丁目","koaza":"","lat":43.759393,"lng":142.326342,"zip":"0700000"},{"town":"神居八条九丁目","koaza":"","lat":43.758251,"lng":142.327025,"zip":"0700000"},{"town":"神居九条十丁目","koaza":"","lat":43.756728,"lng":142.326606,"zip":"0700000"},{"town":"神居九条一丁目","koaza":"","lat":43.76719,"lng":142.31827,"zip":"0700000"},{"town":"神居九条二丁目","koaza":"","lat":43.765356,"lng":142.320503,"zip":"0700000"},{"town":"神居九条三丁目","koaza":"","lat":43.764304,"lng":142.321714,"zip":"0700000"},{"town":"神居九条四丁目","koaza":"","lat":43.763279,"lng":142.322364,"zip":"0700000"},{"town":"神居九条五丁目","koaza":"","lat":43.762216,"lng":142.322836,"zip":"0700000"},{"town":"神居九条六丁目","koaza":"","lat":43.761234,"lng":142.3239,"zip":"0700000"},{"town":"神居九条七丁目","koaza":"","lat":43.760054,"lng":142.324426,"zip":"0700000"},{"town":"神居九条八丁目","koaza":"","lat":43.758897,"lng":142.32523,"zip":"0700000"},{"town":"神居九条九丁目","koaza":"","lat":43.757827,"lng":142.325517,"zip":"0700000"},{"town":"神居町雨紛","koaza":"","lat":43.732285,"lng":142.351569,"zip":"0708033"},{"town":"神居町上雨紛","koaza":"","lat":43.691462,"lng":142.331333,"zip":"0708034"},{"town":"神居町神岡","koaza":"","lat":43.757286,"lng":142.322954,"zip":"0708026"},{"town":"神居町神居古潭","koaza":"","lat":43.708551,"lng":142.226256,"zip":"0780185"},{"town":"神居町共栄","koaza":"","lat":43.695025,"lng":142.317299,"zip":"0708032"},{"town":"神居町御料","koaza":"","lat":43.69307,"lng":142.289581,"zip":"0700000"},{"town":"神居町神華","koaza":"","lat":43.672044,"lng":142.336313,"zip":"0708031"},{"town":"神居町台場","koaza":"","lat":43.771969,"lng":142.293731,"zip":"0708022"},{"town":"神居町忠和","koaza":"","lat":43.780644,"lng":142.295829,"zip":"0708021"},{"town":"神居町富岡","koaza":"","lat":43.742424,"lng":142.297737,"zip":"0708025"},{"town":"神居町富沢","koaza":"","lat":43.739077,"lng":142.32895,"zip":"0708024"},{"town":"神居町豊里","koaza":"","lat":43.667949,"lng":142.224789,"zip":"0741182"},{"town":"神居町西丘","koaza":"","lat":43.701137,"lng":142.194446,"zip":"0780186"},{"town":"神居町春志内","koaza":"","lat":43.721521,"lng":142.262792,"zip":"0708023"},{"town":"亀吉一条一丁目","koaza":"","lat":43.772722,"lng":142.335906,"zip":"0700000"},{"town":"亀吉一条二丁目","koaza":"","lat":43.77366,"lng":142.334497,"zip":"0700000"},{"town":"亀吉一条三丁目","koaza":"","lat":43.776052,"lng":142.333322,"zip":"0700000"},{"town":"亀吉二条一丁目","koaza":"","lat":43.773589,"lng":142.33798,"zip":"0700000"},{"town":"亀吉二条二丁目","koaza":"","lat":43.774893,"lng":142.336969,"zip":"0700000"},{"town":"亀吉二条三丁目","koaza":"","lat":43.776957,"lng":142.335656,"zip":"0700000"},{"town":"亀吉三条一丁目","koaza":"","lat":43.774557,"lng":142.339461,"zip":"0700000"},{"town":"亀吉三条二丁目","koaza":"","lat":43.775621,"lng":142.338274,"zip":"0700000"},{"town":"亀吉三条三丁目","koaza":"","lat":43.777474,"lng":142.336419,"zip":"0700000"},{"town":"川端町一条四丁目","koaza":"","lat":43.781863,"lng":142.355248,"zip":"0700000"},{"town":"川端町一条五丁目","koaza":"","lat":43.782753,"lng":142.354122,"zip":"0700000"},{"town":"川端町一条六丁目","koaza":"","lat":43.783585,"lng":142.352957,"zip":"0700000"},{"town":"川端町一条七丁目","koaza":"","lat":43.784452,"lng":142.351594,"zip":"0700000"},{"town":"川端町二条四丁目","koaza":"","lat":43.781416,"lng":142.35448,"zip":"0700000"},{"town":"川端町二条五丁目","koaza":"","lat":43.782044,"lng":142.353215,"zip":"0700000"},{"town":"川端町二条六丁目","koaza":"","lat":43.782939,"lng":142.352275,"zip":"0700000"},{"town":"川端町二条七丁目","koaza":"","lat":43.784093,"lng":142.350812,"zip":"0700000"},{"town":"川端町三条四丁目","koaza":"","lat":43.780756,"lng":142.354327,"zip":"0700000"},{"town":"川端町三条五丁目","koaza":"","lat":43.781164,"lng":142.352141,"zip":"0700000"},{"town":"川端町三条六丁目","koaza":"","lat":43.782093,"lng":142.350861,"zip":"0700000"},{"town":"川端町三条七丁目","koaza":"","lat":43.783123,"lng":142.349667,"zip":"0700000"},{"town":"川端町三条八丁目","koaza":"","lat":43.783822,"lng":142.348186,"zip":"0700000"},{"town":"川端町四条十丁目","koaza":"","lat":43.785411,"lng":142.343172,"zip":"0700000"},{"town":"川端町四条四丁目","koaza":"","lat":43.779427,"lng":142.35375,"zip":"0700000"},{"town":"川端町四条五丁目","koaza":"","lat":43.77951,"lng":142.351648,"zip":"0700000"},{"town":"川端町四条六丁目","koaza":"","lat":43.780462,"lng":142.349258,"zip":"0700000"},{"town":"川端町四条七丁目","koaza":"","lat":43.781622,"lng":142.347498,"zip":"0700000"},{"town":"川端町四条八丁目","koaza":"","lat":43.782813,"lng":142.346268,"zip":"0700000"},{"town":"川端町四条九丁目","koaza":"","lat":43.784117,"lng":142.344656,"zip":"0700000"},{"town":"川端町五条十丁目","koaza":"","lat":43.784296,"lng":142.341234,"zip":"0700000"},{"town":"川端町五条七丁目","koaza":"","lat":43.780295,"lng":142.346496,"zip":"0700000"},{"town":"川端町五条八丁目","koaza":"","lat":43.781175,"lng":142.344744,"zip":"0700000"},{"town":"川端町五条九丁目","koaza":"","lat":43.781509,"lng":142.343118,"zip":"0700000"},{"town":"川端町六条十丁目","koaza":"","lat":43.782824,"lng":142.339781,"zip":"0700000"},{"town":"川端町六条九丁目","koaza":"","lat":43.780945,"lng":142.341577,"zip":"0700000"},{"town":"川端町七条十丁目","koaza":"","lat":43.781088,"lng":142.338354,"zip":"0700000"},{"town":"旭神一条三丁目","koaza":"","lat":43.740116,"lng":142.387515,"zip":"0700000"},{"town":"旭神一条四丁目","koaza":"","lat":43.738697,"lng":142.390448,"zip":"0700000"},{"town":"旭神一条五丁目","koaza":"","lat":43.736661,"lng":142.394375,"zip":"0700000"},{"town":"旭神二条一丁目","koaza":"","lat":43.743382,"lng":142.382115,"zip":"0700000"},{"town":"旭神二条二丁目","koaza":"","lat":43.740513,"lng":142.384696,"zip":"0700000"},{"town":"旭神二条三丁目","koaza":"","lat":43.738427,"lng":142.385698,"zip":"0700000"},{"town":"旭神二条四丁目","koaza":"","lat":43.736764,"lng":142.38804,"zip":"0700000"},{"town":"旭神二条五丁目","koaza":"","lat":43.735003,"lng":142.391259,"zip":"0700000"},{"town":"旭神三条一丁目","koaza":"","lat":43.741875,"lng":142.379556,"zip":"0700000"},{"town":"旭神三条二丁目","koaza":"","lat":43.738929,"lng":142.382292,"zip":"0700000"},{"town":"旭神三条三丁目","koaza":"","lat":43.736845,"lng":142.385114,"zip":"0700000"},{"town":"旭神三条四丁目","koaza":"","lat":43.73485,"lng":142.387468,"zip":"0700000"},{"town":"旭神三条五丁目","koaza":"","lat":43.733563,"lng":142.389476,"zip":"0700000"},{"town":"旭神町","koaza":"","lat":43.730365,"lng":142.395131,"zip":"0788308"},{"town":"金星町一丁目","koaza":"","lat":43.778351,"lng":142.364647,"zip":"0700029"},{"town":"金星町二丁目","koaza":"","lat":43.779493,"lng":142.368494,"zip":"0700029"},{"town":"金星町三丁目","koaza":"","lat":43.780483,"lng":142.369504,"zip":"0700029"},{"town":"工業団地一条一丁目","koaza":"","lat":43.771498,"lng":142.457045,"zip":"0700000"},{"town":"工業団地一条二丁目","koaza":"","lat":43.770984,"lng":142.460927,"zip":"0700000"},{"town":"工業団地二条一丁目","koaza":"","lat":43.774015,"lng":142.457336,"zip":"0700000"},{"town":"工業団地二条二丁目","koaza":"","lat":43.773785,"lng":142.461744,"zip":"0700000"},{"town":"工業団地三条一丁目","koaza":"","lat":43.776252,"lng":142.45757,"zip":"0700000"},{"town":"工業団地三条二丁目","koaza":"","lat":43.776023,"lng":142.46197,"zip":"0700000"},{"town":"工業団地四条一丁目","koaza":"","lat":43.778643,"lng":142.45779,"zip":"0700000"},{"town":"工業団地四条二丁目","koaza":"","lat":43.778359,"lng":142.462195,"zip":"0700000"},{"town":"工業団地四条三丁目","koaza":"","lat":43.778399,"lng":142.466925,"zip":"0700000"},{"town":"工業団地五条二丁目","koaza":"","lat":43.780085,"lng":142.463266,"zip":"0700000"},{"town":"工業団地五条三丁目","koaza":"","lat":43.780881,"lng":142.467259,"zip":"0700000"},{"town":"春光一条七丁目","koaza":"","lat":43.797688,"lng":142.374641,"zip":"0700000"},{"town":"春光一条八丁目","koaza":"","lat":43.799081,"lng":142.378362,"zip":"0700000"},{"town":"春光一条九丁目","koaza":"","lat":43.801255,"lng":142.380434,"zip":"0700000"},{"town":"春光二条七丁目","koaza":"","lat":43.799947,"lng":142.373244,"zip":"0700000"},{"town":"春光二条八丁目","koaza":"","lat":43.801732,"lng":142.375782,"zip":"0700000"},{"town":"春光二条九丁目","koaza":"","lat":43.80323,"lng":142.37768,"zip":"0700000"},{"town":"春光三条六丁目","koaza":"","lat":43.801576,"lng":142.367206,"zip":"0700000"},{"town":"春光三条七丁目","koaza":"","lat":43.801611,"lng":142.370343,"zip":"0700000"},{"town":"春光三条八丁目","koaza":"","lat":43.803404,"lng":142.373076,"zip":"0700000"},{"town":"春光三条九丁目","koaza":"","lat":43.804948,"lng":142.37536,"zip":"0700000"},{"town":"春光四条一丁目","koaza":"","lat":43.796379,"lng":142.356631,"zip":"0700000"},{"town":"春光四条二丁目","koaza":"","lat":43.797492,"lng":142.35851,"zip":"0700000"},{"town":"春光四条三丁目","koaza":"","lat":43.79875,"lng":142.360141,"zip":"0700000"},{"town":"春光四条四丁目","koaza":"","lat":43.800288,"lng":142.362294,"zip":"0700000"},{"town":"春光四条五丁目","koaza":"","lat":43.800768,"lng":142.364228,"zip":"0700000"},{"town":"春光四条六丁目","koaza":"","lat":43.802027,"lng":142.365964,"zip":"0700000"},{"town":"春光四条七丁目","koaza":"","lat":43.80358,"lng":142.368829,"zip":"0700000"},{"town":"春光四条八丁目","koaza":"","lat":43.805051,"lng":142.371037,"zip":"0700000"},{"town":"春光四条九丁目","koaza":"","lat":43.806551,"lng":142.373089,"zip":"0700000"},{"town":"春光五条一丁目","koaza":"","lat":43.798112,"lng":142.354357,"zip":"0700000"},{"town":"春光五条二丁目","koaza":"","lat":43.799267,"lng":142.356014,"zip":"0700000"},{"town":"春光五条三丁目","koaza":"","lat":43.800517,"lng":142.357716,"zip":"0700000"},{"town":"春光五条四丁目","koaza":"","lat":43.801843,"lng":142.359453,"zip":"0700000"},{"town":"春光五条五丁目","koaza":"","lat":43.802221,"lng":142.362367,"zip":"0700000"},{"town":"春光五条六丁目","koaza":"","lat":43.803343,"lng":142.36421,"zip":"0700000"},{"town":"春光五条七丁目","koaza":"","lat":43.804901,"lng":142.365742,"zip":"0700000"},{"town":"春光五条八丁目","koaza":"","lat":43.806682,"lng":142.36803,"zip":"0700000"},{"town":"春光五条九丁目","koaza":"","lat":43.808441,"lng":142.370472,"zip":"0700000"},{"town":"春光六条一丁目","koaza":"","lat":43.799889,"lng":142.351866,"zip":"0700000"},{"town":"春光六条二丁目","koaza":"","lat":43.801091,"lng":142.353512,"zip":"0700000"},{"town":"春光六条三丁目","koaza":"","lat":43.802219,"lng":142.35551,"zip":"0700000"},{"town":"春光六条四丁目","koaza":"","lat":43.803299,"lng":142.357374,"zip":"0700000"},{"town":"春光六条五丁目","koaza":"","lat":43.803981,"lng":142.35943,"zip":"0700000"},{"town":"春光六条六丁目","koaza":"","lat":43.804792,"lng":142.361976,"zip":"0700000"},{"town":"春光六条七丁目","koaza":"","lat":43.806716,"lng":142.363081,"zip":"0700000"},{"town":"春光六条八丁目","koaza":"","lat":43.808472,"lng":142.365515,"zip":"0700000"},{"town":"春光六条九丁目","koaza":"","lat":43.810242,"lng":142.367906,"zip":"0700000"},{"town":"春光七条二丁目","koaza":"","lat":43.802928,"lng":142.351212,"zip":"0700000"},{"town":"春光七条三丁目","koaza":"","lat":43.804237,"lng":142.354232,"zip":"0700000"},{"town":"春光七条五丁目","koaza":"","lat":43.805848,"lng":142.356724,"zip":"0700000"},{"town":"春光七条六丁目","koaza":"","lat":43.806908,"lng":142.358968,"zip":"0700000"},{"town":"春光七条七丁目","koaza":"","lat":43.808198,"lng":142.36124,"zip":"0700000"},{"town":"春光七条八丁目","koaza":"","lat":43.809863,"lng":142.36338,"zip":"0700000"},{"town":"春光七条九丁目","koaza":"","lat":43.811573,"lng":142.366146,"zip":"0700000"},{"town":"春光台一条十丁目","koaza":"","lat":43.825639,"lng":142.375634,"zip":"0700000"},{"town":"春光台一条十一丁目","koaza":"","lat":43.82692,"lng":142.377332,"zip":"0700000"},{"town":"春光台一条十二丁目","koaza":"","lat":43.828019,"lng":142.379784,"zip":"0700000"},{"town":"春光台一条一丁目","koaza":"","lat":43.809958,"lng":142.353946,"zip":"0700000"},{"town":"春光台一条二丁目","koaza":"","lat":43.811811,"lng":142.356634,"zip":"0700000"},{"town":"春光台一条三丁目","koaza":"","lat":43.814439,"lng":142.360304,"zip":"0700000"},{"town":"春光台一条四丁目","koaza":"","lat":43.816573,"lng":142.363277,"zip":"0700000"},{"town":"春光台一条五丁目","koaza":"","lat":43.818436,"lng":142.366212,"zip":"0700000"},{"town":"春光台一条六丁目","koaza":"","lat":43.819782,"lng":142.367576,"zip":"0700000"},{"town":"春光台一条七丁目","koaza":"","lat":43.821646,"lng":142.370231,"zip":"0700000"},{"town":"春光台一条八丁目","koaza":"","lat":43.82334,"lng":142.371702,"zip":"0700000"},{"town":"春光台一条九丁目","koaza":"","lat":43.824256,"lng":142.373913,"zip":"0700000"},{"town":"春光台二条十丁目","koaza":"","lat":43.826517,"lng":142.374132,"zip":"0700000"},{"town":"春光台二条十一丁目","koaza":"","lat":43.827896,"lng":142.376999,"zip":"0700000"},{"town":"春光台二条十二丁目","koaza":"","lat":43.829229,"lng":142.3796,"zip":"0700000"},{"town":"春光台二条一丁目","koaza":"","lat":43.811359,"lng":142.351482,"zip":"0700000"},{"town":"春光台二条二丁目","koaza":"","lat":43.813521,"lng":142.353937,"zip":"0700000"},{"town":"春光台二条三丁目","koaza":"","lat":43.816288,"lng":142.358272,"zip":"0700000"},{"town":"春光台二条四丁目","koaza":"","lat":43.818013,"lng":142.361107,"zip":"0700000"},{"town":"春光台二条五丁目","koaza":"","lat":43.819485,"lng":142.363396,"zip":"0700000"},{"town":"春光台二条六丁目","koaza":"","lat":43.821006,"lng":142.365761,"zip":"0700000"},{"town":"春光台二条七丁目","koaza":"","lat":43.822398,"lng":142.36779,"zip":"0700000"},{"town":"春光台二条八丁目","koaza":"","lat":43.824058,"lng":142.370259,"zip":"0700000"},{"town":"春光台二条九丁目","koaza":"","lat":43.825374,"lng":142.372266,"zip":"0700000"},{"town":"春光台三条十丁目","koaza":"","lat":43.827573,"lng":142.37279,"zip":"0700000"},{"town":"春光台三条十一丁目","koaza":"","lat":43.828779,"lng":142.374832,"zip":"0700000"},{"town":"春光台三条十二丁目","koaza":"","lat":43.830197,"lng":142.377328,"zip":"0700000"},{"town":"春光台三条一丁目","koaza":"","lat":43.813931,"lng":142.348455,"zip":"0700000"},{"town":"春光台三条二丁目","koaza":"","lat":43.815591,"lng":142.351414,"zip":"0700000"},{"town":"春光台三条三丁目","koaza":"","lat":43.817742,"lng":142.3553,"zip":"0700000"},{"town":"春光台三条四丁目","koaza":"","lat":43.819684,"lng":142.358968,"zip":"0700000"},{"town":"春光台三条五丁目","koaza":"","lat":43.821175,"lng":142.361517,"zip":"0700000"},{"town":"春光台三条六丁目","koaza":"","lat":43.822591,"lng":142.363745,"zip":"0700000"},{"town":"春光台三条七丁目","koaza":"","lat":43.823876,"lng":142.365769,"zip":"0700000"},{"town":"春光台三条八丁目","koaza":"","lat":43.825425,"lng":142.36801,"zip":"0700000"},{"town":"春光台三条九丁目","koaza":"","lat":43.826506,"lng":142.370104,"zip":"0700000"},{"town":"春光台四条十丁目","koaza":"","lat":43.830044,"lng":142.36904,"zip":"0700000"},{"town":"春光台四条十一丁目","koaza":"","lat":43.831585,"lng":142.370905,"zip":"0700000"},{"town":"春光台四条十二丁目","koaza":"","lat":43.833338,"lng":142.37398,"zip":"0700000"},{"town":"春光台四条一丁目","koaza":"","lat":43.815534,"lng":142.346441,"zip":"0700000"},{"town":"春光台四条二丁目","koaza":"","lat":43.817344,"lng":142.34881,"zip":"0700000"},{"town":"春光台四条三丁目","koaza":"","lat":43.819773,"lng":142.352906,"zip":"0700000"},{"town":"春光台四条四丁目","koaza":"","lat":43.821559,"lng":142.355785,"zip":"0700000"},{"town":"春光台四条五丁目","koaza":"","lat":43.823316,"lng":142.35824,"zip":"0700000"},{"town":"春光台四条六丁目","koaza":"","lat":43.824521,"lng":142.361122,"zip":"0700000"},{"town":"春光台四条七丁目","koaza":"","lat":43.826221,"lng":142.363037,"zip":"0700000"},{"town":"春光台四条八丁目","koaza":"","lat":43.827747,"lng":142.36475,"zip":"0700000"},{"town":"春光台四条九丁目","koaza":"","lat":43.828857,"lng":142.36687,"zip":"0700000"},{"town":"春光台五条十丁目","koaza":"","lat":43.832327,"lng":142.365977,"zip":"0700000"},{"town":"春光台五条十一丁目","koaza":"","lat":43.833728,"lng":142.36843,"zip":"0700000"},{"town":"春光台五条十二丁目","koaza":"","lat":43.835006,"lng":142.370644,"zip":"0700000"},{"town":"春光台五条一丁目","koaza":"","lat":43.817154,"lng":142.34332,"zip":"0700000"},{"town":"春光台五条二丁目","koaza":"","lat":43.819664,"lng":142.345497,"zip":"0700000"},{"town":"春光台五条三丁目","koaza":"","lat":43.821834,"lng":142.349582,"zip":"0700000"},{"town":"春光台五条四丁目","koaza":"","lat":43.824024,"lng":142.352414,"zip":"0700000"},{"town":"春光台五条五丁目","koaza":"","lat":43.824719,"lng":142.355081,"zip":"0700000"},{"town":"春光台五条六丁目","koaza":"","lat":43.82729,"lng":142.358896,"zip":"0700000"},{"town":"春光台五条七丁目","koaza":"","lat":43.828945,"lng":142.358815,"zip":"0700000"},{"town":"春光台五条八丁目","koaza":"","lat":43.829728,"lng":142.361709,"zip":"0700000"},{"town":"春光台五条九丁目","koaza":"","lat":43.831095,"lng":142.36383,"zip":"0700000"},{"town":"春光町","koaza":"","lat":43.794293,"lng":142.365115,"zip":"0700902"},{"town":"新開","koaza":"","lat":43.609281,"lng":142.317826,"zip":"0700000"},{"town":"新星町一丁目","koaza":"","lat":43.778181,"lng":142.399373,"zip":"0700014"},{"town":"新星町二丁目","koaza":"","lat":43.776497,"lng":142.400237,"zip":"0700014"},{"town":"新星町三丁目","koaza":"","lat":43.775469,"lng":142.400896,"zip":"0700014"},{"town":"新星町四丁目","koaza":"","lat":43.774589,"lng":142.402562,"zip":"0700014"},{"town":"新星町五丁目","koaza":"","lat":43.773084,"lng":142.396884,"zip":"0700014"},{"town":"新富一条一丁目","koaza":"","lat":43.790786,"lng":142.381872,"zip":"0700000"},{"town":"新富一条二丁目","koaza":"","lat":43.791763,"lng":142.384035,"zip":"0700000"},{"town":"新富一条三丁目","koaza":"","lat":43.793011,"lng":142.385602,"zip":"0700000"},{"town":"新富二条一丁目","koaza":"","lat":43.787685,"lng":142.384526,"zip":"0700000"},{"town":"新富二条二丁目","koaza":"","lat":43.789564,"lng":142.386985,"zip":"0700000"},{"town":"新富三条一丁目","koaza":"","lat":43.785684,"lng":142.386491,"zip":"0700000"},{"town":"新富三条二丁目","koaza":"","lat":43.787403,"lng":142.389152,"zip":"0700000"},{"town":"末広一条十丁目","koaza":"","lat":43.812892,"lng":142.396982,"zip":"0700000"},{"town":"末広一条十一丁目","koaza":"","lat":43.814072,"lng":142.398625,"zip":"0700000"},{"town":"末広一条十二丁目","koaza":"","lat":43.815255,"lng":142.400276,"zip":"0700000"},{"town":"末広一条十三丁目","koaza":"","lat":43.816622,"lng":142.401685,"zip":"0700000"},{"town":"末広一条十四丁目","koaza":"","lat":43.817625,"lng":142.40359,"zip":"0700000"},{"town":"末広一条十五丁目","koaza":"","lat":43.818794,"lng":142.405231,"zip":"0700000"},{"town":"末広一条一丁目","koaza":"","lat":43.802285,"lng":142.382407,"zip":"0700000"},{"town":"末広一条二丁目","koaza":"","lat":43.803429,"lng":142.383849,"zip":"0700000"},{"town":"末広一条三丁目","koaza":"","lat":43.8046,"lng":142.385489,"zip":"0700000"},{"town":"末広一条四丁目","koaza":"","lat":43.805922,"lng":142.38715,"zip":"0700000"},{"town":"末広一条五丁目","koaza":"","lat":43.807064,"lng":142.388835,"zip":"0700000"},{"town":"末広一条六丁目","koaza":"","lat":43.808141,"lng":142.390512,"zip":"0700000"},{"town":"末広一条七丁目","koaza":"","lat":43.809366,"lng":142.392084,"zip":"0700000"},{"town":"末広一条八丁目","koaza":"","lat":43.810614,"lng":142.393891,"zip":"0700000"},{"town":"末広一条九丁目","koaza":"","lat":43.811707,"lng":142.395283,"zip":"0700000"},{"town":"末広二条十丁目","koaza":"","lat":43.814703,"lng":142.394527,"zip":"0700000"},{"town":"末広二条十一丁目","koaza":"","lat":43.815889,"lng":142.396174,"zip":"0700000"},{"town":"末広二条十二丁目","koaza":"","lat":43.81707,"lng":142.39781,"zip":"0700000"},{"town":"末広二条十三丁目","koaza":"","lat":43.818238,"lng":142.399542,"zip":"0700000"},{"town":"末広二条十四丁目","koaza":"","lat":43.819448,"lng":142.401102,"zip":"0700000"},{"town":"末広二条十五丁目","koaza":"","lat":43.820694,"lng":142.402637,"zip":"0700000"},{"town":"末広二条一丁目","koaza":"","lat":43.804174,"lng":142.379819,"zip":"0700000"},{"town":"末広二条二丁目","koaza":"","lat":43.805276,"lng":142.381354,"zip":"0700000"},{"town":"末広二条三丁目","koaza":"","lat":43.806393,"lng":142.38311,"zip":"0700000"},{"town":"末広二条四丁目","koaza":"","lat":43.807593,"lng":142.384718,"zip":"0700000"},{"town":"末広二条五丁目","koaza":"","lat":43.808768,"lng":142.386365,"zip":"0700000"},{"town":"末広二条六丁目","koaza":"","lat":43.809969,"lng":142.387978,"zip":"0700000"},{"town":"末広二条七丁目","koaza":"","lat":43.811075,"lng":142.389736,"zip":"0700000"},{"town":"末広二条八丁目","koaza":"","lat":43.812385,"lng":142.391144,"zip":"0700000"},{"town":"末広二条九丁目","koaza":"","lat":43.81351,"lng":142.392782,"zip":"0700000"},{"town":"末広三条十丁目","koaza":"","lat":43.816533,"lng":142.391999,"zip":"0700000"},{"town":"末広三条十一丁目","koaza":"","lat":43.817659,"lng":142.393753,"zip":"0700000"},{"town":"末広三条十二丁目","koaza":"","lat":43.818977,"lng":142.395209,"zip":"0700000"},{"town":"末広三条一丁目","koaza":"","lat":43.805927,"lng":142.377458,"zip":"0700000"},{"town":"末広三条二丁目","koaza":"","lat":43.806995,"lng":142.378986,"zip":"0700000"},{"town":"末広三条三丁目","koaza":"","lat":43.808169,"lng":142.380577,"zip":"0700000"},{"town":"末広三条四丁目","koaza":"","lat":43.809387,"lng":142.382125,"zip":"0700000"},{"town":"末広三条五丁目","koaza":"","lat":43.810504,"lng":142.383948,"zip":"0700000"},{"town":"末広三条六丁目","koaza":"","lat":43.811789,"lng":142.385393,"zip":"0700000"},{"town":"末広三条七丁目","koaza":"","lat":43.81295,"lng":142.38713,"zip":"0700000"},{"town":"末広三条八丁目","koaza":"","lat":43.813971,"lng":142.388906,"zip":"0700000"},{"town":"末広三条九丁目","koaza":"","lat":43.815141,"lng":142.39054,"zip":"0700000"},{"town":"末広四条十丁目","koaza":"","lat":43.818339,"lng":142.389718,"zip":"0700000"},{"town":"末広四条十一丁目","koaza":"","lat":43.819545,"lng":142.391346,"zip":"0700000"},{"town":"末広四条十二丁目","koaza":"","lat":43.82072,"lng":142.392869,"zip":"0700000"},{"town":"末広四条一丁目","koaza":"","lat":43.807733,"lng":142.374998,"zip":"0700000"},{"town":"末広四条二丁目","koaza":"","lat":43.808771,"lng":142.376508,"zip":"0700000"},{"town":"末広四条三丁目","koaza":"","lat":43.809913,"lng":142.378042,"zip":"0700000"},{"town":"末広四条四丁目","koaza":"","lat":43.811183,"lng":142.379594,"zip":"0700000"},{"town":"末広四条五丁目","koaza":"","lat":43.812284,"lng":142.381413,"zip":"0700000"},{"town":"末広四条六丁目","koaza":"","lat":43.813562,"lng":142.382963,"zip":"0700000"},{"town":"末広四条七丁目","koaza":"","lat":43.814744,"lng":142.384631,"zip":"0700000"},{"town":"末広四条八丁目","koaza":"","lat":43.81573,"lng":142.386469,"zip":"0700000"},{"town":"末広四条九丁目","koaza":"","lat":43.816886,"lng":142.388112,"zip":"0700000"},{"town":"末広五条十丁目","koaza":"","lat":43.819881,"lng":142.386976,"zip":"0700000"},{"town":"末広五条十一丁目","koaza":"","lat":43.821012,"lng":142.388697,"zip":"0700000"},{"town":"末広五条十二丁目","koaza":"","lat":43.822463,"lng":142.390576,"zip":"0700000"},{"town":"末広五条一丁目","koaza":"","lat":43.809525,"lng":142.372094,"zip":"0700000"},{"town":"末広五条二丁目","koaza":"","lat":43.810699,"lng":142.373751,"zip":"0700000"},{"town":"末広五条三丁目","koaza":"","lat":43.811801,"lng":142.375273,"zip":"0700000"},{"town":"末広五条四丁目","koaza":"","lat":43.81291,"lng":142.377253,"zip":"0700000"},{"town":"末広五条五丁目","koaza":"","lat":43.814113,"lng":142.378922,"zip":"0700000"},{"town":"末広五条六丁目","koaza":"","lat":43.815303,"lng":142.380568,"zip":"0700000"},{"town":"末広五条七丁目","koaza":"","lat":43.816466,"lng":142.382288,"zip":"0700000"},{"town":"末広五条八丁目","koaza":"","lat":43.817624,"lng":142.383891,"zip":"0700000"},{"town":"末広五条九丁目","koaza":"","lat":43.818743,"lng":142.385569,"zip":"0700000"},{"town":"末広六条十丁目","koaza":"","lat":43.821705,"lng":142.38444,"zip":"0700000"},{"town":"末広六条十一丁目","koaza":"","lat":43.822944,"lng":142.386519,"zip":"0700000"},{"town":"末広六条十二丁目","koaza":"","lat":43.824669,"lng":142.387455,"zip":"0700000"},{"town":"末広六条一丁目","koaza":"","lat":43.811331,"lng":142.370041,"zip":"0700000"},{"town":"末広六条二丁目","koaza":"","lat":43.812374,"lng":142.371542,"zip":"0700000"},{"town":"末広六条三丁目","koaza":"","lat":43.813517,"lng":142.373122,"zip":"0700000"},{"town":"末広六条四丁目","koaza":"","lat":43.814772,"lng":142.374694,"zip":"0700000"},{"town":"末広六条五丁目","koaza":"","lat":43.815896,"lng":142.376475,"zip":"0700000"},{"town":"末広六条六丁目","koaza":"","lat":43.81709,"lng":142.378112,"zip":"0700000"},{"town":"末広六条七丁目","koaza":"","lat":43.818274,"lng":142.379816,"zip":"0700000"},{"town":"末広六条八丁目","koaza":"","lat":43.819505,"lng":142.381296,"zip":"0700000"},{"town":"末広六条九丁目","koaza":"","lat":43.820557,"lng":142.383078,"zip":"0700000"},{"town":"末広七条十丁目","koaza":"","lat":43.823919,"lng":142.382524,"zip":"0700000"},{"town":"末広七条十一丁目","koaza":"","lat":43.824858,"lng":142.383668,"zip":"0700000"},{"town":"末広七条十二丁目","koaza":"","lat":43.825942,"lng":142.385398,"zip":"0700000"},{"town":"末広七条一丁目","koaza":"","lat":43.8126,"lng":142.3683,"zip":"0700000"},{"town":"末広七条二丁目","koaza":"","lat":43.813675,"lng":142.369687,"zip":"0700000"},{"town":"末広七条三丁目","koaza":"","lat":43.814702,"lng":142.371082,"zip":"0700000"},{"town":"末広七条四丁目","koaza":"","lat":43.816431,"lng":142.372375,"zip":"0700000"},{"town":"末広七条五丁目","koaza":"","lat":43.817839,"lng":142.373773,"zip":"0700000"},{"town":"末広七条六丁目","koaza":"","lat":43.819011,"lng":142.375669,"zip":"0700000"},{"town":"末広七条七丁目","koaza":"","lat":43.81992,"lng":142.376913,"zip":"0700000"},{"town":"末広七条八丁目","koaza":"","lat":43.820995,"lng":142.378333,"zip":"0700000"},{"town":"末広七条九丁目","koaza":"","lat":43.82264,"lng":142.380363,"zip":"0700000"},{"town":"末広八条十丁目","koaza":"","lat":43.825525,"lng":142.379817,"zip":"0700000"},{"town":"末広八条十一丁目","koaza":"","lat":43.826515,"lng":142.381362,"zip":"0700000"},{"town":"末広八条十二丁目","koaza":"","lat":43.827619,"lng":142.382893,"zip":"0700000"},{"town":"末広八条一丁目","koaza":"","lat":43.814202,"lng":142.366363,"zip":"0700000"},{"town":"末広八条二丁目","koaza":"","lat":43.815121,"lng":142.36827,"zip":"0700000"},{"town":"末広八条三丁目","koaza":"","lat":43.816562,"lng":142.368747,"zip":"0700000"},{"town":"末広八条四丁目","koaza":"","lat":43.818053,"lng":142.36993,"zip":"0700000"},{"town":"末広八条五丁目","koaza":"","lat":43.819131,"lng":142.371105,"zip":"0700000"},{"town":"末広八条六丁目","koaza":"","lat":43.8204,"lng":142.372851,"zip":"0700000"},{"town":"末広八条七丁目","koaza":"","lat":43.821617,"lng":142.37454,"zip":"0700000"},{"town":"末広八条八丁目","koaza":"","lat":43.822746,"lng":142.375939,"zip":"0700000"},{"town":"末広八条九丁目","koaza":"","lat":43.824067,"lng":142.377951,"zip":"0700000"},{"town":"末広東一条十丁目","koaza":"","lat":43.811051,"lng":142.399506,"zip":"0700000"},{"town":"末広東一条十一丁目","koaza":"","lat":43.812256,"lng":142.401064,"zip":"0700000"},{"town":"末広東一条十二丁目","koaza":"","lat":43.813436,"lng":142.402774,"zip":"0700000"},{"town":"末広東一条十三丁目","koaza":"","lat":43.814718,"lng":142.404633,"zip":"0700000"},{"town":"末広東一条十四丁目","koaza":"","lat":43.815809,"lng":142.406535,"zip":"0700000"},{"town":"末広東一条十五丁目","koaza":"","lat":43.816622,"lng":142.407143,"zip":"0700000"},{"town":"末広東一条一丁目","koaza":"","lat":43.800432,"lng":142.384713,"zip":"0700000"},{"town":"末広東一条二丁目","koaza":"","lat":43.801597,"lng":142.386371,"zip":"0700000"},{"town":"末広東一条三丁目","koaza":"","lat":43.80258,"lng":142.387582,"zip":"0700000"},{"town":"末広東一条四丁目","koaza":"","lat":43.803945,"lng":142.389803,"zip":"0700000"},{"town":"末広東一条五丁目","koaza":"","lat":43.805209,"lng":142.391309,"zip":"0700000"},{"town":"末広東一条六丁目","koaza":"","lat":43.806306,"lng":142.39295,"zip":"0700000"},{"town":"末広東一条七丁目","koaza":"","lat":43.807173,"lng":142.394766,"zip":"0700000"},{"town":"末広東一条八丁目","koaza":"","lat":43.808423,"lng":142.396684,"zip":"0700000"},{"town":"末広東一条九丁目","koaza":"","lat":43.809836,"lng":142.397792,"zip":"0700000"},{"town":"末広東二条十丁目","koaza":"","lat":43.8086,"lng":142.402859,"zip":"0700000"},{"town":"末広東二条十一丁目","koaza":"","lat":43.810089,"lng":142.404065,"zip":"0700000"},{"town":"末広東二条十二丁目","koaza":"","lat":43.811261,"lng":142.405723,"zip":"0700000"},{"town":"末広東二条十三丁目","koaza":"","lat":43.813454,"lng":142.406467,"zip":"0700000"},{"town":"末広東二条一丁目","koaza":"","lat":43.798669,"lng":142.387151,"zip":"0700000"},{"town":"末広東二条二丁目","koaza":"","lat":43.799778,"lng":142.388893,"zip":"0700000"},{"town":"末広東二条三丁目","koaza":"","lat":43.800924,"lng":142.390419,"zip":"0700000"},{"town":"末広東二条四丁目","koaza":"","lat":43.802223,"lng":142.392042,"zip":"0700000"},{"town":"末広東二条五丁目","koaza":"","lat":43.803436,"lng":142.393636,"zip":"0700000"},{"town":"末広東二条六丁目","koaza":"","lat":43.804329,"lng":142.39561,"zip":"0700000"},{"town":"末広東二条七丁目","koaza":"","lat":43.80554,"lng":142.39736,"zip":"0700000"},{"town":"末広東二条八丁目","koaza":"","lat":43.806224,"lng":142.399397,"zip":"0700000"},{"town":"末広東二条九丁目","koaza":"","lat":43.80714,"lng":142.401049,"zip":"0700000"},{"town":"末広東三条一丁目","koaza":"","lat":43.7971,"lng":142.388959,"zip":"0700000"},{"town":"末広東三条二丁目","koaza":"","lat":43.797761,"lng":142.391653,"zip":"0700000"},{"town":"末広東三条三丁目","koaza":"","lat":43.798631,"lng":142.393541,"zip":"0700000"},{"town":"末広東三条四丁目","koaza":"","lat":43.799588,"lng":142.395534,"zip":"0700000"},{"town":"末広東三条五丁目","koaza":"","lat":43.80091,"lng":142.396973,"zip":"0700000"},{"town":"末広東三条六丁目","koaza":"","lat":43.802034,"lng":142.398713,"zip":"0700000"},{"town":"末広東三条七丁目","koaza":"","lat":43.803585,"lng":142.399868,"zip":"0700000"},{"town":"住吉四条一丁目","koaza":"","lat":43.794231,"lng":142.353935,"zip":"0700000"},{"town":"住吉四条二丁目","koaza":"","lat":43.795238,"lng":142.355319,"zip":"0700000"},{"town":"住吉五条一丁目","koaza":"","lat":43.795984,"lng":142.351517,"zip":"0700000"},{"town":"住吉五条二丁目","koaza":"","lat":43.79703,"lng":142.352853,"zip":"0700000"},{"town":"住吉六条一丁目","koaza":"","lat":43.797957,"lng":142.34877,"zip":"0700000"},{"town":"住吉六条二丁目","koaza":"","lat":43.798842,"lng":142.350648,"zip":"0700000"},{"town":"住吉七条一丁目","koaza":"","lat":43.799723,"lng":142.347528,"zip":"0700000"},{"town":"大雪通一丁目","koaza":"","lat":43.772656,"lng":142.381723,"zip":"0700010"},{"town":"大雪通二丁目","koaza":"","lat":43.775141,"lng":142.383375,"zip":"0700010"},{"town":"大雪通三丁目","koaza":"","lat":43.776456,"lng":142.384099,"zip":"0700010"},{"town":"大雪通四丁目","koaza":"","lat":43.777946,"lng":142.384932,"zip":"0700010"},{"town":"大雪通五丁目","koaza":"","lat":43.779767,"lng":142.386505,"zip":"0700010"},{"town":"大雪通六丁目","koaza":"","lat":43.782085,"lng":142.387286,"zip":"0700010"},{"town":"大雪通七丁目","koaza":"","lat":43.783325,"lng":142.388443,"zip":"0700010"},{"town":"大雪通八丁目","koaza":"","lat":43.784223,"lng":142.390107,"zip":"0700010"},{"town":"大雪通九丁目","koaza":"","lat":43.785753,"lng":142.391719,"zip":"0700010"},{"town":"台場一条一丁目","koaza":"","lat":43.76619,"lng":142.28248,"zip":"0700000"},{"town":"台場一条二丁目","koaza":"","lat":43.768109,"lng":142.285603,"zip":"0700000"},{"town":"台場一条三丁目","koaza":"","lat":43.768005,"lng":142.288616,"zip":"0700000"},{"town":"台場一条四丁目","koaza":"","lat":43.768,"lng":142.2916,"zip":"0700000"},{"town":"台場一条五丁目","koaza":"","lat":43.768053,"lng":142.295153,"zip":"0700000"},{"town":"台場一条六丁目","koaza":"","lat":43.76747,"lng":142.297905,"zip":"0700000"},{"town":"台場二条一丁目","koaza":"","lat":43.766973,"lng":142.279107,"zip":"0700000"},{"town":"台場二条二丁目","koaza":"","lat":43.768198,"lng":142.281916,"zip":"0700000"},{"town":"台場二条三丁目","koaza":"","lat":43.769531,"lng":142.28828,"zip":"0700000"},{"town":"台場二条四丁目","koaza":"","lat":43.76968,"lng":142.291839,"zip":"0700000"},{"town":"台場二条五丁目","koaza":"","lat":43.769624,"lng":142.295198,"zip":"0700000"},{"town":"台場二条六丁目","koaza":"","lat":43.769405,"lng":142.298645,"zip":"0700000"},{"town":"台場三条一丁目","koaza":"","lat":43.76943,"lng":142.279199,"zip":"0700000"},{"town":"台場四条一丁目","koaza":"","lat":43.771322,"lng":142.278666,"zip":"0700000"},{"town":"台場東一丁目","koaza":"","lat":43.765142,"lng":142.298379,"zip":"0708027"},{"town":"台場東二丁目","koaza":"","lat":43.7643,"lng":142.301481,"zip":"0708027"},{"town":"台場東三丁目","koaza":"","lat":43.763309,"lng":142.300138,"zip":"0708027"},{"town":"台場東四丁目","koaza":"","lat":43.76218,"lng":142.299329,"zip":"0708027"},{"town":"高砂台一丁目","koaza":"","lat":43.767974,"lng":142.310963,"zip":"0708061"},{"town":"高砂台二丁目","koaza":"","lat":43.767787,"lng":142.313983,"zip":"0708061"},{"town":"高砂台三丁目","koaza":"","lat":43.765632,"lng":142.314832,"zip":"0708061"},{"town":"高砂台四丁目","koaza":"","lat":43.764173,"lng":142.316265,"zip":"0708061"},{"town":"高砂台五丁目","koaza":"","lat":43.762046,"lng":142.312906,"zip":"0708061"},{"town":"高砂台六丁目","koaza":"","lat":43.760568,"lng":142.314936,"zip":"0708061"},{"town":"高砂台七丁目","koaza":"","lat":43.759421,"lng":142.316191,"zip":"0708061"},{"town":"高砂台八丁目","koaza":"","lat":43.758904,"lng":142.321116,"zip":"0708061"},{"town":"近文町十一丁目","koaza":"","lat":43.779677,"lng":142.334639,"zip":"0700821"},{"town":"近文町十二丁目","koaza":"","lat":43.780534,"lng":142.33253,"zip":"0700821"},{"town":"近文町十三丁目","koaza":"","lat":43.781207,"lng":142.331216,"zip":"0700821"},{"town":"近文町十四丁目","koaza":"","lat":43.782275,"lng":142.330094,"zip":"0700821"},{"town":"近文町十五丁目","koaza":"","lat":43.78333,"lng":142.329165,"zip":"0700821"},{"town":"近文町十六丁目","koaza":"","lat":43.784078,"lng":142.327574,"zip":"0700821"},{"town":"近文町十七丁目","koaza":"","lat":43.784891,"lng":142.326511,"zip":"0700821"},{"town":"近文町十八丁目","koaza":"","lat":43.785825,"lng":142.325419,"zip":"0700821"},{"town":"近文町十九丁目","koaza":"","lat":43.786825,"lng":142.324238,"zip":"0700821"},{"town":"近文町二十丁目","koaza":"","lat":43.787985,"lng":142.323294,"zip":"0700821"},{"town":"近文町二十一丁目","koaza":"","lat":43.788559,"lng":142.321761,"zip":"0700821"},{"town":"近文町二十二丁目","koaza":"","lat":43.789499,"lng":142.320855,"zip":"0700821"},{"town":"近文町二十三丁目","koaza":"","lat":43.790322,"lng":142.319264,"zip":"0700821"},{"town":"近文町二十四丁目","koaza":"","lat":43.790756,"lng":142.317405,"zip":"0700821"},{"town":"近文町二十五丁目","koaza":"","lat":43.791622,"lng":142.315328,"zip":"0700821"},{"town":"忠和一条二丁目","koaza":"","lat":43.784736,"lng":142.313956,"zip":"0700000"},{"town":"忠和一条四丁目","koaza":"","lat":43.782892,"lng":142.320452,"zip":"0700000"},{"town":"忠和一条五丁目","koaza":"","lat":43.781016,"lng":142.323112,"zip":"0700000"},{"town":"忠和二条三丁目","koaza":"","lat":43.781649,"lng":142.316327,"zip":"0700000"},{"town":"忠和二条四丁目","koaza":"","lat":43.781167,"lng":142.318436,"zip":"0700000"},{"town":"忠和二条五丁目","koaza":"","lat":43.779547,"lng":142.321673,"zip":"0700000"},{"town":"忠和二条六丁目","koaza":"","lat":43.778168,"lng":142.326624,"zip":"0700000"},{"town":"忠和三条一丁目","koaza":"","lat":43.783545,"lng":142.309619,"zip":"0700000"},{"town":"忠和三条三丁目","koaza":"","lat":43.780794,"lng":142.314622,"zip":"0700000"},{"town":"忠和三条四丁目","koaza":"","lat":43.77952,"lng":142.317029,"zip":"0700000"},{"town":"忠和三条五丁目","koaza":"","lat":43.777702,"lng":142.32039,"zip":"0700000"},{"town":"忠和三条六丁目","koaza":"","lat":43.775862,"lng":142.324543,"zip":"0700000"},{"town":"忠和三条七丁目","koaza":"","lat":43.775187,"lng":142.328012,"zip":"0700000"},{"town":"忠和三条八丁目","koaza":"","lat":43.773072,"lng":142.330245,"zip":"0700000"},{"town":"忠和四条一丁目","koaza":"","lat":43.781862,"lng":142.308323,"zip":"0700000"},{"town":"忠和四条二丁目","koaza":"","lat":43.781173,"lng":142.311026,"zip":"0700000"},{"town":"忠和四条三丁目","koaza":"","lat":43.779716,"lng":142.313522,"zip":"0700000"},{"town":"忠和四条四丁目","koaza":"","lat":43.778309,"lng":142.315747,"zip":"0700000"},{"town":"忠和四条五丁目","koaza":"","lat":43.776498,"lng":142.319046,"zip":"0700000"},{"town":"忠和四条六丁目","koaza":"","lat":43.774547,"lng":142.322725,"zip":"0700000"},{"town":"忠和四条七丁目","koaza":"","lat":43.772933,"lng":142.325739,"zip":"0700000"},{"town":"忠和四条八丁目","koaza":"","lat":43.771326,"lng":142.328581,"zip":"0700000"},{"town":"忠和五条一丁目","koaza":"","lat":43.780886,"lng":142.307214,"zip":"0700000"},{"town":"忠和五条二丁目","koaza":"","lat":43.779638,"lng":142.309516,"zip":"0700000"},{"town":"忠和五条三丁目","koaza":"","lat":43.778001,"lng":142.310937,"zip":"0700000"},{"town":"忠和五条四丁目","koaza":"","lat":43.776983,"lng":142.313731,"zip":"0700000"},{"town":"忠和五条五丁目","koaza":"","lat":43.775139,"lng":142.317724,"zip":"0700000"},{"town":"忠和五条六丁目","koaza":"","lat":43.773313,"lng":142.320995,"zip":"0700000"},{"town":"忠和五条七丁目","koaza":"","lat":43.771549,"lng":142.324341,"zip":"0700000"},{"town":"忠和五条八丁目","koaza":"","lat":43.770088,"lng":142.327092,"zip":"0700000"},{"town":"忠和六条一丁目","koaza":"","lat":43.779519,"lng":142.30582,"zip":"0700000"},{"town":"忠和六条二丁目","koaza":"","lat":43.778311,"lng":142.308293,"zip":"0700000"},{"town":"忠和六条三丁目","koaza":"","lat":43.776774,"lng":142.310424,"zip":"0700000"},{"town":"忠和六条四丁目","koaza":"","lat":43.775267,"lng":142.312961,"zip":"0700000"},{"town":"忠和六条五丁目","koaza":"","lat":43.773789,"lng":142.316272,"zip":"0700000"},{"town":"忠和六条六丁目","koaza":"","lat":43.771353,"lng":142.320097,"zip":"0700000"},{"town":"忠和六条七丁目","koaza":"","lat":43.77044,"lng":142.322732,"zip":"0700000"},{"town":"忠和六条八丁目","koaza":"","lat":43.769006,"lng":142.324102,"zip":"0700000"},{"town":"忠和七条一丁目","koaza":"","lat":43.777325,"lng":142.306291,"zip":"0700000"},{"town":"忠和七条二丁目","koaza":"","lat":43.776645,"lng":142.307362,"zip":"0700000"},{"town":"忠和七条三丁目","koaza":"","lat":43.775612,"lng":142.309974,"zip":"0700000"},{"town":"忠和七条四丁目","koaza":"","lat":43.773829,"lng":142.312096,"zip":"0700000"},{"town":"忠和七条五丁目","koaza":"","lat":43.772482,"lng":142.314948,"zip":"0700000"},{"town":"忠和七条六丁目","koaza":"","lat":43.7707,"lng":142.31818,"zip":"0700000"},{"town":"忠和七条七丁目","koaza":"","lat":43.769395,"lng":142.320493,"zip":"0700000"},{"town":"忠和八条三丁目","koaza":"","lat":43.775311,"lng":142.308291,"zip":"0700000"},{"town":"忠和八条四丁目","koaza":"","lat":43.772858,"lng":142.310422,"zip":"0700000"},{"town":"忠和八条五丁目","koaza":"","lat":43.770745,"lng":142.313649,"zip":"0700000"},{"town":"忠和八条六丁目","koaza":"","lat":43.769575,"lng":142.316809,"zip":"0700000"},{"town":"忠和九条四丁目","koaza":"","lat":43.77174,"lng":142.30987,"zip":"0700000"},{"town":"東光十条一丁目","koaza":"","lat":43.746501,"lng":142.387991,"zip":"0700000"},{"town":"東光十条二丁目","koaza":"","lat":43.746298,"lng":142.392225,"zip":"0700000"},{"town":"東光十条三丁目","koaza":"","lat":43.74591,"lng":142.396257,"zip":"0700000"},{"town":"東光十条四丁目","koaza":"","lat":43.745922,"lng":142.400312,"zip":"0700000"},{"town":"東光十条五丁目","koaza":"","lat":43.74555,"lng":142.404598,"zip":"0700000"},{"town":"東光十条六丁目","koaza":"","lat":43.74535,"lng":142.409012,"zip":"0700000"},{"town":"東光十条七丁目","koaza":"","lat":43.745208,"lng":142.412387,"zip":"0700000"},{"town":"東光十条八丁目","koaza":"","lat":43.744991,"lng":142.416436,"zip":"0700000"},{"town":"東光十条九丁目","koaza":"","lat":43.744847,"lng":142.419104,"zip":"0700000"},{"town":"東光十一条一丁目","koaza":"","lat":43.745669,"lng":142.387914,"zip":"0700000"},{"town":"東光十一条二丁目","koaza":"","lat":43.745391,"lng":142.392137,"zip":"0700000"},{"town":"東光十一条三丁目","koaza":"","lat":43.74521,"lng":142.395178,"zip":"0700000"},{"town":"東光十一条四丁目","koaza":"","lat":43.744864,"lng":142.400203,"zip":"0700000"},{"town":"東光十一条五丁目","koaza":"","lat":43.744653,"lng":142.40426,"zip":"0700000"},{"town":"東光十一条六丁目","koaza":"","lat":43.744498,"lng":142.408698,"zip":"0700000"},{"town":"東光十一条七丁目","koaza":"","lat":43.744198,"lng":142.412343,"zip":"0700000"},{"town":"東光十一条八丁目","koaza":"","lat":43.743961,"lng":142.416337,"zip":"0700000"},{"town":"東光十一条九丁目","koaza":"","lat":43.743833,"lng":142.419015,"zip":"0700000"},{"town":"東光十二条一丁目","koaza":"","lat":43.744747,"lng":142.387831,"zip":"0700000"},{"town":"東光十二条二丁目","koaza":"","lat":43.744311,"lng":142.392039,"zip":"0700000"},{"town":"東光十二条三丁目","koaza":"","lat":43.744101,"lng":142.396063,"zip":"0700000"},{"town":"東光十二条四丁目","koaza":"","lat":43.743715,"lng":142.400089,"zip":"0700000"},{"town":"東光十二条五丁目","koaza":"","lat":43.743796,"lng":142.403902,"zip":"0700000"},{"town":"東光十二条六丁目","koaza":"","lat":43.743428,"lng":142.408237,"zip":"0700000"},{"town":"東光十二条七丁目","koaza":"","lat":43.743216,"lng":142.41225,"zip":"0700000"},{"town":"東光十二条八丁目","koaza":"","lat":43.742984,"lng":142.416236,"zip":"0700000"},{"town":"東光十二条九丁目","koaza":"","lat":43.742843,"lng":142.418908,"zip":"0700000"},{"town":"東光十三条一丁目","koaza":"","lat":43.743676,"lng":142.387737,"zip":"0700000"},{"town":"東光十三条二丁目","koaza":"","lat":43.743624,"lng":142.392184,"zip":"0700000"},{"town":"東光十三条三丁目","koaza":"","lat":43.743274,"lng":142.395758,"zip":"0700000"},{"town":"東光十三条四丁目","koaza":"","lat":43.742724,"lng":142.399993,"zip":"0700000"},{"town":"東光十三条五丁目","koaza":"","lat":43.742704,"lng":142.404063,"zip":"0700000"},{"town":"東光十三条六丁目","koaza":"","lat":43.742454,"lng":142.408127,"zip":"0700000"},{"town":"東光十三条七丁目","koaza":"","lat":43.742317,"lng":142.412178,"zip":"0700000"},{"town":"東光十三条八丁目","koaza":"","lat":43.741991,"lng":142.416143,"zip":"0700000"},{"town":"東光十三条九丁目","koaza":"","lat":43.741867,"lng":142.418805,"zip":"0700000"},{"town":"東光十四条一丁目","koaza":"","lat":43.742077,"lng":142.388054,"zip":"0700000"},{"town":"東光十四条二丁目","koaza":"","lat":43.742481,"lng":142.39184,"zip":"0700000"},{"town":"東光十四条三丁目","koaza":"","lat":43.742198,"lng":142.395869,"zip":"0700000"},{"town":"東光十四条四丁目","koaza":"","lat":43.742002,"lng":142.39979,"zip":"0700000"},{"town":"東光十四条五丁目","koaza":"","lat":43.741554,"lng":142.403935,"zip":"0700000"},{"town":"東光十四条六丁目","koaza":"","lat":43.741479,"lng":142.408015,"zip":"0700000"},{"town":"東光十四条七丁目","koaza":"","lat":43.74115,"lng":142.412061,"zip":"0700000"},{"town":"東光十四条八丁目","koaza":"","lat":43.741032,"lng":142.416052,"zip":"0700000"},{"town":"東光十四条九丁目","koaza":"","lat":43.740891,"lng":142.418689,"zip":"0700000"},{"town":"東光十五条二丁目","koaza":"","lat":43.740675,"lng":142.391697,"zip":"0700000"},{"town":"東光十五条三丁目","koaza":"","lat":43.741222,"lng":142.395366,"zip":"0700000"},{"town":"東光十五条四丁目","koaza":"","lat":43.74095,"lng":142.399818,"zip":"0700000"},{"town":"東光十五条五丁目","koaza":"","lat":43.74068,"lng":142.403856,"zip":"0700000"},{"town":"東光十五条六丁目","koaza":"","lat":43.740503,"lng":142.407923,"zip":"0700000"},{"town":"東光十五条七丁目","koaza":"","lat":43.740256,"lng":142.411954,"zip":"0700000"},{"town":"東光十五条八丁目","koaza":"","lat":43.740052,"lng":142.415933,"zip":"0700000"},{"town":"東光十五条九丁目","koaza":"","lat":43.739906,"lng":142.418594,"zip":"0700000"},{"town":"東光十六条三丁目","koaza":"","lat":43.738928,"lng":142.395939,"zip":"0700000"},{"town":"東光十六条四丁目","koaza":"","lat":43.739977,"lng":142.39973,"zip":"0700000"},{"town":"東光十六条五丁目","koaza":"","lat":43.739861,"lng":142.403236,"zip":"0700000"},{"town":"東光十六条六丁目","koaza":"","lat":43.739513,"lng":142.407826,"zip":"0700000"},{"town":"東光十六条七丁目","koaza":"","lat":43.739175,"lng":142.411875,"zip":"0700000"},{"town":"東光十六条八丁目","koaza":"","lat":43.739077,"lng":142.415866,"zip":"0700000"},{"town":"東光十六条九丁目","koaza":"","lat":43.738918,"lng":142.418493,"zip":"0700000"},{"town":"東光十七条四丁目","koaza":"","lat":43.738999,"lng":142.399644,"zip":"0700000"},{"town":"東光十七条五丁目","koaza":"","lat":43.738815,"lng":142.403675,"zip":"0700000"},{"town":"東光十七条六丁目","koaza":"","lat":43.738032,"lng":142.4079,"zip":"0700000"},{"town":"東光十七条七丁目","koaza":"","lat":43.73829,"lng":142.411761,"zip":"0700000"},{"town":"東光十七条八丁目","koaza":"","lat":43.738379,"lng":142.41533,"zip":"0700000"},{"town":"東光十七条九丁目","koaza":"","lat":43.737955,"lng":142.417823,"zip":"0700000"},{"town":"東光十八条四丁目","koaza":"","lat":43.735328,"lng":142.399882,"zip":"0700000"},{"town":"東光十八条五丁目","koaza":"","lat":43.737744,"lng":142.403958,"zip":"0700000"},{"town":"東光十八条六丁目","koaza":"","lat":43.737224,"lng":142.406715,"zip":"0700000"},{"town":"東光十八条七丁目","koaza":"","lat":43.737342,"lng":142.411661,"zip":"0700000"},{"town":"東光十八条八丁目","koaza":"","lat":43.737378,"lng":142.415117,"zip":"0700000"},{"town":"東光十八条九丁目","koaza":"","lat":43.73698,"lng":142.417719,"zip":"0700000"},{"town":"東光十九条五丁目","koaza":"","lat":43.736671,"lng":142.403414,"zip":"0700000"},{"town":"東光十九条六丁目","koaza":"","lat":43.736253,"lng":142.407509,"zip":"0700000"},{"town":"東光十九条七丁目","koaza":"","lat":43.736346,"lng":142.411565,"zip":"0700000"},{"town":"東光十九条八丁目","koaza":"","lat":43.735955,"lng":142.414968,"zip":"0700000"},{"town":"東光十九条九丁目","koaza":"","lat":43.736033,"lng":142.417625,"zip":"0700000"},{"town":"東光一条十丁目","koaza":"","lat":43.753332,"lng":142.422397,"zip":"0700000"},{"town":"東光一条一丁目","koaza":"","lat":43.755986,"lng":142.388725,"zip":"0700000"},{"town":"東光一条二丁目","koaza":"","lat":43.755232,"lng":142.393077,"zip":"0700000"},{"town":"東光一条三丁目","koaza":"","lat":43.755003,"lng":142.39718,"zip":"0700000"},{"town":"東光一条四丁目","koaza":"","lat":43.754771,"lng":142.401209,"zip":"0700000"},{"town":"東光一条五丁目","koaza":"","lat":43.754544,"lng":142.405967,"zip":"0700000"},{"town":"東光一条六丁目","koaza":"","lat":43.754335,"lng":142.409269,"zip":"0700000"},{"town":"東光一条七丁目","koaza":"","lat":43.754073,"lng":142.413301,"zip":"0700000"},{"town":"東光一条八丁目","koaza":"","lat":43.753796,"lng":142.417341,"zip":"0700000"},{"town":"東光一条九丁目","koaza":"","lat":43.75363,"lng":142.41999,"zip":"0700000"},{"town":"東光二十条五丁目","koaza":"","lat":43.735899,"lng":142.40334,"zip":"0700000"},{"town":"東光二十条六丁目","koaza":"","lat":43.735578,"lng":142.408008,"zip":"0700000"},{"town":"東光二十条七丁目","koaza":"","lat":43.735265,"lng":142.411459,"zip":"0700000"},{"town":"東光二十条八丁目","koaza":"","lat":43.735184,"lng":142.414926,"zip":"0700000"},{"town":"東光二十条九丁目","koaza":"","lat":43.73506,"lng":142.417531,"zip":"0700000"},{"town":"東光二十一条五丁目","koaza":"","lat":43.734806,"lng":142.403225,"zip":"0700000"},{"town":"東光二十一条六丁目","koaza":"","lat":43.734962,"lng":142.407381,"zip":"0700000"},{"town":"東光二十一条七丁目","koaza":"","lat":43.734603,"lng":142.411876,"zip":"0700000"},{"town":"東光二十一条八丁目","koaza":"","lat":43.734301,"lng":142.414802,"zip":"0700000"},{"town":"東光二十一条九丁目","koaza":"","lat":43.733687,"lng":142.417363,"zip":"0700000"},{"town":"東光二十二条五丁目","koaza":"","lat":43.732397,"lng":142.402987,"zip":"0700000"},{"town":"東光二十二条六丁目","koaza":"","lat":43.733542,"lng":142.407231,"zip":"0700000"},{"town":"東光二十二条七丁目","koaza":"","lat":43.733416,"lng":142.411259,"zip":"0700000"},{"town":"東光二十二条八丁目","koaza":"","lat":43.733158,"lng":142.414926,"zip":"0700000"},{"town":"東光二十二条九丁目","koaza":"","lat":43.732759,"lng":142.417741,"zip":"0700000"},{"town":"東光二十三条六丁目","koaza":"","lat":43.732727,"lng":142.407157,"zip":"0700000"},{"town":"東光二十三条七丁目","koaza":"","lat":43.732437,"lng":142.411169,"zip":"0700000"},{"town":"東光二十三条八丁目","koaza":"","lat":43.732159,"lng":142.415086,"zip":"0700000"},{"town":"東光二十三条九丁目","koaza":"","lat":43.732046,"lng":142.417782,"zip":"0700000"},{"town":"東光二十四条六丁目","koaza":"","lat":43.731602,"lng":142.407061,"zip":"0700000"},{"town":"東光二十四条七丁目","koaza":"","lat":43.731441,"lng":142.411067,"zip":"0700000"},{"town":"東光二十四条八丁目","koaza":"","lat":43.731182,"lng":142.414989,"zip":"0700000"},{"town":"東光二十四条九丁目","koaza":"","lat":43.731065,"lng":142.417701,"zip":"0700000"},{"town":"東光二十五条六丁目","koaza":"","lat":43.730001,"lng":142.407266,"zip":"0700000"},{"town":"東光二十五条七丁目","koaza":"","lat":43.730435,"lng":142.410958,"zip":"0700000"},{"town":"東光二十五条八丁目","koaza":"","lat":43.730238,"lng":142.414892,"zip":"0700000"},{"town":"東光二十五条九丁目","koaza":"","lat":43.73011,"lng":142.417602,"zip":"0700000"},{"town":"東光二十六条七丁目","koaza":"","lat":43.728414,"lng":142.410752,"zip":"0700000"},{"town":"東光二十六条八丁目","koaza":"","lat":43.729294,"lng":142.414798,"zip":"0700000"},{"town":"東光二十六条九丁目","koaza":"","lat":43.729162,"lng":142.417507,"zip":"0700000"},{"town":"東光二十七条八丁目","koaza":"","lat":43.726909,"lng":142.414575,"zip":"0700000"},{"town":"東光二十七条九丁目","koaza":"","lat":43.72624,"lng":142.417219,"zip":"0700000"},{"town":"東光二条十丁目","koaza":"","lat":43.752226,"lng":142.422283,"zip":"0700000"},{"town":"東光二条一丁目","koaza":"","lat":43.754823,"lng":142.38877,"zip":"0700000"},{"town":"東光二条二丁目","koaza":"","lat":43.754256,"lng":142.392958,"zip":"0700000"},{"town":"東光二条三丁目","koaza":"","lat":43.754025,"lng":142.397063,"zip":"0700000"},{"town":"東光二条四丁目","koaza":"","lat":43.753794,"lng":142.401101,"zip":"0700000"},{"town":"東光二条五丁目","koaza":"","lat":43.753575,"lng":142.405138,"zip":"0700000"},{"town":"東光二条六丁目","koaza":"","lat":43.753316,"lng":142.409158,"zip":"0700000"},{"town":"東光二条七丁目","koaza":"","lat":43.753126,"lng":142.413196,"zip":"0700000"},{"town":"東光二条八丁目","koaza":"","lat":43.752737,"lng":142.417842,"zip":"0700000"},{"town":"東光二条九丁目","koaza":"","lat":43.752723,"lng":142.419899,"zip":"0700000"},{"town":"東光三条十丁目","koaza":"","lat":43.751428,"lng":142.422194,"zip":"0700000"},{"town":"東光三条一丁目","koaza":"","lat":43.753572,"lng":142.388659,"zip":"0700000"},{"town":"東光三条二丁目","koaza":"","lat":43.753239,"lng":142.393262,"zip":"0700000"},{"town":"東光三条三丁目","koaza":"","lat":43.753103,"lng":142.396966,"zip":"0700000"},{"town":"東光三条四丁目","koaza":"","lat":43.752683,"lng":142.401142,"zip":"0700000"},{"town":"東光三条五丁目","koaza":"","lat":43.752609,"lng":142.405053,"zip":"0700000"},{"town":"東光三条六丁目","koaza":"","lat":43.752384,"lng":142.409078,"zip":"0700000"},{"town":"東光三条七丁目","koaza":"","lat":43.752152,"lng":142.413085,"zip":"0700000"},{"town":"東光三条八丁目","koaza":"","lat":43.751938,"lng":142.417098,"zip":"0700000"},{"town":"東光三条九丁目","koaza":"","lat":43.751801,"lng":142.419762,"zip":"0700000"},{"town":"東光四条十丁目","koaza":"","lat":43.750554,"lng":142.422106,"zip":"0700000"},{"town":"東光四条一丁目","koaza":"","lat":43.752744,"lng":142.387609,"zip":"0700000"},{"town":"東光四条二丁目","koaza":"","lat":43.752285,"lng":142.392768,"zip":"0700000"},{"town":"東光四条三丁目","koaza":"","lat":43.752037,"lng":142.396856,"zip":"0700000"},{"town":"東光四条四丁目","koaza":"","lat":43.75187,"lng":142.400912,"zip":"0700000"},{"town":"東光四条五丁目","koaza":"","lat":43.751645,"lng":142.404966,"zip":"0700000"},{"town":"東光四条六丁目","koaza":"","lat":43.751149,"lng":142.408965,"zip":"0700000"},{"town":"東光四条七丁目","koaza":"","lat":43.751154,"lng":142.412979,"zip":"0700000"},{"town":"東光四条八丁目","koaza":"","lat":43.750932,"lng":142.416993,"zip":"0700000"},{"town":"東光四条九丁目","koaza":"","lat":43.750821,"lng":142.419893,"zip":"0700000"},{"town":"東光五条十丁目","koaza":"","lat":43.749507,"lng":142.422002,"zip":"0700000"},{"town":"東光五条一丁目","koaza":"","lat":43.751699,"lng":142.388482,"zip":"0700000"},{"town":"東光五条二丁目","koaza":"","lat":43.751317,"lng":142.392705,"zip":"0700000"},{"town":"東光五条三丁目","koaza":"","lat":43.751087,"lng":142.396767,"zip":"0700000"},{"town":"東光五条四丁目","koaza":"","lat":43.750863,"lng":142.400818,"zip":"0700000"},{"town":"東光五条五丁目","koaza":"","lat":43.750631,"lng":142.40528,"zip":"0700000"},{"town":"東光五条六丁目","koaza":"","lat":43.750483,"lng":142.410223,"zip":"0700000"},{"town":"東光五条七丁目","koaza":"","lat":43.750151,"lng":142.412876,"zip":"0700000"},{"town":"東光五条八丁目","koaza":"","lat":43.749966,"lng":142.416888,"zip":"0700000"},{"town":"東光五条九丁目","koaza":"","lat":43.749909,"lng":142.419711,"zip":"0700000"},{"town":"東光六条十丁目","koaza":"","lat":43.74823,"lng":142.421876,"zip":"0700000"},{"town":"東光六条一丁目","koaza":"","lat":43.750666,"lng":142.388386,"zip":"0700000"},{"town":"東光六条二丁目","koaza":"","lat":43.750344,"lng":142.392607,"zip":"0700000"},{"town":"東光六条三丁目","koaza":"","lat":43.750119,"lng":142.396669,"zip":"0700000"},{"town":"東光六条四丁目","koaza":"","lat":43.749749,"lng":142.400705,"zip":"0700000"},{"town":"東光六条五丁目","koaza":"","lat":43.749527,"lng":142.404757,"zip":"0700000"},{"town":"東光六条六丁目","koaza":"","lat":43.749456,"lng":142.408803,"zip":"0700000"},{"town":"東光六条七丁目","koaza":"","lat":43.749019,"lng":142.412773,"zip":"0700000"},{"town":"東光六条八丁目","koaza":"","lat":43.748953,"lng":142.416778,"zip":"0700000"},{"town":"東光六条九丁目","koaza":"","lat":43.748851,"lng":142.419468,"zip":"0700000"},{"town":"東光七条十丁目","koaza":"","lat":43.747,"lng":142.421747,"zip":"0700000"},{"town":"東光七条一丁目","koaza":"","lat":43.74962,"lng":142.388272,"zip":"0700000"},{"town":"東光七条二丁目","koaza":"","lat":43.749367,"lng":142.392509,"zip":"0700000"},{"town":"東光七条三丁目","koaza":"","lat":43.749156,"lng":142.396561,"zip":"0700000"},{"town":"東光七条四丁目","koaza":"","lat":43.748752,"lng":142.400605,"zip":"0700000"},{"town":"東光七条五丁目","koaza":"","lat":43.748702,"lng":142.404672,"zip":"0700000"},{"town":"東光七条六丁目","koaza":"","lat":43.748483,"lng":142.408707,"zip":"0700000"},{"town":"東光七条七丁目","koaza":"","lat":43.748263,"lng":142.411776,"zip":"0700000"},{"town":"東光七条八丁目","koaza":"","lat":43.747996,"lng":142.41668,"zip":"0700000"},{"town":"東光七条九丁目","koaza":"","lat":43.74788,"lng":142.419374,"zip":"0700000"},{"town":"東光八条十丁目","koaza":"","lat":43.746207,"lng":142.421665,"zip":"0700000"},{"town":"東光八条一丁目","koaza":"","lat":43.748691,"lng":142.388186,"zip":"0700000"},{"town":"東光八条二丁目","koaza":"","lat":43.748121,"lng":142.392393,"zip":"0700000"},{"town":"東光八条三丁目","koaza":"","lat":43.748013,"lng":142.39645,"zip":"0700000"},{"town":"東光八条四丁目","koaza":"","lat":43.747953,"lng":142.400518,"zip":"0700000"},{"town":"東光八条五丁目","koaza":"","lat":43.747718,"lng":142.404563,"zip":"0700000"},{"town":"東光八条六丁目","koaza":"","lat":43.747497,"lng":142.408606,"zip":"0700000"},{"town":"東光八条七丁目","koaza":"","lat":43.747281,"lng":142.412603,"zip":"0700000"},{"town":"東光八条八丁目","koaza":"","lat":43.747096,"lng":142.416601,"zip":"0700000"},{"town":"東光八条九丁目","koaza":"","lat":43.746712,"lng":142.419266,"zip":"0700000"},{"town":"東光九条十丁目","koaza":"","lat":43.745185,"lng":142.422299,"zip":"0700000"},{"town":"東光九条一丁目","koaza":"","lat":43.747545,"lng":142.388085,"zip":"0700000"},{"town":"東光九条二丁目","koaza":"","lat":43.747407,"lng":142.39162,"zip":"0700000"},{"town":"東光九条三丁目","koaza":"","lat":43.747103,"lng":142.396356,"zip":"0700000"},{"town":"東光九条四丁目","koaza":"","lat":43.746918,"lng":142.400409,"zip":"0700000"},{"town":"東光九条五丁目","koaza":"","lat":43.746702,"lng":142.404454,"zip":"0700000"},{"town":"東光九条六丁目","koaza":"","lat":43.746485,"lng":142.408503,"zip":"0700000"},{"town":"東光九条七丁目","koaza":"","lat":43.746271,"lng":142.412514,"zip":"0700000"},{"town":"東光九条八丁目","koaza":"","lat":43.746032,"lng":142.416519,"zip":"0700000"},{"town":"東光九条九丁目","koaza":"","lat":43.745962,"lng":142.41911,"zip":"0700000"},{"town":"常磐公園","koaza":"","lat":43.776031,"lng":142.358027,"zip":"0700044"},{"town":"常盤通一丁目","koaza":"","lat":43.775057,"lng":142.362268,"zip":"0700043"},{"town":"常盤通二丁目","koaza":"","lat":43.775734,"lng":142.361846,"zip":"0700043"},{"town":"常盤通三丁目","koaza":"","lat":43.777116,"lng":142.360996,"zip":"0700043"},{"town":"豊岡十条十丁目","koaza":"","lat":43.766596,"lng":142.423722,"zip":"0700000"},{"town":"豊岡十条十一丁目","koaza":"","lat":43.766355,"lng":142.42665,"zip":"0700000"},{"town":"豊岡十条一丁目","koaza":"","lat":43.768574,"lng":142.390896,"zip":"0700000"},{"town":"豊岡十条二丁目","koaza":"","lat":43.768288,"lng":142.394551,"zip":"0700000"},{"town":"豊岡十条三丁目","koaza":"","lat":43.767967,"lng":142.398564,"zip":"0700000"},{"town":"豊岡十条四丁目","koaza":"","lat":43.767835,"lng":142.402587,"zip":"0700000"},{"town":"豊岡十条五丁目","koaza":"","lat":43.767558,"lng":142.407089,"zip":"0700000"},{"town":"豊岡十条六丁目","koaza":"","lat":43.767317,"lng":142.410714,"zip":"0700000"},{"town":"豊岡十条七丁目","koaza":"","lat":43.76714,"lng":142.414646,"zip":"0700000"},{"town":"豊岡十条八丁目","koaza":"","lat":43.766892,"lng":142.418711,"zip":"0700000"},{"town":"豊岡十条九丁目","koaza":"","lat":43.766873,"lng":142.421363,"zip":"0700000"},{"town":"豊岡十一条十丁目","koaza":"","lat":43.767614,"lng":142.423826,"zip":"0700000"},{"town":"豊岡十一条十一丁目","koaza":"","lat":43.76741,"lng":142.425877,"zip":"0700000"},{"town":"豊岡十一条一丁目","koaza":"","lat":43.769437,"lng":142.390897,"zip":"0700000"},{"town":"豊岡十一条二丁目","koaza":"","lat":43.769404,"lng":142.394599,"zip":"0700000"},{"town":"豊岡十一条三丁目","koaza":"","lat":43.769183,"lng":142.398669,"zip":"0700000"},{"town":"豊岡十一条四丁目","koaza":"","lat":43.768714,"lng":142.402277,"zip":"0700000"},{"town":"豊岡十一条五丁目","koaza":"","lat":43.768642,"lng":142.406731,"zip":"0700000"},{"town":"豊岡十一条六丁目","koaza":"","lat":43.768298,"lng":142.410742,"zip":"0700000"},{"town":"豊岡十一条七丁目","koaza":"","lat":43.768071,"lng":142.414748,"zip":"0700000"},{"town":"豊岡十一条八丁目","koaza":"","lat":43.767822,"lng":142.418813,"zip":"0700000"},{"town":"豊岡十一条九丁目","koaza":"","lat":43.767817,"lng":142.421465,"zip":"0700000"},{"town":"豊岡十二条十丁目","koaza":"","lat":43.76869,"lng":142.423937,"zip":"0700000"},{"town":"豊岡十二条十一丁目","koaza":"","lat":43.767954,"lng":142.427543,"zip":"0700000"},{"town":"豊岡十二条一丁目","koaza":"","lat":43.770525,"lng":142.391282,"zip":"0700000"},{"town":"豊岡十二条二丁目","koaza":"","lat":43.770361,"lng":142.394852,"zip":"0700000"},{"town":"豊岡十二条三丁目","koaza":"","lat":43.770113,"lng":142.398832,"zip":"0700000"},{"town":"豊岡十二条四丁目","koaza":"","lat":43.770055,"lng":142.403262,"zip":"0700000"},{"town":"豊岡十二条五丁目","koaza":"","lat":43.76956,"lng":142.406837,"zip":"0700000"},{"town":"豊岡十二条六丁目","koaza":"","lat":43.769732,"lng":142.410887,"zip":"0700000"},{"town":"豊岡十二条七丁目","koaza":"","lat":43.769003,"lng":142.41485,"zip":"0700000"},{"town":"豊岡十二条八丁目","koaza":"","lat":43.768834,"lng":142.418926,"zip":"0700000"},{"town":"豊岡十二条九丁目","koaza":"","lat":43.768675,"lng":142.421554,"zip":"0700000"},{"town":"豊岡十三条一丁目","koaza":"","lat":43.771817,"lng":142.391153,"zip":"0700000"},{"town":"豊岡十三条二丁目","koaza":"","lat":43.771279,"lng":142.395028,"zip":"0700000"},{"town":"豊岡十三条三丁目","koaza":"","lat":43.771111,"lng":142.398965,"zip":"0700000"},{"town":"豊岡十三条四丁目","koaza":"","lat":43.770904,"lng":142.403057,"zip":"0700000"},{"town":"豊岡十三条五丁目","koaza":"","lat":43.770876,"lng":142.407008,"zip":"0700000"},{"town":"豊岡十三条六丁目","koaza":"","lat":43.770778,"lng":142.41104,"zip":"0700000"},{"town":"豊岡十三条七丁目","koaza":"","lat":43.770007,"lng":142.414961,"zip":"0700000"},{"town":"豊岡十三条八丁目","koaza":"","lat":43.7698,"lng":142.419034,"zip":"0700000"},{"town":"豊岡十三条九丁目","koaza":"","lat":43.769612,"lng":142.421788,"zip":"0700000"},{"town":"豊岡十四条三丁目","koaza":"","lat":43.772441,"lng":142.39973,"zip":"0700000"},{"town":"豊岡十四条四丁目","koaza":"","lat":43.771925,"lng":142.403196,"zip":"0700000"},{"town":"豊岡十四条五丁目","koaza":"","lat":43.772438,"lng":142.407111,"zip":"0700000"},{"town":"豊岡十四条六丁目","koaza":"","lat":43.771921,"lng":142.411085,"zip":"0700000"},{"town":"豊岡十四条七丁目","koaza":"","lat":43.771297,"lng":142.415119,"zip":"0700000"},{"town":"豊岡十四条八丁目","koaza":"","lat":43.771106,"lng":142.41915,"zip":"0700000"},{"town":"豊岡十四条九丁目","koaza":"","lat":43.771011,"lng":142.421768,"zip":"0700000"},{"town":"豊岡十五条四丁目","koaza":"","lat":43.773315,"lng":142.403218,"zip":"0700000"},{"town":"豊岡十五条五丁目","koaza":"","lat":43.77399,"lng":142.407298,"zip":"0700000"},{"town":"豊岡十五条六丁目","koaza":"","lat":43.773882,"lng":142.411301,"zip":"0700000"},{"town":"豊岡十五条七丁目","koaza":"","lat":43.773016,"lng":142.415212,"zip":"0700000"},{"town":"豊岡十五条八丁目","koaza":"","lat":43.772708,"lng":142.419207,"zip":"0700000"},{"town":"豊岡十六条七丁目","koaza":"","lat":43.773963,"lng":142.41573,"zip":"0700000"},{"town":"豊岡十六条八丁目","koaza":"","lat":43.775242,"lng":142.4199,"zip":"0700000"},{"town":"豊岡一条十丁目","koaza":"","lat":43.754492,"lng":142.422513,"zip":"0700000"},{"town":"豊岡一条一丁目","koaza":"","lat":43.756982,"lng":142.388983,"zip":"0700000"},{"town":"豊岡一条二丁目","koaza":"","lat":43.756125,"lng":142.392811,"zip":"0700000"},{"town":"豊岡一条三丁目","koaza":"","lat":43.755983,"lng":142.397302,"zip":"0700000"},{"town":"豊岡一条四丁目","koaza":"","lat":43.755772,"lng":142.401328,"zip":"0700000"},{"town":"豊岡一条五丁目","koaza":"","lat":43.755265,"lng":142.405313,"zip":"0700000"},{"town":"豊岡一条六丁目","koaza":"","lat":43.755292,"lng":142.409367,"zip":"0700000"},{"town":"豊岡一条七丁目","koaza":"","lat":43.75503,"lng":142.4134,"zip":"0700000"},{"town":"豊岡一条八丁目","koaza":"","lat":43.754784,"lng":142.41743,"zip":"0700000"},{"town":"豊岡一条九丁目","koaza":"","lat":43.754609,"lng":142.420215,"zip":"0700000"},{"town":"豊岡二条十丁目","koaza":"","lat":43.756087,"lng":142.422587,"zip":"0700000"},{"town":"豊岡二条一丁目","koaza":"","lat":43.758773,"lng":142.388061,"zip":"0700000"},{"town":"豊岡二条二丁目","koaza":"","lat":43.757412,"lng":142.3933,"zip":"0700000"},{"town":"豊岡二条三丁目","koaza":"","lat":43.757359,"lng":142.397144,"zip":"0700000"},{"town":"豊岡二条四丁目","koaza":"","lat":43.757015,"lng":142.401487,"zip":"0700000"},{"town":"豊岡二条五丁目","koaza":"","lat":43.756931,"lng":142.405499,"zip":"0700000"},{"town":"豊岡二条六丁目","koaza":"","lat":43.756749,"lng":142.409523,"zip":"0700000"},{"town":"豊岡二条七丁目","koaza":"","lat":43.756494,"lng":142.413953,"zip":"0700000"},{"town":"豊岡二条八丁目","koaza":"","lat":43.756272,"lng":142.417574,"zip":"0700000"},{"town":"豊岡二条九丁目","koaza":"","lat":43.756059,"lng":142.42023,"zip":"0700000"},{"town":"豊岡三条十丁目","koaza":"","lat":43.757653,"lng":142.421849,"zip":"0700000"},{"town":"豊岡三条一丁目","koaza":"","lat":43.75952,"lng":142.389899,"zip":"0700000"},{"town":"豊岡三条二丁目","koaza":"","lat":43.759235,"lng":142.393441,"zip":"0700000"},{"town":"豊岡三条三丁目","koaza":"","lat":43.758356,"lng":142.398344,"zip":"0700000"},{"town":"豊岡三条四丁目","koaza":"","lat":43.758425,"lng":142.401607,"zip":"0700000"},{"town":"豊岡三条五丁目","koaza":"","lat":43.758469,"lng":142.40568,"zip":"0700000"},{"town":"豊岡三条六丁目","koaza":"","lat":43.75823,"lng":142.409692,"zip":"0700000"},{"town":"豊岡三条七丁目","koaza":"","lat":43.758003,"lng":142.413709,"zip":"0700000"},{"town":"豊岡三条八丁目","koaza":"","lat":43.757774,"lng":142.417728,"zip":"0700000"},{"town":"豊岡三条九丁目","koaza":"","lat":43.757859,"lng":142.420429,"zip":"0700000"},{"town":"豊岡四条十丁目","koaza":"","lat":43.758564,"lng":142.422948,"zip":"0700000"},{"town":"豊岡四条十一丁目","koaza":"","lat":43.759374,"lng":142.426415,"zip":"0700000"},{"town":"豊岡四条一丁目","koaza":"","lat":43.760688,"lng":142.390038,"zip":"0700000"},{"town":"豊岡四条二丁目","koaza":"","lat":43.760385,"lng":142.394722,"zip":"0700000"},{"town":"豊岡四条三丁目","koaza":"","lat":43.760267,"lng":142.397753,"zip":"0700000"},{"town":"豊岡四条四丁目","koaza":"","lat":43.759984,"lng":142.401747,"zip":"0700000"},{"town":"豊岡四条五丁目","koaza":"","lat":43.760149,"lng":142.405461,"zip":"0700000"},{"town":"豊岡四条六丁目","koaza":"","lat":43.759751,"lng":142.409861,"zip":"0700000"},{"town":"豊岡四条七丁目","koaza":"","lat":43.759551,"lng":142.41388,"zip":"0700000"},{"town":"豊岡四条八丁目","koaza":"","lat":43.759313,"lng":142.417899,"zip":"0700000"},{"town":"豊岡四条九丁目","koaza":"","lat":43.759403,"lng":142.42057,"zip":"0700000"},{"town":"豊岡五条十丁目","koaza":"","lat":43.760571,"lng":142.423138,"zip":"0700000"},{"town":"豊岡五条十一丁目","koaza":"","lat":43.760422,"lng":142.426511,"zip":"0700000"},{"town":"豊岡五条一丁目","koaza":"","lat":43.762409,"lng":142.390229,"zip":"0700000"},{"town":"豊岡五条二丁目","koaza":"","lat":43.761904,"lng":142.393709,"zip":"0700000"},{"town":"豊岡五条三丁目","koaza":"","lat":43.761898,"lng":142.397914,"zip":"0700000"},{"town":"豊岡五条四丁目","koaza":"","lat":43.761724,"lng":142.401949,"zip":"0700000"},{"town":"豊岡五条五丁目","koaza":"","lat":43.761544,"lng":142.406021,"zip":"0700000"},{"town":"豊岡五条六丁目","koaza":"","lat":43.761301,"lng":142.410026,"zip":"0700000"},{"town":"豊岡五条七丁目","koaza":"","lat":43.760917,"lng":142.414021,"zip":"0700000"},{"town":"豊岡五条八丁目","koaza":"","lat":43.760843,"lng":142.418053,"zip":"0700000"},{"town":"豊岡五条九丁目","koaza":"","lat":43.760677,"lng":142.420699,"zip":"0700000"},{"town":"豊岡六条十丁目","koaza":"","lat":43.762074,"lng":142.423289,"zip":"0700000"},{"town":"豊岡六条十一丁目","koaza":"","lat":43.76185,"lng":142.426638,"zip":"0700000"},{"town":"豊岡六条一丁目","koaza":"","lat":43.764078,"lng":142.390093,"zip":"0700000"},{"town":"豊岡六条二丁目","koaza":"","lat":43.763928,"lng":142.394055,"zip":"0700000"},{"town":"豊岡六条三丁目","koaza":"","lat":43.763718,"lng":142.398081,"zip":"0700000"},{"town":"豊岡六条四丁目","koaza":"","lat":43.763412,"lng":142.402112,"zip":"0700000"},{"town":"豊岡六条五丁目","koaza":"","lat":43.762933,"lng":142.40616,"zip":"0700000"},{"town":"豊岡六条六丁目","koaza":"","lat":43.762805,"lng":142.410181,"zip":"0700000"},{"town":"豊岡六条七丁目","koaza":"","lat":43.762594,"lng":142.414172,"zip":"0700000"},{"town":"豊岡六条八丁目","koaza":"","lat":43.762373,"lng":142.417847,"zip":"0700000"},{"town":"豊岡六条九丁目","koaza":"","lat":43.761704,"lng":142.420843,"zip":"0700000"},{"town":"豊岡七条十丁目","koaza":"","lat":43.763372,"lng":142.423538,"zip":"0700000"},{"town":"豊岡七条十一丁目","koaza":"","lat":43.763359,"lng":142.426547,"zip":"0700000"},{"town":"豊岡七条一丁目","koaza":"","lat":43.765332,"lng":142.390562,"zip":"0700000"},{"town":"豊岡七条二丁目","koaza":"","lat":43.76515,"lng":142.394208,"zip":"0700000"},{"town":"豊岡七条三丁目","koaza":"","lat":43.764935,"lng":142.398221,"zip":"0700000"},{"town":"豊岡七条四丁目","koaza":"","lat":43.764676,"lng":142.402236,"zip":"0700000"},{"town":"豊岡七条五丁目","koaza":"","lat":43.764492,"lng":142.406314,"zip":"0700000"},{"town":"豊岡七条六丁目","koaza":"","lat":43.764305,"lng":142.410346,"zip":"0700000"},{"town":"豊岡七条七丁目","koaza":"","lat":43.764111,"lng":142.414329,"zip":"0700000"},{"town":"豊岡七条八丁目","koaza":"","lat":43.763886,"lng":142.418,"zip":"0700000"},{"town":"豊岡七条九丁目","koaza":"","lat":43.763262,"lng":142.420613,"zip":"0700000"},{"town":"豊岡八条十丁目","koaza":"","lat":43.764473,"lng":142.423509,"zip":"0700000"},{"town":"豊岡八条十一丁目","koaza":"","lat":43.764275,"lng":142.426072,"zip":"0700000"},{"town":"豊岡八条一丁目","koaza":"","lat":43.766627,"lng":142.390701,"zip":"0700000"},{"town":"豊岡八条二丁目","koaza":"","lat":43.766273,"lng":142.394314,"zip":"0700000"},{"town":"豊岡八条三丁目","koaza":"","lat":43.766071,"lng":142.398338,"zip":"0700000"},{"town":"豊岡八条四丁目","koaza":"","lat":43.765963,"lng":142.402382,"zip":"0700000"},{"town":"豊岡八条五丁目","koaza":"","lat":43.765678,"lng":142.406444,"zip":"0700000"},{"town":"豊岡八条六丁目","koaza":"","lat":43.7655,"lng":142.410469,"zip":"0700000"},{"town":"豊岡八条七丁目","koaza":"","lat":43.765119,"lng":142.414432,"zip":"0700000"},{"town":"豊岡八条八丁目","koaza":"","lat":43.764949,"lng":142.418498,"zip":"0700000"},{"town":"豊岡八条九丁目","koaza":"","lat":43.764774,"lng":142.421142,"zip":"0700000"},{"town":"豊岡九条十丁目","koaza":"","lat":43.765375,"lng":142.423591,"zip":"0700000"},{"town":"豊岡九条十一丁目","koaza":"","lat":43.76479,"lng":142.426917,"zip":"0700000"},{"town":"豊岡九条一丁目","koaza":"","lat":43.76767,"lng":142.390818,"zip":"0700000"},{"town":"豊岡九条二丁目","koaza":"","lat":43.76743,"lng":142.394465,"zip":"0700000"},{"town":"豊岡九条三丁目","koaza":"","lat":43.767133,"lng":142.398459,"zip":"0700000"},{"town":"豊岡九条四丁目","koaza":"","lat":43.767026,"lng":142.402502,"zip":"0700000"},{"town":"豊岡九条五丁目","koaza":"","lat":43.766866,"lng":142.405842,"zip":"0700000"},{"town":"豊岡九条六丁目","koaza":"","lat":43.766334,"lng":142.411451,"zip":"0700000"},{"town":"豊岡九条七丁目","koaza":"","lat":43.766118,"lng":142.414534,"zip":"0700000"},{"town":"豊岡九条八丁目","koaza":"","lat":43.765902,"lng":142.418607,"zip":"0700000"},{"town":"豊岡九条九丁目","koaza":"","lat":43.765783,"lng":142.421249,"zip":"0700000"},{"town":"中常盤町一丁目","koaza":"","lat":43.775459,"lng":142.363626,"zip":"0700042"},{"town":"中常盤町二丁目","koaza":"","lat":43.776205,"lng":142.363172,"zip":"0700042"},{"town":"中常盤町三丁目","koaza":"","lat":43.777298,"lng":142.362489,"zip":"0700042"},{"town":"永山十条十丁目","koaza":"","lat":43.791142,"lng":142.425169,"zip":"0700000"},{"town":"永山十条十一丁目","koaza":"","lat":43.79262,"lng":142.427485,"zip":"0700000"},{"town":"永山十条十二丁目","koaza":"","lat":43.794089,"lng":142.429818,"zip":"0700000"},{"town":"永山十条十三丁目","koaza":"","lat":43.795296,"lng":142.431764,"zip":"0700000"},{"town":"永山十条十四丁目","koaza":"","lat":43.796578,"lng":142.433837,"zip":"0700000"},{"town":"永山十条十五丁目","koaza":"","lat":43.798128,"lng":142.436304,"zip":"0700000"},{"town":"永山十条一丁目","koaza":"","lat":43.77788,"lng":142.4045,"zip":"0700000"},{"town":"永山十条二丁目","koaza":"","lat":43.779561,"lng":142.407188,"zip":"0700000"},{"town":"永山十条三丁目","koaza":"","lat":43.7814,"lng":142.409652,"zip":"0700000"},{"town":"永山十条四丁目","koaza":"","lat":43.782736,"lng":142.411852,"zip":"0700000"},{"town":"永山十条五丁目","koaza":"","lat":43.784413,"lng":142.41418,"zip":"0700000"},{"town":"永山十条六丁目","koaza":"","lat":43.785546,"lng":142.416307,"zip":"0700000"},{"town":"永山十条七丁目","koaza":"","lat":43.78697,"lng":142.418256,"zip":"0700000"},{"town":"永山十条八丁目","koaza":"","lat":43.7883,"lng":142.420698,"zip":"0700000"},{"town":"永山十条九丁目","koaza":"","lat":43.789799,"lng":142.423062,"zip":"0700000"},{"town":"永山十一条一丁目","koaza":"","lat":43.776986,"lng":142.405579,"zip":"0700000"},{"town":"永山十一条二丁目","koaza":"","lat":43.778837,"lng":142.40851,"zip":"0700000"},{"town":"永山十一条三丁目","koaza":"","lat":43.780697,"lng":142.411546,"zip":"0700000"},{"town":"永山十一条四丁目","koaza":"","lat":43.781883,"lng":142.413589,"zip":"0700000"},{"town":"永山十二条一丁目","koaza":"","lat":43.775788,"lng":142.407021,"zip":"0700000"},{"town":"永山十二条二丁目","koaza":"","lat":43.776968,"lng":142.409092,"zip":"0700000"},{"town":"永山十二条三丁目","koaza":"","lat":43.779269,"lng":142.412579,"zip":"0700000"},{"town":"永山十二条四丁目","koaza":"","lat":43.780808,"lng":142.413943,"zip":"0700000"},{"town":"永山十三条二丁目","koaza":"","lat":43.776295,"lng":142.412002,"zip":"0700000"},{"town":"永山十三条三丁目","koaza":"","lat":43.777736,"lng":142.413203,"zip":"0700000"},{"town":"永山十四条三丁目","koaza":"","lat":43.776534,"lng":142.417071,"zip":"0700000"},{"town":"永山一条十丁目","koaza":"","lat":43.801083,"lng":142.413462,"zip":"0700000"},{"town":"永山一条十一丁目","koaza":"","lat":43.802296,"lng":142.416046,"zip":"0700000"},{"town":"永山一条十二丁目","koaza":"","lat":43.803452,"lng":142.4183,"zip":"0700000"},{"town":"永山一条十三丁目","koaza":"","lat":43.804762,"lng":142.420985,"zip":"0700000"},{"town":"永山一条十四丁目","koaza":"","lat":43.806059,"lng":142.422828,"zip":"0700000"},{"town":"永山一条十五丁目","koaza":"","lat":43.807323,"lng":142.42486,"zip":"0700000"},{"town":"永山一条十六丁目","koaza":"","lat":43.808782,"lng":142.427181,"zip":"0700000"},{"town":"永山一条十七丁目","koaza":"","lat":43.810092,"lng":142.429219,"zip":"0700000"},{"town":"永山一条十八丁目","koaza":"","lat":43.811236,"lng":142.431257,"zip":"0700000"},{"town":"永山一条十九丁目","koaza":"","lat":43.812952,"lng":142.433691,"zip":"0700000"},{"town":"永山一条一丁目","koaza":"","lat":43.787886,"lng":142.393613,"zip":"0700000"},{"town":"永山一条二十丁目","koaza":"","lat":43.814658,"lng":142.43641,"zip":"0700000"},{"town":"永山一条二十一丁目","koaza":"","lat":43.816259,"lng":142.43899,"zip":"0700000"},{"town":"永山一条二十二丁目","koaza":"","lat":43.817562,"lng":142.441096,"zip":"0700000"},{"town":"永山一条二十三丁目","koaza":"","lat":43.818815,"lng":142.443092,"zip":"0700000"},{"town":"永山一条二十四丁目","koaza":"","lat":43.820198,"lng":142.445291,"zip":"0700000"},{"town":"永山一条二丁目","koaza":"","lat":43.789458,"lng":142.396094,"zip":"0700000"},{"town":"永山一条三丁目","koaza":"","lat":43.790908,"lng":142.397921,"zip":"0700000"},{"town":"永山一条四丁目","koaza":"","lat":43.792412,"lng":142.400852,"zip":"0700000"},{"town":"永山一条五丁目","koaza":"","lat":43.793994,"lng":142.403118,"zip":"0700000"},{"town":"永山一条六丁目","koaza":"","lat":43.795356,"lng":142.404848,"zip":"0700000"},{"town":"永山一条七丁目","koaza":"","lat":43.796997,"lng":142.406942,"zip":"0700000"},{"town":"永山一条八丁目","koaza":"","lat":43.798419,"lng":142.409063,"zip":"0700000"},{"town":"永山一条九丁目","koaza":"","lat":43.799731,"lng":142.411163,"zip":"0700000"},{"town":"永山二条十丁目","koaza":"","lat":43.799935,"lng":142.415384,"zip":"0700000"},{"town":"永山二条十一丁目","koaza":"","lat":43.801198,"lng":142.417689,"zip":"0700000"},{"town":"永山二条十二丁目","koaza":"","lat":43.802524,"lng":142.419786,"zip":"0700000"},{"town":"永山二条十三丁目","koaza":"","lat":43.803709,"lng":142.421678,"zip":"0700000"},{"town":"永山二条十四丁目","koaza":"","lat":43.804813,"lng":142.423481,"zip":"0700000"},{"town":"永山二条十五丁目","koaza":"","lat":43.806374,"lng":142.426041,"zip":"0700000"},{"town":"永山二条十六丁目","koaza":"","lat":43.807976,"lng":142.42835,"zip":"0700000"},{"town":"永山二条十七丁目","koaza":"","lat":43.809356,"lng":142.430815,"zip":"0700000"},{"town":"永山二条十八丁目","koaza":"","lat":43.810609,"lng":142.432796,"zip":"0700000"},{"town":"永山二条十九丁目","koaza":"","lat":43.811976,"lng":142.434958,"zip":"0700000"},{"town":"永山二条一丁目","koaza":"","lat":43.786761,"lng":142.394375,"zip":"0700000"},{"town":"永山二条二十丁目","koaza":"","lat":43.813747,"lng":142.437508,"zip":"0700000"},{"town":"永山二条二十一丁目","koaza":"","lat":43.815246,"lng":142.440203,"zip":"0700000"},{"town":"永山二条二十二丁目","koaza":"","lat":43.816523,"lng":142.442261,"zip":"0700000"},{"town":"永山二条二十三丁目","koaza":"","lat":43.817769,"lng":142.444238,"zip":"0700000"},{"town":"永山二条二十四丁目","koaza":"","lat":43.819207,"lng":142.446516,"zip":"0700000"},{"town":"永山二条二丁目","koaza":"","lat":43.788479,"lng":142.397266,"zip":"0700000"},{"town":"永山二条三丁目","koaza":"","lat":43.789814,"lng":142.399394,"zip":"0700000"},{"town":"永山二条四丁目","koaza":"","lat":43.791266,"lng":142.401762,"zip":"0700000"},{"town":"永山二条五丁目","koaza":"","lat":43.792754,"lng":142.404214,"zip":"0700000"},{"town":"永山二条六丁目","koaza":"","lat":43.794055,"lng":142.406294,"zip":"0700000"},{"town":"永山二条七丁目","koaza":"","lat":43.795577,"lng":142.408129,"zip":"0700000"},{"town":"永山二条八丁目","koaza":"","lat":43.797056,"lng":142.410666,"zip":"0700000"},{"town":"永山二条九丁目","koaza":"","lat":43.798424,"lng":142.412956,"zip":"0700000"},{"town":"永山三条十丁目","koaza":"","lat":43.798581,"lng":142.416302,"zip":"0700000"},{"town":"永山三条十一丁目","koaza":"","lat":43.799981,"lng":142.41853,"zip":"0700000"},{"town":"永山三条十二丁目","koaza":"","lat":43.801491,"lng":142.421245,"zip":"0700000"},{"town":"永山三条十三丁目","koaza":"","lat":43.802841,"lng":142.423089,"zip":"0700000"},{"town":"永山三条十四丁目","koaza":"","lat":43.804005,"lng":142.425242,"zip":"0700000"},{"town":"永山三条十五丁目","koaza":"","lat":43.805211,"lng":142.427585,"zip":"0700000"},{"town":"永山三条十六丁目","koaza":"","lat":43.806866,"lng":142.42955,"zip":"0700000"},{"town":"永山三条十七丁目","koaza":"","lat":43.808343,"lng":142.431904,"zip":"0700000"},{"town":"永山三条十八丁目","koaza":"","lat":43.809623,"lng":142.433955,"zip":"0700000"},{"town":"永山三条十九丁目","koaza":"","lat":43.810731,"lng":142.436432,"zip":"0700000"},{"town":"永山三条一丁目","koaza":"","lat":43.786059,"lng":142.396743,"zip":"0700000"},{"town":"永山三条二十丁目","koaza":"","lat":43.812405,"lng":142.439085,"zip":"0700000"},{"town":"永山三条二十一丁目","koaza":"","lat":43.813838,"lng":142.441699,"zip":"0700000"},{"town":"永山三条二十二丁目","koaza":"","lat":43.815279,"lng":142.443566,"zip":"0700000"},{"town":"永山三条二十三丁目","koaza":"","lat":43.816862,"lng":142.445556,"zip":"0700000"},{"town":"永山三条二十四丁目","koaza":"","lat":43.818295,"lng":142.447801,"zip":"0700000"},{"town":"永山三条二丁目","koaza":"","lat":43.787472,"lng":142.398483,"zip":"0700000"},{"town":"永山三条三丁目","koaza":"","lat":43.788822,"lng":142.400555,"zip":"0700000"},{"town":"永山三条四丁目","koaza":"","lat":43.790262,"lng":142.402934,"zip":"0700000"},{"town":"永山三条五丁目","koaza":"","lat":43.79191,"lng":142.405433,"zip":"0700000"},{"town":"永山三条六丁目","koaza":"","lat":43.793045,"lng":142.407412,"zip":"0700000"},{"town":"永山三条七丁目","koaza":"","lat":43.794378,"lng":142.409551,"zip":"0700000"},{"town":"永山三条八丁目","koaza":"","lat":43.795838,"lng":142.411855,"zip":"0700000"},{"town":"永山三条九丁目","koaza":"","lat":43.797274,"lng":142.414145,"zip":"0700000"},{"town":"永山四条十丁目","koaza":"","lat":43.797578,"lng":142.417426,"zip":"0700000"},{"town":"永山四条十一丁目","koaza":"","lat":43.799084,"lng":142.419851,"zip":"0700000"},{"town":"永山四条十二丁目","koaza":"","lat":43.800541,"lng":142.422151,"zip":"0700000"},{"town":"永山四条十三丁目","koaza":"","lat":43.801838,"lng":142.424171,"zip":"0700000"},{"town":"永山四条十四丁目","koaza":"","lat":43.803184,"lng":142.426351,"zip":"0700000"},{"town":"永山四条十五丁目","koaza":"","lat":43.804456,"lng":142.428417,"zip":"0700000"},{"town":"永山四条十六丁目","koaza":"","lat":43.805897,"lng":142.430695,"zip":"0700000"},{"town":"永山四条十七丁目","koaza":"","lat":43.807403,"lng":142.433107,"zip":"0700000"},{"town":"永山四条十八丁目","koaza":"","lat":43.808652,"lng":142.435158,"zip":"0700000"},{"town":"永山四条十九丁目","koaza":"","lat":43.80971,"lng":142.437403,"zip":"0700000"},{"town":"永山四条一丁目","koaza":"","lat":43.785202,"lng":142.397903,"zip":"0700000"},{"town":"永山四条二十丁目","koaza":"","lat":43.811209,"lng":142.440406,"zip":"0700000"},{"town":"永山四条二十一丁目","koaza":"","lat":43.812806,"lng":142.443006,"zip":"0700000"},{"town":"永山四条二十二丁目","koaza":"","lat":43.814103,"lng":142.445107,"zip":"0700000"},{"town":"永山四条二十三丁目","koaza":"","lat":43.815881,"lng":142.446639,"zip":"0700000"},{"town":"永山四条二十四丁目","koaza":"","lat":43.817355,"lng":142.448951,"zip":"0700000"},{"town":"永山四条二丁目","koaza":"","lat":43.786492,"lng":142.399721,"zip":"0700000"},{"town":"永山四条三丁目","koaza":"","lat":43.787838,"lng":142.401835,"zip":"0700000"},{"town":"永山四条四丁目","koaza":"","lat":43.789349,"lng":142.403976,"zip":"0700000"},{"town":"永山四条五丁目","koaza":"","lat":43.790712,"lng":142.406497,"zip":"0700000"},{"town":"永山四条六丁目","koaza":"","lat":43.792017,"lng":142.40858,"zip":"0700000"},{"town":"永山四条七丁目","koaza":"","lat":43.793506,"lng":142.410675,"zip":"0700000"},{"town":"永山四条八丁目","koaza":"","lat":43.794807,"lng":142.41302,"zip":"0700000"},{"town":"永山四条九丁目","koaza":"","lat":43.796269,"lng":142.415324,"zip":"0700000"},{"town":"永山五条十丁目","koaza":"","lat":43.796704,"lng":142.418482,"zip":"0700000"},{"town":"永山五条十一丁目","koaza":"","lat":43.798166,"lng":142.420819,"zip":"0700000"},{"town":"永山五条十二丁目","koaza":"","lat":43.799643,"lng":142.423182,"zip":"0700000"},{"town":"永山五条十三丁目","koaza":"","lat":43.800988,"lng":142.425211,"zip":"0700000"},{"town":"永山五条十四丁目","koaza":"","lat":43.802244,"lng":142.42732,"zip":"0700000"},{"town":"永山五条十五丁目","koaza":"","lat":43.80357,"lng":142.429477,"zip":"0700000"},{"town":"永山五条十六丁目","koaza":"","lat":43.805044,"lng":142.43182,"zip":"0700000"},{"town":"永山五条十七丁目","koaza":"","lat":43.806391,"lng":142.434121,"zip":"0700000"},{"town":"永山五条十八丁目","koaza":"","lat":43.807717,"lng":142.436377,"zip":"0700000"},{"town":"永山五条十九丁目","koaza":"","lat":43.80891,"lng":142.438714,"zip":"0700000"},{"town":"永山五条一丁目","koaza":"","lat":43.784569,"lng":142.399094,"zip":"0700000"},{"town":"永山五条二十丁目","koaza":"","lat":43.810579,"lng":142.441984,"zip":"0700000"},{"town":"永山五条二十一丁目","koaza":"","lat":43.811931,"lng":142.444008,"zip":"0700000"},{"town":"永山五条二十二丁目","koaza":"","lat":43.813251,"lng":142.44618,"zip":"0700000"},{"town":"永山五条二十三丁目","koaza":"","lat":43.814887,"lng":142.447831,"zip":"0700000"},{"town":"永山五条二十四丁目","koaza":"","lat":43.816373,"lng":142.450206,"zip":"0700000"},{"town":"永山五条二丁目","koaza":"","lat":43.785618,"lng":142.400765,"zip":"0700000"},{"town":"永山五条三丁目","koaza":"","lat":43.787,"lng":142.402725,"zip":"0700000"},{"town":"永山五条四丁目","koaza":"","lat":43.788375,"lng":142.405465,"zip":"0700000"},{"town":"永山五条五丁目","koaza":"","lat":43.789833,"lng":142.407537,"zip":"0700000"},{"town":"永山五条六丁目","koaza":"","lat":43.791128,"lng":142.409621,"zip":"0700000"},{"town":"永山五条七丁目","koaza":"","lat":43.792463,"lng":142.411757,"zip":"0700000"},{"town":"永山五条八丁目","koaza":"","lat":43.793924,"lng":142.414084,"zip":"0700000"},{"town":"永山五条九丁目","koaza":"","lat":43.795381,"lng":142.416395,"zip":"0700000"},{"town":"永山六条十丁目","koaza":"","lat":43.795653,"lng":142.419753,"zip":"0700000"},{"town":"永山六条十一丁目","koaza":"","lat":43.797133,"lng":142.422147,"zip":"0700000"},{"town":"永山六条十二丁目","koaza":"","lat":43.798582,"lng":142.424455,"zip":"0700000"},{"town":"永山六条十三丁目","koaza":"","lat":43.800334,"lng":142.426368,"zip":"0700000"},{"town":"永山六条十四丁目","koaza":"","lat":43.801208,"lng":142.428608,"zip":"0700000"},{"town":"永山六条十五丁目","koaza":"","lat":43.802476,"lng":142.430699,"zip":"0700000"},{"town":"永山六条十六丁目","koaza":"","lat":43.80395,"lng":142.433121,"zip":"0700000"},{"town":"永山六条十七丁目","koaza":"","lat":43.805317,"lng":142.435463,"zip":"0700000"},{"town":"永山六条十八丁目","koaza":"","lat":43.806654,"lng":142.437559,"zip":"0700000"},{"town":"永山六条十九丁目","koaza":"","lat":43.808067,"lng":142.440288,"zip":"0700000"},{"town":"永山六条一丁目","koaza":"","lat":43.78335,"lng":142.40106,"zip":"0700000"},{"town":"永山六条二十丁目","koaza":"","lat":43.809617,"lng":142.442768,"zip":"0700000"},{"town":"永山六条二十一丁目","koaza":"","lat":43.811033,"lng":142.445057,"zip":"0700000"},{"town":"永山六条二十二丁目","koaza":"","lat":43.812355,"lng":142.447185,"zip":"0700000"},{"town":"永山六条二十三丁目","koaza":"","lat":43.813794,"lng":142.449184,"zip":"0700000"},{"town":"永山六条二十四丁目","koaza":"","lat":43.815253,"lng":142.451535,"zip":"0700000"},{"town":"永山六条二丁目","koaza":"","lat":43.784726,"lng":142.402117,"zip":"0700000"},{"town":"永山六条三丁目","koaza":"","lat":43.785648,"lng":142.403962,"zip":"0700000"},{"town":"永山六条四丁目","koaza":"","lat":43.787233,"lng":142.406394,"zip":"0700000"},{"town":"永山六条五丁目","koaza":"","lat":43.788729,"lng":142.408496,"zip":"0700000"},{"town":"永山六条六丁目","koaza":"","lat":43.790057,"lng":142.410881,"zip":"0700000"},{"town":"永山六条七丁目","koaza":"","lat":43.79141,"lng":142.412985,"zip":"0700000"},{"town":"永山六条八丁目","koaza":"","lat":43.792683,"lng":142.415451,"zip":"0700000"},{"town":"永山六条九丁目","koaza":"","lat":43.794312,"lng":142.417688,"zip":"0700000"},{"town":"永山七条十丁目","koaza":"","lat":43.794421,"lng":142.421298,"zip":"0700000"},{"town":"永山七条十一丁目","koaza":"","lat":43.795858,"lng":142.423588,"zip":"0700000"},{"town":"永山七条十二丁目","koaza":"","lat":43.797354,"lng":142.426005,"zip":"0700000"},{"town":"永山七条十三丁目","koaza":"","lat":43.798596,"lng":142.428017,"zip":"0700000"},{"town":"永山七条十四丁目","koaza":"","lat":43.799952,"lng":142.430169,"zip":"0700000"},{"town":"永山七条十五丁目","koaza":"","lat":43.801255,"lng":142.43224,"zip":"0700000"},{"town":"永山七条十六丁目","koaza":"","lat":43.802629,"lng":142.434476,"zip":"0700000"},{"town":"永山七条十七丁目","koaza":"","lat":43.804145,"lng":142.436901,"zip":"0700000"},{"town":"永山七条十八丁目","koaza":"","lat":43.805432,"lng":142.438909,"zip":"0700000"},{"town":"永山七条十九丁目","koaza":"","lat":43.806735,"lng":142.441173,"zip":"0700000"},{"town":"永山七条一丁目","koaza":"","lat":43.781754,"lng":142.401011,"zip":"0700000"},{"town":"永山七条二十丁目","koaza":"","lat":43.808549,"lng":142.443225,"zip":"0700000"},{"town":"永山七条二十一丁目","koaza":"","lat":43.81001,"lng":142.44627,"zip":"0700000"},{"town":"永山七条二丁目","koaza":"","lat":43.783477,"lng":142.403586,"zip":"0700000"},{"town":"永山七条三丁目","koaza":"","lat":43.784542,"lng":142.405661,"zip":"0700000"},{"town":"永山七条四丁目","koaza":"","lat":43.786053,"lng":142.408079,"zip":"0700000"},{"town":"永山七条五丁目","koaza":"","lat":43.787492,"lng":142.410348,"zip":"0700000"},{"town":"永山七条六丁目","koaza":"","lat":43.788792,"lng":142.412389,"zip":"0700000"},{"town":"永山七条七丁目","koaza":"","lat":43.790251,"lng":142.41437,"zip":"0700000"},{"town":"永山七条八丁目","koaza":"","lat":43.791638,"lng":142.416914,"zip":"0700000"},{"town":"永山七条九丁目","koaza":"","lat":43.79306,"lng":142.419146,"zip":"0700000"},{"town":"永山八条十丁目","koaza":"","lat":43.793287,"lng":142.422622,"zip":"0700000"},{"town":"永山八条十一丁目","koaza":"","lat":43.794739,"lng":142.424943,"zip":"0700000"},{"town":"永山八条十二丁目","koaza":"","lat":43.7962,"lng":142.42731,"zip":"0700000"},{"town":"永山八条十三丁目","koaza":"","lat":43.797545,"lng":142.429452,"zip":"0700000"},{"town":"永山八条十四丁目","koaza":"","lat":43.798784,"lng":142.431519,"zip":"0700000"},{"town":"永山八条十五丁目","koaza":"","lat":43.800108,"lng":142.433631,"zip":"0700000"},{"town":"永山八条十六丁目","koaza":"","lat":43.801505,"lng":142.435936,"zip":"0700000"},{"town":"永山八条十七丁目","koaza":"","lat":43.803064,"lng":142.438278,"zip":"0700000"},{"town":"永山八条十八丁目","koaza":"","lat":43.804315,"lng":142.440347,"zip":"0700000"},{"town":"永山八条十九丁目","koaza":"","lat":43.8058,"lng":142.44314,"zip":"0700000"},{"town":"永山八条一丁目","koaza":"","lat":43.780958,"lng":142.40211,"zip":"0700000"},{"town":"永山八条二十丁目","koaza":"","lat":43.807608,"lng":142.445296,"zip":"0700000"},{"town":"永山八条二十一丁目","koaza":"","lat":43.808945,"lng":142.447605,"zip":"0700000"},{"town":"永山八条二丁目","koaza":"","lat":43.7825,"lng":142.405268,"zip":"0700000"},{"town":"永山八条三丁目","koaza":"","lat":43.783419,"lng":142.406879,"zip":"0700000"},{"town":"永山八条四丁目","koaza":"","lat":43.785014,"lng":142.409145,"zip":"0700000"},{"town":"永山八条五丁目","koaza":"","lat":43.786426,"lng":142.411629,"zip":"0700000"},{"town":"永山八条六丁目","koaza":"","lat":43.78773,"lng":142.413668,"zip":"0700000"},{"town":"永山八条七丁目","koaza":"","lat":43.789057,"lng":142.415765,"zip":"0700000"},{"town":"永山八条八丁目","koaza":"","lat":43.790541,"lng":142.418257,"zip":"0700000"},{"town":"永山八条九丁目","koaza":"","lat":43.791962,"lng":142.420543,"zip":"0700000"},{"town":"永山九条十丁目","koaza":"","lat":43.792316,"lng":142.423759,"zip":"0700000"},{"town":"永山九条十一丁目","koaza":"","lat":43.793697,"lng":142.426209,"zip":"0700000"},{"town":"永山九条十二丁目","koaza":"","lat":43.795147,"lng":142.428553,"zip":"0700000"},{"town":"永山九条十三丁目","koaza":"","lat":43.796358,"lng":142.43052,"zip":"0700000"},{"town":"永山九条十四丁目","koaza":"","lat":43.797607,"lng":142.432285,"zip":"0700000"},{"town":"永山九条十五丁目","koaza":"","lat":43.799233,"lng":142.43515,"zip":"0700000"},{"town":"永山九条十六丁目","koaza":"","lat":43.800107,"lng":142.437994,"zip":"0700000"},{"town":"永山九条一丁目","koaza":"","lat":43.779152,"lng":142.40296,"zip":"0700000"},{"town":"永山九条二丁目","koaza":"","lat":43.780618,"lng":142.405333,"zip":"0700000"},{"town":"永山九条三丁目","koaza":"","lat":43.782425,"lng":142.40826,"zip":"0700000"},{"town":"永山九条四丁目","koaza":"","lat":43.783921,"lng":142.410536,"zip":"0700000"},{"town":"永山九条五丁目","koaza":"","lat":43.785411,"lng":142.412909,"zip":"0700000"},{"town":"永山九条六丁目","koaza":"","lat":43.786691,"lng":142.41493,"zip":"0700000"},{"town":"永山九条七丁目","koaza":"","lat":43.788013,"lng":142.417072,"zip":"0700000"},{"town":"永山九条八丁目","koaza":"","lat":43.789431,"lng":142.419322,"zip":"0700000"},{"town":"永山九条九丁目","koaza":"","lat":43.791045,"lng":142.421406,"zip":"0700000"},{"town":"永山北一条十丁目","koaza":"","lat":43.815403,"lng":142.433609,"zip":"0700000"},{"town":"永山北一条十一丁目","koaza":"","lat":43.818476,"lng":142.438415,"zip":"0700000"},{"town":"永山北一条十二丁目","koaza":"","lat":43.821079,"lng":142.442707,"zip":"0700000"},{"town":"永山北一条十三丁目","koaza":"","lat":43.823233,"lng":142.446097,"zip":"0700000"},{"town":"永山北一条六丁目","koaza":"","lat":43.804221,"lng":142.415927,"zip":"0700000"},{"town":"永山北一条七丁目","koaza":"","lat":43.806792,"lng":142.420051,"zip":"0700000"},{"town":"永山北一条八丁目","koaza":"","lat":43.809531,"lng":142.424334,"zip":"0700000"},{"town":"永山北一条九丁目","koaza":"","lat":43.812387,"lng":142.428542,"zip":"0700000"},{"town":"永山北二条十丁目","koaza":"","lat":43.816775,"lng":142.431748,"zip":"0700000"},{"town":"永山北二条十一丁目","koaza":"","lat":43.820528,"lng":142.435877,"zip":"0700000"},{"town":"永山北二条十二丁目","koaza":"","lat":43.824511,"lng":142.437656,"zip":"0700000"},{"town":"永山北二条十三丁目","koaza":"","lat":43.825012,"lng":142.443572,"zip":"0700000"},{"town":"永山北二条六丁目","koaza":"","lat":43.806108,"lng":142.413852,"zip":"0700000"},{"town":"永山北二条七丁目","koaza":"","lat":43.809365,"lng":142.418106,"zip":"0700000"},{"town":"永山北二条八丁目","koaza":"","lat":43.812022,"lng":142.422876,"zip":"0700000"},{"town":"永山北二条九丁目","koaza":"","lat":43.814889,"lng":142.425662,"zip":"0700000"},{"town":"永山北三条十丁目","koaza":"","lat":43.819189,"lng":142.430533,"zip":"0700000"},{"town":"永山北三条十一丁目","koaza":"","lat":43.822542,"lng":142.432611,"zip":"0700000"},{"town":"永山北三条六丁目","koaza":"","lat":43.807611,"lng":142.41203,"zip":"0700000"},{"town":"永山北三条七丁目","koaza":"","lat":43.812077,"lng":142.413784,"zip":"0700000"},{"town":"永山北三条八丁目","koaza":"","lat":43.813487,"lng":142.418622,"zip":"0700000"},{"town":"永山北四条六丁目","koaza":"","lat":43.809799,"lng":142.409816,"zip":"0700000"},{"town":"永山町十丁目","koaza":"","lat":43.798752,"lng":142.453173,"zip":"0798431"},{"town":"永山町十一丁目","koaza":"","lat":43.802664,"lng":142.456682,"zip":"0798431"},{"town":"永山町十二丁目","koaza":"","lat":43.805305,"lng":142.461306,"zip":"0798431"},{"town":"永山町十三丁目","koaza":"","lat":43.815511,"lng":142.45694,"zip":"0798431"},{"town":"永山町十四丁目","koaza":"","lat":43.818402,"lng":142.461086,"zip":"0798431"},{"town":"永山町十五丁目","koaza":"","lat":43.820687,"lng":142.466094,"zip":"0798431"},{"town":"永山町十六丁目","koaza":"","lat":43.81871,"lng":142.476874,"zip":"0798431"},{"town":"永山町二丁目","koaza":"","lat":43.779428,"lng":142.416511,"zip":"0798431"},{"town":"永山町三丁目","koaza":"","lat":43.781172,"lng":142.419817,"zip":"0798431"},{"town":"永山町四丁目","koaza":"","lat":43.783741,"lng":142.424379,"zip":"0798431"},{"town":"永山町五丁目","koaza":"","lat":43.787025,"lng":142.428198,"zip":"0798431"},{"town":"永山町六丁目","koaza":"","lat":43.789675,"lng":142.432818,"zip":"0798431"},{"town":"永山町七丁目","koaza":"","lat":43.79181,"lng":142.43793,"zip":"0798431"},{"town":"永山町八丁目","koaza":"","lat":43.790837,"lng":142.446458,"zip":"0798431"},{"town":"永山町九丁目","koaza":"","lat":43.796249,"lng":142.448005,"zip":"0798431"},{"town":"西神楽一線","koaza":"","lat":43.673953,"lng":142.390557,"zip":"0700000"},{"town":"西神楽二線","koaza":"","lat":43.650039,"lng":142.446543,"zip":"0700000"},{"town":"西神楽三線","koaza":"","lat":43.673113,"lng":142.415363,"zip":"0700000"},{"town":"西神楽四線","koaza":"","lat":43.674728,"lng":142.42673,"zip":"0700000"},{"town":"西神楽五線","koaza":"","lat":43.657526,"lng":142.461981,"zip":"0700000"},{"town":"西神楽北一条一丁目","koaza":"","lat":43.686452,"lng":142.392394,"zip":"0700000"},{"town":"西神楽北一条二丁目","koaza":"","lat":43.685207,"lng":142.390724,"zip":"0700000"},{"town":"西神楽北一条三丁目","koaza":"","lat":43.684901,"lng":142.388927,"zip":"0700000"},{"town":"西神楽北一条四丁目","koaza":"","lat":43.684112,"lng":142.387186,"zip":"0700000"},{"town":"西神楽北二条一丁目","koaza":"","lat":43.688212,"lng":142.391799,"zip":"0700000"},{"town":"西神楽北二条二丁目","koaza":"","lat":43.687514,"lng":142.389433,"zip":"0700000"},{"town":"西神楽北二条三丁目","koaza":"","lat":43.687056,"lng":142.387662,"zip":"0700000"},{"town":"西神楽南","koaza":"","lat":43.649564,"lng":142.372374,"zip":"0710171"},{"town":"西神楽南一条一丁目","koaza":"","lat":43.683514,"lng":142.39461,"zip":"0700000"},{"town":"西神楽南一条二丁目","koaza":"","lat":43.682864,"lng":142.392041,"zip":"0700000"},{"town":"西神楽南一条三丁目","koaza":"","lat":43.682364,"lng":142.390297,"zip":"0700000"},{"town":"西神楽南一条四丁目","koaza":"","lat":43.682489,"lng":142.388097,"zip":"0700000"},{"town":"西神楽南二条一丁目","koaza":"","lat":43.681256,"lng":142.397448,"zip":"0700000"},{"town":"西神楽南二条二丁目","koaza":"","lat":43.680572,"lng":142.393553,"zip":"0700000"},{"town":"西神楽南二条三丁目","koaza":"","lat":43.67998,"lng":142.391855,"zip":"0700000"},{"town":"西神楽南二条四丁目","koaza":"","lat":43.680176,"lng":142.389388,"zip":"0700000"},{"town":"錦町十一丁目","koaza":"","lat":43.785622,"lng":142.341743,"zip":"0700824"},{"town":"錦町十二丁目","koaza":"","lat":43.786422,"lng":142.340897,"zip":"0700824"},{"town":"錦町十三丁目","koaza":"","lat":43.787177,"lng":142.339292,"zip":"0700824"},{"town":"錦町十四丁目","koaza":"","lat":43.788062,"lng":142.338079,"zip":"0700824"},{"town":"錦町十五丁目","koaza":"","lat":43.788777,"lng":142.336806,"zip":"0700824"},{"town":"錦町十六丁目","koaza":"","lat":43.789829,"lng":142.335529,"zip":"0700824"},{"town":"錦町十七丁目","koaza":"","lat":43.790743,"lng":142.334515,"zip":"0700824"},{"town":"錦町十八丁目","koaza":"","lat":43.791562,"lng":142.333202,"zip":"0700824"},{"town":"錦町十九丁目","koaza":"","lat":43.792443,"lng":142.332027,"zip":"0700824"},{"town":"錦町二十丁目","koaza":"","lat":43.793409,"lng":142.330824,"zip":"0700824"},{"town":"錦町二十一丁目","koaza":"","lat":43.794074,"lng":142.329418,"zip":"0700824"},{"town":"錦町二十二丁目","koaza":"","lat":43.795094,"lng":142.328314,"zip":"0700824"},{"town":"錦町二十三丁目","koaza":"","lat":43.795867,"lng":142.326886,"zip":"0700824"},{"town":"錦町二十四丁目","koaza":"","lat":43.796204,"lng":142.324744,"zip":"0700824"},{"town":"西御料一条一丁目","koaza":"","lat":43.726846,"lng":142.375777,"zip":"0700000"},{"town":"西御料一条二丁目","koaza":"","lat":43.724056,"lng":142.376427,"zip":"0700000"},{"town":"西御料二条一丁目","koaza":"","lat":43.727009,"lng":142.373291,"zip":"0700000"},{"town":"西御料二条二丁目","koaza":"","lat":43.724318,"lng":142.374021,"zip":"0700000"},{"town":"西御料二条三丁目","koaza":"","lat":43.721985,"lng":142.375499,"zip":"0700000"},{"town":"西御料三条一丁目","koaza":"","lat":43.726324,"lng":142.370526,"zip":"0700000"},{"town":"西御料三条二丁目","koaza":"","lat":43.723562,"lng":142.372105,"zip":"0700000"},{"town":"西御料三条三丁目","koaza":"","lat":43.721112,"lng":142.37347,"zip":"0700000"},{"town":"西御料四条一丁目","koaza":"","lat":43.725872,"lng":142.369104,"zip":"0700000"},{"town":"西御料四条二丁目","koaza":"","lat":43.723148,"lng":142.370677,"zip":"0700000"},{"town":"西御料四条三丁目","koaza":"","lat":43.720754,"lng":142.372046,"zip":"0700000"},{"town":"西御料五条一丁目","koaza":"","lat":43.725411,"lng":142.367356,"zip":"0700000"},{"town":"西御料五条二丁目","koaza":"","lat":43.723125,"lng":142.369041,"zip":"0700000"},{"town":"花咲町一丁目","koaza":"","lat":43.785713,"lng":142.367989,"zip":"0700901"},{"town":"花咲町二丁目","koaza":"","lat":43.787525,"lng":142.37104,"zip":"0700901"},{"town":"花咲町三丁目","koaza":"","lat":43.789264,"lng":142.371526,"zip":"0700901"},{"town":"花咲町四丁目","koaza":"","lat":43.790275,"lng":142.373103,"zip":"0700901"},{"town":"花咲町五丁目","koaza":"","lat":43.792534,"lng":142.375745,"zip":"0700901"},{"town":"花咲町六丁目","koaza":"","lat":43.795737,"lng":142.380171,"zip":"0700901"},{"town":"花咲町七丁目","koaza":"","lat":43.797793,"lng":142.383875,"zip":"0700901"},{"town":"パルプ町","koaza":"","lat":43.778747,"lng":142.394196,"zip":"0700013"},{"town":"パルプ町一条一丁目","koaza":"","lat":43.772984,"lng":142.385015,"zip":"0700000"},{"town":"パルプ町一条二丁目","koaza":"","lat":43.774547,"lng":142.385748,"zip":"0700000"},{"town":"パルプ町一条三丁目","koaza":"","lat":43.775845,"lng":142.386075,"zip":"0700000"},{"town":"パルプ町一条四丁目","koaza":"","lat":43.777373,"lng":142.386916,"zip":"0700000"},{"town":"パルプ町一条五丁目","koaza":"","lat":43.779385,"lng":142.388592,"zip":"0700000"},{"town":"パルプ町一条六丁目","koaza":"","lat":43.780955,"lng":142.388848,"zip":"0700000"},{"town":"パルプ町一条七丁目","koaza":"","lat":43.781866,"lng":142.389911,"zip":"0700000"},{"town":"パルプ町一条八丁目","koaza":"","lat":43.782573,"lng":142.390669,"zip":"0700000"},{"town":"パルプ町二条二丁目","koaza":"","lat":43.774073,"lng":142.386631,"zip":"0700000"},{"town":"パルプ町二条三丁目","koaza":"","lat":43.77548,"lng":142.387543,"zip":"0700000"},{"town":"パルプ町二条四丁目","koaza":"","lat":43.776882,"lng":142.388333,"zip":"0700000"},{"town":"パルプ町二条五丁目","koaza":"","lat":43.77891,"lng":142.389466,"zip":"0700000"},{"town":"パルプ町二条六丁目","koaza":"","lat":43.780534,"lng":142.390371,"zip":"0700000"},{"town":"パルプ町二条七丁目","koaza":"","lat":43.78161,"lng":142.39101,"zip":"0700000"},{"town":"パルプ町二条八丁目","koaza":"","lat":43.782923,"lng":142.391742,"zip":"0700000"},{"town":"パルプ町二条九丁目","koaza":"","lat":43.784489,"lng":142.392804,"zip":"0700000"},{"town":"パルプ町三条七丁目","koaza":"","lat":43.781251,"lng":142.392123,"zip":"0700000"},{"town":"パルプ町三条八丁目","koaza":"","lat":43.782637,"lng":142.392906,"zip":"0700000"},{"town":"パルプ町三条九丁目","koaza":"","lat":43.784267,"lng":142.393846,"zip":"0700000"},{"town":"東一条一丁目","koaza":"","lat":43.77677,"lng":142.369222,"zip":"0700000"},{"town":"東一条二丁目","koaza":"","lat":43.778209,"lng":142.370019,"zip":"0700000"},{"town":"東一条三丁目","koaza":"","lat":43.779919,"lng":142.370975,"zip":"0700000"},{"town":"東一条四丁目","koaza":"","lat":43.781025,"lng":142.371854,"zip":"0700000"},{"town":"東二条一丁目","koaza":"","lat":43.776414,"lng":142.370494,"zip":"0700000"},{"town":"東二条二丁目","koaza":"","lat":43.777826,"lng":142.371307,"zip":"0700000"},{"town":"東二条三丁目","koaza":"","lat":43.779268,"lng":142.372059,"zip":"0700000"},{"town":"東二条四丁目","koaza":"","lat":43.780796,"lng":142.373187,"zip":"0700000"},{"town":"東三条十丁目","koaza":"","lat":43.787685,"lng":142.37669,"zip":"0700000"},{"town":"東三条十一丁目","koaza":"","lat":43.789516,"lng":142.379421,"zip":"0700000"},{"town":"東三条一丁目","koaza":"","lat":43.775633,"lng":142.371675,"zip":"0700000"},{"town":"東三条二丁目","koaza":"","lat":43.777117,"lng":142.372583,"zip":"0700000"},{"town":"東三条三丁目","koaza":"","lat":43.778795,"lng":142.373528,"zip":"0700000"},{"town":"東三条四丁目","koaza":"","lat":43.779991,"lng":142.374231,"zip":"0700000"},{"town":"東三条五丁目","koaza":"","lat":43.782336,"lng":142.372094,"zip":"0700000"},{"town":"東三条六丁目","koaza":"","lat":43.783755,"lng":142.374221,"zip":"0700000"},{"town":"東三条七丁目","koaza":"","lat":43.784733,"lng":142.374388,"zip":"0700000"},{"town":"東三条八丁目","koaza":"","lat":43.785693,"lng":142.374693,"zip":"0700000"},{"town":"東三条九丁目","koaza":"","lat":43.786521,"lng":142.375915,"zip":"0700000"},{"town":"東四条十丁目","koaza":"","lat":43.786603,"lng":142.379689,"zip":"0700000"},{"town":"東四条十一丁目","koaza":"","lat":43.788065,"lng":142.380863,"zip":"0700000"},{"town":"東四条一丁目","koaza":"","lat":43.775182,"lng":142.372883,"zip":"0700000"},{"town":"東四条二丁目","koaza":"","lat":43.776687,"lng":142.374092,"zip":"0700000"},{"town":"東四条三丁目","koaza":"","lat":43.778319,"lng":142.374997,"zip":"0700000"},{"town":"東四条四丁目","koaza":"","lat":43.779567,"lng":142.37571,"zip":"0700000"},{"town":"東四条五丁目","koaza":"","lat":43.780641,"lng":142.376344,"zip":"0700000"},{"town":"東四条六丁目","koaza":"","lat":43.782199,"lng":142.376803,"zip":"0700000"},{"town":"東四条七丁目","koaza":"","lat":43.7836,"lng":142.37802,"zip":"0700000"},{"town":"東四条八丁目","koaza":"","lat":43.784552,"lng":142.378547,"zip":"0700000"},{"town":"東四条九丁目","koaza":"","lat":43.785514,"lng":142.379056,"zip":"0700000"},{"town":"東五条十丁目","koaza":"","lat":43.786173,"lng":142.381121,"zip":"0700000"},{"town":"東五条十一丁目","koaza":"","lat":43.787383,"lng":142.38197,"zip":"0700000"},{"town":"東五条一丁目","koaza":"","lat":43.774528,"lng":142.374237,"zip":"0700000"},{"town":"東五条二丁目","koaza":"","lat":43.776259,"lng":142.375582,"zip":"0700000"},{"town":"東五条三丁目","koaza":"","lat":43.777907,"lng":142.376499,"zip":"0700000"},{"town":"東五条四丁目","koaza":"","lat":43.779131,"lng":142.377181,"zip":"0700000"},{"town":"東五条五丁目","koaza":"","lat":43.780156,"lng":142.37819,"zip":"0700000"},{"town":"東五条六丁目","koaza":"","lat":43.781793,"lng":142.378757,"zip":"0700000"},{"town":"東五条七丁目","koaza":"","lat":43.783154,"lng":142.379511,"zip":"0700000"},{"town":"東五条八丁目","koaza":"","lat":43.784115,"lng":142.380024,"zip":"0700000"},{"town":"東五条九丁目","koaza":"","lat":43.785078,"lng":142.380536,"zip":"0700000"},{"town":"東六条十丁目","koaza":"","lat":43.785976,"lng":142.382397,"zip":"0700000"},{"town":"東六条一丁目","koaza":"","lat":43.773729,"lng":142.375963,"zip":"0700000"},{"town":"東六条二丁目","koaza":"","lat":43.775716,"lng":142.376945,"zip":"0700000"},{"town":"東六条三丁目","koaza":"","lat":43.777447,"lng":142.378056,"zip":"0700000"},{"town":"東六条四丁目","koaza":"","lat":43.778655,"lng":142.378731,"zip":"0700000"},{"town":"東六条五丁目","koaza":"","lat":43.77974,"lng":142.37979,"zip":"0700000"},{"town":"東六条六丁目","koaza":"","lat":43.781185,"lng":142.38019,"zip":"0700000"},{"town":"東六条七丁目","koaza":"","lat":43.78281,"lng":142.381091,"zip":"0700000"},{"town":"東六条八丁目","koaza":"","lat":43.783771,"lng":142.381201,"zip":"0700000"},{"town":"東六条九丁目","koaza":"","lat":43.784733,"lng":142.381721,"zip":"0700000"},{"town":"東七条十丁目","koaza":"","lat":43.785592,"lng":142.383537,"zip":"0700000"},{"town":"東七条一丁目","koaza":"","lat":43.773141,"lng":142.377393,"zip":"0700000"},{"town":"東七条二丁目","koaza":"","lat":43.775359,"lng":142.378634,"zip":"0700000"},{"town":"東七条三丁目","koaza":"","lat":43.776999,"lng":142.379543,"zip":"0700000"},{"town":"東七条四丁目","koaza":"","lat":43.77831,"lng":142.380372,"zip":"0700000"},{"town":"東七条五丁目","koaza":"","lat":43.779438,"lng":142.380906,"zip":"0700000"},{"town":"東七条六丁目","koaza":"","lat":43.781123,"lng":142.381849,"zip":"0700000"},{"town":"東七条七丁目","koaza":"","lat":43.782309,"lng":142.382496,"zip":"0700000"},{"town":"東七条八丁目","koaza":"","lat":43.783428,"lng":142.382712,"zip":"0700000"},{"town":"東七条九丁目","koaza":"","lat":43.784483,"lng":142.383291,"zip":"0700000"},{"town":"東八条一丁目","koaza":"","lat":43.772436,"lng":142.37922,"zip":"0700000"},{"town":"東八条二丁目","koaza":"","lat":43.774787,"lng":142.380535,"zip":"0700000"},{"town":"東八条三丁目","koaza":"","lat":43.776228,"lng":142.381328,"zip":"0700000"},{"town":"東八条四丁目","koaza":"","lat":43.777799,"lng":142.38221,"zip":"0700000"},{"town":"東八条五丁目","koaza":"","lat":43.779004,"lng":142.382437,"zip":"0700000"},{"town":"東八条六丁目","koaza":"","lat":43.780157,"lng":142.383525,"zip":"0700000"},{"town":"東八条七丁目","koaza":"","lat":43.781722,"lng":142.384389,"zip":"0700000"},{"town":"東八条八丁目","koaza":"","lat":43.782764,"lng":142.384977,"zip":"0700000"},{"town":"東八条九丁目","koaza":"","lat":43.784035,"lng":142.385272,"zip":"0700000"},{"town":"東旭川北一条一丁目","koaza":"","lat":43.772608,"lng":142.423672,"zip":"0700000"},{"town":"東旭川北一条二丁目","koaza":"","lat":43.77259,"lng":142.427454,"zip":"0700000"},{"town":"東旭川北一条三丁目","koaza":"","lat":43.771685,"lng":142.431178,"zip":"0700000"},{"town":"東旭川北一条四丁目","koaza":"","lat":43.772284,"lng":142.435449,"zip":"0700000"},{"town":"東旭川北一条五丁目","koaza":"","lat":43.772218,"lng":142.439606,"zip":"0700000"},{"town":"東旭川北一条六丁目","koaza":"","lat":43.772011,"lng":142.443133,"zip":"0700000"},{"town":"東旭川北一条七丁目","koaza":"","lat":43.7718,"lng":142.446634,"zip":"0700000"},{"town":"東旭川北一条八丁目","koaza":"","lat":43.771607,"lng":142.449068,"zip":"0700000"},{"town":"東旭川北二条一丁目","koaza":"","lat":43.773901,"lng":142.423641,"zip":"0700000"},{"town":"東旭川北二条五丁目","koaza":"","lat":43.774718,"lng":142.43985,"zip":"0700000"},{"town":"東旭川北二条六丁目","koaza":"","lat":43.774262,"lng":142.443724,"zip":"0700000"},{"town":"東旭川北二条七丁目","koaza":"","lat":43.773422,"lng":142.446815,"zip":"0700000"},{"town":"東旭川北三条五丁目","koaza":"","lat":43.777147,"lng":142.44009,"zip":"0700000"},{"town":"東旭川北三条六丁目","koaza":"","lat":43.776866,"lng":142.443605,"zip":"0700000"},{"town":"東旭川町上兵村","koaza":"","lat":43.770617,"lng":142.452436,"zip":"0788207"},{"town":"東旭川町共栄","koaza":"","lat":43.733976,"lng":142.428839,"zip":"0788340"},{"town":"東旭川町旭正","koaza":"","lat":43.726863,"lng":142.45003,"zip":"0788368"},{"town":"東旭川町倉沼","koaza":"","lat":43.759669,"lng":142.486761,"zip":"0788205"},{"town":"東旭川町桜岡","koaza":"","lat":43.794973,"lng":142.481861,"zip":"0788204"},{"town":"東旭川町下兵村","koaza":"","lat":43.759467,"lng":142.435123,"zip":"0788208"},{"town":"東旭川町忠別","koaza":"","lat":43.721892,"lng":142.467918,"zip":"0788206"},{"town":"東旭川町豊田","koaza":"","lat":43.767835,"lng":142.503332,"zip":"0788202"},{"town":"東旭川町東桜岡","koaza":"","lat":43.781441,"lng":142.514455,"zip":"0788201"},{"town":"東旭川町日ノ出","koaza":"","lat":43.767631,"lng":142.464338,"zip":"0788203"},{"town":"東旭川町瑞穂","koaza":"","lat":43.72067,"lng":142.658772,"zip":"0781274"},{"town":"東旭川町米原","koaza":"","lat":43.74912,"lng":142.552949,"zip":"0781273"},{"town":"東旭川南一条一丁目","koaza":"","lat":43.771107,"lng":142.424178,"zip":"0700000"},{"town":"東旭川南一条二丁目","koaza":"","lat":43.770934,"lng":142.428006,"zip":"0700000"},{"town":"東旭川南一条三丁目","koaza":"","lat":43.770754,"lng":142.431193,"zip":"0700000"},{"town":"東旭川南一条四丁目","koaza":"","lat":43.769876,"lng":142.434557,"zip":"0700000"},{"town":"東旭川南一条五丁目","koaza":"","lat":43.769585,"lng":142.438,"zip":"0700000"},{"town":"東旭川南一条六丁目","koaza":"","lat":43.769482,"lng":142.442359,"zip":"0700000"},{"town":"東旭川南一条七丁目","koaza":"","lat":43.769251,"lng":142.446551,"zip":"0700000"},{"town":"東旭川南一条八丁目","koaza":"","lat":43.769074,"lng":142.448943,"zip":"0700000"},{"town":"東旭川南二条一丁目","koaza":"","lat":43.769998,"lng":142.423736,"zip":"0700000"},{"town":"東旭川南二条二丁目","koaza":"","lat":43.769673,"lng":142.427394,"zip":"0700000"},{"town":"東旭川南二条三丁目","koaza":"","lat":43.769579,"lng":142.430873,"zip":"0700000"},{"town":"東旭川南二条六丁目","koaza":"","lat":43.767895,"lng":142.441344,"zip":"0700000"},{"town":"東鷹栖十線","koaza":"","lat":43.874422,"lng":142.401082,"zip":"0700000"},{"town":"東鷹栖十一線","koaza":"","lat":43.880057,"lng":142.39909,"zip":"0700000"},{"town":"東鷹栖十二線","koaza":"","lat":43.89965,"lng":142.41635,"zip":"0700000"},{"town":"東鷹栖十三線","koaza":"","lat":43.90447,"lng":142.413196,"zip":"0700000"},{"town":"東鷹栖十四線","koaza":"","lat":43.905224,"lng":142.404196,"zip":"0700000"},{"town":"東鷹栖十五線","koaza":"","lat":43.901388,"lng":142.392828,"zip":"0700000"},{"town":"東鷹栖一条一丁目","koaza":"","lat":43.823484,"lng":142.411705,"zip":"0700000"},{"town":"東鷹栖一条二丁目","koaza":"","lat":43.824841,"lng":142.413068,"zip":"0700000"},{"town":"東鷹栖一条三丁目","koaza":"","lat":43.82586,"lng":142.415002,"zip":"0700000"},{"town":"東鷹栖一条四丁目","koaza":"","lat":43.827244,"lng":142.41643,"zip":"0700000"},{"town":"東鷹栖一条五丁目","koaza":"","lat":43.828269,"lng":142.418354,"zip":"0700000"},{"town":"東鷹栖一条六丁目","koaza":"","lat":43.829539,"lng":142.419924,"zip":"0700000"},{"town":"東鷹栖一線","koaza":"","lat":43.837738,"lng":142.438865,"zip":"0700000"},{"town":"東鷹栖二条一丁目","koaza":"","lat":43.825262,"lng":142.409214,"zip":"0700000"},{"town":"東鷹栖二条二丁目","koaza":"","lat":43.826459,"lng":142.410841,"zip":"0700000"},{"town":"東鷹栖二条三丁目","koaza":"","lat":43.827671,"lng":142.412537,"zip":"0700000"},{"town":"東鷹栖二条四丁目","koaza":"","lat":43.828894,"lng":142.414132,"zip":"0700000"},{"town":"東鷹栖二条五丁目","koaza":"","lat":43.830079,"lng":142.415862,"zip":"0700000"},{"town":"東鷹栖二条六丁目","koaza":"","lat":43.831302,"lng":142.417514,"zip":"0700000"},{"town":"東鷹栖二線","koaza":"","lat":43.844004,"lng":142.437668,"zip":"0700000"},{"town":"東鷹栖三条一丁目","koaza":"","lat":43.827062,"lng":142.4067,"zip":"0700000"},{"town":"東鷹栖三条二丁目","koaza":"","lat":43.828267,"lng":142.40835,"zip":"0700000"},{"town":"東鷹栖三条三丁目","koaza":"","lat":43.829475,"lng":142.410059,"zip":"0700000"},{"town":"東鷹栖三条四丁目","koaza":"","lat":43.830656,"lng":142.411711,"zip":"0700000"},{"town":"東鷹栖三条五丁目","koaza":"","lat":43.831899,"lng":142.413372,"zip":"0700000"},{"town":"東鷹栖三条六丁目","koaza":"","lat":43.833121,"lng":142.415021,"zip":"0700000"},{"town":"東鷹栖三線","koaza":"","lat":43.85029,"lng":142.436457,"zip":"0700000"},{"town":"東鷹栖四条一丁目","koaza":"","lat":43.828869,"lng":142.404183,"zip":"0700000"},{"town":"東鷹栖四条二丁目","koaza":"","lat":43.830078,"lng":142.405842,"zip":"0700000"},{"town":"東鷹栖四条三丁目","koaza":"","lat":43.831277,"lng":142.407583,"zip":"0700000"},{"town":"東鷹栖四条四丁目","koaza":"","lat":43.832445,"lng":142.409246,"zip":"0700000"},{"town":"東鷹栖四条五丁目","koaza":"","lat":43.833676,"lng":142.41091,"zip":"0700000"},{"town":"東鷹栖四条六丁目","koaza":"","lat":43.834914,"lng":142.412511,"zip":"0700000"},{"town":"東鷹栖四線","koaza":"","lat":43.846579,"lng":142.421546,"zip":"0700000"},{"town":"東鷹栖五線","koaza":"","lat":43.851883,"lng":142.419026,"zip":"0700000"},{"town":"東鷹栖六線","koaza":"","lat":43.854799,"lng":142.413214,"zip":"0700000"},{"town":"東鷹栖七線","koaza":"","lat":43.860447,"lng":142.411289,"zip":"0700000"},{"town":"東鷹栖八線","koaza":"","lat":43.868649,"lng":142.412932,"zip":"0700000"},{"town":"東鷹栖九線","koaza":"","lat":43.872407,"lng":142.408205,"zip":"0700000"},{"town":"東鷹栖東一条一丁目","koaza":"","lat":43.821709,"lng":142.41419,"zip":"0700000"},{"town":"東鷹栖東一条二丁目","koaza":"","lat":43.822868,"lng":142.415811,"zip":"0700000"},{"town":"東鷹栖東一条三丁目","koaza":"","lat":43.82406,"lng":142.417464,"zip":"0700000"},{"town":"東鷹栖東一条四丁目","koaza":"","lat":43.825259,"lng":142.419119,"zip":"0700000"},{"town":"東鷹栖東一条五丁目","koaza":"","lat":43.826489,"lng":142.420812,"zip":"0700000"},{"town":"東鷹栖東一条六丁目","koaza":"","lat":43.827863,"lng":142.422548,"zip":"0700000"},{"town":"東鷹栖東一線","koaza":"","lat":43.838805,"lng":142.451407,"zip":"0700000"},{"town":"東鷹栖東二条一丁目","koaza":"","lat":43.819971,"lng":142.416618,"zip":"0700000"},{"town":"東鷹栖東二条二丁目","koaza":"","lat":43.82112,"lng":142.418229,"zip":"0700000"},{"town":"東鷹栖東二条三丁目","koaza":"","lat":43.822305,"lng":142.419866,"zip":"0700000"},{"town":"東鷹栖東二条四丁目","koaza":"","lat":43.823515,"lng":142.421515,"zip":"0700000"},{"town":"東鷹栖東二条五丁目","koaza":"","lat":43.824756,"lng":142.423203,"zip":"0700000"},{"town":"東鷹栖東二条六丁目","koaza":"","lat":43.825958,"lng":142.424865,"zip":"0700000"},{"town":"東鷹栖東三条一丁目","koaza":"","lat":43.817839,"lng":142.419664,"zip":"0700000"},{"town":"東鷹栖東三条二丁目","koaza":"","lat":43.818265,"lng":142.422243,"zip":"0700000"},{"town":"東鷹栖東三条三丁目","koaza":"","lat":43.818811,"lng":142.424682,"zip":"0700000"},{"town":"東鷹栖東三条四丁目","koaza":"","lat":43.820182,"lng":142.426135,"zip":"0700000"},{"town":"東鷹栖東三条五丁目","koaza":"","lat":43.822279,"lng":142.426602,"zip":"0700000"},{"town":"東鷹栖東三条六丁目","koaza":"","lat":43.823866,"lng":142.427834,"zip":"0700000"},{"town":"東山","koaza":"","lat":43.845979,"lng":142.453738,"zip":"0718171"},{"town":"北門町十丁目","koaza":"","lat":43.786914,"lng":142.346197,"zip":"0700825"},{"town":"北門町十一丁目","koaza":"","lat":43.787452,"lng":142.344699,"zip":"0700825"},{"town":"北門町十二丁目","koaza":"","lat":43.788545,"lng":142.343812,"zip":"0700825"},{"town":"北門町十三丁目","koaza":"","lat":43.789623,"lng":142.342521,"zip":"0700825"},{"town":"北門町十四丁目","koaza":"","lat":43.790468,"lng":142.341156,"zip":"0700825"},{"town":"北門町十五丁目","koaza":"","lat":43.791313,"lng":142.339986,"zip":"0700825"},{"town":"北門町十六丁目","koaza":"","lat":43.792182,"lng":142.338778,"zip":"0700825"},{"town":"北門町十七丁目","koaza":"","lat":43.793022,"lng":142.337612,"zip":"0700825"},{"town":"北門町十八丁目","koaza":"","lat":43.793894,"lng":142.33639,"zip":"0700825"},{"town":"北門町十九丁目","koaza":"","lat":43.794841,"lng":142.335331,"zip":"0700825"},{"town":"北門町二十丁目","koaza":"","lat":43.795621,"lng":142.333814,"zip":"0700825"},{"town":"北門町二十一丁目","koaza":"","lat":43.796557,"lng":142.332671,"zip":"0700825"},{"town":"北門町二十二丁目","koaza":"","lat":43.797062,"lng":142.330468,"zip":"0700825"},{"town":"北門町七丁目","koaza":"","lat":43.784895,"lng":142.35037,"zip":"0700825"},{"town":"北門町八丁目","koaza":"","lat":43.785135,"lng":142.348318,"zip":"0700825"},{"town":"北門町九丁目","koaza":"","lat":43.78621,"lng":142.347695,"zip":"0700825"},{"town":"緑が丘一条一丁目","koaza":"","lat":43.738053,"lng":142.380691,"zip":"0700000"},{"town":"緑が丘一条二丁目","koaza":"","lat":43.737307,"lng":142.382321,"zip":"0700000"},{"town":"緑が丘一条三丁目","koaza":"","lat":43.7362,"lng":142.383792,"zip":"0700000"},{"town":"緑が丘一条四丁目","koaza":"","lat":43.733499,"lng":142.38492,"zip":"0700000"},{"town":"緑が丘二条一丁目","koaza":"","lat":43.737477,"lng":142.378654,"zip":"0700000"},{"town":"緑が丘二条二丁目","koaza":"","lat":43.735709,"lng":142.37979,"zip":"0700000"},{"town":"緑が丘二条三丁目","koaza":"","lat":43.734768,"lng":142.380887,"zip":"0700000"},{"town":"緑が丘二条四丁目","koaza":"","lat":43.732374,"lng":142.38173,"zip":"0700000"},{"town":"緑が丘三条一丁目","koaza":"","lat":43.73678,"lng":142.376539,"zip":"0700000"},{"town":"緑が丘三条二丁目","koaza":"","lat":43.73511,"lng":142.377288,"zip":"0700000"},{"town":"緑が丘三条三丁目","koaza":"","lat":43.733805,"lng":142.378378,"zip":"0700000"},{"town":"緑が丘三条四丁目","koaza":"","lat":43.731781,"lng":142.379337,"zip":"0700000"},{"town":"緑が丘四条一丁目","koaza":"","lat":43.736149,"lng":142.37454,"zip":"0700000"},{"town":"緑が丘四条二丁目","koaza":"","lat":43.734606,"lng":142.375847,"zip":"0700000"},{"town":"緑が丘四条三丁目","koaza":"","lat":43.733031,"lng":142.376946,"zip":"0700000"},{"town":"緑が丘四条四丁目","koaza":"","lat":43.731001,"lng":142.377911,"zip":"0700000"},{"town":"緑が丘五条一丁目","koaza":"","lat":43.735184,"lng":142.372449,"zip":"0700000"},{"town":"緑が丘五条二丁目","koaza":"","lat":43.733986,"lng":142.374058,"zip":"0700000"},{"town":"緑が丘五条三丁目","koaza":"","lat":43.732526,"lng":142.374538,"zip":"0700000"},{"town":"緑が丘五条四丁目","koaza":"","lat":43.730027,"lng":142.375676,"zip":"0700000"},{"town":"緑が丘東一条一丁目","koaza":"","lat":43.731226,"lng":142.38715,"zip":"0700000"},{"town":"緑が丘東一条二丁目","koaza":"","lat":43.728474,"lng":142.389244,"zip":"0700000"},{"town":"緑が丘東一条三丁目","koaza":"","lat":43.725929,"lng":142.392976,"zip":"0700000"},{"town":"緑が丘東一条四丁目","koaza":"","lat":43.724644,"lng":142.391331,"zip":"0700000"},{"town":"緑が丘東二条一丁目","koaza":"","lat":43.728411,"lng":142.385426,"zip":"0700000"},{"town":"緑が丘東二条三丁目","koaza":"","lat":43.72487,"lng":142.387849,"zip":"0700000"},{"town":"緑が丘東二条四丁目","koaza":"","lat":43.723189,"lng":142.388592,"zip":"0700000"},{"town":"緑が丘東三条一丁目","koaza":"","lat":43.729038,"lng":142.381535,"zip":"0700000"},{"town":"緑が丘東三条二丁目","koaza":"","lat":43.725325,"lng":142.383492,"zip":"0700000"},{"town":"緑が丘東三条三丁目","koaza":"","lat":43.722748,"lng":142.384963,"zip":"0700000"},{"town":"緑が丘東四条一丁目","koaza":"","lat":43.727469,"lng":142.379528,"zip":"0700000"},{"town":"緑が丘東四条二丁目","koaza":"","lat":43.724031,"lng":142.381507,"zip":"0700000"},{"town":"緑が丘東四条三丁目","koaza":"","lat":43.721855,"lng":142.382708,"zip":"0700000"},{"town":"緑が丘東五条一丁目","koaza":"","lat":43.725916,"lng":142.378008,"zip":"0700000"},{"town":"緑が丘東五条二丁目","koaza":"","lat":43.723524,"lng":142.378893,"zip":"0700000"},{"town":"緑が丘東五条三丁目","koaza":"","lat":43.721029,"lng":142.381646,"zip":"0700000"},{"town":"緑が丘南一条一丁目","koaza":"","lat":43.732271,"lng":142.371819,"zip":"0700000"},{"town":"緑が丘南一条二丁目","koaza":"","lat":43.730148,"lng":142.373712,"zip":"0700000"},{"town":"緑が丘南二条一丁目","koaza":"","lat":43.731466,"lng":142.369712,"zip":"0700000"},{"town":"緑が丘南二条二丁目","koaza":"","lat":43.729708,"lng":142.371767,"zip":"0700000"},{"town":"緑が丘南三条一丁目","koaza":"","lat":43.731025,"lng":142.367875,"zip":"0700000"},{"town":"緑が丘南三条二丁目","koaza":"","lat":43.728664,"lng":142.369229,"zip":"0700000"},{"town":"緑が丘南四条一丁目","koaza":"","lat":43.730158,"lng":142.366634,"zip":"0700000"},{"town":"緑が丘南四条二丁目","koaza":"","lat":43.728422,"lng":142.367522,"zip":"0700000"},{"town":"緑が丘南五条一丁目","koaza":"","lat":43.729079,"lng":142.364368,"zip":"0700000"},{"town":"緑が丘南五条二丁目","koaza":"","lat":43.727613,"lng":142.366355,"zip":"0700000"},{"town":"緑台","koaza":"","lat":43.903384,"lng":142.435482,"zip":"0718166"},{"town":"緑町十二丁目","koaza":"","lat":43.783572,"lng":142.337466,"zip":"0700823"},{"town":"緑町十三丁目","koaza":"","lat":43.784768,"lng":142.335966,"zip":"0700823"},{"town":"緑町十四丁目","koaza":"","lat":43.785563,"lng":142.334662,"zip":"0700823"},{"town":"緑町十五丁目","koaza":"","lat":43.786484,"lng":142.333649,"zip":"0700823"},{"town":"緑町十六丁目","koaza":"","lat":43.78749,"lng":142.33231,"zip":"0700823"},{"town":"緑町十七丁目","koaza":"","lat":43.788288,"lng":142.331216,"zip":"0700823"},{"town":"緑町十八丁目","koaza":"","lat":43.789247,"lng":142.330054,"zip":"0700823"},{"town":"緑町十九丁目","koaza":"","lat":43.790149,"lng":142.328775,"zip":"0700823"},{"town":"緑町二十丁目","koaza":"","lat":43.791,"lng":142.327358,"zip":"0700823"},{"town":"緑町二十一丁目","koaza":"","lat":43.791911,"lng":142.326201,"zip":"0700823"},{"town":"緑町二十二丁目","koaza":"","lat":43.792722,"lng":142.32502,"zip":"0700823"},{"town":"緑町二十三丁目","koaza":"","lat":43.793366,"lng":142.323673,"zip":"0700823"},{"town":"緑町二十四丁目","koaza":"","lat":43.794507,"lng":142.322512,"zip":"0700823"},{"town":"緑町二十五丁目","koaza":"","lat":43.795061,"lng":142.320294,"zip":"0700823"},{"town":"南一条通二十丁目","koaza":"","lat":43.757974,"lng":142.376941,"zip":"0700000"},{"town":"南一条通二十一丁目","koaza":"","lat":43.757454,"lng":142.378173,"zip":"0700000"},{"town":"南一条通二十二丁目","koaza":"","lat":43.757077,"lng":142.379866,"zip":"0700000"},{"town":"南一条通二十三丁目","koaza":"","lat":43.75669,"lng":142.38166,"zip":"0700000"},{"town":"南一条通二十四丁目","koaza":"","lat":43.75618,"lng":142.382962,"zip":"0700000"},{"town":"南一条通二十五丁目","koaza":"","lat":43.75576,"lng":142.384357,"zip":"0700000"},{"town":"南一条通二十六丁目","koaza":"","lat":43.755537,"lng":142.385858,"zip":"0700000"},{"town":"南二条通二十丁目","koaza":"","lat":43.756938,"lng":142.376335,"zip":"0700000"},{"town":"南二条通二十一丁目","koaza":"","lat":43.756317,"lng":142.377519,"zip":"0700000"},{"town":"南二条通二十二丁目","koaza":"","lat":43.75594,"lng":142.37922,"zip":"0700000"},{"town":"南二条通二十三丁目","koaza":"","lat":43.755508,"lng":142.380819,"zip":"0700000"},{"town":"南二条通二十四丁目","koaza":"","lat":43.754999,"lng":142.382288,"zip":"0700000"},{"town":"南二条通二十五丁目","koaza":"","lat":43.754612,"lng":142.383704,"zip":"0700000"},{"town":"南二条通二十六丁目","koaza":"","lat":43.754317,"lng":142.385456,"zip":"0700000"},{"town":"南三条通二十丁目","koaza":"","lat":43.755801,"lng":142.375688,"zip":"0700000"},{"town":"南三条通二十一丁目","koaza":"","lat":43.755248,"lng":142.377085,"zip":"0700000"},{"town":"南三条通二十二丁目","koaza":"","lat":43.754815,"lng":142.378608,"zip":"0700000"},{"town":"南三条通二十三丁目","koaza":"","lat":43.754414,"lng":142.380215,"zip":"0700000"},{"town":"南三条通二十四丁目","koaza":"","lat":43.753902,"lng":142.381711,"zip":"0700000"},{"town":"南三条通二十五丁目","koaza":"","lat":43.753469,"lng":142.383185,"zip":"0700000"},{"town":"南三条通二十六丁目","koaza":"","lat":43.752989,"lng":142.385137,"zip":"0700000"},{"town":"南四条通二十一丁目","koaza":"","lat":43.754174,"lng":142.376493,"zip":"0700000"},{"town":"南四条通二十二丁目","koaza":"","lat":43.753717,"lng":142.378045,"zip":"0700000"},{"town":"南四条通二十三丁目","koaza":"","lat":43.753281,"lng":142.379617,"zip":"0700000"},{"town":"南四条通二十四丁目","koaza":"","lat":43.752866,"lng":142.381175,"zip":"0700000"},{"town":"南四条通二十五丁目","koaza":"","lat":43.752491,"lng":142.382505,"zip":"0700000"},{"town":"南四条通二十六丁目","koaza":"","lat":43.751872,"lng":142.384714,"zip":"0700000"},{"town":"南五条通二十丁目","koaza":"","lat":43.753304,"lng":142.374319,"zip":"0700000"},{"town":"南五条通二十一丁目","koaza":"","lat":43.752957,"lng":142.375813,"zip":"0700000"},{"town":"南五条通二十二丁目","koaza":"","lat":43.752358,"lng":142.377446,"zip":"0700000"},{"town":"南五条通二十三丁目","koaza":"","lat":43.752112,"lng":142.379,"zip":"0700000"},{"town":"南五条通二十四丁目","koaza":"","lat":43.751928,"lng":142.380411,"zip":"0700000"},{"town":"南五条通二十五丁目","koaza":"","lat":43.751304,"lng":142.382084,"zip":"0700000"},{"town":"南五条通二十六丁目","koaza":"","lat":43.750695,"lng":142.384557,"zip":"0700000"},{"town":"南六条通十七丁目","koaza":"","lat":43.754112,"lng":142.368544,"zip":"0700000"},{"town":"南六条通十九丁目","koaza":"","lat":43.752728,"lng":142.372208,"zip":"0700000"},{"town":"南六条通二十丁目","koaza":"","lat":43.752207,"lng":142.373659,"zip":"0700000"},{"town":"南六条通二十一丁目","koaza":"","lat":43.751997,"lng":142.374984,"zip":"0700000"},{"town":"南六条通二十二丁目","koaza":"","lat":43.751378,"lng":142.376709,"zip":"0700000"},{"town":"南六条通二十三丁目","koaza":"","lat":43.750955,"lng":142.378287,"zip":"0700000"},{"town":"南六条通二十四丁目","koaza":"","lat":43.750549,"lng":142.379791,"zip":"0700000"},{"town":"南六条通二十五丁目","koaza":"","lat":43.750068,"lng":142.381647,"zip":"0700000"},{"town":"南六条通二十六丁目","koaza":"","lat":43.749307,"lng":142.384364,"zip":"0700000"},{"town":"南七条通十七丁目","koaza":"","lat":43.752656,"lng":142.368946,"zip":"0700000"},{"town":"南七条通十八丁目","koaza":"","lat":43.75215,"lng":142.370366,"zip":"0700000"},{"town":"南七条通十九丁目","koaza":"","lat":43.751772,"lng":142.371834,"zip":"0700000"},{"town":"南七条通二十丁目","koaza":"","lat":43.751259,"lng":142.373117,"zip":"0700000"},{"town":"南七条通二十一丁目","koaza":"","lat":43.750834,"lng":142.374595,"zip":"0700000"},{"town":"南七条通二十二丁目","koaza":"","lat":43.750402,"lng":142.376113,"zip":"0700000"},{"town":"南七条通二十三丁目","koaza":"","lat":43.749955,"lng":142.377673,"zip":"0700000"},{"town":"南七条通二十四丁目","koaza":"","lat":43.74952,"lng":142.379198,"zip":"0700000"},{"town":"南七条通二十五丁目","koaza":"","lat":43.748931,"lng":142.381245,"zip":"0700000"},{"town":"南七条通二十六丁目","koaza":"","lat":43.748058,"lng":142.384224,"zip":"0700000"},{"town":"南八条通十九丁目","koaza":"","lat":43.750922,"lng":142.370738,"zip":"0700000"},{"town":"南八条通二十丁目","koaza":"","lat":43.750086,"lng":142.372455,"zip":"0700000"},{"town":"南八条通二十一丁目","koaza":"","lat":43.749487,"lng":142.373781,"zip":"0700000"},{"town":"南八条通二十二丁目","koaza":"","lat":43.749132,"lng":142.375395,"zip":"0700000"},{"town":"南八条通二十三丁目","koaza":"","lat":43.74866,"lng":142.376929,"zip":"0700000"},{"town":"南八条通二十四丁目","koaza":"","lat":43.748183,"lng":142.378428,"zip":"0700000"},{"town":"南八条通二十五丁目","koaza":"","lat":43.746961,"lng":142.380662,"zip":"0700000"},{"town":"南八条通二十六丁目","koaza":"","lat":43.746891,"lng":142.384059,"zip":"0700000"},{"town":"南九条通二十六丁目","koaza":"","lat":43.744697,"lng":142.383971,"zip":"0700000"},{"town":"南が丘一丁目","koaza":"","lat":43.771278,"lng":142.304947,"zip":"0708028"},{"town":"南が丘二丁目","koaza":"","lat":43.771933,"lng":142.305824,"zip":"0708028"},{"town":"南が丘三丁目","koaza":"","lat":43.772152,"lng":142.307806,"zip":"0708028"},{"town":"宮下通十丁目","koaza":"","lat":43.763077,"lng":142.362245,"zip":"0700030"},{"town":"宮下通十一丁目","koaza":"","lat":43.762619,"lng":142.363839,"zip":"0700030"},{"town":"宮下通十三丁目","koaza":"","lat":43.76178,"lng":142.366771,"zip":"0700030"},{"town":"宮下通十四丁目","koaza":"","lat":43.761347,"lng":142.36829,"zip":"0700030"},{"town":"宮下通十五丁目","koaza":"","lat":43.76092,"lng":142.369804,"zip":"0700030"},{"town":"宮下通一丁目","koaza":"","lat":43.767163,"lng":142.348671,"zip":"0700030"},{"town":"宮下通二十丁目","koaza":"","lat":43.758997,"lng":142.377523,"zip":"0700030"},{"town":"宮下通二十一丁目","koaza":"","lat":43.758574,"lng":142.378981,"zip":"0700030"},{"town":"宮下通二十二丁目","koaza":"","lat":43.758148,"lng":142.380463,"zip":"0700030"},{"town":"宮下通二十三丁目","koaza":"","lat":43.75771,"lng":142.38199,"zip":"0700030"},{"town":"宮下通二十四丁目","koaza":"","lat":43.757341,"lng":142.383293,"zip":"0700030"},{"town":"宮下通二十五丁目","koaza":"","lat":43.756865,"lng":142.384953,"zip":"0700030"},{"town":"宮下通二十六丁目","koaza":"","lat":43.756497,"lng":142.386204,"zip":"0700030"},{"town":"宮下通二丁目","koaza":"","lat":43.765963,"lng":142.35012,"zip":"0700030"},{"town":"宮下通三丁目","koaza":"","lat":43.765559,"lng":142.351671,"zip":"0700030"},{"town":"宮下通四丁目","koaza":"","lat":43.765268,"lng":142.352927,"zip":"0700030"},{"town":"宮下通五丁目","koaza":"","lat":43.764895,"lng":142.354462,"zip":"0700030"},{"town":"宮下通六丁目","koaza":"","lat":43.765175,"lng":142.356303,"zip":"0700030"},{"town":"宮下通七丁目","koaza":"","lat":43.763683,"lng":142.35676,"zip":"0700030"},{"town":"宮下通八丁目","koaza":"","lat":43.763381,"lng":142.358807,"zip":"0700030"},{"town":"本町一丁目","koaza":"","lat":43.779041,"lng":142.357726,"zip":"0700810"},{"town":"本町二丁目","koaza":"","lat":43.779991,"lng":142.35691,"zip":"0700810"},{"town":"本町三丁目","koaza":"","lat":43.7815,"lng":142.357129,"zip":"0700810"},{"town":"流通団地一条一丁目","koaza":"","lat":43.792142,"lng":142.396208,"zip":"0700000"},{"town":"流通団地一条二丁目","koaza":"","lat":43.793531,"lng":142.398338,"zip":"0700000"},{"town":"流通団地一条三丁目","koaza":"","lat":43.795964,"lng":142.40184,"zip":"0700000"},{"town":"流通団地一条四丁目","koaza":"","lat":43.798745,"lng":142.406013,"zip":"0700000"},{"town":"流通団地一条五丁目","koaza":"","lat":43.801883,"lng":142.411093,"zip":"0700000"},{"town":"流通団地二条一丁目","koaza":"","lat":43.794501,"lng":142.393451,"zip":"0700000"},{"town":"流通団地二条二丁目","koaza":"","lat":43.79545,"lng":142.396355,"zip":"0700000"},{"town":"流通団地二条三丁目","koaza":"","lat":43.798155,"lng":142.400674,"zip":"0700000"},{"town":"流通団地二条四丁目","koaza":"","lat":43.800144,"lng":142.405281,"zip":"0700000"},{"town":"流通団地二条五丁目","koaza":"","lat":43.803229,"lng":142.409638,"zip":"0700000"},{"town":"流通団地三条四丁目","koaza":"","lat":43.801936,"lng":142.403021,"zip":"0700000"},{"town":"流通団地三条五丁目","koaza":"","lat":43.804437,"lng":142.408131,"zip":"0700000"},{"town":"流通団地四条五丁目","koaza":"","lat":43.80641,"lng":142.406821,"zip":"0700000"},{"town":"宮下通九丁目","koaza":"","lat":43.762903,"lng":142.360576,"zip":"0700030"},{"town":"南四条通二十丁目","koaza":"","lat":43.754601,"lng":142.375006,"zip":"0700000"},{"town":"南六条通十八丁目","koaza":"","lat":43.753169,"lng":142.370911,"zip":"0700000"},{"town":"宮前一条四丁目","koaza":"","lat":43.755831,"lng":142.372357,"zip":"0700000"},{"town":"宮前一条五丁目","koaza":"","lat":43.754191,"lng":142.373039,"zip":"0700000"},{"town":"宮前一条三丁目","koaza":"","lat":43.757385,"lng":142.370157,"zip":"0700000"},{"town":"宮下通十二丁目","koaza":"","lat":43.762209,"lng":142.365279,"zip":"0700030"},{"town":"宮前二条一丁目","koaza":"","lat":43.75967,"lng":142.36168,"zip":"0700000"},{"town":"神楽岡公園","koaza":"","lat":43.751052,"lng":142.364905,"zip":"0788327"},{"town":"宮下通十六丁目","koaza":"","lat":43.760323,"lng":142.371279,"zip":"0700030"},{"town":"宮下通十七丁目","koaza":"","lat":43.75985,"lng":142.372793,"zip":"0700030"},{"town":"宮下通十九丁目","koaza":"","lat":43.759007,"lng":142.375757,"zip":"0700030"},{"town":"宮下通十八丁目","koaza":"","lat":43.75939,"lng":142.374268,"zip":"0700030"},{"town":"宮前一条二丁目","koaza":"","lat":43.759355,"lng":142.366695,"zip":"0700000"},{"town":"宮前一条一丁目","koaza":"","lat":43.760937,"lng":142.363685,"zip":"0700000"},{"town":"宮前二条二丁目","koaza":"","lat":43.757492,"lng":142.365391,"zip":"0700000"},{"town":"宮前二条三丁目","koaza":"","lat":43.755739,"lng":142.366929,"zip":"0700000"},{"town":"工業団地一条三丁目","koaza":"","lat":43.771002,"lng":142.466236,"zip":"0700000"},{"town":"工業団地三条三丁目","koaza":"","lat":43.775673,"lng":142.466557,"zip":"0700000"},{"town":"工業団地二条三丁目","koaza":"","lat":43.773491,"lng":142.466225,"zip":"0700000"},{"town":"西神楽一線","koaza":"五号","lat":43.722385,"lng":142.365363,"zip":"0700000"},{"town":"西神楽一線","koaza":"四号","lat":43.724986,"lng":142.363234,"zip":"0700000"},{"town":"西神楽一線","koaza":"六号","lat":43.720228,"lng":142.36947,"zip":"0700000"},{"town":"西神楽一線","koaza":"七号","lat":43.713407,"lng":142.371614,"zip":"0700000"},{"town":"西神楽一線","koaza":"八号","lat":43.709206,"lng":142.367217,"zip":"0700000"},{"town":"西神楽一線","koaza":"九号","lat":43.703431,"lng":142.374728,"zip":"0700000"},{"town":"西神楽一線","koaza":"十号","lat":43.700353,"lng":142.379898,"zip":"0700000"},{"town":"西神楽二線","koaza":"六号","lat":43.719516,"lng":142.375271,"zip":"0700000"},{"town":"西神楽一線","koaza":"十一号","lat":43.694249,"lng":142.380057,"zip":"0700000"},{"town":"東鷹栖七線","koaza":"十号","lat":43.835394,"lng":142.377836,"zip":"0700000"},{"town":"西神楽二線","koaza":"七号","lat":43.715236,"lng":142.37536,"zip":"0700000"},{"town":"西神楽一線","koaza":"十二号","lat":43.689629,"lng":142.38273,"zip":"0700000"},{"town":"西神楽二線","koaza":"八号","lat":43.710892,"lng":142.379908,"zip":"0700000"},{"town":"西神楽一線","koaza":"十三号","lat":43.684025,"lng":142.382097,"zip":"0700000"},{"town":"西神楽三線","koaza":"六号","lat":43.721653,"lng":142.37889,"zip":"0700000"},{"town":"東鷹栖六線","koaza":"十号","lat":43.831225,"lng":142.384912,"zip":"0700000"},{"town":"西神楽一線","koaza":"十四号","lat":43.679242,"lng":142.384381,"zip":"0700000"},{"town":"西神楽三線","koaza":"七号","lat":43.718481,"lng":142.382214,"zip":"0700000"},{"town":"西神楽二線","koaza":"九号","lat":43.705737,"lng":142.383397,"zip":"0700000"},{"town":"西神楽三線","koaza":"八号","lat":43.712542,"lng":142.384812,"zip":"0700000"},{"town":"西神楽一線","koaza":"十五号","lat":43.675155,"lng":142.388605,"zip":"0700000"},{"town":"西神楽二線","koaza":"十号","lat":43.701736,"lng":142.386743,"zip":"0700000"},{"town":"東鷹栖六線","koaza":"十一号","lat":43.835719,"lng":142.38649,"zip":"0700000"},{"town":"東鷹栖五線","koaza":"十号","lat":43.830002,"lng":142.387322,"zip":"0700000"},{"town":"西神楽三線","koaza":"九号","lat":43.709661,"lng":142.387185,"zip":"0700000"},{"town":"西神楽二線","koaza":"十一号","lat":43.697263,"lng":142.387675,"zip":"0700000"},{"town":"西神楽四線","koaza":"七号","lat":43.72099,"lng":142.389498,"zip":"0700000"},{"town":"西神楽一線","koaza":"十六号","lat":43.671558,"lng":142.394558,"zip":"0700000"},{"town":"西神楽三線","koaza":"十号","lat":43.705173,"lng":142.391102,"zip":"0700000"},{"town":"西神楽二線","koaza":"十二号","lat":43.693446,"lng":142.390296,"zip":"0700000"},{"town":"東鷹栖五線","koaza":"十一号","lat":43.832182,"lng":142.392175,"zip":"0700000"},{"town":"西神楽四線","koaza":"八号","lat":43.715005,"lng":142.393118,"zip":"0700000"},{"town":"東鷹栖四線","koaza":"十号","lat":43.825464,"lng":142.392384,"zip":"0700000"},{"town":"西神楽三線","koaza":"十一号","lat":43.699089,"lng":142.393222,"zip":"0700000"},{"town":"西神楽四線","koaza":"九号","lat":43.710121,"lng":142.392598,"zip":"0700000"},{"town":"西神楽三線","koaza":"十二号","lat":43.694159,"lng":142.395014,"zip":"0700000"},{"town":"東鷹栖四線","koaza":"十一号","lat":43.829179,"lng":142.39729,"zip":"0700000"},{"town":"東鷹栖三線","koaza":"十号","lat":43.822144,"lng":142.397469,"zip":"0700000"},{"town":"西神楽四線","koaza":"十号","lat":43.70576,"lng":142.396132,"zip":"0700000"},{"town":"東鷹栖五線","koaza":"十二号","lat":43.83377,"lng":142.39735,"zip":"0700000"},{"town":"西神楽二線","koaza":"十三号","lat":43.687596,"lng":142.394703,"zip":"0700000"},{"town":"西神楽三線","koaza":"十三号","lat":43.688768,"lng":142.400884,"zip":"0700000"},{"town":"西神楽一線","koaza":"十七号","lat":43.66719,"lng":142.398316,"zip":"0700000"},{"town":"西神楽二線","koaza":"十五号","lat":43.679948,"lng":142.397557,"zip":"0700000"},{"town":"西神楽四線","koaza":"十一号","lat":43.700069,"lng":142.398162,"zip":"0700000"},{"town":"西神楽二線","koaza":"十四号","lat":43.684909,"lng":142.396105,"zip":"0700000"},{"town":"西神楽三線","koaza":"十四号","lat":43.684946,"lng":142.400368,"zip":"0700000"},{"town":"西神楽二線","koaza":"十六号","lat":43.674801,"lng":142.403232,"zip":"0700000"},{"town":"東鷹栖三線","koaza":"十一号","lat":43.825632,"lng":142.402088,"zip":"0700000"},{"town":"東鷹栖四線","koaza":"十二号","lat":43.834005,"lng":142.401214,"zip":"0700000"},{"town":"西神楽四線","koaza":"十二号","lat":43.696607,"lng":142.403161,"zip":"0700000"},{"town":"西神楽二線","koaza":"十七号","lat":43.669693,"lng":142.409944,"zip":"0700000"},{"town":"西神楽三線","koaza":"十五号","lat":43.68143,"lng":142.402652,"zip":"0700000"},{"town":"西神楽四線","koaza":"十三号","lat":43.690841,"lng":142.406447,"zip":"0700000"},{"town":"東鷹栖二線","koaza":"十一号","lat":43.822053,"lng":142.407199,"zip":"0700000"},{"town":"東鷹栖四線","koaza":"十三号","lat":43.834924,"lng":142.405688,"zip":"0700000"},{"town":"西神楽一線","koaza":"十八号","lat":43.66571,"lng":142.404716,"zip":"0700000"},{"town":"西神楽四線","koaza":"十四号","lat":43.685136,"lng":142.408729,"zip":"0700000"},{"town":"西神楽三線","koaza":"十六号","lat":43.676681,"lng":142.411282,"zip":"0700000"},{"town":"西神楽三線","koaza":"十七号","lat":43.672308,"lng":142.416178,"zip":"0700000"},{"town":"東鷹栖一線","koaza":"十号","lat":43.816277,"lng":142.408849,"zip":"0700000"},{"town":"東鷹栖一線","koaza":"十一号","lat":43.817276,"lng":142.416526,"zip":"0700000"},{"town":"西神楽四線","koaza":"十五号","lat":43.682005,"lng":142.413337,"zip":"0700000"},{"town":"東鷹栖三線","koaza":"十四号","lat":43.834236,"lng":142.417464,"zip":"0700000"},{"town":"西神楽三線","koaza":"十八号","lat":43.668538,"lng":142.428918,"zip":"0700000"},{"town":"西神楽四線","koaza":"十六号","lat":43.680423,"lng":142.420729,"zip":"0700000"},{"town":"東鷹栖二線","koaza":"十四号","lat":43.831345,"lng":142.421552,"zip":"0700000"},{"town":"西神楽四線","koaza":"十七号","lat":43.67646,"lng":142.426588,"zip":"0700000"},{"town":"東鷹栖二線","koaza":"十五号","lat":43.836205,"lng":142.427042,"zip":"0700000"},{"town":"東鷹栖一線","koaza":"十四号","lat":43.828796,"lng":142.426734,"zip":"0700000"},{"town":"西神楽四線","koaza":"十八号","lat":43.67305,"lng":142.431615,"zip":"0700000"},{"town":"東鷹栖一線","koaza":"十五号","lat":43.833203,"lng":142.431978,"zip":"0700000"},{"town":"西神楽五線","koaza":"十八号","lat":43.675946,"lng":142.431321,"zip":"0700000"},{"town":"西神楽四線","koaza":"十九号","lat":43.668936,"lng":142.432588,"zip":"0700000"},{"town":"東鷹栖一線","koaza":"十六号","lat":43.836964,"lng":142.435637,"zip":"0700000"}]