[{"town":"琴似一条一丁目","koaza":"","lat":43.079715,"lng":141.308758,"zip":"0630811"},{"town":"琴似一条二丁目","koaza":"","lat":43.078355,"lng":141.307289,"zip":"0630811"},{"town":"琴似一条三丁目","koaza":"","lat":43.077236,"lng":141.306055,"zip":"0630811"},{"town":"琴似一条四丁目","koaza":"","lat":43.07602,"lng":141.304727,"zip":"0630811"},{"town":"琴似一条五丁目","koaza":"","lat":43.075073,"lng":141.303688,"zip":"0630811"},{"town":"琴似一条六丁目","koaza":"","lat":43.07405,"lng":141.302575,"zip":"0630811"},{"town":"琴似一条七丁目","koaza":"","lat":43.072895,"lng":141.301285,"zip":"0630811"},{"town":"琴似二条一丁目","koaza":"","lat":43.080883,"lng":141.306742,"zip":"0630812"},{"town":"琴似二条二丁目","koaza":"","lat":43.079296,"lng":141.305028,"zip":"0630812"},{"town":"琴似二条三丁目","koaza":"","lat":43.078219,"lng":141.303515,"zip":"0630812"},{"town":"琴似二条四丁目","koaza":"","lat":43.077188,"lng":141.302747,"zip":"0630812"},{"town":"琴似二条五丁目","koaza":"","lat":43.07624,"lng":141.301709,"zip":"0630812"},{"town":"琴似二条六丁目","koaza":"","lat":43.075424,"lng":141.300804,"zip":"0630812"},{"town":"琴似二条七丁目","koaza":"","lat":43.074317,"lng":141.299575,"zip":"0630812"},{"town":"琴似三条一丁目","koaza":"","lat":43.081891,"lng":141.305341,"zip":"0630813"},{"town":"琴似三条二丁目","koaza":"","lat":43.080448,"lng":141.303469,"zip":"0630813"},{"town":"琴似三条三丁目","koaza":"","lat":43.079369,"lng":141.301799,"zip":"0630813"},{"town":"琴似三条四丁目","koaza":"","lat":43.078372,"lng":141.300726,"zip":"0630813"},{"town":"琴似三条五丁目","koaza":"","lat":43.077286,"lng":141.29995,"zip":"0630813"},{"town":"琴似三条六丁目","koaza":"","lat":43.076379,"lng":141.299383,"zip":"0630813"},{"town":"琴似三条七丁目","koaza":"","lat":43.07516,"lng":141.297587,"zip":"0630813"},{"town":"琴似四条一丁目","koaza":"","lat":43.083079,"lng":141.303169,"zip":"0630814"},{"town":"琴似四条二丁目","koaza":"","lat":43.081581,"lng":141.301899,"zip":"0630814"},{"town":"琴似四条三丁目","koaza":"","lat":43.080526,"lng":141.300357,"zip":"0630814"},{"town":"琴似四条四丁目","koaza":"","lat":43.079463,"lng":141.29891,"zip":"0630814"},{"town":"琴似四条五丁目","koaza":"","lat":43.077737,"lng":141.298161,"zip":"0630814"},{"town":"琴似四条六丁目","koaza":"","lat":43.077217,"lng":141.296733,"zip":"0630814"},{"town":"琴似四条七丁目","koaza":"","lat":43.07616,"lng":141.294938,"zip":"0630814"},{"town":"小別沢","koaza":"","lat":43.05319,"lng":141.2779,"zip":"0630011"},{"town":"西野","koaza":"","lat":43.075639,"lng":141.23988,"zip":"0630049"},{"town":"西野十条六丁目","koaza":"","lat":43.062271,"lng":141.260498,"zip":"0630040"},{"town":"西野十条七丁目","koaza":"","lat":43.062604,"lng":141.257785,"zip":"0630040"},{"town":"西野十条八丁目","koaza":"","lat":43.063808,"lng":141.25577,"zip":"0630040"},{"town":"西野十条九丁目","koaza":"","lat":43.065258,"lng":141.253719,"zip":"0630040"},{"town":"西野十一条七丁目","koaza":"","lat":43.061201,"lng":141.255874,"zip":"0630041"},{"town":"西野十一条八丁目","koaza":"","lat":43.061324,"lng":141.252575,"zip":"0630041"},{"town":"西野十一条九丁目","koaza":"","lat":43.063224,"lng":141.250694,"zip":"0630041"},{"town":"西野十二条八丁目","koaza":"","lat":43.061291,"lng":141.24872,"zip":"0630042"},{"town":"西野十三条八丁目","koaza":"","lat":43.060551,"lng":141.247277,"zip":"0630043"},{"town":"西野十四条八丁目","koaza":"","lat":43.059519,"lng":141.246678,"zip":"0630044"},{"town":"西野一条一丁目","koaza":"","lat":43.074979,"lng":141.287979,"zip":"0630031"},{"town":"西野一条二丁目","koaza":"","lat":43.076198,"lng":141.285959,"zip":"0630031"},{"town":"西野一条三丁目","koaza":"","lat":43.07727,"lng":141.284105,"zip":"0630031"},{"town":"西野一条四丁目","koaza":"","lat":43.078155,"lng":141.282579,"zip":"0630031"},{"town":"西野一条五丁目","koaza":"","lat":43.07929,"lng":141.281035,"zip":"0630031"},{"town":"西野一条六丁目","koaza":"","lat":43.080363,"lng":141.278858,"zip":"0630031"},{"town":"西野一条七丁目","koaza":"","lat":43.081651,"lng":141.277153,"zip":"0630031"},{"town":"西野一条八丁目","koaza":"","lat":43.082571,"lng":141.275386,"zip":"0630031"},{"town":"西野一条九丁目","koaza":"","lat":43.083727,"lng":141.273345,"zip":"0630031"},{"town":"西野二条十丁目","koaza":"","lat":43.082938,"lng":141.269523,"zip":"0630032"},{"town":"西野二条一丁目","koaza":"","lat":43.07391,"lng":141.285937,"zip":"0630032"},{"town":"西野二条二丁目","koaza":"","lat":43.074912,"lng":141.284531,"zip":"0630032"},{"town":"西野二条三丁目","koaza":"","lat":43.075968,"lng":141.282691,"zip":"0630032"},{"town":"西野二条四丁目","koaza":"","lat":43.076928,"lng":141.281253,"zip":"0630032"},{"town":"西野二条五丁目","koaza":"","lat":43.07796,"lng":141.279553,"zip":"0630032"},{"town":"西野二条七丁目","koaza":"","lat":43.080229,"lng":141.275568,"zip":"0630032"},{"town":"西野二条八丁目","koaza":"","lat":43.081284,"lng":141.273924,"zip":"0630032"},{"town":"西野二条九丁目","koaza":"","lat":43.082405,"lng":141.271686,"zip":"0630032"},{"town":"西野三条十丁目","koaza":"","lat":43.081492,"lng":141.268742,"zip":"0630033"},{"town":"西野三条一丁目","koaza":"","lat":43.072521,"lng":141.283304,"zip":"0630033"},{"town":"西野三条二丁目","koaza":"","lat":43.073479,"lng":141.282957,"zip":"0630033"},{"town":"西野三条三丁目","koaza":"","lat":43.074331,"lng":141.280922,"zip":"0630033"},{"town":"西野三条四丁目","koaza":"","lat":43.075388,"lng":141.279094,"zip":"0630033"},{"town":"西野三条五丁目","koaza":"","lat":43.076438,"lng":141.277431,"zip":"0630033"},{"town":"西野三条六丁目","koaza":"","lat":43.07739,"lng":141.275226,"zip":"0630033"},{"town":"西野三条七丁目","koaza":"","lat":43.078612,"lng":141.273795,"zip":"0630033"},{"town":"西野三条八丁目","koaza":"","lat":43.079579,"lng":141.272125,"zip":"0630033"},{"town":"西野三条九丁目","koaza":"","lat":43.080467,"lng":141.2705,"zip":"0630033"},{"town":"西野四条十丁目","koaza":"","lat":43.079707,"lng":141.263972,"zip":"0630034"},{"town":"西野四条一丁目","koaza":"","lat":43.070185,"lng":141.281871,"zip":"0630034"},{"town":"西野四条二丁目","koaza":"","lat":43.071071,"lng":141.28008,"zip":"0630034"},{"town":"西野四条三丁目","koaza":"","lat":43.072146,"lng":141.278443,"zip":"0630034"},{"town":"西野四条四丁目","koaza":"","lat":43.073175,"lng":141.276491,"zip":"0630034"},{"town":"西野四条五丁目","koaza":"","lat":43.074118,"lng":141.274927,"zip":"0630034"},{"town":"西野四条六丁目","koaza":"","lat":43.075289,"lng":141.273251,"zip":"0630034"},{"town":"西野四条七丁目","koaza":"","lat":43.076684,"lng":141.270769,"zip":"0630034"},{"town":"西野四条八丁目","koaza":"","lat":43.077556,"lng":141.269125,"zip":"0630034"},{"town":"西野四条九丁目","koaza":"","lat":43.078698,"lng":141.267622,"zip":"0630034"},{"town":"西野五条十丁目","koaza":"","lat":43.075946,"lng":141.264012,"zip":"0630035"},{"town":"西野五条一丁目","koaza":"","lat":43.067455,"lng":141.27918,"zip":"0630035"},{"town":"西野五条二丁目","koaza":"","lat":43.068682,"lng":141.277524,"zip":"0630035"},{"town":"西野五条三丁目","koaza":"","lat":43.069728,"lng":141.275947,"zip":"0630035"},{"town":"西野五条四丁目","koaza":"","lat":43.070882,"lng":141.274162,"zip":"0630035"},{"town":"西野五条五丁目","koaza":"","lat":43.07175,"lng":141.272044,"zip":"0630035"},{"town":"西野五条六丁目","koaza":"","lat":43.073017,"lng":141.270646,"zip":"0630035"},{"town":"西野五条七丁目","koaza":"","lat":43.073893,"lng":141.26855,"zip":"0630035"},{"town":"西野五条八丁目","koaza":"","lat":43.075194,"lng":141.266902,"zip":"0630035"},{"town":"西野五条九丁目","koaza":"","lat":43.0761,"lng":141.265789,"zip":"0630035"},{"town":"西野六条十丁目","koaza":"","lat":43.074807,"lng":141.261872,"zip":"0630036"},{"town":"西野六条一丁目","koaza":"","lat":43.06564,"lng":141.27845,"zip":"0630036"},{"town":"西野六条二丁目","koaza":"","lat":43.066731,"lng":141.275692,"zip":"0630036"},{"town":"西野六条三丁目","koaza":"","lat":43.067812,"lng":141.272999,"zip":"0630036"},{"town":"西野六条四丁目","koaza":"","lat":43.068636,"lng":141.27136,"zip":"0630036"},{"town":"西野六条五丁目","koaza":"","lat":43.069628,"lng":141.270608,"zip":"0630036"},{"town":"西野六条六丁目","koaza":"","lat":43.07062,"lng":141.268802,"zip":"0630036"},{"town":"西野六条七丁目","koaza":"","lat":43.071648,"lng":141.267293,"zip":"0630036"},{"town":"西野六条八丁目","koaza":"","lat":43.072673,"lng":141.265764,"zip":"0630036"},{"town":"西野六条九丁目","koaza":"","lat":43.073835,"lng":141.264472,"zip":"0630036"},{"town":"西野七条十丁目","koaza":"","lat":43.072803,"lng":141.259009,"zip":"0630037"},{"town":"西野七条一丁目","koaza":"","lat":43.0639,"lng":141.277153,"zip":"0630037"},{"town":"西野七条二丁目","koaza":"","lat":43.065172,"lng":141.274824,"zip":"0630037"},{"town":"西野七条三丁目","koaza":"","lat":43.06577,"lng":141.272439,"zip":"0630037"},{"town":"西野七条四丁目","koaza":"","lat":43.066086,"lng":141.269645,"zip":"0630037"},{"town":"西野七条五丁目","koaza":"","lat":43.06707,"lng":141.268013,"zip":"0630037"},{"town":"西野七条六丁目","koaza":"","lat":43.068459,"lng":141.267028,"zip":"0630037"},{"town":"西野七条七丁目","koaza":"","lat":43.06933,"lng":141.264971,"zip":"0630037"},{"town":"西野七条八丁目","koaza":"","lat":43.070898,"lng":141.264241,"zip":"0630037"},{"town":"西野七条九丁目","koaza":"","lat":43.071907,"lng":141.262168,"zip":"0630037"},{"town":"西野八条十丁目","koaza":"","lat":43.070739,"lng":141.258453,"zip":"0630038"},{"town":"西野八条一丁目","koaza":"","lat":43.061635,"lng":141.276441,"zip":"0630038"},{"town":"西野八条二丁目","koaza":"","lat":43.062161,"lng":141.274058,"zip":"0630038"},{"town":"西野八条三丁目","koaza":"","lat":43.061948,"lng":141.270795,"zip":"0630038"},{"town":"西野八条四丁目","koaza":"","lat":43.064114,"lng":141.270439,"zip":"0630038"},{"town":"西野八条五丁目","koaza":"","lat":43.065181,"lng":141.26609,"zip":"0630038"},{"town":"西野八条六丁目","koaza":"","lat":43.066384,"lng":141.263966,"zip":"0630038"},{"town":"西野八条七丁目","koaza":"","lat":43.067058,"lng":141.26245,"zip":"0630038"},{"town":"西野八条八丁目","koaza":"","lat":43.068639,"lng":141.262142,"zip":"0630038"},{"town":"西野八条九丁目","koaza":"","lat":43.069611,"lng":141.26014,"zip":"0630038"},{"town":"西野九条三丁目","koaza":"","lat":43.061381,"lng":141.267177,"zip":"0630039"},{"town":"西野九条四丁目","koaza":"","lat":43.062606,"lng":141.266517,"zip":"0630039"},{"town":"西野九条五丁目","koaza":"","lat":43.063437,"lng":141.263965,"zip":"0630039"},{"town":"西野九条六丁目","koaza":"","lat":43.064212,"lng":141.261568,"zip":"0630039"},{"town":"西野九条七丁目","koaza":"","lat":43.065187,"lng":141.260777,"zip":"0630039"},{"town":"西野九条八丁目","koaza":"","lat":43.066267,"lng":141.258921,"zip":"0630039"},{"town":"西野九条九丁目","koaza":"","lat":43.066916,"lng":141.256259,"zip":"0630039"},{"town":"西町北十丁目","koaza":"","lat":43.081974,"lng":141.286647,"zip":"0630061"},{"town":"西町北十一丁目","koaza":"","lat":43.082364,"lng":141.286166,"zip":"0630061"},{"town":"西町北十二丁目","koaza":"","lat":43.082733,"lng":141.285425,"zip":"0630061"},{"town":"西町北十三丁目","koaza":"","lat":43.083397,"lng":141.284614,"zip":"0630061"},{"town":"西町北十四丁目","koaza":"","lat":43.0838,"lng":141.283596,"zip":"0630061"},{"town":"西町北十五丁目","koaza":"","lat":43.084522,"lng":141.28262,"zip":"0630061"},{"town":"西町北十六丁目","koaza":"","lat":43.085097,"lng":141.281192,"zip":"0630061"},{"town":"西町北十七丁目","koaza":"","lat":43.085798,"lng":141.280094,"zip":"0630061"},{"town":"西町北十八丁目","koaza":"","lat":43.086879,"lng":141.279157,"zip":"0630061"},{"town":"西町北十九丁目","koaza":"","lat":43.087369,"lng":141.277203,"zip":"0630061"},{"town":"西町北一丁目","koaza":"","lat":43.077672,"lng":141.29471,"zip":"0630061"},{"town":"西町北二十丁目","koaza":"","lat":43.087953,"lng":141.276246,"zip":"0630061"},{"town":"西町北二丁目","koaza":"","lat":43.078144,"lng":141.293086,"zip":"0630061"},{"town":"西町北三丁目","koaza":"","lat":43.078651,"lng":141.292397,"zip":"0630061"},{"town":"西町北四丁目","koaza":"","lat":43.079068,"lng":141.291794,"zip":"0630061"},{"town":"西町北五丁目","koaza":"","lat":43.079426,"lng":141.291084,"zip":"0630061"},{"town":"西町北六丁目","koaza":"","lat":43.079928,"lng":141.290311,"zip":"0630061"},{"town":"西町北七丁目","koaza":"","lat":43.08043,"lng":141.289277,"zip":"0630061"},{"town":"西町北八丁目","koaza":"","lat":43.081037,"lng":141.288352,"zip":"0630061"},{"town":"西町北九丁目","koaza":"","lat":43.081355,"lng":141.287222,"zip":"0630061"},{"town":"西町南十丁目","koaza":"","lat":43.080021,"lng":141.284888,"zip":"0630062"},{"town":"西町南十一丁目","koaza":"","lat":43.08039,"lng":141.283693,"zip":"0630062"},{"town":"西町南十二丁目","koaza":"","lat":43.081128,"lng":141.282446,"zip":"0630062"},{"town":"西町南十三丁目","koaza":"","lat":43.081906,"lng":141.281248,"zip":"0630062"},{"town":"西町南十四丁目","koaza":"","lat":43.082433,"lng":141.280254,"zip":"0630062"},{"town":"西町南十五丁目","koaza":"","lat":43.082929,"lng":141.279583,"zip":"0630062"},{"town":"西町南十六丁目","koaza":"","lat":43.083525,"lng":141.278987,"zip":"0630062"},{"town":"西町南十七丁目","koaza":"","lat":43.083766,"lng":141.277949,"zip":"0630062"},{"town":"西町南十八丁目","koaza":"","lat":43.084538,"lng":141.27731,"zip":"0630062"},{"town":"西町南十九丁目","koaza":"","lat":43.084913,"lng":141.275972,"zip":"0630062"},{"town":"西町南一丁目","koaza":"","lat":43.075851,"lng":141.29172,"zip":"0630062"},{"town":"西町南二十丁目","koaza":"","lat":43.085447,"lng":141.275151,"zip":"0630062"},{"town":"西町南二十一丁目","koaza":"","lat":43.086063,"lng":141.274249,"zip":"0630062"},{"town":"西町南二丁目","koaza":"","lat":43.076286,"lng":141.290689,"zip":"0630062"},{"town":"西町南三丁目","koaza":"","lat":43.076619,"lng":141.290051,"zip":"0630062"},{"town":"西町南四丁目","koaza":"","lat":43.077166,"lng":141.289818,"zip":"0630062"},{"town":"西町南五丁目","koaza":"","lat":43.077126,"lng":141.288947,"zip":"0630062"},{"town":"西町南六丁目","koaza":"","lat":43.077834,"lng":141.288446,"zip":"0630062"},{"town":"西町南七丁目","koaza":"","lat":43.078201,"lng":141.286967,"zip":"0630062"},{"town":"西町南八丁目","koaza":"","lat":43.078891,"lng":141.28621,"zip":"0630062"},{"town":"西町南九丁目","koaza":"","lat":43.079412,"lng":141.285329,"zip":"0630062"},{"town":"二十四軒一条一丁目","koaza":"","lat":43.073824,"lng":141.318126,"zip":"0630801"},{"town":"二十四軒一条二丁目","koaza":"","lat":43.072374,"lng":141.31674,"zip":"0630801"},{"town":"二十四軒一条三丁目","koaza":"","lat":43.071009,"lng":141.316589,"zip":"0630801"},{"town":"二十四軒一条四丁目","koaza":"","lat":43.070528,"lng":141.315107,"zip":"0630801"},{"town":"二十四軒一条五丁目","koaza":"","lat":43.068989,"lng":141.315114,"zip":"0630801"},{"town":"二十四軒一条六丁目","koaza":"","lat":43.067609,"lng":141.313444,"zip":"0630801"},{"town":"二十四軒一条七丁目","koaza":"","lat":43.066263,"lng":141.312624,"zip":"0630801"},{"town":"二十四軒二条一丁目","koaza":"","lat":43.075629,"lng":141.317048,"zip":"0630802"},{"town":"二十四軒二条二丁目","koaza":"","lat":43.074273,"lng":141.315099,"zip":"0630802"},{"town":"二十四軒二条三丁目","koaza":"","lat":43.073272,"lng":141.313893,"zip":"0630802"},{"town":"二十四軒二条四丁目","koaza":"","lat":43.072118,"lng":141.312495,"zip":"0630802"},{"town":"二十四軒二条五丁目","koaza":"","lat":43.070636,"lng":141.312103,"zip":"0630802"},{"town":"二十四軒二条六丁目","koaza":"","lat":43.06927,"lng":141.31123,"zip":"0630802"},{"town":"二十四軒二条七丁目","koaza":"","lat":43.068042,"lng":141.309806,"zip":"0630802"},{"town":"二十四軒三条一丁目","koaza":"","lat":43.076958,"lng":141.314184,"zip":"0630803"},{"town":"二十四軒三条二丁目","koaza":"","lat":43.075422,"lng":141.312279,"zip":"0630803"},{"town":"二十四軒三条三丁目","koaza":"","lat":43.074372,"lng":141.311194,"zip":"0630803"},{"town":"二十四軒三条四丁目","koaza":"","lat":43.073076,"lng":141.310121,"zip":"0630803"},{"town":"二十四軒三条五丁目","koaza":"","lat":43.071896,"lng":141.308604,"zip":"0630803"},{"town":"二十四軒三条六丁目","koaza":"","lat":43.070453,"lng":141.308951,"zip":"0630803"},{"town":"二十四軒三条七丁目","koaza":"","lat":43.069472,"lng":141.307501,"zip":"0630803"},{"town":"二十四軒四条一丁目","koaza":"","lat":43.078297,"lng":141.31148,"zip":"0630804"},{"town":"二十四軒四条二丁目","koaza":"","lat":43.076933,"lng":141.310078,"zip":"0630804"},{"town":"二十四軒四条三丁目","koaza":"","lat":43.07608,"lng":141.308297,"zip":"0630804"},{"town":"二十四軒四条四丁目","koaza":"","lat":43.075057,"lng":141.307164,"zip":"0630804"},{"town":"二十四軒四条五丁目","koaza":"","lat":43.073333,"lng":141.305949,"zip":"0630804"},{"town":"二十四軒四条六丁目","koaza":"","lat":43.072261,"lng":141.304471,"zip":"0630804"},{"town":"二十四軒四条七丁目","koaza":"","lat":43.071506,"lng":141.303435,"zip":"0630804"},{"town":"八軒十条西十丁目","koaza":"","lat":43.099555,"lng":141.307469,"zip":"0630850"},{"town":"八軒十条西十一丁目","koaza":"","lat":43.100602,"lng":141.306571,"zip":"0630850"},{"town":"八軒十条西十二丁目","koaza":"","lat":43.101532,"lng":141.304543,"zip":"0630850"},{"town":"八軒十条西十三丁目","koaza":"","lat":43.104662,"lng":141.301227,"zip":"0630850"},{"town":"八軒十条西一丁目","koaza":"","lat":43.09207,"lng":141.318777,"zip":"0630850"},{"town":"八軒十条西二丁目","koaza":"","lat":43.093093,"lng":141.317257,"zip":"0630850"},{"town":"八軒十条西三丁目","koaza":"","lat":43.09412,"lng":141.315972,"zip":"0630850"},{"town":"八軒十条西四丁目","koaza":"","lat":43.095068,"lng":141.314686,"zip":"0630850"},{"town":"八軒十条西五丁目","koaza":"","lat":43.095869,"lng":141.313218,"zip":"0630850"},{"town":"八軒十条西六丁目","koaza":"","lat":43.096598,"lng":141.312065,"zip":"0630850"},{"town":"八軒十条西九丁目","koaza":"","lat":43.099203,"lng":141.308621,"zip":"0630850"},{"town":"八軒十条東一丁目","koaza":"","lat":43.090833,"lng":141.320296,"zip":"0630870"},{"town":"八軒十条東二丁目","koaza":"","lat":43.089528,"lng":141.322227,"zip":"0630870"},{"town":"八軒十条東三丁目","koaza":"","lat":43.088241,"lng":141.323954,"zip":"0630870"},{"town":"八軒十条東四丁目","koaza":"","lat":43.087405,"lng":141.325659,"zip":"0630870"},{"town":"八軒十条東五丁目","koaza":"","lat":43.086151,"lng":141.327054,"zip":"0630870"},{"town":"八軒一条西一丁目","koaza":"","lat":43.082029,"lng":141.308405,"zip":"0630841"},{"town":"八軒一条西二丁目","koaza":"","lat":43.083056,"lng":141.307395,"zip":"0630841"},{"town":"八軒一条西三丁目","koaza":"","lat":43.083795,"lng":141.30591,"zip":"0630841"},{"town":"八軒一条西四丁目","koaza":"","lat":43.08455,"lng":141.304136,"zip":"0630841"},{"town":"八軒一条東一丁目","koaza":"","lat":43.081241,"lng":141.310337,"zip":"0630861"},{"town":"八軒一条東二丁目","koaza":"","lat":43.080579,"lng":141.312586,"zip":"0630861"},{"town":"八軒一条東三丁目","koaza":"","lat":43.079259,"lng":141.313722,"zip":"0630861"},{"town":"八軒一条東四丁目","koaza":"","lat":43.078581,"lng":141.315937,"zip":"0630861"},{"town":"八軒一条東五丁目","koaza":"","lat":43.077151,"lng":141.318913,"zip":"0630861"},{"town":"八軒二条西一丁目","koaza":"","lat":43.083435,"lng":141.310471,"zip":"0630842"},{"town":"八軒二条西二丁目","koaza":"","lat":43.084164,"lng":141.309264,"zip":"0630842"},{"town":"八軒二条西三丁目","koaza":"","lat":43.084905,"lng":141.307386,"zip":"0630842"},{"town":"八軒二条西四丁目","koaza":"","lat":43.085673,"lng":141.305258,"zip":"0630842"},{"town":"八軒二条東一丁目","koaza":"","lat":43.082469,"lng":141.31208,"zip":"0630862"},{"town":"八軒二条東二丁目","koaza":"","lat":43.081873,"lng":141.313982,"zip":"0630862"},{"town":"八軒二条東三丁目","koaza":"","lat":43.08051,"lng":141.315086,"zip":"0630862"},{"town":"八軒二条東四丁目","koaza":"","lat":43.079472,"lng":141.316789,"zip":"0630862"},{"town":"八軒二条東五丁目","koaza":"","lat":43.079053,"lng":141.31933,"zip":"0630862"},{"town":"八軒三条西一丁目","koaza":"","lat":43.084854,"lng":141.311496,"zip":"0630843"},{"town":"八軒三条西二丁目","koaza":"","lat":43.08585,"lng":141.309911,"zip":"0630843"},{"town":"八軒三条西三丁目","koaza":"","lat":43.086508,"lng":141.308014,"zip":"0630843"},{"town":"八軒三条西四丁目","koaza":"","lat":43.087367,"lng":141.306192,"zip":"0630843"},{"town":"八軒三条西五丁目","koaza":"","lat":43.0886,"lng":141.305085,"zip":"0630843"},{"town":"八軒三条東一丁目","koaza":"","lat":43.083945,"lng":141.313184,"zip":"0630863"},{"town":"八軒三条東二丁目","koaza":"","lat":43.082769,"lng":141.314934,"zip":"0630863"},{"town":"八軒三条東三丁目","koaza":"","lat":43.081471,"lng":141.316595,"zip":"0630863"},{"town":"八軒三条東四丁目","koaza":"","lat":43.080442,"lng":141.318257,"zip":"0630863"},{"town":"八軒三条東五丁目","koaza":"","lat":43.078902,"lng":141.321268,"zip":"0630863"},{"town":"八軒四条西一丁目","koaza":"","lat":43.085946,"lng":141.312346,"zip":"0630844"},{"town":"八軒四条西二丁目","koaza":"","lat":43.086905,"lng":141.310719,"zip":"0630844"},{"town":"八軒四条西三丁目","koaza":"","lat":43.08769,"lng":141.309729,"zip":"0630844"},{"town":"八軒四条西四丁目","koaza":"","lat":43.08856,"lng":141.308171,"zip":"0630844"},{"town":"八軒四条西五丁目","koaza":"","lat":43.089906,"lng":141.305773,"zip":"0630844"},{"town":"八軒四条西六丁目","koaza":"","lat":43.088407,"lng":141.303384,"zip":"0630844"},{"town":"八軒四条東一丁目","koaza":"","lat":43.084771,"lng":141.314115,"zip":"0630864"},{"town":"八軒四条東二丁目","koaza":"","lat":43.083672,"lng":141.316217,"zip":"0630864"},{"town":"八軒四条東三丁目","koaza":"","lat":43.0826,"lng":141.317638,"zip":"0630864"},{"town":"八軒四条東四丁目","koaza":"","lat":43.0815,"lng":141.319366,"zip":"0630864"},{"town":"八軒四条東五丁目","koaza":"","lat":43.080999,"lng":141.321792,"zip":"0630864"},{"town":"八軒五条西十丁目","koaza":"","lat":43.094193,"lng":141.30046,"zip":"0630845"},{"town":"八軒五条西十一丁目","koaza":"","lat":43.09557,"lng":141.298775,"zip":"0630845"},{"town":"八軒五条西一丁目","koaza":"","lat":43.086898,"lng":141.313468,"zip":"0630845"},{"town":"八軒五条西二丁目","koaza":"","lat":43.087866,"lng":141.311839,"zip":"0630845"},{"town":"八軒五条西三丁目","koaza":"","lat":43.08875,"lng":141.31091,"zip":"0630845"},{"town":"八軒五条西四丁目","koaza":"","lat":43.089667,"lng":141.308882,"zip":"0630845"},{"town":"八軒五条西五丁目","koaza":"","lat":43.090957,"lng":141.307122,"zip":"0630845"},{"town":"八軒五条西六丁目","koaza":"","lat":43.091534,"lng":141.305063,"zip":"0630845"},{"town":"八軒五条西八丁目","koaza":"","lat":43.09259,"lng":141.303431,"zip":"0630845"},{"town":"八軒五条西九丁目","koaza":"","lat":43.093176,"lng":141.301897,"zip":"0630845"},{"town":"八軒五条東一丁目","koaza":"","lat":43.085831,"lng":141.315285,"zip":"0630865"},{"town":"八軒五条東二丁目","koaza":"","lat":43.084767,"lng":141.317015,"zip":"0630865"},{"town":"八軒五条東三丁目","koaza":"","lat":43.08355,"lng":141.31849,"zip":"0630865"},{"town":"八軒五条東四丁目","koaza":"","lat":43.082644,"lng":141.320957,"zip":"0630865"},{"town":"八軒五条東五丁目","koaza":"","lat":43.081797,"lng":141.322627,"zip":"0630865"},{"town":"八軒六条西十丁目","koaza":"","lat":43.095612,"lng":141.30172,"zip":"0630846"},{"town":"八軒六条西十一丁目","koaza":"","lat":43.09684,"lng":141.299579,"zip":"0630846"},{"town":"八軒六条西一丁目","koaza":"","lat":43.088217,"lng":141.314505,"zip":"0630846"},{"town":"八軒六条西二丁目","koaza":"","lat":43.089276,"lng":141.312863,"zip":"0630846"},{"town":"八軒六条西三丁目","koaza":"","lat":43.089755,"lng":141.311407,"zip":"0630846"},{"town":"八軒六条西四丁目","koaza":"","lat":43.090714,"lng":141.309994,"zip":"0630846"},{"town":"八軒六条西五丁目","koaza":"","lat":43.09132,"lng":141.308753,"zip":"0630846"},{"town":"八軒六条西六丁目","koaza":"","lat":43.092166,"lng":141.307595,"zip":"0630846"},{"town":"八軒六条西七丁目","koaza":"","lat":43.093214,"lng":141.305844,"zip":"0630846"},{"town":"八軒六条西八丁目","koaza":"","lat":43.093976,"lng":141.304544,"zip":"0630846"},{"town":"八軒六条西九丁目","koaza":"","lat":43.094675,"lng":141.303632,"zip":"0630846"},{"town":"八軒六条東一丁目","koaza":"","lat":43.086875,"lng":141.316433,"zip":"0630866"},{"town":"八軒六条東二丁目","koaza":"","lat":43.085574,"lng":141.318413,"zip":"0630866"},{"town":"八軒六条東三丁目","koaza":"","lat":43.084841,"lng":141.320616,"zip":"0630866"},{"town":"八軒六条東四丁目","koaza":"","lat":43.083721,"lng":141.322208,"zip":"0630866"},{"town":"八軒六条東五丁目","koaza":"","lat":43.082723,"lng":141.32388,"zip":"0630866"},{"town":"八軒七条西十丁目","koaza":"","lat":43.096433,"lng":141.302899,"zip":"0630847"},{"town":"八軒七条西十一丁目","koaza":"","lat":43.097974,"lng":141.301054,"zip":"0630847"},{"town":"八軒七条西一丁目","koaza":"","lat":43.089192,"lng":141.315545,"zip":"0630847"},{"town":"八軒七条西二丁目","koaza":"","lat":43.090301,"lng":141.313844,"zip":"0630847"},{"town":"八軒七条西三丁目","koaza":"","lat":43.090778,"lng":141.312377,"zip":"0630847"},{"town":"八軒七条西四丁目","koaza":"","lat":43.091567,"lng":141.311045,"zip":"0630847"},{"town":"八軒七条西五丁目","koaza":"","lat":43.092445,"lng":141.309909,"zip":"0630847"},{"town":"八軒七条西六丁目","koaza":"","lat":43.093087,"lng":141.308483,"zip":"0630847"},{"town":"八軒七条西七丁目","koaza":"","lat":43.094055,"lng":141.306853,"zip":"0630847"},{"town":"八軒七条西八丁目","koaza":"","lat":43.094786,"lng":141.305262,"zip":"0630847"},{"town":"八軒七条西九丁目","koaza":"","lat":43.095512,"lng":141.30472,"zip":"0630847"},{"town":"八軒七条東一丁目","koaza":"","lat":43.08739,"lng":141.317715,"zip":"0630867"},{"town":"八軒七条東二丁目","koaza":"","lat":43.087123,"lng":141.319598,"zip":"0630867"},{"town":"八軒七条東三丁目","koaza":"","lat":43.085854,"lng":141.321418,"zip":"0630867"},{"town":"八軒七条東四丁目","koaza":"","lat":43.084743,"lng":141.323318,"zip":"0630867"},{"town":"八軒七条東五丁目","koaza":"","lat":43.083527,"lng":141.325418,"zip":"0630867"},{"town":"八軒八条西十丁目","koaza":"","lat":43.097342,"lng":141.303759,"zip":"0630848"},{"town":"八軒八条西一丁目","koaza":"","lat":43.089788,"lng":141.316658,"zip":"0630848"},{"town":"八軒八条西二丁目","koaza":"","lat":43.090778,"lng":141.31491,"zip":"0630848"},{"town":"八軒八条西三丁目","koaza":"","lat":43.091611,"lng":141.313585,"zip":"0630848"},{"town":"八軒八条西四丁目","koaza":"","lat":43.092547,"lng":141.311816,"zip":"0630848"},{"town":"八軒八条西五丁目","koaza":"","lat":43.093375,"lng":141.310989,"zip":"0630848"},{"town":"八軒八条西六丁目","koaza":"","lat":43.093973,"lng":141.309471,"zip":"0630848"},{"town":"八軒八条西七丁目","koaza":"","lat":43.094819,"lng":141.308169,"zip":"0630848"},{"town":"八軒八条西八丁目","koaza":"","lat":43.095459,"lng":141.306724,"zip":"0630848"},{"town":"八軒八条西九丁目","koaza":"","lat":43.096311,"lng":141.305281,"zip":"0630848"},{"town":"八軒八条東一丁目","koaza":"","lat":43.089268,"lng":141.317995,"zip":"0630868"},{"town":"八軒八条東二丁目","koaza":"","lat":43.088048,"lng":141.319748,"zip":"0630868"},{"town":"八軒八条東三丁目","koaza":"","lat":43.086538,"lng":141.322443,"zip":"0630868"},{"town":"八軒八条東四丁目","koaza":"","lat":43.08555,"lng":141.324127,"zip":"0630868"},{"town":"八軒八条東五丁目","koaza":"","lat":43.08438,"lng":141.326375,"zip":"0630868"},{"town":"八軒九条西十丁目","koaza":"","lat":43.098691,"lng":141.304699,"zip":"0630849"},{"town":"八軒九条西十一丁目","koaza":"","lat":43.099331,"lng":141.302439,"zip":"0630849"},{"town":"八軒九条西一丁目","koaza":"","lat":43.090808,"lng":141.317497,"zip":"0630849"},{"town":"八軒九条西二丁目","koaza":"","lat":43.09188,"lng":141.316019,"zip":"0630849"},{"town":"八軒九条西三丁目","koaza":"","lat":43.092802,"lng":141.314545,"zip":"0630849"},{"town":"八軒九条西四丁目","koaza":"","lat":43.093702,"lng":141.313056,"zip":"0630849"},{"town":"八軒九条西五丁目","koaza":"","lat":43.094434,"lng":141.311838,"zip":"0630849"},{"town":"八軒九条西六丁目","koaza":"","lat":43.095142,"lng":141.310643,"zip":"0630849"},{"town":"八軒九条西七丁目","koaza":"","lat":43.097209,"lng":141.309399,"zip":"0630849"},{"town":"八軒九条西九丁目","koaza":"","lat":43.097578,"lng":141.306835,"zip":"0630849"},{"town":"八軒九条東一丁目","koaza":"","lat":43.089686,"lng":141.319096,"zip":"0630869"},{"town":"八軒九条東二丁目","koaza":"","lat":43.088425,"lng":141.321144,"zip":"0630869"},{"town":"八軒九条東三丁目","koaza":"","lat":43.087316,"lng":141.322836,"zip":"0630869"},{"town":"八軒九条東四丁目","koaza":"","lat":43.086263,"lng":141.324659,"zip":"0630869"},{"town":"八軒九条東五丁目","koaza":"","lat":43.085262,"lng":141.326336,"zip":"0630869"},{"town":"発寒十条十一丁目","koaza":"","lat":43.097279,"lng":141.283339,"zip":"0630830"},{"town":"発寒十条十二丁目","koaza":"","lat":43.099024,"lng":141.280791,"zip":"0630830"},{"town":"発寒十条十三丁目","koaza":"","lat":43.101502,"lng":141.278089,"zip":"0630830"},{"town":"発寒十条十四丁目","koaza":"","lat":43.103478,"lng":141.273641,"zip":"0630830"},{"town":"発寒十条一丁目","koaza":"","lat":43.087028,"lng":141.300617,"zip":"0630830"},{"town":"発寒十条二丁目","koaza":"","lat":43.089196,"lng":141.298477,"zip":"0630830"},{"town":"発寒十条三丁目","koaza":"","lat":43.089826,"lng":141.294943,"zip":"0630830"},{"town":"発寒十条四丁目","koaza":"","lat":43.091711,"lng":141.292146,"zip":"0630830"},{"town":"発寒十条五丁目","koaza":"","lat":43.093291,"lng":141.289221,"zip":"0630830"},{"town":"発寒十条六丁目","koaza":"","lat":43.095201,"lng":141.286092,"zip":"0630830"},{"town":"発寒十一条十一丁目","koaza":"","lat":43.098408,"lng":141.285412,"zip":"0630831"},{"town":"発寒十一条十二丁目","koaza":"","lat":43.100339,"lng":141.282275,"zip":"0630831"},{"town":"発寒十一条十四丁目","koaza":"","lat":43.104522,"lng":141.275913,"zip":"0630831"},{"town":"発寒十一条一丁目","koaza":"","lat":43.091294,"lng":141.299372,"zip":"0630831"},{"town":"発寒十一条二丁目","koaza":"","lat":43.092323,"lng":141.296882,"zip":"0630831"},{"town":"発寒十一条三丁目","koaza":"","lat":43.092362,"lng":141.294875,"zip":"0630831"},{"town":"発寒十一条四丁目","koaza":"","lat":43.094732,"lng":141.291713,"zip":"0630831"},{"town":"発寒十一条五丁目","koaza":"","lat":43.095701,"lng":141.288907,"zip":"0630831"},{"town":"発寒十一条六丁目","koaza":"","lat":43.096844,"lng":141.28721,"zip":"0630831"},{"town":"発寒十二条十一丁目","koaza":"","lat":43.099925,"lng":141.286283,"zip":"0630832"},{"town":"発寒十二条十二丁目","koaza":"","lat":43.10139,"lng":141.283436,"zip":"0630832"},{"town":"発寒十二条十三丁目","koaza":"","lat":43.10342,"lng":141.280156,"zip":"0630832"},{"town":"発寒十二条十四丁目","koaza":"","lat":43.105734,"lng":141.276927,"zip":"0630832"},{"town":"発寒十二条一丁目","koaza":"","lat":43.096003,"lng":141.297839,"zip":"0630832"},{"town":"発寒十二条二丁目","koaza":"","lat":43.095395,"lng":141.296632,"zip":"0630832"},{"town":"発寒十二条三丁目","koaza":"","lat":43.095124,"lng":141.294818,"zip":"0630832"},{"town":"発寒十二条四丁目","koaza":"","lat":43.09623,"lng":141.291983,"zip":"0630832"},{"town":"発寒十二条五丁目","koaza":"","lat":43.097894,"lng":141.288982,"zip":"0630832"},{"town":"発寒十三条十一丁目","koaza":"","lat":43.101333,"lng":141.288296,"zip":"0630833"},{"town":"発寒十三条十二丁目","koaza":"","lat":43.102647,"lng":141.285362,"zip":"0630833"},{"town":"発寒十三条十三丁目","koaza":"","lat":43.105034,"lng":141.282117,"zip":"0630833"},{"town":"発寒十三条十四丁目","koaza":"","lat":43.107286,"lng":141.278818,"zip":"0630833"},{"town":"発寒十三条二丁目","koaza":"","lat":43.097633,"lng":141.296509,"zip":"0630833"},{"town":"発寒十三条三丁目","koaza":"","lat":43.097927,"lng":141.294731,"zip":"0630833"},{"town":"発寒十三条四丁目","koaza":"","lat":43.09941,"lng":141.29194,"zip":"0630833"},{"town":"発寒十三条五丁目","koaza":"","lat":43.099617,"lng":141.289415,"zip":"0630833"},{"town":"発寒十四条十一丁目","koaza":"","lat":43.103004,"lng":141.289284,"zip":"0630834"},{"town":"発寒十四条十二丁目","koaza":"","lat":43.104643,"lng":141.287033,"zip":"0630834"},{"town":"発寒十四条十三丁目","koaza":"","lat":43.106576,"lng":141.283902,"zip":"0630834"},{"town":"発寒十四条十四丁目","koaza":"","lat":43.108748,"lng":141.280401,"zip":"0630834"},{"town":"発寒十四条一丁目","koaza":"","lat":43.098682,"lng":141.299179,"zip":"0630834"},{"town":"発寒十四条二丁目","koaza":"","lat":43.099707,"lng":141.297141,"zip":"0630834"},{"town":"発寒十四条三丁目","koaza":"","lat":43.100142,"lng":141.29475,"zip":"0630834"},{"town":"発寒十四条四丁目","koaza":"","lat":43.101842,"lng":141.292323,"zip":"0630834"},{"town":"発寒十四条五丁目","koaza":"","lat":43.10298,"lng":141.291507,"zip":"0630834"},{"town":"発寒十五条十二丁目","koaza":"","lat":43.106023,"lng":141.288226,"zip":"0630835"},{"town":"発寒十五条十三丁目","koaza":"","lat":43.108199,"lng":141.285709,"zip":"0630835"},{"town":"発寒十五条十四丁目","koaza":"","lat":43.110984,"lng":141.281949,"zip":"0630835"},{"town":"発寒十五条一丁目","koaza":"","lat":43.102568,"lng":141.299662,"zip":"0630835"},{"town":"発寒十五条二丁目","koaza":"","lat":43.103343,"lng":141.297064,"zip":"0630835"},{"town":"発寒十五条三丁目","koaza":"","lat":43.103914,"lng":141.294691,"zip":"0630835"},{"town":"発寒十五条四丁目","koaza":"","lat":43.10552,"lng":141.291852,"zip":"0630835"},{"town":"発寒十六条十二丁目","koaza":"","lat":43.108576,"lng":141.289451,"zip":"0630836"},{"town":"発寒十六条十三丁目","koaza":"","lat":43.111201,"lng":141.288532,"zip":"0630836"},{"town":"発寒十六条十四丁目","koaza":"","lat":43.112731,"lng":141.284797,"zip":"0630836"},{"town":"発寒十六条一丁目","koaza":"","lat":43.106233,"lng":141.297998,"zip":"0630836"},{"town":"発寒十六条二丁目","koaza":"","lat":43.107109,"lng":141.296323,"zip":"0630836"},{"town":"発寒十六条三丁目","koaza":"","lat":43.106853,"lng":141.294395,"zip":"0630836"},{"town":"発寒十六条四丁目","koaza":"","lat":43.108298,"lng":141.29183,"zip":"0630836"},{"town":"発寒十七条十三丁目","koaza":"","lat":43.112322,"lng":141.291103,"zip":"0630837"},{"town":"発寒十七条十四丁目","koaza":"","lat":43.114812,"lng":141.286935,"zip":"0630837"},{"town":"発寒十七条三丁目","koaza":"","lat":43.109737,"lng":141.294592,"zip":"0630837"},{"town":"発寒十七条四丁目","koaza":"","lat":43.110876,"lng":141.292313,"zip":"0630837"},{"town":"発寒一条二丁目","koaza":"","lat":43.080342,"lng":141.29792,"zip":"0630821"},{"town":"発寒一条三丁目","koaza":"","lat":43.079495,"lng":141.296151,"zip":"0630821"},{"town":"発寒一条四丁目","koaza":"","lat":43.079867,"lng":141.293944,"zip":"0630821"},{"town":"発寒二条一丁目","koaza":"","lat":43.081665,"lng":141.299569,"zip":"0630822"},{"town":"発寒二条二丁目","koaza":"","lat":43.081812,"lng":141.297891,"zip":"0630822"},{"town":"発寒二条三丁目","koaza":"","lat":43.081508,"lng":141.295854,"zip":"0630822"},{"town":"発寒二条四丁目","koaza":"","lat":43.081413,"lng":141.293326,"zip":"0630822"},{"town":"発寒二条五丁目","koaza":"","lat":43.081521,"lng":141.291237,"zip":"0630822"},{"town":"発寒三条一丁目","koaza":"","lat":43.083718,"lng":141.300252,"zip":"0630823"},{"town":"発寒三条二丁目","koaza":"","lat":43.083122,"lng":141.297702,"zip":"0630823"},{"town":"発寒三条三丁目","koaza":"","lat":43.08317,"lng":141.295407,"zip":"0630823"},{"town":"発寒三条四丁目","koaza":"","lat":43.083007,"lng":141.293115,"zip":"0630823"},{"town":"発寒三条五丁目","koaza":"","lat":43.082938,"lng":141.290827,"zip":"0630823"},{"town":"発寒三条六丁目","koaza":"","lat":43.083132,"lng":141.288541,"zip":"0630823"},{"town":"発寒四条一丁目","koaza":"","lat":43.085477,"lng":141.299774,"zip":"0630824"},{"town":"発寒四条二丁目","koaza":"","lat":43.08537,"lng":141.297428,"zip":"0630824"},{"town":"発寒四条三丁目","koaza":"","lat":43.085206,"lng":141.295139,"zip":"0630824"},{"town":"発寒四条四丁目","koaza":"","lat":43.085025,"lng":141.292843,"zip":"0630824"},{"town":"発寒四条五丁目","koaza":"","lat":43.084876,"lng":141.290544,"zip":"0630824"},{"town":"発寒四条六丁目","koaza":"","lat":43.084736,"lng":141.288243,"zip":"0630824"},{"town":"発寒四条七丁目","koaza":"","lat":43.084721,"lng":141.286012,"zip":"0630824"},{"town":"発寒五条二丁目","koaza":"","lat":43.08706,"lng":141.297426,"zip":"0630825"},{"town":"発寒五条三丁目","koaza":"","lat":43.087528,"lng":141.294826,"zip":"0630825"},{"town":"発寒五条四丁目","koaza":"","lat":43.087434,"lng":141.292517,"zip":"0630825"},{"town":"発寒五条五丁目","koaza":"","lat":43.087223,"lng":141.290224,"zip":"0630825"},{"town":"発寒五条六丁目","koaza":"","lat":43.087062,"lng":141.287934,"zip":"0630825"},{"town":"発寒五条七丁目","koaza":"","lat":43.08695,"lng":141.285645,"zip":"0630825"},{"town":"発寒五条八丁目","koaza":"","lat":43.086681,"lng":141.282858,"zip":"0630825"},{"town":"発寒六条十丁目","koaza":"","lat":43.091062,"lng":141.277171,"zip":"0630826"},{"town":"発寒六条十一丁目","koaza":"","lat":43.092623,"lng":141.276162,"zip":"0630826"},{"town":"発寒六条十二丁目","koaza":"","lat":43.09366,"lng":141.273776,"zip":"0630826"},{"town":"発寒六条十三丁目","koaza":"","lat":43.095089,"lng":141.271064,"zip":"0630826"},{"town":"発寒六条十四丁目","koaza":"","lat":43.097058,"lng":141.267725,"zip":"0630826"},{"town":"発寒六条三丁目","koaza":"","lat":43.089345,"lng":141.293949,"zip":"0630826"},{"town":"発寒六条四丁目","koaza":"","lat":43.089434,"lng":141.292282,"zip":"0630826"},{"town":"発寒六条五丁目","koaza":"","lat":43.08926,"lng":141.289323,"zip":"0630826"},{"town":"発寒六条七丁目","koaza":"","lat":43.08898,"lng":141.285926,"zip":"0630826"},{"town":"発寒六条八丁目","koaza":"","lat":43.088717,"lng":141.28248,"zip":"0630826"},{"town":"発寒六条九丁目","koaza":"","lat":43.089577,"lng":141.27987,"zip":"0630826"},{"town":"発寒七条十丁目","koaza":"","lat":43.092644,"lng":141.280569,"zip":"0630827"},{"town":"発寒七条十一丁目","koaza":"","lat":43.093378,"lng":141.278516,"zip":"0630827"},{"town":"発寒七条十二丁目","koaza":"","lat":43.094819,"lng":141.275831,"zip":"0630827"},{"town":"発寒七条十三丁目","koaza":"","lat":43.096545,"lng":141.272662,"zip":"0630827"},{"town":"発寒七条十四丁目","koaza":"","lat":43.098668,"lng":141.269594,"zip":"0630827"},{"town":"発寒七条四丁目","koaza":"","lat":43.090884,"lng":141.291395,"zip":"0630827"},{"town":"発寒七条五丁目","koaza":"","lat":43.090585,"lng":141.289142,"zip":"0630827"},{"town":"発寒七条七丁目","koaza":"","lat":43.090363,"lng":141.28575,"zip":"0630827"},{"town":"発寒七条八丁目","koaza":"","lat":43.089919,"lng":141.283246,"zip":"0630827"},{"town":"発寒七条九丁目","koaza":"","lat":43.09134,"lng":141.282048,"zip":"0630827"},{"town":"発寒八条十丁目","koaza":"","lat":43.093519,"lng":141.282186,"zip":"0630828"},{"town":"発寒八条十一丁目","koaza":"","lat":43.094447,"lng":141.280005,"zip":"0630828"},{"town":"発寒八条十二丁目","koaza":"","lat":43.096328,"lng":141.277301,"zip":"0630828"},{"town":"発寒八条十三丁目","koaza":"","lat":43.097793,"lng":141.27438,"zip":"0630828"},{"town":"発寒八条十四丁目","koaza":"","lat":43.100143,"lng":141.270961,"zip":"0630828"},{"town":"発寒八条五丁目","koaza":"","lat":43.092524,"lng":141.288229,"zip":"0630828"},{"town":"発寒八条七丁目","koaza":"","lat":43.092281,"lng":141.286353,"zip":"0630828"},{"town":"発寒八条九丁目","koaza":"","lat":43.092254,"lng":141.283929,"zip":"0630828"},{"town":"発寒九条十丁目","koaza":"","lat":43.09422,"lng":141.28449,"zip":"0630829"},{"town":"発寒九条十一丁目","koaza":"","lat":43.095867,"lng":141.281784,"zip":"0630829"},{"town":"発寒九条十二丁目","koaza":"","lat":43.097678,"lng":141.278827,"zip":"0630829"},{"town":"発寒九条十三丁目","koaza":"","lat":43.099329,"lng":141.276115,"zip":"0630829"},{"town":"発寒九条十四丁目","koaza":"","lat":43.101583,"lng":141.272642,"zip":"0630829"},{"town":"発寒九条九丁目","koaza":"","lat":43.093452,"lng":141.286347,"zip":"0630829"},{"town":"福井","koaza":"","lat":43.04591,"lng":141.250778,"zip":"0630012"},{"town":"福井十丁目","koaza":"","lat":43.048091,"lng":141.262332,"zip":"0630012"},{"town":"福井一丁目","koaza":"","lat":43.058948,"lng":141.274165,"zip":"0630012"},{"town":"福井二丁目","koaza":"","lat":43.059647,"lng":141.267709,"zip":"0630012"},{"town":"福井三丁目","koaza":"","lat":43.055965,"lng":141.27077,"zip":"0630012"},{"town":"福井四丁目","koaza":"","lat":43.057647,"lng":141.266902,"zip":"0630012"},{"town":"福井五丁目","koaza":"","lat":43.053205,"lng":141.269182,"zip":"0630012"},{"town":"福井六丁目","koaza":"","lat":43.054846,"lng":141.266439,"zip":"0630012"},{"town":"福井七丁目","koaza":"","lat":43.050639,"lng":141.266946,"zip":"0630012"},{"town":"福井八丁目","koaza":"","lat":43.051586,"lng":141.263696,"zip":"0630012"},{"town":"福井九丁目","koaza":"","lat":43.04703,"lng":141.263098,"zip":"0630012"},{"town":"平和","koaza":"","lat":43.050008,"lng":141.217416,"zip":"0630029"},{"town":"平和一条十丁目","koaza":"","lat":43.058173,"lng":141.245915,"zip":"0630021"},{"town":"平和一条十一丁目","koaza":"","lat":43.057842,"lng":141.244093,"zip":"0630021"},{"town":"平和一条二丁目","koaza":"","lat":43.060657,"lng":141.26174,"zip":"0630021"},{"town":"平和一条三丁目","koaza":"","lat":43.060394,"lng":141.259706,"zip":"0630021"},{"town":"平和一条四丁目","koaza":"","lat":43.060155,"lng":141.257896,"zip":"0630021"},{"town":"平和一条五丁目","koaza":"","lat":43.059611,"lng":141.255906,"zip":"0630021"},{"town":"平和一条六丁目","koaza":"","lat":43.059505,"lng":141.253677,"zip":"0630021"},{"town":"平和一条七丁目","koaza":"","lat":43.059645,"lng":141.251732,"zip":"0630021"},{"town":"平和一条八丁目","koaza":"","lat":43.059012,"lng":141.249882,"zip":"0630021"},{"town":"平和一条九丁目","koaza":"","lat":43.058375,"lng":141.247831,"zip":"0630021"},{"town":"平和二条十丁目","koaza":"","lat":43.056778,"lng":141.246242,"zip":"0630022"},{"town":"平和二条十一丁目","koaza":"","lat":43.05663,"lng":141.244212,"zip":"0630022"},{"town":"平和二条一丁目","koaza":"","lat":43.060234,"lng":141.263796,"zip":"0630022"},{"town":"平和二条二丁目","koaza":"","lat":43.058491,"lng":141.262262,"zip":"0630022"},{"town":"平和二条三丁目","koaza":"","lat":43.057821,"lng":141.260145,"zip":"0630022"},{"town":"平和二条四丁目","koaza":"","lat":43.057473,"lng":141.258337,"zip":"0630022"},{"town":"平和二条五丁目","koaza":"","lat":43.057171,"lng":141.256303,"zip":"0630022"},{"town":"平和二条六丁目","koaza":"","lat":43.056974,"lng":141.254115,"zip":"0630022"},{"town":"平和二条七丁目","koaza":"","lat":43.056751,"lng":141.252148,"zip":"0630022"},{"town":"平和二条八丁目","koaza":"","lat":43.05669,"lng":141.250248,"zip":"0630022"},{"town":"平和二条九丁目","koaza":"","lat":43.056723,"lng":141.248322,"zip":"0630022"},{"town":"平和三条十丁目","koaza":"","lat":43.054805,"lng":141.246898,"zip":"0630023"},{"town":"平和三条四丁目","koaza":"","lat":43.054541,"lng":141.257999,"zip":"0630023"},{"town":"平和三条五丁目","koaza":"","lat":43.054544,"lng":141.255992,"zip":"0630023"},{"town":"平和三条六丁目","koaza":"","lat":43.053861,"lng":141.254723,"zip":"0630023"},{"town":"平和三条七丁目","koaza":"","lat":43.053462,"lng":141.25277,"zip":"0630023"},{"town":"平和三条八丁目","koaza":"","lat":43.054374,"lng":141.250626,"zip":"0630023"},{"town":"平和三条九丁目","koaza":"","lat":43.054837,"lng":141.248591,"zip":"0630023"},{"town":"宮の沢","koaza":"","lat":43.084091,"lng":141.253823,"zip":"0630059"},{"town":"宮の沢一条一丁目","koaza":"","lat":43.089221,"lng":141.275109,"zip":"0630051"},{"town":"宮の沢一条二丁目","koaza":"","lat":43.089918,"lng":141.272205,"zip":"0630051"},{"town":"宮の沢一条三丁目","koaza":"","lat":43.091772,"lng":141.272097,"zip":"0630051"},{"town":"宮の沢一条四丁目","koaza":"","lat":43.092918,"lng":141.268657,"zip":"0630051"},{"town":"宮の沢一条五丁目","koaza":"","lat":43.09489,"lng":141.265235,"zip":"0630051"},{"town":"宮の沢二条一丁目","koaza":"","lat":43.085922,"lng":141.271811,"zip":"0630052"},{"town":"宮の沢二条二丁目","koaza":"","lat":43.087401,"lng":141.270545,"zip":"0630052"},{"town":"宮の沢二条三丁目","koaza":"","lat":43.088742,"lng":141.268627,"zip":"0630052"},{"town":"宮の沢二条四丁目","koaza":"","lat":43.091708,"lng":141.265875,"zip":"0630052"},{"town":"宮の沢二条五丁目","koaza":"","lat":43.092115,"lng":141.263306,"zip":"0630052"},{"town":"宮の沢三条二丁目","koaza":"","lat":43.085478,"lng":141.267564,"zip":"0630053"},{"town":"宮の沢三条三丁目","koaza":"","lat":43.086043,"lng":141.265026,"zip":"0630053"},{"town":"宮の沢三条四丁目","koaza":"","lat":43.087714,"lng":141.264057,"zip":"0630053"},{"town":"宮の沢三条五丁目","koaza":"","lat":43.089656,"lng":141.262898,"zip":"0630053"},{"town":"宮の沢四条三丁目","koaza":"","lat":43.083446,"lng":141.260222,"zip":"0630054"},{"town":"宮の沢四条四丁目","koaza":"","lat":43.086142,"lng":141.260649,"zip":"0630054"},{"town":"宮の沢四条五丁目","koaza":"","lat":43.088546,"lng":141.259601,"zip":"0630054"},{"town":"山の手","koaza":"","lat":43.06247,"lng":141.286125,"zip":"0630009"},{"town":"山の手一条十丁目","koaza":"","lat":43.06259,"lng":141.296587,"zip":"0630001"},{"town":"山の手一条十一丁目","koaza":"","lat":43.062016,"lng":141.295552,"zip":"0630001"},{"town":"山の手一条十二丁目","koaza":"","lat":43.060873,"lng":141.294138,"zip":"0630001"},{"town":"山の手一条十三丁目","koaza":"","lat":43.059421,"lng":141.29246,"zip":"0630001"},{"town":"山の手一条一丁目","koaza":"","lat":43.069362,"lng":141.304746,"zip":"0630001"},{"town":"山の手一条二丁目","koaza":"","lat":43.068564,"lng":141.303322,"zip":"0630001"},{"town":"山の手一条三丁目","koaza":"","lat":43.067812,"lng":141.302454,"zip":"0630001"},{"town":"山の手一条四丁目","koaza":"","lat":43.067103,"lng":141.301907,"zip":"0630001"},{"town":"山の手一条五丁目","koaza":"","lat":43.066459,"lng":141.300499,"zip":"0630001"},{"town":"山の手一条六丁目","koaza":"","lat":43.065731,"lng":141.299832,"zip":"0630001"},{"town":"山の手一条七丁目","koaza":"","lat":43.064846,"lng":141.298951,"zip":"0630001"},{"town":"山の手一条八丁目","koaza":"","lat":43.064163,"lng":141.298104,"zip":"0630001"},{"town":"山の手一条九丁目","koaza":"","lat":43.063435,"lng":141.296663,"zip":"0630001"},{"town":"山の手二条十丁目","koaza":"","lat":43.064374,"lng":141.293132,"zip":"0630002"},{"town":"山の手二条十一丁目","koaza":"","lat":43.063545,"lng":141.292608,"zip":"0630002"},{"town":"山の手二条十二丁目","koaza":"","lat":43.062404,"lng":141.291942,"zip":"0630002"},{"town":"山の手二条一丁目","koaza":"","lat":43.07117,"lng":141.301758,"zip":"0630002"},{"town":"山の手二条二丁目","koaza":"","lat":43.070268,"lng":141.300484,"zip":"0630002"},{"town":"山の手二条三丁目","koaza":"","lat":43.06929,"lng":141.300513,"zip":"0630002"},{"town":"山の手二条四丁目","koaza":"","lat":43.068707,"lng":141.298931,"zip":"0630002"},{"town":"山の手二条五丁目","koaza":"","lat":43.068027,"lng":141.298158,"zip":"0630002"},{"town":"山の手二条六丁目","koaza":"","lat":43.067329,"lng":141.297144,"zip":"0630002"},{"town":"山の手二条七丁目","koaza":"","lat":43.066534,"lng":141.296305,"zip":"0630002"},{"town":"山の手二条八丁目","koaza":"","lat":43.065851,"lng":141.295449,"zip":"0630002"},{"town":"山の手二条九丁目","koaza":"","lat":43.064989,"lng":141.29476,"zip":"0630002"},{"town":"山の手三条十丁目","koaza":"","lat":43.065608,"lng":141.291004,"zip":"0630003"},{"town":"山の手三条十一丁目","koaza":"","lat":43.064977,"lng":141.29049,"zip":"0630003"},{"town":"山の手三条十二丁目","koaza":"","lat":43.064071,"lng":141.287986,"zip":"0630003"},{"town":"山の手三条一丁目","koaza":"","lat":43.072448,"lng":141.299134,"zip":"0630003"},{"town":"山の手三条二丁目","koaza":"","lat":43.071561,"lng":141.298458,"zip":"0630003"},{"town":"山の手三条三丁目","koaza":"","lat":43.07078,"lng":141.297418,"zip":"0630003"},{"town":"山の手三条四丁目","koaza":"","lat":43.070059,"lng":141.296713,"zip":"0630003"},{"town":"山の手三条五丁目","koaza":"","lat":43.069149,"lng":141.296043,"zip":"0630003"},{"town":"山の手三条六丁目","koaza":"","lat":43.068559,"lng":141.294468,"zip":"0630003"},{"town":"山の手三条七丁目","koaza":"","lat":43.067636,"lng":141.294157,"zip":"0630003"},{"town":"山の手三条八丁目","koaza":"","lat":43.067043,"lng":141.292498,"zip":"0630003"},{"town":"山の手三条九丁目","koaza":"","lat":43.066265,"lng":141.291817,"zip":"0630003"},{"town":"山の手四条十丁目","koaza":"","lat":43.066446,"lng":141.289514,"zip":"0630004"},{"town":"山の手四条十一丁目","koaza":"","lat":43.065952,"lng":141.287739,"zip":"0630004"},{"town":"山の手四条一丁目","koaza":"","lat":43.073468,"lng":141.297563,"zip":"0630004"},{"town":"山の手四条二丁目","koaza":"","lat":43.072488,"lng":141.296436,"zip":"0630004"},{"town":"山の手四条三丁目","koaza":"","lat":43.071502,"lng":141.295831,"zip":"0630004"},{"town":"山の手四条四丁目","koaza":"","lat":43.070872,"lng":141.294765,"zip":"0630004"},{"town":"山の手四条五丁目","koaza":"","lat":43.070274,"lng":141.294023,"zip":"0630004"},{"town":"山の手四条六丁目","koaza":"","lat":43.069577,"lng":141.292996,"zip":"0630004"},{"town":"山の手四条七丁目","koaza":"","lat":43.068564,"lng":141.292175,"zip":"0630004"},{"town":"山の手四条八丁目","koaza":"","lat":43.067818,"lng":141.291203,"zip":"0630004"},{"town":"山の手四条九丁目","koaza":"","lat":43.067455,"lng":141.290025,"zip":"0630004"},{"town":"山の手五条十丁目","koaza":"","lat":43.068227,"lng":141.286519,"zip":"0630005"},{"town":"山の手五条一丁目","koaza":"","lat":43.074334,"lng":141.295762,"zip":"0630005"},{"town":"山の手五条二丁目","koaza":"","lat":43.073469,"lng":141.294899,"zip":"0630005"},{"town":"山の手五条三丁目","koaza":"","lat":43.072672,"lng":141.293817,"zip":"0630005"},{"town":"山の手五条四丁目","koaza":"","lat":43.071884,"lng":141.292929,"zip":"0630005"},{"town":"山の手五条五丁目","koaza":"","lat":43.071136,"lng":141.291999,"zip":"0630005"},{"town":"山の手五条六丁目","koaza":"","lat":43.070463,"lng":141.29116,"zip":"0630005"},{"town":"山の手五条七丁目","koaza":"","lat":43.069727,"lng":141.290102,"zip":"0630005"},{"town":"山の手五条八丁目","koaza":"","lat":43.069056,"lng":141.289351,"zip":"0630005"},{"town":"山の手五条九丁目","koaza":"","lat":43.068316,"lng":141.288668,"zip":"0630005"},{"town":"山の手六条一丁目","koaza":"","lat":43.075387,"lng":141.293891,"zip":"0630006"},{"town":"山の手六条二丁目","koaza":"","lat":43.074613,"lng":141.292809,"zip":"0630006"},{"town":"山の手六条三丁目","koaza":"","lat":43.073935,"lng":141.291794,"zip":"0630006"},{"town":"山の手六条四丁目","koaza":"","lat":43.073218,"lng":141.290742,"zip":"0630006"},{"town":"山の手六条五丁目","koaza":"","lat":43.072299,"lng":141.290347,"zip":"0630006"},{"town":"山の手六条六丁目","koaza":"","lat":43.071583,"lng":141.289374,"zip":"0630006"},{"town":"山の手六条七丁目","koaza":"","lat":43.07081,"lng":141.288299,"zip":"0630006"},{"town":"山の手六条八丁目","koaza":"","lat":43.070084,"lng":141.28802,"zip":"0630006"},{"town":"山の手六条九丁目","koaza":"","lat":43.069917,"lng":141.286837,"zip":"0630006"},{"town":"山の手七条五丁目","koaza":"","lat":43.073184,"lng":141.28867,"zip":"0630007"},{"town":"山の手七条六丁目","koaza":"","lat":43.072631,"lng":141.287249,"zip":"0630007"},{"town":"山の手七条七丁目","koaza":"","lat":43.071799,"lng":141.285811,"zip":"0630007"},{"town":"山の手七条八丁目","koaza":"","lat":43.070127,"lng":141.284592,"zip":"0630007"},{"town":"西野二条六丁目","koaza":"","lat":43.079173,"lng":141.277371,"zip":"0630032"}]