[{"town":"旭町一丁目","koaza":"","lat":43.049506,"lng":141.365176,"zip":"0620911"},{"town":"旭町二丁目","koaza":"","lat":43.049053,"lng":141.367551,"zip":"0620911"},{"town":"旭町三丁目","koaza":"","lat":43.047648,"lng":141.365779,"zip":"0620911"},{"town":"旭町四丁目","koaza":"","lat":43.04621,"lng":141.368166,"zip":"0620911"},{"town":"旭町五丁目","koaza":"","lat":43.045106,"lng":141.36622,"zip":"0620911"},{"town":"旭町六丁目","koaza":"","lat":43.043489,"lng":141.366818,"zip":"0620911"},{"town":"旭町七丁目","koaza":"","lat":43.043231,"lng":141.368896,"zip":"0620911"},{"town":"水車町一丁目","koaza":"","lat":43.052085,"lng":141.364392,"zip":"0620912"},{"town":"水車町二丁目","koaza":"","lat":43.04905,"lng":141.36351,"zip":"0620912"},{"town":"水車町三丁目","koaza":"","lat":43.047404,"lng":141.363066,"zip":"0620912"},{"town":"水車町四丁目","koaza":"","lat":43.047275,"lng":141.364661,"zip":"0620912"},{"town":"水車町五丁目","koaza":"","lat":43.044784,"lng":141.362569,"zip":"0620912"},{"town":"水車町六丁目","koaza":"","lat":43.044991,"lng":141.364746,"zip":"0620912"},{"town":"水車町七丁目","koaza":"","lat":43.043065,"lng":141.362375,"zip":"0620912"},{"town":"水車町八丁目","koaza":"","lat":43.043252,"lng":141.364904,"zip":"0620912"},{"town":"月寒中央通十丁目","koaza":"","lat":43.026253,"lng":141.399173,"zip":"0620020"},{"town":"月寒中央通十一丁目","koaza":"","lat":43.02418,"lng":141.400763,"zip":"0620020"},{"town":"月寒中央通一丁目","koaza":"","lat":43.037859,"lng":141.39205,"zip":"0620020"},{"town":"月寒中央通二丁目","koaza":"","lat":43.036686,"lng":141.392481,"zip":"0620020"},{"town":"月寒中央通三丁目","koaza":"","lat":43.035478,"lng":141.393296,"zip":"0620020"},{"town":"月寒中央通四丁目","koaza":"","lat":43.034179,"lng":141.39413,"zip":"0620020"},{"town":"月寒中央通五丁目","koaza":"","lat":43.033167,"lng":141.394738,"zip":"0620020"},{"town":"月寒中央通六丁目","koaza":"","lat":43.032094,"lng":141.395445,"zip":"0620020"},{"town":"月寒中央通七丁目","koaza":"","lat":43.030775,"lng":141.396127,"zip":"0620020"},{"town":"月寒中央通八丁目","koaza":"","lat":43.029235,"lng":141.397358,"zip":"0620020"},{"town":"月寒中央通九丁目","koaza":"","lat":43.027896,"lng":141.398162,"zip":"0620020"},{"town":"月寒西一条十丁目","koaza":"","lat":43.02542,"lng":141.397188,"zip":"0620021"},{"town":"月寒西一条十一丁目","koaza":"","lat":43.022903,"lng":141.398626,"zip":"0620021"},{"town":"月寒西一条二丁目","koaza":"","lat":43.0361,"lng":141.391128,"zip":"0620021"},{"town":"月寒西一条三丁目","koaza":"","lat":43.034844,"lng":141.39116,"zip":"0620021"},{"town":"月寒西一条四丁目","koaza":"","lat":43.033729,"lng":141.392226,"zip":"0620021"},{"town":"月寒西一条五丁目","koaza":"","lat":43.032648,"lng":141.392936,"zip":"0620021"},{"town":"月寒西一条六丁目","koaza":"","lat":43.031707,"lng":141.393571,"zip":"0620021"},{"town":"月寒西一条七丁目","koaza":"","lat":43.03003,"lng":141.393893,"zip":"0620021"},{"town":"月寒西一条八丁目","koaza":"","lat":43.028374,"lng":141.395023,"zip":"0620021"},{"town":"月寒西一条九丁目","koaza":"","lat":43.026397,"lng":141.395004,"zip":"0620021"},{"town":"月寒西二条十丁目","koaza":"","lat":43.024633,"lng":141.393592,"zip":"0620022"},{"town":"月寒西二条四丁目","koaza":"","lat":43.033493,"lng":141.389873,"zip":"0620022"},{"town":"月寒西二条五丁目","koaza":"","lat":43.032264,"lng":141.390742,"zip":"0620022"},{"town":"月寒西二条六丁目","koaza":"","lat":43.031037,"lng":141.391699,"zip":"0620022"},{"town":"月寒西二条七丁目","koaza":"","lat":43.029585,"lng":141.391765,"zip":"0620022"},{"town":"月寒西二条八丁目","koaza":"","lat":43.028015,"lng":141.392505,"zip":"0620022"},{"town":"月寒西二条九丁目","koaza":"","lat":43.026088,"lng":141.392887,"zip":"0620022"},{"town":"月寒西三条十丁目","koaza":"","lat":43.025017,"lng":141.391104,"zip":"0620023"},{"town":"月寒西三条四丁目","koaza":"","lat":43.032204,"lng":141.388309,"zip":"0620023"},{"town":"月寒西三条五丁目","koaza":"","lat":43.031017,"lng":141.388392,"zip":"0620023"},{"town":"月寒西三条六丁目","koaza":"","lat":43.030392,"lng":141.389612,"zip":"0620023"},{"town":"月寒西三条七丁目","koaza":"","lat":43.028758,"lng":141.390033,"zip":"0620023"},{"town":"月寒西三条八丁目","koaza":"","lat":43.027763,"lng":141.39105,"zip":"0620023"},{"town":"月寒西三条九丁目","koaza":"","lat":43.026585,"lng":141.391543,"zip":"0620023"},{"town":"月寒西四条十丁目","koaza":"","lat":43.024617,"lng":141.388309,"zip":"0620024"},{"town":"月寒西四条五丁目","koaza":"","lat":43.03028,"lng":141.386613,"zip":"0620024"},{"town":"月寒西四条六丁目","koaza":"","lat":43.029182,"lng":141.38829,"zip":"0620024"},{"town":"月寒西四条七丁目","koaza":"","lat":43.027944,"lng":141.388599,"zip":"0620024"},{"town":"月寒西四条八丁目","koaza":"","lat":43.02687,"lng":141.389036,"zip":"0620024"},{"town":"月寒西四条九丁目","koaza":"","lat":43.025473,"lng":141.388791,"zip":"0620024"},{"town":"月寒西五条十丁目","koaza":"","lat":43.024826,"lng":141.386252,"zip":"0620025"},{"town":"月寒西五条六丁目","koaza":"","lat":43.029006,"lng":141.386467,"zip":"0620025"},{"town":"月寒西五条七丁目","koaza":"","lat":43.028051,"lng":141.386392,"zip":"0620025"},{"town":"月寒西五条八丁目","koaza":"","lat":43.026272,"lng":141.386199,"zip":"0620025"},{"town":"月寒東一条十丁目","koaza":"","lat":43.027481,"lng":141.400881,"zip":"0620051"},{"town":"月寒東一条十一丁目","koaza":"","lat":43.025795,"lng":141.402756,"zip":"0620051"},{"town":"月寒東一条十二丁目","koaza":"","lat":43.023928,"lng":141.403449,"zip":"0620051"},{"town":"月寒東一条十三丁目","koaza":"","lat":43.022817,"lng":141.404895,"zip":"0620051"},{"town":"月寒東一条十四丁目","koaza":"","lat":43.021605,"lng":141.406395,"zip":"0620051"},{"town":"月寒東一条十五丁目","koaza":"","lat":43.019869,"lng":141.407766,"zip":"0620051"},{"town":"月寒東一条十六丁目","koaza":"","lat":43.018584,"lng":141.411171,"zip":"0620051"},{"town":"月寒東一条十七丁目","koaza":"","lat":43.016809,"lng":141.414164,"zip":"0620051"},{"town":"月寒東一条十八丁目","koaza":"","lat":43.014798,"lng":141.417559,"zip":"0620051"},{"town":"月寒東一条十九丁目","koaza":"","lat":43.012916,"lng":141.420861,"zip":"0620051"},{"town":"月寒東一条一丁目","koaza":"","lat":43.038709,"lng":141.393389,"zip":"0620051"},{"town":"月寒東一条二十丁目","koaza":"","lat":43.011267,"lng":141.422723,"zip":"0620051"},{"town":"月寒東一条二丁目","koaza":"","lat":43.037418,"lng":141.394642,"zip":"0620051"},{"town":"月寒東一条三丁目","koaza":"","lat":43.035763,"lng":141.395739,"zip":"0620051"},{"town":"月寒東一条四丁目","koaza":"","lat":43.03476,"lng":141.396705,"zip":"0620051"},{"town":"月寒東一条五丁目","koaza":"","lat":43.033717,"lng":141.396951,"zip":"0620051"},{"town":"月寒東一条六丁目","koaza":"","lat":43.03284,"lng":141.397627,"zip":"0620051"},{"town":"月寒東一条七丁目","koaza":"","lat":43.0315,"lng":141.398503,"zip":"0620051"},{"town":"月寒東一条八丁目","koaza":"","lat":43.02975,"lng":141.39966,"zip":"0620051"},{"town":"月寒東一条九丁目","koaza":"","lat":43.028256,"lng":141.400131,"zip":"0620051"},{"town":"月寒東二条十丁目","koaza":"","lat":43.028676,"lng":141.404154,"zip":"0620052"},{"town":"月寒東二条十一丁目","koaza":"","lat":43.027019,"lng":141.404809,"zip":"0620052"},{"town":"月寒東二条十二丁目","koaza":"","lat":43.026339,"lng":141.407556,"zip":"0620052"},{"town":"月寒東二条十三丁目","koaza":"","lat":43.023703,"lng":141.411088,"zip":"0620052"},{"town":"月寒東二条十四丁目","koaza":"","lat":43.022702,"lng":141.408827,"zip":"0620052"},{"town":"月寒東二条十五丁目","koaza":"","lat":43.021288,"lng":141.41014,"zip":"0620052"},{"town":"月寒東二条十六丁目","koaza":"","lat":43.020434,"lng":141.414201,"zip":"0620052"},{"town":"月寒東二条十七丁目","koaza":"","lat":43.01897,"lng":141.417316,"zip":"0620052"},{"town":"月寒東二条十八丁目","koaza":"","lat":43.017147,"lng":141.420091,"zip":"0620052"},{"town":"月寒東二条十九丁目","koaza":"","lat":43.015094,"lng":141.423362,"zip":"0620052"},{"town":"月寒東二条一丁目","koaza":"","lat":43.039985,"lng":141.395805,"zip":"0620052"},{"town":"月寒東二条二十丁目","koaza":"","lat":43.013426,"lng":141.425421,"zip":"0620052"},{"town":"月寒東二条二丁目","koaza":"","lat":43.038661,"lng":141.397516,"zip":"0620052"},{"town":"月寒東二条三丁目","koaza":"","lat":43.03743,"lng":141.398666,"zip":"0620052"},{"town":"月寒東二条四丁目","koaza":"","lat":43.035919,"lng":141.399134,"zip":"0620052"},{"town":"月寒東二条五丁目","koaza":"","lat":43.035046,"lng":141.399894,"zip":"0620052"},{"town":"月寒東二条六丁目","koaza":"","lat":43.033971,"lng":141.400807,"zip":"0620052"},{"town":"月寒東二条七丁目","koaza":"","lat":43.032643,"lng":141.401546,"zip":"0620052"},{"town":"月寒東二条八丁目","koaza":"","lat":43.03118,"lng":141.402558,"zip":"0620052"},{"town":"月寒東二条九丁目","koaza":"","lat":43.029755,"lng":141.403447,"zip":"0620052"},{"town":"月寒東三条十丁目","koaza":"","lat":43.029228,"lng":141.407124,"zip":"0620053"},{"town":"月寒東三条十一丁目","koaza":"","lat":43.026756,"lng":141.414556,"zip":"0620053"},{"town":"月寒東三条十五丁目","koaza":"","lat":43.024808,"lng":141.41735,"zip":"0620053"},{"town":"月寒東三条十六丁目","koaza":"","lat":43.023244,"lng":141.41861,"zip":"0620053"},{"town":"月寒東三条十七丁目","koaza":"","lat":43.021664,"lng":141.420989,"zip":"0620053"},{"town":"月寒東三条十八丁目","koaza":"","lat":43.019867,"lng":141.423597,"zip":"0620053"},{"town":"月寒東三条十九丁目","koaza":"","lat":43.017328,"lng":141.425911,"zip":"0620053"},{"town":"月寒東三条三丁目","koaza":"","lat":43.038209,"lng":141.401113,"zip":"0620053"},{"town":"月寒東三条四丁目","koaza":"","lat":43.037337,"lng":141.402467,"zip":"0620053"},{"town":"月寒東三条五丁目","koaza":"","lat":43.036012,"lng":141.402917,"zip":"0620053"},{"town":"月寒東三条六丁目","koaza":"","lat":43.034942,"lng":141.403488,"zip":"0620053"},{"town":"月寒東三条七丁目","koaza":"","lat":43.033631,"lng":141.404381,"zip":"0620053"},{"town":"月寒東三条八丁目","koaza":"","lat":43.032126,"lng":141.405521,"zip":"0620053"},{"town":"月寒東三条九丁目","koaza":"","lat":43.030748,"lng":141.406375,"zip":"0620053"},{"town":"月寒東四条十丁目","koaza":"","lat":43.031442,"lng":141.411015,"zip":"0620054"},{"town":"月寒東四条十一丁目","koaza":"","lat":43.030311,"lng":141.412685,"zip":"0620054"},{"town":"月寒東四条十五丁目","koaza":"","lat":43.026945,"lng":141.421215,"zip":"0620054"},{"town":"月寒東四条十六丁目","koaza":"","lat":43.026089,"lng":141.422378,"zip":"0620054"},{"town":"月寒東四条十七丁目","koaza":"","lat":43.024585,"lng":141.425055,"zip":"0620054"},{"town":"月寒東四条十八丁目","koaza":"","lat":43.022732,"lng":141.426212,"zip":"0620054"},{"town":"月寒東四条十九丁目","koaza":"","lat":43.021321,"lng":141.428444,"zip":"0620054"},{"town":"月寒東四条六丁目","koaza":"","lat":43.03548,"lng":141.40518,"zip":"0620054"},{"town":"月寒東四条七丁目","koaza":"","lat":43.034372,"lng":141.406444,"zip":"0620054"},{"town":"月寒東四条八丁目","koaza":"","lat":43.033433,"lng":141.408083,"zip":"0620054"},{"town":"月寒東四条九丁目","koaza":"","lat":43.032123,"lng":141.408705,"zip":"0620054"},{"town":"月寒東五条十丁目","koaza":"","lat":43.033675,"lng":141.413105,"zip":"0620055"},{"town":"月寒東五条十一丁目","koaza":"","lat":43.032845,"lng":141.414033,"zip":"0620055"},{"town":"月寒東五条十二丁目","koaza":"","lat":43.032077,"lng":141.414795,"zip":"0620055"},{"town":"月寒東五条十三丁目","koaza":"","lat":43.03143,"lng":141.416315,"zip":"0620055"},{"town":"月寒東五条十四丁目","koaza":"","lat":43.030564,"lng":141.41949,"zip":"0620055"},{"town":"月寒東五条十五丁目","koaza":"","lat":43.029304,"lng":141.423462,"zip":"0620055"},{"town":"月寒東五条十六丁目","koaza":"","lat":43.027879,"lng":141.42537,"zip":"0620055"},{"town":"月寒東五条十七丁目","koaza":"","lat":43.026966,"lng":141.427959,"zip":"0620055"},{"town":"月寒東五条十八丁目","koaza":"","lat":43.025607,"lng":141.429643,"zip":"0620055"},{"town":"月寒東五条十九丁目","koaza":"","lat":43.024797,"lng":141.431975,"zip":"0620055"},{"town":"月寒東五条五丁目","koaza":"","lat":43.037025,"lng":141.404312,"zip":"0620055"},{"town":"月寒東五条六丁目","koaza":"","lat":43.036493,"lng":141.40567,"zip":"0620055"},{"town":"月寒東五条七丁目","koaza":"","lat":43.035861,"lng":141.407507,"zip":"0620055"},{"town":"月寒東五条八丁目","koaza":"","lat":43.034803,"lng":141.409426,"zip":"0620055"},{"town":"月寒東五条九丁目","koaza":"","lat":43.03412,"lng":141.411177,"zip":"0620055"},{"town":"豊平一条十丁目","koaza":"","lat":43.049412,"lng":141.378623,"zip":"0620901"},{"town":"豊平一条十一丁目","koaza":"","lat":43.048544,"lng":141.380825,"zip":"0620901"},{"town":"豊平一条十二丁目","koaza":"","lat":43.047564,"lng":141.382345,"zip":"0620901"},{"town":"豊平一条十三丁目","koaza":"","lat":43.046636,"lng":141.383798,"zip":"0620901"},{"town":"豊平一条一丁目","koaza":"","lat":43.056484,"lng":141.367844,"zip":"0620901"},{"town":"豊平一条二丁目","koaza":"","lat":43.055426,"lng":141.369611,"zip":"0620901"},{"town":"豊平一条三丁目","koaza":"","lat":43.05458,"lng":141.370874,"zip":"0620901"},{"town":"豊平一条四丁目","koaza":"","lat":43.053735,"lng":141.372273,"zip":"0620901"},{"town":"豊平一条五丁目","koaza":"","lat":43.053106,"lng":141.373321,"zip":"0620901"},{"town":"豊平一条六丁目","koaza":"","lat":43.052439,"lng":141.374365,"zip":"0620901"},{"town":"豊平一条七丁目","koaza":"","lat":43.051568,"lng":141.375722,"zip":"0620901"},{"town":"豊平一条八丁目","koaza":"","lat":43.050674,"lng":141.377129,"zip":"0620901"},{"town":"豊平二条十丁目","koaza":"","lat":43.048421,"lng":141.379338,"zip":"0620902"},{"town":"豊平二条十一丁目","koaza":"","lat":43.04795,"lng":141.380142,"zip":"0620902"},{"town":"豊平二条十二丁目","koaza":"","lat":43.046967,"lng":141.381563,"zip":"0620902"},{"town":"豊平二条十三丁目","koaza":"","lat":43.046228,"lng":141.382879,"zip":"0620902"},{"town":"豊平二条一丁目","koaza":"","lat":43.05584,"lng":141.367289,"zip":"0620902"},{"town":"豊平二条二丁目","koaza":"","lat":43.054879,"lng":141.368854,"zip":"0620902"},{"town":"豊平二条三丁目","koaza":"","lat":43.053988,"lng":141.370244,"zip":"0620902"},{"town":"豊平二条四丁目","koaza":"","lat":43.053187,"lng":141.371552,"zip":"0620902"},{"town":"豊平二条五丁目","koaza":"","lat":43.052417,"lng":141.372784,"zip":"0620902"},{"town":"豊平二条六丁目","koaza":"","lat":43.05173,"lng":141.373886,"zip":"0620902"},{"town":"豊平二条七丁目","koaza":"","lat":43.050881,"lng":141.375127,"zip":"0620902"},{"town":"豊平二条八丁目","koaza":"","lat":43.050082,"lng":141.37654,"zip":"0620902"},{"town":"豊平三条十丁目","koaza":"","lat":43.047835,"lng":141.37846,"zip":"0620903"},{"town":"豊平三条十一丁目","koaza":"","lat":43.046984,"lng":141.379721,"zip":"0620903"},{"town":"豊平三条十二丁目","koaza":"","lat":43.046277,"lng":141.381107,"zip":"0620903"},{"town":"豊平三条十三丁目","koaza":"","lat":43.045546,"lng":141.38214,"zip":"0620903"},{"town":"豊平三条一丁目","koaza":"","lat":43.0552,"lng":141.366473,"zip":"0620903"},{"town":"豊平三条二丁目","koaza":"","lat":43.054196,"lng":141.368079,"zip":"0620903"},{"town":"豊平三条三丁目","koaza":"","lat":43.053408,"lng":141.369364,"zip":"0620903"},{"town":"豊平三条四丁目","koaza":"","lat":43.052481,"lng":141.370869,"zip":"0620903"},{"town":"豊平三条五丁目","koaza":"","lat":43.051644,"lng":141.371779,"zip":"0620903"},{"town":"豊平三条六丁目","koaza":"","lat":43.05107,"lng":141.373132,"zip":"0620903"},{"town":"豊平三条七丁目","koaza":"","lat":43.050325,"lng":141.374401,"zip":"0620903"},{"town":"豊平三条八丁目","koaza":"","lat":43.049279,"lng":141.37578,"zip":"0620903"},{"town":"豊平三条九丁目","koaza":"","lat":43.048391,"lng":141.377243,"zip":"0620903"},{"town":"豊平四条十丁目","koaza":"","lat":43.046729,"lng":141.377123,"zip":"0620904"},{"town":"豊平四条十一丁目","koaza":"","lat":43.046118,"lng":141.378027,"zip":"0620904"},{"town":"豊平四条十二丁目","koaza":"","lat":43.045323,"lng":141.379427,"zip":"0620904"},{"town":"豊平四条十三丁目","koaza":"","lat":43.044404,"lng":141.38077,"zip":"0620904"},{"town":"豊平四条一丁目","koaza":"","lat":43.054371,"lng":141.365517,"zip":"0620904"},{"town":"豊平四条二丁目","koaza":"","lat":43.053438,"lng":141.367047,"zip":"0620904"},{"town":"豊平四条三丁目","koaza":"","lat":43.051581,"lng":141.369422,"zip":"0620904"},{"town":"豊平四条五丁目","koaza":"","lat":43.050821,"lng":141.370847,"zip":"0620904"},{"town":"豊平四条六丁目","koaza":"","lat":43.050549,"lng":141.3722,"zip":"0620904"},{"town":"豊平四条七丁目","koaza":"","lat":43.049442,"lng":141.373391,"zip":"0620904"},{"town":"豊平四条八丁目","koaza":"","lat":43.048467,"lng":141.374241,"zip":"0620904"},{"town":"豊平四条九丁目","koaza":"","lat":43.04762,"lng":141.375724,"zip":"0620904"},{"town":"豊平五条十丁目","koaza":"","lat":43.046156,"lng":141.375326,"zip":"0620905"},{"town":"豊平五条十一丁目","koaza":"","lat":43.043935,"lng":141.376038,"zip":"0620905"},{"town":"豊平五条十三丁目","koaza":"","lat":43.043159,"lng":141.37847,"zip":"0620905"},{"town":"豊平五条一丁目","koaza":"","lat":43.053696,"lng":141.365036,"zip":"0620905"},{"town":"豊平五条二丁目","koaza":"","lat":43.052478,"lng":141.36624,"zip":"0620905"},{"town":"豊平五条三丁目","koaza":"","lat":43.051518,"lng":141.367074,"zip":"0620905"},{"town":"豊平五条五丁目","koaza":"","lat":43.050011,"lng":141.370153,"zip":"0620905"},{"town":"豊平五条六丁目","koaza":"","lat":43.049484,"lng":141.371403,"zip":"0620905"},{"town":"豊平五条七丁目","koaza":"","lat":43.048605,"lng":141.372325,"zip":"0620905"},{"town":"豊平五条八丁目","koaza":"","lat":43.047535,"lng":141.373187,"zip":"0620905"},{"town":"豊平五条九丁目","koaza":"","lat":43.047011,"lng":141.374235,"zip":"0620905"},{"town":"豊平六条十丁目","koaza":"","lat":43.045055,"lng":141.3744,"zip":"0620906"},{"town":"豊平六条二丁目","koaza":"","lat":43.051075,"lng":141.365399,"zip":"0620906"},{"town":"豊平六条三丁目","koaza":"","lat":43.050338,"lng":141.366616,"zip":"0620906"},{"town":"豊平六条五丁目","koaza":"","lat":43.04911,"lng":141.369362,"zip":"0620906"},{"town":"豊平六条六丁目","koaza":"","lat":43.047962,"lng":141.370026,"zip":"0620906"},{"town":"豊平六条七丁目","koaza":"","lat":43.047664,"lng":141.371717,"zip":"0620906"},{"town":"豊平六条八丁目","koaza":"","lat":43.046945,"lng":141.372543,"zip":"0620906"},{"town":"豊平六条九丁目","koaza":"","lat":43.045954,"lng":141.373024,"zip":"0620906"},{"town":"豊平七条十丁目","koaza":"","lat":43.044258,"lng":141.37336,"zip":"0620907"},{"town":"豊平七条十三丁目","koaza":"","lat":43.041648,"lng":141.377596,"zip":"0620907"},{"town":"豊平七条七丁目","koaza":"","lat":43.046335,"lng":141.370093,"zip":"0620907"},{"town":"豊平七条八丁目","koaza":"","lat":43.046093,"lng":141.371722,"zip":"0620907"},{"town":"豊平七条九丁目","koaza":"","lat":43.044967,"lng":141.371907,"zip":"0620907"},{"town":"豊平八条十丁目","koaza":"","lat":43.043438,"lng":141.371974,"zip":"0620908"},{"town":"豊平八条十一丁目","koaza":"","lat":43.043196,"lng":141.373453,"zip":"0620908"},{"town":"豊平八条十二丁目","koaza":"","lat":43.041951,"lng":141.375769,"zip":"0620908"},{"town":"豊平八条十三丁目","koaza":"","lat":43.040669,"lng":141.376432,"zip":"0620908"},{"town":"豊平八条八丁目","koaza":"","lat":43.044573,"lng":141.370165,"zip":"0620908"},{"town":"豊平八条九丁目","koaza":"","lat":43.044378,"lng":141.371358,"zip":"0620908"},{"town":"豊平九条九丁目","koaza":"","lat":43.042855,"lng":141.370658,"zip":"0620909"},{"town":"中の島","koaza":"","lat":43.026451,"lng":141.354002,"zip":"0620921"},{"town":"中の島一条十丁目","koaza":"","lat":43.021604,"lng":141.35508,"zip":"0620921"},{"town":"中の島一条十一丁目","koaza":"","lat":43.019841,"lng":141.35488,"zip":"0620921"},{"town":"中の島一条十二丁目","koaza":"","lat":43.019062,"lng":141.355706,"zip":"0620921"},{"town":"中の島一条十三丁目","koaza":"","lat":43.017331,"lng":141.355419,"zip":"0620921"},{"town":"中の島一条十四丁目","koaza":"","lat":43.015812,"lng":141.355134,"zip":"0620921"},{"town":"中の島一条一丁目","koaza":"","lat":43.039073,"lng":141.360488,"zip":"0620921"},{"town":"中の島一条二丁目","koaza":"","lat":43.037625,"lng":141.359005,"zip":"0620921"},{"town":"中の島一条三丁目","koaza":"","lat":43.035805,"lng":141.358252,"zip":"0620921"},{"town":"中の島一条四丁目","koaza":"","lat":43.033364,"lng":141.358301,"zip":"0620921"},{"town":"中の島一条五丁目","koaza":"","lat":43.031253,"lng":141.358834,"zip":"0620921"},{"town":"中の島一条六丁目","koaza":"","lat":43.029329,"lng":141.357729,"zip":"0620921"},{"town":"中の島一条七丁目","koaza":"","lat":43.027177,"lng":141.3565,"zip":"0620921"},{"town":"中の島一条八丁目","koaza":"","lat":43.025425,"lng":141.356078,"zip":"0620921"},{"town":"中の島一条九丁目","koaza":"","lat":43.023379,"lng":141.355515,"zip":"0620921"},{"town":"中の島二条十丁目","koaza":"","lat":43.021755,"lng":141.357966,"zip":"0620922"},{"town":"中の島二条十一丁目","koaza":"","lat":43.020661,"lng":141.357428,"zip":"0620922"},{"town":"中の島二条十二丁目","koaza":"","lat":43.019474,"lng":141.357459,"zip":"0620922"},{"town":"中の島二条一丁目","koaza":"","lat":43.037705,"lng":141.36343,"zip":"0620922"},{"town":"中の島二条二丁目","koaza":"","lat":43.036202,"lng":141.361948,"zip":"0620922"},{"town":"中の島二条三丁目","koaza":"","lat":43.034502,"lng":141.361194,"zip":"0620922"},{"town":"中の島二条四丁目","koaza":"","lat":43.032871,"lng":141.360675,"zip":"0620922"},{"town":"中の島二条五丁目","koaza":"","lat":43.031062,"lng":141.36098,"zip":"0620922"},{"town":"中の島二条六丁目","koaza":"","lat":43.028839,"lng":141.360627,"zip":"0620922"},{"town":"中の島二条七丁目","koaza":"","lat":43.02667,"lng":141.359779,"zip":"0620922"},{"town":"中の島二条八丁目","koaza":"","lat":43.025057,"lng":141.358956,"zip":"0620922"},{"town":"中の島二条九丁目","koaza":"","lat":43.023238,"lng":141.358199,"zip":"0620922"},{"town":"西岡","koaza":"","lat":42.959718,"lng":141.380158,"zip":"0620039"},{"town":"西岡一条十丁目","koaza":"","lat":43.005679,"lng":141.376726,"zip":"0620031"},{"town":"西岡一条十一丁目","koaza":"","lat":43.003395,"lng":141.375903,"zip":"0620031"},{"town":"西岡一条二丁目","koaza":"","lat":43.022265,"lng":141.383505,"zip":"0620031"},{"town":"西岡一条三丁目","koaza":"","lat":43.020164,"lng":141.382307,"zip":"0620031"},{"town":"西岡一条四丁目","koaza":"","lat":43.017497,"lng":141.381118,"zip":"0620031"},{"town":"西岡一条五丁目","koaza":"","lat":43.015802,"lng":141.380204,"zip":"0620031"},{"town":"西岡一条六丁目","koaza":"","lat":43.014206,"lng":141.37969,"zip":"0620031"},{"town":"西岡一条七丁目","koaza":"","lat":43.01198,"lng":141.3787,"zip":"0620031"},{"town":"西岡一条八丁目","koaza":"","lat":43.009637,"lng":141.378474,"zip":"0620031"},{"town":"西岡一条九丁目","koaza":"","lat":43.007345,"lng":141.378625,"zip":"0620031"},{"town":"西岡二条十丁目","koaza":"","lat":43.003921,"lng":141.379511,"zip":"0620032"},{"town":"西岡二条十一丁目","koaza":"","lat":43.001091,"lng":141.377947,"zip":"0620032"},{"town":"西岡二条十二丁目","koaza":"","lat":42.998286,"lng":141.376233,"zip":"0620032"},{"town":"西岡二条十三丁目","koaza":"","lat":42.996442,"lng":141.374838,"zip":"0620032"},{"town":"西岡二条十四丁目","koaza":"","lat":42.993277,"lng":141.37418,"zip":"0620032"},{"town":"西岡二条一丁目","koaza":"","lat":43.022921,"lng":141.387029,"zip":"0620032"},{"town":"西岡二条二丁目","koaza":"","lat":43.021016,"lng":141.385303,"zip":"0620032"},{"town":"西岡二条三丁目","koaza":"","lat":43.019527,"lng":141.384403,"zip":"0620032"},{"town":"西岡二条四丁目","koaza":"","lat":43.017569,"lng":141.384055,"zip":"0620032"},{"town":"西岡二条五丁目","koaza":"","lat":43.015592,"lng":141.383632,"zip":"0620032"},{"town":"西岡二条六丁目","koaza":"","lat":43.013453,"lng":141.383063,"zip":"0620032"},{"town":"西岡二条七丁目","koaza":"","lat":43.011409,"lng":141.381818,"zip":"0620032"},{"town":"西岡二条八丁目","koaza":"","lat":43.008485,"lng":141.381054,"zip":"0620032"},{"town":"西岡二条九丁目","koaza":"","lat":43.005823,"lng":141.381524,"zip":"0620032"},{"town":"西岡三条十丁目","koaza":"","lat":43.002333,"lng":141.381959,"zip":"0620033"},{"town":"西岡三条十一丁目","koaza":"","lat":42.999459,"lng":141.380188,"zip":"0620033"},{"town":"西岡三条十二丁目","koaza":"","lat":42.997362,"lng":141.378047,"zip":"0620033"},{"town":"西岡三条十三丁目","koaza":"","lat":42.995464,"lng":141.375979,"zip":"0620033"},{"town":"西岡三条一丁目","koaza":"","lat":43.022249,"lng":141.389615,"zip":"0620033"},{"town":"西岡三条二丁目","koaza":"","lat":43.020456,"lng":141.38815,"zip":"0620033"},{"town":"西岡三条三丁目","koaza":"","lat":43.018551,"lng":141.387554,"zip":"0620033"},{"town":"西岡三条四丁目","koaza":"","lat":43.017306,"lng":141.386919,"zip":"0620033"},{"town":"西岡三条五丁目","koaza":"","lat":43.01511,"lng":141.386625,"zip":"0620033"},{"town":"西岡三条六丁目","koaza":"","lat":43.013326,"lng":141.386405,"zip":"0620033"},{"town":"西岡三条七丁目","koaza":"","lat":43.010894,"lng":141.385092,"zip":"0620033"},{"town":"西岡三条八丁目","koaza":"","lat":43.007701,"lng":141.384498,"zip":"0620033"},{"town":"西岡三条九丁目","koaza":"","lat":43.004515,"lng":141.383548,"zip":"0620033"},{"town":"西岡四条十丁目","koaza":"","lat":43.000493,"lng":141.384798,"zip":"0620034"},{"town":"西岡四条十一丁目","koaza":"","lat":42.998663,"lng":141.382243,"zip":"0620034"},{"town":"西岡四条十二丁目","koaza":"","lat":42.996381,"lng":141.380032,"zip":"0620034"},{"town":"西岡四条十三丁目","koaza":"","lat":42.993899,"lng":141.378156,"zip":"0620034"},{"town":"西岡四条十四丁目","koaza":"","lat":42.991508,"lng":141.3755,"zip":"0620034"},{"town":"西岡四条一丁目","koaza":"","lat":43.022571,"lng":141.393397,"zip":"0620034"},{"town":"西岡四条二丁目","koaza":"","lat":43.019945,"lng":141.391851,"zip":"0620034"},{"town":"西岡四条三丁目","koaza":"","lat":43.018313,"lng":141.389735,"zip":"0620034"},{"town":"西岡四条四丁目","koaza":"","lat":43.015593,"lng":141.390574,"zip":"0620034"},{"town":"西岡四条五丁目","koaza":"","lat":43.014074,"lng":141.390272,"zip":"0620034"},{"town":"西岡四条六丁目","koaza":"","lat":43.012405,"lng":141.389789,"zip":"0620034"},{"town":"西岡四条七丁目","koaza":"","lat":43.010654,"lng":141.38881,"zip":"0620034"},{"town":"西岡四条八丁目","koaza":"","lat":43.007505,"lng":141.38761,"zip":"0620034"},{"town":"西岡四条九丁目","koaza":"","lat":43.003481,"lng":141.386274,"zip":"0620034"},{"town":"西岡五条十一丁目","koaza":"","lat":42.997339,"lng":141.385051,"zip":"0620035"},{"town":"西岡五条十二丁目","koaza":"","lat":42.995058,"lng":141.382974,"zip":"0620035"},{"town":"西岡五条十三丁目","koaza":"","lat":42.992687,"lng":141.381626,"zip":"0620035"},{"town":"西岡五条十四丁目","koaza":"","lat":42.98958,"lng":141.377894,"zip":"0620035"},{"town":"西岡五条十五丁目","koaza":"","lat":42.987328,"lng":141.375586,"zip":"0620035"},{"town":"西岡五条一丁目","koaza":"","lat":43.02164,"lng":141.396425,"zip":"0620035"},{"town":"西岡五条二丁目","koaza":"","lat":43.020501,"lng":141.394244,"zip":"0620035"},{"town":"西岡五条三丁目","koaza":"","lat":43.017265,"lng":141.393028,"zip":"0620035"},{"town":"羊ケ丘","koaza":"","lat":42.993264,"lng":141.400331,"zip":"0620045"},{"town":"平岸一条十丁目","koaza":"","lat":43.031251,"lng":141.364024,"zip":"0620931"},{"town":"平岸一条十一丁目","koaza":"","lat":43.029452,"lng":141.36408,"zip":"0620931"},{"town":"平岸一条十二丁目","koaza":"","lat":43.028043,"lng":141.363645,"zip":"0620931"},{"town":"平岸一条十三丁目","koaza":"","lat":43.026597,"lng":141.362884,"zip":"0620931"},{"town":"平岸一条十四丁目","koaza":"","lat":43.02577,"lng":141.362601,"zip":"0620931"},{"town":"平岸一条十五丁目","koaza":"","lat":43.024841,"lng":141.362534,"zip":"0620931"},{"town":"平岸一条十六丁目","koaza":"","lat":43.02339,"lng":141.362035,"zip":"0620931"},{"town":"平岸一条十七丁目","koaza":"","lat":43.021989,"lng":141.36097,"zip":"0620931"},{"town":"平岸一条十八丁目","koaza":"","lat":43.021242,"lng":141.363269,"zip":"0620931"},{"town":"平岸一条十九丁目","koaza":"","lat":43.020334,"lng":141.361838,"zip":"0620931"},{"town":"平岸一条一丁目","koaza":"","lat":43.042028,"lng":141.363488,"zip":"0620931"},{"town":"平岸一条二十丁目","koaza":"","lat":43.019665,"lng":141.35904,"zip":"0620931"},{"town":"平岸一条二十一丁目","koaza":"","lat":43.01729,"lng":141.357533,"zip":"0620931"},{"town":"平岸一条二十二丁目","koaza":"","lat":43.015145,"lng":141.357311,"zip":"0620931"},{"town":"平岸一条二十三丁目","koaza":"","lat":43.01343,"lng":141.354898,"zip":"0620931"},{"town":"平岸一条二丁目","koaza":"","lat":43.040858,"lng":141.364079,"zip":"0620931"},{"town":"平岸一条三丁目","koaza":"","lat":43.039992,"lng":141.362201,"zip":"0620931"},{"town":"平岸一条四丁目","koaza":"","lat":43.039615,"lng":141.365493,"zip":"0620931"},{"town":"平岸一条五丁目","koaza":"","lat":43.038449,"lng":141.365229,"zip":"0620931"},{"town":"平岸一条六丁目","koaza":"","lat":43.03656,"lng":141.366064,"zip":"0620931"},{"town":"平岸一条七丁目","koaza":"","lat":43.035322,"lng":141.364584,"zip":"0620931"},{"town":"平岸一条八丁目","koaza":"","lat":43.03373,"lng":141.364376,"zip":"0620931"},{"town":"平岸一条九丁目","koaza":"","lat":43.031987,"lng":141.364093,"zip":"0620931"},{"town":"平岸二条十丁目","koaza":"","lat":43.030419,"lng":141.367076,"zip":"0620932"},{"town":"平岸二条十一丁目","koaza":"","lat":43.029325,"lng":141.366847,"zip":"0620932"},{"town":"平岸二条十二丁目","koaza":"","lat":43.028278,"lng":141.367005,"zip":"0620932"},{"town":"平岸二条十三丁目","koaza":"","lat":43.027389,"lng":141.366571,"zip":"0620932"},{"town":"平岸二条十四丁目","koaza":"","lat":43.025913,"lng":141.366345,"zip":"0620932"},{"town":"平岸二条十五丁目","koaza":"","lat":43.024239,"lng":141.365632,"zip":"0620932"},{"town":"平岸二条十六丁目","koaza":"","lat":43.023481,"lng":141.366363,"zip":"0620932"},{"town":"平岸二条十七丁目","koaza":"","lat":43.021483,"lng":141.365832,"zip":"0620932"},{"town":"平岸二条十八丁目","koaza":"","lat":43.020074,"lng":141.365621,"zip":"0620932"},{"town":"平岸二条一丁目","koaza":"","lat":43.042245,"lng":141.36823,"zip":"0620932"},{"town":"平岸二条二丁目","koaza":"","lat":43.041308,"lng":141.368266,"zip":"0620932"},{"town":"平岸二条三丁目","koaza":"","lat":43.039858,"lng":141.368388,"zip":"0620932"},{"town":"平岸二条四丁目","koaza":"","lat":43.038175,"lng":141.368293,"zip":"0620932"},{"town":"平岸二条五丁目","koaza":"","lat":43.037439,"lng":141.368726,"zip":"0620932"},{"town":"平岸二条六丁目","koaza":"","lat":43.036376,"lng":141.368733,"zip":"0620932"},{"town":"平岸二条七丁目","koaza":"","lat":43.035175,"lng":141.367795,"zip":"0620932"},{"town":"平岸二条八丁目","koaza":"","lat":43.03392,"lng":141.367504,"zip":"0620932"},{"town":"平岸二条九丁目","koaza":"","lat":43.03204,"lng":141.367234,"zip":"0620932"},{"town":"平岸三条十丁目","koaza":"","lat":43.030424,"lng":141.370374,"zip":"0620933"},{"town":"平岸三条十一丁目","koaza":"","lat":43.029428,"lng":141.370182,"zip":"0620933"},{"town":"平岸三条十二丁目","koaza":"","lat":43.028453,"lng":141.369998,"zip":"0620933"},{"town":"平岸三条十三丁目","koaza":"","lat":43.027194,"lng":141.369719,"zip":"0620933"},{"town":"平岸三条十四丁目","koaza":"","lat":43.025989,"lng":141.369512,"zip":"0620933"},{"town":"平岸三条十五丁目","koaza":"","lat":43.02491,"lng":141.369151,"zip":"0620933"},{"town":"平岸三条十六丁目","koaza":"","lat":43.02366,"lng":141.368403,"zip":"0620933"},{"town":"平岸三条十七丁目","koaza":"","lat":43.021979,"lng":141.368715,"zip":"0620933"},{"town":"平岸三条十八丁目","koaza":"","lat":43.020152,"lng":141.36883,"zip":"0620933"},{"town":"平岸三条一丁目","koaza":"","lat":43.041969,"lng":141.371189,"zip":"0620933"},{"town":"平岸三条二丁目","koaza":"","lat":43.041015,"lng":141.371309,"zip":"0620933"},{"town":"平岸三条三丁目","koaza":"","lat":43.03964,"lng":141.371465,"zip":"0620933"},{"town":"平岸三条四丁目","koaza":"","lat":43.038513,"lng":141.37159,"zip":"0620933"},{"town":"平岸三条五丁目","koaza":"","lat":43.037397,"lng":141.371583,"zip":"0620933"},{"town":"平岸三条六丁目","koaza":"","lat":43.036364,"lng":141.371472,"zip":"0620933"},{"town":"平岸三条七丁目","koaza":"","lat":43.035189,"lng":141.371271,"zip":"0620933"},{"town":"平岸三条八丁目","koaza":"","lat":43.033602,"lng":141.371338,"zip":"0620933"},{"town":"平岸三条九丁目","koaza":"","lat":43.031941,"lng":141.370677,"zip":"0620933"},{"town":"平岸四条十丁目","koaza":"","lat":43.030513,"lng":141.374359,"zip":"0620934"},{"town":"平岸四条十一丁目","koaza":"","lat":43.029223,"lng":141.374093,"zip":"0620934"},{"town":"平岸四条十二丁目","koaza":"","lat":43.028012,"lng":141.373916,"zip":"0620934"},{"town":"平岸四条十三丁目","koaza":"","lat":43.026684,"lng":141.373778,"zip":"0620934"},{"town":"平岸四条十四丁目","koaza":"","lat":43.025383,"lng":141.373632,"zip":"0620934"},{"town":"平岸四条十五丁目","koaza":"","lat":43.024556,"lng":141.371703,"zip":"0620934"},{"town":"平岸四条十六丁目","koaza":"","lat":43.023625,"lng":141.370999,"zip":"0620934"},{"town":"平岸四条十七丁目","koaza":"","lat":43.022125,"lng":141.371234,"zip":"0620934"},{"town":"平岸四条十八丁目","koaza":"","lat":43.019544,"lng":141.371362,"zip":"0620934"},{"town":"平岸四条一丁目","koaza":"","lat":43.042083,"lng":141.373671,"zip":"0620934"},{"town":"平岸四条二丁目","koaza":"","lat":43.040831,"lng":141.374006,"zip":"0620934"},{"town":"平岸四条三丁目","koaza":"","lat":43.039749,"lng":141.374293,"zip":"0620934"},{"town":"平岸四条四丁目","koaza":"","lat":43.038635,"lng":141.374608,"zip":"0620934"},{"town":"平岸四条五丁目","koaza":"","lat":43.037467,"lng":141.374798,"zip":"0620934"},{"town":"平岸四条六丁目","koaza":"","lat":43.036668,"lng":141.374751,"zip":"0620934"},{"town":"平岸四条七丁目","koaza":"","lat":43.035197,"lng":141.374871,"zip":"0620934"},{"town":"平岸四条八丁目","koaza":"","lat":43.033582,"lng":141.37484,"zip":"0620934"},{"town":"平岸四条九丁目","koaza":"","lat":43.031976,"lng":141.374669,"zip":"0620934"},{"town":"平岸五条十丁目","koaza":"","lat":43.030623,"lng":141.378087,"zip":"0620935"},{"town":"平岸五条十一丁目","koaza":"","lat":43.029115,"lng":141.377248,"zip":"0620935"},{"town":"平岸五条十二丁目","koaza":"","lat":43.027688,"lng":141.377208,"zip":"0620935"},{"town":"平岸五条十三丁目","koaza":"","lat":43.026024,"lng":141.377481,"zip":"0620935"},{"town":"平岸五条十四丁目","koaza":"","lat":43.024608,"lng":141.377386,"zip":"0620935"},{"town":"平岸五条十五丁目","koaza":"","lat":43.021298,"lng":141.374956,"zip":"0620935"},{"town":"平岸五条十八丁目","koaza":"","lat":43.017229,"lng":141.374768,"zip":"0620935"},{"town":"平岸五条十九丁目","koaza":"","lat":43.015758,"lng":141.374348,"zip":"0620935"},{"town":"平岸五条六丁目","koaza":"","lat":43.036796,"lng":141.37766,"zip":"0620935"},{"town":"平岸五条七丁目","koaza":"","lat":43.035257,"lng":141.377993,"zip":"0620935"},{"town":"平岸五条八丁目","koaza":"","lat":43.033567,"lng":141.377956,"zip":"0620935"},{"town":"平岸五条九丁目","koaza":"","lat":43.032194,"lng":141.377975,"zip":"0620935"},{"town":"平岸六条十丁目","koaza":"","lat":43.030965,"lng":141.38046,"zip":"0620936"},{"town":"平岸六条十一丁目","koaza":"","lat":43.029459,"lng":141.379662,"zip":"0620936"},{"town":"平岸六条十二丁目","koaza":"","lat":43.027995,"lng":141.379871,"zip":"0620936"},{"town":"平岸六条十三丁目","koaza":"","lat":43.025728,"lng":141.379926,"zip":"0620936"},{"town":"平岸六条十四丁目","koaza":"","lat":43.024021,"lng":141.379441,"zip":"0620936"},{"town":"平岸六条十五丁目","koaza":"","lat":43.023162,"lng":141.378637,"zip":"0620936"},{"town":"平岸六条十六丁目","koaza":"","lat":43.02195,"lng":141.378857,"zip":"0620936"},{"town":"平岸六条十七丁目","koaza":"","lat":43.019329,"lng":141.378095,"zip":"0620936"},{"town":"平岸六条九丁目","koaza":"","lat":43.032464,"lng":141.379895,"zip":"0620936"},{"town":"平岸七条十二丁目","koaza":"","lat":43.027595,"lng":141.382057,"zip":"0620937"},{"town":"平岸七条十三丁目","koaza":"","lat":43.026164,"lng":141.381788,"zip":"0620937"},{"town":"平岸七条十四丁目","koaza":"","lat":43.023481,"lng":141.383106,"zip":"0620937"},{"town":"平岸七条十五丁目","koaza":"","lat":43.02302,"lng":141.380945,"zip":"0620937"},{"town":"平岸七条十六丁目","koaza":"","lat":43.020662,"lng":141.380291,"zip":"0620937"},{"town":"平岸七条十七丁目","koaza":"","lat":43.018691,"lng":141.379195,"zip":"0620937"},{"town":"平岸七条十八丁目","koaza":"","lat":43.017133,"lng":141.378366,"zip":"0620937"},{"town":"平岸七条十九丁目","koaza":"","lat":43.015395,"lng":141.377343,"zip":"0620937"},{"town":"平岸八条十二丁目","koaza":"","lat":43.027449,"lng":141.384314,"zip":"0620938"},{"town":"平岸八条十三丁目","koaza":"","lat":43.025009,"lng":141.384179,"zip":"0620938"},{"town":"福住一条一丁目","koaza":"","lat":43.021452,"lng":141.401407,"zip":"0620041"},{"town":"福住一条二丁目","koaza":"","lat":43.019503,"lng":141.399915,"zip":"0620041"},{"town":"福住一条三丁目","koaza":"","lat":43.01811,"lng":141.397527,"zip":"0620041"},{"town":"福住一条四丁目","koaza":"","lat":43.016576,"lng":141.395862,"zip":"0620041"},{"town":"福住一条五丁目","koaza":"","lat":43.014735,"lng":141.394175,"zip":"0620041"},{"town":"福住一条六丁目","koaza":"","lat":43.012667,"lng":141.393802,"zip":"0620041"},{"town":"福住一条七丁目","koaza":"","lat":43.010097,"lng":141.391602,"zip":"0620041"},{"town":"福住一条八丁目","koaza":"","lat":43.008168,"lng":141.390467,"zip":"0620041"},{"town":"福住一条九丁目","koaza":"","lat":43.006028,"lng":141.388978,"zip":"0620041"},{"town":"福住二条十丁目","koaza":"","lat":43.003286,"lng":141.389379,"zip":"0620042"},{"town":"福住二条十一丁目","koaza":"","lat":43.001495,"lng":141.388241,"zip":"0620042"},{"town":"福住二条一丁目","koaza":"","lat":43.019842,"lng":141.403744,"zip":"0620042"},{"town":"福住二条二丁目","koaza":"","lat":43.017765,"lng":141.402631,"zip":"0620042"},{"town":"福住二条三丁目","koaza":"","lat":43.016508,"lng":141.402179,"zip":"0620042"},{"town":"福住二条四丁目","koaza":"","lat":43.015556,"lng":141.399716,"zip":"0620042"},{"town":"福住二条五丁目","koaza":"","lat":43.013563,"lng":141.39822,"zip":"0620042"},{"town":"福住二条六丁目","koaza":"","lat":43.012187,"lng":141.396781,"zip":"0620042"},{"town":"福住二条七丁目","koaza":"","lat":43.009894,"lng":141.395062,"zip":"0620042"},{"town":"福住二条八丁目","koaza":"","lat":43.00743,"lng":141.392939,"zip":"0620042"},{"town":"福住二条九丁目","koaza":"","lat":43.005196,"lng":141.391025,"zip":"0620042"},{"town":"福住三条十丁目","koaza":"","lat":43.001886,"lng":141.391219,"zip":"0620043"},{"town":"福住三条十一丁目","koaza":"","lat":43.000265,"lng":141.389478,"zip":"0620043"},{"town":"福住三条十二丁目","koaza":"","lat":42.999242,"lng":141.388055,"zip":"0620043"},{"town":"福住三条一丁目","koaza":"","lat":43.01786,"lng":141.406494,"zip":"0620043"},{"town":"福住三条二丁目","koaza":"","lat":43.016269,"lng":141.405719,"zip":"0620043"},{"town":"福住三条三丁目","koaza":"","lat":43.014946,"lng":141.404017,"zip":"0620043"},{"town":"福住三条四丁目","koaza":"","lat":43.014074,"lng":141.402899,"zip":"0620043"},{"town":"福住三条五丁目","koaza":"","lat":43.012999,"lng":141.401845,"zip":"0620043"},{"town":"福住三条六丁目","koaza":"","lat":43.011635,"lng":141.400437,"zip":"0620043"},{"town":"福住三条七丁目","koaza":"","lat":43.009657,"lng":141.398555,"zip":"0620043"},{"town":"福住三条八丁目","koaza":"","lat":43.0066,"lng":141.395563,"zip":"0620043"},{"town":"福住三条九丁目","koaza":"","lat":43.003934,"lng":141.393093,"zip":"0620043"},{"town":"美園十条四丁目","koaza":"","lat":43.036732,"lng":141.380034,"zip":"0620010"},{"town":"美園十条五丁目","koaza":"","lat":43.035809,"lng":141.381768,"zip":"0620010"},{"town":"美園十条六丁目","koaza":"","lat":43.034945,"lng":141.383116,"zip":"0620010"},{"town":"美園十条七丁目","koaza":"","lat":43.033782,"lng":141.383967,"zip":"0620010"},{"town":"美園十条八丁目","koaza":"","lat":43.032787,"lng":141.386208,"zip":"0620010"},{"town":"美園十一条四丁目","koaza":"","lat":43.035577,"lng":141.379819,"zip":"0620011"},{"town":"美園十一条五丁目","koaza":"","lat":43.035063,"lng":141.381019,"zip":"0620011"},{"town":"美園十一条六丁目","koaza":"","lat":43.034201,"lng":141.381926,"zip":"0620011"},{"town":"美園十一条七丁目","koaza":"","lat":43.033064,"lng":141.383025,"zip":"0620011"},{"town":"美園十一条八丁目","koaza":"","lat":43.031828,"lng":141.385408,"zip":"0620011"},{"town":"美園十二条六丁目","koaza":"","lat":43.033203,"lng":141.380648,"zip":"0620012"},{"town":"美園十二条七丁目","koaza":"","lat":43.031076,"lng":141.382333,"zip":"0620012"},{"town":"美園十二条八丁目","koaza":"","lat":43.029695,"lng":141.384001,"zip":"0620012"},{"town":"美園一条一丁目","koaza":"","lat":43.046295,"lng":141.38509,"zip":"0620001"},{"town":"美園一条二丁目","koaza":"","lat":43.045591,"lng":141.38631,"zip":"0620001"},{"town":"美園一条三丁目","koaza":"","lat":43.044704,"lng":141.387334,"zip":"0620001"},{"town":"美園一条四丁目","koaza":"","lat":43.044135,"lng":141.388805,"zip":"0620001"},{"town":"美園一条五丁目","koaza":"","lat":43.043324,"lng":141.389952,"zip":"0620001"},{"town":"美園一条六丁目","koaza":"","lat":43.042755,"lng":141.391564,"zip":"0620001"},{"town":"美園一条七丁目","koaza":"","lat":43.041988,"lng":141.392895,"zip":"0620001"},{"town":"美園一条八丁目","koaza":"","lat":43.041294,"lng":141.39388,"zip":"0620001"},{"town":"美園二条一丁目","koaza":"","lat":43.045299,"lng":141.383664,"zip":"0620002"},{"town":"美園二条二丁目","koaza":"","lat":43.0444,"lng":141.385147,"zip":"0620002"},{"town":"美園二条三丁目","koaza":"","lat":43.043728,"lng":141.386324,"zip":"0620002"},{"town":"美園二条四丁目","koaza":"","lat":43.042948,"lng":141.387539,"zip":"0620002"},{"town":"美園二条五丁目","koaza":"","lat":43.042398,"lng":141.388722,"zip":"0620002"},{"town":"美園二条六丁目","koaza":"","lat":43.04174,"lng":141.390407,"zip":"0620002"},{"town":"美園二条七丁目","koaza":"","lat":43.041075,"lng":141.391854,"zip":"0620002"},{"town":"美園二条八丁目","koaza":"","lat":43.040429,"lng":141.39293,"zip":"0620002"},{"town":"美園三条一丁目","koaza":"","lat":43.044411,"lng":141.382593,"zip":"0620003"},{"town":"美園三条二丁目","koaza":"","lat":43.043583,"lng":141.384014,"zip":"0620003"},{"town":"美園三条三丁目","koaza":"","lat":43.042769,"lng":141.385222,"zip":"0620003"},{"town":"美園三条四丁目","koaza":"","lat":43.042081,"lng":141.386614,"zip":"0620003"},{"town":"美園三条五丁目","koaza":"","lat":43.041323,"lng":141.387663,"zip":"0620003"},{"town":"美園三条六丁目","koaza":"","lat":43.040476,"lng":141.38901,"zip":"0620003"},{"town":"美園三条七丁目","koaza":"","lat":43.040097,"lng":141.390748,"zip":"0620003"},{"town":"美園三条八丁目","koaza":"","lat":43.039189,"lng":141.39156,"zip":"0620003"},{"town":"美園四条一丁目","koaza":"","lat":43.043519,"lng":141.381564,"zip":"0620004"},{"town":"美園四条二丁目","koaza":"","lat":43.042608,"lng":141.383062,"zip":"0620004"},{"town":"美園四条三丁目","koaza":"","lat":43.041869,"lng":141.38427,"zip":"0620004"},{"town":"美園四条四丁目","koaza":"","lat":43.041093,"lng":141.38554,"zip":"0620004"},{"town":"美園四条五丁目","koaza":"","lat":43.040427,"lng":141.38665,"zip":"0620004"},{"town":"美園四条六丁目","koaza":"","lat":43.039476,"lng":141.387969,"zip":"0620004"},{"town":"美園四条七丁目","koaza":"","lat":43.038969,"lng":141.38967,"zip":"0620004"},{"town":"美園四条八丁目","koaza":"","lat":43.038106,"lng":141.390666,"zip":"0620004"},{"town":"美園五条一丁目","koaza":"","lat":43.042597,"lng":141.380748,"zip":"0620005"},{"town":"美園五条二丁目","koaza":"","lat":43.041865,"lng":141.382024,"zip":"0620005"},{"town":"美園五条三丁目","koaza":"","lat":43.04101,"lng":141.383469,"zip":"0620005"},{"town":"美園五条四丁目","koaza":"","lat":43.040256,"lng":141.384705,"zip":"0620005"},{"town":"美園五条五丁目","koaza":"","lat":43.039621,"lng":141.385759,"zip":"0620005"},{"town":"美園五条六丁目","koaza":"","lat":43.038811,"lng":141.387082,"zip":"0620005"},{"town":"美園五条七丁目","koaza":"","lat":43.037817,"lng":141.388726,"zip":"0620005"},{"town":"美園五条八丁目","koaza":"","lat":43.037178,"lng":141.390003,"zip":"0620005"},{"town":"美園六条一丁目","koaza":"","lat":43.041912,"lng":141.379955,"zip":"0620006"},{"town":"美園六条二丁目","koaza":"","lat":43.041176,"lng":141.381234,"zip":"0620006"},{"town":"美園六条三丁目","koaza":"","lat":43.040269,"lng":141.38277,"zip":"0620006"},{"town":"美園六条四丁目","koaza":"","lat":43.039394,"lng":141.383823,"zip":"0620006"},{"town":"美園六条五丁目","koaza":"","lat":43.03883,"lng":141.384901,"zip":"0620006"},{"town":"美園六条六丁目","koaza":"","lat":43.038014,"lng":141.386295,"zip":"0620006"},{"town":"美園六条七丁目","koaza":"","lat":43.037205,"lng":141.387463,"zip":"0620006"},{"town":"美園六条八丁目","koaza":"","lat":43.036158,"lng":141.389902,"zip":"0620006"},{"town":"美園七条一丁目","koaza":"","lat":43.041234,"lng":141.379158,"zip":"0620007"},{"town":"美園七条二丁目","koaza":"","lat":43.040416,"lng":141.380119,"zip":"0620007"},{"town":"美園七条三丁目","koaza":"","lat":43.039335,"lng":141.382215,"zip":"0620007"},{"town":"美園七条四丁目","koaza":"","lat":43.038494,"lng":141.383157,"zip":"0620007"},{"town":"美園七条五丁目","koaza":"","lat":43.037972,"lng":141.384041,"zip":"0620007"},{"town":"美園七条六丁目","koaza":"","lat":43.037178,"lng":141.385381,"zip":"0620007"},{"town":"美園七条七丁目","koaza":"","lat":43.036343,"lng":141.386985,"zip":"0620007"},{"town":"美園七条八丁目","koaza":"","lat":43.035442,"lng":141.388843,"zip":"0620007"},{"town":"美園八条一丁目","koaza":"","lat":43.04028,"lng":141.377667,"zip":"0620008"},{"town":"美園八条二丁目","koaza":"","lat":43.03956,"lng":141.378951,"zip":"0620008"},{"town":"美園八条三丁目","koaza":"","lat":43.038533,"lng":141.381245,"zip":"0620008"},{"town":"美園八条四丁目","koaza":"","lat":43.037674,"lng":141.382465,"zip":"0620008"},{"town":"美園八条五丁目","koaza":"","lat":43.037179,"lng":141.383216,"zip":"0620008"},{"town":"美園八条六丁目","koaza":"","lat":43.036395,"lng":141.384538,"zip":"0620008"},{"town":"美園八条七丁目","koaza":"","lat":43.035218,"lng":141.386434,"zip":"0620008"},{"town":"美園八条八丁目","koaza":"","lat":43.03453,"lng":141.388127,"zip":"0620008"},{"town":"美園九条一丁目","koaza":"","lat":43.039112,"lng":141.376679,"zip":"0620009"},{"town":"美園九条二丁目","koaza":"","lat":43.0379,"lng":141.377488,"zip":"0620009"},{"town":"美園九条三丁目","koaza":"","lat":43.038013,"lng":141.379982,"zip":"0620009"},{"town":"美園九条四丁目","koaza":"","lat":43.037156,"lng":141.381253,"zip":"0620009"},{"town":"美園九条五丁目","koaza":"","lat":43.036579,"lng":141.382278,"zip":"0620009"},{"town":"美園九条六丁目","koaza":"","lat":43.035701,"lng":141.383782,"zip":"0620009"},{"town":"美園九条七丁目","koaza":"","lat":43.034571,"lng":141.385126,"zip":"0620009"},{"town":"美園九条八丁目","koaza":"","lat":43.033646,"lng":141.387149,"zip":"0620009"}]