[{"town":"あいの里一条三丁目","koaza":"","lat":43.157077,"lng":141.39018,"zip":"0028071"},{"town":"あいの里一条四丁目","koaza":"","lat":43.156839,"lng":141.394824,"zip":"0028071"},{"town":"あいの里一条五丁目","koaza":"","lat":43.156649,"lng":141.398156,"zip":"0028071"},{"town":"あいの里一条六丁目","koaza":"","lat":43.156436,"lng":141.401094,"zip":"0028071"},{"town":"あいの里一条七丁目","koaza":"","lat":43.155858,"lng":141.405287,"zip":"0028071"},{"town":"あいの里二条一丁目","koaza":"","lat":43.161108,"lng":141.384433,"zip":"0028072"},{"town":"あいの里二条二丁目","koaza":"","lat":43.160795,"lng":141.387684,"zip":"0028072"},{"town":"あいの里二条三丁目","koaza":"","lat":43.160542,"lng":141.390844,"zip":"0028072"},{"town":"あいの里二条四丁目","koaza":"","lat":43.159949,"lng":141.394928,"zip":"0028072"},{"town":"あいの里二条五丁目","koaza":"","lat":43.15976,"lng":141.398246,"zip":"0028072"},{"town":"あいの里二条六丁目","koaza":"","lat":43.159003,"lng":141.401496,"zip":"0028072"},{"town":"あいの里二条七丁目","koaza":"","lat":43.158959,"lng":141.40711,"zip":"0028072"},{"town":"あいの里二条八丁目","koaza":"","lat":43.160724,"lng":141.411247,"zip":"0028072"},{"town":"あいの里三条十丁目","koaza":"","lat":43.167235,"lng":141.417497,"zip":"0028073"},{"town":"あいの里三条一丁目","koaza":"","lat":43.163796,"lng":141.384958,"zip":"0028073"},{"town":"あいの里三条二丁目","koaza":"","lat":43.163619,"lng":141.388905,"zip":"0028073"},{"town":"あいの里三条三丁目","koaza":"","lat":43.163148,"lng":141.392046,"zip":"0028073"},{"town":"あいの里三条四丁目","koaza":"","lat":43.16294,"lng":141.394457,"zip":"0028073"},{"town":"あいの里三条五丁目","koaza":"","lat":43.162312,"lng":141.398094,"zip":"0028073"},{"town":"あいの里三条六丁目","koaza":"","lat":43.161857,"lng":141.402703,"zip":"0028073"},{"town":"あいの里三条七丁目","koaza":"","lat":43.161525,"lng":141.408264,"zip":"0028073"},{"town":"あいの里三条八丁目","koaza":"","lat":43.16412,"lng":141.411554,"zip":"0028073"},{"town":"あいの里三条九丁目","koaza":"","lat":43.165211,"lng":141.414493,"zip":"0028073"},{"town":"あいの里四条十丁目","koaza":"","lat":43.169536,"lng":141.413687,"zip":"0028074"},{"town":"あいの里四条一丁目","koaza":"","lat":43.165263,"lng":141.386268,"zip":"0028074"},{"town":"あいの里四条二丁目","koaza":"","lat":43.166381,"lng":141.388332,"zip":"0028074"},{"town":"あいの里四条三丁目","koaza":"","lat":43.166265,"lng":141.391904,"zip":"0028074"},{"town":"あいの里四条四丁目","koaza":"","lat":43.165787,"lng":141.394896,"zip":"0028074"},{"town":"あいの里四条五丁目","koaza":"","lat":43.165917,"lng":141.398521,"zip":"0028074"},{"town":"あいの里四条六丁目","koaza":"","lat":43.165636,"lng":141.403246,"zip":"0028074"},{"town":"あいの里四条七丁目","koaza":"","lat":43.166905,"lng":141.406184,"zip":"0028074"},{"town":"あいの里四条八丁目","koaza":"","lat":43.166238,"lng":141.409436,"zip":"0028074"},{"town":"あいの里四条九丁目","koaza":"","lat":43.168197,"lng":141.411855,"zip":"0028074"},{"town":"あいの里五条三丁目","koaza":"","lat":43.170298,"lng":141.393498,"zip":"0028075"},{"town":"あいの里五条四丁目","koaza":"","lat":43.170361,"lng":141.39796,"zip":"0028075"},{"town":"麻生町一丁目","koaza":"","lat":43.107768,"lng":141.34316,"zip":"0010045"},{"town":"麻生町二丁目","koaza":"","lat":43.108643,"lng":141.340721,"zip":"0010045"},{"town":"麻生町三丁目","koaza":"","lat":43.109963,"lng":141.341223,"zip":"0010045"},{"town":"麻生町四丁目","koaza":"","lat":43.111074,"lng":141.341197,"zip":"0010045"},{"town":"麻生町五丁目","koaza":"","lat":43.110834,"lng":141.337276,"zip":"0010045"},{"town":"麻生町六丁目","koaza":"","lat":43.112638,"lng":141.340088,"zip":"0010045"},{"town":"麻生町七丁目","koaza":"","lat":43.113957,"lng":141.34073,"zip":"0010045"},{"town":"麻生町八丁目","koaza":"","lat":43.115871,"lng":141.342558,"zip":"0010045"},{"town":"麻生町九丁目","koaza":"","lat":43.116291,"lng":141.341285,"zip":"0010045"},{"town":"北十条西十丁目","koaza":"","lat":43.071676,"lng":141.338853,"zip":"0010010"},{"town":"北十条西十一丁目","koaza":"","lat":43.07151,"lng":141.337304,"zip":"0010010"},{"town":"北十条西一丁目","koaza":"","lat":43.07359,"lng":141.352979,"zip":"0010010"},{"town":"北十条西二丁目","koaza":"","lat":43.073365,"lng":141.351289,"zip":"0010010"},{"town":"北十条西三丁目","koaza":"","lat":43.073152,"lng":141.349723,"zip":"0010010"},{"town":"北十条西四丁目","koaza":"","lat":43.072935,"lng":141.348149,"zip":"0010010"},{"town":"北十条西五丁目","koaza":"","lat":43.072734,"lng":141.346592,"zip":"0010010"},{"town":"北十条西六丁目","koaza":"","lat":43.072536,"lng":141.34504,"zip":"0010010"},{"town":"北十条西七丁目","koaza":"","lat":43.072324,"lng":141.343522,"zip":"0010010"},{"town":"北十条西八丁目","koaza":"","lat":43.072116,"lng":141.342048,"zip":"0010010"},{"town":"北十条西九丁目","koaza":"","lat":43.071904,"lng":141.340511,"zip":"0010010"},{"town":"北十一条西十丁目","koaza":"","lat":43.072839,"lng":141.338549,"zip":"0010011"},{"town":"北十一条西十一丁目","koaza":"","lat":43.072598,"lng":141.336676,"zip":"0010011"},{"town":"北十一条西一丁目","koaza":"","lat":43.074736,"lng":141.352686,"zip":"0010011"},{"town":"北十一条西二丁目","koaza":"","lat":43.074509,"lng":141.350997,"zip":"0010011"},{"town":"北十一条西三丁目","koaza":"","lat":43.074297,"lng":141.349431,"zip":"0010011"},{"town":"北十一条西四丁目","koaza":"","lat":43.074081,"lng":141.347865,"zip":"0010011"},{"town":"北十一条西五丁目","koaza":"","lat":43.073886,"lng":141.34631,"zip":"0010011"},{"town":"北十一条西六丁目","koaza":"","lat":43.073693,"lng":141.344751,"zip":"0010011"},{"town":"北十一条西七丁目","koaza":"","lat":43.07348,"lng":141.343235,"zip":"0010011"},{"town":"北十一条西八丁目","koaza":"","lat":43.073275,"lng":141.34176,"zip":"0010011"},{"town":"北十一条西九丁目","koaza":"","lat":43.073063,"lng":141.340213,"zip":"0010011"},{"town":"北十二条西十丁目","koaza":"","lat":43.074012,"lng":141.338237,"zip":"0010012"},{"town":"北十二条西十一丁目","koaza":"","lat":43.073809,"lng":141.336647,"zip":"0010012"},{"town":"北十二条西十二丁目","koaza":"","lat":43.073662,"lng":141.335271,"zip":"0010012"},{"town":"北十二条西一丁目","koaza":"","lat":43.075865,"lng":141.352385,"zip":"0010012"},{"town":"北十二条西二丁目","koaza":"","lat":43.075653,"lng":141.350704,"zip":"0010012"},{"town":"北十二条西三丁目","koaza":"","lat":43.075438,"lng":141.349137,"zip":"0010012"},{"town":"北十二条西四丁目","koaza":"","lat":43.075223,"lng":141.347572,"zip":"0010012"},{"town":"北十二条西五丁目","koaza":"","lat":43.075042,"lng":141.346012,"zip":"0010012"},{"town":"北十二条西六丁目","koaza":"","lat":43.074859,"lng":141.344454,"zip":"0010012"},{"town":"北十二条西七丁目","koaza":"","lat":43.074653,"lng":141.342939,"zip":"0010012"},{"town":"北十二条西八丁目","koaza":"","lat":43.074454,"lng":141.341468,"zip":"0010012"},{"town":"北十二条西九丁目","koaza":"","lat":43.07424,"lng":141.339915,"zip":"0010012"},{"town":"北十三条西十丁目","koaza":"","lat":43.07516,"lng":141.33794,"zip":"0010013"},{"town":"北十三条西十一丁目","koaza":"","lat":43.074952,"lng":141.336374,"zip":"0010013"},{"town":"北十三条西十二丁目","koaza":"","lat":43.074754,"lng":141.33461,"zip":"0010013"},{"town":"北十三条西一丁目","koaza":"","lat":43.077033,"lng":141.352078,"zip":"0010013"},{"town":"北十三条西二丁目","koaza":"","lat":43.076797,"lng":141.350411,"zip":"0010013"},{"town":"北十三条西三丁目","koaza":"","lat":43.076584,"lng":141.348846,"zip":"0010013"},{"town":"北十三条西四丁目","koaza":"","lat":43.076365,"lng":141.347276,"zip":"0010013"},{"town":"北十三条西五丁目","koaza":"","lat":43.07618,"lng":141.345719,"zip":"0010013"},{"town":"北十三条西六丁目","koaza":"","lat":43.076,"lng":141.344169,"zip":"0010013"},{"town":"北十三条西七丁目","koaza":"","lat":43.075798,"lng":141.342648,"zip":"0010013"},{"town":"北十三条西八丁目","koaza":"","lat":43.075601,"lng":141.341173,"zip":"0010013"},{"town":"北十三条西九丁目","koaza":"","lat":43.07539,"lng":141.339618,"zip":"0010013"},{"town":"北十四条西十丁目","koaza":"","lat":43.076349,"lng":141.337636,"zip":"0010014"},{"town":"北十四条西十一丁目","koaza":"","lat":43.076141,"lng":141.336077,"zip":"0010014"},{"town":"北十四条西十二丁目","koaza":"","lat":43.07595,"lng":141.334675,"zip":"0010014"},{"town":"北十四条西十三丁目","koaza":"","lat":43.075805,"lng":141.332994,"zip":"0010014"},{"town":"北十四条西一丁目","koaza":"","lat":43.078116,"lng":141.351742,"zip":"0010014"},{"town":"北十四条西二丁目","koaza":"","lat":43.077948,"lng":141.350126,"zip":"0010014"},{"town":"北十四条西三丁目","koaza":"","lat":43.077739,"lng":141.348556,"zip":"0010014"},{"town":"北十四条西四丁目","koaza":"","lat":43.077519,"lng":141.346986,"zip":"0010014"},{"town":"北十四条西五丁目","koaza":"","lat":43.07734,"lng":141.345438,"zip":"0010014"},{"town":"北十四条西六丁目","koaza":"","lat":43.077172,"lng":141.343882,"zip":"0010014"},{"town":"北十四条西七丁目","koaza":"","lat":43.076975,"lng":141.342355,"zip":"0010014"},{"town":"北十四条西八丁目","koaza":"","lat":43.076781,"lng":141.34088,"zip":"0010014"},{"town":"北十四条西九丁目","koaza":"","lat":43.076573,"lng":141.339317,"zip":"0010014"},{"town":"北十五条西十丁目","koaza":"","lat":43.077523,"lng":141.337335,"zip":"0010015"},{"town":"北十五条西十一丁目","koaza":"","lat":43.077315,"lng":141.335784,"zip":"0010015"},{"town":"北十五条西十二丁目","koaza":"","lat":43.077122,"lng":141.334382,"zip":"0010015"},{"town":"北十五条西十三丁目","koaza":"","lat":43.076936,"lng":141.332666,"zip":"0010015"},{"town":"北十五条西一丁目","koaza":"","lat":43.079317,"lng":141.351391,"zip":"0010015"},{"town":"北十五条西二丁目","koaza":"","lat":43.079093,"lng":141.349845,"zip":"0010015"},{"town":"北十五条西三丁目","koaza":"","lat":43.078885,"lng":141.348266,"zip":"0010015"},{"town":"北十五条西四丁目","koaza":"","lat":43.078665,"lng":141.346701,"zip":"0010015"},{"town":"北十五条西五丁目","koaza":"","lat":43.078578,"lng":141.345162,"zip":"0010015"},{"town":"北十五条西六丁目","koaza":"","lat":43.078305,"lng":141.34362,"zip":"0010015"},{"town":"北十五条西七丁目","koaza":"","lat":43.078145,"lng":141.342079,"zip":"0010015"},{"town":"北十五条西八丁目","koaza":"","lat":43.077953,"lng":141.340595,"zip":"0010015"},{"town":"北十五条西九丁目","koaza":"","lat":43.077745,"lng":141.339024,"zip":"0010015"},{"town":"北十六条西十丁目","koaza":"","lat":43.078647,"lng":141.33705,"zip":"0010016"},{"town":"北十六条西十一丁目","koaza":"","lat":43.078442,"lng":141.335506,"zip":"0010016"},{"town":"北十六条西十二丁目","koaza":"","lat":43.078254,"lng":141.334097,"zip":"0010016"},{"town":"北十六条西十三丁目","koaza":"","lat":43.077918,"lng":141.332326,"zip":"0010016"},{"town":"北十六条西一丁目","koaza":"","lat":43.080447,"lng":141.351029,"zip":"0010016"},{"town":"北十六条西二丁目","koaza":"","lat":43.080235,"lng":141.349552,"zip":"0010016"},{"town":"北十六条西三丁目","koaza":"","lat":43.080023,"lng":141.347974,"zip":"0010016"},{"town":"北十六条西四丁目","koaza":"","lat":43.079803,"lng":141.346416,"zip":"0010016"},{"town":"北十六条西五丁目","koaza":"","lat":43.079583,"lng":141.344755,"zip":"0010016"},{"town":"北十六条西六丁目","koaza":"","lat":43.079424,"lng":141.343469,"zip":"0010016"},{"town":"北十六条西七丁目","koaza":"","lat":43.079261,"lng":141.341825,"zip":"0010016"},{"town":"北十六条西八丁目","koaza":"","lat":43.079068,"lng":141.340317,"zip":"0010016"},{"town":"北十六条西九丁目","koaza":"","lat":43.078866,"lng":141.338743,"zip":"0010016"},{"town":"北十七条西十丁目","koaza":"","lat":43.079802,"lng":141.336761,"zip":"0010017"},{"town":"北十七条西十一丁目","koaza":"","lat":43.079597,"lng":141.335221,"zip":"0010017"},{"town":"北十七条西十二丁目","koaza":"","lat":43.079409,"lng":141.333808,"zip":"0010017"},{"town":"北十七条西十三丁目","koaza":"","lat":43.079164,"lng":141.332083,"zip":"0010017"},{"town":"北十七条西一丁目","koaza":"","lat":43.081569,"lng":141.350603,"zip":"0010017"},{"town":"北十七条西二丁目","koaza":"","lat":43.081375,"lng":141.349266,"zip":"0010017"},{"town":"北十七条西三丁目","koaza":"","lat":43.081173,"lng":141.347684,"zip":"0010017"},{"town":"北十七条西四丁目","koaza":"","lat":43.08097,"lng":141.346282,"zip":"0010017"},{"town":"北十七条西五丁目","koaza":"","lat":43.080748,"lng":141.344333,"zip":"0010017"},{"town":"北十七条西六丁目","koaza":"","lat":43.080433,"lng":141.343004,"zip":"0010017"},{"town":"北十七条西七丁目","koaza":"","lat":43.080382,"lng":141.341564,"zip":"0010017"},{"town":"北十七条西八丁目","koaza":"","lat":43.080204,"lng":141.340032,"zip":"0010017"},{"town":"北十七条西九丁目","koaza":"","lat":43.080021,"lng":141.338454,"zip":"0010017"},{"town":"北十八条西十丁目","koaza":"","lat":43.081061,"lng":141.336441,"zip":"0010018"},{"town":"北十八条西十一丁目","koaza":"","lat":43.080853,"lng":141.334905,"zip":"0010018"},{"town":"北十八条西十二丁目","koaza":"","lat":43.080665,"lng":141.333499,"zip":"0010018"},{"town":"北十八条西十三丁目","koaza":"","lat":43.080368,"lng":141.331465,"zip":"0010018"},{"town":"北十八条西二丁目","koaza":"","lat":43.082673,"lng":141.349333,"zip":"0010018"},{"town":"北十八条西三丁目","koaza":"","lat":43.082415,"lng":141.347362,"zip":"0010018"},{"town":"北十八条西四丁目","koaza":"","lat":43.08223,"lng":141.345793,"zip":"0010018"},{"town":"北十八条西五丁目","koaza":"","lat":43.082054,"lng":141.344247,"zip":"0010018"},{"town":"北十八条西六丁目","koaza":"","lat":43.081878,"lng":141.342623,"zip":"0010018"},{"town":"北十八条西七丁目","koaza":"","lat":43.081659,"lng":141.340983,"zip":"0010018"},{"town":"北十八条西八丁目","koaza":"","lat":43.081477,"lng":141.339719,"zip":"0010018"},{"town":"北十八条西九丁目","koaza":"","lat":43.081288,"lng":141.338138,"zip":"0010018"},{"town":"北十九条西十丁目","koaza":"","lat":43.082414,"lng":141.33611,"zip":"0010019"},{"town":"北十九条西十一丁目","koaza":"","lat":43.082205,"lng":141.334577,"zip":"0010019"},{"town":"北十九条西十二丁目","koaza":"","lat":43.082016,"lng":141.333176,"zip":"0010019"},{"town":"北十九条西十三丁目","koaza":"","lat":43.081772,"lng":141.331166,"zip":"0010019"},{"town":"北十九条西二丁目","koaza":"","lat":43.084155,"lng":141.34884,"zip":"0010019"},{"town":"北十九条西三丁目","koaza":"","lat":43.083862,"lng":141.347002,"zip":"0010019"},{"town":"北十九条西四丁目","koaza":"","lat":43.083648,"lng":141.345436,"zip":"0010019"},{"town":"北十九条西五丁目","koaza":"","lat":43.083434,"lng":141.343891,"zip":"0010019"},{"town":"北十九条西六丁目","koaza":"","lat":43.083233,"lng":141.342385,"zip":"0010019"},{"town":"北十九条西七丁目","koaza":"","lat":43.083031,"lng":141.340876,"zip":"0010019"},{"town":"北十九条西八丁目","koaza":"","lat":43.082821,"lng":141.339462,"zip":"0010019"},{"town":"北十九条西九丁目","koaza":"","lat":43.082647,"lng":141.337808,"zip":"0010019"},{"town":"北二十条西十丁目","koaza":"","lat":43.083842,"lng":141.335756,"zip":"0010020"},{"town":"北二十条西十一丁目","koaza":"","lat":43.083638,"lng":141.334225,"zip":"0010020"},{"town":"北二十条西十二丁目","koaza":"","lat":43.083451,"lng":141.332827,"zip":"0010020"},{"town":"北二十条西十三丁目","koaza":"","lat":43.083243,"lng":141.33059,"zip":"0010020"},{"town":"北二十条西二丁目","koaza":"","lat":43.085557,"lng":141.348445,"zip":"0010020"},{"town":"北二十条西三丁目","koaza":"","lat":43.085333,"lng":141.346625,"zip":"0010020"},{"town":"北二十条西四丁目","koaza":"","lat":43.085134,"lng":141.345061,"zip":"0010020"},{"town":"北二十条西五丁目","koaza":"","lat":43.084879,"lng":141.343532,"zip":"0010020"},{"town":"北二十条西六丁目","koaza":"","lat":43.084672,"lng":141.342022,"zip":"0010020"},{"town":"北二十条西七丁目","koaza":"","lat":43.084473,"lng":141.340535,"zip":"0010020"},{"town":"北二十条西八丁目","koaza":"","lat":43.084247,"lng":141.339221,"zip":"0010020"},{"town":"北二十条西九丁目","koaza":"","lat":43.084111,"lng":141.337789,"zip":"0010020"},{"town":"北二十一条西十丁目","koaza":"","lat":43.085203,"lng":141.335391,"zip":"0010021"},{"town":"北二十一条西十一丁目","koaza":"","lat":43.085029,"lng":141.333868,"zip":"0010021"},{"town":"北二十一条西十二丁目","koaza":"","lat":43.084858,"lng":141.332481,"zip":"0010021"},{"town":"北二十一条西十三丁目","koaza":"","lat":43.084652,"lng":141.330885,"zip":"0010021"},{"town":"北二十一条西二丁目","koaza":"","lat":43.087039,"lng":141.348043,"zip":"0010021"},{"town":"北二十一条西三丁目","koaza":"","lat":43.086737,"lng":141.346257,"zip":"0010021"},{"town":"北二十一条西四丁目","koaza":"","lat":43.086564,"lng":141.344692,"zip":"0010021"},{"town":"北二十一条西五丁目","koaza":"","lat":43.086318,"lng":141.343163,"zip":"0010021"},{"town":"北二十一条西六丁目","koaza":"","lat":43.086003,"lng":141.341682,"zip":"0010021"},{"town":"北二十一条西七丁目","koaza":"","lat":43.085885,"lng":141.340167,"zip":"0010021"},{"town":"北二十一条西八丁目","koaza":"","lat":43.085735,"lng":141.338414,"zip":"0010021"},{"town":"北二十一条西九丁目","koaza":"","lat":43.085536,"lng":141.336858,"zip":"0010021"},{"town":"北二十二条西十丁目","koaza":"","lat":43.086545,"lng":141.335055,"zip":"0010022"},{"town":"北二十二条西十一丁目","koaza":"","lat":43.086366,"lng":141.33352,"zip":"0010022"},{"town":"北二十二条西十二丁目","koaza":"","lat":43.086085,"lng":141.332188,"zip":"0010022"},{"town":"北二十二条西十三丁目","koaza":"","lat":43.086113,"lng":141.329941,"zip":"0010022"},{"town":"北二十二条西二丁目","koaza":"","lat":43.088396,"lng":141.347686,"zip":"0010022"},{"town":"北二十二条西三丁目","koaza":"","lat":43.088153,"lng":141.3459,"zip":"0010022"},{"town":"北二十二条西四丁目","koaza":"","lat":43.08794,"lng":141.344343,"zip":"0010022"},{"town":"北二十二条西五丁目","koaza":"","lat":43.087734,"lng":141.342805,"zip":"0010022"},{"town":"北二十二条西六丁目","koaza":"","lat":43.087531,"lng":141.341291,"zip":"0010022"},{"town":"北二十二条西七丁目","koaza":"","lat":43.087328,"lng":141.339795,"zip":"0010022"},{"town":"北二十二条西八丁目","koaza":"","lat":43.087125,"lng":141.338301,"zip":"0010022"},{"town":"北二十二条西九丁目","koaza":"","lat":43.086833,"lng":141.336751,"zip":"0010022"},{"town":"北二十三条西十丁目","koaza":"","lat":43.088212,"lng":141.33465,"zip":"0010023"},{"town":"北二十三条西十一丁目","koaza":"","lat":43.088128,"lng":141.332981,"zip":"0010023"},{"town":"北二十三条西十二丁目","koaza":"","lat":43.087797,"lng":141.331789,"zip":"0010023"},{"town":"北二十三条西十三丁目","koaza":"","lat":43.087609,"lng":141.330357,"zip":"0010023"},{"town":"北二十三条西十四丁目","koaza":"","lat":43.087707,"lng":141.328389,"zip":"0010023"},{"town":"北二十三条西二丁目","koaza":"","lat":43.089917,"lng":141.347286,"zip":"0010023"},{"town":"北二十三条西三丁目","koaza":"","lat":43.089675,"lng":141.345515,"zip":"0010023"},{"town":"北二十三条西四丁目","koaza":"","lat":43.08946,"lng":141.343954,"zip":"0010023"},{"town":"北二十三条西五丁目","koaza":"","lat":43.089251,"lng":141.34242,"zip":"0010023"},{"town":"北二十三条西六丁目","koaza":"","lat":43.089047,"lng":141.340908,"zip":"0010023"},{"town":"北二十三条西七丁目","koaza":"","lat":43.088844,"lng":141.339409,"zip":"0010023"},{"town":"北二十三条西八丁目","koaza":"","lat":43.088642,"lng":141.337915,"zip":"0010023"},{"town":"北二十三条西九丁目","koaza":"","lat":43.088472,"lng":141.33642,"zip":"0010023"},{"town":"北二十四条西十丁目","koaza":"","lat":43.089735,"lng":141.334547,"zip":"0010024"},{"town":"北二十四条西十一丁目","koaza":"","lat":43.089401,"lng":141.333153,"zip":"0010024"},{"town":"北二十四条西十二丁目","koaza":"","lat":43.0892,"lng":141.331681,"zip":"0010024"},{"town":"北二十四条西十三丁目","koaza":"","lat":43.089169,"lng":141.329843,"zip":"0010024"},{"town":"北二十四条西十四丁目","koaza":"","lat":43.088438,"lng":141.32782,"zip":"0010024"},{"town":"北二十四条西十五丁目","koaza":"","lat":43.089189,"lng":141.32583,"zip":"0010024"},{"town":"北二十四条西十六丁目","koaza":"","lat":43.089911,"lng":141.324407,"zip":"0010024"},{"town":"北二十四条西十七丁目","koaza":"","lat":43.090608,"lng":141.323224,"zip":"0010024"},{"town":"北二十四条西十八丁目","koaza":"","lat":43.091654,"lng":141.322734,"zip":"0010024"},{"town":"北二十四条西十九丁目","koaza":"","lat":43.092156,"lng":141.321201,"zip":"0010024"},{"town":"北二十四条西二丁目","koaza":"","lat":43.091369,"lng":141.34691,"zip":"0010024"},{"town":"北二十四条西三丁目","koaza":"","lat":43.091168,"lng":141.345142,"zip":"0010024"},{"town":"北二十四条西四丁目","koaza":"","lat":43.090953,"lng":141.343575,"zip":"0010024"},{"town":"北二十四条西五丁目","koaza":"","lat":43.090744,"lng":141.342036,"zip":"0010024"},{"town":"北二十四条西六丁目","koaza":"","lat":43.090538,"lng":141.340527,"zip":"0010024"},{"town":"北二十四条西七丁目","koaza":"","lat":43.090335,"lng":141.339031,"zip":"0010024"},{"town":"北二十四条西八丁目","koaza":"","lat":43.090137,"lng":141.337535,"zip":"0010024"},{"town":"北二十四条西九丁目","koaza":"","lat":43.090062,"lng":141.335902,"zip":"0010024"},{"town":"北二十五条西十一丁目","koaza":"","lat":43.091551,"lng":141.333445,"zip":"0010025"},{"town":"北二十五条西十二丁目","koaza":"","lat":43.090475,"lng":141.331095,"zip":"0010025"},{"town":"北二十五条西十三丁目","koaza":"","lat":43.090278,"lng":141.329143,"zip":"0010025"},{"town":"北二十五条西十四丁目","koaza":"","lat":43.090978,"lng":141.32738,"zip":"0010025"},{"town":"北二十五条西十五丁目","koaza":"","lat":43.091611,"lng":141.325938,"zip":"0010025"},{"town":"北二十五条西十六丁目","koaza":"","lat":43.092265,"lng":141.324625,"zip":"0010025"},{"town":"北二十五条西十七丁目","koaza":"","lat":43.093377,"lng":141.323703,"zip":"0010025"},{"town":"北二十五条西十八丁目","koaza":"","lat":43.093776,"lng":141.32194,"zip":"0010025"},{"town":"北二十五条西二丁目","koaza":"","lat":43.092588,"lng":141.346597,"zip":"0010025"},{"town":"北二十五条西三丁目","koaza":"","lat":43.092349,"lng":141.344843,"zip":"0010025"},{"town":"北二十五条西四丁目","koaza":"","lat":43.092135,"lng":141.343276,"zip":"0010025"},{"town":"北二十五条西五丁目","koaza":"","lat":43.091905,"lng":141.341588,"zip":"0010025"},{"town":"北二十五条西六丁目","koaza":"","lat":43.091722,"lng":141.34023,"zip":"0010025"},{"town":"北二十五条西七丁目","koaza":"","lat":43.09152,"lng":141.338736,"zip":"0010025"},{"town":"北二十五条西八丁目","koaza":"","lat":43.091322,"lng":141.337237,"zip":"0010025"},{"town":"北二十五条西九丁目","koaza":"","lat":43.091143,"lng":141.335854,"zip":"0010025"},{"town":"北二十六条西十二丁目","koaza":"","lat":43.091907,"lng":141.330434,"zip":"0010026"},{"town":"北二十六条西十三丁目","koaza":"","lat":43.092397,"lng":141.328597,"zip":"0010026"},{"town":"北二十六条西十四丁目","koaza":"","lat":43.093077,"lng":141.327226,"zip":"0010026"},{"town":"北二十六条西十五丁目","koaza":"","lat":43.093756,"lng":141.325747,"zip":"0010026"},{"town":"北二十六条西十六丁目","koaza":"","lat":43.094309,"lng":141.32451,"zip":"0010026"},{"town":"北二十六条西十七丁目","koaza":"","lat":43.094892,"lng":141.323134,"zip":"0010026"},{"town":"北二十六条西二丁目","koaza":"","lat":43.093579,"lng":141.346344,"zip":"0010026"},{"town":"北二十六条西三丁目","koaza":"","lat":43.093329,"lng":141.344597,"zip":"0010026"},{"town":"北二十六条西四丁目","koaza":"","lat":43.093108,"lng":141.34303,"zip":"0010026"},{"town":"北二十六条西五丁目","koaza":"","lat":43.092893,"lng":141.341497,"zip":"0010026"},{"town":"北二十六条西六丁目","koaza":"","lat":43.092683,"lng":141.339992,"zip":"0010026"},{"town":"北二十六条西七丁目","koaza":"","lat":43.092499,"lng":141.338495,"zip":"0010026"},{"town":"北二十六条西八丁目","koaza":"","lat":43.092394,"lng":141.337226,"zip":"0010026"},{"town":"北二十六条西九丁目","koaza":"","lat":43.092162,"lng":141.335606,"zip":"0010026"},{"town":"北二十七条西十丁目","koaza":"","lat":43.093211,"lng":141.333391,"zip":"0010027"},{"town":"北二十七条西十一丁目","koaza":"","lat":43.093589,"lng":141.331656,"zip":"0010027"},{"town":"北二十七条西十二丁目","koaza":"","lat":43.093761,"lng":141.329978,"zip":"0010027"},{"town":"北二十七条西十三丁目","koaza":"","lat":43.094648,"lng":141.328397,"zip":"0010027"},{"town":"北二十七条西十四丁目","koaza":"","lat":43.095246,"lng":141.32723,"zip":"0010027"},{"town":"北二十七条西十五丁目","koaza":"","lat":43.09561,"lng":141.32572,"zip":"0010027"},{"town":"北二十七条西十六丁目","koaza":"","lat":43.096403,"lng":141.324217,"zip":"0010027"},{"town":"北二十七条西二丁目","koaza":"","lat":43.094584,"lng":141.346086,"zip":"0010027"},{"town":"北二十七条西三丁目","koaza":"","lat":43.094333,"lng":141.344344,"zip":"0010027"},{"town":"北二十七条西四丁目","koaza":"","lat":43.094107,"lng":141.342782,"zip":"0010027"},{"town":"北二十七条西五丁目","koaza":"","lat":43.093895,"lng":141.34124,"zip":"0010027"},{"town":"北二十七条西六丁目","koaza":"","lat":43.093694,"lng":141.33973,"zip":"0010027"},{"town":"北二十七条西七丁目","koaza":"","lat":43.093434,"lng":141.338067,"zip":"0010027"},{"town":"北二十七条西八丁目","koaza":"","lat":43.093386,"lng":141.336702,"zip":"0010027"},{"town":"北二十七条西九丁目","koaza":"","lat":43.09337,"lng":141.335229,"zip":"0010027"},{"town":"北二十八条西十丁目","koaza":"","lat":43.094723,"lng":141.332641,"zip":"0010028"},{"town":"北二十八条西十一丁目","koaza":"","lat":43.095386,"lng":141.331199,"zip":"0010028"},{"town":"北二十八条西十二丁目","koaza":"","lat":43.096034,"lng":141.329796,"zip":"0010028"},{"town":"北二十八条西十三丁目","koaza":"","lat":43.096652,"lng":141.328448,"zip":"0010028"},{"town":"北二十八条西十四丁目","koaza":"","lat":43.097276,"lng":141.327093,"zip":"0010028"},{"town":"北二十八条西十五丁目","koaza":"","lat":43.097976,"lng":141.325635,"zip":"0010028"},{"town":"北二十八条西二丁目","koaza":"","lat":43.095541,"lng":141.345837,"zip":"0010028"},{"town":"北二十八条西三丁目","koaza":"","lat":43.095409,"lng":141.34414,"zip":"0010028"},{"town":"北二十八条西四丁目","koaza":"","lat":43.095087,"lng":141.342535,"zip":"0010028"},{"town":"北二十八条西五丁目","koaza":"","lat":43.094951,"lng":141.340979,"zip":"0010028"},{"town":"北二十八条西六丁目","koaza":"","lat":43.09474,"lng":141.339464,"zip":"0010028"},{"town":"北二十八条西七丁目","koaza":"","lat":43.094469,"lng":141.33796,"zip":"0010028"},{"town":"北二十八条西八丁目","koaza":"","lat":43.094425,"lng":141.336499,"zip":"0010028"},{"town":"北二十八条西九丁目","koaza":"","lat":43.094088,"lng":141.3343,"zip":"0010028"},{"town":"北二十九条西十丁目","koaza":"","lat":43.095581,"lng":141.333379,"zip":"0010029"},{"town":"北二十九条西十一丁目","koaza":"","lat":43.096377,"lng":141.331884,"zip":"0010029"},{"town":"北二十九条西十二丁目","koaza":"","lat":43.09692,"lng":141.330555,"zip":"0010029"},{"town":"北二十九条西十三丁目","koaza":"","lat":43.097505,"lng":141.329185,"zip":"0010029"},{"town":"北二十九条西十四丁目","koaza":"","lat":43.098136,"lng":141.327827,"zip":"0010029"},{"town":"北二十九条西十五丁目","koaza":"","lat":43.098781,"lng":141.326492,"zip":"0010029"},{"town":"北二十九条西二丁目","koaza":"","lat":43.096556,"lng":141.345345,"zip":"0010029"},{"town":"北二十九条西三丁目","koaza":"","lat":43.096217,"lng":141.343636,"zip":"0010029"},{"town":"北二十九条西四丁目","koaza":"","lat":43.096172,"lng":141.342253,"zip":"0010029"},{"town":"北二十九条西五丁目","koaza":"","lat":43.09585,"lng":141.340754,"zip":"0010029"},{"town":"北二十九条西六丁目","koaza":"","lat":43.095554,"lng":141.339268,"zip":"0010029"},{"town":"北二十九条西七丁目","koaza":"","lat":43.095299,"lng":141.337746,"zip":"0010029"},{"town":"北二十九条西八丁目","koaza":"","lat":43.095159,"lng":141.336309,"zip":"0010029"},{"town":"北二十九条西九丁目","koaza":"","lat":43.094796,"lng":141.334835,"zip":"0010029"},{"town":"北三十条西十丁目","koaza":"","lat":43.097052,"lng":141.332634,"zip":"0010030"},{"town":"北三十条西十一丁目","koaza":"","lat":43.097543,"lng":141.331195,"zip":"0010030"},{"town":"北三十条西十二丁目","koaza":"","lat":43.09825,"lng":141.329847,"zip":"0010030"},{"town":"北三十条西十三丁目","koaza":"","lat":43.098855,"lng":141.328449,"zip":"0010030"},{"town":"北三十条西十四丁目","koaza":"","lat":43.099398,"lng":141.326987,"zip":"0010030"},{"town":"北三十条西二丁目","koaza":"","lat":43.097539,"lng":141.345327,"zip":"0010030"},{"town":"北三十条西三丁目","koaza":"","lat":43.097193,"lng":141.343626,"zip":"0010030"},{"town":"北三十条西四丁目","koaza":"","lat":43.097073,"lng":141.341863,"zip":"0010030"},{"town":"北三十条西五丁目","koaza":"","lat":43.096774,"lng":141.340516,"zip":"0010030"},{"town":"北三十条西六丁目","koaza":"","lat":43.096568,"lng":141.339011,"zip":"0010030"},{"town":"北三十条西七丁目","koaza":"","lat":43.096303,"lng":141.337491,"zip":"0010030"},{"town":"北三十条西八丁目","koaza":"","lat":43.096109,"lng":141.336059,"zip":"0010030"},{"town":"北三十条西九丁目","koaza":"","lat":43.096083,"lng":141.334498,"zip":"0010030"},{"town":"北三十一条西十丁目","koaza":"","lat":43.098048,"lng":141.333335,"zip":"0010031"},{"town":"北三十一条西十一丁目","koaza":"","lat":43.098486,"lng":141.33194,"zip":"0010031"},{"town":"北三十一条西十二丁目","koaza":"","lat":43.099183,"lng":141.330628,"zip":"0010031"},{"town":"北三十一条西十三丁目","koaza":"","lat":43.099788,"lng":141.329243,"zip":"0010031"},{"town":"北三十一条西十四丁目","koaza":"","lat":43.100239,"lng":141.327716,"zip":"0010031"},{"town":"北三十一条西二丁目","koaza":"","lat":43.098479,"lng":141.345074,"zip":"0010031"},{"town":"北三十一条西三丁目","koaza":"","lat":43.098235,"lng":141.343351,"zip":"0010031"},{"town":"北三十一条西四丁目","koaza":"","lat":43.098013,"lng":141.34179,"zip":"0010031"},{"town":"北三十一条西五丁目","koaza":"","lat":43.097793,"lng":141.340261,"zip":"0010031"},{"town":"北三十一条西六丁目","koaza":"","lat":43.097579,"lng":141.338752,"zip":"0010031"},{"town":"北三十一条西七丁目","koaza":"","lat":43.097365,"lng":141.337223,"zip":"0010031"},{"town":"北三十一条西八丁目","koaza":"","lat":43.097056,"lng":141.335653,"zip":"0010031"},{"town":"北三十一条西九丁目","koaza":"","lat":43.097305,"lng":141.334202,"zip":"0010031"},{"town":"北三十二条西十丁目","koaza":"","lat":43.099451,"lng":141.332764,"zip":"0010032"},{"town":"北三十二条西十一丁目","koaza":"","lat":43.099766,"lng":141.331262,"zip":"0010032"},{"town":"北三十二条西十二丁目","koaza":"","lat":43.100162,"lng":141.330152,"zip":"0010032"},{"town":"北三十二条西十三丁目","koaza":"","lat":43.101299,"lng":141.328654,"zip":"0010032"},{"town":"北三十二条西二丁目","koaza":"","lat":43.099595,"lng":141.344781,"zip":"0010032"},{"town":"北三十二条西三丁目","koaza":"","lat":43.099342,"lng":141.343078,"zip":"0010032"},{"town":"北三十二条西四丁目","koaza":"","lat":43.099113,"lng":141.341521,"zip":"0010032"},{"town":"北三十二条西五丁目","koaza":"","lat":43.098994,"lng":141.3398,"zip":"0010032"},{"town":"北三十二条西六丁目","koaza":"","lat":43.098728,"lng":141.338456,"zip":"0010032"},{"town":"北三十二条西七丁目","koaza":"","lat":43.098416,"lng":141.336958,"zip":"0010032"},{"town":"北三十二条西八丁目","koaza":"","lat":43.098237,"lng":141.33528,"zip":"0010032"},{"town":"北三十二条西九丁目","koaza":"","lat":43.098944,"lng":141.33408,"zip":"0010032"},{"town":"北三十三条西十丁目","koaza":"","lat":43.101029,"lng":141.332262,"zip":"0010033"},{"town":"北三十三条西十一丁目","koaza":"","lat":43.10142,"lng":141.330683,"zip":"0010033"},{"town":"北三十三条西十二丁目","koaza":"","lat":43.102284,"lng":141.329523,"zip":"0010033"},{"town":"北三十三条西二丁目","koaza":"","lat":43.100608,"lng":141.344529,"zip":"0010033"},{"town":"北三十三条西三丁目","koaza":"","lat":43.100357,"lng":141.34282,"zip":"0010033"},{"town":"北三十三条西四丁目","koaza":"","lat":43.100139,"lng":141.341266,"zip":"0010033"},{"town":"北三十三条西五丁目","koaza":"","lat":43.099963,"lng":141.339712,"zip":"0010033"},{"town":"北三十三条西六丁目","koaza":"","lat":43.099651,"lng":141.338222,"zip":"0010033"},{"town":"北三十三条西七丁目","koaza":"","lat":43.09946,"lng":141.336692,"zip":"0010033"},{"town":"北三十三条西八丁目","koaza":"","lat":43.099238,"lng":141.335314,"zip":"0010033"},{"town":"北三十三条西九丁目","koaza":"","lat":43.100652,"lng":141.333987,"zip":"0010033"},{"town":"北三十四条西十丁目","koaza":"","lat":43.103121,"lng":141.332137,"zip":"0010034"},{"town":"北三十四条西十一丁目","koaza":"","lat":43.103832,"lng":141.33053,"zip":"0010034"},{"town":"北三十四条西二丁目","koaza":"","lat":43.101574,"lng":141.344291,"zip":"0010034"},{"town":"北三十四条西三丁目","koaza":"","lat":43.101377,"lng":141.342554,"zip":"0010034"},{"town":"北三十四条西四丁目","koaza":"","lat":43.101169,"lng":141.340996,"zip":"0010034"},{"town":"北三十四条西五丁目","koaza":"","lat":43.100955,"lng":141.33946,"zip":"0010034"},{"town":"北三十四条西六丁目","koaza":"","lat":43.100902,"lng":141.338027,"zip":"0010034"},{"town":"北三十四条西七丁目","koaza":"","lat":43.101329,"lng":141.335938,"zip":"0010034"},{"town":"北三十四条西八丁目","koaza":"","lat":43.102134,"lng":141.33451,"zip":"0010034"},{"town":"北三十四条西九丁目","koaza":"","lat":43.102264,"lng":141.333487,"zip":"0010034"},{"town":"北三十五条西十丁目","koaza":"","lat":43.10501,"lng":141.331883,"zip":"0010035"},{"town":"北三十五条西二丁目","koaza":"","lat":43.102644,"lng":141.34436,"zip":"0010035"},{"town":"北三十五条西三丁目","koaza":"","lat":43.102494,"lng":141.342324,"zip":"0010035"},{"town":"北三十五条西四丁目","koaza":"","lat":43.102247,"lng":141.340715,"zip":"0010035"},{"town":"北三十五条西五丁目","koaza":"","lat":43.102032,"lng":141.339075,"zip":"0010035"},{"town":"北三十五条西六丁目","koaza":"","lat":43.102557,"lng":141.337674,"zip":"0010035"},{"town":"北三十五条西七丁目","koaza":"","lat":43.103159,"lng":141.33614,"zip":"0010035"},{"town":"北三十五条西八丁目","koaza":"","lat":43.103933,"lng":141.334768,"zip":"0010035"},{"town":"北三十五条西九丁目","koaza":"","lat":43.104397,"lng":141.333106,"zip":"0010035"},{"town":"北三十六条西十丁目","koaza":"","lat":43.105952,"lng":141.33267,"zip":"0010036"},{"town":"北三十六条西二丁目","koaza":"","lat":43.103857,"lng":141.344073,"zip":"0010036"},{"town":"北三十六条西三丁目","koaza":"","lat":43.103697,"lng":141.342122,"zip":"0010036"},{"town":"北三十六条西四丁目","koaza":"","lat":43.103509,"lng":141.340389,"zip":"0010036"},{"town":"北三十六条西五丁目","koaza":"","lat":43.10325,"lng":141.338851,"zip":"0010036"},{"town":"北三十六条西六丁目","koaza":"","lat":43.103629,"lng":141.337867,"zip":"0010036"},{"town":"北三十六条西七丁目","koaza":"","lat":43.104003,"lng":141.33681,"zip":"0010036"},{"town":"北三十六条西八丁目","koaza":"","lat":43.104901,"lng":141.335132,"zip":"0010036"},{"town":"北三十六条西九丁目","koaza":"","lat":43.105483,"lng":141.333706,"zip":"0010036"},{"town":"北三十七条西二丁目","koaza":"","lat":43.105017,"lng":141.343979,"zip":"0010037"},{"town":"北三十七条西三丁目","koaza":"","lat":43.104965,"lng":141.341913,"zip":"0010037"},{"town":"北三十七条西四丁目","koaza":"","lat":43.104742,"lng":141.340022,"zip":"0010037"},{"town":"北三十七条西五丁目","koaza":"","lat":43.104477,"lng":141.338718,"zip":"0010037"},{"town":"北三十七条西六丁目","koaza":"","lat":43.104934,"lng":141.337509,"zip":"0010037"},{"town":"北三十七条西七丁目","koaza":"","lat":43.10563,"lng":141.33641,"zip":"0010037"},{"town":"北三十七条西八丁目","koaza":"","lat":43.106189,"lng":141.334814,"zip":"0010037"},{"town":"北三十七条西九丁目","koaza":"","lat":43.106925,"lng":141.333508,"zip":"0010037"},{"town":"北三十八条西二丁目","koaza":"","lat":43.106367,"lng":141.342888,"zip":"0010038"},{"town":"北三十八条西三丁目","koaza":"","lat":43.106008,"lng":141.341355,"zip":"0010038"},{"town":"北三十八条西四丁目","koaza":"","lat":43.105984,"lng":141.339613,"zip":"0010038"},{"town":"北三十八条西五丁目","koaza":"","lat":43.105588,"lng":141.338361,"zip":"0010038"},{"town":"北三十八条西六丁目","koaza":"","lat":43.106527,"lng":141.336987,"zip":"0010038"},{"town":"北三十八条西七丁目","koaza":"","lat":43.107206,"lng":141.335755,"zip":"0010038"},{"town":"北三十八条西八丁目","koaza":"","lat":43.107801,"lng":141.334271,"zip":"0010038"},{"town":"北三十九条西三丁目","koaza":"","lat":43.107241,"lng":141.341137,"zip":"0010039"},{"town":"北三十九条西四丁目","koaza":"","lat":43.107033,"lng":141.339504,"zip":"0010039"},{"town":"北三十九条西五丁目","koaza":"","lat":43.107221,"lng":141.337681,"zip":"0010039"},{"town":"北三十九条西六丁目","koaza":"","lat":43.108048,"lng":141.335995,"zip":"0010039"},{"town":"北三十九条西七丁目","koaza":"","lat":43.108585,"lng":141.334938,"zip":"0010039"},{"town":"北四十条西四丁目","koaza":"","lat":43.108336,"lng":141.339158,"zip":"0010040"},{"town":"北四十条西五丁目","koaza":"","lat":43.108716,"lng":141.337099,"zip":"0010040"},{"town":"北四十条西六丁目","koaza":"","lat":43.109575,"lng":141.33579,"zip":"0010040"},{"town":"北六条西一丁目","koaza":"","lat":43.069102,"lng":141.354132,"zip":"0600806"},{"town":"北六条西二丁目","koaza":"","lat":43.068903,"lng":141.352411,"zip":"0600806"},{"town":"北六条西三丁目","koaza":"","lat":43.068667,"lng":141.350807,"zip":"0600806"},{"town":"北六条西四丁目","koaza":"","lat":43.068455,"lng":141.349246,"zip":"0600806"},{"town":"北六条西五丁目","koaza":"","lat":43.068108,"lng":141.347744,"zip":"0600806"},{"town":"北六条西六丁目","koaza":"","lat":43.0678,"lng":141.346289,"zip":"0600806"},{"town":"北六条西七丁目","koaza":"","lat":43.067673,"lng":141.344916,"zip":"0600806"},{"town":"北六条西八丁目","koaza":"","lat":43.0675,"lng":141.343217,"zip":"0600806"},{"town":"北六条西九丁目","koaza":"","lat":43.067345,"lng":141.34144,"zip":"0600806"},{"town":"北七条西十丁目","koaza":"","lat":43.067741,"lng":141.339818,"zip":"0600807"},{"town":"北七条西一丁目","koaza":"","lat":43.070177,"lng":141.353858,"zip":"0600807"},{"town":"北七条西二丁目","koaza":"","lat":43.069938,"lng":141.352145,"zip":"0600807"},{"town":"北七条西三丁目","koaza":"","lat":43.069712,"lng":141.350551,"zip":"0600807"},{"town":"北七条西四丁目","koaza":"","lat":43.06951,"lng":141.34899,"zip":"0600807"},{"town":"北七条西五丁目","koaza":"","lat":43.069302,"lng":141.34744,"zip":"0600807"},{"town":"北七条西六丁目","koaza":"","lat":43.06907,"lng":141.345752,"zip":"0600807"},{"town":"北七条西七丁目","koaza":"","lat":43.068873,"lng":141.344414,"zip":"0600807"},{"town":"北七条西八丁目","koaza":"","lat":43.068499,"lng":141.342884,"zip":"0600807"},{"town":"北七条西九丁目","koaza":"","lat":43.068465,"lng":141.341257,"zip":"0600807"},{"town":"北八条西十丁目","koaza":"","lat":43.069382,"lng":141.33939,"zip":"0600808"},{"town":"北八条西十一丁目","koaza":"","lat":43.069352,"lng":141.336835,"zip":"0600808"},{"town":"北八条西一丁目","koaza":"","lat":43.071312,"lng":141.353558,"zip":"0600808"},{"town":"北八条西二丁目","koaza":"","lat":43.071088,"lng":141.351854,"zip":"0600808"},{"town":"北八条西三丁目","koaza":"","lat":43.070876,"lng":141.350275,"zip":"0600808"},{"town":"北八条西四丁目","koaza":"","lat":43.070658,"lng":141.348709,"zip":"0600808"},{"town":"北八条西五丁目","koaza":"","lat":43.070446,"lng":141.347151,"zip":"0600808"},{"town":"北八条西六丁目","koaza":"","lat":43.070278,"lng":141.345634,"zip":"0600808"},{"town":"北八条西七丁目","koaza":"","lat":43.070066,"lng":141.344282,"zip":"0600808"},{"town":"北八条西八丁目","koaza":"","lat":43.069841,"lng":141.342615,"zip":"0600808"},{"town":"北八条西九丁目","koaza":"","lat":43.069628,"lng":141.341076,"zip":"0600808"},{"town":"北九条西十丁目","koaza":"","lat":43.070541,"lng":141.339138,"zip":"0600809"},{"town":"北九条西十一丁目","koaza":"","lat":43.070384,"lng":141.337919,"zip":"0600809"},{"town":"北九条西一丁目","koaza":"","lat":43.072446,"lng":141.353262,"zip":"0600809"},{"town":"北九条西二丁目","koaza":"","lat":43.072225,"lng":141.351574,"zip":"0600809"},{"town":"北九条西三丁目","koaza":"","lat":43.072012,"lng":141.350002,"zip":"0600809"},{"town":"北九条西四丁目","koaza":"","lat":43.071792,"lng":141.348426,"zip":"0600809"},{"town":"北九条西五丁目","koaza":"","lat":43.071589,"lng":141.346866,"zip":"0600809"},{"town":"北九条西六丁目","koaza":"","lat":43.071401,"lng":141.345333,"zip":"0600809"},{"town":"北九条西七丁目","koaza":"","lat":43.071199,"lng":141.343819,"zip":"0600809"},{"town":"北九条西八丁目","koaza":"","lat":43.07099,"lng":141.34233,"zip":"0600809"},{"town":"北九条西九丁目","koaza":"","lat":43.070776,"lng":141.340795,"zip":"0600809"},{"town":"篠路十条一丁目","koaza":"","lat":43.157959,"lng":141.3532,"zip":"0028030"},{"town":"篠路十条二丁目","koaza":"","lat":43.157627,"lng":141.355454,"zip":"0028030"},{"town":"篠路十条三丁目","koaza":"","lat":43.157352,"lng":141.358063,"zip":"0028030"},{"town":"篠路十条四丁目","koaza":"","lat":43.15735,"lng":141.360315,"zip":"0028030"},{"town":"篠路一条十丁目","koaza":"","lat":43.137547,"lng":141.370506,"zip":"0028021"},{"town":"篠路一条一丁目","koaza":"","lat":43.141556,"lng":141.349808,"zip":"0028021"},{"town":"篠路一条二丁目","koaza":"","lat":43.141213,"lng":141.352227,"zip":"0028021"},{"town":"篠路一条三丁目","koaza":"","lat":43.140885,"lng":141.354448,"zip":"0028021"},{"town":"篠路一条四丁目","koaza":"","lat":43.140743,"lng":141.356653,"zip":"0028021"},{"town":"篠路一条五丁目","koaza":"","lat":43.139874,"lng":141.359328,"zip":"0028021"},{"town":"篠路一条六丁目","koaza":"","lat":43.139703,"lng":141.361989,"zip":"0028021"},{"town":"篠路一条七丁目","koaza":"","lat":43.13931,"lng":141.364502,"zip":"0028021"},{"town":"篠路一条八丁目","koaza":"","lat":43.137927,"lng":141.36775,"zip":"0028021"},{"town":"篠路一条九丁目","koaza":"","lat":43.139357,"lng":141.369011,"zip":"0028021"},{"town":"篠路二条十丁目","koaza":"","lat":43.14095,"lng":141.37292,"zip":"0028022"},{"town":"篠路二条一丁目","koaza":"","lat":43.143955,"lng":141.35015,"zip":"0028022"},{"town":"篠路二条二丁目","koaza":"","lat":43.143662,"lng":141.352574,"zip":"0028022"},{"town":"篠路二条三丁目","koaza":"","lat":43.143339,"lng":141.354988,"zip":"0028022"},{"town":"篠路二条四丁目","koaza":"","lat":43.142945,"lng":141.357167,"zip":"0028022"},{"town":"篠路二条五丁目","koaza":"","lat":43.142618,"lng":141.359918,"zip":"0028022"},{"town":"篠路二条六丁目","koaza":"","lat":43.141973,"lng":141.362528,"zip":"0028022"},{"town":"篠路二条七丁目","koaza":"","lat":43.141582,"lng":141.364419,"zip":"0028022"},{"town":"篠路二条八丁目","koaza":"","lat":43.141237,"lng":141.366667,"zip":"0028022"},{"town":"篠路二条九丁目","koaza":"","lat":43.141628,"lng":141.369406,"zip":"0028022"},{"town":"篠路三条十丁目","koaza":"","lat":43.142653,"lng":141.37422,"zip":"0028023"},{"town":"篠路三条一丁目","koaza":"","lat":43.146065,"lng":141.350609,"zip":"0028023"},{"town":"篠路三条二丁目","koaza":"","lat":43.145819,"lng":141.353412,"zip":"0028023"},{"town":"篠路三条三丁目","koaza":"","lat":43.145475,"lng":141.356199,"zip":"0028023"},{"town":"篠路三条四丁目","koaza":"","lat":43.145434,"lng":141.35811,"zip":"0028023"},{"town":"篠路三条五丁目","koaza":"","lat":43.145032,"lng":141.360124,"zip":"0028023"},{"town":"篠路三条六丁目","koaza":"","lat":43.144621,"lng":141.362796,"zip":"0028023"},{"town":"篠路三条七丁目","koaza":"","lat":43.143867,"lng":141.364944,"zip":"0028023"},{"town":"篠路三条八丁目","koaza":"","lat":43.144101,"lng":141.367843,"zip":"0028023"},{"town":"篠路三条九丁目","koaza":"","lat":43.143611,"lng":141.371146,"zip":"0028023"},{"town":"篠路四条十丁目","koaza":"","lat":43.145585,"lng":141.374708,"zip":"0028024"},{"town":"篠路四条一丁目","koaza":"","lat":43.148186,"lng":141.351126,"zip":"0028024"},{"town":"篠路四条二丁目","koaza":"","lat":43.147952,"lng":141.353504,"zip":"0028024"},{"town":"篠路四条三丁目","koaza":"","lat":43.147636,"lng":141.356315,"zip":"0028024"},{"town":"篠路四条四丁目","koaza":"","lat":43.147346,"lng":141.35856,"zip":"0028024"},{"town":"篠路四条五丁目","koaza":"","lat":43.147132,"lng":141.360574,"zip":"0028024"},{"town":"篠路四条六丁目","koaza":"","lat":43.146795,"lng":141.36325,"zip":"0028024"},{"town":"篠路四条七丁目","koaza":"","lat":43.146336,"lng":141.365338,"zip":"0028024"},{"town":"篠路四条八丁目","koaza":"","lat":43.14657,"lng":141.367451,"zip":"0028024"},{"town":"篠路四条九丁目","koaza":"","lat":43.145495,"lng":141.371456,"zip":"0028024"},{"town":"篠路五条十丁目","koaza":"","lat":43.149092,"lng":141.372993,"zip":"0028025"},{"town":"篠路五条一丁目","koaza":"","lat":43.1499,"lng":141.351521,"zip":"0028025"},{"town":"篠路五条二丁目","koaza":"","lat":43.149646,"lng":141.353876,"zip":"0028025"},{"town":"篠路五条三丁目","koaza":"","lat":43.149423,"lng":141.35673,"zip":"0028025"},{"town":"篠路五条四丁目","koaza":"","lat":43.149133,"lng":141.358988,"zip":"0028025"},{"town":"篠路五条五丁目","koaza":"","lat":43.148864,"lng":141.360983,"zip":"0028025"},{"town":"篠路五条六丁目","koaza":"","lat":43.148538,"lng":141.363779,"zip":"0028025"},{"town":"篠路五条七丁目","koaza":"","lat":43.148395,"lng":141.366062,"zip":"0028025"},{"town":"篠路五条八丁目","koaza":"","lat":43.147883,"lng":141.368047,"zip":"0028025"},{"town":"篠路五条九丁目","koaza":"","lat":43.148288,"lng":141.370954,"zip":"0028025"},{"town":"篠路六条一丁目","koaza":"","lat":43.151063,"lng":141.351993,"zip":"0028026"},{"town":"篠路六条二丁目","koaza":"","lat":43.151138,"lng":141.354212,"zip":"0028026"},{"town":"篠路六条三丁目","koaza":"","lat":43.150869,"lng":141.356611,"zip":"0028026"},{"town":"篠路六条四丁目","koaza":"","lat":43.150828,"lng":141.358922,"zip":"0028026"},{"town":"篠路六条五丁目","koaza":"","lat":43.150458,"lng":141.361354,"zip":"0028026"},{"town":"篠路六条六丁目","koaza":"","lat":43.150105,"lng":141.364429,"zip":"0028026"},{"town":"篠路六条七丁目","koaza":"","lat":43.149543,"lng":141.367136,"zip":"0028026"},{"town":"篠路六条八丁目","koaza":"","lat":43.148893,"lng":141.368301,"zip":"0028026"},{"town":"篠路七条一丁目","koaza":"","lat":43.152929,"lng":141.352099,"zip":"0028027"},{"town":"篠路七条二丁目","koaza":"","lat":43.15274,"lng":141.3542,"zip":"0028027"},{"town":"篠路七条三丁目","koaza":"","lat":43.152329,"lng":141.35691,"zip":"0028027"},{"town":"篠路七条四丁目","koaza":"","lat":43.152233,"lng":141.359216,"zip":"0028027"},{"town":"篠路七条五丁目","koaza":"","lat":43.151905,"lng":141.36169,"zip":"0028027"},{"town":"篠路七条六丁目","koaza":"","lat":43.151134,"lng":141.36558,"zip":"0028027"},{"town":"篠路七条七丁目","koaza":"","lat":43.15042,"lng":141.368901,"zip":"0028027"},{"town":"篠路七条八丁目","koaza":"","lat":43.149515,"lng":141.370276,"zip":"0028027"},{"town":"篠路八条一丁目","koaza":"","lat":43.154517,"lng":141.352435,"zip":"0028028"},{"town":"篠路八条二丁目","koaza":"","lat":43.154224,"lng":141.354799,"zip":"0028028"},{"town":"篠路八条三丁目","koaza":"","lat":43.153865,"lng":141.35727,"zip":"0028028"},{"town":"篠路八条四丁目","koaza":"","lat":43.153573,"lng":141.359522,"zip":"0028028"},{"town":"篠路八条五丁目","koaza":"","lat":43.153413,"lng":141.361814,"zip":"0028028"},{"town":"篠路八条六丁目","koaza":"","lat":43.153431,"lng":141.36599,"zip":"0028028"},{"town":"篠路八条七丁目","koaza":"","lat":43.151371,"lng":141.370468,"zip":"0028028"},{"town":"篠路九条一丁目","koaza":"","lat":43.156238,"lng":141.352884,"zip":"0028029"},{"town":"篠路九条二丁目","koaza":"","lat":43.15587,"lng":141.355188,"zip":"0028029"},{"town":"篠路九条三丁目","koaza":"","lat":43.155672,"lng":141.357685,"zip":"0028029"},{"town":"篠路九条四丁目","koaza":"","lat":43.155332,"lng":141.359923,"zip":"0028029"},{"town":"篠路九条六丁目","koaza":"","lat":43.155171,"lng":141.364206,"zip":"0028029"},{"town":"篠路町上篠路","koaza":"","lat":43.136684,"lng":141.386645,"zip":"0028052"},{"town":"篠路町篠路","koaza":"","lat":43.164618,"lng":141.369028,"zip":"0028053"},{"town":"篠路町太平","koaza":"","lat":43.128768,"lng":141.371761,"zip":"0028051"},{"town":"篠路町拓北","koaza":"","lat":43.150824,"lng":141.400455,"zip":"0028054"},{"town":"篠路町福移","koaza":"","lat":43.157107,"lng":141.426023,"zip":"0028055"},{"town":"新川","koaza":"","lat":43.126961,"lng":141.288901,"zip":"0010930"},{"town":"新川一条一丁目","koaza":"","lat":43.093326,"lng":141.320323,"zip":"0010921"},{"town":"新川一条二丁目","koaza":"","lat":43.093898,"lng":141.318393,"zip":"0010921"},{"town":"新川一条三丁目","koaza":"","lat":43.095556,"lng":141.316946,"zip":"0010921"},{"town":"新川一条四丁目","koaza":"","lat":43.096723,"lng":141.315304,"zip":"0010921"},{"town":"新川一条五丁目","koaza":"","lat":43.097886,"lng":141.313473,"zip":"0010921"},{"town":"新川一条六丁目","koaza":"","lat":43.099358,"lng":141.311541,"zip":"0010921"},{"town":"新川二条十丁目","koaza":"","lat":43.104251,"lng":141.306057,"zip":"0010922"},{"town":"新川二条十一丁目","koaza":"","lat":43.105046,"lng":141.304284,"zip":"0010922"},{"town":"新川二条十二丁目","koaza":"","lat":43.106374,"lng":141.302141,"zip":"0010922"},{"town":"新川二条十三丁目","koaza":"","lat":43.107809,"lng":141.300232,"zip":"0010922"},{"town":"新川二条一丁目","koaza":"","lat":43.094884,"lng":141.321643,"zip":"0010922"},{"town":"新川二条二丁目","koaza":"","lat":43.096149,"lng":141.320337,"zip":"0010922"},{"town":"新川二条三丁目","koaza":"","lat":43.096844,"lng":141.318442,"zip":"0010922"},{"town":"新川二条四丁目","koaza":"","lat":43.098402,"lng":141.316729,"zip":"0010922"},{"town":"新川二条五丁目","koaza":"","lat":43.099611,"lng":141.314997,"zip":"0010922"},{"town":"新川二条六丁目","koaza":"","lat":43.100968,"lng":141.313242,"zip":"0010922"},{"town":"新川二条七丁目","koaza":"","lat":43.101504,"lng":141.310818,"zip":"0010922"},{"town":"新川二条八丁目","koaza":"","lat":43.102513,"lng":141.30819,"zip":"0010922"},{"town":"新川二条九丁目","koaza":"","lat":43.103393,"lng":141.306787,"zip":"0010922"},{"town":"新川三条十丁目","koaza":"","lat":43.105841,"lng":141.307722,"zip":"0010923"},{"town":"新川三条十一丁目","koaza":"","lat":43.106763,"lng":141.306066,"zip":"0010923"},{"town":"新川三条十二丁目","koaza":"","lat":43.107965,"lng":141.30389,"zip":"0010923"},{"town":"新川三条十三丁目","koaza":"","lat":43.109168,"lng":141.301708,"zip":"0010923"},{"town":"新川三条十四丁目","koaza":"","lat":43.10979,"lng":141.29882,"zip":"0010923"},{"town":"新川三条十五丁目","koaza":"","lat":43.111228,"lng":141.296726,"zip":"0010923"},{"town":"新川三条十六丁目","koaza":"","lat":43.112481,"lng":141.294469,"zip":"0010923"},{"town":"新川三条十七丁目","koaza":"","lat":43.113456,"lng":141.292831,"zip":"0010923"},{"town":"新川三条十八丁目","koaza":"","lat":43.114701,"lng":141.291317,"zip":"0010923"},{"town":"新川三条十九丁目","koaza":"","lat":43.115907,"lng":141.289465,"zip":"0010923"},{"town":"新川三条一丁目","koaza":"","lat":43.096458,"lng":141.323,"zip":"0010923"},{"town":"新川三条二十丁目","koaza":"","lat":43.11699,"lng":141.287765,"zip":"0010923"},{"town":"新川三条二丁目","koaza":"","lat":43.097471,"lng":141.321948,"zip":"0010923"},{"town":"新川三条三丁目","koaza":"","lat":43.098406,"lng":141.320217,"zip":"0010923"},{"town":"新川三条四丁目","koaza":"","lat":43.100221,"lng":141.318083,"zip":"0010923"},{"town":"新川三条五丁目","koaza":"","lat":43.101804,"lng":141.315752,"zip":"0010923"},{"town":"新川三条六丁目","koaza":"","lat":43.103091,"lng":141.314592,"zip":"0010923"},{"town":"新川三条七丁目","koaza":"","lat":43.103295,"lng":141.312322,"zip":"0010923"},{"town":"新川三条八丁目","koaza":"","lat":43.104345,"lng":141.31043,"zip":"0010923"},{"town":"新川三条九丁目","koaza":"","lat":43.105235,"lng":141.308821,"zip":"0010923"},{"town":"新川四条十丁目","koaza":"","lat":43.10718,"lng":141.30912,"zip":"0010924"},{"town":"新川四条十一丁目","koaza":"","lat":43.108152,"lng":141.307551,"zip":"0010924"},{"town":"新川四条十二丁目","koaza":"","lat":43.10931,"lng":141.305279,"zip":"0010924"},{"town":"新川四条十三丁目","koaza":"","lat":43.110514,"lng":141.303105,"zip":"0010924"},{"town":"新川四条十四丁目","koaza":"","lat":43.111731,"lng":141.300892,"zip":"0010924"},{"town":"新川四条十五丁目","koaza":"","lat":43.113111,"lng":141.298395,"zip":"0010924"},{"town":"新川四条十六丁目","koaza":"","lat":43.114302,"lng":141.296385,"zip":"0010924"},{"town":"新川四条十七丁目","koaza":"","lat":43.115134,"lng":141.294144,"zip":"0010924"},{"town":"新川四条十八丁目","koaza":"","lat":43.116404,"lng":141.292717,"zip":"0010924"},{"town":"新川四条十九丁目","koaza":"","lat":43.117436,"lng":141.29083,"zip":"0010924"},{"town":"新川四条一丁目","koaza":"","lat":43.097965,"lng":141.324273,"zip":"0010924"},{"town":"新川四条二十丁目","koaza":"","lat":43.118319,"lng":141.289195,"zip":"0010924"},{"town":"新川四条二丁目","koaza":"","lat":43.098716,"lng":141.322934,"zip":"0010924"},{"town":"新川四条三丁目","koaza":"","lat":43.100142,"lng":141.321248,"zip":"0010924"},{"town":"新川四条四丁目","koaza":"","lat":43.101586,"lng":141.319368,"zip":"0010924"},{"town":"新川四条五丁目","koaza":"","lat":43.103406,"lng":141.316396,"zip":"0010924"},{"town":"新川四条六丁目","koaza":"","lat":43.104114,"lng":141.315515,"zip":"0010924"},{"town":"新川四条七丁目","koaza":"","lat":43.104502,"lng":141.313819,"zip":"0010924"},{"town":"新川四条八丁目","koaza":"","lat":43.10568,"lng":141.311824,"zip":"0010924"},{"town":"新川四条九丁目","koaza":"","lat":43.106572,"lng":141.31022,"zip":"0010924"},{"town":"新川五条十四丁目","koaza":"","lat":43.113492,"lng":141.301507,"zip":"0010925"},{"town":"新川五条十五丁目","koaza":"","lat":43.114771,"lng":141.299647,"zip":"0010925"},{"town":"新川五条十六丁目","koaza":"","lat":43.115516,"lng":141.297863,"zip":"0010925"},{"town":"新川五条一丁目","koaza":"","lat":43.099736,"lng":141.325579,"zip":"0010925"},{"town":"新川五条二十丁目","koaza":"","lat":43.119822,"lng":141.290798,"zip":"0010925"},{"town":"新川五条二丁目","koaza":"","lat":43.100492,"lng":141.324151,"zip":"0010925"},{"town":"新川五条三丁目","koaza":"","lat":43.101387,"lng":141.322553,"zip":"0010925"},{"town":"新川五条四丁目","koaza":"","lat":43.103138,"lng":141.320849,"zip":"0010925"},{"town":"新川五条五丁目","koaza":"","lat":43.103801,"lng":141.318882,"zip":"0010925"},{"town":"新川五条六丁目","koaza":"","lat":43.10486,"lng":141.317085,"zip":"0010925"},{"town":"新川六条十四丁目","koaza":"","lat":43.114234,"lng":141.303636,"zip":"0010926"},{"town":"新川六条十五丁目","koaza":"","lat":43.115999,"lng":141.300928,"zip":"0010926"},{"town":"新川六条十六丁目","koaza":"","lat":43.117136,"lng":141.298872,"zip":"0010926"},{"town":"新川六条二十丁目","koaza":"","lat":43.121187,"lng":141.292246,"zip":"0010926"},{"town":"新川七条十六丁目","koaza":"","lat":43.117937,"lng":141.30051,"zip":"0010927"},{"town":"新川八条十七丁目","koaza":"","lat":43.120609,"lng":141.300738,"zip":"0010928"},{"town":"新川西一条一丁目","koaza":"","lat":43.119108,"lng":141.285857,"zip":"0010931"},{"town":"新川西一条二丁目","koaza":"","lat":43.12088,"lng":141.282566,"zip":"0010931"},{"town":"新川西一条三丁目","koaza":"","lat":43.122634,"lng":141.280206,"zip":"0010931"},{"town":"新川西一条四丁目","koaza":"","lat":43.124398,"lng":141.277634,"zip":"0010931"},{"town":"新川西一条六丁目","koaza":"","lat":43.129071,"lng":141.271228,"zip":"0010931"},{"town":"新川西一条七丁目","koaza":"","lat":43.131558,"lng":141.268303,"zip":"0010931"},{"town":"新川西二条一丁目","koaza":"","lat":43.121024,"lng":141.288563,"zip":"0010932"},{"town":"新川西二条二丁目","koaza":"","lat":43.123114,"lng":141.284442,"zip":"0010932"},{"town":"新川西二条三丁目","koaza":"","lat":43.124388,"lng":141.281846,"zip":"0010932"},{"town":"新川西二条四丁目","koaza":"","lat":43.125825,"lng":141.279546,"zip":"0010932"},{"town":"新川西二条五丁目","koaza":"","lat":43.127928,"lng":141.276175,"zip":"0010932"},{"town":"新川西二条六丁目","koaza":"","lat":43.130315,"lng":141.272872,"zip":"0010932"},{"town":"新川西二条七丁目","koaza":"","lat":43.13183,"lng":141.270792,"zip":"0010932"},{"town":"新川西三条一丁目","koaza":"","lat":43.122384,"lng":141.290067,"zip":"0010933"},{"town":"新川西三条二丁目","koaza":"","lat":43.124295,"lng":141.285971,"zip":"0010933"},{"town":"新川西三条三丁目","koaza":"","lat":43.125732,"lng":141.283416,"zip":"0010933"},{"town":"新川西三条四丁目","koaza":"","lat":43.127264,"lng":141.280542,"zip":"0010933"},{"town":"新川西三条五丁目","koaza":"","lat":43.129207,"lng":141.277385,"zip":"0010933"},{"town":"新川西三条六丁目","koaza":"","lat":43.131427,"lng":141.273827,"zip":"0010933"},{"town":"新川西三条七丁目","koaza":"","lat":43.132717,"lng":141.272032,"zip":"0010933"},{"town":"新川西四条三丁目","koaza":"","lat":43.127057,"lng":141.28491,"zip":"0010934"},{"town":"新川西四条四丁目","koaza":"","lat":43.12844,"lng":141.281824,"zip":"0010934"},{"town":"新川西五条四丁目","koaza":"","lat":43.129851,"lng":141.28318,"zip":"0010935"},{"town":"新琴似十条十丁目","koaza":"","lat":43.121976,"lng":141.324383,"zip":"0010910"},{"town":"新琴似十条十一丁目","koaza":"","lat":43.122978,"lng":141.322532,"zip":"0010910"},{"town":"新琴似十条十二丁目","koaza":"","lat":43.124198,"lng":141.320382,"zip":"0010910"},{"town":"新琴似十条十三丁目","koaza":"","lat":43.125337,"lng":141.318178,"zip":"0010910"},{"town":"新琴似十条十四丁目","koaza":"","lat":43.126575,"lng":141.315943,"zip":"0010910"},{"town":"新琴似十条十五丁目","koaza":"","lat":43.127686,"lng":141.313759,"zip":"0010910"},{"town":"新琴似十条十六丁目","koaza":"","lat":43.128868,"lng":141.311695,"zip":"0010910"},{"town":"新琴似十条十七丁目","koaza":"","lat":43.130259,"lng":141.309891,"zip":"0010910"},{"town":"新琴似十条一丁目","koaza":"","lat":43.114729,"lng":141.33794,"zip":"0010910"},{"town":"新琴似十条二丁目","koaza":"","lat":43.11561,"lng":141.336097,"zip":"0010910"},{"town":"新琴似十条三丁目","koaza":"","lat":43.116429,"lng":141.334679,"zip":"0010910"},{"town":"新琴似十条四丁目","koaza":"","lat":43.117225,"lng":141.333201,"zip":"0010910"},{"town":"新琴似十条五丁目","koaza":"","lat":43.118003,"lng":141.331757,"zip":"0010910"},{"town":"新琴似十条六丁目","koaza":"","lat":43.118799,"lng":141.330277,"zip":"0010910"},{"town":"新琴似十条七丁目","koaza":"","lat":43.119609,"lng":141.328773,"zip":"0010910"},{"town":"新琴似十条八丁目","koaza":"","lat":43.1204,"lng":141.327303,"zip":"0010910"},{"town":"新琴似十条九丁目","koaza":"","lat":43.121181,"lng":141.325854,"zip":"0010910"},{"town":"新琴似十一条十丁目","koaza":"","lat":43.1234,"lng":141.325805,"zip":"0010911"},{"town":"新琴似十一条十一丁目","koaza":"","lat":43.124417,"lng":141.323967,"zip":"0010911"},{"town":"新琴似十一条十二丁目","koaza":"","lat":43.125638,"lng":141.321842,"zip":"0010911"},{"town":"新琴似十一条十三丁目","koaza":"","lat":43.126656,"lng":141.319513,"zip":"0010911"},{"town":"新琴似十一条十四丁目","koaza":"","lat":43.127926,"lng":141.317621,"zip":"0010911"},{"town":"新琴似十一条十五丁目","koaza":"","lat":43.129114,"lng":141.315542,"zip":"0010911"},{"town":"新琴似十一条十六丁目","koaza":"","lat":43.130391,"lng":141.313243,"zip":"0010911"},{"town":"新琴似十一条十七丁目","koaza":"","lat":43.131646,"lng":141.311269,"zip":"0010911"},{"town":"新琴似十一条一丁目","koaza":"","lat":43.116124,"lng":141.339055,"zip":"0010911"},{"town":"新琴似十一条二丁目","koaza":"","lat":43.117009,"lng":141.337329,"zip":"0010911"},{"town":"新琴似十一条三丁目","koaza":"","lat":43.117797,"lng":141.33604,"zip":"0010911"},{"town":"新琴似十一条四丁目","koaza":"","lat":43.118622,"lng":141.334588,"zip":"0010911"},{"town":"新琴似十一条五丁目","koaza":"","lat":43.119308,"lng":141.333275,"zip":"0010911"},{"town":"新琴似十一条六丁目","koaza":"","lat":43.120189,"lng":141.331662,"zip":"0010911"},{"town":"新琴似十一条七丁目","koaza":"","lat":43.121009,"lng":141.330166,"zip":"0010911"},{"town":"新琴似十一条八丁目","koaza":"","lat":43.121809,"lng":141.328706,"zip":"0010911"},{"town":"新琴似十一条九丁目","koaza":"","lat":43.122597,"lng":141.327268,"zip":"0010911"},{"town":"新琴似十二条十丁目","koaza":"","lat":43.124895,"lng":141.327284,"zip":"0010912"},{"town":"新琴似十二条十一丁目","koaza":"","lat":43.12589,"lng":141.325424,"zip":"0010912"},{"town":"新琴似十二条十二丁目","koaza":"","lat":43.127119,"lng":141.32332,"zip":"0010912"},{"town":"新琴似十二条十三丁目","koaza":"","lat":43.12833,"lng":141.321203,"zip":"0010912"},{"town":"新琴似十二条十四丁目","koaza":"","lat":43.129523,"lng":141.318962,"zip":"0010912"},{"town":"新琴似十二条十五丁目","koaza":"","lat":43.130628,"lng":141.316884,"zip":"0010912"},{"town":"新琴似十二条十六丁目","koaza":"","lat":43.132063,"lng":141.314621,"zip":"0010912"},{"town":"新琴似十二条十七丁目","koaza":"","lat":43.132936,"lng":141.312137,"zip":"0010912"},{"town":"新琴似十二条一丁目","koaza":"","lat":43.117758,"lng":141.340386,"zip":"0010912"},{"town":"新琴似十二条二丁目","koaza":"","lat":43.118571,"lng":141.338751,"zip":"0010912"},{"town":"新琴似十二条三丁目","koaza":"","lat":43.119477,"lng":141.337333,"zip":"0010912"},{"town":"新琴似十二条四丁目","koaza":"","lat":43.120101,"lng":141.336064,"zip":"0010912"},{"town":"新琴似十二条五丁目","koaza":"","lat":43.120897,"lng":141.334642,"zip":"0010912"},{"town":"新琴似十二条六丁目","koaza":"","lat":43.121666,"lng":141.33314,"zip":"0010912"},{"town":"新琴似十二条七丁目","koaza":"","lat":43.12247,"lng":141.331625,"zip":"0010912"},{"town":"新琴似十二条八丁目","koaza":"","lat":43.123238,"lng":141.33013,"zip":"0010912"},{"town":"新琴似十二条九丁目","koaza":"","lat":43.124086,"lng":141.32874,"zip":"0010912"},{"town":"新琴似一条十丁目","koaza":"","lat":43.1092,"lng":141.31122,"zip":"0010901"},{"town":"新琴似一条十一丁目","koaza":"","lat":43.110121,"lng":141.309547,"zip":"0010901"},{"town":"新琴似一条十二丁目","koaza":"","lat":43.111328,"lng":141.307372,"zip":"0010901"},{"town":"新琴似一条十三丁目","koaza":"","lat":43.112594,"lng":141.305262,"zip":"0010901"},{"town":"新琴似一条一丁目","koaza":"","lat":43.101542,"lng":141.327069,"zip":"0010901"},{"town":"新琴似一条二丁目","koaza":"","lat":43.102727,"lng":141.324824,"zip":"0010901"},{"town":"新琴似一条三丁目","koaza":"","lat":43.104162,"lng":141.322206,"zip":"0010901"},{"town":"新琴似一条四丁目","koaza":"","lat":43.104896,"lng":141.320894,"zip":"0010901"},{"town":"新琴似一条五丁目","koaza":"","lat":43.105638,"lng":141.319409,"zip":"0010901"},{"town":"新琴似一条六丁目","koaza":"","lat":43.106484,"lng":141.317977,"zip":"0010901"},{"town":"新琴似一条七丁目","koaza":"","lat":43.106674,"lng":141.315784,"zip":"0010901"},{"town":"新琴似一条八丁目","koaza":"","lat":43.107687,"lng":141.313926,"zip":"0010901"},{"town":"新琴似一条九丁目","koaza":"","lat":43.108589,"lng":141.312319,"zip":"0010901"},{"town":"新琴似二条十丁目","koaza":"","lat":43.111205,"lng":141.313309,"zip":"0010902"},{"town":"新琴似二条十一丁目","koaza":"","lat":43.112252,"lng":141.311419,"zip":"0010902"},{"town":"新琴似二条十二丁目","koaza":"","lat":43.113371,"lng":141.309506,"zip":"0010902"},{"town":"新琴似二条十三丁目","koaza":"","lat":43.114559,"lng":141.307263,"zip":"0010902"},{"town":"新琴似二条一丁目","koaza":"","lat":43.103,"lng":141.328262,"zip":"0010902"},{"town":"新琴似二条二丁目","koaza":"","lat":43.104101,"lng":141.326163,"zip":"0010902"},{"town":"新琴似二条三丁目","koaza":"","lat":43.10553,"lng":141.323575,"zip":"0010902"},{"town":"新琴似二条四丁目","koaza":"","lat":43.106279,"lng":141.32229,"zip":"0010902"},{"town":"新琴似二条五丁目","koaza":"","lat":43.107083,"lng":141.320862,"zip":"0010902"},{"town":"新琴似二条六丁目","koaza":"","lat":43.10788,"lng":141.319388,"zip":"0010902"},{"town":"新琴似二条七丁目","koaza":"","lat":43.10869,"lng":141.317873,"zip":"0010902"},{"town":"新琴似二条八丁目","koaza":"","lat":43.109893,"lng":141.316069,"zip":"0010902"},{"town":"新琴似二条九丁目","koaza":"","lat":43.110598,"lng":141.314407,"zip":"0010902"},{"town":"新琴似三条十丁目","koaza":"","lat":43.112525,"lng":141.314681,"zip":"0010903"},{"town":"新琴似三条十一丁目","koaza":"","lat":43.113445,"lng":141.313021,"zip":"0010903"},{"town":"新琴似三条十二丁目","koaza":"","lat":43.114653,"lng":141.310832,"zip":"0010903"},{"town":"新琴似三条十三丁目","koaza":"","lat":43.115872,"lng":141.308622,"zip":"0010903"},{"town":"新琴似三条一丁目","koaza":"","lat":43.104443,"lng":141.329425,"zip":"0010903"},{"town":"新琴似三条二丁目","koaza":"","lat":43.105576,"lng":141.327309,"zip":"0010903"},{"town":"新琴似三条三丁目","koaza":"","lat":43.106807,"lng":141.325083,"zip":"0010903"},{"town":"新琴似三条四丁目","koaza":"","lat":43.107614,"lng":141.323618,"zip":"0010903"},{"town":"新琴似三条五丁目","koaza":"","lat":43.108401,"lng":141.322184,"zip":"0010903"},{"town":"新琴似三条六丁目","koaza":"","lat":43.109077,"lng":141.320588,"zip":"0010903"},{"town":"新琴似三条七丁目","koaza":"","lat":43.110038,"lng":141.319234,"zip":"0010903"},{"town":"新琴似三条八丁目","koaza":"","lat":43.111083,"lng":141.317701,"zip":"0010903"},{"town":"新琴似三条九丁目","koaza":"","lat":43.111611,"lng":141.315976,"zip":"0010903"},{"town":"新琴似四条十丁目","koaza":"","lat":43.11377,"lng":141.315946,"zip":"0010904"},{"town":"新琴似四条十一丁目","koaza":"","lat":43.114703,"lng":141.314236,"zip":"0010904"},{"town":"新琴似四条十二丁目","koaza":"","lat":43.115881,"lng":141.312006,"zip":"0010904"},{"town":"新琴似四条十三丁目","koaza":"","lat":43.117208,"lng":141.30968,"zip":"0010904"},{"town":"新琴似四条十四丁目","koaza":"","lat":43.118341,"lng":141.307733,"zip":"0010904"},{"town":"新琴似四条十五丁目","koaza":"","lat":43.119561,"lng":141.305573,"zip":"0010904"},{"town":"新琴似四条十六丁目","koaza":"","lat":43.120746,"lng":141.303427,"zip":"0010904"},{"town":"新琴似四条十七丁目","koaza":"","lat":43.121834,"lng":141.301282,"zip":"0010904"},{"town":"新琴似四条一丁目","koaza":"","lat":43.105888,"lng":141.330613,"zip":"0010904"},{"town":"新琴似四条二丁目","koaza":"","lat":43.10705,"lng":141.328437,"zip":"0010904"},{"town":"新琴似四条三丁目","koaza":"","lat":43.108144,"lng":141.32642,"zip":"0010904"},{"town":"新琴似四条四丁目","koaza":"","lat":43.108977,"lng":141.324982,"zip":"0010904"},{"town":"新琴似四条五丁目","koaza":"","lat":43.109647,"lng":141.3238,"zip":"0010904"},{"town":"新琴似四条六丁目","koaza":"","lat":43.110559,"lng":141.322061,"zip":"0010904"},{"town":"新琴似四条七丁目","koaza":"","lat":43.111347,"lng":141.320556,"zip":"0010904"},{"town":"新琴似四条八丁目","koaza":"","lat":43.112086,"lng":141.319047,"zip":"0010904"},{"town":"新琴似四条九丁目","koaza":"","lat":43.112945,"lng":141.317393,"zip":"0010904"},{"town":"新琴似五条十丁目","koaza":"","lat":43.115071,"lng":141.317245,"zip":"0010905"},{"town":"新琴似五条十一丁目","koaza":"","lat":43.115958,"lng":141.315545,"zip":"0010905"},{"town":"新琴似五条十二丁目","koaza":"","lat":43.11698,"lng":141.313161,"zip":"0010905"},{"town":"新琴似五条十三丁目","koaza":"","lat":43.118327,"lng":141.311162,"zip":"0010905"},{"town":"新琴似五条十四丁目","koaza":"","lat":43.119643,"lng":141.309011,"zip":"0010905"},{"town":"新琴似五条十五丁目","koaza":"","lat":43.12063,"lng":141.306665,"zip":"0010905"},{"town":"新琴似五条十六丁目","koaza":"","lat":43.121915,"lng":141.304619,"zip":"0010905"},{"town":"新琴似五条十七丁目","koaza":"","lat":43.122907,"lng":141.303222,"zip":"0010905"},{"town":"新琴似五条一丁目","koaza":"","lat":43.107418,"lng":141.331883,"zip":"0010905"},{"town":"新琴似五条二丁目","koaza":"","lat":43.108379,"lng":141.32968,"zip":"0010905"},{"town":"新琴似五条三丁目","koaza":"","lat":43.109311,"lng":141.327747,"zip":"0010905"},{"town":"新琴似五条四丁目","koaza":"","lat":43.1103,"lng":141.326287,"zip":"0010905"},{"town":"新琴似五条五丁目","koaza":"","lat":43.111075,"lng":141.324852,"zip":"0010905"},{"town":"新琴似五条六丁目","koaza":"","lat":43.111834,"lng":141.323336,"zip":"0010905"},{"town":"新琴似五条七丁目","koaza":"","lat":43.11263,"lng":141.321837,"zip":"0010905"},{"town":"新琴似五条八丁目","koaza":"","lat":43.113416,"lng":141.320371,"zip":"0010905"},{"town":"新琴似五条九丁目","koaza":"","lat":43.11407,"lng":141.318828,"zip":"0010905"},{"town":"新琴似六条十丁目","koaza":"","lat":43.116461,"lng":141.318617,"zip":"0010906"},{"town":"新琴似六条十一丁目","koaza":"","lat":43.117515,"lng":141.317078,"zip":"0010906"},{"town":"新琴似六条十二丁目","koaza":"","lat":43.118594,"lng":141.314759,"zip":"0010906"},{"town":"新琴似六条十三丁目","koaza":"","lat":43.119735,"lng":141.312518,"zip":"0010906"},{"town":"新琴似六条十四丁目","koaza":"","lat":43.120938,"lng":141.310328,"zip":"0010906"},{"town":"新琴似六条十五丁目","koaza":"","lat":43.122099,"lng":141.30813,"zip":"0010906"},{"town":"新琴似六条十六丁目","koaza":"","lat":43.123367,"lng":141.306069,"zip":"0010906"},{"town":"新琴似六条十七丁目","koaza":"","lat":43.124505,"lng":141.304222,"zip":"0010906"},{"town":"新琴似六条一丁目","koaza":"","lat":43.108904,"lng":141.33311,"zip":"0010906"},{"town":"新琴似六条二丁目","koaza":"","lat":43.109799,"lng":141.331241,"zip":"0010906"},{"town":"新琴似六条三丁目","koaza":"","lat":43.110903,"lng":141.32916,"zip":"0010906"},{"town":"新琴似六条四丁目","koaza":"","lat":43.111696,"lng":141.327678,"zip":"0010906"},{"town":"新琴似六条五丁目","koaza":"","lat":43.112463,"lng":141.326232,"zip":"0010906"},{"town":"新琴似六条六丁目","koaza":"","lat":43.113251,"lng":141.324749,"zip":"0010906"},{"town":"新琴似六条七丁目","koaza":"","lat":43.114046,"lng":141.323246,"zip":"0010906"},{"town":"新琴似六条八丁目","koaza":"","lat":43.114891,"lng":141.321596,"zip":"0010906"},{"town":"新琴似六条九丁目","koaza":"","lat":43.1157,"lng":141.320124,"zip":"0010906"},{"town":"新琴似七条十丁目","koaza":"","lat":43.117892,"lng":141.320036,"zip":"0010907"},{"town":"新琴似七条十一丁目","koaza":"","lat":43.118796,"lng":141.318352,"zip":"0010907"},{"town":"新琴似七条十二丁目","koaza":"","lat":43.119961,"lng":141.316129,"zip":"0010907"},{"town":"新琴似七条十三丁目","koaza":"","lat":43.121187,"lng":141.314204,"zip":"0010907"},{"town":"新琴似七条十四丁目","koaza":"","lat":43.122362,"lng":141.312079,"zip":"0010907"},{"town":"新琴似七条十五丁目","koaza":"","lat":43.123295,"lng":141.309379,"zip":"0010907"},{"town":"新琴似七条十六丁目","koaza":"","lat":43.124631,"lng":141.307337,"zip":"0010907"},{"town":"新琴似七条十七丁目","koaza":"","lat":43.126134,"lng":141.305736,"zip":"0010907"},{"town":"新琴似七条一丁目","koaza":"","lat":43.110293,"lng":141.334371,"zip":"0010907"},{"town":"新琴似七条二丁目","koaza":"","lat":43.111317,"lng":141.332269,"zip":"0010907"},{"town":"新琴似七条三丁目","koaza":"","lat":43.112292,"lng":141.330532,"zip":"0010907"},{"town":"新琴似七条四丁目","koaza":"","lat":43.113081,"lng":141.329055,"zip":"0010907"},{"town":"新琴似七条五丁目","koaza":"","lat":43.113843,"lng":141.327615,"zip":"0010907"},{"town":"新琴似七条六丁目","koaza":"","lat":43.114636,"lng":141.326126,"zip":"0010907"},{"town":"新琴似七条七丁目","koaza":"","lat":43.115436,"lng":141.324619,"zip":"0010907"},{"town":"新琴似七条八丁目","koaza":"","lat":43.116277,"lng":141.322824,"zip":"0010907"},{"town":"新琴似七条九丁目","koaza":"","lat":43.1171,"lng":141.321514,"zip":"0010907"},{"town":"新琴似八条十丁目","koaza":"","lat":43.119173,"lng":141.321585,"zip":"0010908"},{"town":"新琴似八条十一丁目","koaza":"","lat":43.120185,"lng":141.319739,"zip":"0010908"},{"town":"新琴似八条十二丁目","koaza":"","lat":43.121409,"lng":141.317029,"zip":"0010908"},{"town":"新琴似八条十三丁目","koaza":"","lat":43.122625,"lng":141.315151,"zip":"0010908"},{"town":"新琴似八条十四丁目","koaza":"","lat":43.123747,"lng":141.313099,"zip":"0010908"},{"town":"新琴似八条十五丁目","koaza":"","lat":43.124903,"lng":141.310886,"zip":"0010908"},{"town":"新琴似八条十六丁目","koaza":"","lat":43.126019,"lng":141.30873,"zip":"0010908"},{"town":"新琴似八条十七丁目","koaza":"","lat":43.127413,"lng":141.307058,"zip":"0010908"},{"town":"新琴似八条一丁目","koaza":"","lat":43.112023,"lng":141.335686,"zip":"0010908"},{"town":"新琴似八条二丁目","koaza":"","lat":43.112784,"lng":141.333619,"zip":"0010908"},{"town":"新琴似八条三丁目","koaza":"","lat":43.113692,"lng":141.331937,"zip":"0010908"},{"town":"新琴似八条四丁目","koaza":"","lat":43.114477,"lng":141.330454,"zip":"0010908"},{"town":"新琴似八条五丁目","koaza":"","lat":43.115386,"lng":141.329153,"zip":"0010908"},{"town":"新琴似八条六丁目","koaza":"","lat":43.116035,"lng":141.327527,"zip":"0010908"},{"town":"新琴似八条七丁目","koaza":"","lat":43.116837,"lng":141.326017,"zip":"0010908"},{"town":"新琴似八条八丁目","koaza":"","lat":43.117627,"lng":141.32454,"zip":"0010908"},{"town":"新琴似八条九丁目","koaza":"","lat":43.118401,"lng":141.32309,"zip":"0010908"},{"town":"新琴似九条十丁目","koaza":"","lat":43.120582,"lng":141.322982,"zip":"0010909"},{"town":"新琴似九条十一丁目","koaza":"","lat":43.121574,"lng":141.321125,"zip":"0010909"},{"town":"新琴似九条十二丁目","koaza":"","lat":43.122878,"lng":141.31875,"zip":"0010909"},{"town":"新琴似九条十三丁目","koaza":"","lat":43.124205,"lng":141.316552,"zip":"0010909"},{"town":"新琴似九条十四丁目","koaza":"","lat":43.125107,"lng":141.314459,"zip":"0010909"},{"town":"新琴似九条十五丁目","koaza":"","lat":43.126232,"lng":141.312364,"zip":"0010909"},{"town":"新琴似九条十六丁目","koaza":"","lat":43.127346,"lng":141.310174,"zip":"0010909"},{"town":"新琴似九条一丁目","koaza":"","lat":43.113425,"lng":141.336781,"zip":"0010909"},{"town":"新琴似九条二丁目","koaza":"","lat":43.114199,"lng":141.334859,"zip":"0010909"},{"town":"新琴似九条三丁目","koaza":"","lat":43.115064,"lng":141.333317,"zip":"0010909"},{"town":"新琴似九条四丁目","koaza":"","lat":43.115854,"lng":141.331837,"zip":"0010909"},{"town":"新琴似九条五丁目","koaza":"","lat":43.116605,"lng":141.330367,"zip":"0010909"},{"town":"新琴似九条六丁目","koaza":"","lat":43.11742,"lng":141.32891,"zip":"0010909"},{"town":"新琴似九条七丁目","koaza":"","lat":43.118223,"lng":141.327402,"zip":"0010909"},{"town":"新琴似九条八丁目","koaza":"","lat":43.119012,"lng":141.32592,"zip":"0010909"},{"town":"新琴似九条九丁目","koaza":"","lat":43.119789,"lng":141.324463,"zip":"0010909"},{"town":"新琴似町","koaza":"","lat":43.131589,"lng":141.298382,"zip":"0010915"},{"town":"太平十条一丁目","koaza":"","lat":43.13753,"lng":141.348929,"zip":"0028010"},{"town":"太平十条二丁目","koaza":"","lat":43.136902,"lng":141.351165,"zip":"0028010"},{"town":"太平十条三丁目","koaza":"","lat":43.1364,"lng":141.353205,"zip":"0028010"},{"town":"太平十条四丁目","koaza":"","lat":43.135821,"lng":141.355188,"zip":"0028010"},{"town":"太平十条五丁目","koaza":"","lat":43.135459,"lng":141.357005,"zip":"0028010"},{"town":"太平十条六丁目","koaza":"","lat":43.135143,"lng":141.358793,"zip":"0028010"},{"town":"太平十条七丁目","koaza":"","lat":43.134774,"lng":141.360707,"zip":"0028010"},{"town":"太平十一条一丁目","koaza":"","lat":43.138628,"lng":141.349164,"zip":"0028011"},{"town":"太平十一条二丁目","koaza":"","lat":43.138109,"lng":141.351518,"zip":"0028011"},{"town":"太平十一条三丁目","koaza":"","lat":43.137086,"lng":141.353389,"zip":"0028011"},{"town":"太平十一条四丁目","koaza":"","lat":43.137251,"lng":141.355685,"zip":"0028011"},{"town":"太平十一条五丁目","koaza":"","lat":43.136938,"lng":141.357495,"zip":"0028011"},{"town":"太平十一条六丁目","koaza":"","lat":43.13666,"lng":141.359239,"zip":"0028011"},{"town":"太平十一条七丁目","koaza":"","lat":43.136289,"lng":141.361105,"zip":"0028011"},{"town":"太平十二条一丁目","koaza":"","lat":43.139768,"lng":141.349412,"zip":"0028012"},{"town":"太平十二条二丁目","koaza":"","lat":43.139361,"lng":141.352062,"zip":"0028012"},{"town":"太平十二条三丁目","koaza":"","lat":43.138443,"lng":141.353783,"zip":"0028012"},{"town":"太平十二条四丁目","koaza":"","lat":43.138662,"lng":141.356133,"zip":"0028012"},{"town":"太平十二条五丁目","koaza":"","lat":43.1384,"lng":141.357947,"zip":"0028012"},{"town":"太平十二条六丁目","koaza":"","lat":43.138133,"lng":141.359679,"zip":"0028012"},{"town":"太平十二条七丁目","koaza":"","lat":43.13769,"lng":141.361446,"zip":"0028012"},{"town":"太平一条一丁目","koaza":"","lat":43.124027,"lng":141.346328,"zip":"0028001"},{"town":"太平二条一丁目","koaza":"","lat":43.126824,"lng":141.34574,"zip":"0028002"},{"town":"太平二条三丁目","koaza":"","lat":43.126004,"lng":141.346911,"zip":"0028002"},{"town":"太平二条四丁目","koaza":"","lat":43.12509,"lng":141.348665,"zip":"0028002"},{"town":"太平二条五丁目","koaza":"","lat":43.124329,"lng":141.350193,"zip":"0028002"},{"town":"太平三条一丁目","koaza":"","lat":43.128358,"lng":141.346344,"zip":"0028003"},{"town":"太平三条三丁目","koaza":"","lat":43.1272,"lng":141.348193,"zip":"0028003"},{"town":"太平三条四丁目","koaza":"","lat":43.126312,"lng":141.349855,"zip":"0028003"},{"town":"太平三条五丁目","koaza":"","lat":43.125116,"lng":141.351426,"zip":"0028003"},{"town":"太平四条一丁目","koaza":"","lat":43.129474,"lng":141.347326,"zip":"0028004"},{"town":"太平四条三丁目","koaza":"","lat":43.128274,"lng":141.349321,"zip":"0028004"},{"town":"太平四条四丁目","koaza":"","lat":43.127415,"lng":141.350931,"zip":"0028004"},{"town":"太平四条五丁目","koaza":"","lat":43.126342,"lng":141.35278,"zip":"0028004"},{"town":"太平四条六丁目","koaza":"","lat":43.126315,"lng":141.355724,"zip":"0028004"},{"town":"太平五条一丁目","koaza":"","lat":43.131635,"lng":141.347818,"zip":"0028005"},{"town":"太平五条二丁目","koaza":"","lat":43.130495,"lng":141.349442,"zip":"0028005"},{"town":"太平五条三丁目","koaza":"","lat":43.129452,"lng":141.350559,"zip":"0028005"},{"town":"太平五条四丁目","koaza":"","lat":43.128661,"lng":141.352146,"zip":"0028005"},{"town":"太平五条五丁目","koaza":"","lat":43.12868,"lng":141.35399,"zip":"0028005"},{"town":"太平五条六丁目","koaza":"","lat":43.127339,"lng":141.355704,"zip":"0028005"},{"town":"太平六条一丁目","koaza":"","lat":43.132988,"lng":141.348204,"zip":"0028006"},{"town":"太平六条二丁目","koaza":"","lat":43.131722,"lng":141.350721,"zip":"0028006"},{"town":"太平六条三丁目","koaza":"","lat":43.130664,"lng":141.351833,"zip":"0028006"},{"town":"太平六条四丁目","koaza":"","lat":43.129838,"lng":141.353241,"zip":"0028006"},{"town":"太平六条五丁目","koaza":"","lat":43.129079,"lng":141.355611,"zip":"0028006"},{"town":"太平六条六丁目","koaza":"","lat":43.12758,"lng":141.357985,"zip":"0028006"},{"town":"太平七条一丁目","koaza":"","lat":43.134345,"lng":141.347759,"zip":"0028007"},{"town":"太平七条二丁目","koaza":"","lat":43.133328,"lng":141.349754,"zip":"0028007"},{"town":"太平七条三丁目","koaza":"","lat":43.132497,"lng":141.351555,"zip":"0028007"},{"town":"太平七条四丁目","koaza":"","lat":43.13129,"lng":141.353791,"zip":"0028007"},{"town":"太平七条五丁目","koaza":"","lat":43.13084,"lng":141.355488,"zip":"0028007"},{"town":"太平七条六丁目","koaza":"","lat":43.130324,"lng":141.357295,"zip":"0028007"},{"town":"太平七条七丁目","koaza":"","lat":43.1295,"lng":141.358925,"zip":"0028007"},{"town":"太平八条一丁目","koaza":"","lat":43.135274,"lng":141.348321,"zip":"0028008"},{"town":"太平八条二丁目","koaza":"","lat":43.134485,"lng":141.350204,"zip":"0028008"},{"town":"太平八条三丁目","koaza":"","lat":43.133297,"lng":141.352005,"zip":"0028008"},{"town":"太平八条四丁目","koaza":"","lat":43.132854,"lng":141.354175,"zip":"0028008"},{"town":"太平八条五丁目","koaza":"","lat":43.1325,"lng":141.356165,"zip":"0028008"},{"town":"太平八条六丁目","koaza":"","lat":43.132189,"lng":141.357911,"zip":"0028008"},{"town":"太平八条七丁目","koaza":"","lat":43.131927,"lng":141.360094,"zip":"0028008"},{"town":"太平九条一丁目","koaza":"","lat":43.136474,"lng":141.348646,"zip":"0028009"},{"town":"太平九条二丁目","koaza":"","lat":43.135816,"lng":141.350617,"zip":"0028009"},{"town":"太平九条三丁目","koaza":"","lat":43.134956,"lng":141.352572,"zip":"0028009"},{"town":"太平九条四丁目","koaza":"","lat":43.134398,"lng":141.354447,"zip":"0028009"},{"town":"太平九条五丁目","koaza":"","lat":43.133993,"lng":141.35652,"zip":"0028009"},{"town":"太平九条六丁目","koaza":"","lat":43.133669,"lng":141.35835,"zip":"0028009"},{"town":"太平九条七丁目","koaza":"","lat":43.133306,"lng":141.360319,"zip":"0028009"},{"town":"拓北一条一丁目","koaza":"","lat":43.148306,"lng":141.375808,"zip":"0028061"},{"town":"拓北一条二丁目","koaza":"","lat":43.148177,"lng":141.37782,"zip":"0028061"},{"town":"拓北一条三丁目","koaza":"","lat":43.147905,"lng":141.380343,"zip":"0028061"},{"town":"拓北一条四丁目","koaza":"","lat":43.147617,"lng":141.383388,"zip":"0028061"},{"town":"拓北二条一丁目","koaza":"","lat":43.149988,"lng":141.374734,"zip":"0028062"},{"town":"拓北二条二丁目","koaza":"","lat":43.149642,"lng":141.37748,"zip":"0028062"},{"town":"拓北二条三丁目","koaza":"","lat":43.149415,"lng":141.380217,"zip":"0028062"},{"town":"拓北二条四丁目","koaza":"","lat":43.149037,"lng":141.383619,"zip":"0028062"},{"town":"拓北三条一丁目","koaza":"","lat":43.151748,"lng":141.372477,"zip":"0028063"},{"town":"拓北三条四丁目","koaza":"","lat":43.150408,"lng":141.383842,"zip":"0028063"},{"town":"拓北四条三丁目","koaza":"","lat":43.15273,"lng":141.380719,"zip":"0028064"},{"town":"拓北四条四丁目","koaza":"","lat":43.15219,"lng":141.384133,"zip":"0028064"},{"town":"拓北五条一丁目","koaza":"","lat":43.154745,"lng":141.375326,"zip":"0028065"},{"town":"拓北五条二丁目","koaza":"","lat":43.154662,"lng":141.378173,"zip":"0028065"},{"town":"拓北五条三丁目","koaza":"","lat":43.154438,"lng":141.381749,"zip":"0028065"},{"town":"拓北五条四丁目","koaza":"","lat":43.154336,"lng":141.384601,"zip":"0028065"},{"town":"拓北五条五丁目","koaza":"","lat":43.154433,"lng":141.387034,"zip":"0028065"},{"town":"拓北六条一丁目","koaza":"","lat":43.155802,"lng":141.374961,"zip":"0028066"},{"town":"拓北六条二丁目","koaza":"","lat":43.156261,"lng":141.37839,"zip":"0028066"},{"town":"拓北六条三丁目","koaza":"","lat":43.156158,"lng":141.381455,"zip":"0028066"},{"town":"拓北六条四丁目","koaza":"","lat":43.155964,"lng":141.384894,"zip":"0028066"},{"town":"拓北六条五丁目","koaza":"","lat":43.155856,"lng":141.386676,"zip":"0028066"},{"town":"拓北七条一丁目","koaza":"","lat":43.158119,"lng":141.375718,"zip":"0028067"},{"town":"拓北七条二丁目","koaza":"","lat":43.15783,"lng":141.37864,"zip":"0028067"},{"town":"拓北七条三丁目","koaza":"","lat":43.157495,"lng":141.382243,"zip":"0028067"},{"town":"拓北七条四丁目","koaza":"","lat":43.157291,"lng":141.384924,"zip":"0028067"},{"town":"拓北七条五丁目","koaza":"","lat":43.157097,"lng":141.386871,"zip":"0028067"},{"town":"拓北八条一丁目","koaza":"","lat":43.159437,"lng":141.375873,"zip":"0028068"},{"town":"拓北八条二丁目","koaza":"","lat":43.159211,"lng":141.378863,"zip":"0028068"},{"town":"拓北八条三丁目","koaza":"","lat":43.158861,"lng":141.382464,"zip":"0028068"},{"town":"拓北八条四丁目","koaza":"","lat":43.15863,"lng":141.385604,"zip":"0028068"},{"town":"拓北八条五丁目","koaza":"","lat":43.158462,"lng":141.387116,"zip":"0028068"},{"town":"屯田十条一丁目","koaza":"","lat":43.144346,"lng":141.347505,"zip":"0020860"},{"town":"屯田十条二丁目","koaza":"","lat":43.144834,"lng":141.345048,"zip":"0020860"},{"town":"屯田十条三丁目","koaza":"","lat":43.145223,"lng":141.342378,"zip":"0020860"},{"town":"屯田十一条一丁目","koaza":"","lat":43.146158,"lng":141.347968,"zip":"0020861"},{"town":"屯田十一条二丁目","koaza":"","lat":43.14682,"lng":141.345525,"zip":"0020861"},{"town":"屯田十一条三丁目","koaza":"","lat":43.147477,"lng":141.342932,"zip":"0020861"},{"town":"屯田一条一丁目","koaza":"","lat":43.119478,"lng":141.341888,"zip":"0020851"},{"town":"屯田一条二丁目","koaza":"","lat":43.120388,"lng":141.339268,"zip":"0020851"},{"town":"屯田二条一丁目","koaza":"","lat":43.122211,"lng":141.342597,"zip":"0020852"},{"town":"屯田二条二丁目","koaza":"","lat":43.122196,"lng":141.339692,"zip":"0020852"},{"town":"屯田二条三丁目","koaza":"","lat":43.122848,"lng":141.33708,"zip":"0020852"},{"town":"屯田二条四丁目","koaza":"","lat":43.123346,"lng":141.334498,"zip":"0020852"},{"town":"屯田二条五丁目","koaza":"","lat":43.124119,"lng":141.332082,"zip":"0020852"},{"town":"屯田三条一丁目","koaza":"","lat":43.125086,"lng":141.343201,"zip":"0020853"},{"town":"屯田三条二丁目","koaza":"","lat":43.125413,"lng":141.340519,"zip":"0020853"},{"town":"屯田三条三丁目","koaza":"","lat":43.125735,"lng":141.337829,"zip":"0020853"},{"town":"屯田三条四丁目","koaza":"","lat":43.12607,"lng":141.33511,"zip":"0020853"},{"town":"屯田三条五丁目","koaza":"","lat":43.126418,"lng":141.332416,"zip":"0020853"},{"town":"屯田三条六丁目","koaza":"","lat":43.126759,"lng":141.32942,"zip":"0020853"},{"town":"屯田三条七丁目","koaza":"","lat":43.127346,"lng":141.326474,"zip":"0020853"},{"town":"屯田三条八丁目","koaza":"","lat":43.128175,"lng":141.324454,"zip":"0020853"},{"town":"屯田四条十丁目","koaza":"","lat":43.131292,"lng":141.319369,"zip":"0020854"},{"town":"屯田四条一丁目","koaza":"","lat":43.127873,"lng":141.343868,"zip":"0020854"},{"town":"屯田四条二丁目","koaza":"","lat":43.128136,"lng":141.341162,"zip":"0020854"},{"town":"屯田四条三丁目","koaza":"","lat":43.128491,"lng":141.338191,"zip":"0020854"},{"town":"屯田四条四丁目","koaza":"","lat":43.128844,"lng":141.335754,"zip":"0020854"},{"town":"屯田四条五丁目","koaza":"","lat":43.129152,"lng":141.333062,"zip":"0020854"},{"town":"屯田四条六丁目","koaza":"","lat":43.129487,"lng":141.330383,"zip":"0020854"},{"town":"屯田四条七丁目","koaza":"","lat":43.129839,"lng":141.32768,"zip":"0020854"},{"town":"屯田四条八丁目","koaza":"","lat":43.130184,"lng":141.324899,"zip":"0020854"},{"town":"屯田四条九丁目","koaza":"","lat":43.13036,"lng":141.322187,"zip":"0020854"},{"town":"屯田五条十丁目","koaza":"","lat":43.133603,"lng":141.320205,"zip":"0020855"},{"town":"屯田五条十一丁目","koaza":"","lat":43.133929,"lng":141.317486,"zip":"0020855"},{"town":"屯田五条十二丁目","koaza":"","lat":43.134246,"lng":141.314815,"zip":"0020855"},{"town":"屯田五条一丁目","koaza":"","lat":43.130569,"lng":141.344652,"zip":"0020855"},{"town":"屯田五条二丁目","koaza":"","lat":43.130852,"lng":141.341966,"zip":"0020855"},{"town":"屯田五条三丁目","koaza":"","lat":43.131173,"lng":141.339389,"zip":"0020855"},{"town":"屯田五条四丁目","koaza":"","lat":43.131585,"lng":141.336117,"zip":"0020855"},{"town":"屯田五条五丁目","koaza":"","lat":43.131877,"lng":141.333705,"zip":"0020855"},{"town":"屯田五条六丁目","koaza":"","lat":43.132213,"lng":141.331028,"zip":"0020855"},{"town":"屯田五条七丁目","koaza":"","lat":43.13254,"lng":141.328306,"zip":"0020855"},{"town":"屯田五条八丁目","koaza":"","lat":43.132876,"lng":141.325607,"zip":"0020855"},{"town":"屯田五条九丁目","koaza":"","lat":43.13323,"lng":141.322933,"zip":"0020855"},{"town":"屯田六条十丁目","koaza":"","lat":43.136302,"lng":141.320846,"zip":"0020856"},{"town":"屯田六条十一丁目","koaza":"","lat":43.13666,"lng":141.318135,"zip":"0020856"},{"town":"屯田六条十二丁目","koaza":"","lat":43.136723,"lng":141.315623,"zip":"0020856"},{"town":"屯田六条一丁目","koaza":"","lat":43.133228,"lng":141.345099,"zip":"0020856"},{"town":"屯田六条二丁目","koaza":"","lat":43.133578,"lng":141.342426,"zip":"0020856"},{"town":"屯田六条三丁目","koaza":"","lat":43.133876,"lng":141.340014,"zip":"0020856"},{"town":"屯田六条四丁目","koaza":"","lat":43.134254,"lng":141.337021,"zip":"0020856"},{"town":"屯田六条五丁目","koaza":"","lat":43.134542,"lng":141.334336,"zip":"0020856"},{"town":"屯田六条六丁目","koaza":"","lat":43.134946,"lng":141.331676,"zip":"0020856"},{"town":"屯田六条七丁目","koaza":"","lat":43.13527,"lng":141.329122,"zip":"0020856"},{"town":"屯田六条八丁目","koaza":"","lat":43.135566,"lng":141.326411,"zip":"0020856"},{"town":"屯田六条九丁目","koaza":"","lat":43.135934,"lng":141.323568,"zip":"0020856"},{"town":"屯田七条十丁目","koaza":"","lat":43.139242,"lng":141.321577,"zip":"0020857"},{"town":"屯田七条十一丁目","koaza":"","lat":43.139477,"lng":141.318792,"zip":"0020857"},{"town":"屯田七条十二丁目","koaza":"","lat":43.139717,"lng":141.31608,"zip":"0020857"},{"town":"屯田七条一丁目","koaza":"","lat":43.136047,"lng":141.345761,"zip":"0020857"},{"town":"屯田七条二丁目","koaza":"","lat":43.136419,"lng":141.34309,"zip":"0020857"},{"town":"屯田七条三丁目","koaza":"","lat":43.13662,"lng":141.340843,"zip":"0020857"},{"town":"屯田七条四丁目","koaza":"","lat":43.137068,"lng":141.33768,"zip":"0020857"},{"town":"屯田七条五丁目","koaza":"","lat":43.137398,"lng":141.335006,"zip":"0020857"},{"town":"屯田七条六丁目","koaza":"","lat":43.137722,"lng":141.332328,"zip":"0020857"},{"town":"屯田七条七丁目","koaza":"","lat":43.137984,"lng":141.330271,"zip":"0020857"},{"town":"屯田七条八丁目","koaza":"","lat":43.138332,"lng":141.32756,"zip":"0020857"},{"town":"屯田七条九丁目","koaza":"","lat":43.138755,"lng":141.324223,"zip":"0020857"},{"town":"屯田八条十丁目","koaza":"","lat":43.141785,"lng":141.322137,"zip":"0020858"},{"town":"屯田八条十一丁目","koaza":"","lat":43.142205,"lng":141.319424,"zip":"0020858"},{"town":"屯田八条十二丁目","koaza":"","lat":43.142598,"lng":141.31673,"zip":"0020858"},{"town":"屯田八条一丁目","koaza":"","lat":43.138867,"lng":141.346414,"zip":"0020858"},{"town":"屯田八条二丁目","koaza":"","lat":43.13923,"lng":141.343727,"zip":"0020858"},{"town":"屯田八条三丁目","koaza":"","lat":43.139581,"lng":141.341064,"zip":"0020858"},{"town":"屯田八条四丁目","koaza":"","lat":43.139883,"lng":141.338637,"zip":"0020858"},{"town":"屯田八条五丁目","koaza":"","lat":43.140062,"lng":141.336625,"zip":"0020858"},{"town":"屯田八条六丁目","koaza":"","lat":43.140313,"lng":141.333579,"zip":"0020858"},{"town":"屯田八条七丁目","koaza":"","lat":43.14083,"lng":141.330248,"zip":"0020858"},{"town":"屯田八条八丁目","koaza":"","lat":43.141192,"lng":141.327542,"zip":"0020858"},{"town":"屯田八条九丁目","koaza":"","lat":43.141533,"lng":141.324873,"zip":"0020858"},{"town":"屯田九条十丁目","koaza":"","lat":43.144548,"lng":141.322774,"zip":"0020859"},{"town":"屯田九条十一丁目","koaza":"","lat":43.144837,"lng":141.320027,"zip":"0020859"},{"town":"屯田九条十二丁目","koaza":"","lat":43.145231,"lng":141.317518,"zip":"0020859"},{"town":"屯田九条一丁目","koaza":"","lat":43.14193,"lng":141.347129,"zip":"0020859"},{"town":"屯田九条二丁目","koaza":"","lat":43.142177,"lng":141.344418,"zip":"0020859"},{"town":"屯田九条三丁目","koaza":"","lat":43.142522,"lng":141.341745,"zip":"0020859"},{"town":"屯田九条四丁目","koaza":"","lat":43.142492,"lng":141.33912,"zip":"0020859"},{"town":"屯田九条五丁目","koaza":"","lat":43.142892,"lng":141.336501,"zip":"0020859"},{"town":"屯田九条六丁目","koaza":"","lat":43.143179,"lng":141.333461,"zip":"0020859"},{"town":"屯田九条七丁目","koaza":"","lat":43.143277,"lng":141.330926,"zip":"0020859"},{"town":"屯田九条八丁目","koaza":"","lat":43.143839,"lng":141.328226,"zip":"0020859"},{"town":"屯田九条九丁目","koaza":"","lat":43.144202,"lng":141.325623,"zip":"0020859"},{"town":"屯田町","koaza":"","lat":43.142648,"lng":141.309786,"zip":"0020865"},{"town":"西茨戸","koaza":"","lat":43.154256,"lng":141.342407,"zip":"0028038"},{"town":"西茨戸一条一丁目","koaza":"","lat":43.147722,"lng":141.348184,"zip":"0028031"},{"town":"西茨戸二条一丁目","koaza":"","lat":43.149484,"lng":141.348642,"zip":"0028032"},{"town":"西茨戸三条一丁目","koaza":"","lat":43.152153,"lng":141.349413,"zip":"0028033"},{"town":"西茨戸四条一丁目","koaza":"","lat":43.154352,"lng":141.34979,"zip":"0028034"},{"town":"西茨戸四条二丁目","koaza":"","lat":43.155638,"lng":141.34787,"zip":"0028034"},{"town":"西茨戸五条一丁目","koaza":"","lat":43.15662,"lng":141.350386,"zip":"0028035"},{"town":"西茨戸六条一丁目","koaza":"","lat":43.159325,"lng":141.350908,"zip":"0028036"},{"town":"西茨戸七条一丁目","koaza":"","lat":43.161809,"lng":141.351561,"zip":"0028037"},{"town":"東茨戸","koaza":"","lat":43.168784,"lng":141.36183,"zip":"0028043"},{"town":"東茨戸一条一丁目","koaza":"","lat":43.161121,"lng":141.354959,"zip":"0028041"},{"town":"東茨戸一条二丁目","koaza":"","lat":43.159547,"lng":141.356425,"zip":"0028041"},{"town":"東茨戸一条三丁目","koaza":"","lat":43.159194,"lng":141.359132,"zip":"0028041"},{"town":"東茨戸二条一丁目","koaza":"","lat":43.165957,"lng":141.355361,"zip":"0028042"},{"town":"東茨戸二条二丁目","koaza":"","lat":43.164352,"lng":141.357305,"zip":"0028042"},{"town":"東茨戸二条三丁目","koaza":"","lat":43.163243,"lng":141.358526,"zip":"0028042"},{"town":"東茨戸三条一丁目","koaza":"","lat":43.168704,"lng":141.357732,"zip":"0028044"},{"town":"東茨戸三条二丁目","koaza":"","lat":43.166919,"lng":141.360309,"zip":"0028044"},{"town":"東茨戸四条一丁目","koaza":"","lat":43.168654,"lng":141.360608,"zip":"0028045"},{"town":"南あいの里三丁目","koaza":"","lat":43.153961,"lng":141.390335,"zip":"0028091"},{"town":"南あいの里四丁目","koaza":"","lat":43.153707,"lng":141.3947,"zip":"0028091"},{"town":"南あいの里五丁目","koaza":"","lat":43.153518,"lng":141.398103,"zip":"0028091"},{"town":"南あいの里六丁目","koaza":"","lat":43.15335,"lng":141.401048,"zip":"0028091"},{"town":"南あいの里七丁目","koaza":"","lat":43.153504,"lng":141.40533,"zip":"0028091"},{"town":"百合が原十丁目","koaza":"","lat":43.135066,"lng":141.368299,"zip":"0028081"},{"town":"百合が原十一丁目","koaza":"","lat":43.131543,"lng":141.368152,"zip":"0028081"},{"town":"百合が原一丁目","koaza":"","lat":43.124988,"lng":141.358436,"zip":"0028081"},{"town":"百合が原二丁目","koaza":"","lat":43.125486,"lng":141.360579,"zip":"0028081"},{"town":"百合が原三丁目","koaza":"","lat":43.12626,"lng":141.358163,"zip":"0028081"},{"town":"百合が原四丁目","koaza":"","lat":43.128812,"lng":141.361415,"zip":"0028081"},{"town":"百合が原五丁目","koaza":"","lat":43.131169,"lng":141.362696,"zip":"0028081"},{"town":"百合が原六丁目","koaza":"","lat":43.132891,"lng":141.365831,"zip":"0028081"},{"town":"百合が原七丁目","koaza":"","lat":43.133625,"lng":141.363141,"zip":"0028081"},{"town":"百合が原八丁目","koaza":"","lat":43.136748,"lng":141.363355,"zip":"0028081"},{"town":"百合が原九丁目","koaza":"","lat":43.136275,"lng":141.365878,"zip":"0028081"},{"town":"百合が原公園","koaza":"","lat":43.128393,"lng":141.365742,"zip":"0028082"},{"town":"拓北四条一丁目","koaza":"","lat":43.152753,"lng":141.375643,"zip":"0028064"},{"town":"拓北三条三丁目","koaza":"","lat":43.150741,"lng":141.380797,"zip":"0028063"},{"town":"拓北三条二丁目","koaza":"","lat":43.150983,"lng":141.377633,"zip":"0028063"},{"town":"拓北四条二丁目","koaza":"","lat":43.152757,"lng":141.378237,"zip":"0028064"}]