[{"town":"石山","koaza":"","lat":42.946783,"lng":141.328331,"zip":"0050849"},{"town":"石山一条一丁目","koaza":"","lat":42.979022,"lng":141.343076,"zip":"0050841"},{"town":"石山一条二丁目","koaza":"","lat":42.973293,"lng":141.341311,"zip":"0050841"},{"town":"石山一条三丁目","koaza":"","lat":42.969534,"lng":141.336055,"zip":"0050841"},{"town":"石山一条四丁目","koaza":"","lat":42.966106,"lng":141.328872,"zip":"0050841"},{"town":"石山一条五丁目","koaza":"","lat":42.9647,"lng":141.326203,"zip":"0050841"},{"town":"石山一条六丁目","koaza":"","lat":42.964707,"lng":141.323503,"zip":"0050841"},{"town":"石山一条七丁目","koaza":"","lat":42.964152,"lng":141.319956,"zip":"0050841"},{"town":"石山一条八丁目","koaza":"","lat":42.963533,"lng":141.316726,"zip":"0050841"},{"town":"石山一条九丁目","koaza":"","lat":42.963114,"lng":141.314993,"zip":"0050841"},{"town":"石山二条二丁目","koaza":"","lat":42.969827,"lng":141.339175,"zip":"0050842"},{"town":"石山二条三丁目","koaza":"","lat":42.967298,"lng":141.335824,"zip":"0050842"},{"town":"石山二条四丁目","koaza":"","lat":42.964557,"lng":141.329123,"zip":"0050842"},{"town":"石山二条五丁目","koaza":"","lat":42.962808,"lng":141.326462,"zip":"0050842"},{"town":"石山二条六丁目","koaza":"","lat":42.96154,"lng":141.323822,"zip":"0050842"},{"town":"石山二条七丁目","koaza":"","lat":42.960681,"lng":141.32094,"zip":"0050842"},{"town":"石山二条八丁目","koaza":"","lat":42.960126,"lng":141.318405,"zip":"0050842"},{"town":"石山二条九丁目","koaza":"","lat":42.959764,"lng":141.314883,"zip":"0050842"},{"town":"石山三条五丁目","koaza":"","lat":42.960791,"lng":141.328139,"zip":"0050843"},{"town":"石山三条六丁目","koaza":"","lat":42.959126,"lng":141.324773,"zip":"0050843"},{"town":"石山三条七丁目","koaza":"","lat":42.958162,"lng":141.321663,"zip":"0050843"},{"town":"石山三条八丁目","koaza":"","lat":42.957335,"lng":141.319389,"zip":"0050843"},{"town":"石山四条六丁目","koaza":"","lat":42.956187,"lng":141.323889,"zip":"0050844"},{"town":"石山東一丁目","koaza":"","lat":42.972462,"lng":141.345108,"zip":"0050850"},{"town":"石山東二丁目","koaza":"","lat":42.968908,"lng":141.344474,"zip":"0050850"},{"town":"石山東三丁目","koaza":"","lat":42.966776,"lng":141.34465,"zip":"0050850"},{"town":"石山東四丁目","koaza":"","lat":42.963424,"lng":141.344544,"zip":"0050850"},{"town":"石山東五丁目","koaza":"","lat":42.960577,"lng":141.344776,"zip":"0050850"},{"town":"石山東六丁目","koaza":"","lat":42.957763,"lng":141.344714,"zip":"0050850"},{"town":"石山東七丁目","koaza":"","lat":42.95389,"lng":141.34446,"zip":"0050850"},{"town":"硬石山","koaza":"","lat":42.973435,"lng":141.315639,"zip":"0050000"},{"town":"川沿十条一丁目","koaza":"","lat":42.984021,"lng":141.336837,"zip":"0050810"},{"town":"川沿十条二丁目","koaza":"","lat":42.983369,"lng":141.334137,"zip":"0050810"},{"town":"川沿十条三丁目","koaza":"","lat":42.983295,"lng":141.331583,"zip":"0050810"},{"town":"川沿十一条一丁目","koaza":"","lat":42.982255,"lng":141.337077,"zip":"0050811"},{"town":"川沿十一条二丁目","koaza":"","lat":42.982308,"lng":141.334829,"zip":"0050811"},{"town":"川沿十一条三丁目","koaza":"","lat":42.98153,"lng":141.32941,"zip":"0050811"},{"town":"川沿十二条一丁目","koaza":"","lat":42.98092,"lng":141.338094,"zip":"0050812"},{"town":"川沿十二条二丁目","koaza":"","lat":42.980777,"lng":141.334753,"zip":"0050812"},{"town":"川沿十二条三丁目","koaza":"","lat":42.980623,"lng":141.331945,"zip":"0050812"},{"town":"川沿十二条四丁目","koaza":"","lat":42.979678,"lng":141.329482,"zip":"0050812"},{"town":"川沿十二条五丁目","koaza":"","lat":42.979372,"lng":141.327561,"zip":"0050812"},{"town":"川沿十三条一丁目","koaza":"","lat":42.979169,"lng":141.338338,"zip":"0050813"},{"town":"川沿十三条二丁目","koaza":"","lat":42.97904,"lng":141.335068,"zip":"0050813"},{"town":"川沿十三条三丁目","koaza":"","lat":42.979138,"lng":141.332135,"zip":"0050813"},{"town":"川沿十四条一丁目","koaza":"","lat":42.977279,"lng":141.338064,"zip":"0050814"},{"town":"川沿十四条二丁目","koaza":"","lat":42.977959,"lng":141.335205,"zip":"0050814"},{"town":"川沿十五条一丁目","koaza":"","lat":42.975412,"lng":141.337052,"zip":"0050815"},{"town":"川沿十五条二丁目","koaza":"","lat":42.977035,"lng":141.333914,"zip":"0050815"},{"town":"川沿十六条一丁目","koaza":"","lat":42.97411,"lng":141.336307,"zip":"0050816"},{"town":"川沿十六条二丁目","koaza":"","lat":42.975204,"lng":141.333553,"zip":"0050816"},{"town":"川沿十七条一丁目","koaza":"","lat":42.972353,"lng":141.335153,"zip":"0050817"},{"town":"川沿十七条二丁目","koaza":"","lat":42.974064,"lng":141.332793,"zip":"0050817"},{"town":"川沿十八条一丁目","koaza":"","lat":42.970864,"lng":141.333096,"zip":"0050818"},{"town":"川沿十八条二丁目","koaza":"","lat":42.972273,"lng":141.332637,"zip":"0050818"},{"town":"川沿一条一丁目","koaza":"","lat":43.000959,"lng":141.338236,"zip":"0050801"},{"town":"川沿一条二丁目","koaza":"","lat":43.002354,"lng":141.334299,"zip":"0050801"},{"town":"川沿一条三丁目","koaza":"","lat":43.001674,"lng":141.329297,"zip":"0050801"},{"town":"川沿一条四丁目","koaza":"","lat":43.001739,"lng":141.326851,"zip":"0050801"},{"town":"川沿一条五丁目","koaza":"","lat":43.000402,"lng":141.324731,"zip":"0050801"},{"town":"川沿一条六丁目","koaza":"","lat":43.00071,"lng":141.321137,"zip":"0050801"},{"town":"川沿二条一丁目","koaza":"","lat":42.99842,"lng":141.338053,"zip":"0050802"},{"town":"川沿二条二丁目","koaza":"","lat":42.998868,"lng":141.335097,"zip":"0050802"},{"town":"川沿二条三丁目","koaza":"","lat":42.999238,"lng":141.330703,"zip":"0050802"},{"town":"川沿二条四丁目","koaza":"","lat":42.998754,"lng":141.32701,"zip":"0050802"},{"town":"川沿二条五丁目","koaza":"","lat":42.998925,"lng":141.32491,"zip":"0050802"},{"town":"川沿二条六丁目","koaza":"","lat":42.998621,"lng":141.321651,"zip":"0050802"},{"town":"川沿三条一丁目","koaza":"","lat":42.996399,"lng":141.337371,"zip":"0050803"},{"town":"川沿三条二丁目","koaza":"","lat":42.99683,"lng":141.334162,"zip":"0050803"},{"town":"川沿三条三丁目","koaza":"","lat":42.996904,"lng":141.330294,"zip":"0050803"},{"town":"川沿三条四丁目","koaza":"","lat":42.996945,"lng":141.32747,"zip":"0050803"},{"town":"川沿三条五丁目","koaza":"","lat":42.996993,"lng":141.325071,"zip":"0050803"},{"town":"川沿四条一丁目","koaza":"","lat":42.994469,"lng":141.336826,"zip":"0050804"},{"town":"川沿四条二丁目","koaza":"","lat":42.994946,"lng":141.333623,"zip":"0050804"},{"town":"川沿四条三丁目","koaza":"","lat":42.994642,"lng":141.330258,"zip":"0050804"},{"town":"川沿四条四丁目","koaza":"","lat":42.994431,"lng":141.327792,"zip":"0050804"},{"town":"川沿四条五丁目","koaza":"","lat":42.99448,"lng":141.325691,"zip":"0050804"},{"town":"川沿五条一丁目","koaza":"","lat":42.992542,"lng":141.335757,"zip":"0050805"},{"town":"川沿五条二丁目","koaza":"","lat":42.992845,"lng":141.333407,"zip":"0050805"},{"town":"川沿五条三丁目","koaza":"","lat":42.992669,"lng":141.330527,"zip":"0050805"},{"town":"川沿五条四丁目","koaza":"","lat":42.992369,"lng":141.327837,"zip":"0050805"},{"town":"川沿六条二丁目","koaza":"","lat":42.990082,"lng":141.333862,"zip":"0050806"},{"town":"川沿六条三丁目","koaza":"","lat":42.990902,"lng":141.330856,"zip":"0050806"},{"town":"川沿六条四丁目","koaza":"","lat":42.990799,"lng":141.328046,"zip":"0050806"},{"town":"川沿七条二丁目","koaza":"","lat":42.989143,"lng":141.33273,"zip":"0050807"},{"town":"川沿七条三丁目","koaza":"","lat":42.98897,"lng":141.330823,"zip":"0050807"},{"town":"川沿七条四丁目","koaza":"","lat":42.988789,"lng":141.328253,"zip":"0050807"},{"town":"川沿八条一丁目","koaza":"","lat":42.987355,"lng":141.33479,"zip":"0050808"},{"town":"川沿八条二丁目","koaza":"","lat":42.987212,"lng":141.33344,"zip":"0050808"},{"town":"川沿八条三丁目","koaza":"","lat":42.987218,"lng":141.331038,"zip":"0050808"},{"town":"川沿八条四丁目","koaza":"","lat":42.987317,"lng":141.328892,"zip":"0050808"},{"town":"川沿九条一丁目","koaza":"","lat":42.985532,"lng":141.335441,"zip":"0050809"},{"town":"川沿九条二丁目","koaza":"","lat":42.985803,"lng":141.333694,"zip":"0050809"},{"town":"川沿九条三丁目","koaza":"","lat":42.985827,"lng":141.331432,"zip":"0050809"},{"town":"川沿九条四丁目","koaza":"","lat":42.985871,"lng":141.329444,"zip":"0050809"},{"town":"川沿町","koaza":"","lat":42.979953,"lng":141.340793,"zip":"0050000"},{"town":"北ノ沢","koaza":"","lat":43.013255,"lng":141.309119,"zip":"0050832"},{"town":"北ノ沢一丁目","koaza":"","lat":43.004041,"lng":141.330074,"zip":"0050832"},{"town":"北ノ沢二丁目","koaza":"","lat":43.005676,"lng":141.327049,"zip":"0050832"},{"town":"北ノ沢三丁目","koaza":"","lat":43.007939,"lng":141.32557,"zip":"0050832"},{"town":"北ノ沢四丁目","koaza":"","lat":43.006308,"lng":141.322596,"zip":"0050832"},{"town":"北ノ沢五丁目","koaza":"","lat":43.004611,"lng":141.321827,"zip":"0050832"},{"town":"北ノ沢六丁目","koaza":"","lat":43.003675,"lng":141.325016,"zip":"0050832"},{"town":"北ノ沢七丁目","koaza":"","lat":43.00153,"lng":141.324582,"zip":"0050832"},{"town":"北ノ沢八丁目","koaza":"","lat":43.002791,"lng":141.321594,"zip":"0050832"},{"town":"北ノ沢九丁目","koaza":"","lat":43.002321,"lng":141.318903,"zip":"0050832"},{"town":"芸術の森一丁目","koaza":"","lat":42.944695,"lng":141.341132,"zip":"0050864"},{"town":"芸術の森二丁目","koaza":"","lat":42.937567,"lng":141.338682,"zip":"0050864"},{"town":"芸術の森三丁目","koaza":"","lat":42.932425,"lng":141.337082,"zip":"0050864"},{"town":"小金湯","koaza":"","lat":42.9707,"lng":141.209459,"zip":"0612274"},{"town":"定山渓","koaza":"","lat":42.952518,"lng":141.11644,"zip":"0612301"},{"town":"定山渓温泉西一丁目","koaza":"","lat":42.972031,"lng":141.170743,"zip":"0612303"},{"town":"定山渓温泉西二丁目","koaza":"","lat":42.971403,"lng":141.165472,"zip":"0612303"},{"town":"定山渓温泉西三丁目","koaza":"","lat":42.967838,"lng":141.164005,"zip":"0612303"},{"town":"定山渓温泉西四丁目","koaza":"","lat":42.965522,"lng":141.160089,"zip":"0612303"},{"town":"定山渓温泉東一丁目","koaza":"","lat":42.970899,"lng":141.177033,"zip":"0612302"},{"town":"定山渓温泉東二丁目","koaza":"","lat":42.96877,"lng":141.169614,"zip":"0612302"},{"town":"定山渓温泉東三丁目","koaza":"","lat":42.965847,"lng":141.167013,"zip":"0612302"},{"town":"定山渓温泉東四丁目","koaza":"","lat":42.962184,"lng":141.158728,"zip":"0612302"},{"town":"白川","koaza":"","lat":42.978147,"lng":141.282997,"zip":"0612276"},{"town":"澄川","koaza":"","lat":42.98197,"lng":141.364727,"zip":"0050007"},{"town":"澄川一条一丁目","koaza":"","lat":43.019073,"lng":141.360247,"zip":"0050001"},{"town":"澄川一条二丁目","koaza":"","lat":43.017066,"lng":141.360064,"zip":"0050001"},{"town":"澄川一条三丁目","koaza":"","lat":43.015099,"lng":141.360086,"zip":"0050001"},{"town":"澄川一条四丁目","koaza":"","lat":43.012544,"lng":141.359429,"zip":"0050001"},{"town":"澄川二条一丁目","koaza":"","lat":43.018771,"lng":141.362115,"zip":"0050002"},{"town":"澄川二条二丁目","koaza":"","lat":43.016827,"lng":141.362944,"zip":"0050002"},{"town":"澄川二条三丁目","koaza":"","lat":43.014876,"lng":141.362682,"zip":"0050002"},{"town":"澄川二条四丁目","koaza":"","lat":43.01274,"lng":141.362115,"zip":"0050002"},{"town":"澄川二条五丁目","koaza":"","lat":43.010635,"lng":141.362489,"zip":"0050002"},{"town":"澄川三条一丁目","koaza":"","lat":43.018625,"lng":141.364948,"zip":"0050003"},{"town":"澄川三条二丁目","koaza":"","lat":43.016628,"lng":141.365508,"zip":"0050003"},{"town":"澄川三条三丁目","koaza":"","lat":43.014655,"lng":141.365138,"zip":"0050003"},{"town":"澄川三条四丁目","koaza":"","lat":43.012581,"lng":141.364874,"zip":"0050003"},{"town":"澄川三条五丁目","koaza":"","lat":43.010612,"lng":141.364723,"zip":"0050003"},{"town":"澄川三条六丁目","koaza":"","lat":43.007968,"lng":141.364348,"zip":"0050003"},{"town":"澄川四条十丁目","koaza":"","lat":42.999804,"lng":141.366127,"zip":"0050004"},{"town":"澄川四条十一丁目","koaza":"","lat":42.998044,"lng":141.365804,"zip":"0050004"},{"town":"澄川四条十二丁目","koaza":"","lat":42.995457,"lng":141.365135,"zip":"0050004"},{"town":"澄川四条一丁目","koaza":"","lat":43.018363,"lng":141.36871,"zip":"0050004"},{"town":"澄川四条二丁目","koaza":"","lat":43.016524,"lng":141.369205,"zip":"0050004"},{"town":"澄川四条三丁目","koaza":"","lat":43.014394,"lng":141.367575,"zip":"0050004"},{"town":"澄川四条四丁目","koaza":"","lat":43.012292,"lng":141.367837,"zip":"0050004"},{"town":"澄川四条五丁目","koaza":"","lat":43.010575,"lng":141.367358,"zip":"0050004"},{"town":"澄川四条六丁目","koaza":"","lat":43.008541,"lng":141.36687,"zip":"0050004"},{"town":"澄川四条七丁目","koaza":"","lat":43.006432,"lng":141.366867,"zip":"0050004"},{"town":"澄川四条八丁目","koaza":"","lat":43.004424,"lng":141.366805,"zip":"0050004"},{"town":"澄川四条九丁目","koaza":"","lat":43.002265,"lng":141.367523,"zip":"0050004"},{"town":"澄川五条十丁目","koaza":"","lat":43.000481,"lng":141.369016,"zip":"0050005"},{"town":"澄川五条十一丁目","koaza":"","lat":42.998379,"lng":141.36879,"zip":"0050005"},{"town":"澄川五条十二丁目","koaza":"","lat":42.99564,"lng":141.367969,"zip":"0050005"},{"town":"澄川五条十三丁目","koaza":"","lat":42.992671,"lng":141.368215,"zip":"0050005"},{"town":"澄川五条三丁目","koaza":"","lat":43.014184,"lng":141.371242,"zip":"0050005"},{"town":"澄川五条四丁目","koaza":"","lat":43.012346,"lng":141.371503,"zip":"0050005"},{"town":"澄川五条五丁目","koaza":"","lat":43.010486,"lng":141.371361,"zip":"0050005"},{"town":"澄川五条六丁目","koaza":"","lat":43.008308,"lng":141.370666,"zip":"0050005"},{"town":"澄川五条七丁目","koaza":"","lat":43.00662,"lng":141.370653,"zip":"0050005"},{"town":"澄川五条八丁目","koaza":"","lat":43.004194,"lng":141.369993,"zip":"0050005"},{"town":"澄川五条九丁目","koaza":"","lat":43.002643,"lng":141.370392,"zip":"0050005"},{"town":"澄川六条十丁目","koaza":"","lat":43.00039,"lng":141.372675,"zip":"0050006"},{"town":"澄川六条十一丁目","koaza":"","lat":42.998184,"lng":141.372757,"zip":"0050006"},{"town":"澄川六条十二丁目","koaza":"","lat":42.995247,"lng":141.371767,"zip":"0050006"},{"town":"澄川六条十三丁目","koaza":"","lat":42.992429,"lng":141.371692,"zip":"0050006"},{"town":"澄川六条三丁目","koaza":"","lat":43.013527,"lng":141.37535,"zip":"0050006"},{"town":"澄川六条四丁目","koaza":"","lat":43.011235,"lng":141.375312,"zip":"0050006"},{"town":"澄川六条五丁目","koaza":"","lat":43.009373,"lng":141.374695,"zip":"0050006"},{"town":"澄川六条六丁目","koaza":"","lat":43.00707,"lng":141.373712,"zip":"0050006"},{"town":"澄川六条七丁目","koaza":"","lat":43.005327,"lng":141.373329,"zip":"0050006"},{"town":"澄川六条八丁目","koaza":"","lat":43.004085,"lng":141.372541,"zip":"0050006"},{"town":"澄川六条九丁目","koaza":"","lat":43.00175,"lng":141.373025,"zip":"0050006"},{"town":"滝野","koaza":"","lat":42.901583,"lng":141.366966,"zip":"0050862"},{"town":"砥石山","koaza":"","lat":43.000688,"lng":141.271668,"zip":"0050830"},{"town":"常盤","koaza":"","lat":42.917723,"lng":141.322103,"zip":"0050865"},{"town":"常盤一条一丁目","koaza":"","lat":42.954904,"lng":141.347359,"zip":"0050851"},{"town":"常盤一条二丁目","koaza":"","lat":42.952558,"lng":141.34767,"zip":"0050851"},{"town":"常盤二条一丁目","koaza":"","lat":42.948995,"lng":141.345966,"zip":"0050852"},{"town":"常盤二条二丁目","koaza":"","lat":42.948444,"lng":141.348374,"zip":"0050852"},{"town":"常盤二条三丁目","koaza":"","lat":42.946659,"lng":141.350707,"zip":"0050852"},{"town":"常盤三条一丁目","koaza":"","lat":42.944451,"lng":141.345269,"zip":"0050853"},{"town":"常盤三条二丁目","koaza":"","lat":42.944081,"lng":141.346685,"zip":"0050853"},{"town":"常盤四条一丁目","koaza":"","lat":42.940327,"lng":141.344127,"zip":"0050854"},{"town":"常盤四条二丁目","koaza":"","lat":42.940188,"lng":141.345417,"zip":"0050854"},{"town":"常盤五条一丁目","koaza":"","lat":42.937711,"lng":141.34241,"zip":"0050855"},{"town":"常盤五条二丁目","koaza":"","lat":42.937371,"lng":141.344476,"zip":"0050855"},{"town":"常盤六条一丁目","koaza":"","lat":42.935768,"lng":141.34162,"zip":"0050856"},{"town":"常盤六条二丁目","koaza":"","lat":42.934499,"lng":141.343054,"zip":"0050856"},{"town":"砥山","koaza":"","lat":42.977148,"lng":141.245052,"zip":"0612275"},{"town":"豊滝","koaza":"","lat":42.928343,"lng":141.218081,"zip":"0612273"},{"town":"豊滝一丁目","koaza":"","lat":42.951979,"lng":141.237213,"zip":"0612273"},{"town":"豊滝二丁目","koaza":"","lat":42.951944,"lng":141.234615,"zip":"0612273"},{"town":"中ノ沢","koaza":"","lat":42.998716,"lng":141.295152,"zip":"0050831"},{"town":"中ノ沢一丁目","koaza":"","lat":42.995307,"lng":141.323616,"zip":"0050831"},{"town":"中ノ沢二丁目","koaza":"","lat":42.997331,"lng":141.321485,"zip":"0050831"},{"town":"中ノ沢三丁目","koaza":"","lat":42.994624,"lng":141.321183,"zip":"0050831"},{"town":"中ノ沢四丁目","koaza":"","lat":42.995548,"lng":141.317451,"zip":"0050831"},{"town":"中ノ沢五丁目","koaza":"","lat":42.99712,"lng":141.317341,"zip":"0050831"},{"town":"中ノ沢六丁目","koaza":"","lat":42.998193,"lng":141.316865,"zip":"0050831"},{"town":"中ノ沢七丁目","koaza":"","lat":42.997793,"lng":141.313598,"zip":"0050831"},{"town":"藤野","koaza":"","lat":42.936499,"lng":141.295094,"zip":"0050840"},{"town":"藤野一条十丁目","koaza":"","lat":42.964451,"lng":141.283721,"zip":"0612281"},{"town":"藤野一条五丁目","koaza":"","lat":42.965515,"lng":141.299984,"zip":"0612281"},{"town":"藤野一条六丁目","koaza":"","lat":42.96644,"lng":141.297158,"zip":"0612281"},{"town":"藤野一条七丁目","koaza":"","lat":42.966791,"lng":141.293604,"zip":"0612281"},{"town":"藤野一条八丁目","koaza":"","lat":42.966892,"lng":141.290048,"zip":"0612281"},{"town":"藤野一条九丁目","koaza":"","lat":42.966556,"lng":141.287717,"zip":"0612281"},{"town":"藤野二条十丁目","koaza":"","lat":42.96248,"lng":141.282631,"zip":"0612282"},{"town":"藤野二条十一丁目","koaza":"","lat":42.962471,"lng":141.279367,"zip":"0612282"},{"town":"藤野二条十二丁目","koaza":"","lat":42.962901,"lng":141.276382,"zip":"0612282"},{"town":"藤野二条十三丁目","koaza":"","lat":42.963058,"lng":141.273731,"zip":"0612282"},{"town":"藤野二条一丁目","koaza":"","lat":42.962389,"lng":141.31202,"zip":"0612282"},{"town":"藤野二条二丁目","koaza":"","lat":42.96181,"lng":141.30903,"zip":"0612282"},{"town":"藤野二条三丁目","koaza":"","lat":42.962271,"lng":141.305811,"zip":"0612282"},{"town":"藤野二条四丁目","koaza":"","lat":42.962857,"lng":141.302301,"zip":"0612282"},{"town":"藤野二条五丁目","koaza":"","lat":42.962735,"lng":141.299175,"zip":"0612282"},{"town":"藤野二条六丁目","koaza":"","lat":42.963373,"lng":141.296234,"zip":"0612282"},{"town":"藤野二条七丁目","koaza":"","lat":42.963497,"lng":141.292959,"zip":"0612282"},{"town":"藤野二条八丁目","koaza":"","lat":42.963625,"lng":141.289849,"zip":"0612282"},{"town":"藤野二条九丁目","koaza":"","lat":42.96345,"lng":141.286481,"zip":"0612282"},{"town":"藤野三条十丁目","koaza":"","lat":42.960101,"lng":141.282096,"zip":"0612283"},{"town":"藤野三条十一丁目","koaza":"","lat":42.959827,"lng":141.278469,"zip":"0612283"},{"town":"藤野三条一丁目","koaza":"","lat":42.960099,"lng":141.310716,"zip":"0612283"},{"town":"藤野三条二丁目","koaza":"","lat":42.960158,"lng":141.308989,"zip":"0612283"},{"town":"藤野三条三丁目","koaza":"","lat":42.959768,"lng":141.306131,"zip":"0612283"},{"town":"藤野三条四丁目","koaza":"","lat":42.95921,"lng":141.302797,"zip":"0612283"},{"town":"藤野三条五丁目","koaza":"","lat":42.960897,"lng":141.300408,"zip":"0612283"},{"town":"藤野三条六丁目","koaza":"","lat":42.960758,"lng":141.296415,"zip":"0612283"},{"town":"藤野三条七丁目","koaza":"","lat":42.960522,"lng":141.292409,"zip":"0612283"},{"town":"藤野三条八丁目","koaza":"","lat":42.960887,"lng":141.288966,"zip":"0612283"},{"town":"藤野三条九丁目","koaza":"","lat":42.960864,"lng":141.285932,"zip":"0612283"},{"town":"藤野四条十丁目","koaza":"","lat":42.958607,"lng":141.282845,"zip":"0612284"},{"town":"藤野四条十一丁目","koaza":"","lat":42.957759,"lng":141.277978,"zip":"0612284"},{"town":"藤野四条一丁目","koaza":"","lat":42.957144,"lng":141.310265,"zip":"0612284"},{"town":"藤野四条二丁目","koaza":"","lat":42.957585,"lng":141.308822,"zip":"0612284"},{"town":"藤野四条三丁目","koaza":"","lat":42.957406,"lng":141.306528,"zip":"0612284"},{"town":"藤野四条四丁目","koaza":"","lat":42.957057,"lng":141.30343,"zip":"0612284"},{"town":"藤野四条五丁目","koaza":"","lat":42.958159,"lng":141.299334,"zip":"0612284"},{"town":"藤野四条六丁目","koaza":"","lat":42.958384,"lng":141.294816,"zip":"0612284"},{"town":"藤野四条七丁目","koaza":"","lat":42.958754,"lng":141.29107,"zip":"0612284"},{"town":"藤野四条八丁目","koaza":"","lat":42.959036,"lng":141.288168,"zip":"0612284"},{"town":"藤野四条九丁目","koaza":"","lat":42.958814,"lng":141.285121,"zip":"0612284"},{"town":"藤野五条十丁目","koaza":"","lat":42.956168,"lng":141.282824,"zip":"0612285"},{"town":"藤野五条一丁目","koaza":"","lat":42.954296,"lng":141.311369,"zip":"0612285"},{"town":"藤野五条二丁目","koaza":"","lat":42.954533,"lng":141.308799,"zip":"0612285"},{"town":"藤野五条三丁目","koaza":"","lat":42.954637,"lng":141.306243,"zip":"0612285"},{"town":"藤野五条四丁目","koaza":"","lat":42.954942,"lng":141.303026,"zip":"0612285"},{"town":"藤野五条五丁目","koaza":"","lat":42.955092,"lng":141.298386,"zip":"0612285"},{"town":"藤野五条六丁目","koaza":"","lat":42.955452,"lng":141.293515,"zip":"0612285"},{"town":"藤野五条七丁目","koaza":"","lat":42.956005,"lng":141.290221,"zip":"0612285"},{"town":"藤野五条八丁目","koaza":"","lat":42.956238,"lng":141.288004,"zip":"0612285"},{"town":"藤野五条九丁目","koaza":"","lat":42.956302,"lng":141.285819,"zip":"0612285"},{"town":"藤野六条一丁目","koaza":"","lat":42.952754,"lng":141.311105,"zip":"0612286"},{"town":"藤野六条二丁目","koaza":"","lat":42.952764,"lng":141.30845,"zip":"0612286"},{"town":"藤野六条三丁目","koaza":"","lat":42.952783,"lng":141.305833,"zip":"0612286"},{"town":"藤野六条四丁目","koaza":"","lat":42.95199,"lng":141.303181,"zip":"0612286"},{"town":"藤野六条六丁目","koaza":"","lat":42.953024,"lng":141.291615,"zip":"0612286"},{"town":"藤野六条九丁目","koaza":"","lat":42.954725,"lng":141.284867,"zip":"0612286"},{"town":"真駒内","koaza":"","lat":42.956587,"lng":141.356462,"zip":"0050008"},{"town":"真駒内曙町一丁目","koaza":"","lat":43.002302,"lng":141.350778,"zip":"0050018"},{"town":"真駒内曙町二丁目","koaza":"","lat":42.99944,"lng":141.349874,"zip":"0050018"},{"town":"真駒内曙町三丁目","koaza":"","lat":42.999569,"lng":141.352011,"zip":"0050018"},{"town":"真駒内曙町四丁目","koaza":"","lat":42.999673,"lng":141.354398,"zip":"0050018"},{"town":"真駒内泉町一丁目","koaza":"","lat":42.987574,"lng":141.351966,"zip":"0050015"},{"town":"真駒内泉町二丁目","koaza":"","lat":42.986908,"lng":141.353816,"zip":"0050015"},{"town":"真駒内泉町三丁目","koaza":"","lat":42.986366,"lng":141.355342,"zip":"0050015"},{"town":"真駒内泉町四丁目","koaza":"","lat":42.986021,"lng":141.356951,"zip":"0050015"},{"town":"真駒内柏丘十丁目","koaza":"","lat":42.983053,"lng":141.347952,"zip":"0050022"},{"town":"真駒内柏丘十一丁目","koaza":"","lat":42.977073,"lng":141.345824,"zip":"0050022"},{"town":"真駒内柏丘十二丁目","koaza":"","lat":42.982201,"lng":141.343476,"zip":"0050022"},{"town":"真駒内柏丘一丁目","koaza":"","lat":42.991698,"lng":141.347393,"zip":"0050022"},{"town":"真駒内柏丘二丁目","koaza":"","lat":42.989399,"lng":141.348229,"zip":"0050022"},{"town":"真駒内柏丘三丁目","koaza":"","lat":42.988427,"lng":141.350187,"zip":"0050022"},{"town":"真駒内柏丘四丁目","koaza":"","lat":42.987474,"lng":141.347055,"zip":"0050022"},{"town":"真駒内柏丘五丁目","koaza":"","lat":42.988489,"lng":141.344596,"zip":"0050022"},{"town":"真駒内柏丘六丁目","koaza":"","lat":42.989957,"lng":141.343823,"zip":"0050022"},{"town":"真駒内柏丘七丁目","koaza":"","lat":42.98724,"lng":141.341594,"zip":"0050022"},{"town":"真駒内柏丘八丁目","koaza":"","lat":42.985868,"lng":141.346412,"zip":"0050022"},{"town":"真駒内柏丘九丁目","koaza":"","lat":42.982749,"lng":141.345601,"zip":"0050022"},{"town":"真駒内上町一丁目","koaza":"","lat":42.99645,"lng":141.349679,"zip":"0050012"},{"town":"真駒内上町二丁目","koaza":"","lat":42.996549,"lng":141.350685,"zip":"0050012"},{"town":"真駒内上町三丁目","koaza":"","lat":42.996916,"lng":141.353428,"zip":"0050012"},{"town":"真駒内上町四丁目","koaza":"","lat":42.996665,"lng":141.355763,"zip":"0050012"},{"town":"真駒内上町五丁目","koaza":"","lat":42.996456,"lng":141.358273,"zip":"0050012"},{"town":"真駒内公園","koaza":"","lat":42.994365,"lng":141.344149,"zip":"0050017"},{"town":"真駒内幸町一丁目","koaza":"","lat":42.989993,"lng":141.351668,"zip":"0050014"},{"town":"真駒内幸町二丁目","koaza":"","lat":42.99007,"lng":141.354229,"zip":"0050014"},{"town":"真駒内幸町三丁目","koaza":"","lat":42.990114,"lng":141.356791,"zip":"0050014"},{"town":"真駒内東町一丁目","koaza":"","lat":43.003361,"lng":141.364406,"zip":"0050011"},{"town":"真駒内東町二丁目","koaza":"","lat":42.999594,"lng":141.363889,"zip":"0050011"},{"town":"真駒内東町三丁目","koaza":"","lat":42.998191,"lng":141.364151,"zip":"0050011"},{"town":"真駒内本町一丁目","koaza":"","lat":43.010493,"lng":141.35314,"zip":"0050021"},{"town":"真駒内本町二丁目","koaza":"","lat":43.007508,"lng":141.351483,"zip":"0050021"},{"town":"真駒内本町三丁目","koaza":"","lat":43.007156,"lng":141.348946,"zip":"0050021"},{"town":"真駒内本町四丁目","koaza":"","lat":43.006398,"lng":141.347201,"zip":"0050021"},{"town":"真駒内本町五丁目","koaza":"","lat":43.005023,"lng":141.350164,"zip":"0050021"},{"town":"真駒内本町六丁目","koaza":"","lat":43.004324,"lng":141.347145,"zip":"0050021"},{"town":"真駒内本町七丁目","koaza":"","lat":43.002355,"lng":141.346822,"zip":"0050021"},{"town":"真駒内緑町一丁目","koaza":"","lat":42.992709,"lng":141.349844,"zip":"0050013"},{"town":"真駒内緑町二丁目","koaza":"","lat":42.99279,"lng":141.352112,"zip":"0050013"},{"town":"真駒内緑町三丁目","koaza":"","lat":42.992905,"lng":141.354685,"zip":"0050013"},{"town":"真駒内緑町四丁目","koaza":"","lat":42.993034,"lng":141.35724,"zip":"0050013"},{"town":"真駒内南町一丁目","koaza":"","lat":42.984681,"lng":141.350458,"zip":"0050016"},{"town":"真駒内南町二丁目","koaza":"","lat":42.982983,"lng":141.352753,"zip":"0050016"},{"town":"真駒内南町三丁目","koaza":"","lat":42.982117,"lng":141.353755,"zip":"0050016"},{"town":"真駒内南町四丁目","koaza":"","lat":42.981304,"lng":141.350518,"zip":"0050016"},{"town":"真駒内南町五丁目","koaza":"","lat":42.977897,"lng":141.347799,"zip":"0050016"},{"town":"真駒内南町六丁目","koaza":"","lat":42.977209,"lng":141.349661,"zip":"0050016"},{"town":"真駒内南町七丁目","koaza":"","lat":42.973345,"lng":141.347399,"zip":"0050016"},{"town":"簾舞","koaza":"","lat":42.917035,"lng":141.254455,"zip":"0612261"},{"town":"簾舞一条一丁目","koaza":"","lat":42.96446,"lng":141.271233,"zip":"0612261"},{"town":"簾舞一条二丁目","koaza":"","lat":42.963915,"lng":141.267917,"zip":"0612261"},{"town":"簾舞一条四丁目","koaza":"","lat":42.963961,"lng":141.264154,"zip":"0612261"},{"town":"簾舞一条五丁目","koaza":"","lat":42.96279,"lng":141.260038,"zip":"0612261"},{"town":"簾舞二条一丁目","koaza":"","lat":42.96282,"lng":141.271121,"zip":"0612262"},{"town":"簾舞二条二丁目","koaza":"","lat":42.962922,"lng":141.269151,"zip":"0612262"},{"town":"簾舞二条三丁目","koaza":"","lat":42.962553,"lng":141.267154,"zip":"0612262"},{"town":"簾舞二条四丁目","koaza":"","lat":42.962783,"lng":141.263823,"zip":"0612262"},{"town":"簾舞二条五丁目","koaza":"","lat":42.962112,"lng":141.260986,"zip":"0612262"},{"town":"簾舞三条一丁目","koaza":"","lat":42.960475,"lng":141.27394,"zip":"0612263"},{"town":"簾舞三条二丁目","koaza":"","lat":42.960547,"lng":141.271249,"zip":"0612263"},{"town":"簾舞三条三丁目","koaza":"","lat":42.960777,"lng":141.267688,"zip":"0612263"},{"town":"簾舞三条五丁目","koaza":"","lat":42.959944,"lng":141.26141,"zip":"0612263"},{"town":"簾舞三条六丁目","koaza":"","lat":42.960089,"lng":141.258111,"zip":"0612263"},{"town":"簾舞四条一丁目","koaza":"","lat":42.958608,"lng":141.274565,"zip":"0612264"},{"town":"簾舞四条二丁目","koaza":"","lat":42.95831,"lng":141.271749,"zip":"0612264"},{"town":"簾舞四条三丁目","koaza":"","lat":42.95884,"lng":141.268639,"zip":"0612264"},{"town":"簾舞四条六丁目","koaza":"","lat":42.958631,"lng":141.258808,"zip":"0612264"},{"town":"簾舞五条一丁目","koaza":"","lat":42.956505,"lng":141.274925,"zip":"0612265"},{"town":"簾舞五条二丁目","koaza":"","lat":42.956294,"lng":141.272477,"zip":"0612265"},{"town":"簾舞六条一丁目","koaza":"","lat":42.954397,"lng":141.27509,"zip":"0612266"},{"town":"簾舞六条二丁目","koaza":"","lat":42.953894,"lng":141.272243,"zip":"0612266"},{"town":"南三十条西八丁目","koaza":"","lat":43.019362,"lng":141.350285,"zip":"0050030"},{"town":"南三十一条西十丁目","koaza":"","lat":43.017547,"lng":141.347292,"zip":"0050031"},{"town":"南三十一条西十一丁目","koaza":"","lat":43.016977,"lng":141.346355,"zip":"0050031"},{"town":"南三十一条西八丁目","koaza":"","lat":43.017177,"lng":141.350852,"zip":"0050031"},{"town":"南三十一条西九丁目","koaza":"","lat":43.017509,"lng":141.34872,"zip":"0050031"},{"town":"南三十二条西十丁目","koaza":"","lat":43.01568,"lng":141.347503,"zip":"0050032"},{"town":"南三十二条西十一丁目","koaza":"","lat":43.015858,"lng":141.345849,"zip":"0050032"},{"town":"南三十二条西八丁目","koaza":"","lat":43.015709,"lng":141.350945,"zip":"0050032"},{"town":"南三十二条西九丁目","koaza":"","lat":43.015556,"lng":141.348928,"zip":"0050032"},{"town":"南三十三条西十丁目","koaza":"","lat":43.013969,"lng":141.347394,"zip":"0050033"},{"town":"南三十三条西十一丁目","koaza":"","lat":43.014534,"lng":141.345695,"zip":"0050033"},{"town":"南三十三条西八丁目","koaza":"","lat":43.014445,"lng":141.351119,"zip":"0050033"},{"town":"南三十三条西九丁目","koaza":"","lat":43.014184,"lng":141.349103,"zip":"0050033"},{"town":"南三十四条西十丁目","koaza":"","lat":43.012456,"lng":141.347291,"zip":"0050034"},{"town":"南三十四条西十一丁目","koaza":"","lat":43.012773,"lng":141.345022,"zip":"0050034"},{"town":"南三十四条西八丁目","koaza":"","lat":43.012239,"lng":141.350662,"zip":"0050034"},{"town":"南三十四条西九丁目","koaza":"","lat":43.012601,"lng":141.349302,"zip":"0050034"},{"town":"南三十五条西十丁目","koaza":"","lat":43.010425,"lng":141.34708,"zip":"0050035"},{"town":"南三十五条西十一丁目","koaza":"","lat":43.011173,"lng":141.34464,"zip":"0050035"},{"town":"南三十五条西九丁目","koaza":"","lat":43.010948,"lng":141.349492,"zip":"0050035"},{"town":"南三十六条西十丁目","koaza":"","lat":43.009332,"lng":141.345907,"zip":"0050036"},{"town":"南三十六条西十一丁目","koaza":"","lat":43.00973,"lng":141.344037,"zip":"0050036"},{"town":"南三十七条西十丁目","koaza":"","lat":43.007836,"lng":141.344825,"zip":"0050037"},{"town":"南三十七条西十一丁目","koaza":"","lat":43.008065,"lng":141.342938,"zip":"0050037"},{"town":"南三十八条西十丁目","koaza":"","lat":43.006478,"lng":141.344264,"zip":"0050038"},{"town":"南三十八条西十一丁目","koaza":"","lat":43.006506,"lng":141.342399,"zip":"0050038"},{"town":"南三十九条西十丁目","koaza":"","lat":43.004818,"lng":141.343681,"zip":"0050039"},{"town":"南三十九条西十一丁目","koaza":"","lat":43.004027,"lng":141.342691,"zip":"0050039"},{"town":"南沢","koaza":"","lat":42.983772,"lng":141.3042,"zip":"0050827"},{"town":"南沢一条一丁目","koaza":"","lat":42.983357,"lng":141.325923,"zip":"0050821"},{"town":"南沢一条二丁目","koaza":"","lat":42.982268,"lng":141.327037,"zip":"0050821"},{"town":"南沢一条三丁目","koaza":"","lat":42.981469,"lng":141.3241,"zip":"0050821"},{"town":"南沢二条一丁目","koaza":"","lat":42.985571,"lng":141.325706,"zip":"0050822"},{"town":"南沢二条二丁目","koaza":"","lat":42.984116,"lng":141.32256,"zip":"0050822"},{"town":"南沢二条三丁目","koaza":"","lat":42.981925,"lng":141.319211,"zip":"0050822"},{"town":"南沢二条四丁目","koaza":"","lat":42.980973,"lng":141.315775,"zip":"0050822"},{"town":"南沢三条一丁目","koaza":"","lat":42.987737,"lng":141.321135,"zip":"0050823"},{"town":"南沢三条二丁目","koaza":"","lat":42.985523,"lng":141.320331,"zip":"0050823"},{"town":"南沢三条三丁目","koaza":"","lat":42.984378,"lng":141.316669,"zip":"0050823"},{"town":"南沢三条四丁目","koaza":"","lat":42.983302,"lng":141.314376,"zip":"0050823"},{"town":"南沢四条一丁目","koaza":"","lat":42.989703,"lng":141.319614,"zip":"0050824"},{"town":"南沢四条二丁目","koaza":"","lat":42.98793,"lng":141.316637,"zip":"0050824"},{"town":"南沢四条三丁目","koaza":"","lat":42.986367,"lng":141.314737,"zip":"0050824"},{"town":"南沢四条四丁目","koaza":"","lat":42.984969,"lng":141.312732,"zip":"0050824"},{"town":"南沢五条一丁目","koaza":"","lat":42.990814,"lng":141.317293,"zip":"0050825"},{"town":"南沢五条二丁目","koaza":"","lat":42.989736,"lng":141.313519,"zip":"0050825"},{"town":"南沢五条三丁目","koaza":"","lat":42.987999,"lng":141.312073,"zip":"0050825"},{"town":"南沢五条四丁目","koaza":"","lat":42.986658,"lng":141.309826,"zip":"0050825"},{"town":"南沢六条二丁目","koaza":"","lat":42.990986,"lng":141.312513,"zip":"0050826"},{"town":"南沢六条三丁目","koaza":"","lat":42.989687,"lng":141.308871,"zip":"0050826"},{"town":"南沢六条四丁目","koaza":"","lat":42.987633,"lng":141.30672,"zip":"0050826"},{"town":"藻岩下","koaza":"","lat":43.012642,"lng":141.331858,"zip":"0050040"},{"town":"藻岩下一丁目","koaza":"","lat":43.010513,"lng":141.340121,"zip":"0050040"},{"town":"藻岩下二丁目","koaza":"","lat":43.008142,"lng":141.340801,"zip":"0050040"},{"town":"藻岩下三丁目","koaza":"","lat":43.007862,"lng":141.338371,"zip":"0050040"},{"town":"藻岩下四丁目","koaza":"","lat":43.008542,"lng":141.335576,"zip":"0050040"},{"town":"藻岩下五丁目","koaza":"","lat":43.010139,"lng":141.336317,"zip":"0050040"},{"town":"藻岩山","koaza":"","lat":43.019034,"lng":141.330408,"zip":"0050041"}]