[{"town":"川北","koaza":"","lat":43.071628,"lng":141.437011,"zip":"0030851"},{"town":"川北一条一丁目","koaza":"","lat":43.056153,"lng":141.433637,"zip":"0030851"},{"town":"川北一条二丁目","koaza":"","lat":43.056182,"lng":141.437057,"zip":"0030851"},{"town":"川北一条三丁目","koaza":"","lat":43.056388,"lng":141.43941,"zip":"0030851"},{"town":"川北二条一丁目","koaza":"","lat":43.059141,"lng":141.43362,"zip":"0030852"},{"town":"川北二条二丁目","koaza":"","lat":43.059322,"lng":141.436408,"zip":"0030852"},{"town":"川北二条三丁目","koaza":"","lat":43.059864,"lng":141.43895,"zip":"0030852"},{"town":"川北三条一丁目","koaza":"","lat":43.061815,"lng":141.433746,"zip":"0030853"},{"town":"川北三条二丁目","koaza":"","lat":43.061892,"lng":141.436349,"zip":"0030853"},{"town":"川北三条三丁目","koaza":"","lat":43.061953,"lng":141.438983,"zip":"0030853"},{"town":"川北四条一丁目","koaza":"","lat":43.063665,"lng":141.433671,"zip":"0030854"},{"town":"川北四条二丁目","koaza":"","lat":43.063688,"lng":141.436271,"zip":"0030854"},{"town":"川北四条三丁目","koaza":"","lat":43.063461,"lng":141.43908,"zip":"0030854"},{"town":"川北五条一丁目","koaza":"","lat":43.065634,"lng":141.43339,"zip":"0030855"},{"town":"川下","koaza":"","lat":43.067028,"lng":141.446637,"zip":"0030869"},{"town":"川下一条四丁目","koaza":"","lat":43.046734,"lng":141.444444,"zip":"0030861"},{"town":"川下一条五丁目","koaza":"","lat":43.046136,"lng":141.445931,"zip":"0030861"},{"town":"川下一条六丁目","koaza":"","lat":43.046025,"lng":141.447904,"zip":"0030861"},{"town":"川下一条七丁目","koaza":"","lat":43.045594,"lng":141.449768,"zip":"0030861"},{"town":"川下一条八丁目","koaza":"","lat":43.045322,"lng":141.451656,"zip":"0030861"},{"town":"川下一条九丁目","koaza":"","lat":43.044786,"lng":141.453524,"zip":"0030861"},{"town":"川下二条四丁目","koaza":"","lat":43.048149,"lng":141.444638,"zip":"0030862"},{"town":"川下二条五丁目","koaza":"","lat":43.047815,"lng":141.446481,"zip":"0030862"},{"town":"川下二条六丁目","koaza":"","lat":43.047444,"lng":141.448589,"zip":"0030862"},{"town":"川下二条七丁目","koaza":"","lat":43.047174,"lng":141.450293,"zip":"0030862"},{"town":"川下二条八丁目","koaza":"","lat":43.046755,"lng":141.452388,"zip":"0030862"},{"town":"川下三条三丁目","koaza":"","lat":43.049816,"lng":141.443911,"zip":"0030863"},{"town":"川下三条四丁目","koaza":"","lat":43.049843,"lng":141.445268,"zip":"0030863"},{"town":"川下三条五丁目","koaza":"","lat":43.049522,"lng":141.447023,"zip":"0030863"},{"town":"川下三条六丁目","koaza":"","lat":43.04924,"lng":141.448948,"zip":"0030863"},{"town":"川下三条七丁目","koaza":"","lat":43.049124,"lng":141.451075,"zip":"0030863"},{"town":"川下四条一丁目","koaza":"","lat":43.053132,"lng":141.441291,"zip":"0030864"},{"town":"川下四条二丁目","koaza":"","lat":43.052536,"lng":141.442525,"zip":"0030864"},{"town":"川下四条三丁目","koaza":"","lat":43.052038,"lng":141.444108,"zip":"0030864"},{"town":"川下四条四丁目","koaza":"","lat":43.052104,"lng":141.446,"zip":"0030864"},{"town":"川下四条五丁目","koaza":"","lat":43.051816,"lng":141.447768,"zip":"0030864"},{"town":"川下四条六丁目","koaza":"","lat":43.051219,"lng":141.449624,"zip":"0030864"},{"town":"川下五条一丁目","koaza":"","lat":43.055095,"lng":141.441315,"zip":"0030865"},{"town":"川下五条二丁目","koaza":"","lat":43.054777,"lng":141.443134,"zip":"0030865"},{"town":"川下五条三丁目","koaza":"","lat":43.054416,"lng":141.444877,"zip":"0030865"},{"town":"川下五条四丁目","koaza":"","lat":43.053871,"lng":141.44743,"zip":"0030865"},{"town":"菊水一条一丁目","koaza":"","lat":43.05751,"lng":141.368987,"zip":"0030801"},{"town":"菊水一条二丁目","koaza":"","lat":43.056281,"lng":141.37065,"zip":"0030801"},{"town":"菊水一条三丁目","koaza":"","lat":43.054822,"lng":141.372567,"zip":"0030801"},{"town":"菊水一条四丁目","koaza":"","lat":43.053345,"lng":141.375492,"zip":"0030801"},{"town":"菊水二条一丁目","koaza":"","lat":43.058595,"lng":141.369992,"zip":"0030802"},{"town":"菊水二条二丁目","koaza":"","lat":43.057007,"lng":141.372048,"zip":"0030802"},{"town":"菊水二条三丁目","koaza":"","lat":43.055472,"lng":141.373915,"zip":"0030802"},{"town":"菊水三条一丁目","koaza":"","lat":43.059553,"lng":141.370941,"zip":"0030803"},{"town":"菊水三条二丁目","koaza":"","lat":43.057677,"lng":141.373438,"zip":"0030803"},{"town":"菊水三条三丁目","koaza":"","lat":43.056191,"lng":141.374931,"zip":"0030803"},{"town":"菊水三条四丁目","koaza":"","lat":43.054362,"lng":141.377257,"zip":"0030803"},{"town":"菊水三条五丁目","koaza":"","lat":43.053018,"lng":141.379056,"zip":"0030803"},{"town":"菊水四条一丁目","koaza":"","lat":43.060374,"lng":141.37212,"zip":"0030804"},{"town":"菊水四条二丁目","koaza":"","lat":43.058387,"lng":141.37497,"zip":"0030804"},{"town":"菊水四条三丁目","koaza":"","lat":43.056033,"lng":141.376956,"zip":"0030804"},{"town":"菊水五条一丁目","koaza":"","lat":43.061202,"lng":141.373694,"zip":"0030805"},{"town":"菊水五条二丁目","koaza":"","lat":43.059232,"lng":141.376193,"zip":"0030805"},{"town":"菊水五条三丁目","koaza":"","lat":43.056625,"lng":141.377765,"zip":"0030805"},{"town":"菊水六条一丁目","koaza":"","lat":43.062087,"lng":141.375757,"zip":"0030806"},{"town":"菊水六条二丁目","koaza":"","lat":43.059751,"lng":141.377447,"zip":"0030806"},{"town":"菊水六条三丁目","koaza":"","lat":43.057214,"lng":141.37968,"zip":"0030806"},{"town":"菊水六条四丁目","koaza":"","lat":43.054823,"lng":141.380958,"zip":"0030806"},{"town":"菊水七条一丁目","koaza":"","lat":43.062655,"lng":141.377675,"zip":"0030807"},{"town":"菊水七条二丁目","koaza":"","lat":43.06037,"lng":141.3792,"zip":"0030807"},{"town":"菊水七条三丁目","koaza":"","lat":43.057688,"lng":141.381386,"zip":"0030807"},{"town":"菊水七条四丁目","koaza":"","lat":43.055479,"lng":141.382355,"zip":"0030807"},{"town":"菊水八条一丁目","koaza":"","lat":43.062801,"lng":141.379762,"zip":"0030808"},{"town":"菊水八条二丁目","koaza":"","lat":43.060606,"lng":141.381253,"zip":"0030808"},{"town":"菊水八条三丁目","koaza":"","lat":43.058698,"lng":141.382884,"zip":"0030808"},{"town":"菊水八条四丁目","koaza":"","lat":43.056604,"lng":141.384117,"zip":"0030808"},{"town":"菊水九条一丁目","koaza":"","lat":43.063274,"lng":141.381678,"zip":"0030809"},{"town":"菊水九条二丁目","koaza":"","lat":43.061541,"lng":141.38322,"zip":"0030809"},{"town":"菊水九条三丁目","koaza":"","lat":43.059898,"lng":141.385799,"zip":"0030809"},{"town":"菊水九条四丁目","koaza":"","lat":43.058717,"lng":141.387647,"zip":"0030809"},{"town":"菊水上町","koaza":"","lat":43.062983,"lng":141.373751,"zip":"0030811"},{"town":"菊水上町一条一丁目","koaza":"","lat":43.064397,"lng":141.383203,"zip":"0030811"},{"town":"菊水上町一条二丁目","koaza":"","lat":43.063129,"lng":141.384669,"zip":"0030811"},{"town":"菊水上町一条三丁目","koaza":"","lat":43.061728,"lng":141.3871,"zip":"0030811"},{"town":"菊水上町一条四丁目","koaza":"","lat":43.060319,"lng":141.389847,"zip":"0030811"},{"town":"菊水上町二条一丁目","koaza":"","lat":43.065132,"lng":141.386598,"zip":"0030812"},{"town":"菊水上町二条二丁目","koaza":"","lat":43.063635,"lng":141.387266,"zip":"0030812"},{"town":"菊水上町二条三丁目","koaza":"","lat":43.062298,"lng":141.389812,"zip":"0030812"},{"town":"菊水上町二条四丁目","koaza":"","lat":43.061492,"lng":141.390881,"zip":"0030812"},{"town":"菊水上町三条一丁目","koaza":"","lat":43.065996,"lng":141.388813,"zip":"0030813"},{"town":"菊水上町三条二丁目","koaza":"","lat":43.064461,"lng":141.389676,"zip":"0030813"},{"town":"菊水上町三条三丁目","koaza":"","lat":43.062977,"lng":141.391805,"zip":"0030813"},{"town":"菊水上町三条四丁目","koaza":"","lat":43.062663,"lng":141.395177,"zip":"0030813"},{"town":"菊水上町四条一丁目","koaza":"","lat":43.066942,"lng":141.391287,"zip":"0030814"},{"town":"菊水上町四条二丁目","koaza":"","lat":43.065699,"lng":141.392984,"zip":"0030814"},{"town":"菊水上町四条三丁目","koaza":"","lat":43.063838,"lng":141.393999,"zip":"0030814"},{"town":"菊水上町四条四丁目","koaza":"","lat":43.063975,"lng":141.396907,"zip":"0030814"},{"town":"菊水元町","koaza":"","lat":43.069313,"lng":141.393028,"zip":"0030821"},{"town":"菊水元町十条一丁目","koaza":"","lat":43.078942,"lng":141.416509,"zip":"0030830"},{"town":"菊水元町一条一丁目","koaza":"","lat":43.067112,"lng":141.394858,"zip":"0030821"},{"town":"菊水元町一条二丁目","koaza":"","lat":43.065908,"lng":141.397367,"zip":"0030821"},{"town":"菊水元町一条三丁目","koaza":"","lat":43.064878,"lng":141.39843,"zip":"0030821"},{"town":"菊水元町一条四丁目","koaza":"","lat":43.063928,"lng":141.400219,"zip":"0030821"},{"town":"菊水元町一条五丁目","koaza":"","lat":43.062905,"lng":141.402031,"zip":"0030821"},{"town":"菊水元町二条一丁目","koaza":"","lat":43.067798,"lng":141.39856,"zip":"0030822"},{"town":"菊水元町二条二丁目","koaza":"","lat":43.066931,"lng":141.400054,"zip":"0030822"},{"town":"菊水元町二条三丁目","koaza":"","lat":43.066109,"lng":141.400834,"zip":"0030822"},{"town":"菊水元町二条四丁目","koaza":"","lat":43.06533,"lng":141.402047,"zip":"0030822"},{"town":"菊水元町二条五丁目","koaza":"","lat":43.064405,"lng":141.403486,"zip":"0030822"},{"town":"菊水元町三条一丁目","koaza":"","lat":43.069441,"lng":141.402003,"zip":"0030823"},{"town":"菊水元町三条二丁目","koaza":"","lat":43.068252,"lng":141.40281,"zip":"0030823"},{"town":"菊水元町三条三丁目","koaza":"","lat":43.067396,"lng":141.403457,"zip":"0030823"},{"town":"菊水元町三条四丁目","koaza":"","lat":43.066662,"lng":141.404311,"zip":"0030823"},{"town":"菊水元町三条五丁目","koaza":"","lat":43.065644,"lng":141.404844,"zip":"0030823"},{"town":"菊水元町四条一丁目","koaza":"","lat":43.070569,"lng":141.404166,"zip":"0030824"},{"town":"菊水元町四条二丁目","koaza":"","lat":43.06891,"lng":141.404629,"zip":"0030824"},{"town":"菊水元町四条三丁目","koaza":"","lat":43.067304,"lng":141.406239,"zip":"0030824"},{"town":"菊水元町五条一丁目","koaza":"","lat":43.072218,"lng":141.405381,"zip":"0030825"},{"town":"菊水元町五条二丁目","koaza":"","lat":43.070458,"lng":141.407206,"zip":"0030825"},{"town":"菊水元町五条三丁目","koaza":"","lat":43.06852,"lng":141.407422,"zip":"0030825"},{"town":"菊水元町六条一丁目","koaza":"","lat":43.073602,"lng":141.406936,"zip":"0030826"},{"town":"菊水元町六条二丁目","koaza":"","lat":43.071172,"lng":141.409464,"zip":"0030826"},{"town":"菊水元町六条三丁目","koaza":"","lat":43.068529,"lng":141.410079,"zip":"0030826"},{"town":"菊水元町六条四丁目","koaza":"","lat":43.066661,"lng":141.411425,"zip":"0030826"},{"town":"菊水元町七条一丁目","koaza":"","lat":43.074957,"lng":141.408834,"zip":"0030827"},{"town":"菊水元町七条二丁目","koaza":"","lat":43.071968,"lng":141.410875,"zip":"0030827"},{"town":"菊水元町七条三丁目","koaza":"","lat":43.069206,"lng":141.412172,"zip":"0030827"},{"town":"菊水元町七条四丁目","koaza":"","lat":43.067157,"lng":141.413756,"zip":"0030827"},{"town":"菊水元町八条一丁目","koaza":"","lat":43.076233,"lng":141.411651,"zip":"0030828"},{"town":"菊水元町八条二丁目","koaza":"","lat":43.072394,"lng":141.413155,"zip":"0030828"},{"town":"菊水元町八条三丁目","koaza":"","lat":43.068893,"lng":141.415682,"zip":"0030828"},{"town":"菊水元町九条一丁目","koaza":"","lat":43.076815,"lng":141.414602,"zip":"0030829"},{"town":"菊水元町九条二丁目","koaza":"","lat":43.072666,"lng":141.415424,"zip":"0030829"},{"town":"北郷","koaza":"","lat":43.073826,"lng":141.429295,"zip":"0030849"},{"town":"北郷一条十丁目","koaza":"","lat":43.048993,"lng":141.430017,"zip":"0030831"},{"town":"北郷一条十一丁目","koaza":"","lat":43.048575,"lng":141.432559,"zip":"0030831"},{"town":"北郷一条十二丁目","koaza":"","lat":43.047729,"lng":141.437078,"zip":"0030831"},{"town":"北郷一条十三丁目","koaza":"","lat":43.047075,"lng":141.440098,"zip":"0030831"},{"town":"北郷一条十四丁目","koaza":"","lat":43.046408,"lng":141.442524,"zip":"0030831"},{"town":"北郷一条一丁目","koaza":"","lat":43.061212,"lng":141.404881,"zip":"0030831"},{"town":"北郷一条二丁目","koaza":"","lat":43.05987,"lng":141.40712,"zip":"0030831"},{"town":"北郷一条三丁目","koaza":"","lat":43.058413,"lng":141.409892,"zip":"0030831"},{"town":"北郷一条四丁目","koaza":"","lat":43.056581,"lng":141.412485,"zip":"0030831"},{"town":"北郷一条五丁目","koaza":"","lat":43.054592,"lng":141.415814,"zip":"0030831"},{"town":"北郷一条六丁目","koaza":"","lat":43.052933,"lng":141.418416,"zip":"0030831"},{"town":"北郷一条七丁目","koaza":"","lat":43.051812,"lng":141.421155,"zip":"0030831"},{"town":"北郷一条八丁目","koaza":"","lat":43.050414,"lng":141.42425,"zip":"0030831"},{"town":"北郷一条九丁目","koaza":"","lat":43.049537,"lng":141.427678,"zip":"0030831"},{"town":"北郷二条十丁目","koaza":"","lat":43.05029,"lng":141.430077,"zip":"0030832"},{"town":"北郷二条十一丁目","koaza":"","lat":43.049687,"lng":141.432964,"zip":"0030832"},{"town":"北郷二条十二丁目","koaza":"","lat":43.049033,"lng":141.436717,"zip":"0030832"},{"town":"北郷二条十三丁目","koaza":"","lat":43.048481,"lng":141.440054,"zip":"0030832"},{"town":"北郷二条十四丁目","koaza":"","lat":43.048082,"lng":141.442421,"zip":"0030832"},{"town":"北郷二条一丁目","koaza":"","lat":43.062717,"lng":141.405785,"zip":"0030832"},{"town":"北郷二条二丁目","koaza":"","lat":43.061221,"lng":141.408452,"zip":"0030832"},{"town":"北郷二条三丁目","koaza":"","lat":43.059844,"lng":141.410535,"zip":"0030832"},{"town":"北郷二条四丁目","koaza":"","lat":43.057721,"lng":141.414405,"zip":"0030832"},{"town":"北郷二条五丁目","koaza":"","lat":43.05597,"lng":141.417103,"zip":"0030832"},{"town":"北郷二条六丁目","koaza":"","lat":43.054646,"lng":141.41978,"zip":"0030832"},{"town":"北郷二条七丁目","koaza":"","lat":43.053286,"lng":141.421895,"zip":"0030832"},{"town":"北郷二条八丁目","koaza":"","lat":43.051823,"lng":141.425346,"zip":"0030832"},{"town":"北郷二条九丁目","koaza":"","lat":43.050822,"lng":141.427936,"zip":"0030832"},{"town":"北郷三条十丁目","koaza":"","lat":43.052468,"lng":141.430708,"zip":"0030833"},{"town":"北郷三条十一丁目","koaza":"","lat":43.051542,"lng":141.43334,"zip":"0030833"},{"town":"北郷三条十二丁目","koaza":"","lat":43.050837,"lng":141.437204,"zip":"0030833"},{"town":"北郷三条十三丁目","koaza":"","lat":43.050268,"lng":141.440301,"zip":"0030833"},{"town":"北郷三条十四丁目","koaza":"","lat":43.049827,"lng":141.442431,"zip":"0030833"},{"town":"北郷三条一丁目","koaza":"","lat":43.064476,"lng":141.40653,"zip":"0030833"},{"town":"北郷三条二丁目","koaza":"","lat":43.062755,"lng":141.409912,"zip":"0030833"},{"town":"北郷三条三丁目","koaza":"","lat":43.060959,"lng":141.412913,"zip":"0030833"},{"town":"北郷三条四丁目","koaza":"","lat":43.05916,"lng":141.415846,"zip":"0030833"},{"town":"北郷三条五丁目","koaza":"","lat":43.05738,"lng":141.418754,"zip":"0030833"},{"town":"北郷三条六丁目","koaza":"","lat":43.055878,"lng":141.421454,"zip":"0030833"},{"town":"北郷三条七丁目","koaza":"","lat":43.054649,"lng":141.42401,"zip":"0030833"},{"town":"北郷三条八丁目","koaza":"","lat":43.052878,"lng":141.425947,"zip":"0030833"},{"town":"北郷三条九丁目","koaza":"","lat":43.052408,"lng":141.428693,"zip":"0030833"},{"town":"北郷四条十丁目","koaza":"","lat":43.055366,"lng":141.430689,"zip":"0030834"},{"town":"北郷四条十一丁目","koaza":"","lat":43.054058,"lng":141.433818,"zip":"0030834"},{"town":"北郷四条十二丁目","koaza":"","lat":43.053023,"lng":141.437903,"zip":"0030834"},{"town":"北郷四条十三丁目","koaza":"","lat":43.052371,"lng":141.440577,"zip":"0030834"},{"town":"北郷四条十四丁目","koaza":"","lat":43.051104,"lng":141.442722,"zip":"0030834"},{"town":"北郷四条一丁目","koaza":"","lat":43.066091,"lng":141.407465,"zip":"0030834"},{"town":"北郷四条二丁目","koaza":"","lat":43.06523,"lng":141.410439,"zip":"0030834"},{"town":"北郷四条三丁目","koaza":"","lat":43.062674,"lng":141.4145,"zip":"0030834"},{"town":"北郷四条四丁目","koaza":"","lat":43.060625,"lng":141.418077,"zip":"0030834"},{"town":"北郷四条五丁目","koaza":"","lat":43.058908,"lng":141.420931,"zip":"0030834"},{"town":"北郷四条六丁目","koaza":"","lat":43.05758,"lng":141.423168,"zip":"0030834"},{"town":"北郷四条七丁目","koaza":"","lat":43.055779,"lng":141.424604,"zip":"0030834"},{"town":"北郷四条八丁目","koaza":"","lat":43.05468,"lng":141.427249,"zip":"0030834"},{"town":"北郷四条九丁目","koaza":"","lat":43.055134,"lng":141.428972,"zip":"0030834"},{"town":"北郷五条十丁目","koaza":"","lat":43.05833,"lng":141.43069,"zip":"0030835"},{"town":"北郷五条三丁目","koaza":"","lat":43.064158,"lng":141.415625,"zip":"0030835"},{"town":"北郷五条四丁目","koaza":"","lat":43.062265,"lng":141.419976,"zip":"0030835"},{"town":"北郷五条五丁目","koaza":"","lat":43.061164,"lng":141.422899,"zip":"0030835"},{"town":"北郷五条六丁目","koaza":"","lat":43.059114,"lng":141.424411,"zip":"0030835"},{"town":"北郷五条七丁目","koaza":"","lat":43.056844,"lng":141.426033,"zip":"0030835"},{"town":"北郷五条八丁目","koaza":"","lat":43.058194,"lng":141.426885,"zip":"0030835"},{"town":"北郷五条九丁目","koaza":"","lat":43.058198,"lng":141.428693,"zip":"0030835"},{"town":"北郷六条十丁目","koaza":"","lat":43.061205,"lng":141.430915,"zip":"0030836"},{"town":"北郷六条三丁目","koaza":"","lat":43.065473,"lng":141.417589,"zip":"0030836"},{"town":"北郷六条四丁目","koaza":"","lat":43.063481,"lng":141.420881,"zip":"0030836"},{"town":"北郷六条七丁目","koaza":"","lat":43.061227,"lng":141.425095,"zip":"0030836"},{"town":"北郷六条八丁目","koaza":"","lat":43.061346,"lng":141.426532,"zip":"0030836"},{"town":"北郷六条九丁目","koaza":"","lat":43.061292,"lng":141.428623,"zip":"0030836"},{"town":"北郷七条十丁目","koaza":"","lat":43.063335,"lng":141.431052,"zip":"0030837"},{"town":"北郷七条三丁目","koaza":"","lat":43.066856,"lng":141.418892,"zip":"0030837"},{"town":"北郷七条四丁目","koaza":"","lat":43.063685,"lng":141.422919,"zip":"0030837"},{"town":"北郷七条七丁目","koaza":"","lat":43.063578,"lng":141.424686,"zip":"0030837"},{"town":"北郷七条八丁目","koaza":"","lat":43.063522,"lng":141.426503,"zip":"0030837"},{"town":"北郷七条九丁目","koaza":"","lat":43.063448,"lng":141.428757,"zip":"0030837"},{"town":"北郷八条十丁目","koaza":"","lat":43.065641,"lng":141.431036,"zip":"0030838"},{"town":"北郷八条三丁目","koaza":"","lat":43.067581,"lng":141.420263,"zip":"0030838"},{"town":"北郷八条四丁目","koaza":"","lat":43.065804,"lng":141.422207,"zip":"0030838"},{"town":"北郷八条七丁目","koaza":"","lat":43.065862,"lng":141.424292,"zip":"0030838"},{"town":"北郷八条八丁目","koaza":"","lat":43.065837,"lng":141.426427,"zip":"0030838"},{"town":"北郷八条九丁目","koaza":"","lat":43.065785,"lng":141.428689,"zip":"0030838"},{"town":"北郷九条三丁目","koaza":"","lat":43.069406,"lng":141.420791,"zip":"0030839"},{"town":"北郷九条七丁目","koaza":"","lat":43.06844,"lng":141.424043,"zip":"0030839"},{"town":"北郷九条八丁目","koaza":"","lat":43.068393,"lng":141.426758,"zip":"0030839"},{"town":"北郷九条九丁目","koaza":"","lat":43.068244,"lng":141.428609,"zip":"0030839"},{"town":"栄通十丁目","koaza":"","lat":43.035167,"lng":141.41433,"zip":"0030021"},{"town":"栄通十一丁目","koaza":"","lat":43.034527,"lng":141.416148,"zip":"0030021"},{"town":"栄通十二丁目","koaza":"","lat":43.034046,"lng":141.417495,"zip":"0030021"},{"town":"栄通十三丁目","koaza":"","lat":43.033483,"lng":141.41907,"zip":"0030021"},{"town":"栄通十四丁目","koaza":"","lat":43.032805,"lng":141.421178,"zip":"0030021"},{"town":"栄通十五丁目","koaza":"","lat":43.031546,"lng":141.422942,"zip":"0030021"},{"town":"栄通十六丁目","koaza":"","lat":43.030673,"lng":141.426521,"zip":"0030021"},{"town":"栄通十七丁目","koaza":"","lat":43.029543,"lng":141.429074,"zip":"0030021"},{"town":"栄通十八丁目","koaza":"","lat":43.028018,"lng":141.432256,"zip":"0030021"},{"town":"栄通十九丁目","koaza":"","lat":43.027011,"lng":141.436563,"zip":"0030021"},{"town":"栄通一丁目","koaza":"","lat":43.042737,"lng":141.395426,"zip":"0030021"},{"town":"栄通二十丁目","koaza":"","lat":43.02571,"lng":141.438517,"zip":"0030021"},{"town":"栄通二十一丁目","koaza":"","lat":43.024476,"lng":141.441823,"zip":"0030021"},{"town":"栄通二丁目","koaza":"","lat":43.041374,"lng":141.397611,"zip":"0030021"},{"town":"栄通三丁目","koaza":"","lat":43.040652,"lng":141.400266,"zip":"0030021"},{"town":"栄通四丁目","koaza":"","lat":43.040243,"lng":141.40195,"zip":"0030021"},{"town":"栄通五丁目","koaza":"","lat":43.039316,"lng":141.402486,"zip":"0030021"},{"town":"栄通六丁目","koaza":"","lat":43.038493,"lng":141.405703,"zip":"0030021"},{"town":"栄通七丁目","koaza":"","lat":43.037465,"lng":141.408668,"zip":"0030021"},{"town":"栄通八丁目","koaza":"","lat":43.0367,"lng":141.410678,"zip":"0030021"},{"town":"栄通九丁目","koaza":"","lat":43.035967,"lng":141.412566,"zip":"0030021"},{"town":"中央一条一丁目","koaza":"","lat":43.058466,"lng":141.391201,"zip":"0030011"},{"town":"中央一条二丁目","koaza":"","lat":43.056476,"lng":141.392477,"zip":"0030011"},{"town":"中央一条三丁目","koaza":"","lat":43.055485,"lng":141.394335,"zip":"0030011"},{"town":"中央一条四丁目","koaza":"","lat":43.054281,"lng":141.395807,"zip":"0030011"},{"town":"中央一条五丁目","koaza":"","lat":43.053276,"lng":141.397837,"zip":"0030011"},{"town":"中央一条六丁目","koaza":"","lat":43.052278,"lng":141.399573,"zip":"0030011"},{"town":"中央一条七丁目","koaza":"","lat":43.051588,"lng":141.401329,"zip":"0030011"},{"town":"中央二条一丁目","koaza":"","lat":43.05958,"lng":141.392622,"zip":"0030012"},{"town":"中央二条二丁目","koaza":"","lat":43.058855,"lng":141.395066,"zip":"0030012"},{"town":"中央二条三丁目","koaza":"","lat":43.057962,"lng":141.396831,"zip":"0030012"},{"town":"中央二条四丁目","koaza":"","lat":43.056914,"lng":141.398732,"zip":"0030012"},{"town":"中央二条五丁目","koaza":"","lat":43.05602,"lng":141.400529,"zip":"0030012"},{"town":"中央二条六丁目","koaza":"","lat":43.054988,"lng":141.402441,"zip":"0030012"},{"town":"中央二条七丁目","koaza":"","lat":43.054293,"lng":141.403841,"zip":"0030012"},{"town":"中央三条一丁目","koaza":"","lat":43.061323,"lng":141.395158,"zip":"0030013"},{"town":"中央三条二丁目","koaza":"","lat":43.061213,"lng":141.397248,"zip":"0030013"},{"town":"中央三条三丁目","koaza":"","lat":43.06068,"lng":141.399401,"zip":"0030013"},{"town":"中央三条四丁目","koaza":"","lat":43.059692,"lng":141.401288,"zip":"0030013"},{"town":"中央三条五丁目","koaza":"","lat":43.059107,"lng":141.403775,"zip":"0030013"},{"town":"中央三条六丁目","koaza":"","lat":43.05768,"lng":141.404815,"zip":"0030013"},{"town":"南郷通十丁目北","koaza":"","lat":43.038334,"lng":141.417137,"zip":"0030000"},{"town":"南郷通十丁目南","koaza":"","lat":43.037118,"lng":141.416246,"zip":"0030000"},{"town":"南郷通十一丁目北","koaza":"","lat":43.037704,"lng":141.418637,"zip":"0030000"},{"town":"南郷通十一丁目南","koaza":"","lat":43.036513,"lng":141.418384,"zip":"0030000"},{"town":"南郷通十二丁目北","koaza":"","lat":43.03698,"lng":141.420259,"zip":"0030000"},{"town":"南郷通十二丁目南","koaza":"","lat":43.035925,"lng":141.419319,"zip":"0030000"},{"town":"南郷通十三丁目南","koaza":"","lat":43.035268,"lng":141.421024,"zip":"0030000"},{"town":"南郷通十四丁目北","koaza":"","lat":43.036311,"lng":141.425304,"zip":"0030000"},{"town":"南郷通十四丁目南","koaza":"","lat":43.034532,"lng":141.423174,"zip":"0030000"},{"town":"南郷通十五丁目北","koaza":"","lat":43.03501,"lng":141.427589,"zip":"0030000"},{"town":"南郷通十五丁目南","koaza":"","lat":43.033414,"lng":141.426074,"zip":"0030000"},{"town":"南郷通十六丁目北","koaza":"","lat":43.033766,"lng":141.429762,"zip":"0030000"},{"town":"南郷通十六丁目南","koaza":"","lat":43.032246,"lng":141.428139,"zip":"0030000"},{"town":"南郷通十七丁目北","koaza":"","lat":43.032779,"lng":141.432511,"zip":"0030000"},{"town":"南郷通十七丁目南","koaza":"","lat":43.031192,"lng":141.4308,"zip":"0030000"},{"town":"南郷通十八丁目北","koaza":"","lat":43.03154,"lng":141.434876,"zip":"0030000"},{"town":"南郷通十八丁目南","koaza":"","lat":43.030013,"lng":141.433511,"zip":"0030000"},{"town":"南郷通十九丁目北","koaza":"","lat":43.03067,"lng":141.436694,"zip":"0030000"},{"town":"南郷通十九丁目南","koaza":"","lat":43.029182,"lng":141.436066,"zip":"0030000"},{"town":"南郷通一丁目北","koaza":"","lat":43.046881,"lng":141.39899,"zip":"0030000"},{"town":"南郷通一丁目南","koaza":"","lat":43.044655,"lng":141.396483,"zip":"0030000"},{"town":"南郷通二十丁目北","koaza":"","lat":43.029779,"lng":141.439732,"zip":"0030000"},{"town":"南郷通二十丁目南","koaza":"","lat":43.028248,"lng":141.438992,"zip":"0030000"},{"town":"南郷通二十一丁目南","koaza":"","lat":43.027221,"lng":141.442686,"zip":"0030000"},{"town":"南郷通二丁目北","koaza":"","lat":43.045872,"lng":141.401272,"zip":"0030000"},{"town":"南郷通二丁目南","koaza":"","lat":43.043758,"lng":141.399405,"zip":"0030000"},{"town":"南郷通三丁目北","koaza":"","lat":43.044991,"lng":141.403621,"zip":"0030000"},{"town":"南郷通三丁目南","koaza":"","lat":43.042859,"lng":141.401889,"zip":"0030000"},{"town":"南郷通四丁目北","koaza":"","lat":43.04406,"lng":141.405418,"zip":"0030000"},{"town":"南郷通四丁目南","koaza":"","lat":43.041962,"lng":141.404032,"zip":"0030000"},{"town":"南郷通五丁目北","koaza":"","lat":43.043173,"lng":141.407109,"zip":"0030000"},{"town":"南郷通五丁目南","koaza":"","lat":43.042038,"lng":141.406431,"zip":"0030000"},{"town":"南郷通六丁目北","koaza":"","lat":43.042062,"lng":141.409362,"zip":"0030000"},{"town":"南郷通六丁目南","koaza":"","lat":43.040519,"lng":141.407679,"zip":"0030000"},{"town":"南郷通七丁目北","koaza":"","lat":43.040997,"lng":141.411462,"zip":"0030000"},{"town":"南郷通七丁目南","koaza":"","lat":43.039386,"lng":141.410184,"zip":"0030000"},{"town":"南郷通八丁目北","koaza":"","lat":43.040214,"lng":141.413402,"zip":"0030000"},{"town":"南郷通八丁目南","koaza":"","lat":43.038505,"lng":141.412092,"zip":"0030000"},{"town":"南郷通九丁目北","koaza":"","lat":43.039276,"lng":141.41526,"zip":"0030000"},{"town":"南郷通九丁目南","koaza":"","lat":43.037896,"lng":141.414624,"zip":"0030000"},{"town":"東札幌一条一丁目","koaza":"","lat":43.050565,"lng":141.380222,"zip":"0030001"},{"town":"東札幌一条二丁目","koaza":"","lat":43.049443,"lng":141.382513,"zip":"0030001"},{"town":"東札幌一条三丁目","koaza":"","lat":43.048143,"lng":141.384307,"zip":"0030001"},{"town":"東札幌一条四丁目","koaza":"","lat":43.046619,"lng":141.388154,"zip":"0030001"},{"town":"東札幌一条五丁目","koaza":"","lat":43.044852,"lng":141.391001,"zip":"0030001"},{"town":"東札幌一条六丁目","koaza":"","lat":43.043831,"lng":141.392762,"zip":"0030001"},{"town":"東札幌二条一丁目","koaza":"","lat":43.052261,"lng":141.381916,"zip":"0030002"},{"town":"東札幌二条二丁目","koaza":"","lat":43.050973,"lng":141.383961,"zip":"0030002"},{"town":"東札幌二条三丁目","koaza":"","lat":43.049678,"lng":141.386212,"zip":"0030002"},{"town":"東札幌二条四丁目","koaza":"","lat":43.048147,"lng":141.389006,"zip":"0030002"},{"town":"東札幌二条五丁目","koaza":"","lat":43.046582,"lng":141.391885,"zip":"0030002"},{"town":"東札幌二条六丁目","koaza":"","lat":43.045641,"lng":141.394509,"zip":"0030002"},{"town":"東札幌三条一丁目","koaza":"","lat":43.053799,"lng":141.383951,"zip":"0030003"},{"town":"東札幌三条二丁目","koaza":"","lat":43.052505,"lng":141.385497,"zip":"0030003"},{"town":"東札幌三条三丁目","koaza":"","lat":43.05113,"lng":141.387564,"zip":"0030003"},{"town":"東札幌三条四丁目","koaza":"","lat":43.049408,"lng":141.390334,"zip":"0030003"},{"town":"東札幌三条五丁目","koaza":"","lat":43.047565,"lng":141.393404,"zip":"0030003"},{"town":"東札幌三条六丁目","koaza":"","lat":43.04666,"lng":141.395946,"zip":"0030003"},{"town":"東札幌四条一丁目","koaza":"","lat":43.054953,"lng":141.385086,"zip":"0030004"},{"town":"東札幌四条二丁目","koaza":"","lat":43.053371,"lng":141.387298,"zip":"0030004"},{"town":"東札幌四条三丁目","koaza":"","lat":43.051794,"lng":141.389536,"zip":"0030004"},{"town":"東札幌四条四丁目","koaza":"","lat":43.050324,"lng":141.391629,"zip":"0030004"},{"town":"東札幌四条五丁目","koaza":"","lat":43.048534,"lng":141.393822,"zip":"0030004"},{"town":"東札幌四条六丁目","koaza":"","lat":43.047281,"lng":141.396429,"zip":"0030004"},{"town":"東札幌五条一丁目","koaza":"","lat":43.055988,"lng":141.386085,"zip":"0030005"},{"town":"東札幌五条二丁目","koaza":"","lat":43.054073,"lng":141.388868,"zip":"0030005"},{"town":"東札幌五条三丁目","koaza":"","lat":43.052737,"lng":141.390814,"zip":"0030005"},{"town":"東札幌五条四丁目","koaza":"","lat":43.05147,"lng":141.392971,"zip":"0030005"},{"town":"東札幌五条五丁目","koaza":"","lat":43.049756,"lng":141.395567,"zip":"0030005"},{"town":"東札幌五条六丁目","koaza":"","lat":43.04833,"lng":141.397729,"zip":"0030005"},{"town":"東札幌六条一丁目","koaza":"","lat":43.057072,"lng":141.389087,"zip":"0030006"},{"town":"東札幌六条二丁目","koaza":"","lat":43.054961,"lng":141.390427,"zip":"0030006"},{"town":"東札幌六条三丁目","koaza":"","lat":43.053818,"lng":141.39214,"zip":"0030006"},{"town":"東札幌六条四丁目","koaza":"","lat":43.052798,"lng":141.393818,"zip":"0030006"},{"town":"東札幌六条五丁目","koaza":"","lat":43.051074,"lng":141.396609,"zip":"0030006"},{"town":"東札幌六条六丁目","koaza":"","lat":43.049585,"lng":141.399006,"zip":"0030006"},{"town":"東米里","koaza":"","lat":43.08935,"lng":141.451214,"zip":"0030876"},{"town":"平和通十丁目北","koaza":"","lat":43.046513,"lng":141.426313,"zip":"0030000"},{"town":"平和通十丁目南","koaza":"","lat":43.04426,"lng":141.423528,"zip":"0030000"},{"town":"平和通十一丁目北","koaza":"","lat":43.046019,"lng":141.428939,"zip":"0030000"},{"town":"平和通十一丁目南","koaza":"","lat":43.043408,"lng":141.425032,"zip":"0030000"},{"town":"平和通十二丁目北","koaza":"","lat":43.044314,"lng":141.429274,"zip":"0030000"},{"town":"平和通十二丁目南","koaza":"","lat":43.042651,"lng":141.426256,"zip":"0030000"},{"town":"平和通十三丁目北","koaza":"","lat":43.042851,"lng":141.428863,"zip":"0030000"},{"town":"平和通十三丁目南","koaza":"","lat":43.042055,"lng":141.427887,"zip":"0030000"},{"town":"平和通十四丁目北","koaza":"","lat":43.042518,"lng":141.431198,"zip":"0030000"},{"town":"平和通十四丁目南","koaza":"","lat":43.041061,"lng":141.430149,"zip":"0030000"},{"town":"平和通十五丁目北","koaza":"","lat":43.044478,"lng":141.433686,"zip":"0030000"},{"town":"平和通十五丁目南","koaza":"","lat":43.040428,"lng":141.43229,"zip":"0030000"},{"town":"平和通十六丁目北","koaza":"","lat":43.044129,"lng":141.436851,"zip":"0030000"},{"town":"平和通十六丁目南","koaza":"","lat":43.040141,"lng":141.434583,"zip":"0030000"},{"town":"平和通十七丁目北","koaza":"","lat":43.043221,"lng":141.438935,"zip":"0030000"},{"town":"平和通十七丁目南","koaza":"","lat":43.039391,"lng":141.437575,"zip":"0030000"},{"town":"平和通一丁目北","koaza":"","lat":43.056718,"lng":141.407806,"zip":"0030000"},{"town":"平和通一丁目南","koaza":"","lat":43.054515,"lng":141.405979,"zip":"0030000"},{"town":"平和通二丁目北","koaza":"","lat":43.054785,"lng":141.410654,"zip":"0030000"},{"town":"平和通二丁目南","koaza":"","lat":43.052843,"lng":141.408637,"zip":"0030000"},{"town":"平和通三丁目北","koaza":"","lat":43.053481,"lng":141.412609,"zip":"0030000"},{"town":"平和通三丁目南","koaza":"","lat":43.051818,"lng":141.410859,"zip":"0030000"},{"town":"平和通四丁目北","koaza":"","lat":43.052787,"lng":141.413814,"zip":"0030000"},{"town":"平和通四丁目南","koaza":"","lat":43.050897,"lng":141.412454,"zip":"0030000"},{"town":"平和通五丁目北","koaza":"","lat":43.05189,"lng":141.415017,"zip":"0030000"},{"town":"平和通五丁目南","koaza":"","lat":43.049903,"lng":141.414027,"zip":"0030000"},{"town":"平和通六丁目北","koaza":"","lat":43.050944,"lng":141.417286,"zip":"0030000"},{"town":"平和通六丁目南","koaza":"","lat":43.048528,"lng":141.415678,"zip":"0030000"},{"town":"平和通七丁目北","koaza":"","lat":43.049579,"lng":141.419229,"zip":"0030000"},{"town":"平和通七丁目南","koaza":"","lat":43.047333,"lng":141.417582,"zip":"0030000"},{"town":"平和通八丁目北","koaza":"","lat":43.048376,"lng":141.421306,"zip":"0030000"},{"town":"平和通八丁目南","koaza":"","lat":43.046522,"lng":141.419449,"zip":"0030000"},{"town":"平和通九丁目北","koaza":"","lat":43.047356,"lng":141.423393,"zip":"0030000"},{"town":"平和通九丁目南","koaza":"","lat":43.045418,"lng":141.421502,"zip":"0030000"},{"town":"本郷通十丁目北","koaza":"","lat":43.040244,"lng":141.419056,"zip":"0030000"},{"town":"本郷通十丁目南","koaza":"","lat":43.03916,"lng":141.418154,"zip":"0030000"},{"town":"本郷通十一丁目北","koaza":"","lat":43.039309,"lng":141.420569,"zip":"0030000"},{"town":"本郷通十一丁目南","koaza":"","lat":43.038356,"lng":141.419579,"zip":"0030000"},{"town":"本郷通十二丁目北","koaza":"","lat":43.038551,"lng":141.4219,"zip":"0030000"},{"town":"本郷通十二丁目南","koaza":"","lat":43.037556,"lng":141.421066,"zip":"0030000"},{"town":"本郷通十三丁目北","koaza":"","lat":43.037593,"lng":141.423587,"zip":"0030000"},{"town":"本郷通十三丁目南","koaza":"","lat":43.036771,"lng":141.422353,"zip":"0030000"},{"town":"本郷通一丁目北","koaza":"","lat":43.050028,"lng":141.402015,"zip":"0030000"},{"town":"本郷通一丁目南","koaza":"","lat":43.048469,"lng":141.400652,"zip":"0030000"},{"town":"本郷通二丁目北","koaza":"","lat":43.0487,"lng":141.403947,"zip":"0030000"},{"town":"本郷通二丁目南","koaza":"","lat":43.047574,"lng":141.402771,"zip":"0030000"},{"town":"本郷通三丁目北","koaza":"","lat":43.047783,"lng":141.40616,"zip":"0030000"},{"town":"本郷通三丁目南","koaza":"","lat":43.046441,"lng":141.4049,"zip":"0030000"},{"town":"本郷通四丁目北","koaza":"","lat":43.04649,"lng":141.408236,"zip":"0030000"},{"town":"本郷通四丁目南","koaza":"","lat":43.045344,"lng":141.406664,"zip":"0030000"},{"town":"本郷通五丁目北","koaza":"","lat":43.045566,"lng":141.409745,"zip":"0030000"},{"town":"本郷通五丁目南","koaza":"","lat":43.044479,"lng":141.408445,"zip":"0030000"},{"town":"本郷通六丁目北","koaza":"","lat":43.04477,"lng":141.411601,"zip":"0030000"},{"town":"本郷通六丁目南","koaza":"","lat":43.043366,"lng":141.410462,"zip":"0030000"},{"town":"本郷通七丁目北","koaza":"","lat":43.043702,"lng":141.413491,"zip":"0030000"},{"town":"本郷通七丁目南","koaza":"","lat":43.042109,"lng":141.412631,"zip":"0030000"},{"town":"本郷通八丁目北","koaza":"","lat":43.042525,"lng":141.415262,"zip":"0030000"},{"town":"本郷通八丁目南","koaza":"","lat":43.041362,"lng":141.414255,"zip":"0030000"},{"town":"本郷通九丁目北","koaza":"","lat":43.041005,"lng":141.417254,"zip":"0030000"},{"town":"本郷通九丁目南","koaza":"","lat":43.040207,"lng":141.416234,"zip":"0030000"},{"town":"本通十丁目北","koaza":"","lat":43.043104,"lng":141.422395,"zip":"0030000"},{"town":"本通十丁目南","koaza":"","lat":43.041566,"lng":141.420694,"zip":"0030000"},{"town":"本通十一丁目北","koaza":"","lat":43.042415,"lng":141.423676,"zip":"0030000"},{"town":"本通十一丁目南","koaza":"","lat":43.040763,"lng":141.422087,"zip":"0030000"},{"town":"本通十二丁目北","koaza":"","lat":43.041646,"lng":141.424988,"zip":"0030000"},{"town":"本通十二丁目南","koaza":"","lat":43.039988,"lng":141.423401,"zip":"0030000"},{"town":"本通十三丁目北","koaza":"","lat":43.040975,"lng":141.426689,"zip":"0030000"},{"town":"本通十三丁目南","koaza":"","lat":43.039123,"lng":141.424926,"zip":"0030000"},{"town":"本通十四丁目北","koaza":"","lat":43.039499,"lng":141.429165,"zip":"0030000"},{"town":"本通十四丁目南","koaza":"","lat":43.03791,"lng":141.427393,"zip":"0030000"},{"town":"本通十五丁目北","koaza":"","lat":43.038737,"lng":141.431726,"zip":"0030000"},{"town":"本通十五丁目南","koaza":"","lat":43.03669,"lng":141.429807,"zip":"0030000"},{"town":"本通十六丁目北","koaza":"","lat":43.037779,"lng":141.433384,"zip":"0030000"},{"town":"本通十六丁目南","koaza":"","lat":43.035455,"lng":141.431447,"zip":"0030000"},{"town":"本通十七丁目北","koaza":"","lat":43.036977,"lng":141.436434,"zip":"0030000"},{"town":"本通十七丁目南","koaza":"","lat":43.034272,"lng":141.434118,"zip":"0030000"},{"town":"本通十八丁目北","koaza":"","lat":43.034521,"lng":141.43794,"zip":"0030000"},{"town":"本通十八丁目南","koaza":"","lat":43.032757,"lng":141.43645,"zip":"0030000"},{"town":"本通十九丁目北","koaza":"","lat":43.034041,"lng":141.440358,"zip":"0030000"},{"town":"本通十九丁目南","koaza":"","lat":43.031678,"lng":141.438018,"zip":"0030000"},{"town":"本通一丁目北","koaza":"","lat":43.052635,"lng":141.405324,"zip":"0030000"},{"town":"本通一丁目南","koaza":"","lat":43.051101,"lng":141.403457,"zip":"0030000"},{"town":"本通二十丁目北","koaza":"","lat":43.032956,"lng":141.441764,"zip":"0030000"},{"town":"本通二十丁目南","koaza":"","lat":43.031115,"lng":141.440477,"zip":"0030000"},{"town":"本通二十一丁目北","koaza":"","lat":43.031138,"lng":141.443828,"zip":"0030000"},{"town":"本通二十一丁目南","koaza":"","lat":43.029179,"lng":141.443285,"zip":"0030000"},{"town":"本通二丁目北","koaza":"","lat":43.051336,"lng":141.407431,"zip":"0030000"},{"town":"本通二丁目南","koaza":"","lat":43.050074,"lng":141.405491,"zip":"0030000"},{"town":"本通三丁目北","koaza":"","lat":43.050847,"lng":141.409436,"zip":"0030000"},{"town":"本通三丁目南","koaza":"","lat":43.049103,"lng":141.407615,"zip":"0030000"},{"town":"本通四丁目北","koaza":"","lat":43.049696,"lng":141.411331,"zip":"0030000"},{"town":"本通四丁目南","koaza":"","lat":43.047961,"lng":141.409726,"zip":"0030000"},{"town":"本通五丁目北","koaza":"","lat":43.048724,"lng":141.412982,"zip":"0030000"},{"town":"本通五丁目南","koaza":"","lat":43.046863,"lng":141.411297,"zip":"0030000"},{"town":"本通六丁目北","koaza":"","lat":43.047302,"lng":141.414422,"zip":"0030000"},{"town":"本通六丁目南","koaza":"","lat":43.046169,"lng":141.413095,"zip":"0030000"},{"town":"本通七丁目北","koaza":"","lat":43.046318,"lng":141.416471,"zip":"0030000"},{"town":"本通七丁目南","koaza":"","lat":43.045107,"lng":141.414979,"zip":"0030000"},{"town":"本通八丁目北","koaza":"","lat":43.045403,"lng":141.418292,"zip":"0030000"},{"town":"本通八丁目南","koaza":"","lat":43.044061,"lng":141.417173,"zip":"0030000"},{"town":"本通九丁目北","koaza":"","lat":43.044241,"lng":141.42035,"zip":"0030000"},{"town":"本通九丁目南","koaza":"","lat":43.042412,"lng":141.41849,"zip":"0030000"},{"town":"米里","koaza":"","lat":43.079344,"lng":141.414557,"zip":"0030871"},{"town":"米里一条一丁目","koaza":"","lat":43.080726,"lng":141.418901,"zip":"0030871"},{"town":"米里一条二丁目","koaza":"","lat":43.077439,"lng":141.418084,"zip":"0030871"},{"town":"米里一条三丁目","koaza":"","lat":43.074054,"lng":141.418303,"zip":"0030871"},{"town":"米里一条四丁目","koaza":"","lat":43.071491,"lng":141.419157,"zip":"0030871"},{"town":"米里二条一丁目","koaza":"","lat":43.081671,"lng":141.42024,"zip":"0030872"},{"town":"米里二条二丁目","koaza":"","lat":43.078053,"lng":141.421674,"zip":"0030872"},{"town":"米里二条三丁目","koaza":"","lat":43.074551,"lng":141.423107,"zip":"0030872"},{"town":"米里二条四丁目","koaza":"","lat":43.072256,"lng":141.424262,"zip":"0030872"},{"town":"米里三条一丁目","koaza":"","lat":43.083006,"lng":141.422732,"zip":"0030873"},{"town":"米里三条二丁目","koaza":"","lat":43.080949,"lng":141.424848,"zip":"0030873"},{"town":"米里三条三丁目","koaza":"","lat":43.077628,"lng":141.426688,"zip":"0030873"},{"town":"米里四条一丁目","koaza":"","lat":43.084361,"lng":141.425774,"zip":"0030874"},{"town":"米里四条二丁目","koaza":"","lat":43.082297,"lng":141.428203,"zip":"0030874"},{"town":"米里四条三丁目","koaza":"","lat":43.079545,"lng":141.430558,"zip":"0030874"},{"town":"米里五条一丁目","koaza":"","lat":43.086035,"lng":141.430787,"zip":"0030875"},{"town":"米里五条二丁目","koaza":"","lat":43.082847,"lng":141.43136,"zip":"0030875"},{"town":"米里五条三丁目","koaza":"","lat":43.080541,"lng":141.431885,"zip":"0030875"},{"town":"流通センター一丁目","koaza":"","lat":43.037464,"lng":141.44104,"zip":"0030030"},{"town":"流通センター二丁目","koaza":"","lat":43.040798,"lng":141.443641,"zip":"0030030"},{"town":"流通センター三丁目","koaza":"","lat":43.043404,"lng":141.447337,"zip":"0030030"},{"town":"流通センター四丁目","koaza":"","lat":43.039406,"lng":141.44903,"zip":"0030030"},{"town":"流通センター五丁目","koaza":"","lat":43.033904,"lng":141.447104,"zip":"0030030"},{"town":"流通センター六丁目","koaza":"","lat":43.0347,"lng":141.453276,"zip":"0030030"},{"town":"流通センター七丁目","koaza":"","lat":43.038532,"lng":141.454706,"zip":"0030030"}]