[{"town":"青葉町十丁目","koaza":"","lat":43.022577,"lng":141.482606,"zip":"0040021"},{"town":"青葉町十一丁目","koaza":"","lat":43.036034,"lng":141.481283,"zip":"0040021"},{"town":"青葉町十二丁目","koaza":"","lat":43.032784,"lng":141.483586,"zip":"0040021"},{"town":"青葉町十三丁目","koaza":"","lat":43.030831,"lng":141.48149,"zip":"0040021"},{"town":"青葉町十四丁目","koaza":"","lat":43.029332,"lng":141.48458,"zip":"0040021"},{"town":"青葉町十五丁目","koaza":"","lat":43.025621,"lng":141.484848,"zip":"0040021"},{"town":"青葉町十六丁目","koaza":"","lat":43.021383,"lng":141.484375,"zip":"0040021"},{"town":"青葉町一丁目","koaza":"","lat":43.033189,"lng":141.471776,"zip":"0040021"},{"town":"青葉町二丁目","koaza":"","lat":43.03282,"lng":141.475241,"zip":"0040021"},{"town":"青葉町三丁目","koaza":"","lat":43.033602,"lng":141.476751,"zip":"0040021"},{"town":"青葉町四丁目","koaza":"","lat":43.033772,"lng":141.478636,"zip":"0040021"},{"town":"青葉町五丁目","koaza":"","lat":43.028978,"lng":141.473629,"zip":"0040021"},{"town":"青葉町六丁目","koaza":"","lat":43.029183,"lng":141.476396,"zip":"0040021"},{"town":"青葉町七丁目","koaza":"","lat":43.028661,"lng":141.479605,"zip":"0040021"},{"town":"青葉町八丁目","koaza":"","lat":43.026602,"lng":141.478474,"zip":"0040021"},{"town":"青葉町九丁目","koaza":"","lat":43.025411,"lng":141.4806,"zip":"0040021"},{"town":"厚別北一条一丁目","koaza":"","lat":43.05044,"lng":141.4744,"zip":"0040071"},{"town":"厚別北一条二丁目","koaza":"","lat":43.052016,"lng":141.47693,"zip":"0040071"},{"town":"厚別北一条三丁目","koaza":"","lat":43.053808,"lng":141.47847,"zip":"0040071"},{"town":"厚別北一条四丁目","koaza":"","lat":43.055455,"lng":141.480342,"zip":"0040071"},{"town":"厚別北二条一丁目","koaza":"","lat":43.053254,"lng":141.472591,"zip":"0040072"},{"town":"厚別北二条二丁目","koaza":"","lat":43.054471,"lng":141.474163,"zip":"0040072"},{"town":"厚別北二条三丁目","koaza":"","lat":43.055835,"lng":141.477184,"zip":"0040072"},{"town":"厚別北二条四丁目","koaza":"","lat":43.057193,"lng":141.479028,"zip":"0040072"},{"town":"厚別北二条五丁目","koaza":"","lat":43.057795,"lng":141.480471,"zip":"0040072"},{"town":"厚別北三条二丁目","koaza":"","lat":43.05539,"lng":141.471101,"zip":"0040073"},{"town":"厚別北三条三丁目","koaza":"","lat":43.057163,"lng":141.474833,"zip":"0040073"},{"town":"厚別北三条四丁目","koaza":"","lat":43.05957,"lng":141.477701,"zip":"0040073"},{"town":"厚別北三条五丁目","koaza":"","lat":43.061243,"lng":141.480083,"zip":"0040073"},{"town":"厚別北四条二丁目","koaza":"","lat":43.057101,"lng":141.469941,"zip":"0040074"},{"town":"厚別北四条三丁目","koaza":"","lat":43.058789,"lng":141.473345,"zip":"0040074"},{"town":"厚別北四条四丁目","koaza":"","lat":43.060355,"lng":141.475837,"zip":"0040074"},{"town":"厚別北四条五丁目","koaza":"","lat":43.063206,"lng":141.47709,"zip":"0040074"},{"town":"厚別北五条四丁目","koaza":"","lat":43.062528,"lng":141.473074,"zip":"0040075"},{"town":"厚別北五条五丁目","koaza":"","lat":43.064694,"lng":141.474704,"zip":"0040075"},{"town":"厚別北六条四丁目","koaza":"","lat":43.064429,"lng":141.471123,"zip":"0040076"},{"town":"厚別北六条五丁目","koaza":"","lat":43.066447,"lng":141.473381,"zip":"0040076"},{"town":"厚別中央一条一丁目","koaza":"","lat":43.030772,"lng":141.457855,"zip":"0040051"},{"town":"厚別中央一条二丁目","koaza":"","lat":43.032234,"lng":141.460811,"zip":"0040051"},{"town":"厚別中央一条三丁目","koaza":"","lat":43.033199,"lng":141.46433,"zip":"0040051"},{"town":"厚別中央一条四丁目","koaza":"","lat":43.03414,"lng":141.467462,"zip":"0040051"},{"town":"厚別中央一条五丁目","koaza":"","lat":43.036042,"lng":141.472948,"zip":"0040051"},{"town":"厚別中央一条六丁目","koaza":"","lat":43.038637,"lng":141.475533,"zip":"0040051"},{"town":"厚別中央一条七丁目","koaza":"","lat":43.039466,"lng":141.47938,"zip":"0040051"},{"town":"厚別中央二条一丁目","koaza":"","lat":43.031357,"lng":141.455489,"zip":"0040052"},{"town":"厚別中央二条二丁目","koaza":"","lat":43.03398,"lng":141.460712,"zip":"0040052"},{"town":"厚別中央二条三丁目","koaza":"","lat":43.035758,"lng":141.463792,"zip":"0040052"},{"town":"厚別中央二条四丁目","koaza":"","lat":43.037035,"lng":141.467663,"zip":"0040052"},{"town":"厚別中央二条五丁目","koaza":"","lat":43.038851,"lng":141.471799,"zip":"0040052"},{"town":"厚別中央二条六丁目","koaza":"","lat":43.041699,"lng":141.47561,"zip":"0040052"},{"town":"厚別中央三条一丁目","koaza":"","lat":43.032939,"lng":141.454854,"zip":"0040053"},{"town":"厚別中央三条二丁目","koaza":"","lat":43.035315,"lng":141.459546,"zip":"0040053"},{"town":"厚別中央三条三丁目","koaza":"","lat":43.03868,"lng":141.463555,"zip":"0040053"},{"town":"厚別中央三条四丁目","koaza":"","lat":43.040331,"lng":141.467167,"zip":"0040053"},{"town":"厚別中央三条五丁目","koaza":"","lat":43.041934,"lng":141.470932,"zip":"0040053"},{"town":"厚別中央三条六丁目","koaza":"","lat":43.043545,"lng":141.473622,"zip":"0040053"},{"town":"厚別中央四条二丁目","koaza":"","lat":43.039758,"lng":141.459689,"zip":"0040054"},{"town":"厚別中央四条三丁目","koaza":"","lat":43.042185,"lng":141.463373,"zip":"0040054"},{"town":"厚別中央四条四丁目","koaza":"","lat":43.043178,"lng":141.466542,"zip":"0040054"},{"town":"厚別中央四条五丁目","koaza":"","lat":43.044149,"lng":141.470074,"zip":"0040054"},{"town":"厚別中央四条六丁目","koaza":"","lat":43.045003,"lng":141.472677,"zip":"0040054"},{"town":"厚別中央五条一丁目","koaza":"","lat":43.04183,"lng":141.458033,"zip":"0040055"},{"town":"厚別中央五条二丁目","koaza":"","lat":43.042986,"lng":141.460767,"zip":"0040055"},{"town":"厚別中央五条三丁目","koaza":"","lat":43.04416,"lng":141.462775,"zip":"0040055"},{"town":"厚別中央五条四丁目","koaza":"","lat":43.045507,"lng":141.466659,"zip":"0040055"},{"town":"厚別中央五条五丁目","koaza":"","lat":43.046001,"lng":141.4699,"zip":"0040055"},{"town":"厚別中央五条六丁目","koaza":"","lat":43.046833,"lng":141.471782,"zip":"0040055"},{"town":"厚別町上野幌","koaza":"","lat":43.012954,"lng":141.481702,"zip":"0040039"},{"town":"厚別町小野幌","koaza":"","lat":43.052014,"lng":141.494755,"zip":"0040006"},{"town":"厚別町下野幌","koaza":"","lat":43.042776,"lng":141.499153,"zip":"0040007"},{"town":"厚別町山本","koaza":"","lat":43.074941,"lng":141.465519,"zip":"0040069"},{"town":"厚別西","koaza":"","lat":43.059598,"lng":141.449961,"zip":"0040068"},{"town":"厚別西一条一丁目","koaza":"","lat":43.044424,"lng":141.457161,"zip":"0040061"},{"town":"厚別西一条二丁目","koaza":"","lat":43.04502,"lng":141.460965,"zip":"0040061"},{"town":"厚別西一条三丁目","koaza":"","lat":43.046238,"lng":141.464366,"zip":"0040061"},{"town":"厚別西一条四丁目","koaza":"","lat":43.047514,"lng":141.467838,"zip":"0040061"},{"town":"厚別西一条五丁目","koaza":"","lat":43.049028,"lng":141.470749,"zip":"0040061"},{"town":"厚別西二条一丁目","koaza":"","lat":43.046218,"lng":141.456559,"zip":"0040062"},{"town":"厚別西二条二丁目","koaza":"","lat":43.046642,"lng":141.460587,"zip":"0040062"},{"town":"厚別西二条三丁目","koaza":"","lat":43.047772,"lng":141.462801,"zip":"0040062"},{"town":"厚別西二条四丁目","koaza":"","lat":43.048944,"lng":141.466758,"zip":"0040062"},{"town":"厚別西二条五丁目","koaza":"","lat":43.050232,"lng":141.470344,"zip":"0040062"},{"town":"厚別西二条六丁目","koaza":"","lat":43.051273,"lng":141.471674,"zip":"0040062"},{"town":"厚別西三条一丁目","koaza":"","lat":43.047942,"lng":141.456911,"zip":"0040063"},{"town":"厚別西三条二丁目","koaza":"","lat":43.048683,"lng":141.460312,"zip":"0040063"},{"town":"厚別西三条三丁目","koaza":"","lat":43.049519,"lng":141.462918,"zip":"0040063"},{"town":"厚別西三条四丁目","koaza":"","lat":43.050643,"lng":141.465644,"zip":"0040063"},{"town":"厚別西三条五丁目","koaza":"","lat":43.051704,"lng":141.468649,"zip":"0040063"},{"town":"厚別西三条六丁目","koaza":"","lat":43.05259,"lng":141.471539,"zip":"0040063"},{"town":"厚別西四条一丁目","koaza":"","lat":43.049754,"lng":141.453882,"zip":"0040064"},{"town":"厚別西四条二丁目","koaza":"","lat":43.050615,"lng":141.457492,"zip":"0040064"},{"town":"厚別西四条三丁目","koaza":"","lat":43.051241,"lng":141.461092,"zip":"0040064"},{"town":"厚別西四条四丁目","koaza":"","lat":43.052703,"lng":141.464271,"zip":"0040064"},{"town":"厚別西四条五丁目","koaza":"","lat":43.053619,"lng":141.466933,"zip":"0040064"},{"town":"厚別西四条六丁目","koaza":"","lat":43.054387,"lng":141.468508,"zip":"0040064"},{"town":"厚別西五条一丁目","koaza":"","lat":43.053168,"lng":141.452475,"zip":"0040065"},{"town":"厚別西五条二丁目","koaza":"","lat":43.053387,"lng":141.457573,"zip":"0040065"},{"town":"厚別西五条三丁目","koaza":"","lat":43.05408,"lng":141.460476,"zip":"0040065"},{"town":"厚別西五条四丁目","koaza":"","lat":43.055174,"lng":141.462367,"zip":"0040065"},{"town":"厚別西五条五丁目","koaza":"","lat":43.055303,"lng":141.465261,"zip":"0040065"},{"town":"厚別西五条六丁目","koaza":"","lat":43.056607,"lng":141.466716,"zip":"0040065"},{"town":"厚別東一条一丁目","koaza":"","lat":43.039757,"lng":141.482954,"zip":"0040001"},{"town":"厚別東一条二丁目","koaza":"","lat":43.040251,"lng":141.484242,"zip":"0040001"},{"town":"厚別東一条三丁目","koaza":"","lat":43.040559,"lng":141.486785,"zip":"0040001"},{"town":"厚別東一条四丁目","koaza":"","lat":43.040631,"lng":141.490287,"zip":"0040001"},{"town":"厚別東一条五丁目","koaza":"","lat":43.041089,"lng":141.493639,"zip":"0040001"},{"town":"厚別東一条六丁目","koaza":"","lat":43.041346,"lng":141.496619,"zip":"0040001"},{"town":"厚別東二条一丁目","koaza":"","lat":43.041601,"lng":141.48066,"zip":"0040002"},{"town":"厚別東二条二丁目","koaza":"","lat":43.042047,"lng":141.482062,"zip":"0040002"},{"town":"厚別東二条三丁目","koaza":"","lat":43.042964,"lng":141.483394,"zip":"0040002"},{"town":"厚別東二条四丁目","koaza":"","lat":43.043815,"lng":141.48642,"zip":"0040002"},{"town":"厚別東二条五丁目","koaza":"","lat":43.044591,"lng":141.489256,"zip":"0040002"},{"town":"厚別東二条六丁目","koaza":"","lat":43.04498,"lng":141.491317,"zip":"0040002"},{"town":"厚別東二条七丁目","koaza":"","lat":43.047844,"lng":141.491124,"zip":"0040002"},{"town":"厚別東三条一丁目","koaza":"","lat":43.042868,"lng":141.478523,"zip":"0040003"},{"town":"厚別東三条二丁目","koaza":"","lat":43.04377,"lng":141.480335,"zip":"0040003"},{"town":"厚別東三条三丁目","koaza":"","lat":43.045294,"lng":141.482153,"zip":"0040003"},{"town":"厚別東三条四丁目","koaza":"","lat":43.046279,"lng":141.484794,"zip":"0040003"},{"town":"厚別東三条五丁目","koaza":"","lat":43.046993,"lng":141.486794,"zip":"0040003"},{"town":"厚別東三条六丁目","koaza":"","lat":43.048182,"lng":141.488854,"zip":"0040003"},{"town":"厚別東三条七丁目","koaza":"","lat":43.050784,"lng":141.489748,"zip":"0040003"},{"town":"厚別東四条一丁目","koaza":"","lat":43.044222,"lng":141.477422,"zip":"0040004"},{"town":"厚別東四条二丁目","koaza":"","lat":43.045582,"lng":141.479368,"zip":"0040004"},{"town":"厚別東四条三丁目","koaza":"","lat":43.048121,"lng":141.481457,"zip":"0040004"},{"town":"厚別東四条四丁目","koaza":"","lat":43.049314,"lng":141.483539,"zip":"0040004"},{"town":"厚別東四条五丁目","koaza":"","lat":43.04943,"lng":141.485933,"zip":"0040004"},{"town":"厚別東四条六丁目","koaza":"","lat":43.050427,"lng":141.486768,"zip":"0040004"},{"town":"厚別東四条七丁目","koaza":"","lat":43.052702,"lng":141.488533,"zip":"0040004"},{"town":"厚別東四条八丁目","koaza":"","lat":43.056667,"lng":141.488455,"zip":"0040004"},{"town":"厚別東四条九丁目","koaza":"","lat":43.05846,"lng":141.486803,"zip":"0040004"},{"town":"厚別東五条一丁目","koaza":"","lat":43.046307,"lng":141.475405,"zip":"0040005"},{"town":"厚別東五条二丁目","koaza":"","lat":43.048105,"lng":141.476799,"zip":"0040005"},{"town":"厚別東五条三丁目","koaza":"","lat":43.049962,"lng":141.480002,"zip":"0040005"},{"town":"厚別東五条四丁目","koaza":"","lat":43.052056,"lng":141.482468,"zip":"0040005"},{"town":"厚別東五条七丁目","koaza":"","lat":43.053754,"lng":141.483373,"zip":"0040005"},{"town":"厚別東五条八丁目","koaza":"","lat":43.056805,"lng":141.483348,"zip":"0040005"},{"town":"厚別南一丁目","koaza":"","lat":43.029734,"lng":141.464539,"zip":"0040022"},{"town":"厚別南二丁目","koaza":"","lat":43.030811,"lng":141.469142,"zip":"0040022"},{"town":"厚別南三丁目","koaza":"","lat":43.027183,"lng":141.466745,"zip":"0040022"},{"town":"厚別南四丁目","koaza":"","lat":43.024989,"lng":141.46872,"zip":"0040022"},{"town":"厚別南五丁目","koaza":"","lat":43.024192,"lng":141.474564,"zip":"0040022"},{"town":"厚別南六丁目","koaza":"","lat":43.022232,"lng":141.476999,"zip":"0040022"},{"town":"厚別南七丁目","koaza":"","lat":43.021175,"lng":141.480414,"zip":"0040022"},{"town":"大谷地西一丁目","koaza":"","lat":43.025135,"lng":141.445594,"zip":"0040042"},{"town":"大谷地西二丁目","koaza":"","lat":43.024613,"lng":141.448589,"zip":"0040042"},{"town":"大谷地西三丁目","koaza":"","lat":43.021889,"lng":141.450222,"zip":"0040042"},{"town":"大谷地西四丁目","koaza":"","lat":43.021475,"lng":141.45224,"zip":"0040042"},{"town":"大谷地西五丁目","koaza":"","lat":43.021918,"lng":141.454383,"zip":"0040042"},{"town":"大谷地西六丁目","koaza":"","lat":43.021208,"lng":141.455571,"zip":"0040042"},{"town":"大谷地東一丁目","koaza":"","lat":43.03028,"lng":141.449883,"zip":"0040041"},{"town":"大谷地東二丁目","koaza":"","lat":43.028901,"lng":141.452623,"zip":"0040041"},{"town":"大谷地東三丁目","koaza":"","lat":43.025341,"lng":141.453233,"zip":"0040041"},{"town":"大谷地東四丁目","koaza":"","lat":43.028697,"lng":141.456997,"zip":"0040041"},{"town":"大谷地東五丁目","koaza":"","lat":43.024339,"lng":141.457992,"zip":"0040041"},{"town":"大谷地東六丁目","koaza":"","lat":43.02522,"lng":141.462229,"zip":"0040041"},{"town":"大谷地東七丁目","koaza":"","lat":43.028232,"lng":141.460643,"zip":"0040041"},{"town":"上野幌一条一丁目","koaza":"","lat":43.022721,"lng":141.465477,"zip":"0040031"},{"town":"上野幌一条二丁目","koaza":"","lat":43.021008,"lng":141.469917,"zip":"0040031"},{"town":"上野幌一条三丁目","koaza":"","lat":43.020098,"lng":141.472964,"zip":"0040031"},{"town":"上野幌一条四丁目","koaza":"","lat":43.018572,"lng":141.475198,"zip":"0040031"},{"town":"上野幌一条五丁目","koaza":"","lat":43.017845,"lng":141.477952,"zip":"0040031"},{"town":"上野幌一条六丁目","koaza":"","lat":43.017101,"lng":141.480298,"zip":"0040031"},{"town":"上野幌二条一丁目","koaza":"","lat":43.020072,"lng":141.466616,"zip":"0040032"},{"town":"上野幌二条二丁目","koaza":"","lat":43.017376,"lng":141.468723,"zip":"0040032"},{"town":"上野幌二条三丁目","koaza":"","lat":43.017052,"lng":141.472389,"zip":"0040032"},{"town":"上野幌二条四丁目","koaza":"","lat":43.014997,"lng":141.474078,"zip":"0040032"},{"town":"上野幌二条五丁目","koaza":"","lat":43.014837,"lng":141.477679,"zip":"0040032"},{"town":"上野幌二条六丁目","koaza":"","lat":43.014921,"lng":141.48083,"zip":"0040032"},{"town":"上野幌三条一丁目","koaza":"","lat":43.019827,"lng":141.462448,"zip":"0040033"},{"town":"上野幌三条二丁目","koaza":"","lat":43.014805,"lng":141.466756,"zip":"0040033"},{"town":"上野幌三条三丁目","koaza":"","lat":43.013416,"lng":141.471471,"zip":"0040033"},{"town":"上野幌三条四丁目","koaza":"","lat":43.011883,"lng":141.474272,"zip":"0040033"},{"town":"上野幌三条五丁目","koaza":"","lat":43.011308,"lng":141.477089,"zip":"0040033"},{"town":"上野幌三条六丁目","koaza":"","lat":43.009471,"lng":141.479276,"zip":"0040033"},{"town":"下野幌テクノパーク一丁目","koaza":"","lat":43.031839,"lng":141.501878,"zip":"0040015"},{"town":"下野幌テクノパーク二丁目","koaza":"","lat":43.03579,"lng":141.500885,"zip":"0040015"},{"town":"もみじ台北一丁目","koaza":"","lat":43.038235,"lng":141.487178,"zip":"0040014"},{"town":"もみじ台北二丁目","koaza":"","lat":43.038293,"lng":141.491506,"zip":"0040014"},{"town":"もみじ台北三丁目","koaza":"","lat":43.037438,"lng":141.495857,"zip":"0040014"},{"town":"もみじ台北四丁目","koaza":"","lat":43.03626,"lng":141.487507,"zip":"0040014"},{"town":"もみじ台北五丁目","koaza":"","lat":43.036529,"lng":141.491817,"zip":"0040014"},{"town":"もみじ台北六丁目","koaza":"","lat":43.034012,"lng":141.492176,"zip":"0040014"},{"town":"もみじ台北七丁目","koaza":"","lat":43.03107,"lng":141.492554,"zip":"0040014"},{"town":"もみじ台西一丁目","koaza":"","lat":43.037725,"lng":141.484292,"zip":"0040013"},{"town":"もみじ台西二丁目","koaza":"","lat":43.035449,"lng":141.485266,"zip":"0040013"},{"town":"もみじ台西三丁目","koaza":"","lat":43.032983,"lng":141.487158,"zip":"0040013"},{"town":"もみじ台西四丁目","koaza":"","lat":43.033757,"lng":141.489181,"zip":"0040013"},{"town":"もみじ台西五丁目","koaza":"","lat":43.03019,"lng":141.487992,"zip":"0040013"},{"town":"もみじ台西六丁目","koaza":"","lat":43.029668,"lng":141.490753,"zip":"0040013"},{"town":"もみじ台西七丁目","koaza":"","lat":43.026198,"lng":141.487776,"zip":"0040013"},{"town":"もみじ台東一丁目","koaza":"","lat":43.031951,"lng":141.494191,"zip":"0040011"},{"town":"もみじ台東二丁目","koaza":"","lat":43.033854,"lng":141.496601,"zip":"0040011"},{"town":"もみじ台東三丁目","koaza":"","lat":43.028672,"lng":141.495531,"zip":"0040011"},{"town":"もみじ台東四丁目","koaza":"","lat":43.030176,"lng":141.497783,"zip":"0040011"},{"town":"もみじ台東五丁目","koaza":"","lat":43.026992,"lng":141.498894,"zip":"0040011"},{"town":"もみじ台東六丁目","koaza":"","lat":43.028689,"lng":141.500714,"zip":"0040011"},{"town":"もみじ台東七丁目","koaza":"","lat":43.02669,"lng":141.502655,"zip":"0040011"},{"town":"もみじ台南一丁目","koaza":"","lat":43.025019,"lng":141.488985,"zip":"0040012"},{"town":"もみじ台南二丁目","koaza":"","lat":43.028081,"lng":141.493389,"zip":"0040012"},{"town":"もみじ台南三丁目","koaza":"","lat":43.024889,"lng":141.493127,"zip":"0040012"},{"town":"もみじ台南四丁目","koaza":"","lat":43.02621,"lng":141.497194,"zip":"0040012"},{"town":"もみじ台南五丁目","koaza":"","lat":43.024265,"lng":141.497187,"zip":"0040012"},{"town":"もみじ台南六丁目","koaza":"","lat":43.023384,"lng":141.500836,"zip":"0040012"},{"town":"もみじ台南七丁目","koaza":"","lat":43.023112,"lng":141.504047,"zip":"0040012"}]