[{"town":"丘珠町","koaza":"","lat":43.120789,"lng":141.394435,"zip":"0070880"},{"town":"雁来町","koaza":"","lat":43.069887,"lng":141.394781,"zip":"0650000"},{"town":"北十条東十丁目","koaza":"","lat":43.075621,"lng":141.369501,"zip":"0650010"},{"town":"北十条東十一丁目","koaza":"","lat":43.076228,"lng":141.370316,"zip":"0650010"},{"town":"北十条東十二丁目","koaza":"","lat":43.076181,"lng":141.372567,"zip":"0650010"},{"town":"北十条東十三丁目","koaza":"","lat":43.076386,"lng":141.374117,"zip":"0650010"},{"town":"北十条東十四丁目","koaza":"","lat":43.076441,"lng":141.375298,"zip":"0650010"},{"town":"北十条東十五丁目","koaza":"","lat":43.07676,"lng":141.376855,"zip":"0650010"},{"town":"北十条東十六丁目","koaza":"","lat":43.076927,"lng":141.378069,"zip":"0650010"},{"town":"北十条東十七丁目","koaza":"","lat":43.077097,"lng":141.379322,"zip":"0650010"},{"town":"北十条東一丁目","koaza":"","lat":43.073835,"lng":141.354784,"zip":"0650010"},{"town":"北十条東二丁目","koaza":"","lat":43.074065,"lng":141.35646,"zip":"0650010"},{"town":"北十条東三丁目","koaza":"","lat":43.074278,"lng":141.358025,"zip":"0650010"},{"town":"北十条東四丁目","koaza":"","lat":43.074497,"lng":141.359577,"zip":"0650010"},{"town":"北十条東五丁目","koaza":"","lat":43.074711,"lng":141.361132,"zip":"0650010"},{"town":"北十条東六丁目","koaza":"","lat":43.074916,"lng":141.362701,"zip":"0650010"},{"town":"北十条東七丁目","koaza":"","lat":43.074997,"lng":141.364077,"zip":"0650010"},{"town":"北十条東八丁目","koaza":"","lat":43.075502,"lng":141.36543,"zip":"0650010"},{"town":"北十条東九丁目","koaza":"","lat":43.075871,"lng":141.367531,"zip":"0650010"},{"town":"北十一条東十丁目","koaza":"","lat":43.076885,"lng":141.368389,"zip":"0650011"},{"town":"北十一条東十一丁目","koaza":"","lat":43.077281,"lng":141.370253,"zip":"0650011"},{"town":"北十一条東十二丁目","koaza":"","lat":43.077327,"lng":141.372243,"zip":"0650011"},{"town":"北十一条東十三丁目","koaza":"","lat":43.077681,"lng":141.373357,"zip":"0650011"},{"town":"北十一条東十四丁目","koaza":"","lat":43.077528,"lng":141.374857,"zip":"0650011"},{"town":"北十一条東十五丁目","koaza":"","lat":43.077887,"lng":141.376354,"zip":"0650011"},{"town":"北十一条東十六丁目","koaza":"","lat":43.078001,"lng":141.37786,"zip":"0650011"},{"town":"北十一条東十七丁目","koaza":"","lat":43.078104,"lng":141.379079,"zip":"0650011"},{"town":"北十一条東一丁目","koaza":"","lat":43.074999,"lng":141.354484,"zip":"0650011"},{"town":"北十一条東二丁目","koaza":"","lat":43.075216,"lng":141.356168,"zip":"0650011"},{"town":"北十一条東三丁目","koaza":"","lat":43.0754,"lng":141.357744,"zip":"0650011"},{"town":"北十一条東四丁目","koaza":"","lat":43.075643,"lng":141.359295,"zip":"0650011"},{"town":"北十一条東五丁目","koaza":"","lat":43.075851,"lng":141.360849,"zip":"0650011"},{"town":"北十一条東六丁目","koaza":"","lat":43.076059,"lng":141.362414,"zip":"0650011"},{"town":"北十一条東七丁目","koaza":"","lat":43.076195,"lng":141.363711,"zip":"0650011"},{"town":"北十一条東八丁目","koaza":"","lat":43.076474,"lng":141.364771,"zip":"0650011"},{"town":"北十一条東九丁目","koaza":"","lat":43.076626,"lng":141.366614,"zip":"0650011"},{"town":"北十二条東十丁目","koaza":"","lat":43.078064,"lng":141.368519,"zip":"0650012"},{"town":"北十二条東十一丁目","koaza":"","lat":43.078204,"lng":141.370018,"zip":"0650012"},{"town":"北十二条東十二丁目","koaza":"","lat":43.078369,"lng":141.371578,"zip":"0650012"},{"town":"北十二条東十三丁目","koaza":"","lat":43.078757,"lng":141.37286,"zip":"0650012"},{"town":"北十二条東十四丁目","koaza":"","lat":43.078524,"lng":141.374105,"zip":"0650012"},{"town":"北十二条東十五丁目","koaza":"","lat":43.078912,"lng":141.375944,"zip":"0650012"},{"town":"北十二条東十六丁目","koaza":"","lat":43.079033,"lng":141.377657,"zip":"0650012"},{"town":"北十二条東十七丁目","koaza":"","lat":43.078976,"lng":141.379322,"zip":"0650012"},{"town":"北十二条東一丁目","koaza":"","lat":43.076046,"lng":141.354087,"zip":"0650012"},{"town":"北十二条東二丁目","koaza":"","lat":43.07636,"lng":141.35588,"zip":"0650012"},{"town":"北十二条東三丁目","koaza":"","lat":43.076459,"lng":141.357479,"zip":"0650012"},{"town":"北十二条東四丁目","koaza":"","lat":43.076794,"lng":141.359007,"zip":"0650012"},{"town":"北十二条東五丁目","koaza":"","lat":43.076978,"lng":141.360565,"zip":"0650012"},{"town":"北十二条東六丁目","koaza":"","lat":43.077319,"lng":141.362085,"zip":"0650012"},{"town":"北十二条東七丁目","koaza":"","lat":43.077456,"lng":141.363559,"zip":"0650012"},{"town":"北十二条東八丁目","koaza":"","lat":43.077581,"lng":141.36497,"zip":"0650012"},{"town":"北十二条東九丁目","koaza":"","lat":43.077747,"lng":141.36692,"zip":"0650012"},{"town":"北十三条東十丁目","koaza":"","lat":43.079293,"lng":141.368876,"zip":"0650013"},{"town":"北十三条東十二丁目","koaza":"","lat":43.07945,"lng":141.370763,"zip":"0650013"},{"town":"北十三条東十三丁目","koaza":"","lat":43.0798,"lng":141.371857,"zip":"0650013"},{"town":"北十三条東十四丁目","koaza":"","lat":43.07994,"lng":141.373566,"zip":"0650013"},{"town":"北十三条東十五丁目","koaza":"","lat":43.080225,"lng":141.375311,"zip":"0650013"},{"town":"北十三条東十六丁目","koaza":"","lat":43.080434,"lng":141.377371,"zip":"0650013"},{"town":"北十三条東一丁目","koaza":"","lat":43.077283,"lng":141.353875,"zip":"0650013"},{"town":"北十三条東二丁目","koaza":"","lat":43.077504,"lng":141.355592,"zip":"0650013"},{"town":"北十三条東三丁目","koaza":"","lat":43.077719,"lng":141.357162,"zip":"0650013"},{"town":"北十三条東四丁目","koaza":"","lat":43.077815,"lng":141.358763,"zip":"0650013"},{"town":"北十三条東五丁目","koaza":"","lat":43.078125,"lng":141.360276,"zip":"0650013"},{"town":"北十三条東六丁目","koaza":"","lat":43.078334,"lng":141.361835,"zip":"0650013"},{"town":"北十三条東七丁目","koaza":"","lat":43.078605,"lng":141.363444,"zip":"0650013"},{"town":"北十三条東八丁目","koaza":"","lat":43.078965,"lng":141.364719,"zip":"0650013"},{"town":"北十三条東九丁目","koaza":"","lat":43.079292,"lng":141.366439,"zip":"0650013"},{"town":"北十四条東十丁目","koaza":"","lat":43.080239,"lng":141.368052,"zip":"0650014"},{"town":"北十四条東十二丁目","koaza":"","lat":43.080567,"lng":141.369555,"zip":"0650014"},{"town":"北十四条東十三丁目","koaza":"","lat":43.080858,"lng":141.370891,"zip":"0650014"},{"town":"北十四条東十四丁目","koaza":"","lat":43.081029,"lng":141.372599,"zip":"0650014"},{"town":"北十四条東十五丁目","koaza":"","lat":43.081365,"lng":141.374957,"zip":"0650014"},{"town":"北十四条東十六丁目","koaza":"","lat":43.081737,"lng":141.377784,"zip":"0650014"},{"town":"北十四条東一丁目","koaza":"","lat":43.078448,"lng":141.353299,"zip":"0650014"},{"town":"北十四条東二丁目","koaza":"","lat":43.07864,"lng":141.355305,"zip":"0650014"},{"town":"北十四条東三丁目","koaza":"","lat":43.078855,"lng":141.356875,"zip":"0650014"},{"town":"北十四条東四丁目","koaza":"","lat":43.079088,"lng":141.358592,"zip":"0650014"},{"town":"北十四条東五丁目","koaza":"","lat":43.079284,"lng":141.359987,"zip":"0650014"},{"town":"北十四条東六丁目","koaza":"","lat":43.07953,"lng":141.361264,"zip":"0650014"},{"town":"北十四条東七丁目","koaza":"","lat":43.079732,"lng":141.363164,"zip":"0650014"},{"town":"北十四条東八丁目","koaza":"","lat":43.079932,"lng":141.364754,"zip":"0650014"},{"town":"北十四条東九丁目","koaza":"","lat":43.0804,"lng":141.36581,"zip":"0650014"},{"town":"北十五条東十丁目","koaza":"","lat":43.081534,"lng":141.367543,"zip":"0650015"},{"town":"北十五条東十二丁目","koaza":"","lat":43.081486,"lng":141.369053,"zip":"0650015"},{"town":"北十五条東十三丁目","koaza":"","lat":43.081828,"lng":141.37047,"zip":"0650015"},{"town":"北十五条東十四丁目","koaza":"","lat":43.081993,"lng":141.372037,"zip":"0650015"},{"town":"北十五条東十五丁目","koaza":"","lat":43.082155,"lng":141.373551,"zip":"0650015"},{"town":"北十五条東十六丁目","koaza":"","lat":43.082508,"lng":141.375118,"zip":"0650015"},{"town":"北十五条東十七丁目","koaza":"","lat":43.082416,"lng":141.376345,"zip":"0650015"},{"town":"北十五条東十八丁目","koaza":"","lat":43.083057,"lng":141.378215,"zip":"0650015"},{"town":"北十五条東一丁目","koaza":"","lat":43.079527,"lng":141.353209,"zip":"0650015"},{"town":"北十五条東二丁目","koaza":"","lat":43.07981,"lng":141.355172,"zip":"0650015"},{"town":"北十五条東三丁目","koaza":"","lat":43.079998,"lng":141.356581,"zip":"0650015"},{"town":"北十五条東四丁目","koaza":"","lat":43.080214,"lng":141.358138,"zip":"0650015"},{"town":"北十五条東五丁目","koaza":"","lat":43.080422,"lng":141.359697,"zip":"0650015"},{"town":"北十五条東六丁目","koaza":"","lat":43.080635,"lng":141.361252,"zip":"0650015"},{"town":"北十五条東七丁目","koaza":"","lat":43.080857,"lng":141.362877,"zip":"0650015"},{"town":"北十五条東八丁目","koaza":"","lat":43.081073,"lng":141.364473,"zip":"0650015"},{"town":"北十五条東九丁目","koaza":"","lat":43.081121,"lng":141.366117,"zip":"0650015"},{"town":"北十六条東十丁目","koaza":"","lat":43.082645,"lng":141.367282,"zip":"0650016"},{"town":"北十六条東十二丁目","koaza":"","lat":43.082681,"lng":141.368676,"zip":"0650016"},{"town":"北十六条東十三丁目","koaza":"","lat":43.083004,"lng":141.37028,"zip":"0650016"},{"town":"北十六条東十四丁目","koaza":"","lat":43.083204,"lng":141.371805,"zip":"0650016"},{"town":"北十六条東十五丁目","koaza":"","lat":43.083448,"lng":141.373418,"zip":"0650016"},{"town":"北十六条東十六丁目","koaza":"","lat":43.083619,"lng":141.375162,"zip":"0650016"},{"town":"北十六条東十七丁目","koaza":"","lat":43.08357,"lng":141.376676,"zip":"0650016"},{"town":"北十六条東十八丁目","koaza":"","lat":43.08408,"lng":141.378577,"zip":"0650016"},{"town":"北十六条東十九丁目","koaza":"","lat":43.083442,"lng":141.38053,"zip":"0650016"},{"town":"北十六条東一丁目","koaza":"","lat":43.080652,"lng":141.352816,"zip":"0650016"},{"town":"北十六条東二丁目","koaza":"","lat":43.080934,"lng":141.354721,"zip":"0650016"},{"town":"北十六条東三丁目","koaza":"","lat":43.081147,"lng":141.356278,"zip":"0650016"},{"town":"北十六条東四丁目","koaza":"","lat":43.081359,"lng":141.357839,"zip":"0650016"},{"town":"北十六条東五丁目","koaza":"","lat":43.081568,"lng":141.359403,"zip":"0650016"},{"town":"北十六条東六丁目","koaza":"","lat":43.081782,"lng":141.36096,"zip":"0650016"},{"town":"北十六条東七丁目","koaza":"","lat":43.082002,"lng":141.362585,"zip":"0650016"},{"town":"北十六条東八丁目","koaza":"","lat":43.082183,"lng":141.363958,"zip":"0650016"},{"town":"北十六条東九丁目","koaza":"","lat":43.082159,"lng":141.365563,"zip":"0650016"},{"town":"北十七条東十丁目","koaza":"","lat":43.083786,"lng":141.367014,"zip":"0650017"},{"town":"北十七条東十二丁目","koaza":"","lat":43.083998,"lng":141.368547,"zip":"0650017"},{"town":"北十七条東十三丁目","koaza":"","lat":43.084121,"lng":141.37032,"zip":"0650017"},{"town":"北十七条東十四丁目","koaza":"","lat":43.084404,"lng":141.371528,"zip":"0650017"},{"town":"北十七条東十五丁目","koaza":"","lat":43.084615,"lng":141.37309,"zip":"0650017"},{"town":"北十七条東十六丁目","koaza":"","lat":43.084872,"lng":141.375006,"zip":"0650017"},{"town":"北十七条東十七丁目","koaza":"","lat":43.085035,"lng":141.376925,"zip":"0650017"},{"town":"北十七条東十八丁目","koaza":"","lat":43.085001,"lng":141.378896,"zip":"0650017"},{"town":"北十七条東十九丁目","koaza":"","lat":43.084512,"lng":141.38099,"zip":"0650017"},{"town":"北十七条東一丁目","koaza":"","lat":43.081798,"lng":141.352388,"zip":"0650017"},{"town":"北十七条東二十丁目","koaza":"","lat":43.083651,"lng":141.382885,"zip":"0650017"},{"town":"北十七条東二丁目","koaza":"","lat":43.08208,"lng":141.35443,"zip":"0650017"},{"town":"北十七条東三丁目","koaza":"","lat":43.082287,"lng":141.355985,"zip":"0650017"},{"town":"北十七条東四丁目","koaza":"","lat":43.082486,"lng":141.357391,"zip":"0650017"},{"town":"北十七条東五丁目","koaza":"","lat":43.082721,"lng":141.35911,"zip":"0650017"},{"town":"北十七条東六丁目","koaza":"","lat":43.082931,"lng":141.360673,"zip":"0650017"},{"town":"北十七条東七丁目","koaza":"","lat":43.083149,"lng":141.362303,"zip":"0650017"},{"town":"北十七条東八丁目","koaza":"","lat":43.083239,"lng":141.363914,"zip":"0650017"},{"town":"北十七条東九丁目","koaza":"","lat":43.083654,"lng":141.365196,"zip":"0650017"},{"town":"北十八条東十丁目","koaza":"","lat":43.084927,"lng":141.366729,"zip":"0650018"},{"town":"北十八条東十二丁目","koaza":"","lat":43.085113,"lng":141.368269,"zip":"0650018"},{"town":"北十八条東十三丁目","koaza":"","lat":43.085369,"lng":141.369899,"zip":"0650018"},{"town":"北十八条東十四丁目","koaza":"","lat":43.085611,"lng":141.371358,"zip":"0650018"},{"town":"北十八条東十五丁目","koaza":"","lat":43.085768,"lng":141.372787,"zip":"0650018"},{"town":"北十八条東十六丁目","koaza":"","lat":43.086092,"lng":141.374528,"zip":"0650018"},{"town":"北十八条東十七丁目","koaza":"","lat":43.086345,"lng":141.376513,"zip":"0650018"},{"town":"北十八条東十八丁目","koaza":"","lat":43.086437,"lng":141.377809,"zip":"0650018"},{"town":"北十八条東十九丁目","koaza":"","lat":43.086169,"lng":141.379318,"zip":"0650018"},{"town":"北十八条東一丁目","koaza":"","lat":43.083002,"lng":141.351894,"zip":"0650018"},{"town":"北十八条東二十丁目","koaza":"","lat":43.085528,"lng":141.381477,"zip":"0650018"},{"town":"北十八条東二十一丁目","koaza":"","lat":43.084736,"lng":141.383281,"zip":"0650018"},{"town":"北十八条東二丁目","koaza":"","lat":43.083227,"lng":141.354147,"zip":"0650018"},{"town":"北十八条東三丁目","koaza":"","lat":43.083438,"lng":141.355705,"zip":"0650018"},{"town":"北十八条東四丁目","koaza":"","lat":43.083654,"lng":141.357267,"zip":"0650018"},{"town":"北十八条東五丁目","koaza":"","lat":43.083866,"lng":141.358825,"zip":"0650018"},{"town":"北十八条東六丁目","koaza":"","lat":43.084421,"lng":141.360305,"zip":"0650018"},{"town":"北十八条東七丁目","koaza":"","lat":43.084294,"lng":141.362016,"zip":"0650018"},{"town":"北十八条東八丁目","koaza":"","lat":43.084485,"lng":141.363638,"zip":"0650018"},{"town":"北十八条東九丁目","koaza":"","lat":43.084717,"lng":141.365188,"zip":"0650018"},{"town":"北十九条東十丁目","koaza":"","lat":43.086283,"lng":141.366384,"zip":"0650019"},{"town":"北十九条東十二丁目","koaza":"","lat":43.086472,"lng":141.367921,"zip":"0650019"},{"town":"北十九条東十三丁目","koaza":"","lat":43.086752,"lng":141.369557,"zip":"0650019"},{"town":"北十九条東十四丁目","koaza":"","lat":43.087004,"lng":141.371322,"zip":"0650019"},{"town":"北十九条東十五丁目","koaza":"","lat":43.087209,"lng":141.372723,"zip":"0650019"},{"town":"北十九条東十六丁目","koaza":"","lat":43.087566,"lng":141.374318,"zip":"0650019"},{"town":"北十九条東十七丁目","koaza":"","lat":43.08796,"lng":141.376293,"zip":"0650019"},{"town":"北十九条東十八丁目","koaza":"","lat":43.087726,"lng":141.377872,"zip":"0650019"},{"town":"北十九条東十九丁目","koaza":"","lat":43.087379,"lng":141.379776,"zip":"0650019"},{"town":"北十九条東一丁目","koaza":"","lat":43.084443,"lng":141.35145,"zip":"0650019"},{"town":"北十九条東二十丁目","koaza":"","lat":43.087362,"lng":141.381505,"zip":"0650019"},{"town":"北十九条東二十一丁目","koaza":"","lat":43.086734,"lng":141.382463,"zip":"0650019"},{"town":"北十九条東二十二丁目","koaza":"","lat":43.086005,"lng":141.384514,"zip":"0650019"},{"town":"北十九条東二丁目","koaza":"","lat":43.084638,"lng":141.353802,"zip":"0650019"},{"town":"北十九条東三丁目","koaza":"","lat":43.084927,"lng":141.355339,"zip":"0650019"},{"town":"北十九条東四丁目","koaza":"","lat":43.085027,"lng":141.356926,"zip":"0650019"},{"town":"北十九条東五丁目","koaza":"","lat":43.085267,"lng":141.358476,"zip":"0650019"},{"town":"北十九条東六丁目","koaza":"","lat":43.085804,"lng":141.359964,"zip":"0650019"},{"town":"北十九条東七丁目","koaza":"","lat":43.085703,"lng":141.361664,"zip":"0650019"},{"town":"北十九条東八丁目","koaza":"","lat":43.085915,"lng":141.363278,"zip":"0650019"},{"town":"北十九条東九丁目","koaza":"","lat":43.086002,"lng":141.364864,"zip":"0650019"},{"town":"北二十条東十丁目","koaza":"","lat":43.08789,"lng":141.365974,"zip":"0650020"},{"town":"北二十条東十二丁目","koaza":"","lat":43.088097,"lng":141.367508,"zip":"0650020"},{"town":"北二十条東十三丁目","koaza":"","lat":43.088284,"lng":141.369046,"zip":"0650020"},{"town":"北二十条東十四丁目","koaza":"","lat":43.088525,"lng":141.370529,"zip":"0650020"},{"town":"北二十条東十五丁目","koaza":"","lat":43.088726,"lng":141.372072,"zip":"0650020"},{"town":"北二十条東十六丁目","koaza":"","lat":43.088994,"lng":141.373978,"zip":"0650020"},{"town":"北二十条東十七丁目","koaza":"","lat":43.089312,"lng":141.375819,"zip":"0650020"},{"town":"北二十条東十八丁目","koaza":"","lat":43.089389,"lng":141.378041,"zip":"0650020"},{"town":"北二十条東十九丁目","koaza":"","lat":43.088954,"lng":141.380356,"zip":"0650020"},{"town":"北二十条東一丁目","koaza":"","lat":43.08588,"lng":141.351057,"zip":"0650020"},{"town":"北二十条東二十丁目","koaza":"","lat":43.088691,"lng":141.382703,"zip":"0650020"},{"town":"北二十条東二十一丁目","koaza":"","lat":43.088026,"lng":141.384062,"zip":"0650020"},{"town":"北二十条東二十二丁目","koaza":"","lat":43.087353,"lng":141.385799,"zip":"0650020"},{"town":"北二十条東二丁目","koaza":"","lat":43.086232,"lng":141.353409,"zip":"0650020"},{"town":"北二十条東三丁目","koaza":"","lat":43.086443,"lng":141.354963,"zip":"0650020"},{"town":"北二十条東四丁目","koaza":"","lat":43.086637,"lng":141.356536,"zip":"0650020"},{"town":"北二十条東五丁目","koaza":"","lat":43.086847,"lng":141.358101,"zip":"0650020"},{"town":"北二十条東六丁目","koaza":"","lat":43.087058,"lng":141.359657,"zip":"0650020"},{"town":"北二十条東七丁目","koaza":"","lat":43.087266,"lng":141.361267,"zip":"0650020"},{"town":"北二十条東八丁目","koaza":"","lat":43.087472,"lng":141.362885,"zip":"0650020"},{"town":"北二十条東九丁目","koaza":"","lat":43.087682,"lng":141.364442,"zip":"0650020"},{"town":"北二十一条東十丁目","koaza":"","lat":43.089331,"lng":141.36561,"zip":"0650021"},{"town":"北二十一条東十二丁目","koaza":"","lat":43.08954,"lng":141.367151,"zip":"0650021"},{"town":"北二十一条東十三丁目","koaza":"","lat":43.08975,"lng":141.368684,"zip":"0650021"},{"town":"北二十一条東十四丁目","koaza":"","lat":43.089959,"lng":141.370203,"zip":"0650021"},{"town":"北二十一条東十五丁目","koaza":"","lat":43.090183,"lng":141.371741,"zip":"0650021"},{"town":"北二十一条東十六丁目","koaza":"","lat":43.090439,"lng":141.373631,"zip":"0650021"},{"town":"北二十一条東十七丁目","koaza":"","lat":43.090695,"lng":141.375479,"zip":"0650021"},{"town":"北二十一条東十八丁目","koaza":"","lat":43.091028,"lng":141.377594,"zip":"0650021"},{"town":"北二十一条東十九丁目","koaza":"","lat":43.090708,"lng":141.379261,"zip":"0650021"},{"town":"北二十一条東一丁目","koaza":"","lat":43.08733,"lng":141.35068,"zip":"0650021"},{"town":"北二十一条東二十丁目","koaza":"","lat":43.090612,"lng":141.380915,"zip":"0650021"},{"town":"北二十一条東二十一丁目","koaza":"","lat":43.09025,"lng":141.382938,"zip":"0650021"},{"town":"北二十一条東二十二丁目","koaza":"","lat":43.089612,"lng":141.385231,"zip":"0650021"},{"town":"北二十一条東二十三丁目","koaza":"","lat":43.088662,"lng":141.387519,"zip":"0650021"},{"town":"北二十一条東二丁目","koaza":"","lat":43.087646,"lng":141.353065,"zip":"0650021"},{"town":"北二十一条東三丁目","koaza":"","lat":43.087856,"lng":141.354617,"zip":"0650021"},{"town":"北二十一条東四丁目","koaza":"","lat":43.088065,"lng":141.356179,"zip":"0650021"},{"town":"北二十一条東五丁目","koaza":"","lat":43.088281,"lng":141.357751,"zip":"0650021"},{"town":"北二十一条東六丁目","koaza":"","lat":43.088502,"lng":141.359308,"zip":"0650021"},{"town":"北二十一条東七丁目","koaza":"","lat":43.088708,"lng":141.360912,"zip":"0650021"},{"town":"北二十一条東八丁目","koaza":"","lat":43.088918,"lng":141.362519,"zip":"0650021"},{"town":"北二十一条東九丁目","koaza":"","lat":43.089126,"lng":141.364073,"zip":"0650021"},{"town":"北二十二条東十丁目","koaza":"","lat":43.090768,"lng":141.365242,"zip":"0650022"},{"town":"北二十二条東十二丁目","koaza":"","lat":43.090982,"lng":141.36679,"zip":"0650022"},{"town":"北二十二条東十三丁目","koaza":"","lat":43.091194,"lng":141.368326,"zip":"0650022"},{"town":"北二十二条東十四丁目","koaza":"","lat":43.091403,"lng":141.369849,"zip":"0650022"},{"town":"北二十二条東十五丁目","koaza":"","lat":43.091649,"lng":141.371385,"zip":"0650022"},{"town":"北二十二条東十六丁目","koaza":"","lat":43.091876,"lng":141.373288,"zip":"0650022"},{"town":"北二十二条東十七丁目","koaza":"","lat":43.092132,"lng":141.37514,"zip":"0650022"},{"town":"北二十二条東十八丁目","koaza":"","lat":43.092399,"lng":141.377309,"zip":"0650022"},{"town":"北二十二条東十九丁目","koaza":"","lat":43.092332,"lng":141.379526,"zip":"0650022"},{"town":"北二十二条東一丁目","koaza":"","lat":43.088751,"lng":141.350312,"zip":"0650022"},{"town":"北二十二条東二十丁目","koaza":"","lat":43.092307,"lng":141.381105,"zip":"0650022"},{"town":"北二十二条東二十一丁目","koaza":"","lat":43.091967,"lng":141.38396,"zip":"0650022"},{"town":"北二十二条東二十二丁目","koaza":"","lat":43.091244,"lng":141.386745,"zip":"0650022"},{"town":"北二十二条東二十三丁目","koaza":"","lat":43.09054,"lng":141.388412,"zip":"0650022"},{"town":"北二十二条東二丁目","koaza":"","lat":43.089077,"lng":141.352721,"zip":"0650022"},{"town":"北二十二条東三丁目","koaza":"","lat":43.089286,"lng":141.354272,"zip":"0650022"},{"town":"北二十二条東四丁目","koaza":"","lat":43.089489,"lng":141.355824,"zip":"0650022"},{"town":"北二十二条東五丁目","koaza":"","lat":43.089704,"lng":141.357395,"zip":"0650022"},{"town":"北二十二条東六丁目","koaza":"","lat":43.089922,"lng":141.358963,"zip":"0650022"},{"town":"北二十二条東七丁目","koaza":"","lat":43.090133,"lng":141.360562,"zip":"0650022"},{"town":"北二十二条東八丁目","koaza":"","lat":43.09035,"lng":141.362159,"zip":"0650022"},{"town":"北二十二条東九丁目","koaza":"","lat":43.090559,"lng":141.363705,"zip":"0650022"},{"town":"北二十三条東十丁目","koaza":"","lat":43.092303,"lng":141.364855,"zip":"0650023"},{"town":"北二十三条東十二丁目","koaza":"","lat":43.092515,"lng":141.366398,"zip":"0650023"},{"town":"北二十三条東十三丁目","koaza":"","lat":43.092727,"lng":141.36794,"zip":"0650023"},{"town":"北二十三条東十四丁目","koaza":"","lat":43.092939,"lng":141.369476,"zip":"0650023"},{"town":"北二十三条東十五丁目","koaza":"","lat":43.093158,"lng":141.371125,"zip":"0650023"},{"town":"北二十三条東十六丁目","koaza":"","lat":43.093544,"lng":141.372825,"zip":"0650023"},{"town":"北二十三条東十七丁目","koaza":"","lat":43.093562,"lng":141.374795,"zip":"0650023"},{"town":"北二十三条東十八丁目","koaza":"","lat":43.093862,"lng":141.377187,"zip":"0650023"},{"town":"北二十三条東十九丁目","koaza":"","lat":43.093881,"lng":141.379748,"zip":"0650023"},{"town":"北二十三条東一丁目","koaza":"","lat":43.090276,"lng":141.349917,"zip":"0650023"},{"town":"北二十三条東二十丁目","koaza":"","lat":43.09363,"lng":141.381796,"zip":"0650023"},{"town":"北二十三条東二十一丁目","koaza":"","lat":43.09365,"lng":141.384168,"zip":"0650023"},{"town":"北二十三条東二十二丁目","koaza":"","lat":43.092989,"lng":141.385999,"zip":"0650023"},{"town":"北二十三条東二十三丁目","koaza":"","lat":43.09284,"lng":141.388043,"zip":"0650023"},{"town":"北二十三条東二丁目","koaza":"","lat":43.090605,"lng":141.352343,"zip":"0650023"},{"town":"北二十三条東三丁目","koaza":"","lat":43.090812,"lng":141.353898,"zip":"0650023"},{"town":"北二十三条東四丁目","koaza":"","lat":43.091021,"lng":141.35545,"zip":"0650023"},{"town":"北二十三条東五丁目","koaza":"","lat":43.091235,"lng":141.357009,"zip":"0650023"},{"town":"北二十三条東六丁目","koaza":"","lat":43.09145,"lng":141.358581,"zip":"0650023"},{"town":"北二十三条東七丁目","koaza":"","lat":43.091667,"lng":141.360181,"zip":"0650023"},{"town":"北二十三条東八丁目","koaza":"","lat":43.091883,"lng":141.361773,"zip":"0650023"},{"town":"北二十三条東九丁目","koaza":"","lat":43.09209,"lng":141.36332,"zip":"0650023"},{"town":"北二十四条東十丁目","koaza":"","lat":43.093681,"lng":141.364506,"zip":"0650024"},{"town":"北二十四条東十二丁目","koaza":"","lat":43.093888,"lng":141.366047,"zip":"0650024"},{"town":"北二十四条東十三丁目","koaza":"","lat":43.094101,"lng":141.367599,"zip":"0650024"},{"town":"北二十四条東十四丁目","koaza":"","lat":43.094314,"lng":141.369149,"zip":"0650024"},{"town":"北二十四条東十五丁目","koaza":"","lat":43.094501,"lng":141.370719,"zip":"0650024"},{"town":"北二十四条東十六丁目","koaza":"","lat":43.094649,"lng":141.37264,"zip":"0650024"},{"town":"北二十四条東十七丁目","koaza":"","lat":43.094769,"lng":141.374544,"zip":"0650024"},{"town":"北二十四条東十八丁目","koaza":"","lat":43.095167,"lng":141.376847,"zip":"0650024"},{"town":"北二十四条東十九丁目","koaza":"","lat":43.095262,"lng":141.379887,"zip":"0650024"},{"town":"北二十四条東一丁目","koaza":"","lat":43.091678,"lng":141.349556,"zip":"0650024"},{"town":"北二十四条東二十丁目","koaza":"","lat":43.095115,"lng":141.382404,"zip":"0650024"},{"town":"北二十四条東二十一丁目","koaza":"","lat":43.094841,"lng":141.384816,"zip":"0650024"},{"town":"北二十四条東二十二丁目","koaza":"","lat":43.094427,"lng":141.387213,"zip":"0650024"},{"town":"北二十四条東二丁目","koaza":"","lat":43.091986,"lng":141.352004,"zip":"0650024"},{"town":"北二十四条東三丁目","koaza":"","lat":43.092192,"lng":141.353558,"zip":"0650024"},{"town":"北二十四条東四丁目","koaza":"","lat":43.092346,"lng":141.35463,"zip":"0650024"},{"town":"北二十四条東五丁目","koaza":"","lat":43.092624,"lng":141.356914,"zip":"0650024"},{"town":"北二十四条東六丁目","koaza":"","lat":43.092836,"lng":141.358236,"zip":"0650024"},{"town":"北二十四条東七丁目","koaza":"","lat":43.093053,"lng":141.359837,"zip":"0650024"},{"town":"北二十四条東八丁目","koaza":"","lat":43.093265,"lng":141.361425,"zip":"0650024"},{"town":"北二十四条東九丁目","koaza":"","lat":43.093472,"lng":141.362968,"zip":"0650024"},{"town":"北二十五条東十丁目","koaza":"","lat":43.094832,"lng":141.364217,"zip":"0650025"},{"town":"北二十五条東十二丁目","koaza":"","lat":43.095036,"lng":141.365752,"zip":"0650025"},{"town":"北二十五条東十三丁目","koaza":"","lat":43.095247,"lng":141.367311,"zip":"0650025"},{"town":"北二十五条東十四丁目","koaza":"","lat":43.095456,"lng":141.368867,"zip":"0650025"},{"town":"北二十五条東十五丁目","koaza":"","lat":43.095582,"lng":141.370738,"zip":"0650025"},{"town":"北二十五条東十六丁目","koaza":"","lat":43.095838,"lng":141.372377,"zip":"0650025"},{"town":"北二十五条東十七丁目","koaza":"","lat":43.096049,"lng":141.374196,"zip":"0650025"},{"town":"北二十五条東十八丁目","koaza":"","lat":43.096441,"lng":141.376569,"zip":"0650025"},{"town":"北二十五条東十九丁目","koaza":"","lat":43.096428,"lng":141.379749,"zip":"0650025"},{"town":"北二十五条東一丁目","koaza":"","lat":43.09271,"lng":141.349297,"zip":"0650025"},{"town":"北二十五条東二十丁目","koaza":"","lat":43.09676,"lng":141.382633,"zip":"0650025"},{"town":"北二十五条東二十一丁目","koaza":"","lat":43.096397,"lng":141.384984,"zip":"0650025"},{"town":"北二十五条東二十二丁目","koaza":"","lat":43.096246,"lng":141.386934,"zip":"0650025"},{"town":"北二十五条東二丁目","koaza":"","lat":43.093163,"lng":141.351715,"zip":"0650025"},{"town":"北二十五条東三丁目","koaza":"","lat":43.093367,"lng":141.353269,"zip":"0650025"},{"town":"北二十五条東四丁目","koaza":"","lat":43.093282,"lng":141.355141,"zip":"0650025"},{"town":"北二十五条東五丁目","koaza":"","lat":43.093814,"lng":141.356381,"zip":"0650025"},{"town":"北二十五条東六丁目","koaza":"","lat":43.093998,"lng":141.357952,"zip":"0650025"},{"town":"北二十五条東七丁目","koaza":"","lat":43.094213,"lng":141.359546,"zip":"0650025"},{"town":"北二十五条東八丁目","koaza":"","lat":43.094424,"lng":141.361132,"zip":"0650025"},{"town":"北二十五条東九丁目","koaza":"","lat":43.094629,"lng":141.362677,"zip":"0650025"},{"town":"北二十六条東十丁目","koaza":"","lat":43.095964,"lng":141.363938,"zip":"0650026"},{"town":"北二十六条東十二丁目","koaza":"","lat":43.096168,"lng":141.365471,"zip":"0650026"},{"town":"北二十六条東十三丁目","koaza":"","lat":43.096374,"lng":141.367028,"zip":"0650026"},{"town":"北二十六条東十四丁目","koaza":"","lat":43.096582,"lng":141.368585,"zip":"0650026"},{"town":"北二十六条東十五丁目","koaza":"","lat":43.096776,"lng":141.370182,"zip":"0650026"},{"town":"北二十六条東十六丁目","koaza":"","lat":43.097074,"lng":141.372099,"zip":"0650026"},{"town":"北二十六条東十七丁目","koaza":"","lat":43.097321,"lng":141.37392,"zip":"0650026"},{"town":"北二十六条東十八丁目","koaza":"","lat":43.097735,"lng":141.376541,"zip":"0650026"},{"town":"北二十六条東十九丁目","koaza":"","lat":43.097462,"lng":141.379539,"zip":"0650026"},{"town":"北二十六条東一丁目","koaza":"","lat":43.094038,"lng":141.348959,"zip":"0650026"},{"town":"北二十六条東二十丁目","koaza":"","lat":43.098137,"lng":141.382,"zip":"0650026"},{"town":"北二十六条東二十一丁目","koaza":"","lat":43.098015,"lng":141.384311,"zip":"0650026"},{"town":"北二十六条東二十二丁目","koaza":"","lat":43.097784,"lng":141.386808,"zip":"0650026"},{"town":"北二十六条東二丁目","koaza":"","lat":43.094341,"lng":141.351429,"zip":"0650026"},{"town":"北二十六条東三丁目","koaza":"","lat":43.09455,"lng":141.352984,"zip":"0650026"},{"town":"北二十六条東四丁目","koaza":"","lat":43.094757,"lng":141.354535,"zip":"0650026"},{"town":"北二十六条東五丁目","koaza":"","lat":43.094958,"lng":141.356099,"zip":"0650026"},{"town":"北二十六条東六丁目","koaza":"","lat":43.095164,"lng":141.357668,"zip":"0650026"},{"town":"北二十六条東七丁目","koaza":"","lat":43.095369,"lng":141.359254,"zip":"0650026"},{"town":"北二十六条東八丁目","koaza":"","lat":43.095567,"lng":141.360844,"zip":"0650026"},{"town":"北二十六条東九丁目","koaza":"","lat":43.095763,"lng":141.3624,"zip":"0650026"},{"town":"北二十七条東十丁目","koaza":"","lat":43.097128,"lng":141.363647,"zip":"0650027"},{"town":"北二十七条東十二丁目","koaza":"","lat":43.097332,"lng":141.365186,"zip":"0650027"},{"town":"北二十七条東十三丁目","koaza":"","lat":43.097534,"lng":141.366741,"zip":"0650027"},{"town":"北二十七条東十四丁目","koaza":"","lat":43.097731,"lng":141.368304,"zip":"0650027"},{"town":"北二十七条東十五丁目","koaza":"","lat":43.097959,"lng":141.369893,"zip":"0650027"},{"town":"北二十七条東十六丁目","koaza":"","lat":43.098127,"lng":141.371882,"zip":"0650027"},{"town":"北二十七条東十七丁目","koaza":"","lat":43.098553,"lng":141.373793,"zip":"0650027"},{"town":"北二十七条東十八丁目","koaza":"","lat":43.098676,"lng":141.37605,"zip":"0650027"},{"town":"北二十七条東十九丁目","koaza":"","lat":43.098835,"lng":141.379188,"zip":"0650027"},{"town":"北二十七条東一丁目","koaza":"","lat":43.095081,"lng":141.348697,"zip":"0650027"},{"town":"北二十七条東二十丁目","koaza":"","lat":43.099142,"lng":141.381706,"zip":"0650027"},{"town":"北二十七条東二十一丁目","koaza":"","lat":43.099555,"lng":141.383801,"zip":"0650027"},{"town":"北二十七条東二十二丁目","koaza":"","lat":43.099513,"lng":141.38647,"zip":"0650027"},{"town":"北二十七条東二丁目","koaza":"","lat":43.095492,"lng":141.351149,"zip":"0650027"},{"town":"北二十七条東三丁目","koaza":"","lat":43.095701,"lng":141.352703,"zip":"0650027"},{"town":"北二十七条東四丁目","koaza":"","lat":43.095902,"lng":141.354256,"zip":"0650027"},{"town":"北二十七条東五丁目","koaza":"","lat":43.096103,"lng":141.355817,"zip":"0650027"},{"town":"北二十七条東六丁目","koaza":"","lat":43.096312,"lng":141.35739,"zip":"0650027"},{"town":"北二十七条東七丁目","koaza":"","lat":43.096518,"lng":141.358974,"zip":"0650027"},{"town":"北二十七条東八丁目","koaza":"","lat":43.096722,"lng":141.360553,"zip":"0650027"},{"town":"北二十七条東九丁目","koaza":"","lat":43.096924,"lng":141.362107,"zip":"0650027"},{"town":"北二十八条東十丁目","koaza":"","lat":43.098271,"lng":141.363365,"zip":"0650028"},{"town":"北二十八条東十二丁目","koaza":"","lat":43.098467,"lng":141.364902,"zip":"0650028"},{"town":"北二十八条東十三丁目","koaza":"","lat":43.098665,"lng":141.366459,"zip":"0650028"},{"town":"北二十八条東十四丁目","koaza":"","lat":43.098856,"lng":141.368026,"zip":"0650028"},{"town":"北二十八条東十五丁目","koaza":"","lat":43.099106,"lng":141.369612,"zip":"0650028"},{"town":"北二十八条東十六丁目","koaza":"","lat":43.099294,"lng":141.371286,"zip":"0650028"},{"town":"北二十八条東十七丁目","koaza":"","lat":43.099494,"lng":141.373035,"zip":"0650028"},{"town":"北二十八条東十八丁目","koaza":"","lat":43.09976,"lng":141.375665,"zip":"0650028"},{"town":"北二十八条東十九丁目","koaza":"","lat":43.100099,"lng":141.378492,"zip":"0650028"},{"town":"北二十八条東一丁目","koaza":"","lat":43.096193,"lng":141.348419,"zip":"0650028"},{"town":"北二十八条東二十丁目","koaza":"","lat":43.10039,"lng":141.381088,"zip":"0650028"},{"town":"北二十八条東二十一丁目","koaza":"","lat":43.100727,"lng":141.383673,"zip":"0650028"},{"town":"北二十八条東二丁目","koaza":"","lat":43.096602,"lng":141.35087,"zip":"0650028"},{"town":"北二十八条東三丁目","koaza":"","lat":43.096821,"lng":141.352422,"zip":"0650028"},{"town":"北二十八条東四丁目","koaza":"","lat":43.097159,"lng":141.354067,"zip":"0650028"},{"town":"北二十八条東五丁目","koaza":"","lat":43.097232,"lng":141.355547,"zip":"0650028"},{"town":"北二十八条東六丁目","koaza":"","lat":43.097439,"lng":141.357122,"zip":"0650028"},{"town":"北二十八条東七丁目","koaza":"","lat":43.097651,"lng":141.358699,"zip":"0650028"},{"town":"北二十八条東八丁目","koaza":"","lat":43.097868,"lng":141.360265,"zip":"0650028"},{"town":"北二十八条東九丁目","koaza":"","lat":43.098076,"lng":141.361819,"zip":"0650028"},{"town":"北三十条東十丁目","koaza":"","lat":43.099338,"lng":141.363099,"zip":"0650030"},{"town":"北三十条東十二丁目","koaza":"","lat":43.099532,"lng":141.364656,"zip":"0650030"},{"town":"北三十条東十三丁目","koaza":"","lat":43.099722,"lng":141.366223,"zip":"0650030"},{"town":"北三十条東十四丁目","koaza":"","lat":43.09991,"lng":141.36777,"zip":"0650030"},{"town":"北三十条東十五丁目","koaza":"","lat":43.100031,"lng":141.369535,"zip":"0650030"},{"town":"北三十条東十六丁目","koaza":"","lat":43.100316,"lng":141.371049,"zip":"0650030"},{"town":"北三十条東十七丁目","koaza":"","lat":43.100598,"lng":141.372756,"zip":"0650030"},{"town":"北三十条東十八丁目","koaza":"","lat":43.100915,"lng":141.375373,"zip":"0650030"},{"town":"北三十条東十九丁目","koaza":"","lat":43.101455,"lng":141.377899,"zip":"0650030"},{"town":"北三十条東一丁目","koaza":"","lat":43.097463,"lng":141.348092,"zip":"0650030"},{"town":"北三十条東二十丁目","koaza":"","lat":43.101903,"lng":141.380508,"zip":"0650030"},{"town":"北三十条東二丁目","koaza":"","lat":43.09771,"lng":141.350598,"zip":"0650030"},{"town":"北三十条東三丁目","koaza":"","lat":43.097931,"lng":141.352147,"zip":"0650030"},{"town":"北三十条東四丁目","koaza":"","lat":43.098135,"lng":141.353597,"zip":"0650030"},{"town":"北三十条東五丁目","koaza":"","lat":43.098209,"lng":141.355061,"zip":"0650030"},{"town":"北三十条東六丁目","koaza":"","lat":43.098564,"lng":141.356856,"zip":"0650030"},{"town":"北三十条東七丁目","koaza":"","lat":43.09877,"lng":141.358422,"zip":"0650030"},{"town":"北三十条東八丁目","koaza":"","lat":43.098966,"lng":141.359993,"zip":"0650030"},{"town":"北三十条東九丁目","koaza":"","lat":43.099278,"lng":141.361667,"zip":"0650030"},{"town":"北三十一条東十丁目","koaza":"","lat":43.100237,"lng":141.362702,"zip":"0650031"},{"town":"北三十一条東十二丁目","koaza":"","lat":43.100554,"lng":141.364426,"zip":"0650031"},{"town":"北三十一条東十三丁目","koaza":"","lat":43.100748,"lng":141.366013,"zip":"0650031"},{"town":"北三十一条東十四丁目","koaza":"","lat":43.10114,"lng":141.3675,"zip":"0650031"},{"town":"北三十一条東十五丁目","koaza":"","lat":43.101116,"lng":141.369119,"zip":"0650031"},{"town":"北三十一条東十六丁目","koaza":"","lat":43.101456,"lng":141.370783,"zip":"0650031"},{"town":"北三十一条東十七丁目","koaza":"","lat":43.101807,"lng":141.372637,"zip":"0650031"},{"town":"北三十一条東十八丁目","koaza":"","lat":43.101909,"lng":141.375103,"zip":"0650031"},{"town":"北三十一条東十九丁目","koaza":"","lat":43.102908,"lng":141.377887,"zip":"0650031"},{"town":"北三十一条東一丁目","koaza":"","lat":43.098687,"lng":141.347784,"zip":"0650031"},{"town":"北三十一条東二丁目","koaza":"","lat":43.098857,"lng":141.350324,"zip":"0650031"},{"town":"北三十一条東三丁目","koaza":"","lat":43.099068,"lng":141.351866,"zip":"0650031"},{"town":"北三十一条東四丁目","koaza":"","lat":43.099263,"lng":141.353316,"zip":"0650031"},{"town":"北三十一条東五丁目","koaza":"","lat":43.09947,"lng":141.354898,"zip":"0650031"},{"town":"北三十一条東六丁目","koaza":"","lat":43.099698,"lng":141.356581,"zip":"0650031"},{"town":"北三十一条東七丁目","koaza":"","lat":43.099997,"lng":141.358325,"zip":"0650031"},{"town":"北三十一条東八丁目","koaza":"","lat":43.099978,"lng":141.359786,"zip":"0650031"},{"town":"北三十一条東九丁目","koaza":"","lat":43.100161,"lng":141.361299,"zip":"0650031"},{"town":"北三十二条東十丁目","koaza":"","lat":43.101459,"lng":141.362584,"zip":"0650032"},{"town":"北三十二条東十二丁目","koaza":"","lat":43.101619,"lng":141.364281,"zip":"0650032"},{"town":"北三十二条東十三丁目","koaza":"","lat":43.101725,"lng":141.365793,"zip":"0650032"},{"town":"北三十二条東十四丁目","koaza":"","lat":43.101955,"lng":141.367304,"zip":"0650032"},{"town":"北三十二条東十五丁目","koaza":"","lat":43.102079,"lng":141.368883,"zip":"0650032"},{"town":"北三十二条東十六丁目","koaza":"","lat":43.10249,"lng":141.37053,"zip":"0650032"},{"town":"北三十二条東十七丁目","koaza":"","lat":43.102726,"lng":141.372234,"zip":"0650032"},{"town":"北三十二条東十八丁目","koaza":"","lat":43.103014,"lng":141.374881,"zip":"0650032"},{"town":"北三十二条東一丁目","koaza":"","lat":43.099812,"lng":141.347495,"zip":"0650032"},{"town":"北三十二条東二丁目","koaza":"","lat":43.099964,"lng":141.350058,"zip":"0650032"},{"town":"北三十二条東三丁目","koaza":"","lat":43.100211,"lng":141.351587,"zip":"0650032"},{"town":"北三十二条東四丁目","koaza":"","lat":43.100415,"lng":141.353034,"zip":"0650032"},{"town":"北三十二条東五丁目","koaza":"","lat":43.100621,"lng":141.354617,"zip":"0650032"},{"town":"北三十二条東六丁目","koaza":"","lat":43.100842,"lng":141.356297,"zip":"0650032"},{"town":"北三十二条東七丁目","koaza":"","lat":43.101109,"lng":141.358066,"zip":"0650032"},{"town":"北三十二条東八丁目","koaza":"","lat":43.100953,"lng":141.359545,"zip":"0650032"},{"town":"北三十二条東九丁目","koaza":"","lat":43.101108,"lng":141.361109,"zip":"0650032"},{"town":"北三十三条東十丁目","koaza":"","lat":43.102591,"lng":141.36231,"zip":"0650033"},{"town":"北三十三条東十二丁目","koaza":"","lat":43.102602,"lng":141.363626,"zip":"0650033"},{"town":"北三十三条東十三丁目","koaza":"","lat":43.102932,"lng":141.365147,"zip":"0650033"},{"town":"北三十三条東十四丁目","koaza":"","lat":43.103175,"lng":141.366837,"zip":"0650033"},{"town":"北三十三条東十五丁目","koaza":"","lat":43.103428,"lng":141.368605,"zip":"0650033"},{"town":"北三十三条東十六丁目","koaza":"","lat":43.10382,"lng":141.370274,"zip":"0650033"},{"town":"北三十三条東十七丁目","koaza":"","lat":43.103685,"lng":141.372001,"zip":"0650033"},{"town":"北三十三条東十八丁目","koaza":"","lat":43.103811,"lng":141.374634,"zip":"0650033"},{"town":"北三十三条東一丁目","koaza":"","lat":43.100884,"lng":141.347241,"zip":"0650033"},{"town":"北三十三条東二丁目","koaza":"","lat":43.101133,"lng":141.349877,"zip":"0650033"},{"town":"北三十三条東三丁目","koaza":"","lat":43.10132,"lng":141.351301,"zip":"0650033"},{"town":"北三十三条東四丁目","koaza":"","lat":43.101517,"lng":141.352681,"zip":"0650033"},{"town":"北三十三条東五丁目","koaza":"","lat":43.101783,"lng":141.354331,"zip":"0650033"},{"town":"北三十三条東六丁目","koaza":"","lat":43.101982,"lng":141.35601,"zip":"0650033"},{"town":"北三十三条東七丁目","koaza":"","lat":43.102201,"lng":141.35762,"zip":"0650033"},{"town":"北三十三条東八丁目","koaza":"","lat":43.102091,"lng":141.359043,"zip":"0650033"},{"town":"北三十三条東九丁目","koaza":"","lat":43.102113,"lng":141.360801,"zip":"0650033"},{"town":"北三十四条東十丁目","koaza":"","lat":43.104119,"lng":141.362095,"zip":"0070834"},{"town":"北三十四条東十二丁目","koaza":"","lat":43.104101,"lng":141.363406,"zip":"0070834"},{"town":"北三十四条東十三丁目","koaza":"","lat":43.10428,"lng":141.364724,"zip":"0070834"},{"town":"北三十四条東十四丁目","koaza":"","lat":43.104528,"lng":141.366464,"zip":"0070834"},{"town":"北三十四条東十五丁目","koaza":"","lat":43.104694,"lng":141.368336,"zip":"0070834"},{"town":"北三十四条東十六丁目","koaza":"","lat":43.10511,"lng":141.369911,"zip":"0070834"},{"town":"北三十四条東十七丁目","koaza":"","lat":43.105006,"lng":141.371681,"zip":"0070834"},{"town":"北三十四条東十八丁目","koaza":"","lat":43.105115,"lng":141.373311,"zip":"0070834"},{"town":"北三十四条東十九丁目","koaza":"","lat":43.105041,"lng":141.375121,"zip":"0070834"},{"town":"北三十四条東一丁目","koaza":"","lat":43.102074,"lng":141.346951,"zip":"0070834"},{"town":"北三十四条東二十丁目","koaza":"","lat":43.1047,"lng":141.377186,"zip":"0070834"},{"town":"北三十四条東二十一丁目","koaza":"","lat":43.104317,"lng":141.378398,"zip":"0070834"},{"town":"北三十四条東二十二丁目","koaza":"","lat":43.103822,"lng":141.379729,"zip":"0070834"},{"town":"北三十四条東二十三丁目","koaza":"","lat":43.103211,"lng":141.381611,"zip":"0070834"},{"town":"北三十四条東二十四丁目","koaza":"","lat":43.102586,"lng":141.38306,"zip":"0070834"},{"town":"北三十四条東二十五丁目","koaza":"","lat":43.101759,"lng":141.384092,"zip":"0070834"},{"town":"北三十四条東二十六丁目","koaza":"","lat":43.101246,"lng":141.385823,"zip":"0070834"},{"town":"北三十四条東二十七丁目","koaza":"","lat":43.100763,"lng":141.387536,"zip":"0070834"},{"town":"北三十四条東二十八丁目","koaza":"","lat":43.099477,"lng":141.390737,"zip":"0070834"},{"town":"北三十四条東二丁目","koaza":"","lat":43.102305,"lng":141.349617,"zip":"0070834"},{"town":"北三十四条東三丁目","koaza":"","lat":43.102663,"lng":141.351092,"zip":"0070834"},{"town":"北三十四条東四丁目","koaza":"","lat":43.10277,"lng":141.352394,"zip":"0070834"},{"town":"北三十四条東五丁目","koaza":"","lat":43.102994,"lng":141.354023,"zip":"0070834"},{"town":"北三十四条東六丁目","koaza":"","lat":43.103191,"lng":141.355712,"zip":"0070834"},{"town":"北三十四条東七丁目","koaza":"","lat":43.103393,"lng":141.357331,"zip":"0070834"},{"town":"北三十四条東八丁目","koaza":"","lat":43.1036,"lng":141.358827,"zip":"0070834"},{"town":"北三十四条東九丁目","koaza":"","lat":43.103808,"lng":141.360368,"zip":"0070834"},{"town":"北三十五条東十丁目","koaza":"","lat":43.105308,"lng":141.361812,"zip":"0070835"},{"town":"北三十五条東十二丁目","koaza":"","lat":43.10495,"lng":141.363061,"zip":"0070835"},{"town":"北三十五条東十三丁目","koaza":"","lat":43.105206,"lng":141.364636,"zip":"0070835"},{"town":"北三十五条東十四丁目","koaza":"","lat":43.10538,"lng":141.366437,"zip":"0070835"},{"town":"北三十五条東十五丁目","koaza":"","lat":43.105524,"lng":141.368152,"zip":"0070835"},{"town":"北三十五条東十六丁目","koaza":"","lat":43.105906,"lng":141.369735,"zip":"0070835"},{"town":"北三十五条東十七丁目","koaza":"","lat":43.105968,"lng":141.371283,"zip":"0070835"},{"town":"北三十五条東十八丁目","koaza":"","lat":43.106158,"lng":141.373121,"zip":"0070835"},{"town":"北三十五条東十九丁目","koaza":"","lat":43.106395,"lng":141.374812,"zip":"0070835"},{"town":"北三十五条東一丁目","koaza":"","lat":43.103286,"lng":141.346765,"zip":"0070835"},{"town":"北三十五条東二十丁目","koaza":"","lat":43.106223,"lng":141.377068,"zip":"0070835"},{"town":"北三十五条東二十一丁目","koaza":"","lat":43.105835,"lng":141.379035,"zip":"0070835"},{"town":"北三十五条東二十二丁目","koaza":"","lat":43.105489,"lng":141.380864,"zip":"0070835"},{"town":"北三十五条東二十三丁目","koaza":"","lat":43.104696,"lng":141.38249,"zip":"0070835"},{"town":"北三十五条東二十四丁目","koaza":"","lat":43.103901,"lng":141.384033,"zip":"0070835"},{"town":"北三十五条東二十五丁目","koaza":"","lat":43.103171,"lng":141.385451,"zip":"0070835"},{"town":"北三十五条東二十六丁目","koaza":"","lat":43.102374,"lng":141.38691,"zip":"0070835"},{"town":"北三十五条東二十七丁目","koaza":"","lat":43.102172,"lng":141.388592,"zip":"0070835"},{"town":"北三十五条東二十八丁目","koaza":"","lat":43.100819,"lng":141.392355,"zip":"0070835"},{"town":"北三十五条東二丁目","koaza":"","lat":43.103677,"lng":141.349295,"zip":"0070835"},{"town":"北三十五条東三丁目","koaza":"","lat":43.103782,"lng":141.350986,"zip":"0070835"},{"town":"北三十五条東四丁目","koaza":"","lat":43.104072,"lng":141.352134,"zip":"0070835"},{"town":"北三十五条東五丁目","koaza":"","lat":43.104281,"lng":141.353702,"zip":"0070835"},{"town":"北三十五条東六丁目","koaza":"","lat":43.104481,"lng":141.355394,"zip":"0070835"},{"town":"北三十五条東七丁目","koaza":"","lat":43.10468,"lng":141.35702,"zip":"0070835"},{"town":"北三十五条東八丁目","koaza":"","lat":43.104886,"lng":141.358538,"zip":"0070835"},{"town":"北三十五条東九丁目","koaza":"","lat":43.105091,"lng":141.360072,"zip":"0070835"},{"town":"北三十六条東十丁目","koaza":"","lat":43.106347,"lng":141.361573,"zip":"0070836"},{"town":"北三十六条東十二丁目","koaza":"","lat":43.105986,"lng":141.362822,"zip":"0070836"},{"town":"北三十六条東十三丁目","koaza":"","lat":43.106434,"lng":141.364204,"zip":"0070836"},{"town":"北三十六条東十四丁目","koaza":"","lat":43.106265,"lng":141.366056,"zip":"0070836"},{"town":"北三十六条東十五丁目","koaza":"","lat":43.106585,"lng":141.367884,"zip":"0070836"},{"town":"北三十六条東十六丁目","koaza":"","lat":43.10671,"lng":141.369837,"zip":"0070836"},{"town":"北三十六条東十七丁目","koaza":"","lat":43.107019,"lng":141.371492,"zip":"0070836"},{"town":"北三十六条東十八丁目","koaza":"","lat":43.107181,"lng":141.372825,"zip":"0070836"},{"town":"北三十六条東十九丁目","koaza":"","lat":43.107433,"lng":141.374498,"zip":"0070836"},{"town":"北三十六条東一丁目","koaza":"","lat":43.104247,"lng":141.346605,"zip":"0070836"},{"town":"北三十六条東二十丁目","koaza":"","lat":43.107755,"lng":141.376615,"zip":"0070836"},{"town":"北三十六条東二十一丁目","koaza":"","lat":43.107653,"lng":141.379046,"zip":"0070836"},{"town":"北三十六条東二十二丁目","koaza":"","lat":43.107173,"lng":141.38218,"zip":"0070836"},{"town":"北三十六条東二十三丁目","koaza":"","lat":43.106246,"lng":141.383863,"zip":"0070836"},{"town":"北三十六条東二十四丁目","koaza":"","lat":43.105448,"lng":141.385455,"zip":"0070836"},{"town":"北三十六条東二十五丁目","koaza":"","lat":43.104561,"lng":141.386783,"zip":"0070836"},{"town":"北三十六条東二十六丁目","koaza":"","lat":43.103705,"lng":141.387998,"zip":"0070836"},{"town":"北三十六条東二十七丁目","koaza":"","lat":43.102892,"lng":141.389337,"zip":"0070836"},{"town":"北三十六条東二十八丁目","koaza":"","lat":43.101786,"lng":141.393065,"zip":"0070836"},{"town":"北三十六条東二十九丁目","koaza":"","lat":43.100433,"lng":141.395691,"zip":"0070836"},{"town":"北三十六条東二丁目","koaza":"","lat":43.104739,"lng":141.349037,"zip":"0070836"},{"town":"北三十六条東三丁目","koaza":"","lat":43.104948,"lng":141.350596,"zip":"0070836"},{"town":"北三十六条東四丁目","koaza":"","lat":43.105116,"lng":141.351876,"zip":"0070836"},{"town":"北三十六条東五丁目","koaza":"","lat":43.105317,"lng":141.353437,"zip":"0070836"},{"town":"北三十六条東六丁目","koaza":"","lat":43.105525,"lng":141.35513,"zip":"0070836"},{"town":"北三十六条東七丁目","koaza":"","lat":43.105728,"lng":141.35676,"zip":"0070836"},{"town":"北三十六条東八丁目","koaza":"","lat":43.105917,"lng":141.358288,"zip":"0070836"},{"town":"北三十六条東九丁目","koaza":"","lat":43.106112,"lng":141.359825,"zip":"0070836"},{"town":"北三十七条東十丁目","koaza":"","lat":43.107075,"lng":141.361245,"zip":"0070837"},{"town":"北三十七条東十二丁目","koaza":"","lat":43.107085,"lng":141.3627,"zip":"0070837"},{"town":"北三十七条東十三丁目","koaza":"","lat":43.107564,"lng":141.363932,"zip":"0070837"},{"town":"北三十七条東十四丁目","koaza":"","lat":43.107523,"lng":141.365742,"zip":"0070837"},{"town":"北三十七条東十五丁目","koaza":"","lat":43.107864,"lng":141.367391,"zip":"0070837"},{"town":"北三十七条東十六丁目","koaza":"","lat":43.107996,"lng":141.369183,"zip":"0070837"},{"town":"北三十七条東十七丁目","koaza":"","lat":43.108201,"lng":141.370847,"zip":"0070837"},{"town":"北三十七条東十八丁目","koaza":"","lat":43.108448,"lng":141.372465,"zip":"0070837"},{"town":"北三十七条東十九丁目","koaza":"","lat":43.108703,"lng":141.374126,"zip":"0070837"},{"town":"北三十七条東一丁目","koaza":"","lat":43.105162,"lng":141.34645,"zip":"0070837"},{"town":"北三十七条東二十丁目","koaza":"","lat":43.109017,"lng":141.376258,"zip":"0070837"},{"town":"北三十七条東二十一丁目","koaza":"","lat":43.109567,"lng":141.378665,"zip":"0070837"},{"town":"北三十七条東二十二丁目","koaza":"","lat":43.108575,"lng":141.380912,"zip":"0070837"},{"town":"北三十七条東二十五丁目","koaza":"","lat":43.105896,"lng":141.386358,"zip":"0070837"},{"town":"北三十七条東二十六丁目","koaza":"","lat":43.104932,"lng":141.388744,"zip":"0070837"},{"town":"北三十七条東二十七丁目","koaza":"","lat":43.104029,"lng":141.391225,"zip":"0070837"},{"town":"北三十七条東二十八丁目","koaza":"","lat":43.103285,"lng":141.393667,"zip":"0070837"},{"town":"北三十七条東二十九丁目","koaza":"","lat":43.102944,"lng":141.396941,"zip":"0070837"},{"town":"北三十七条東二丁目","koaza":"","lat":43.105587,"lng":141.348835,"zip":"0070837"},{"town":"北三十七条東三十丁目","koaza":"","lat":43.102504,"lng":141.399531,"zip":"0070837"},{"town":"北三十七条東三丁目","koaza":"","lat":43.105788,"lng":141.350397,"zip":"0070837"},{"town":"北三十七条東四丁目","koaza":"","lat":43.105948,"lng":141.351678,"zip":"0070837"},{"town":"北三十七条東五丁目","koaza":"","lat":43.106138,"lng":141.353235,"zip":"0070837"},{"town":"北三十七条東六丁目","koaza":"","lat":43.106339,"lng":141.35492,"zip":"0070837"},{"town":"北三十七条東七丁目","koaza":"","lat":43.106521,"lng":141.356556,"zip":"0070837"},{"town":"北三十七条東八丁目","koaza":"","lat":43.106684,"lng":141.358096,"zip":"0070837"},{"town":"北三十七条東九丁目","koaza":"","lat":43.106873,"lng":141.359641,"zip":"0070837"},{"town":"北三十八条東十丁目","koaza":"","lat":43.108024,"lng":141.361013,"zip":"0070838"},{"town":"北三十八条東十二丁目","koaza":"","lat":43.108212,"lng":141.362431,"zip":"0070838"},{"town":"北三十八条東十三丁目","koaza":"","lat":43.108389,"lng":141.363729,"zip":"0070838"},{"town":"北三十八条東十四丁目","koaza":"","lat":43.108553,"lng":141.365702,"zip":"0070838"},{"town":"北三十八条東十五丁目","koaza":"","lat":43.108885,"lng":141.367293,"zip":"0070838"},{"town":"北三十八条東十六丁目","koaza":"","lat":43.109137,"lng":141.368885,"zip":"0070838"},{"town":"北三十八条東十七丁目","koaza":"","lat":43.109421,"lng":141.370525,"zip":"0070838"},{"town":"北三十八条東十八丁目","koaza":"","lat":43.109707,"lng":141.37188,"zip":"0070838"},{"town":"北三十八条東十九丁目","koaza":"","lat":43.109873,"lng":141.373822,"zip":"0070838"},{"town":"北三十八条東一丁目","koaza":"","lat":43.106132,"lng":141.346279,"zip":"0070838"},{"town":"北三十八条東二十丁目","koaza":"","lat":43.110061,"lng":141.375696,"zip":"0070838"},{"town":"北三十八条東二十一丁目","koaza":"","lat":43.110474,"lng":141.378236,"zip":"0070838"},{"town":"北三十八条東二丁目","koaza":"","lat":43.106395,"lng":141.348643,"zip":"0070838"},{"town":"北三十八条東三丁目","koaza":"","lat":43.106591,"lng":141.350199,"zip":"0070838"},{"town":"北三十八条東四丁目","koaza":"","lat":43.106752,"lng":141.351476,"zip":"0070838"},{"town":"北三十八条東五丁目","koaza":"","lat":43.107007,"lng":141.352892,"zip":"0070838"},{"town":"北三十八条東六丁目","koaza":"","lat":43.107152,"lng":141.354718,"zip":"0070838"},{"town":"北三十八条東七丁目","koaza":"","lat":43.107363,"lng":141.356348,"zip":"0070838"},{"town":"北三十八条東八丁目","koaza":"","lat":43.107625,"lng":141.357868,"zip":"0070838"},{"town":"北三十八条東九丁目","koaza":"","lat":43.107878,"lng":141.359237,"zip":"0070838"},{"town":"北三十九条東十丁目","koaza":"","lat":43.10902,"lng":141.360772,"zip":"0070839"},{"town":"北三十九条東十二丁目","koaza":"","lat":43.109226,"lng":141.362188,"zip":"0070839"},{"town":"北三十九条東十三丁目","koaza":"","lat":43.109424,"lng":141.363482,"zip":"0070839"},{"town":"北三十九条東十四丁目","koaza":"","lat":43.109682,"lng":141.3653,"zip":"0070839"},{"town":"北三十九条東十五丁目","koaza":"","lat":43.10995,"lng":141.367113,"zip":"0070839"},{"town":"北三十九条東十六丁目","koaza":"","lat":43.110193,"lng":141.368621,"zip":"0070839"},{"town":"北三十九条東十七丁目","koaza":"","lat":43.110462,"lng":141.370264,"zip":"0070839"},{"town":"北三十九条東十八丁目","koaza":"","lat":43.110684,"lng":141.371899,"zip":"0070839"},{"town":"北三十九条東十九丁目","koaza":"","lat":43.111068,"lng":141.373663,"zip":"0070839"},{"town":"北三十九条東一丁目","koaza":"","lat":43.106809,"lng":141.346143,"zip":"0070839"},{"town":"北三十九条東二十丁目","koaza":"","lat":43.11111,"lng":141.37498,"zip":"0070839"},{"town":"北三十九条東二十一丁目","koaza":"","lat":43.112054,"lng":141.376503,"zip":"0070839"},{"town":"北三十九条東二丁目","koaza":"","lat":43.107218,"lng":141.348437,"zip":"0070839"},{"town":"北三十九条東三丁目","koaza":"","lat":43.107431,"lng":141.349971,"zip":"0070839"},{"town":"北三十九条東四丁目","koaza":"","lat":43.107649,"lng":141.351373,"zip":"0070839"},{"town":"北三十九条東五丁目","koaza":"","lat":43.107836,"lng":141.352952,"zip":"0070839"},{"town":"北三十九条東六丁目","koaza":"","lat":43.10804,"lng":141.354508,"zip":"0070839"},{"town":"北三十九条東七丁目","koaza":"","lat":43.10826,"lng":141.356143,"zip":"0070839"},{"town":"北三十九条東八丁目","koaza":"","lat":43.108573,"lng":141.357675,"zip":"0070839"},{"town":"北三十九条東九丁目","koaza":"","lat":43.108793,"lng":141.359197,"zip":"0070839"},{"town":"北四十条東十丁目","koaza":"","lat":43.109664,"lng":141.360623,"zip":"0070840"},{"town":"北四十条東十二丁目","koaza":"","lat":43.110224,"lng":141.361911,"zip":"0070840"},{"town":"北四十条東十三丁目","koaza":"","lat":43.110453,"lng":141.36324,"zip":"0070840"},{"town":"北四十条東十四丁目","koaza":"","lat":43.110832,"lng":141.365144,"zip":"0070840"},{"town":"北四十条東十五丁目","koaza":"","lat":43.110956,"lng":141.36685,"zip":"0070840"},{"town":"北四十条東十六丁目","koaza":"","lat":43.111229,"lng":141.368348,"zip":"0070840"},{"town":"北四十条東十七丁目","koaza":"","lat":43.111465,"lng":141.370014,"zip":"0070840"},{"town":"北四十条東十八丁目","koaza":"","lat":43.111726,"lng":141.371643,"zip":"0070840"},{"town":"北四十条東十九丁目","koaza":"","lat":43.111973,"lng":141.373261,"zip":"0070840"},{"town":"北四十条東一丁目","koaza":"","lat":43.107943,"lng":141.345899,"zip":"0070840"},{"town":"北四十条東二十丁目","koaza":"","lat":43.112019,"lng":141.374535,"zip":"0070840"},{"town":"北四十条東二丁目","koaza":"","lat":43.108248,"lng":141.348186,"zip":"0070840"},{"town":"北四十条東三丁目","koaza":"","lat":43.108476,"lng":141.349693,"zip":"0070840"},{"town":"北四十条東四丁目","koaza":"","lat":43.108674,"lng":141.350959,"zip":"0070840"},{"town":"北四十条東五丁目","koaza":"","lat":43.108755,"lng":141.352452,"zip":"0070840"},{"town":"北四十条東六丁目","koaza":"","lat":43.10926,"lng":141.354035,"zip":"0070840"},{"town":"北四十条東七丁目","koaza":"","lat":43.109292,"lng":141.356038,"zip":"0070840"},{"town":"北四十条東八丁目","koaza":"","lat":43.109607,"lng":141.357419,"zip":"0070840"},{"town":"北四十条東九丁目","koaza":"","lat":43.109782,"lng":141.358856,"zip":"0070840"},{"town":"北四十一条東十丁目","koaza":"","lat":43.110904,"lng":141.360139,"zip":"0070841"},{"town":"北四十一条東十二丁目","koaza":"","lat":43.111505,"lng":141.36155,"zip":"0070841"},{"town":"北四十一条東十三丁目","koaza":"","lat":43.111741,"lng":141.363071,"zip":"0070841"},{"town":"北四十一条東十四丁目","koaza":"","lat":43.111926,"lng":141.364476,"zip":"0070841"},{"town":"北四十一条東十五丁目","koaza":"","lat":43.112193,"lng":141.366223,"zip":"0070841"},{"town":"北四十一条東十六丁目","koaza":"","lat":43.11246,"lng":141.368052,"zip":"0070841"},{"town":"北四十一条東十七丁目","koaza":"","lat":43.112695,"lng":141.369704,"zip":"0070841"},{"town":"北四十一条東十八丁目","koaza":"","lat":43.112892,"lng":141.371333,"zip":"0070841"},{"town":"北四十一条東十九丁目","koaza":"","lat":43.113419,"lng":141.372913,"zip":"0070841"},{"town":"北四十一条東一丁目","koaza":"","lat":43.109169,"lng":141.345632,"zip":"0070841"},{"town":"北四十一条東二十丁目","koaza":"","lat":43.113167,"lng":141.37439,"zip":"0070841"},{"town":"北四十一条東二丁目","koaza":"","lat":43.109532,"lng":141.347879,"zip":"0070841"},{"town":"北四十一条東三丁目","koaza":"","lat":43.109749,"lng":141.349386,"zip":"0070841"},{"town":"北四十一条東四丁目","koaza":"","lat":43.109933,"lng":141.35066,"zip":"0070841"},{"town":"北四十一条東五丁目","koaza":"","lat":43.11007,"lng":141.352463,"zip":"0070841"},{"town":"北四十一条東六丁目","koaza":"","lat":43.110447,"lng":141.35391,"zip":"0070841"},{"town":"北四十一条東七丁目","koaza":"","lat":43.110661,"lng":141.355512,"zip":"0070841"},{"town":"北四十一条東八丁目","koaza":"","lat":43.110869,"lng":141.357096,"zip":"0070841"},{"town":"北四十一条東九丁目","koaza":"","lat":43.111065,"lng":141.35849,"zip":"0070841"},{"town":"北四十二条東十丁目","koaza":"","lat":43.112848,"lng":141.359766,"zip":"0070842"},{"town":"北四十二条東十二丁目","koaza":"","lat":43.112788,"lng":141.361249,"zip":"0070842"},{"town":"北四十二条東十三丁目","koaza":"","lat":43.112973,"lng":141.362575,"zip":"0070842"},{"town":"北四十二条東十四丁目","koaza":"","lat":43.113139,"lng":141.364197,"zip":"0070842"},{"town":"北四十二条東十五丁目","koaza":"","lat":43.113472,"lng":141.366013,"zip":"0070842"},{"town":"北四十二条東十六丁目","koaza":"","lat":43.113875,"lng":141.367684,"zip":"0070842"},{"town":"北四十二条東十七丁目","koaza":"","lat":43.114144,"lng":141.369419,"zip":"0070842"},{"town":"北四十二条東十八丁目","koaza":"","lat":43.114439,"lng":141.371129,"zip":"0070842"},{"town":"北四十二条東十九丁目","koaza":"","lat":43.114637,"lng":141.37262,"zip":"0070842"},{"town":"北四十二条東一丁目","koaza":"","lat":43.110563,"lng":141.345303,"zip":"0070842"},{"town":"北四十二条東二丁目","koaza":"","lat":43.110977,"lng":141.347547,"zip":"0070842"},{"town":"北四十二条東三丁目","koaza":"","lat":43.111052,"lng":141.349072,"zip":"0070842"},{"town":"北四十二条東四丁目","koaza":"","lat":43.111238,"lng":141.350354,"zip":"0070842"},{"town":"北四十二条東五丁目","koaza":"","lat":43.11147,"lng":141.351977,"zip":"0070842"},{"town":"北四十二条東六丁目","koaza":"","lat":43.111706,"lng":141.353612,"zip":"0070842"},{"town":"北四十二条東七丁目","koaza":"","lat":43.111903,"lng":141.355202,"zip":"0070842"},{"town":"北四十二条東八丁目","koaza":"","lat":43.112065,"lng":141.356786,"zip":"0070842"},{"town":"北四十二条東九丁目","koaza":"","lat":43.112191,"lng":141.35839,"zip":"0070842"},{"town":"北四十三条東十丁目","koaza":"","lat":43.113734,"lng":141.358964,"zip":"0070843"},{"town":"北四十三条東十二丁目","koaza":"","lat":43.113994,"lng":141.360828,"zip":"0070843"},{"town":"北四十三条東十三丁目","koaza":"","lat":43.114209,"lng":141.36226,"zip":"0070843"},{"town":"北四十三条東十四丁目","koaza":"","lat":43.114441,"lng":141.36389,"zip":"0070843"},{"town":"北四十三条東十五丁目","koaza":"","lat":43.114691,"lng":141.365708,"zip":"0070843"},{"town":"北四十三条東十六丁目","koaza":"","lat":43.115666,"lng":141.367322,"zip":"0070843"},{"town":"北四十三条東十七丁目","koaza":"","lat":43.115904,"lng":141.369294,"zip":"0070843"},{"town":"北四十三条東十八丁目","koaza":"","lat":43.116058,"lng":141.370722,"zip":"0070843"},{"town":"北四十三条東十九丁目","koaza":"","lat":43.116262,"lng":141.37223,"zip":"0070843"},{"town":"北四十三条東一丁目","koaza":"","lat":43.111845,"lng":141.345074,"zip":"0070843"},{"town":"北四十三条東二丁目","koaza":"","lat":43.112151,"lng":141.347247,"zip":"0070843"},{"town":"北四十三条東三丁目","koaza":"","lat":43.112312,"lng":141.348765,"zip":"0070843"},{"town":"北四十三条東四丁目","koaza":"","lat":43.112499,"lng":141.350048,"zip":"0070843"},{"town":"北四十三条東五丁目","koaza":"","lat":43.112732,"lng":141.351686,"zip":"0070843"},{"town":"北四十三条東六丁目","koaza":"","lat":43.112955,"lng":141.353318,"zip":"0070843"},{"town":"北四十三条東七丁目","koaza":"","lat":43.11317,"lng":141.354888,"zip":"0070843"},{"town":"北四十三条東八丁目","koaza":"","lat":43.113313,"lng":141.356479,"zip":"0070843"},{"town":"北四十三条東九丁目","koaza":"","lat":43.113517,"lng":141.357954,"zip":"0070843"},{"town":"北四十四条東十丁目","koaza":"","lat":43.115051,"lng":141.359206,"zip":"0070844"},{"town":"北四十四条東十二丁目","koaza":"","lat":43.115221,"lng":141.360639,"zip":"0070844"},{"town":"北四十四条東十三丁目","koaza":"","lat":43.115404,"lng":141.361961,"zip":"0070844"},{"town":"北四十四条東十四丁目","koaza":"","lat":43.115625,"lng":141.363589,"zip":"0070844"},{"town":"北四十四条東十五丁目","koaza":"","lat":43.115988,"lng":141.365581,"zip":"0070844"},{"town":"北四十四条東一丁目","koaza":"","lat":43.113182,"lng":141.345064,"zip":"0070844"},{"town":"北四十四条東二丁目","koaza":"","lat":43.113352,"lng":141.346958,"zip":"0070844"},{"town":"北四十四条東三丁目","koaza":"","lat":43.113561,"lng":141.348456,"zip":"0070844"},{"town":"北四十四条東四丁目","koaza":"","lat":43.113734,"lng":141.349747,"zip":"0070844"},{"town":"北四十四条東五丁目","koaza":"","lat":43.11395,"lng":141.351394,"zip":"0070844"},{"town":"北四十四条東六丁目","koaza":"","lat":43.114151,"lng":141.352908,"zip":"0070844"},{"town":"北四十四条東七丁目","koaza":"","lat":43.114391,"lng":141.35447,"zip":"0070844"},{"town":"北四十四条東八丁目","koaza":"","lat":43.114571,"lng":141.356158,"zip":"0070844"},{"town":"北四十四条東九丁目","koaza":"","lat":43.114766,"lng":141.357789,"zip":"0070844"},{"town":"北四十五条東十丁目","koaza":"","lat":43.116164,"lng":141.358907,"zip":"0070845"},{"town":"北四十五条東十二丁目","koaza":"","lat":43.116361,"lng":141.360348,"zip":"0070845"},{"town":"北四十五条東十三丁目","koaza":"","lat":43.116536,"lng":141.361676,"zip":"0070845"},{"town":"北四十五条東十四丁目","koaza":"","lat":43.116751,"lng":141.36331,"zip":"0070845"},{"town":"北四十五条東十五丁目","koaza":"","lat":43.116995,"lng":141.365141,"zip":"0070845"},{"town":"北四十五条東十六丁目","koaza":"","lat":43.117046,"lng":141.366744,"zip":"0070845"},{"town":"北四十五条東十七丁目","koaza":"","lat":43.11742,"lng":141.368517,"zip":"0070845"},{"town":"北四十五条東十八丁目","koaza":"","lat":43.117521,"lng":141.369818,"zip":"0070845"},{"town":"北四十五条東十九丁目","koaza":"","lat":43.117758,"lng":141.371641,"zip":"0070845"},{"town":"北四十五条東一丁目","koaza":"","lat":43.114351,"lng":141.344842,"zip":"0070845"},{"town":"北四十五条東二丁目","koaza":"","lat":43.114649,"lng":141.346649,"zip":"0070845"},{"town":"北四十五条東三丁目","koaza":"","lat":43.114803,"lng":141.348153,"zip":"0070845"},{"town":"北四十五条東四丁目","koaza":"","lat":43.114966,"lng":141.349449,"zip":"0070845"},{"town":"北四十五条東五丁目","koaza":"","lat":43.115148,"lng":141.351108,"zip":"0070845"},{"town":"北四十五条東六丁目","koaza":"","lat":43.115364,"lng":141.352612,"zip":"0070845"},{"town":"北四十五条東七丁目","koaza":"","lat":43.115565,"lng":141.354145,"zip":"0070845"},{"town":"北四十五条東八丁目","koaza":"","lat":43.115719,"lng":141.355832,"zip":"0070845"},{"town":"北四十五条東九丁目","koaza":"","lat":43.115931,"lng":141.357319,"zip":"0070845"},{"town":"北四十六条東十丁目","koaza":"","lat":43.117443,"lng":141.358442,"zip":"0070846"},{"town":"北四十六条東十二丁目","koaza":"","lat":43.117575,"lng":141.360045,"zip":"0070846"},{"town":"北四十六条東十三丁目","koaza":"","lat":43.117746,"lng":141.361369,"zip":"0070846"},{"town":"北四十六条東十四丁目","koaza":"","lat":43.117958,"lng":141.363005,"zip":"0070846"},{"town":"北四十六条東十五丁目","koaza":"","lat":43.118169,"lng":141.36485,"zip":"0070846"},{"town":"北四十六条東十六丁目","koaza":"","lat":43.118355,"lng":141.366561,"zip":"0070846"},{"town":"北四十六条東十七丁目","koaza":"","lat":43.118508,"lng":141.368367,"zip":"0070846"},{"town":"北四十六条東十八丁目","koaza":"","lat":43.118909,"lng":141.369729,"zip":"0070846"},{"town":"北四十六条東十九丁目","koaza":"","lat":43.119122,"lng":141.371219,"zip":"0070846"},{"town":"北四十六条東一丁目","koaza":"","lat":43.115698,"lng":141.344357,"zip":"0070846"},{"town":"北四十六条東二丁目","koaza":"","lat":43.115896,"lng":141.346116,"zip":"0070846"},{"town":"北四十六条東三丁目","koaza":"","lat":43.116097,"lng":141.347612,"zip":"0070846"},{"town":"北四十六条東四丁目","koaza":"","lat":43.116325,"lng":141.349249,"zip":"0070846"},{"town":"北四十六条東五丁目","koaza":"","lat":43.116482,"lng":141.350717,"zip":"0070846"},{"town":"北四十六条東六丁目","koaza":"","lat":43.116403,"lng":141.352081,"zip":"0070846"},{"town":"北四十六条東七丁目","koaza":"","lat":43.116738,"lng":141.353815,"zip":"0070846"},{"town":"北四十六条東八丁目","koaza":"","lat":43.117122,"lng":141.355396,"zip":"0070846"},{"town":"北四十六条東九丁目","koaza":"","lat":43.117415,"lng":141.356773,"zip":"0070846"},{"town":"北四十七条東十丁目","koaza":"","lat":43.118834,"lng":141.358101,"zip":"0070847"},{"town":"北四十七条東十三丁目","koaza":"","lat":43.119028,"lng":141.36043,"zip":"0070847"},{"town":"北四十七条東十四丁目","koaza":"","lat":43.119296,"lng":141.362668,"zip":"0070847"},{"town":"北四十七条東十五丁目","koaza":"","lat":43.119458,"lng":141.364528,"zip":"0070847"},{"town":"北四十七条東十六丁目","koaza":"","lat":43.119484,"lng":141.36627,"zip":"0070847"},{"town":"北四十七条東十七丁目","koaza":"","lat":43.119709,"lng":141.367942,"zip":"0070847"},{"town":"北四十七条東十八丁目","koaza":"","lat":43.120116,"lng":141.369202,"zip":"0070847"},{"town":"北四十七条東十九丁目","koaza":"","lat":43.120242,"lng":141.37087,"zip":"0070847"},{"town":"北四十七条東一丁目","koaza":"","lat":43.116896,"lng":141.344292,"zip":"0070847"},{"town":"北四十七条東二丁目","koaza":"","lat":43.117093,"lng":141.34584,"zip":"0070847"},{"town":"北四十七条東三丁目","koaza":"","lat":43.117429,"lng":141.347053,"zip":"0070847"},{"town":"北四十七条東四丁目","koaza":"","lat":43.117595,"lng":141.348966,"zip":"0070847"},{"town":"北四十七条東五丁目","koaza":"","lat":43.117776,"lng":141.350422,"zip":"0070847"},{"town":"北四十七条東六丁目","koaza":"","lat":43.117695,"lng":141.351696,"zip":"0070847"},{"town":"北四十七条東七丁目","koaza":"","lat":43.117953,"lng":141.353698,"zip":"0070847"},{"town":"北四十七条東八丁目","koaza":"","lat":43.118375,"lng":141.355262,"zip":"0070847"},{"town":"北四十七条東九丁目","koaza":"","lat":43.118778,"lng":141.356443,"zip":"0070847"},{"town":"北四十八条東十丁目","koaza":"","lat":43.119865,"lng":141.358276,"zip":"0070848"},{"town":"北四十八条東十三丁目","koaza":"","lat":43.120121,"lng":141.360362,"zip":"0070848"},{"town":"北四十八条東十四丁目","koaza":"","lat":43.120322,"lng":141.362183,"zip":"0070848"},{"town":"北四十八条東十五丁目","koaza":"","lat":43.120564,"lng":141.364257,"zip":"0070848"},{"town":"北四十八条東十六丁目","koaza":"","lat":43.120501,"lng":141.365927,"zip":"0070848"},{"town":"北四十八条東十七丁目","koaza":"","lat":43.120865,"lng":141.367657,"zip":"0070848"},{"town":"北四十八条東十八丁目","koaza":"","lat":43.121212,"lng":141.369028,"zip":"0070848"},{"town":"北四十八条東十九丁目","koaza":"","lat":43.12136,"lng":141.370544,"zip":"0070848"},{"town":"北四十八条東一丁目","koaza":"","lat":43.117955,"lng":141.344088,"zip":"0070848"},{"town":"北四十八条東二丁目","koaza":"","lat":43.118144,"lng":141.345761,"zip":"0070848"},{"town":"北四十八条東三丁目","koaza":"","lat":43.118518,"lng":141.347105,"zip":"0070848"},{"town":"北四十八条東四丁目","koaza":"","lat":43.118714,"lng":141.348675,"zip":"0070848"},{"town":"北四十八条東五丁目","koaza":"","lat":43.118809,"lng":141.350187,"zip":"0070848"},{"town":"北四十八条東六丁目","koaza":"","lat":43.118975,"lng":141.35155,"zip":"0070848"},{"town":"北四十八条東七丁目","koaza":"","lat":43.119179,"lng":141.353208,"zip":"0070848"},{"town":"北四十八条東八丁目","koaza":"","lat":43.119393,"lng":141.354861,"zip":"0070848"},{"town":"北四十八条東九丁目","koaza":"","lat":43.119667,"lng":141.356267,"zip":"0070848"},{"town":"北四十九条東十丁目","koaza":"","lat":43.121341,"lng":141.358376,"zip":"0070849"},{"town":"北四十九条東十三丁目","koaza":"","lat":43.121522,"lng":141.360055,"zip":"0070849"},{"town":"北四十九条東十四丁目","koaza":"","lat":43.121756,"lng":141.362043,"zip":"0070849"},{"town":"北四十九条東十五丁目","koaza":"","lat":43.121943,"lng":141.364106,"zip":"0070849"},{"town":"北四十九条東十六丁目","koaza":"","lat":43.122078,"lng":141.365779,"zip":"0070849"},{"town":"北四十九条東十七丁目","koaza":"","lat":43.122552,"lng":141.367412,"zip":"0070849"},{"town":"北四十九条東二丁目","koaza":"","lat":43.119512,"lng":141.345245,"zip":"0070849"},{"town":"北四十九条東三丁目","koaza":"","lat":43.119851,"lng":141.347544,"zip":"0070849"},{"town":"北四十九条東四丁目","koaza":"","lat":43.119985,"lng":141.34876,"zip":"0070849"},{"town":"北四十九条東五丁目","koaza":"","lat":43.120094,"lng":141.349891,"zip":"0070849"},{"town":"北四十九条東六丁目","koaza":"","lat":43.120249,"lng":141.351253,"zip":"0070849"},{"town":"北四十九条東七丁目","koaza":"","lat":43.120449,"lng":141.353022,"zip":"0070849"},{"town":"北四十九条東八丁目","koaza":"","lat":43.12101,"lng":141.35503,"zip":"0070849"},{"town":"北四十九条東九丁目","koaza":"","lat":43.121171,"lng":141.356916,"zip":"0070849"},{"town":"北四条東十丁目","koaza":"","lat":43.06895,"lng":141.370449,"zip":"0650004"},{"town":"北四条東十一丁目","koaza":"","lat":43.068883,"lng":141.372178,"zip":"0650004"},{"town":"北四条東十二丁目","koaza":"","lat":43.069172,"lng":141.373719,"zip":"0650004"},{"town":"北四条東十三丁目","koaza":"","lat":43.069331,"lng":141.375162,"zip":"0650004"},{"town":"北四条東十四丁目","koaza":"","lat":43.069487,"lng":141.376868,"zip":"0650004"},{"town":"北四条東十五丁目","koaza":"","lat":43.069673,"lng":141.378483,"zip":"0650004"},{"town":"北四条東十六丁目","koaza":"","lat":43.069908,"lng":141.380075,"zip":"0650004"},{"town":"北五十条東十丁目","koaza":"","lat":43.122846,"lng":141.358195,"zip":"0070850"},{"town":"北五十条東十三丁目","koaza":"","lat":43.12324,"lng":141.359702,"zip":"0070850"},{"town":"北五十条東十四丁目","koaza":"","lat":43.123274,"lng":141.361059,"zip":"0070850"},{"town":"北五十条東十五丁目","koaza":"","lat":43.123917,"lng":141.363037,"zip":"0070850"},{"town":"北五十条東二丁目","koaza":"","lat":43.12066,"lng":141.344666,"zip":"0070850"},{"town":"北五十条東三丁目","koaza":"","lat":43.121155,"lng":141.347202,"zip":"0070850"},{"town":"北五十条東四丁目","koaza":"","lat":43.121326,"lng":141.348437,"zip":"0070850"},{"town":"北五十条東五丁目","koaza":"","lat":43.121573,"lng":141.349555,"zip":"0070850"},{"town":"北五十条東六丁目","koaza":"","lat":43.121678,"lng":141.350769,"zip":"0070850"},{"town":"北五十条東七丁目","koaza":"","lat":43.122271,"lng":141.352846,"zip":"0070850"},{"town":"北五十条東八丁目","koaza":"","lat":43.12277,"lng":141.35457,"zip":"0070850"},{"town":"北五十条東九丁目","koaza":"","lat":43.123044,"lng":141.356202,"zip":"0070850"},{"town":"北五十一条東十丁目","koaza":"","lat":43.123977,"lng":141.358262,"zip":"0070851"},{"town":"北五十一条東十四丁目","koaza":"","lat":43.124534,"lng":141.361095,"zip":"0070851"},{"town":"北五十一条東十五丁目","koaza":"","lat":43.1252,"lng":141.362764,"zip":"0070851"},{"town":"北五十一条東二丁目","koaza":"","lat":43.122032,"lng":141.345132,"zip":"0070851"},{"town":"北五十一条東三丁目","koaza":"","lat":43.122483,"lng":141.346872,"zip":"0070851"},{"town":"北五十一条東四丁目","koaza":"","lat":43.122671,"lng":141.348126,"zip":"0070851"},{"town":"北五十一条東五丁目","koaza":"","lat":43.123052,"lng":141.349238,"zip":"0070851"},{"town":"北五十一条東六丁目","koaza":"","lat":43.123277,"lng":141.350556,"zip":"0070851"},{"town":"北五十一条東七丁目","koaza":"","lat":43.123833,"lng":141.35272,"zip":"0070851"},{"town":"北五十一条東八丁目","koaza":"","lat":43.124414,"lng":141.354756,"zip":"0070851"},{"town":"北五十一条東九丁目","koaza":"","lat":43.124183,"lng":141.356134,"zip":"0070851"},{"town":"北五条東十丁目","koaza":"","lat":43.069736,"lng":141.370756,"zip":"0600905"},{"town":"北五条東十一丁目","koaza":"","lat":43.070311,"lng":141.372029,"zip":"0600905"},{"town":"北五条東十二丁目","koaza":"","lat":43.070282,"lng":141.37348,"zip":"0600905"},{"town":"北五条東十三丁目","koaza":"","lat":43.07054,"lng":141.374878,"zip":"0600905"},{"town":"北五条東十四丁目","koaza":"","lat":43.070773,"lng":141.376553,"zip":"0600905"},{"town":"北五条東十五丁目","koaza":"","lat":43.070978,"lng":141.378204,"zip":"0600905"},{"town":"北五条東十六丁目","koaza":"","lat":43.071136,"lng":141.37976,"zip":"0600905"},{"town":"北五条東十七丁目","koaza":"","lat":43.071329,"lng":141.38089,"zip":"0600905"},{"town":"北五条東四丁目","koaza":"","lat":43.06898,"lng":141.360949,"zip":"0600905"},{"town":"北五条東五丁目","koaza":"","lat":43.068945,"lng":141.362379,"zip":"0600905"},{"town":"北五条東六丁目","koaza":"","lat":43.068985,"lng":141.364185,"zip":"0600905"},{"town":"北五条東七丁目","koaza":"","lat":43.069283,"lng":141.365413,"zip":"0600905"},{"town":"北五条東八丁目","koaza":"","lat":43.069523,"lng":141.366965,"zip":"0600905"},{"town":"北五条東九丁目","koaza":"","lat":43.069787,"lng":141.369869,"zip":"0600905"},{"town":"北六条東十二丁目","koaza":"","lat":43.071264,"lng":141.373277,"zip":"0600906"},{"town":"北六条東十三丁目","koaza":"","lat":43.071835,"lng":141.374621,"zip":"0600906"},{"town":"北六条東十四丁目","koaza":"","lat":43.072364,"lng":141.37621,"zip":"0600906"},{"town":"北六条東十五丁目","koaza":"","lat":43.072125,"lng":141.378106,"zip":"0600906"},{"town":"北六条東十六丁目","koaza":"","lat":43.072348,"lng":141.3795,"zip":"0600906"},{"town":"北六条東十七丁目","koaza":"","lat":43.072503,"lng":141.38101,"zip":"0600906"},{"town":"北六条東十八丁目","koaza":"","lat":43.073092,"lng":141.382104,"zip":"0600906"},{"town":"北六条東十九丁目","koaza":"","lat":43.075983,"lng":141.384084,"zip":"0600906"},{"town":"北六条東一丁目","koaza":"","lat":43.069284,"lng":141.355951,"zip":"0600906"},{"town":"北六条東二十丁目","koaza":"","lat":43.076946,"lng":141.384861,"zip":"0600906"},{"town":"北六条東二丁目","koaza":"","lat":43.069381,"lng":141.357646,"zip":"0600906"},{"town":"北六条東三丁目","koaza":"","lat":43.069393,"lng":141.359226,"zip":"0600906"},{"town":"北六条東四丁目","koaza":"","lat":43.069841,"lng":141.360725,"zip":"0600906"},{"town":"北六条東五丁目","koaza":"","lat":43.070062,"lng":141.362261,"zip":"0600906"},{"town":"北六条東六丁目","koaza":"","lat":43.070398,"lng":141.363646,"zip":"0600906"},{"town":"北六条東七丁目","koaza":"","lat":43.070493,"lng":141.365213,"zip":"0600906"},{"town":"北六条東八丁目","koaza":"","lat":43.070959,"lng":141.366689,"zip":"0600906"},{"town":"北七条東十一丁目","koaza":"","lat":43.072794,"lng":141.371896,"zip":"0600907"},{"town":"北七条東十二丁目","koaza":"","lat":43.072355,"lng":141.37339,"zip":"0600907"},{"town":"北七条東十三丁目","koaza":"","lat":43.073016,"lng":141.374762,"zip":"0600907"},{"town":"北七条東十四丁目","koaza":"","lat":43.073468,"lng":141.375865,"zip":"0600907"},{"town":"北七条東十五丁目","koaza":"","lat":43.073578,"lng":141.377603,"zip":"0600907"},{"town":"北七条東十六丁目","koaza":"","lat":43.073951,"lng":141.379113,"zip":"0600907"},{"town":"北七条東十七丁目","koaza":"","lat":43.073793,"lng":141.380775,"zip":"0600907"},{"town":"北七条東十八丁目","koaza":"","lat":43.074723,"lng":141.381666,"zip":"0600907"},{"town":"北七条東十九丁目","koaza":"","lat":43.076237,"lng":141.382965,"zip":"0600907"},{"town":"北七条東一丁目","koaza":"","lat":43.070418,"lng":141.355661,"zip":"0600907"},{"town":"北七条東二十丁目","koaza":"","lat":43.077362,"lng":141.383873,"zip":"0600907"},{"town":"北七条東二丁目","koaza":"","lat":43.070548,"lng":141.357483,"zip":"0600907"},{"town":"北七条東三丁目","koaza":"","lat":43.070782,"lng":141.35889,"zip":"0600907"},{"town":"北七条東四丁目","koaza":"","lat":43.070984,"lng":141.360453,"zip":"0600907"},{"town":"北七条東五丁目","koaza":"","lat":43.071222,"lng":141.362143,"zip":"0600907"},{"town":"北七条東六丁目","koaza":"","lat":43.071494,"lng":141.363531,"zip":"0600907"},{"town":"北七条東七丁目","koaza":"","lat":43.071658,"lng":141.364808,"zip":"0600907"},{"town":"北七条東八丁目","koaza":"","lat":43.072025,"lng":141.366481,"zip":"0600907"},{"town":"北七条東九丁目","koaza":"","lat":43.071022,"lng":141.37004,"zip":"0600907"},{"town":"北八条東十丁目","koaza":"","lat":43.073598,"lng":141.369511,"zip":"0600908"},{"town":"北八条東十一丁目","koaza":"","lat":43.0737,"lng":141.371061,"zip":"0600908"},{"town":"北八条東十二丁目","koaza":"","lat":43.07394,"lng":141.372665,"zip":"0600908"},{"town":"北八条東十三丁目","koaza":"","lat":43.074077,"lng":141.374115,"zip":"0600908"},{"town":"北八条東十四丁目","koaza":"","lat":43.074434,"lng":141.375674,"zip":"0600908"},{"town":"北八条東十五丁目","koaza":"","lat":43.074485,"lng":141.37701,"zip":"0600908"},{"town":"北八条東十六丁目","koaza":"","lat":43.075135,"lng":141.378146,"zip":"0600908"},{"town":"北八条東十七丁目","koaza":"","lat":43.075887,"lng":141.379917,"zip":"0600908"},{"town":"北八条東十八丁目","koaza":"","lat":43.077034,"lng":141.381414,"zip":"0600908"},{"town":"北八条東十九丁目","koaza":"","lat":43.078061,"lng":141.381549,"zip":"0600908"},{"town":"北八条東一丁目","koaza":"","lat":43.071556,"lng":141.355366,"zip":"0600908"},{"town":"北八条東二丁目","koaza":"","lat":43.071781,"lng":141.357044,"zip":"0600908"},{"town":"北八条東三丁目","koaza":"","lat":43.071994,"lng":141.3586,"zip":"0600908"},{"town":"北八条東四丁目","koaza":"","lat":43.072204,"lng":141.360161,"zip":"0600908"},{"town":"北八条東五丁目","koaza":"","lat":43.072419,"lng":141.361739,"zip":"0600908"},{"town":"北八条東六丁目","koaza":"","lat":43.072615,"lng":141.363305,"zip":"0600908"},{"town":"北八条東七丁目","koaza":"","lat":43.072802,"lng":141.364566,"zip":"0600908"},{"town":"北八条東八丁目","koaza":"","lat":43.072914,"lng":141.366253,"zip":"0600908"},{"town":"北八条東九丁目","koaza":"","lat":43.073279,"lng":141.368056,"zip":"0600908"},{"town":"北九条東十丁目","koaza":"","lat":43.075061,"lng":141.368822,"zip":"0600909"},{"town":"北九条東十一丁目","koaza":"","lat":43.07482,"lng":141.370965,"zip":"0600909"},{"town":"北九条東十二丁目","koaza":"","lat":43.074967,"lng":141.372227,"zip":"0600909"},{"town":"北九条東十三丁目","koaza":"","lat":43.07525,"lng":141.373681,"zip":"0600909"},{"town":"北九条東十四丁目","koaza":"","lat":43.075417,"lng":141.375153,"zip":"0600909"},{"town":"北九条東十五丁目","koaza":"","lat":43.075632,"lng":141.376707,"zip":"0600909"},{"town":"北九条東十六丁目","koaza":"","lat":43.076079,"lng":141.378235,"zip":"0600909"},{"town":"北九条東一丁目","koaza":"","lat":43.072688,"lng":141.355071,"zip":"0600909"},{"town":"北九条東二丁目","koaza":"","lat":43.072916,"lng":141.356754,"zip":"0600909"},{"town":"北九条東三丁目","koaza":"","lat":43.073131,"lng":141.358314,"zip":"0600909"},{"town":"北九条東四丁目","koaza":"","lat":43.073349,"lng":141.359871,"zip":"0600909"},{"town":"北九条東五丁目","koaza":"","lat":43.073564,"lng":141.361428,"zip":"0600909"},{"town":"北九条東六丁目","koaza":"","lat":43.073831,"lng":141.362874,"zip":"0600909"},{"town":"北九条東七丁目","koaza":"","lat":43.073909,"lng":141.364229,"zip":"0600909"},{"town":"北九条東八丁目","koaza":"","lat":43.074345,"lng":141.365847,"zip":"0600909"},{"town":"北九条東九丁目","koaza":"","lat":43.074616,"lng":141.36773,"zip":"0600909"},{"town":"北丘珠一条二丁目","koaza":"","lat":43.121604,"lng":141.408195,"zip":"0070881"},{"town":"北丘珠一条三丁目","koaza":"","lat":43.123809,"lng":141.410948,"zip":"0070881"},{"town":"北丘珠一条四丁目","koaza":"","lat":43.124212,"lng":141.412677,"zip":"0070881"},{"town":"北丘珠二条一丁目","koaza":"","lat":43.123081,"lng":141.405433,"zip":"0070882"},{"town":"北丘珠二条二丁目","koaza":"","lat":43.124066,"lng":141.406557,"zip":"0070882"},{"town":"北丘珠二条三丁目","koaza":"","lat":43.125028,"lng":141.408729,"zip":"0070882"},{"town":"北丘珠二条四丁目","koaza":"","lat":43.126237,"lng":141.41126,"zip":"0070882"},{"town":"北丘珠三条一丁目","koaza":"","lat":43.124312,"lng":141.401152,"zip":"0070883"},{"town":"北丘珠三条二丁目","koaza":"","lat":43.125963,"lng":141.404772,"zip":"0070883"},{"town":"北丘珠三条三丁目","koaza":"","lat":43.127069,"lng":141.40731,"zip":"0070883"},{"town":"北丘珠三条四丁目","koaza":"","lat":43.128709,"lng":141.410258,"zip":"0070883"},{"town":"北丘珠四条一丁目","koaza":"","lat":43.126432,"lng":141.400277,"zip":"0070884"},{"town":"北丘珠四条二丁目","koaza":"","lat":43.127612,"lng":141.403295,"zip":"0070884"},{"town":"北丘珠四条三丁目","koaza":"","lat":43.129242,"lng":141.405875,"zip":"0070884"},{"town":"北丘珠四条四丁目","koaza":"","lat":43.130531,"lng":141.409026,"zip":"0070884"},{"town":"北丘珠五条一丁目","koaza":"","lat":43.128339,"lng":141.399979,"zip":"0070885"},{"town":"北丘珠五条二丁目","koaza":"","lat":43.129222,"lng":141.401828,"zip":"0070885"},{"town":"北丘珠五条三丁目","koaza":"","lat":43.130526,"lng":141.404573,"zip":"0070885"},{"town":"北丘珠五条四丁目","koaza":"","lat":43.132767,"lng":141.407071,"zip":"0070885"},{"town":"北丘珠六条四丁目","koaza":"","lat":43.13508,"lng":141.406273,"zip":"0070886"},{"town":"栄町","koaza":"","lat":43.119921,"lng":141.376779,"zip":"0070852"},{"town":"苗穂町十丁目","koaza":"","lat":43.07309,"lng":141.39266,"zip":"0650043"},{"town":"苗穂町十一丁目","koaza":"","lat":43.070356,"lng":141.390537,"zip":"0650043"},{"town":"苗穂町十二丁目","koaza":"","lat":43.070993,"lng":141.392406,"zip":"0650043"},{"town":"苗穂町十三丁目","koaza":"","lat":43.0714,"lng":141.394634,"zip":"0650043"},{"town":"苗穂町十四丁目","koaza":"","lat":43.072941,"lng":141.394882,"zip":"0650043"},{"town":"苗穂町十五丁目","koaza":"","lat":43.071987,"lng":141.396657,"zip":"0650043"},{"town":"苗穂町十六丁目","koaza":"","lat":43.070976,"lng":141.397471,"zip":"0650043"},{"town":"苗穂町一丁目","koaza":"","lat":43.070147,"lng":141.38381,"zip":"0650043"},{"town":"苗穂町二丁目","koaza":"","lat":43.071299,"lng":141.382959,"zip":"0650043"},{"town":"苗穂町三丁目","koaza":"","lat":43.073611,"lng":141.384093,"zip":"0650043"},{"town":"苗穂町四丁目","koaza":"","lat":43.075803,"lng":141.385937,"zip":"0650043"},{"town":"苗穂町五丁目","koaza":"","lat":43.074846,"lng":141.388063,"zip":"0650043"},{"town":"苗穂町六丁目","koaza":"","lat":43.072858,"lng":141.386605,"zip":"0650043"},{"town":"苗穂町七丁目","koaza":"","lat":43.070785,"lng":141.386635,"zip":"0650043"},{"town":"苗穂町八丁目","koaza":"","lat":43.072063,"lng":141.389429,"zip":"0650043"},{"town":"苗穂町九丁目","koaza":"","lat":43.074392,"lng":141.390864,"zip":"0650043"},{"town":"中沼一条一丁目","koaza":"","lat":43.125633,"lng":141.442045,"zip":"0070001"},{"town":"中沼一条二丁目","koaza":"","lat":43.125046,"lng":141.444444,"zip":"0070001"},{"town":"中沼一条三丁目","koaza":"","lat":43.124541,"lng":141.44702,"zip":"0070001"},{"town":"中沼二条一丁目","koaza":"","lat":43.126554,"lng":141.44198,"zip":"0070002"},{"town":"中沼二条二丁目","koaza":"","lat":43.126539,"lng":141.443779,"zip":"0070002"},{"town":"中沼三条一丁目","koaza":"","lat":43.127488,"lng":141.441831,"zip":"0070003"},{"town":"中沼三条二丁目","koaza":"","lat":43.127607,"lng":141.443726,"zip":"0070003"},{"town":"中沼四条一丁目","koaza":"","lat":43.128422,"lng":141.441682,"zip":"0070004"},{"town":"中沼四条二丁目","koaza":"","lat":43.128554,"lng":141.443881,"zip":"0070004"},{"town":"中沼五条一丁目","koaza":"","lat":43.129314,"lng":141.441556,"zip":"0070005"},{"town":"中沼五条二丁目","koaza":"","lat":43.129478,"lng":141.444091,"zip":"0070005"},{"town":"中沼六条一丁目","koaza":"","lat":43.130186,"lng":141.441808,"zip":"0070006"},{"town":"中沼六条二丁目","koaza":"","lat":43.130528,"lng":141.443738,"zip":"0070006"},{"town":"中沼六条三丁目","koaza":"","lat":43.130863,"lng":141.445309,"zip":"0070006"},{"town":"中沼町","koaza":"","lat":43.139051,"lng":141.433865,"zip":"0070890"},{"town":"中沼西一条一丁目","koaza":"","lat":43.125197,"lng":141.414293,"zip":"0070891"},{"town":"中沼西一条二丁目","koaza":"","lat":43.127038,"lng":141.416613,"zip":"0070891"},{"town":"中沼西二条一丁目","koaza":"","lat":43.127687,"lng":141.41371,"zip":"0070892"},{"town":"中沼西二条二丁目","koaza":"","lat":43.12836,"lng":141.415637,"zip":"0070892"},{"town":"中沼西三条一丁目","koaza":"","lat":43.129574,"lng":141.413136,"zip":"0070893"},{"town":"中沼西三条二丁目","koaza":"","lat":43.130215,"lng":141.414385,"zip":"0070893"},{"town":"中沼西四条一丁目","koaza":"","lat":43.131753,"lng":141.411372,"zip":"0070894"},{"town":"中沼西四条二丁目","koaza":"","lat":43.132256,"lng":141.412986,"zip":"0070894"},{"town":"中沼西五条一丁目","koaza":"","lat":43.133949,"lng":141.410125,"zip":"0070895"},{"town":"中沼西五条二丁目","koaza":"","lat":43.134525,"lng":141.411453,"zip":"0070895"},{"town":"東雁来十条一丁目","koaza":"","lat":43.098369,"lng":141.423298,"zip":"0070030"},{"town":"東雁来十条二丁目","koaza":"","lat":43.097408,"lng":141.426748,"zip":"0070030"},{"town":"東雁来十条三丁目","koaza":"","lat":43.095718,"lng":141.428542,"zip":"0070030"},{"town":"東雁来十条四丁目","koaza":"","lat":43.095556,"lng":141.431715,"zip":"0070030"},{"town":"東雁来十一条一丁目","koaza":"","lat":43.100399,"lng":141.424721,"zip":"0070031"},{"town":"東雁来十一条二丁目","koaza":"","lat":43.099039,"lng":141.428055,"zip":"0070031"},{"town":"東雁来十一条三丁目","koaza":"","lat":43.098481,"lng":141.431491,"zip":"0070031"},{"town":"東雁来十一条四丁目","koaza":"","lat":43.096379,"lng":141.433544,"zip":"0070031"},{"town":"東雁来十二条二丁目","koaza":"","lat":43.101178,"lng":141.429771,"zip":"0070032"},{"town":"東雁来十二条三丁目","koaza":"","lat":43.100324,"lng":141.433471,"zip":"0070032"},{"town":"東雁来十二条四丁目","koaza":"","lat":43.098126,"lng":141.435877,"zip":"0070032"},{"town":"東雁来十三条二丁目","koaza":"","lat":43.103757,"lng":141.431781,"zip":"0070033"},{"town":"東雁来十三条三丁目","koaza":"","lat":43.102319,"lng":141.435505,"zip":"0070033"},{"town":"東雁来十三条四丁目","koaza":"","lat":43.100686,"lng":141.438077,"zip":"0070033"},{"town":"東雁来十四条二丁目","koaza":"","lat":43.105958,"lng":141.432783,"zip":"0070034"},{"town":"東雁来十四条三丁目","koaza":"","lat":43.103875,"lng":141.436352,"zip":"0070034"},{"town":"東雁来十四条四丁目","koaza":"","lat":43.101826,"lng":141.439681,"zip":"0070034"},{"town":"東雁来一条一丁目","koaza":"","lat":43.076695,"lng":141.403794,"zip":"0070821"},{"town":"東雁来二条一丁目","koaza":"","lat":43.080109,"lng":141.408289,"zip":"0070822"},{"town":"東雁来三条一丁目","koaza":"","lat":43.082421,"lng":141.410519,"zip":"0070823"},{"town":"東雁来四条一丁目","koaza":"","lat":43.083903,"lng":141.412753,"zip":"0070824"},{"town":"東雁来五条一丁目","koaza":"","lat":43.086073,"lng":141.413991,"zip":"0070825"},{"town":"東雁来六条一丁目","koaza":"","lat":43.090186,"lng":141.415395,"zip":"0070826"},{"town":"東雁来六条二丁目","koaza":"","lat":43.088516,"lng":141.416719,"zip":"0070826"},{"town":"東雁来六条三丁目","koaza":"","lat":43.086481,"lng":141.418449,"zip":"0070826"},{"town":"東雁来七条一丁目","koaza":"","lat":43.092424,"lng":141.419143,"zip":"0070827"},{"town":"東雁来七条二丁目","koaza":"","lat":43.090266,"lng":141.42022,"zip":"0070827"},{"town":"東雁来七条三丁目","koaza":"","lat":43.089148,"lng":141.423326,"zip":"0070827"},{"town":"東雁来八条一丁目","koaza":"","lat":43.094286,"lng":141.420987,"zip":"0070828"},{"town":"東雁来八条二丁目","koaza":"","lat":43.092343,"lng":141.423315,"zip":"0070828"},{"town":"東雁来八条三丁目","koaza":"","lat":43.091235,"lng":141.427435,"zip":"0070828"},{"town":"東雁来八条四丁目","koaza":"","lat":43.091212,"lng":141.430666,"zip":"0070828"},{"town":"東雁来九条一丁目","koaza":"","lat":43.096229,"lng":141.421732,"zip":"0070829"},{"town":"東雁来九条二丁目","koaza":"","lat":43.095394,"lng":141.425136,"zip":"0070829"},{"town":"東雁来九条三丁目","koaza":"","lat":43.092729,"lng":141.427543,"zip":"0070829"},{"town":"東雁来九条四丁目","koaza":"","lat":43.092915,"lng":141.431667,"zip":"0070829"},{"town":"東雁来町","koaza":"","lat":43.093328,"lng":141.451072,"zip":"0070820"},{"town":"東苗穂十条一丁目","koaza":"","lat":43.103243,"lng":141.411968,"zip":"0070810"},{"town":"東苗穂十条二丁目","koaza":"","lat":43.101405,"lng":141.415217,"zip":"0070810"},{"town":"東苗穂十条三丁目","koaza":"","lat":43.099795,"lng":141.419583,"zip":"0070810"},{"town":"東苗穂十一条一丁目","koaza":"","lat":43.105289,"lng":141.413944,"zip":"0070811"},{"town":"東苗穂十一条二丁目","koaza":"","lat":43.103952,"lng":141.417273,"zip":"0070811"},{"town":"東苗穂十一条三丁目","koaza":"","lat":43.101874,"lng":141.421305,"zip":"0070811"},{"town":"東苗穂十二条一丁目","koaza":"","lat":43.107616,"lng":141.415378,"zip":"0070812"},{"town":"東苗穂十二条二丁目","koaza":"","lat":43.106219,"lng":141.418958,"zip":"0070812"},{"town":"東苗穂十二条三丁目","koaza":"","lat":43.104021,"lng":141.422992,"zip":"0070812"},{"town":"東苗穂十二条四丁目","koaza":"","lat":43.102526,"lng":141.426374,"zip":"0070812"},{"town":"東苗穂十三条一丁目","koaza":"","lat":43.109506,"lng":141.416822,"zip":"0070813"},{"town":"東苗穂十三条二丁目","koaza":"","lat":43.108105,"lng":141.420476,"zip":"0070813"},{"town":"東苗穂十三条三丁目","koaza":"","lat":43.106554,"lng":141.424937,"zip":"0070813"},{"town":"東苗穂十三条四丁目","koaza":"","lat":43.104985,"lng":141.428262,"zip":"0070813"},{"town":"東苗穂十四条一丁目","koaza":"","lat":43.111794,"lng":141.418584,"zip":"0070814"},{"town":"東苗穂十四条二丁目","koaza":"","lat":43.110692,"lng":141.422476,"zip":"0070814"},{"town":"東苗穂十四条三丁目","koaza":"","lat":43.108814,"lng":141.426781,"zip":"0070814"},{"town":"東苗穂十四条四丁目","koaza":"","lat":43.107311,"lng":141.430075,"zip":"0070814"},{"town":"東苗穂十五条一丁目","koaza":"","lat":43.112922,"lng":141.420955,"zip":"0070815"},{"town":"東苗穂十五条二丁目","koaza":"","lat":43.11179,"lng":141.424691,"zip":"0070815"},{"town":"東苗穂十五条三丁目","koaza":"","lat":43.110286,"lng":141.427865,"zip":"0070815"},{"town":"東苗穂十五条四丁目","koaza":"","lat":43.108878,"lng":141.430421,"zip":"0070815"},{"town":"東苗穂一条一丁目","koaza":"","lat":43.079445,"lng":141.39413,"zip":"0070801"},{"town":"東苗穂一条二丁目","koaza":"","lat":43.078669,"lng":141.398265,"zip":"0070801"},{"town":"東苗穂一条三丁目","koaza":"","lat":43.077541,"lng":141.40189,"zip":"0070801"},{"town":"東苗穂二条一丁目","koaza":"","lat":43.082783,"lng":141.398377,"zip":"0070802"},{"town":"東苗穂二条二丁目","koaza":"","lat":43.082177,"lng":141.402608,"zip":"0070802"},{"town":"東苗穂二条三丁目","koaza":"","lat":43.080408,"lng":141.404572,"zip":"0070802"},{"town":"東苗穂三条一丁目","koaza":"","lat":43.086743,"lng":141.400526,"zip":"0070803"},{"town":"東苗穂三条二丁目","koaza":"","lat":43.085139,"lng":141.403967,"zip":"0070803"},{"town":"東苗穂三条三丁目","koaza":"","lat":43.083891,"lng":141.407247,"zip":"0070803"},{"town":"東苗穂四条一丁目","koaza":"","lat":43.088812,"lng":141.40219,"zip":"0070804"},{"town":"東苗穂四条二丁目","koaza":"","lat":43.087272,"lng":141.405636,"zip":"0070804"},{"town":"東苗穂四条三丁目","koaza":"","lat":43.085961,"lng":141.408842,"zip":"0070804"},{"town":"東苗穂五条一丁目","koaza":"","lat":43.091561,"lng":141.402967,"zip":"0070805"},{"town":"東苗穂五条二丁目","koaza":"","lat":43.08961,"lng":141.406529,"zip":"0070805"},{"town":"東苗穂五条三丁目","koaza":"","lat":43.088758,"lng":141.411051,"zip":"0070805"},{"town":"東苗穂六条一丁目","koaza":"","lat":43.094535,"lng":141.405741,"zip":"0070806"},{"town":"東苗穂六条二丁目","koaza":"","lat":43.092339,"lng":141.408836,"zip":"0070806"},{"town":"東苗穂六条三丁目","koaza":"","lat":43.090745,"lng":141.412585,"zip":"0070806"},{"town":"東苗穂七条一丁目","koaza":"","lat":43.096468,"lng":141.40723,"zip":"0070807"},{"town":"東苗穂七条二丁目","koaza":"","lat":43.094379,"lng":141.410418,"zip":"0070807"},{"town":"東苗穂七条三丁目","koaza":"","lat":43.093201,"lng":141.4145,"zip":"0070807"},{"town":"東苗穂八条一丁目","koaza":"","lat":43.098335,"lng":141.40821,"zip":"0070808"},{"town":"東苗穂八条二丁目","koaza":"","lat":43.096969,"lng":141.412422,"zip":"0070808"},{"town":"東苗穂八条三丁目","koaza":"","lat":43.095435,"lng":141.416251,"zip":"0070808"},{"town":"東苗穂九条一丁目","koaza":"","lat":43.101048,"lng":141.410515,"zip":"0070809"},{"town":"東苗穂九条二丁目","koaza":"","lat":43.099322,"lng":141.41306,"zip":"0070809"},{"town":"東苗穂九条三丁目","koaza":"","lat":43.097643,"lng":141.418088,"zip":"0070809"},{"town":"東苗穂町","koaza":"","lat":43.114917,"lng":141.421323,"zip":"0070819"},{"town":"伏古十条一丁目","koaza":"","lat":43.097581,"lng":141.390255,"zip":"0070870"},{"town":"伏古十条二丁目","koaza":"","lat":43.096046,"lng":141.394153,"zip":"0070870"},{"town":"伏古十条三丁目","koaza":"","lat":43.094411,"lng":141.397335,"zip":"0070870"},{"town":"伏古十条四丁目","koaza":"","lat":43.093737,"lng":141.3997,"zip":"0070870"},{"town":"伏古十条五丁目","koaza":"","lat":43.093081,"lng":141.401378,"zip":"0070870"},{"town":"伏古十一条一丁目","koaza":"","lat":43.098406,"lng":141.393916,"zip":"0070871"},{"town":"伏古十一条二丁目","koaza":"","lat":43.097346,"lng":141.396222,"zip":"0070871"},{"town":"伏古十一条三丁目","koaza":"","lat":43.096747,"lng":141.398823,"zip":"0070871"},{"town":"伏古十一条四丁目","koaza":"","lat":43.095675,"lng":141.401072,"zip":"0070871"},{"town":"伏古十一条五丁目","koaza":"","lat":43.095008,"lng":141.40254,"zip":"0070871"},{"town":"伏古十二条二丁目","koaza":"","lat":43.099548,"lng":141.397898,"zip":"0070872"},{"town":"伏古十二条三丁目","koaza":"","lat":43.09868,"lng":141.400608,"zip":"0070872"},{"town":"伏古十二条四丁目","koaza":"","lat":43.098007,"lng":141.402361,"zip":"0070872"},{"town":"伏古十二条五丁目","koaza":"","lat":43.09725,"lng":141.403964,"zip":"0070872"},{"town":"伏古十三条三丁目","koaza":"","lat":43.101206,"lng":141.401278,"zip":"0070873"},{"town":"伏古十三条四丁目","koaza":"","lat":43.100366,"lng":141.404721,"zip":"0070873"},{"town":"伏古十三条五丁目","koaza":"","lat":43.099468,"lng":141.406101,"zip":"0070873"},{"town":"伏古十四条三丁目","koaza":"","lat":43.103727,"lng":141.403607,"zip":"0070874"},{"town":"伏古十四条四丁目","koaza":"","lat":43.102533,"lng":141.406236,"zip":"0070874"},{"town":"伏古十四条五丁目","koaza":"","lat":43.101882,"lng":141.407996,"zip":"0070874"},{"town":"伏古一条二丁目","koaza":"","lat":43.083952,"lng":141.38672,"zip":"0070861"},{"town":"伏古一条三丁目","koaza":"","lat":43.082059,"lng":141.388466,"zip":"0070861"},{"town":"伏古一条四丁目","koaza":"","lat":43.081626,"lng":141.390333,"zip":"0070861"},{"town":"伏古一条五丁目","koaza":"","lat":43.080652,"lng":141.391992,"zip":"0070861"},{"town":"伏古二条三丁目","koaza":"","lat":43.083635,"lng":141.389689,"zip":"0070862"},{"town":"伏古二条四丁目","koaza":"","lat":43.083041,"lng":141.391334,"zip":"0070862"},{"town":"伏古二条五丁目","koaza":"","lat":43.082156,"lng":141.392752,"zip":"0070862"},{"town":"伏古三条二丁目","koaza":"","lat":43.086215,"lng":141.388003,"zip":"0070863"},{"town":"伏古三条三丁目","koaza":"","lat":43.085268,"lng":141.390471,"zip":"0070863"},{"town":"伏古三条四丁目","koaza":"","lat":43.084543,"lng":141.392269,"zip":"0070863"},{"town":"伏古三条五丁目","koaza":"","lat":43.083772,"lng":141.393816,"zip":"0070863"},{"town":"伏古四条二丁目","koaza":"","lat":43.087376,"lng":141.38908,"zip":"0070864"},{"town":"伏古四条三丁目","koaza":"","lat":43.086467,"lng":141.391416,"zip":"0070864"},{"town":"伏古四条四丁目","koaza":"","lat":43.085769,"lng":141.393218,"zip":"0070864"},{"town":"伏古四条五丁目","koaza":"","lat":43.08509,"lng":141.394986,"zip":"0070864"},{"town":"伏古五条二丁目","koaza":"","lat":43.088521,"lng":141.390153,"zip":"0070865"},{"town":"伏古五条三丁目","koaza":"","lat":43.087614,"lng":141.392301,"zip":"0070865"},{"town":"伏古五条四丁目","koaza":"","lat":43.086878,"lng":141.394098,"zip":"0070865"},{"town":"伏古五条五丁目","koaza":"","lat":43.086038,"lng":141.395821,"zip":"0070865"},{"town":"伏古六条二丁目","koaza":"","lat":43.089547,"lng":141.390872,"zip":"0070866"},{"town":"伏古六条三丁目","koaza":"","lat":43.088728,"lng":141.393081,"zip":"0070866"},{"town":"伏古六条四丁目","koaza":"","lat":43.087958,"lng":141.39493,"zip":"0070866"},{"town":"伏古六条五丁目","koaza":"","lat":43.087255,"lng":141.396632,"zip":"0070866"},{"town":"伏古七条二丁目","koaza":"","lat":43.091397,"lng":141.391498,"zip":"0070867"},{"town":"伏古七条三丁目","koaza":"","lat":43.090065,"lng":141.393939,"zip":"0070867"},{"town":"伏古七条四丁目","koaza":"","lat":43.089238,"lng":141.395919,"zip":"0070867"},{"town":"伏古七条五丁目","koaza":"","lat":43.088544,"lng":141.397628,"zip":"0070867"},{"town":"伏古八条一丁目","koaza":"","lat":43.094185,"lng":141.389641,"zip":"0070868"},{"town":"伏古八条二丁目","koaza":"","lat":43.093003,"lng":141.392672,"zip":"0070868"},{"town":"伏古八条三丁目","koaza":"","lat":43.091716,"lng":141.39486,"zip":"0070868"},{"town":"伏古八条四丁目","koaza":"","lat":43.090911,"lng":141.397307,"zip":"0070868"},{"town":"伏古八条五丁目","koaza":"","lat":43.090259,"lng":141.399038,"zip":"0070868"},{"town":"伏古九条一丁目","koaza":"","lat":43.095743,"lng":141.389944,"zip":"0070869"},{"town":"伏古九条二丁目","koaza":"","lat":43.094529,"lng":141.39275,"zip":"0070869"},{"town":"伏古九条三丁目","koaza":"","lat":43.093241,"lng":141.39603,"zip":"0070869"},{"town":"伏古九条四丁目","koaza":"","lat":43.092286,"lng":141.398559,"zip":"0070869"},{"town":"伏古九条五丁目","koaza":"","lat":43.091815,"lng":141.400394,"zip":"0070869"},{"town":"本町一条十丁目","koaza":"","lat":43.073405,"lng":141.397957,"zip":"0650041"},{"town":"本町一条十一丁目","koaza":"","lat":43.072374,"lng":141.399484,"zip":"0650041"},{"town":"本町一条一丁目","koaza":"","lat":43.080229,"lng":141.379893,"zip":"0650041"},{"town":"本町一条二丁目","koaza":"","lat":43.079743,"lng":141.382604,"zip":"0650041"},{"town":"本町一条三丁目","koaza":"","lat":43.078566,"lng":141.384944,"zip":"0650041"},{"town":"本町一条四丁目","koaza":"","lat":43.077899,"lng":141.387139,"zip":"0650041"},{"town":"本町一条五丁目","koaza":"","lat":43.077034,"lng":141.388974,"zip":"0650041"},{"town":"本町一条六丁目","koaza":"","lat":43.076607,"lng":141.390668,"zip":"0650041"},{"town":"本町一条七丁目","koaza":"","lat":43.075593,"lng":141.392238,"zip":"0650041"},{"town":"本町一条八丁目","koaza":"","lat":43.075066,"lng":141.394158,"zip":"0650041"},{"town":"本町一条九丁目","koaza":"","lat":43.074343,"lng":141.395928,"zip":"0650041"},{"town":"本町二条十丁目","koaza":"","lat":43.075281,"lng":141.400011,"zip":"0650042"},{"town":"本町二条十一丁目","koaza":"","lat":43.074043,"lng":141.401183,"zip":"0650042"},{"town":"本町二条一丁目","koaza":"","lat":43.081873,"lng":141.380807,"zip":"0650042"},{"town":"本町二条二丁目","koaza":"","lat":43.081392,"lng":141.383933,"zip":"0650042"},{"town":"本町二条三丁目","koaza":"","lat":43.080516,"lng":141.386441,"zip":"0650042"},{"town":"本町二条四丁目","koaza":"","lat":43.079703,"lng":141.388712,"zip":"0650042"},{"town":"本町二条五丁目","koaza":"","lat":43.078973,"lng":141.390435,"zip":"0650042"},{"town":"本町二条六丁目","koaza":"","lat":43.078219,"lng":141.391898,"zip":"0650042"},{"town":"本町二条七丁目","koaza":"","lat":43.077317,"lng":141.393546,"zip":"0650042"},{"town":"本町二条八丁目","koaza":"","lat":43.076882,"lng":141.395538,"zip":"0650042"},{"town":"本町二条九丁目","koaza":"","lat":43.076203,"lng":141.397348,"zip":"0650042"},{"town":"モエレ沼公園","koaza":"","lat":43.122131,"lng":141.428317,"zip":"0070011"}]