[{"town":"旭ケ丘一丁目","koaza":"","lat":43.04223,"lng":141.319722,"zip":"0640941"},{"town":"旭ケ丘二丁目","koaza":"","lat":43.039768,"lng":141.321733,"zip":"0640941"},{"town":"旭ケ丘三丁目","koaza":"","lat":43.039569,"lng":141.319617,"zip":"0640941"},{"town":"旭ケ丘四丁目","koaza":"","lat":43.038819,"lng":141.32304,"zip":"0640941"},{"town":"旭ケ丘五丁目","koaza":"","lat":43.036547,"lng":141.322217,"zip":"0640941"},{"town":"旭ケ丘六丁目","koaza":"","lat":43.037676,"lng":141.318922,"zip":"0640941"},{"town":"大通西十丁目","koaza":"","lat":43.059131,"lng":141.341914,"zip":"0600042"},{"town":"大通西十一丁目","koaza":"","lat":43.058906,"lng":141.34036,"zip":"0600042"},{"town":"大通西十二丁目","koaza":"","lat":43.058673,"lng":141.338831,"zip":"0600042"},{"town":"大通西十三丁目","koaza":"","lat":43.058456,"lng":141.337283,"zip":"0600042"},{"town":"大通西十四丁目","koaza":"","lat":43.058274,"lng":141.335727,"zip":"0600042"},{"town":"大通西十五丁目","koaza":"","lat":43.058085,"lng":141.334155,"zip":"0600042"},{"town":"大通西十六丁目","koaza":"","lat":43.057873,"lng":141.33259,"zip":"0600042"},{"town":"大通西十七丁目","koaza":"","lat":43.057661,"lng":141.331028,"zip":"0600042"},{"town":"大通西十八丁目","koaza":"","lat":43.057449,"lng":141.329491,"zip":"0600042"},{"town":"大通西十九丁目","koaza":"","lat":43.057233,"lng":141.327933,"zip":"0600042"},{"town":"大通西一丁目","koaza":"","lat":43.061017,"lng":141.356364,"zip":"0600042"},{"town":"大通西二十丁目","koaza":"","lat":43.057218,"lng":141.326249,"zip":"0600042"},{"town":"大通西二十一丁目","koaza":"","lat":43.057136,"lng":141.324987,"zip":"0600042"},{"town":"大通西二十二丁目","koaza":"","lat":43.056988,"lng":141.32363,"zip":"0600042"},{"town":"大通西二十三丁目","koaza":"","lat":43.0568,"lng":141.32228,"zip":"0600042"},{"town":"大通西二十四丁目","koaza":"","lat":43.056707,"lng":141.320761,"zip":"0600042"},{"town":"大通西二十五丁目","koaza":"","lat":43.056346,"lng":141.319514,"zip":"0600042"},{"town":"大通西二十六丁目","koaza":"","lat":43.056156,"lng":141.318176,"zip":"0600042"},{"town":"大通西二十七丁目","koaza":"","lat":43.056022,"lng":141.316522,"zip":"0600042"},{"town":"大通西二十八丁目","koaza":"","lat":43.055779,"lng":141.314698,"zip":"0600042"},{"town":"大通西二丁目","koaza":"","lat":43.060797,"lng":141.354447,"zip":"0600042"},{"town":"大通西三丁目","koaza":"","lat":43.060858,"lng":141.35275,"zip":"0600042"},{"town":"大通西四丁目","koaza":"","lat":43.060386,"lng":141.35126,"zip":"0600042"},{"town":"大通西五丁目","koaza":"","lat":43.060166,"lng":141.349754,"zip":"0600042"},{"town":"大通西六丁目","koaza":"","lat":43.059916,"lng":141.348201,"zip":"0600042"},{"town":"大通西七丁目","koaza":"","lat":43.059742,"lng":141.34663,"zip":"0600042"},{"town":"大通西八丁目","koaza":"","lat":43.059574,"lng":141.345058,"zip":"0600042"},{"town":"大通西九丁目","koaza":"","lat":43.05935,"lng":141.343501,"zip":"0600042"},{"town":"大通東十丁目","koaza":"","lat":43.064148,"lng":141.372048,"zip":"0600041"},{"town":"大通東十一丁目","koaza":"","lat":43.064585,"lng":141.373969,"zip":"0600041"},{"town":"大通東十二丁目","koaza":"","lat":43.06501,"lng":141.375916,"zip":"0600041"},{"town":"大通東十三丁目","koaza":"","lat":43.065476,"lng":141.37778,"zip":"0600041"},{"town":"大通東十四丁目","koaza":"","lat":43.066055,"lng":141.380447,"zip":"0600041"},{"town":"大通東一丁目","koaza":"","lat":43.061993,"lng":141.357779,"zip":"0600041"},{"town":"大通東二丁目","koaza":"","lat":43.062128,"lng":141.359456,"zip":"0600041"},{"town":"大通東三丁目","koaza":"","lat":43.06221,"lng":141.361058,"zip":"0600041"},{"town":"大通東四丁目","koaza":"","lat":43.062463,"lng":141.362827,"zip":"0600041"},{"town":"大通東五丁目","koaza":"","lat":43.062815,"lng":141.364282,"zip":"0600041"},{"town":"大通東六丁目","koaza":"","lat":43.063032,"lng":141.365785,"zip":"0600041"},{"town":"大通東七丁目","koaza":"","lat":43.063186,"lng":141.367297,"zip":"0600041"},{"town":"大通東八丁目","koaza":"","lat":43.063429,"lng":141.368773,"zip":"0600041"},{"town":"大通東九丁目","koaza":"","lat":43.063773,"lng":141.370381,"zip":"0600041"},{"town":"北十条西十四丁目","koaza":"","lat":43.070416,"lng":141.332239,"zip":"0600010"},{"town":"北十条西十五丁目","koaza":"","lat":43.070637,"lng":141.330969,"zip":"0600010"},{"town":"北十条西十六丁目","koaza":"","lat":43.070386,"lng":141.329404,"zip":"0600010"},{"town":"北十条西十七丁目","koaza":"","lat":43.070173,"lng":141.327859,"zip":"0600010"},{"town":"北十条西十八丁目","koaza":"","lat":43.069961,"lng":141.326302,"zip":"0600010"},{"town":"北十条西十九丁目","koaza":"","lat":43.069746,"lng":141.324742,"zip":"0600010"},{"town":"北十条西二十丁目","koaza":"","lat":43.069529,"lng":141.323187,"zip":"0600010"},{"town":"北十条西二十一丁目","koaza":"","lat":43.069474,"lng":141.321595,"zip":"0600010"},{"town":"北十条西二十二丁目","koaza":"","lat":43.069199,"lng":141.320499,"zip":"0600010"},{"town":"北十条西二十三丁目","koaza":"","lat":43.068986,"lng":141.31945,"zip":"0600010"},{"town":"北十条西二十四丁目","koaza":"","lat":43.069501,"lng":141.317954,"zip":"0600010"},{"town":"北十一条西十三丁目","koaza":"","lat":43.071273,"lng":141.335039,"zip":"0600011"},{"town":"北十一条西十四丁目","koaza":"","lat":43.072783,"lng":141.33344,"zip":"0600011"},{"town":"北十一条西十五丁目","koaza":"","lat":43.071082,"lng":141.332067,"zip":"0600011"},{"town":"北十一条西十六丁目","koaza":"","lat":43.071555,"lng":141.329043,"zip":"0600011"},{"town":"北十一条西十七丁目","koaza":"","lat":43.071354,"lng":141.327557,"zip":"0600011"},{"town":"北十一条西十八丁目","koaza":"","lat":43.071093,"lng":141.326022,"zip":"0600011"},{"town":"北十一条西十九丁目","koaza":"","lat":43.07088,"lng":141.324461,"zip":"0600011"},{"town":"北十一条西二十丁目","koaza":"","lat":43.07069,"lng":141.322896,"zip":"0600011"},{"town":"北十一条西二十一丁目","koaza":"","lat":43.070573,"lng":141.321339,"zip":"0600011"},{"town":"北十一条西二十二丁目","koaza":"","lat":43.070493,"lng":141.320218,"zip":"0600011"},{"town":"北十一条西二十三丁目","koaza":"","lat":43.070019,"lng":141.319435,"zip":"0600011"},{"town":"北十一条西二十四丁目","koaza":"","lat":43.070598,"lng":141.318309,"zip":"0600011"},{"town":"北十二条西十五丁目","koaza":"","lat":43.07267,"lng":141.330941,"zip":"0600012"},{"town":"北十二条西十六丁目","koaza":"","lat":43.072425,"lng":141.328857,"zip":"0600012"},{"town":"北十二条西十七丁目","koaza":"","lat":43.072443,"lng":141.327321,"zip":"0600012"},{"town":"北十二条西十八丁目","koaza":"","lat":43.072266,"lng":141.325747,"zip":"0600012"},{"town":"北十二条西十九丁目","koaza":"","lat":43.072027,"lng":141.324176,"zip":"0600012"},{"town":"北十二条西二十丁目","koaza":"","lat":43.073117,"lng":141.321139,"zip":"0600012"},{"town":"北十二条西二十三丁目","koaza":"","lat":43.071253,"lng":141.318917,"zip":"0600012"},{"town":"北十三条西十五丁目","koaza":"","lat":43.073896,"lng":141.331349,"zip":"0600013"},{"town":"北十三条西十六丁目","koaza":"","lat":43.073573,"lng":141.328417,"zip":"0600013"},{"town":"北十三条西十七丁目","koaza":"","lat":43.073277,"lng":141.327041,"zip":"0600013"},{"town":"北十三条西十八丁目","koaza":"","lat":43.073319,"lng":141.325366,"zip":"0600013"},{"town":"北十三条西十九丁目","koaza":"","lat":43.07333,"lng":141.323843,"zip":"0600013"},{"town":"北十四条西十五丁目","koaza":"","lat":43.075083,"lng":141.331369,"zip":"0600014"},{"town":"北十四条西十八丁目","koaza":"","lat":43.074007,"lng":141.325403,"zip":"0600014"},{"town":"北十四条西十九丁目","koaza":"","lat":43.074029,"lng":141.323833,"zip":"0600014"},{"town":"北十四条西二十丁目","koaza":"","lat":43.074842,"lng":141.321375,"zip":"0600014"},{"town":"北十五条西十五丁目","koaza":"","lat":43.076849,"lng":141.330731,"zip":"0600015"},{"town":"北十五条西十九丁目","koaza":"","lat":43.074483,"lng":141.32429,"zip":"0600015"},{"town":"北十六条西十五丁目","koaza":"","lat":43.077958,"lng":141.330489,"zip":"0600016"},{"town":"北十六条西十六丁目","koaza":"","lat":43.077659,"lng":141.325821,"zip":"0600016"},{"town":"北十六条西二十丁目","koaza":"","lat":43.075162,"lng":141.322766,"zip":"0600016"},{"town":"北十六条西二十一丁目","koaza":"","lat":43.075782,"lng":141.320814,"zip":"0600016"},{"town":"北十七条西十五丁目","koaza":"","lat":43.078942,"lng":141.330265,"zip":"0600017"},{"town":"北十八条西十五丁目","koaza":"","lat":43.08045,"lng":141.329941,"zip":"0600018"},{"town":"北一条西十丁目","koaza":"","lat":43.060951,"lng":141.341495,"zip":"0600001"},{"town":"北一条西十一丁目","koaza":"","lat":43.060726,"lng":141.339926,"zip":"0600001"},{"town":"北一条西十二丁目","koaza":"","lat":43.060483,"lng":141.33837,"zip":"0600001"},{"town":"北一条西十三丁目","koaza":"","lat":43.06026,"lng":141.336825,"zip":"0600001"},{"town":"北一条西十四丁目","koaza":"","lat":43.060082,"lng":141.335261,"zip":"0600001"},{"town":"北一条西十五丁目","koaza":"","lat":43.059907,"lng":141.333709,"zip":"0600001"},{"town":"北一条西十六丁目","koaza":"","lat":43.059689,"lng":141.332147,"zip":"0600001"},{"town":"北一条西十七丁目","koaza":"","lat":43.059475,"lng":141.330571,"zip":"0600001"},{"town":"北一条西十八丁目","koaza":"","lat":43.059263,"lng":141.329015,"zip":"0600001"},{"town":"北一条西十九丁目","koaza":"","lat":43.059042,"lng":141.327455,"zip":"0600001"},{"town":"北一条西一丁目","koaza":"","lat":43.062833,"lng":141.355697,"zip":"0600001"},{"town":"北一条西二十丁目","koaza":"","lat":43.058892,"lng":141.325884,"zip":"0600001"},{"town":"北一条西二十一丁目","koaza":"","lat":43.058649,"lng":141.32452,"zip":"0600001"},{"town":"北一条西二十二丁目","koaza":"","lat":43.058486,"lng":141.323258,"zip":"0600001"},{"town":"北一条西二十三丁目","koaza":"","lat":43.058305,"lng":141.32192,"zip":"0600001"},{"town":"北一条西二十四丁目","koaza":"","lat":43.058122,"lng":141.320568,"zip":"0600001"},{"town":"北一条西二十五丁目","koaza":"","lat":43.058194,"lng":141.319177,"zip":"0600001"},{"town":"北一条西二十六丁目","koaza":"","lat":43.058014,"lng":141.317496,"zip":"0600001"},{"town":"北一条西二十七丁目","koaza":"","lat":43.057651,"lng":141.316144,"zip":"0600001"},{"town":"北一条西二十八丁目","koaza":"","lat":43.0573,"lng":141.31437,"zip":"0600001"},{"town":"北一条西二丁目","koaza":"","lat":43.062505,"lng":141.353851,"zip":"0600001"},{"town":"北一条西三丁目","koaza":"","lat":43.062437,"lng":141.352354,"zip":"0600001"},{"town":"北一条西四丁目","koaza":"","lat":43.062205,"lng":141.350808,"zip":"0600001"},{"town":"北一条西五丁目","koaza":"","lat":43.061986,"lng":141.349295,"zip":"0600001"},{"town":"北一条西六丁目","koaza":"","lat":43.06173,"lng":141.347738,"zip":"0600001"},{"town":"北一条西七丁目","koaza":"","lat":43.061551,"lng":141.346201,"zip":"0600001"},{"town":"北一条西八丁目","koaza":"","lat":43.061306,"lng":141.344511,"zip":"0600001"},{"town":"北一条西九丁目","koaza":"","lat":43.061218,"lng":141.343057,"zip":"0600001"},{"town":"北一条東十丁目","koaza":"","lat":43.065394,"lng":141.372054,"zip":"0600031"},{"town":"北一条東十一丁目","koaza":"","lat":43.065683,"lng":141.373976,"zip":"0600031"},{"town":"北一条東十二丁目","koaza":"","lat":43.065959,"lng":141.376069,"zip":"0600031"},{"town":"北一条東十三丁目","koaza":"","lat":43.066193,"lng":141.378188,"zip":"0600031"},{"town":"北一条東十四丁目","koaza":"","lat":43.066762,"lng":141.379891,"zip":"0600031"},{"town":"北一条東十五丁目","koaza":"","lat":43.066863,"lng":141.381548,"zip":"0600031"},{"town":"北一条東十六丁目","koaza":"","lat":43.067247,"lng":141.382784,"zip":"0600031"},{"town":"北一条東十七丁目","koaza":"","lat":43.067656,"lng":141.384156,"zip":"0600031"},{"town":"北一条東十八丁目","koaza":"","lat":43.068056,"lng":141.385449,"zip":"0600031"},{"town":"北一条東十九丁目","koaza":"","lat":43.068386,"lng":141.386843,"zip":"0600031"},{"town":"北一条東一丁目","koaza":"","lat":43.063312,"lng":141.357463,"zip":"0600031"},{"town":"北一条東二丁目","koaza":"","lat":43.063651,"lng":141.359082,"zip":"0600031"},{"town":"北一条東三丁目","koaza":"","lat":43.063848,"lng":141.360613,"zip":"0600031"},{"town":"北一条東四丁目","koaza":"","lat":43.064011,"lng":141.362098,"zip":"0600031"},{"town":"北一条東五丁目","koaza":"","lat":43.064397,"lng":141.363856,"zip":"0600031"},{"town":"北一条東六丁目","koaza":"","lat":43.064471,"lng":141.365303,"zip":"0600031"},{"town":"北一条東七丁目","koaza":"","lat":43.064747,"lng":141.366875,"zip":"0600031"},{"town":"北一条東八丁目","koaza":"","lat":43.064922,"lng":141.368488,"zip":"0600031"},{"town":"北一条東九丁目","koaza":"","lat":43.065173,"lng":141.37018,"zip":"0600031"},{"town":"北二十条西十五丁目","koaza":"","lat":43.082495,"lng":141.328326,"zip":"0600020"},{"town":"北二十一条西十五丁目","koaza":"","lat":43.084055,"lng":141.328661,"zip":"0600021"},{"town":"北二十二条西十五丁目","koaza":"","lat":43.085343,"lng":141.328444,"zip":"0600022"},{"town":"北二条西十丁目","koaza":"","lat":43.062396,"lng":141.341152,"zip":"0600002"},{"town":"北二条西十一丁目","koaza":"","lat":43.062179,"lng":141.339546,"zip":"0600002"},{"town":"北二条西十二丁目","koaza":"","lat":43.061971,"lng":141.337998,"zip":"0600002"},{"town":"北二条西十三丁目","koaza":"","lat":43.061767,"lng":141.336456,"zip":"0600002"},{"town":"北二条西十四丁目","koaza":"","lat":43.061559,"lng":141.334894,"zip":"0600002"},{"town":"北二条西十五丁目","koaza":"","lat":43.061357,"lng":141.333343,"zip":"0600002"},{"town":"北二条西十六丁目","koaza":"","lat":43.06114,"lng":141.331785,"zip":"0600002"},{"town":"北二条西十七丁目","koaza":"","lat":43.060924,"lng":141.330211,"zip":"0600002"},{"town":"北二条西十八丁目","koaza":"","lat":43.060715,"lng":141.328652,"zip":"0600002"},{"town":"北二条西十九丁目","koaza":"","lat":43.060489,"lng":141.327087,"zip":"0600002"},{"town":"北二条西一丁目","koaza":"","lat":43.064335,"lng":141.355313,"zip":"0600002"},{"town":"北二条西二十丁目","koaza":"","lat":43.060279,"lng":141.325526,"zip":"0600002"},{"town":"北二条西二十一丁目","koaza":"","lat":43.060094,"lng":141.324135,"zip":"0600002"},{"town":"北二条西二十二丁目","koaza":"","lat":43.05992,"lng":141.322887,"zip":"0600002"},{"town":"北二条西二十三丁目","koaza":"","lat":43.059738,"lng":141.321571,"zip":"0600002"},{"town":"北二条西二十四丁目","koaza":"","lat":43.059578,"lng":141.320222,"zip":"0600002"},{"town":"北二条西二十五丁目","koaza":"","lat":43.059489,"lng":141.318823,"zip":"0600002"},{"town":"北二条西二十六丁目","koaza":"","lat":43.059336,"lng":141.317313,"zip":"0600002"},{"town":"北二条西二十七丁目","koaza":"","lat":43.058966,"lng":141.315833,"zip":"0600002"},{"town":"北二条西二十八丁目","koaza":"","lat":43.058773,"lng":141.314017,"zip":"0600002"},{"town":"北二条西二丁目","koaza":"","lat":43.06411,"lng":141.353607,"zip":"0600002"},{"town":"北二条西三丁目","koaza":"","lat":43.063886,"lng":141.351987,"zip":"0600002"},{"town":"北二条西四丁目","koaza":"","lat":43.063675,"lng":141.35044,"zip":"0600002"},{"town":"北二条西五丁目","koaza":"","lat":43.063458,"lng":141.348922,"zip":"0600002"},{"town":"北二条西六丁目","koaza":"","lat":43.063243,"lng":141.347352,"zip":"0600002"},{"town":"北二条西七丁目","koaza":"","lat":43.063047,"lng":141.345854,"zip":"0600002"},{"town":"北二条西八丁目","koaza":"","lat":43.062834,"lng":141.344359,"zip":"0600002"},{"town":"北二条西九丁目","koaza":"","lat":43.062615,"lng":141.342782,"zip":"0600002"},{"town":"北二条東十丁目","koaza":"","lat":43.066575,"lng":141.371755,"zip":"0600032"},{"town":"北二条東十一丁目","koaza":"","lat":43.066854,"lng":141.373739,"zip":"0600032"},{"town":"北二条東十二丁目","koaza":"","lat":43.067201,"lng":141.375743,"zip":"0600032"},{"town":"北二条東十三丁目","koaza":"","lat":43.067457,"lng":141.37753,"zip":"0600032"},{"town":"北二条東十四丁目","koaza":"","lat":43.067902,"lng":141.37907,"zip":"0600032"},{"town":"北二条東十五丁目","koaza":"","lat":43.068079,"lng":141.380574,"zip":"0600032"},{"town":"北二条東十六丁目","koaza":"","lat":43.068445,"lng":141.381548,"zip":"0600032"},{"town":"北二条東十七丁目","koaza":"","lat":43.068796,"lng":141.383279,"zip":"0600032"},{"town":"北二条東十八丁目","koaza":"","lat":43.068899,"lng":141.384619,"zip":"0600032"},{"town":"北二条東十九丁目","koaza":"","lat":43.069147,"lng":141.386057,"zip":"0600032"},{"town":"北二条東一丁目","koaza":"","lat":43.064578,"lng":141.357122,"zip":"0600032"},{"town":"北二条東二十丁目","koaza":"","lat":43.068998,"lng":141.387994,"zip":"0600032"},{"town":"北二条東二丁目","koaza":"","lat":43.064806,"lng":141.358797,"zip":"0600032"},{"town":"北二条東三丁目","koaza":"","lat":43.06512,"lng":141.360476,"zip":"0600032"},{"town":"北二条東四丁目","koaza":"","lat":43.065254,"lng":141.361919,"zip":"0600032"},{"town":"北二条東五丁目","koaza":"","lat":43.065399,"lng":141.363196,"zip":"0600032"},{"town":"北二条東六丁目","koaza":"","lat":43.06559,"lng":141.364481,"zip":"0600032"},{"town":"北二条東七丁目","koaza":"","lat":43.065766,"lng":141.365943,"zip":"0600032"},{"town":"北二条東八丁目","koaza":"","lat":43.066085,"lng":141.36819,"zip":"0600032"},{"town":"北二条東九丁目","koaza":"","lat":43.066311,"lng":141.369828,"zip":"0600032"},{"town":"北三条西十丁目","koaza":"","lat":43.06358,"lng":141.340873,"zip":"0600003"},{"town":"北三条西十一丁目","koaza":"","lat":43.063369,"lng":141.339247,"zip":"0600003"},{"town":"北三条西十二丁目","koaza":"","lat":43.063162,"lng":141.337707,"zip":"0600003"},{"town":"北三条西十三丁目","koaza":"","lat":43.062952,"lng":141.336177,"zip":"0600003"},{"town":"北三条西十四丁目","koaza":"","lat":43.062745,"lng":141.334608,"zip":"0600003"},{"town":"北三条西十五丁目","koaza":"","lat":43.062533,"lng":141.333027,"zip":"0600003"},{"town":"北三条西十六丁目","koaza":"","lat":43.062321,"lng":141.33147,"zip":"0600003"},{"town":"北三条西十七丁目","koaza":"","lat":43.062108,"lng":141.329913,"zip":"0600003"},{"town":"北三条西十八丁目","koaza":"","lat":43.061893,"lng":141.328356,"zip":"0600003"},{"town":"北三条西十九丁目","koaza":"","lat":43.061681,"lng":141.32679,"zip":"0600003"},{"town":"北三条西一丁目","koaza":"","lat":43.065534,"lng":141.355012,"zip":"0600003"},{"town":"北三条西二十丁目","koaza":"","lat":43.061472,"lng":141.325224,"zip":"0600003"},{"town":"北三条西二十一丁目","koaza":"","lat":43.061202,"lng":141.323677,"zip":"0600003"},{"town":"北三条西二十二丁目","koaza":"","lat":43.061091,"lng":141.32253,"zip":"0600003"},{"town":"北三条西二十三丁目","koaza":"","lat":43.060932,"lng":141.321287,"zip":"0600003"},{"town":"北三条西二十四丁目","koaza":"","lat":43.060749,"lng":141.31994,"zip":"0600003"},{"town":"北三条西二十五丁目","koaza":"","lat":43.060544,"lng":141.318519,"zip":"0600003"},{"town":"北三条西二十六丁目","koaza":"","lat":43.060348,"lng":141.317021,"zip":"0600003"},{"town":"北三条西二十七丁目","koaza":"","lat":43.060174,"lng":141.315543,"zip":"0600003"},{"town":"北三条西二十八丁目","koaza":"","lat":43.059813,"lng":141.314157,"zip":"0600003"},{"town":"北三条西二十九丁目","koaza":"","lat":43.059725,"lng":141.312717,"zip":"0600003"},{"town":"北三条西二丁目","koaza":"","lat":43.065306,"lng":141.353307,"zip":"0600003"},{"town":"北三条西三十丁目","koaza":"","lat":43.059463,"lng":141.311107,"zip":"0600003"},{"town":"北三条西三丁目","koaza":"","lat":43.065075,"lng":141.351683,"zip":"0600003"},{"town":"北三条西四丁目","koaza":"","lat":43.064863,"lng":141.35013,"zip":"0600003"},{"town":"北三条西五丁目","koaza":"","lat":43.064652,"lng":141.348623,"zip":"0600003"},{"town":"北三条西六丁目","koaza":"","lat":43.064438,"lng":141.34706,"zip":"0600003"},{"town":"北三条西七丁目","koaza":"","lat":43.064262,"lng":141.345257,"zip":"0600003"},{"town":"北三条西八丁目","koaza":"","lat":43.064002,"lng":141.344033,"zip":"0600003"},{"town":"北三条西九丁目","koaza":"","lat":43.063796,"lng":141.342513,"zip":"0600003"},{"town":"北三条東十丁目","koaza":"","lat":43.06772,"lng":141.371454,"zip":"0600033"},{"town":"北三条東十一丁目","koaza":"","lat":43.067893,"lng":141.37315,"zip":"0600033"},{"town":"北三条東十二丁目","koaza":"","lat":43.06806,"lng":141.375232,"zip":"0600033"},{"town":"北三条東十三丁目","koaza":"","lat":43.068425,"lng":141.377057,"zip":"0600033"},{"town":"北三条東十四丁目","koaza":"","lat":43.068728,"lng":141.378421,"zip":"0600033"},{"town":"北三条東十五丁目","koaza":"","lat":43.068957,"lng":141.379967,"zip":"0600033"},{"town":"北三条東一丁目","koaza":"","lat":43.065768,"lng":141.356822,"zip":"0600033"},{"town":"北三条東二丁目","koaza":"","lat":43.065999,"lng":141.358504,"zip":"0600033"},{"town":"北三条東三丁目","koaza":"","lat":43.066206,"lng":141.360032,"zip":"0600033"},{"town":"北三条東四丁目","koaza":"","lat":43.066419,"lng":141.361526,"zip":"0600033"},{"town":"北三条東五丁目","koaza":"","lat":43.066617,"lng":141.363189,"zip":"0600033"},{"town":"北三条東六丁目","koaza":"","lat":43.066721,"lng":141.364796,"zip":"0600033"},{"town":"北三条東七丁目","koaza":"","lat":43.067013,"lng":141.366304,"zip":"0600033"},{"town":"北三条東八丁目","koaza":"","lat":43.067246,"lng":141.36786,"zip":"0600033"},{"town":"北三条東九丁目","koaza":"","lat":43.067673,"lng":141.369457,"zip":"0600033"},{"town":"北四条西十丁目","koaza":"","lat":43.064774,"lng":141.340535,"zip":"0600004"},{"town":"北四条西十一丁目","koaza":"","lat":43.064566,"lng":141.338951,"zip":"0600004"},{"town":"北四条西十二丁目","koaza":"","lat":43.064357,"lng":141.337403,"zip":"0600004"},{"town":"北四条西十三丁目","koaza":"","lat":43.064143,"lng":141.335864,"zip":"0600004"},{"town":"北四条西十四丁目","koaza":"","lat":43.063931,"lng":141.334295,"zip":"0600004"},{"town":"北四条西十五丁目","koaza":"","lat":43.06372,"lng":141.33272,"zip":"0600004"},{"town":"北四条西十六丁目","koaza":"","lat":43.06351,"lng":141.331163,"zip":"0600004"},{"town":"北四条西十七丁目","koaza":"","lat":43.063298,"lng":141.329605,"zip":"0600004"},{"town":"北四条西十八丁目","koaza":"","lat":43.063086,"lng":141.328048,"zip":"0600004"},{"town":"北四条西十九丁目","koaza":"","lat":43.062873,"lng":141.326488,"zip":"0600004"},{"town":"北四条西一丁目","koaza":"","lat":43.066714,"lng":141.354724,"zip":"0600004"},{"town":"北四条西二十丁目","koaza":"","lat":43.062661,"lng":141.324927,"zip":"0600004"},{"town":"北四条西二十一丁目","koaza":"","lat":43.062474,"lng":141.323511,"zip":"0600004"},{"town":"北四条西二十二丁目","koaza":"","lat":43.062427,"lng":141.322234,"zip":"0600004"},{"town":"北四条西二十三丁目","koaza":"","lat":43.062133,"lng":141.320998,"zip":"0600004"},{"town":"北四条西二十四丁目","koaza":"","lat":43.06195,"lng":141.319648,"zip":"0600004"},{"town":"北四条西二十五丁目","koaza":"","lat":43.06177,"lng":141.318373,"zip":"0600004"},{"town":"北四条西二十六丁目","koaza":"","lat":43.061545,"lng":141.31674,"zip":"0600004"},{"town":"北四条西二十七丁目","koaza":"","lat":43.06148,"lng":141.315363,"zip":"0600004"},{"town":"北四条西二十八丁目","koaza":"","lat":43.060961,"lng":141.313562,"zip":"0600004"},{"town":"北四条西二十九丁目","koaza":"","lat":43.060907,"lng":141.312125,"zip":"0600004"},{"town":"北四条西二丁目","koaza":"","lat":43.066491,"lng":141.353019,"zip":"0600004"},{"town":"北四条西三十丁目","koaza":"","lat":43.060812,"lng":141.311406,"zip":"0600004"},{"town":"北四条西三丁目","koaza":"","lat":43.066256,"lng":141.351398,"zip":"0600004"},{"town":"北四条西四丁目","koaza":"","lat":43.066045,"lng":141.349832,"zip":"0600004"},{"town":"北四条西五丁目","koaza":"","lat":43.065851,"lng":141.348314,"zip":"0600004"},{"town":"北四条西六丁目","koaza":"","lat":43.065632,"lng":141.346764,"zip":"0600004"},{"town":"北四条西七丁目","koaza":"","lat":43.065419,"lng":141.345249,"zip":"0600004"},{"town":"北四条西八丁目","koaza":"","lat":43.0652,"lng":141.343695,"zip":"0600004"},{"town":"北四条西九丁目","koaza":"","lat":43.064983,"lng":141.342109,"zip":"0600004"},{"town":"北四条東一丁目","koaza":"","lat":43.066954,"lng":141.356524,"zip":"0600034"},{"town":"北四条東二丁目","koaza":"","lat":43.067191,"lng":141.358201,"zip":"0600034"},{"town":"北四条東三丁目","koaza":"","lat":43.067409,"lng":141.359728,"zip":"0600034"},{"town":"北四条東四丁目","koaza":"","lat":43.067756,"lng":141.361319,"zip":"0600034"},{"town":"北四条東五丁目","koaza":"","lat":43.067833,"lng":141.362821,"zip":"0600034"},{"town":"北四条東六丁目","koaza":"","lat":43.067858,"lng":141.364334,"zip":"0600034"},{"town":"北四条東七丁目","koaza":"","lat":43.068044,"lng":141.366031,"zip":"0600034"},{"town":"北四条東八丁目","koaza":"","lat":43.068098,"lng":141.367616,"zip":"0600034"},{"town":"北五条西十丁目","koaza":"","lat":43.06593,"lng":141.340193,"zip":"0600005"},{"town":"北五条西十一丁目","koaza":"","lat":43.065726,"lng":141.338659,"zip":"0600005"},{"town":"北五条西十二丁目","koaza":"","lat":43.065518,"lng":141.337105,"zip":"0600005"},{"town":"北五条西十三丁目","koaza":"","lat":43.065312,"lng":141.335546,"zip":"0600005"},{"town":"北五条西十四丁目","koaza":"","lat":43.065096,"lng":141.333985,"zip":"0600005"},{"town":"北五条西十五丁目","koaza":"","lat":43.064882,"lng":141.332426,"zip":"0600005"},{"town":"北五条西十六丁目","koaza":"","lat":43.064673,"lng":141.330869,"zip":"0600005"},{"town":"北五条西十七丁目","koaza":"","lat":43.064463,"lng":141.329309,"zip":"0600005"},{"town":"北五条西十八丁目","koaza":"","lat":43.064251,"lng":141.327748,"zip":"0600005"},{"town":"北五条西十九丁目","koaza":"","lat":43.064035,"lng":141.326188,"zip":"0600005"},{"town":"北五条西一丁目","koaza":"","lat":43.068061,"lng":141.354533,"zip":"0600005"},{"town":"北五条西二十丁目","koaza":"","lat":43.063824,"lng":141.324631,"zip":"0600005"},{"town":"北五条西二十一丁目","koaza":"","lat":43.063636,"lng":141.323207,"zip":"0600005"},{"town":"北五条西二十二丁目","koaza":"","lat":43.063441,"lng":141.321982,"zip":"0600005"},{"town":"北五条西二十三丁目","koaza":"","lat":43.063303,"lng":141.320704,"zip":"0600005"},{"town":"北五条西二十四丁目","koaza":"","lat":43.063108,"lng":141.319353,"zip":"0600005"},{"town":"北五条西二十五丁目","koaza":"","lat":43.062824,"lng":141.317388,"zip":"0600005"},{"town":"北五条西二十六丁目","koaza":"","lat":43.062367,"lng":141.316195,"zip":"0600005"},{"town":"北五条西二十七丁目","koaza":"","lat":43.062652,"lng":141.314898,"zip":"0600005"},{"town":"北五条西二十八丁目","koaza":"","lat":43.062304,"lng":141.313684,"zip":"0600005"},{"town":"北五条西二十九丁目","koaza":"","lat":43.06221,"lng":141.312268,"zip":"0600005"},{"town":"北五条西二丁目","koaza":"","lat":43.067903,"lng":141.352832,"zip":"0600005"},{"town":"北五条西三丁目","koaza":"","lat":43.067525,"lng":141.351092,"zip":"0600005"},{"town":"北五条西四丁目","koaza":"","lat":43.067341,"lng":141.349523,"zip":"0600005"},{"town":"北五条西五丁目","koaza":"","lat":43.067116,"lng":141.347995,"zip":"0600005"},{"town":"北五条西六丁目","koaza":"","lat":43.066787,"lng":141.346475,"zip":"0600005"},{"town":"北五条西七丁目","koaza":"","lat":43.06652,"lng":141.34498,"zip":"0600005"},{"town":"北五条西八丁目","koaza":"","lat":43.066318,"lng":141.343369,"zip":"0600005"},{"town":"北五条西九丁目","koaza":"","lat":43.066255,"lng":141.341685,"zip":"0600005"},{"town":"北五条東一丁目","koaza":"","lat":43.068034,"lng":141.35625,"zip":"0600035"},{"town":"北五条東二丁目","koaza":"","lat":43.06813,"lng":141.35796,"zip":"0600035"},{"town":"北五条東三丁目","koaza":"","lat":43.068323,"lng":141.359426,"zip":"0600035"},{"town":"北六条西十丁目","koaza":"","lat":43.066981,"lng":141.340017,"zip":"0600006"},{"town":"北六条西十一丁目","koaza":"","lat":43.066877,"lng":141.338375,"zip":"0600006"},{"town":"北六条西十二丁目","koaza":"","lat":43.066649,"lng":141.336827,"zip":"0600006"},{"town":"北六条西十三丁目","koaza":"","lat":43.066439,"lng":141.33526,"zip":"0600006"},{"town":"北六条西十四丁目","koaza":"","lat":43.066239,"lng":141.333692,"zip":"0600006"},{"town":"北六条西十五丁目","koaza":"","lat":43.066027,"lng":141.332137,"zip":"0600006"},{"town":"北六条西十六丁目","koaza":"","lat":43.06582,"lng":141.330581,"zip":"0600006"},{"town":"北六条西十七丁目","koaza":"","lat":43.06561,"lng":141.32902,"zip":"0600006"},{"town":"北六条西十八丁目","koaza":"","lat":43.065391,"lng":141.32746,"zip":"0600006"},{"town":"北六条西十九丁目","koaza":"","lat":43.065178,"lng":141.325898,"zip":"0600006"},{"town":"北六条西二十丁目","koaza":"","lat":43.064969,"lng":141.324336,"zip":"0600006"},{"town":"北六条西二十一丁目","koaza":"","lat":43.064809,"lng":141.322938,"zip":"0600006"},{"town":"北六条西二十二丁目","koaza":"","lat":43.064582,"lng":141.321831,"zip":"0600006"},{"town":"北六条西二十三丁目","koaza":"","lat":43.064433,"lng":141.320428,"zip":"0600006"},{"town":"北六条西二十四丁目","koaza":"","lat":43.064247,"lng":141.319071,"zip":"0600006"},{"town":"北六条西二十五丁目","koaza":"","lat":43.063583,"lng":141.317751,"zip":"0600006"},{"town":"北六条西二十六丁目","koaza":"","lat":43.063425,"lng":141.315782,"zip":"0600006"},{"town":"北六条西二十七丁目","koaza":"","lat":43.063974,"lng":141.314471,"zip":"0600006"},{"town":"北六条西二十八丁目","koaza":"","lat":43.063572,"lng":141.313323,"zip":"0600006"},{"town":"北七条西十一丁目","koaza":"","lat":43.067703,"lng":141.337897,"zip":"0600007"},{"town":"北七条西十二丁目","koaza":"","lat":43.067891,"lng":141.336576,"zip":"0600007"},{"town":"北七条西十三丁目","koaza":"","lat":43.067594,"lng":141.334958,"zip":"0600007"},{"town":"北七条西十四丁目","koaza":"","lat":43.067383,"lng":141.333399,"zip":"0600007"},{"town":"北七条西十五丁目","koaza":"","lat":43.067173,"lng":141.331847,"zip":"0600007"},{"town":"北七条西十六丁目","koaza":"","lat":43.066964,"lng":141.330291,"zip":"0600007"},{"town":"北七条西十七丁目","koaza":"","lat":43.066752,"lng":141.328727,"zip":"0600007"},{"town":"北七条西十八丁目","koaza":"","lat":43.066534,"lng":141.327167,"zip":"0600007"},{"town":"北七条西十九丁目","koaza":"","lat":43.066317,"lng":141.325609,"zip":"0600007"},{"town":"北七条西二十丁目","koaza":"","lat":43.066099,"lng":141.324049,"zip":"0600007"},{"town":"北七条西二十一丁目","koaza":"","lat":43.065907,"lng":141.322681,"zip":"0600007"},{"town":"北七条西二十二丁目","koaza":"","lat":43.065737,"lng":141.321464,"zip":"0600007"},{"town":"北七条西二十三丁目","koaza":"","lat":43.065558,"lng":141.320143,"zip":"0600007"},{"town":"北七条西二十四丁目","koaza":"","lat":43.065368,"lng":141.31878,"zip":"0600007"},{"town":"北七条西二十五丁目","koaza":"","lat":43.065219,"lng":141.317287,"zip":"0600007"},{"town":"北七条西二十六丁目","koaza":"","lat":43.065226,"lng":141.315859,"zip":"0600007"},{"town":"北七条西二十七丁目","koaza":"","lat":43.065633,"lng":141.31526,"zip":"0600007"},{"town":"北八条西十二丁目","koaza":"","lat":43.068633,"lng":141.335915,"zip":"0600008"},{"town":"北八条西十三丁目","koaza":"","lat":43.068716,"lng":141.334724,"zip":"0600008"},{"town":"北八条西十四丁目","koaza":"","lat":43.068537,"lng":141.333138,"zip":"0600008"},{"town":"北八条西十五丁目","koaza":"","lat":43.068317,"lng":141.331561,"zip":"0600008"},{"town":"北八条西十六丁目","koaza":"","lat":43.068103,"lng":141.33,"zip":"0600008"},{"town":"北八条西十七丁目","koaza":"","lat":43.067888,"lng":141.328438,"zip":"0600008"},{"town":"北八条西十八丁目","koaza":"","lat":43.067674,"lng":141.326879,"zip":"0600008"},{"town":"北八条西十九丁目","koaza":"","lat":43.067476,"lng":141.325475,"zip":"0600008"},{"town":"北八条西二十丁目","koaza":"","lat":43.067234,"lng":141.323768,"zip":"0600008"},{"town":"北八条西二十一丁目","koaza":"","lat":43.067047,"lng":141.322423,"zip":"0600008"},{"town":"北八条西二十二丁目","koaza":"","lat":43.066879,"lng":141.32132,"zip":"0600008"},{"town":"北八条西二十三丁目","koaza":"","lat":43.066734,"lng":141.320079,"zip":"0600008"},{"town":"北八条西二十四丁目","koaza":"","lat":43.066557,"lng":141.318451,"zip":"0600008"},{"town":"北八条西二十五丁目","koaza":"","lat":43.066925,"lng":141.317382,"zip":"0600008"},{"town":"北八条西二十六丁目","koaza":"","lat":43.066542,"lng":141.316045,"zip":"0600008"},{"town":"北九条西十三丁目","koaza":"","lat":43.06964,"lng":141.334116,"zip":"0600009"},{"town":"北九条西十四丁目","koaza":"","lat":43.069725,"lng":141.332938,"zip":"0600009"},{"town":"北九条西十五丁目","koaza":"","lat":43.069456,"lng":141.331272,"zip":"0600009"},{"town":"北九条西十六丁目","koaza":"","lat":43.06925,"lng":141.329707,"zip":"0600009"},{"town":"北九条西十七丁目","koaza":"","lat":43.069032,"lng":141.328148,"zip":"0600009"},{"town":"北九条西十八丁目","koaza":"","lat":43.068819,"lng":141.326586,"zip":"0600009"},{"town":"北九条西十九丁目","koaza":"","lat":43.068602,"lng":141.32503,"zip":"0600009"},{"town":"北九条西二十丁目","koaza":"","lat":43.068383,"lng":141.323479,"zip":"0600009"},{"town":"北九条西二十一丁目","koaza":"","lat":43.068047,"lng":141.321878,"zip":"0600009"},{"town":"北九条西二十二丁目","koaza":"","lat":43.068022,"lng":141.320817,"zip":"0600009"},{"town":"北九条西二十三丁目","koaza":"","lat":43.067824,"lng":141.319706,"zip":"0600009"},{"town":"北九条西二十四丁目","koaza":"","lat":43.068077,"lng":141.317676,"zip":"0600009"},{"town":"界川一丁目","koaza":"","lat":43.041232,"lng":141.318139,"zip":"0640943"},{"town":"界川二丁目","koaza":"","lat":43.036309,"lng":141.316648,"zip":"0640943"},{"town":"界川三丁目","koaza":"","lat":43.036178,"lng":141.313016,"zip":"0640943"},{"town":"界川四丁目","koaza":"","lat":43.039094,"lng":141.313444,"zip":"0640943"},{"town":"中島公園","koaza":"","lat":43.044502,"lng":141.354139,"zip":"0640931"},{"town":"盤渓","koaza":"","lat":43.022662,"lng":141.268641,"zip":"0640945"},{"town":"伏見一丁目","koaza":"","lat":43.037161,"lng":141.326716,"zip":"0640942"},{"town":"伏見二丁目","koaza":"","lat":43.035746,"lng":141.326477,"zip":"0640942"},{"town":"伏見三丁目","koaza":"","lat":43.032254,"lng":141.324369,"zip":"0640942"},{"town":"伏見四丁目","koaza":"","lat":43.033845,"lng":141.329279,"zip":"0640942"},{"town":"伏見五丁目","koaza":"","lat":43.030687,"lng":141.330788,"zip":"0640942"},{"town":"双子山一丁目","koaza":"","lat":43.044045,"lng":141.318234,"zip":"0640946"},{"town":"双子山二丁目","koaza":"","lat":43.043934,"lng":141.315608,"zip":"0640946"},{"town":"双子山三丁目","koaza":"","lat":43.043338,"lng":141.312937,"zip":"0640946"},{"town":"双子山四丁目","koaza":"","lat":43.041151,"lng":141.312289,"zip":"0640946"},{"town":"円山","koaza":"","lat":43.048597,"lng":141.313997,"zip":"0640944"},{"town":"円山西町","koaza":"","lat":43.035239,"lng":141.302385,"zip":"0640944"},{"town":"円山西町十丁目","koaza":"","lat":43.046263,"lng":141.309887,"zip":"0640944"},{"town":"円山西町一丁目","koaza":"","lat":43.048187,"lng":141.303126,"zip":"0640944"},{"town":"円山西町二丁目","koaza":"","lat":43.044543,"lng":141.301097,"zip":"0640944"},{"town":"円山西町三丁目","koaza":"","lat":43.042976,"lng":141.305137,"zip":"0640944"},{"town":"円山西町四丁目","koaza":"","lat":43.040497,"lng":141.304838,"zip":"0640944"},{"town":"円山西町五丁目","koaza":"","lat":43.037765,"lng":141.303277,"zip":"0640944"},{"town":"円山西町六丁目","koaza":"","lat":43.040835,"lng":141.307494,"zip":"0640944"},{"town":"円山西町七丁目","koaza":"","lat":43.042261,"lng":141.309581,"zip":"0640944"},{"town":"円山西町八丁目","koaza":"","lat":43.044916,"lng":141.306911,"zip":"0640944"},{"town":"円山西町九丁目","koaza":"","lat":43.044591,"lng":141.310856,"zip":"0640944"},{"town":"南十条西十丁目","koaza":"","lat":43.046475,"lng":141.343599,"zip":"0640810"},{"town":"南十条西十一丁目","koaza":"","lat":43.046413,"lng":141.342149,"zip":"0640810"},{"town":"南十条西十二丁目","koaza":"","lat":43.046295,"lng":141.340442,"zip":"0640810"},{"town":"南十条西十三丁目","koaza":"","lat":43.046161,"lng":141.338466,"zip":"0640810"},{"town":"南十条西十四丁目","koaza":"","lat":43.046106,"lng":141.336606,"zip":"0640810"},{"town":"南十条西十五丁目","koaza":"","lat":43.045806,"lng":141.334924,"zip":"0640810"},{"town":"南十条西十六丁目","koaza":"","lat":43.045826,"lng":141.333216,"zip":"0640810"},{"town":"南十条西十七丁目","koaza":"","lat":43.045921,"lng":141.331488,"zip":"0640810"},{"town":"南十条西十八丁目","koaza":"","lat":43.045446,"lng":141.329654,"zip":"0640810"},{"town":"南十条西一丁目","koaza":"","lat":43.047856,"lng":141.35737,"zip":"0640810"},{"town":"南十条西二十丁目","koaza":"","lat":43.045697,"lng":141.327887,"zip":"0640810"},{"town":"南十条西二十一丁目","koaza":"","lat":43.045049,"lng":141.325322,"zip":"0640810"},{"town":"南十条西二十二丁目","koaza":"","lat":43.043717,"lng":141.323518,"zip":"0640810"},{"town":"南十条西二十三丁目","koaza":"","lat":43.042223,"lng":141.321654,"zip":"0640810"},{"town":"南十条西二丁目","koaza":"","lat":43.048833,"lng":141.356825,"zip":"0640810"},{"town":"南十条西三丁目","koaza":"","lat":43.047932,"lng":141.35617,"zip":"0640810"},{"town":"南十条西六丁目","koaza":"","lat":43.047114,"lng":141.351447,"zip":"0640810"},{"town":"南十条西七丁目","koaza":"","lat":43.046666,"lng":141.349011,"zip":"0640810"},{"town":"南十条西八丁目","koaza":"","lat":43.046731,"lng":141.347299,"zip":"0640810"},{"town":"南十条西九丁目","koaza":"","lat":43.046612,"lng":141.345311,"zip":"0640810"},{"town":"南十一条西十丁目","koaza":"","lat":43.04517,"lng":141.343745,"zip":"0640811"},{"town":"南十一条西十一丁目","koaza":"","lat":43.044791,"lng":141.342358,"zip":"0640811"},{"town":"南十一条西十二丁目","koaza":"","lat":43.044954,"lng":141.340616,"zip":"0640811"},{"town":"南十一条西十三丁目","koaza":"","lat":43.04481,"lng":141.338639,"zip":"0640811"},{"town":"南十一条西十四丁目","koaza":"","lat":43.0447,"lng":141.336785,"zip":"0640811"},{"town":"南十一条西十五丁目","koaza":"","lat":43.04459,"lng":141.335084,"zip":"0640811"},{"town":"南十一条西十六丁目","koaza":"","lat":43.044415,"lng":141.333399,"zip":"0640811"},{"town":"南十一条西十七丁目","koaza":"","lat":43.044324,"lng":141.331691,"zip":"0640811"},{"town":"南十一条西十八丁目","koaza":"","lat":43.044205,"lng":141.329985,"zip":"0640811"},{"town":"南十一条西一丁目","koaza":"","lat":43.04584,"lng":141.357416,"zip":"0640811"},{"town":"南十一条西二十丁目","koaza":"","lat":43.044316,"lng":141.328407,"zip":"0640811"},{"town":"南十一条西二十一丁目","koaza":"","lat":43.043804,"lng":141.326149,"zip":"0640811"},{"town":"南十一条西二十二丁目","koaza":"","lat":43.042768,"lng":141.324761,"zip":"0640811"},{"town":"南十一条西二十三丁目","koaza":"","lat":43.041691,"lng":141.323068,"zip":"0640811"},{"town":"南十一条西六丁目","koaza":"","lat":43.045566,"lng":141.350897,"zip":"0640811"},{"town":"南十一条西七丁目","koaza":"","lat":43.045541,"lng":141.34932,"zip":"0640811"},{"town":"南十一条西八丁目","koaza":"","lat":43.045418,"lng":141.347471,"zip":"0640811"},{"town":"南十一条西九丁目","koaza":"","lat":43.045353,"lng":141.345333,"zip":"0640811"},{"town":"南十二条西十丁目","koaza":"","lat":43.043974,"lng":141.343785,"zip":"0640912"},{"town":"南十二条西十一丁目","koaza":"","lat":43.043603,"lng":141.342634,"zip":"0640912"},{"town":"南十二条西十二丁目","koaza":"","lat":43.04363,"lng":141.341106,"zip":"0640912"},{"town":"南十二条西十三丁目","koaza":"","lat":43.043622,"lng":141.338783,"zip":"0640912"},{"town":"南十二条西十四丁目","koaza":"","lat":43.043361,"lng":141.336959,"zip":"0640912"},{"town":"南十二条西十五丁目","koaza":"","lat":43.043197,"lng":141.335262,"zip":"0640912"},{"town":"南十二条西十六丁目","koaza":"","lat":43.043095,"lng":141.333562,"zip":"0640912"},{"town":"南十二条西十七丁目","koaza":"","lat":43.042984,"lng":141.331857,"zip":"0640912"},{"town":"南十二条西十八丁目","koaza":"","lat":43.042869,"lng":141.330158,"zip":"0640912"},{"town":"南十二条西一丁目","koaza":"","lat":43.044495,"lng":141.357465,"zip":"0640912"},{"town":"南十二条西二十丁目","koaza":"","lat":43.042755,"lng":141.328447,"zip":"0640912"},{"town":"南十二条西二十一丁目","koaza":"","lat":43.042513,"lng":141.326879,"zip":"0640912"},{"town":"南十二条西二十二丁目","koaza":"","lat":43.041739,"lng":141.325684,"zip":"0640912"},{"town":"南十二条西二十三丁目","koaza":"","lat":43.040667,"lng":141.323687,"zip":"0640912"},{"town":"南十二条西六丁目","koaza":"","lat":43.044204,"lng":141.35106,"zip":"0640912"},{"town":"南十二条西七丁目","koaza":"","lat":43.044212,"lng":141.349493,"zip":"0640912"},{"town":"南十二条西八丁目","koaza":"","lat":43.044085,"lng":141.347645,"zip":"0640912"},{"town":"南十二条西九丁目","koaza":"","lat":43.04394,"lng":141.345669,"zip":"0640912"},{"town":"南十三条西十丁目","koaza":"","lat":43.042587,"lng":141.34411,"zip":"0640913"},{"town":"南十三条西十一丁目","koaza":"","lat":43.042424,"lng":141.342665,"zip":"0640913"},{"town":"南十三条西十二丁目","koaza":"","lat":43.042667,"lng":141.340911,"zip":"0640913"},{"town":"南十三条西十三丁目","koaza":"","lat":43.042241,"lng":141.339169,"zip":"0640913"},{"town":"南十三条西十四丁目","koaza":"","lat":43.042041,"lng":141.337124,"zip":"0640913"},{"town":"南十三条西十五丁目","koaza":"","lat":43.041991,"lng":141.335413,"zip":"0640913"},{"town":"南十三条西十六丁目","koaza":"","lat":43.041865,"lng":141.333718,"zip":"0640913"},{"town":"南十三条西十七丁目","koaza":"","lat":43.041754,"lng":141.332017,"zip":"0640913"},{"town":"南十三条西十八丁目","koaza":"","lat":43.04165,"lng":141.330318,"zip":"0640913"},{"town":"南十三条西一丁目","koaza":"","lat":43.043216,"lng":141.357381,"zip":"0640913"},{"town":"南十三条西二十丁目","koaza":"","lat":43.041506,"lng":141.329188,"zip":"0640913"},{"town":"南十三条西二十一丁目","koaza":"","lat":43.041362,"lng":141.328163,"zip":"0640913"},{"town":"南十三条西二十二丁目","koaza":"","lat":43.040461,"lng":141.326851,"zip":"0640913"},{"town":"南十三条西二十三丁目","koaza":"","lat":43.039656,"lng":141.324995,"zip":"0640913"},{"town":"南十三条西五丁目","koaza":"","lat":43.042967,"lng":141.352425,"zip":"0640913"},{"town":"南十三条西六丁目","koaza":"","lat":43.042959,"lng":141.351296,"zip":"0640913"},{"town":"南十三条西七丁目","koaza":"","lat":43.043016,"lng":141.349801,"zip":"0640913"},{"town":"南十三条西八丁目","koaza":"","lat":43.042756,"lng":141.347827,"zip":"0640913"},{"town":"南十三条西九丁目","koaza":"","lat":43.04262,"lng":141.345837,"zip":"0640913"},{"town":"南十四条西十丁目","koaza":"","lat":43.041008,"lng":141.344316,"zip":"0640914"},{"town":"南十四条西十一丁目","koaza":"","lat":43.040908,"lng":141.342864,"zip":"0640914"},{"town":"南十四条西十二丁目","koaza":"","lat":43.041177,"lng":141.341103,"zip":"0640914"},{"town":"南十四条西十三丁目","koaza":"","lat":43.04068,"lng":141.33917,"zip":"0640914"},{"town":"南十四条西十四丁目","koaza":"","lat":43.040532,"lng":141.337319,"zip":"0640914"},{"town":"南十四条西十五丁目","koaza":"","lat":43.040578,"lng":141.335604,"zip":"0640914"},{"town":"南十四条西十六丁目","koaza":"","lat":43.040424,"lng":141.333943,"zip":"0640914"},{"town":"南十四条西十七丁目","koaza":"","lat":43.040269,"lng":141.332198,"zip":"0640914"},{"town":"南十四条西十八丁目","koaza":"","lat":43.039904,"lng":141.330156,"zip":"0640914"},{"town":"南十四条西十九丁目","koaza":"","lat":43.038718,"lng":141.327687,"zip":"0640914"},{"town":"南十四条西一丁目","koaza":"","lat":43.04191,"lng":141.35726,"zip":"0640914"},{"town":"南十四条西五丁目","koaza":"","lat":43.041922,"lng":141.353267,"zip":"0640914"},{"town":"南十四条西六丁目","koaza":"","lat":43.04149,"lng":141.351611,"zip":"0640914"},{"town":"南十四条西七丁目","koaza":"","lat":43.0414,"lng":141.349867,"zip":"0640914"},{"town":"南十四条西八丁目","koaza":"","lat":43.041268,"lng":141.348018,"zip":"0640914"},{"town":"南十四条西九丁目","koaza":"","lat":43.041127,"lng":141.346029,"zip":"0640914"},{"town":"南十五条西十丁目","koaza":"","lat":43.03955,"lng":141.344503,"zip":"0640915"},{"town":"南十五条西十一丁目","koaza":"","lat":43.039445,"lng":141.343054,"zip":"0640915"},{"town":"南十五条西十二丁目","koaza":"","lat":43.039314,"lng":141.341344,"zip":"0640915"},{"town":"南十五条西十三丁目","koaza":"","lat":43.039167,"lng":141.33936,"zip":"0640915"},{"town":"南十五条西十四丁目","koaza":"","lat":43.039036,"lng":141.337512,"zip":"0640915"},{"town":"南十五条西十五丁目","koaza":"","lat":43.03891,"lng":141.335832,"zip":"0640915"},{"town":"南十五条西十六丁目","koaza":"","lat":43.039419,"lng":141.334115,"zip":"0640915"},{"town":"南十五条西十七丁目","koaza":"","lat":43.03903,"lng":141.332144,"zip":"0640915"},{"town":"南十五条西十八丁目","koaza":"","lat":43.038137,"lng":141.330797,"zip":"0640915"},{"town":"南十五条西十九丁目","koaza":"","lat":43.037364,"lng":141.328695,"zip":"0640915"},{"town":"南十五条西一丁目","koaza":"","lat":43.04057,"lng":141.356811,"zip":"0640915"},{"town":"南十五条西四丁目","koaza":"","lat":43.040207,"lng":141.355448,"zip":"0640915"},{"town":"南十五条西五丁目","koaza":"","lat":43.040514,"lng":141.353666,"zip":"0640915"},{"town":"南十五条西六丁目","koaza":"","lat":43.040021,"lng":141.351627,"zip":"0640915"},{"town":"南十五条西七丁目","koaza":"","lat":43.039919,"lng":141.350052,"zip":"0640915"},{"town":"南十五条西八丁目","koaza":"","lat":43.039789,"lng":141.348205,"zip":"0640915"},{"town":"南十五条西九丁目","koaza":"","lat":43.03951,"lng":141.346037,"zip":"0640915"},{"town":"南十六条西十丁目","koaza":"","lat":43.03824,"lng":141.344668,"zip":"0640916"},{"town":"南十六条西十一丁目","koaza":"","lat":43.038108,"lng":141.34322,"zip":"0640916"},{"town":"南十六条西十二丁目","koaza":"","lat":43.037978,"lng":141.341512,"zip":"0640916"},{"town":"南十六条西十三丁目","koaza":"","lat":43.037839,"lng":141.339527,"zip":"0640916"},{"town":"南十六条西十四丁目","koaza":"","lat":43.037715,"lng":141.33768,"zip":"0640916"},{"town":"南十六条西十五丁目","koaza":"","lat":43.037554,"lng":141.335991,"zip":"0640916"},{"town":"南十六条西十六丁目","koaza":"","lat":43.038121,"lng":141.33453,"zip":"0640916"},{"town":"南十六条西十七丁目","koaza":"","lat":43.037862,"lng":141.333427,"zip":"0640916"},{"town":"南十六条西十八丁目","koaza":"","lat":43.036899,"lng":141.332082,"zip":"0640916"},{"town":"南十六条西十九丁目","koaza":"","lat":43.036623,"lng":141.330231,"zip":"0640916"},{"town":"南十六条西一丁目","koaza":"","lat":43.039107,"lng":141.356238,"zip":"0640916"},{"town":"南十六条西四丁目","koaza":"","lat":43.038785,"lng":141.355078,"zip":"0640916"},{"town":"南十六条西五丁目","koaza":"","lat":43.038799,"lng":141.353556,"zip":"0640916"},{"town":"南十六条西六丁目","koaza":"","lat":43.03869,"lng":141.351794,"zip":"0640916"},{"town":"南十六条西七丁目","koaza":"","lat":43.038584,"lng":141.350223,"zip":"0640916"},{"town":"南十六条西八丁目","koaza":"","lat":43.038457,"lng":141.348381,"zip":"0640916"},{"town":"南十六条西九丁目","koaza":"","lat":43.038316,"lng":141.346397,"zip":"0640916"},{"town":"南十七条西十丁目","koaza":"","lat":43.036736,"lng":141.344714,"zip":"0640917"},{"town":"南十七条西十一丁目","koaza":"","lat":43.036825,"lng":141.343382,"zip":"0640917"},{"town":"南十七条西十二丁目","koaza":"","lat":43.036629,"lng":141.341685,"zip":"0640917"},{"town":"南十七条西十三丁目","koaza":"","lat":43.036495,"lng":141.339701,"zip":"0640917"},{"town":"南十七条西十四丁目","koaza":"","lat":43.036369,"lng":141.337852,"zip":"0640917"},{"town":"南十七条西十五丁目","koaza":"","lat":43.03617,"lng":141.336133,"zip":"0640917"},{"town":"南十七条西十六丁目","koaza":"","lat":43.03646,"lng":141.334433,"zip":"0640917"},{"town":"南十七条西十七丁目","koaza":"","lat":43.035764,"lng":141.333502,"zip":"0640917"},{"town":"南十七条西十八丁目","koaza":"","lat":43.035571,"lng":141.331336,"zip":"0640917"},{"town":"南十七条西四丁目","koaza":"","lat":43.037684,"lng":141.354826,"zip":"0640917"},{"town":"南十七条西五丁目","koaza":"","lat":43.03759,"lng":141.353515,"zip":"0640917"},{"town":"南十七条西六丁目","koaza":"","lat":43.037511,"lng":141.351938,"zip":"0640917"},{"town":"南十七条西七丁目","koaza":"","lat":43.03718,"lng":141.350579,"zip":"0640917"},{"town":"南十七条西八丁目","koaza":"","lat":43.037109,"lng":141.348556,"zip":"0640917"},{"town":"南十七条西九丁目","koaza":"","lat":43.036974,"lng":141.346577,"zip":"0640917"},{"town":"南十八条西十丁目","koaza":"","lat":43.0354,"lng":141.34489,"zip":"0640918"},{"town":"南十八条西十一丁目","koaza":"","lat":43.035601,"lng":141.343544,"zip":"0640918"},{"town":"南十八条西十二丁目","koaza":"","lat":43.03521,"lng":141.342068,"zip":"0640918"},{"town":"南十八条西十三丁目","koaza":"","lat":43.035158,"lng":141.339875,"zip":"0640918"},{"town":"南十八条西十四丁目","koaza":"","lat":43.035017,"lng":141.33803,"zip":"0640918"},{"town":"南十八条西十五丁目","koaza":"","lat":43.034854,"lng":141.336301,"zip":"0640918"},{"town":"南十八条西十六丁目","koaza":"","lat":43.034967,"lng":141.334572,"zip":"0640918"},{"town":"南十八条西十七丁目","koaza":"","lat":43.034428,"lng":141.332822,"zip":"0640918"},{"town":"南十八条西五丁目","koaza":"","lat":43.036692,"lng":141.354496,"zip":"0640918"},{"town":"南十八条西六丁目","koaza":"","lat":43.036079,"lng":141.352849,"zip":"0640918"},{"town":"南十八条西七丁目","koaza":"","lat":43.036034,"lng":141.350559,"zip":"0640918"},{"town":"南十八条西八丁目","koaza":"","lat":43.03571,"lng":141.34894,"zip":"0640918"},{"town":"南十八条西九丁目","koaza":"","lat":43.035634,"lng":141.34675,"zip":"0640918"},{"town":"南十九条西十丁目","koaza":"","lat":43.034087,"lng":141.345207,"zip":"0640919"},{"town":"南十九条西十一丁目","koaza":"","lat":43.03435,"lng":141.343701,"zip":"0640919"},{"town":"南十九条西十二丁目","koaza":"","lat":43.033958,"lng":141.342025,"zip":"0640919"},{"town":"南十九条西十三丁目","koaza":"","lat":43.033814,"lng":141.340049,"zip":"0640919"},{"town":"南十九条西十四丁目","koaza":"","lat":43.033712,"lng":141.338201,"zip":"0640919"},{"town":"南十九条西十五丁目","koaza":"","lat":43.033471,"lng":141.336253,"zip":"0640919"},{"town":"南十九条西十六丁目","koaza":"","lat":43.033391,"lng":141.334078,"zip":"0640919"},{"town":"南十九条西五丁目","koaza":"","lat":43.034599,"lng":141.353571,"zip":"0640919"},{"town":"南十九条西六丁目","koaza":"","lat":43.034814,"lng":141.352297,"zip":"0640919"},{"town":"南十九条西七丁目","koaza":"","lat":43.034801,"lng":141.350553,"zip":"0640919"},{"town":"南十九条西八丁目","koaza":"","lat":43.034318,"lng":141.348721,"zip":"0640919"},{"town":"南十九条西九丁目","koaza":"","lat":43.034375,"lng":141.346915,"zip":"0640919"},{"town":"南一条西十丁目","koaza":"","lat":43.057597,"lng":141.342254,"zip":"0600061"},{"town":"南一条西十一丁目","koaza":"","lat":43.057385,"lng":141.340701,"zip":"0600061"},{"town":"南一条西十二丁目","koaza":"","lat":43.057191,"lng":141.339214,"zip":"0600061"},{"town":"南一条西十三丁目","koaza":"","lat":43.056989,"lng":141.337657,"zip":"0600061"},{"town":"南一条西十四丁目","koaza":"","lat":43.05678,"lng":141.336103,"zip":"0600061"},{"town":"南一条西十五丁目","koaza":"","lat":43.056557,"lng":141.334538,"zip":"0600061"},{"town":"南一条西十六丁目","koaza":"","lat":43.056339,"lng":141.33299,"zip":"0600061"},{"town":"南一条西十七丁目","koaza":"","lat":43.056131,"lng":141.331431,"zip":"0600061"},{"town":"南一条西十八丁目","koaza":"","lat":43.055928,"lng":141.329903,"zip":"0600061"},{"town":"南一条西十九丁目","koaza":"","lat":43.055758,"lng":141.328324,"zip":"0600061"},{"town":"南一条西一丁目","koaza":"","lat":43.059534,"lng":141.356555,"zip":"0600061"},{"town":"南一条西二十丁目","koaza":"","lat":43.056243,"lng":141.326641,"zip":"0600061"},{"town":"南一条西二十一丁目","koaza":"","lat":43.056072,"lng":141.325263,"zip":"0600061"},{"town":"南一条西二十二丁目","koaza":"","lat":43.055887,"lng":141.323887,"zip":"0600061"},{"town":"南一条西二十三丁目","koaza":"","lat":43.055699,"lng":141.322532,"zip":"0600061"},{"town":"南一条西二十四丁目","koaza":"","lat":43.055508,"lng":141.321186,"zip":"0600061"},{"town":"南一条西二十五丁目","koaza":"","lat":43.055305,"lng":141.319763,"zip":"0600061"},{"town":"南一条西二十六丁目","koaza":"","lat":43.055067,"lng":141.318764,"zip":"0600061"},{"town":"南一条西二十七丁目","koaza":"","lat":43.054969,"lng":141.317323,"zip":"0600061"},{"town":"南一条西二十八丁目","koaza":"","lat":43.054717,"lng":141.31533,"zip":"0600061"},{"town":"南一条西二丁目","koaza":"","lat":43.059306,"lng":141.354826,"zip":"0600061"},{"town":"南一条西三丁目","koaza":"","lat":43.059088,"lng":141.353204,"zip":"0600061"},{"town":"南一条西四丁目","koaza":"","lat":43.058881,"lng":141.351647,"zip":"0600061"},{"town":"南一条西五丁目","koaza":"","lat":43.058674,"lng":141.35013,"zip":"0600061"},{"town":"南一条西六丁目","koaza":"","lat":43.058462,"lng":141.348565,"zip":"0600061"},{"town":"南一条西七丁目","koaza":"","lat":43.058254,"lng":141.347003,"zip":"0600061"},{"town":"南一条西八丁目","koaza":"","lat":43.058043,"lng":141.34544,"zip":"0600061"},{"town":"南一条西九丁目","koaza":"","lat":43.057827,"lng":141.343884,"zip":"0600061"},{"town":"南一条東一丁目","koaza":"","lat":43.060345,"lng":141.357716,"zip":"0600051"},{"town":"南一条東二丁目","koaza":"","lat":43.060679,"lng":141.359058,"zip":"0600051"},{"town":"南一条東三丁目","koaza":"","lat":43.060757,"lng":141.360632,"zip":"0600051"},{"town":"南一条東四丁目","koaza":"","lat":43.060964,"lng":141.362199,"zip":"0600051"},{"town":"南一条東五丁目","koaza":"","lat":43.061173,"lng":141.363773,"zip":"0600051"},{"town":"南一条東六丁目","koaza":"","lat":43.061366,"lng":141.365302,"zip":"0600051"},{"town":"南一条東七丁目","koaza":"","lat":43.061603,"lng":141.366974,"zip":"0600051"},{"town":"南一条東八丁目","koaza":"","lat":43.062131,"lng":141.368262,"zip":"0600051"},{"town":"南二十条西十丁目","koaza":"","lat":43.03266,"lng":141.345386,"zip":"0640920"},{"town":"南二十条西十一丁目","koaza":"","lat":43.032832,"lng":141.343887,"zip":"0640920"},{"town":"南二十条西十二丁目","koaza":"","lat":43.032531,"lng":141.342409,"zip":"0640920"},{"town":"南二十条西十三丁目","koaza":"","lat":43.032477,"lng":141.34022,"zip":"0640920"},{"town":"南二十条西十四丁目","koaza":"","lat":43.032328,"lng":141.338373,"zip":"0640920"},{"town":"南二十条西十五丁目","koaza":"","lat":43.032434,"lng":141.336555,"zip":"0640920"},{"town":"南二十条西十六丁目","koaza":"","lat":43.0319,"lng":141.33524,"zip":"0640920"},{"town":"南二十条西五丁目","koaza":"","lat":43.033421,"lng":141.353576,"zip":"0640920"},{"town":"南二十条西六丁目","koaza":"","lat":43.033292,"lng":141.352365,"zip":"0640920"},{"town":"南二十条西七丁目","koaza":"","lat":43.033226,"lng":141.350941,"zip":"0640920"},{"town":"南二十条西八丁目","koaza":"","lat":43.033092,"lng":141.349083,"zip":"0640920"},{"town":"南二十条西九丁目","koaza":"","lat":43.033215,"lng":141.347066,"zip":"0640920"},{"town":"南二十一条西十丁目","koaza":"","lat":43.031391,"lng":141.345557,"zip":"0640921"},{"town":"南二十一条西十一丁目","koaza":"","lat":43.031637,"lng":141.344044,"zip":"0640921"},{"town":"南二十一条西十二丁目","koaza":"","lat":43.031278,"lng":141.34237,"zip":"0640921"},{"town":"南二十一条西十三丁目","koaza":"","lat":43.031143,"lng":141.340386,"zip":"0640921"},{"town":"南二十一条西十四丁目","koaza":"","lat":43.031042,"lng":141.338534,"zip":"0640921"},{"town":"南二十一条西十五丁目","koaza":"","lat":43.031106,"lng":141.337291,"zip":"0640921"},{"town":"南二十一条西十六丁目","koaza":"","lat":43.030687,"lng":141.336269,"zip":"0640921"},{"town":"南二十一条西五丁目","koaza":"","lat":43.031599,"lng":141.353559,"zip":"0640921"},{"town":"南二十一条西六丁目","koaza":"","lat":43.031873,"lng":141.352254,"zip":"0640921"},{"town":"南二十一条西七丁目","koaza":"","lat":43.031891,"lng":141.351116,"zip":"0640921"},{"town":"南二十一条西八丁目","koaza":"","lat":43.031759,"lng":141.349261,"zip":"0640921"},{"town":"南二十一条西九丁目","koaza":"","lat":43.031665,"lng":141.347271,"zip":"0640921"},{"town":"南二十二条西十丁目","koaza":"","lat":43.030181,"lng":141.34571,"zip":"0640922"},{"town":"南二十二条西十一丁目","koaza":"","lat":43.030053,"lng":141.344107,"zip":"0640922"},{"town":"南二十二条西十二丁目","koaza":"","lat":43.030198,"lng":141.342508,"zip":"0640922"},{"town":"南二十二条西十三丁目","koaza":"","lat":43.02981,"lng":141.340756,"zip":"0640922"},{"town":"南二十二条西十四丁目","koaza":"","lat":43.029697,"lng":141.338701,"zip":"0640922"},{"town":"南二十二条西十五丁目","koaza":"","lat":43.029467,"lng":141.336437,"zip":"0640922"},{"town":"南二十二条西六丁目","koaza":"","lat":43.029947,"lng":141.352884,"zip":"0640922"},{"town":"南二十二条西七丁目","koaza":"","lat":43.030685,"lng":141.351377,"zip":"0640922"},{"town":"南二十二条西八丁目","koaza":"","lat":43.030419,"lng":141.349439,"zip":"0640922"},{"town":"南二十二条西九丁目","koaza":"","lat":43.030282,"lng":141.347452,"zip":"0640922"},{"town":"南二十三条西十丁目","koaza":"","lat":43.028836,"lng":141.345882,"zip":"0640923"},{"town":"南二十三条西十一丁目","koaza":"","lat":43.028754,"lng":141.344416,"zip":"0640923"},{"town":"南二十三条西十二丁目","koaza":"","lat":43.029017,"lng":141.342662,"zip":"0640923"},{"town":"南二十三条西十三丁目","koaza":"","lat":43.028541,"lng":141.340722,"zip":"0640923"},{"town":"南二十三条西十四丁目","koaza":"","lat":43.028112,"lng":141.33861,"zip":"0640923"},{"town":"南二十三条西十五丁目","koaza":"","lat":43.027955,"lng":141.33735,"zip":"0640923"},{"town":"南二十三条西七丁目","koaza":"","lat":43.029198,"lng":141.351471,"zip":"0640923"},{"town":"南二十三条西八丁目","koaza":"","lat":43.029078,"lng":141.349614,"zip":"0640923"},{"town":"南二十三条西九丁目","koaza":"","lat":43.028796,"lng":141.34758,"zip":"0640923"},{"town":"南二十四条西十丁目","koaza":"","lat":43.027626,"lng":141.346458,"zip":"0640924"},{"town":"南二十四条西十一丁目","koaza":"","lat":43.027356,"lng":141.344589,"zip":"0640924"},{"town":"南二十四条西十二丁目","koaza":"","lat":43.027243,"lng":141.342884,"zip":"0640924"},{"town":"南二十四条西十三丁目","koaza":"","lat":43.026867,"lng":141.341602,"zip":"0640924"},{"town":"南二十四条西十四丁目","koaza":"","lat":43.027074,"lng":141.340101,"zip":"0640924"},{"town":"南二十四条西十五丁目","koaza":"","lat":43.026579,"lng":141.338696,"zip":"0640924"},{"town":"南二十四条西七丁目","koaza":"","lat":43.027816,"lng":141.351361,"zip":"0640924"},{"town":"南二十四条西八丁目","koaza":"","lat":43.027732,"lng":141.349784,"zip":"0640924"},{"town":"南二十四条西九丁目","koaza":"","lat":43.027612,"lng":141.34813,"zip":"0640924"},{"town":"南二十五条西十丁目","koaza":"","lat":43.02611,"lng":141.346563,"zip":"0640925"},{"town":"南二十五条西十一丁目","koaza":"","lat":43.026085,"lng":141.344587,"zip":"0640925"},{"town":"南二十五条西十二丁目","koaza":"","lat":43.02588,"lng":141.343047,"zip":"0640925"},{"town":"南二十五条西十三丁目","koaza":"","lat":43.0258,"lng":141.34123,"zip":"0640925"},{"town":"南二十五条西十四丁目","koaza":"","lat":43.025481,"lng":141.340094,"zip":"0640925"},{"town":"南二十五条西七丁目","koaza":"","lat":43.026455,"lng":141.351192,"zip":"0640925"},{"town":"南二十五条西八丁目","koaza":"","lat":43.026388,"lng":141.349948,"zip":"0640925"},{"town":"南二十五条西九丁目","koaza":"","lat":43.026116,"lng":141.348447,"zip":"0640925"},{"town":"南二十六条西十丁目","koaza":"","lat":43.024818,"lng":141.346715,"zip":"0640926"},{"town":"南二十六条西十一丁目","koaza":"","lat":43.024656,"lng":141.344705,"zip":"0640926"},{"town":"南二十六条西十二丁目","koaza":"","lat":43.024476,"lng":141.34326,"zip":"0640926"},{"town":"南二十六条西十三丁目","koaza":"","lat":43.024604,"lng":141.342187,"zip":"0640926"},{"town":"南二十六条西十四丁目","koaza":"","lat":43.024063,"lng":141.341345,"zip":"0640926"},{"town":"南二十六条西七丁目","koaza":"","lat":43.025098,"lng":141.351425,"zip":"0640926"},{"town":"南二十六条西八丁目","koaza":"","lat":43.025207,"lng":141.349893,"zip":"0640926"},{"town":"南二十六条西九丁目","koaza":"","lat":43.024962,"lng":141.34845,"zip":"0640926"},{"town":"南二十七条西十丁目","koaza":"","lat":43.023595,"lng":141.346859,"zip":"0640927"},{"town":"南二十七条西十一丁目","koaza":"","lat":43.023441,"lng":141.345453,"zip":"0640927"},{"town":"南二十七条西十二丁目","koaza":"","lat":43.02341,"lng":141.344122,"zip":"0640927"},{"town":"南二十七条西十三丁目","koaza":"","lat":43.023333,"lng":141.342866,"zip":"0640927"},{"town":"南二十七条西十四丁目","koaza":"","lat":43.022888,"lng":141.342064,"zip":"0640927"},{"town":"南二十七条西七丁目","koaza":"","lat":43.023879,"lng":141.351809,"zip":"0640927"},{"town":"南二十七条西八丁目","koaza":"","lat":43.02391,"lng":141.350257,"zip":"0640927"},{"town":"南二十七条西九丁目","koaza":"","lat":43.023741,"lng":141.348599,"zip":"0640927"},{"town":"南二十八条西十丁目","koaza":"","lat":43.02228,"lng":141.346894,"zip":"0640928"},{"town":"南二十八条西十一丁目","koaza":"","lat":43.022445,"lng":141.345037,"zip":"0640928"},{"town":"南二十八条西十二丁目","koaza":"","lat":43.022279,"lng":141.34377,"zip":"0640928"},{"town":"南二十八条西十三丁目","koaza":"","lat":43.021902,"lng":141.342733,"zip":"0640928"},{"town":"南二十八条西七丁目","koaza":"","lat":43.022857,"lng":141.351648,"zip":"0640928"},{"town":"南二十八条西八丁目","koaza":"","lat":43.022473,"lng":141.350412,"zip":"0640928"},{"town":"南二十八条西九丁目","koaza":"","lat":43.022303,"lng":141.348653,"zip":"0640928"},{"town":"南二十九条西十丁目","koaza":"","lat":43.020821,"lng":141.34708,"zip":"0640929"},{"town":"南二十九条西十一丁目","koaza":"","lat":43.020687,"lng":141.345268,"zip":"0640929"},{"town":"南二十九条西十二丁目","koaza":"","lat":43.020667,"lng":141.34379,"zip":"0640929"},{"town":"南二十九条西八丁目","koaza":"","lat":43.021806,"lng":141.34984,"zip":"0640929"},{"town":"南二十九条西九丁目","koaza":"","lat":43.020557,"lng":141.348548,"zip":"0640929"},{"town":"南二条西十丁目","koaza":"","lat":43.05647,"lng":141.342547,"zip":"0600062"},{"town":"南二条西十一丁目","koaza":"","lat":43.056236,"lng":141.340972,"zip":"0600062"},{"town":"南二条西十二丁目","koaza":"","lat":43.056043,"lng":141.339505,"zip":"0600062"},{"town":"南二条西十三丁目","koaza":"","lat":43.055728,"lng":141.338026,"zip":"0600062"},{"town":"南二条西十四丁目","koaza":"","lat":43.055486,"lng":141.336397,"zip":"0600062"},{"town":"南二条西十五丁目","koaza":"","lat":43.055401,"lng":141.334869,"zip":"0600062"},{"town":"南二条西十六丁目","koaza":"","lat":43.055156,"lng":141.333341,"zip":"0600062"},{"town":"南二条西十七丁目","koaza":"","lat":43.054994,"lng":141.331775,"zip":"0600062"},{"town":"南二条西十八丁目","koaza":"","lat":43.054823,"lng":141.330187,"zip":"0600062"},{"town":"南二条西十九丁目","koaza":"","lat":43.054621,"lng":141.328598,"zip":"0600062"},{"town":"南二条西一丁目","koaza":"","lat":43.05842,"lng":141.357046,"zip":"0600062"},{"town":"南二条西二十丁目","koaza":"","lat":43.055135,"lng":141.327061,"zip":"0600062"},{"town":"南二条西二十一丁目","koaza":"","lat":43.055048,"lng":141.325664,"zip":"0600062"},{"town":"南二条西二十二丁目","koaza":"","lat":43.05491,"lng":141.32412,"zip":"0600062"},{"town":"南二条西二十三丁目","koaza":"","lat":43.054725,"lng":141.322761,"zip":"0600062"},{"town":"南二条西二十四丁目","koaza":"","lat":43.054505,"lng":141.321428,"zip":"0600062"},{"town":"南二条西二十五丁目","koaza":"","lat":43.054239,"lng":141.319941,"zip":"0600062"},{"town":"南二条西二十六丁目","koaza":"","lat":43.053834,"lng":141.318493,"zip":"0600062"},{"town":"南二条西二十七丁目","koaza":"","lat":43.053747,"lng":141.317027,"zip":"0600062"},{"town":"南二条西二十八丁目","koaza":"","lat":43.053624,"lng":141.315577,"zip":"0600062"},{"town":"南二条西二丁目","koaza":"","lat":43.058168,"lng":141.355119,"zip":"0600062"},{"town":"南二条西三丁目","koaza":"","lat":43.057948,"lng":141.353507,"zip":"0600062"},{"town":"南二条西四丁目","koaza":"","lat":43.057735,"lng":141.351954,"zip":"0600062"},{"town":"南二条西五丁目","koaza":"","lat":43.05753,"lng":141.350426,"zip":"0600062"},{"town":"南二条西六丁目","koaza":"","lat":43.057317,"lng":141.348853,"zip":"0600062"},{"town":"南二条西七丁目","koaza":"","lat":43.057102,"lng":141.34729,"zip":"0600062"},{"town":"南二条西八丁目","koaza":"","lat":43.056891,"lng":141.345732,"zip":"0600062"},{"town":"南二条西九丁目","koaza":"","lat":43.056706,"lng":141.344168,"zip":"0600062"},{"town":"南二条東一丁目","koaza":"","lat":43.059156,"lng":141.358024,"zip":"0600052"},{"town":"南二条東二丁目","koaza":"","lat":43.05934,"lng":141.359366,"zip":"0600052"},{"town":"南二条東三丁目","koaza":"","lat":43.059518,"lng":141.360937,"zip":"0600052"},{"town":"南二条東四丁目","koaza":"","lat":43.059737,"lng":141.362496,"zip":"0600052"},{"town":"南二条東五丁目","koaza":"","lat":43.059956,"lng":141.364055,"zip":"0600052"},{"town":"南二条東六丁目","koaza":"","lat":43.060297,"lng":141.365789,"zip":"0600052"},{"town":"南三十条西十丁目","koaza":"","lat":43.018869,"lng":141.347299,"zip":"0640930"},{"town":"南三十条西十一丁目","koaza":"","lat":43.018403,"lng":141.345566,"zip":"0640930"},{"town":"南三十条西九丁目","koaza":"","lat":43.019716,"lng":141.348472,"zip":"0640930"},{"town":"南三条西十丁目","koaza":"","lat":43.055444,"lng":141.342793,"zip":"0600063"},{"town":"南三条西十一丁目","koaza":"","lat":43.055237,"lng":141.341205,"zip":"0600063"},{"town":"南三条西十二丁目","koaza":"","lat":43.05502,"lng":141.339444,"zip":"0600063"},{"town":"南三条西十三丁目","koaza":"","lat":43.054866,"lng":141.337322,"zip":"0600063"},{"town":"南三条西十四丁目","koaza":"","lat":43.054648,"lng":141.335517,"zip":"0600063"},{"town":"南三条西十五丁目","koaza":"","lat":43.054493,"lng":141.33384,"zip":"0600063"},{"town":"南三条西十六丁目","koaza":"","lat":43.054272,"lng":141.33174,"zip":"0600063"},{"town":"南三条西十七丁目","koaza":"","lat":43.054198,"lng":141.330362,"zip":"0600063"},{"town":"南三条西十八丁目","koaza":"","lat":43.054017,"lng":141.328721,"zip":"0600063"},{"town":"南三条西一丁目","koaza":"","lat":43.057272,"lng":141.35733,"zip":"0600063"},{"town":"南三条西二十丁目","koaza":"","lat":43.054419,"lng":141.326814,"zip":"0600063"},{"town":"南三条西二十一丁目","koaza":"","lat":43.054131,"lng":141.325709,"zip":"0600063"},{"town":"南三条西二十二丁目","koaza":"","lat":43.053914,"lng":141.324358,"zip":"0600063"},{"town":"南三条西二十三丁目","koaza":"","lat":43.053659,"lng":141.322873,"zip":"0600063"},{"town":"南三条西二十四丁目","koaza":"","lat":43.053552,"lng":141.32165,"zip":"0600063"},{"town":"南三条西二十五丁目","koaza":"","lat":43.053331,"lng":141.320237,"zip":"0600063"},{"town":"南三条西二十六丁目","koaza":"","lat":43.053047,"lng":141.318949,"zip":"0600063"},{"town":"南三条西二十七丁目","koaza":"","lat":43.052889,"lng":141.317233,"zip":"0600063"},{"town":"南三条西二十八丁目","koaza":"","lat":43.052403,"lng":141.315482,"zip":"0600063"},{"town":"南三条西二丁目","koaza":"","lat":43.057015,"lng":141.355417,"zip":"0600063"},{"town":"南三条西三丁目","koaza":"","lat":43.056789,"lng":141.353811,"zip":"0600063"},{"town":"南三条西四丁目","koaza":"","lat":43.056575,"lng":141.352246,"zip":"0600063"},{"town":"南三条西五丁目","koaza":"","lat":43.056373,"lng":141.350709,"zip":"0600063"},{"town":"南三条西六丁目","koaza":"","lat":43.056165,"lng":141.349144,"zip":"0600063"},{"town":"南三条西七丁目","koaza":"","lat":43.055952,"lng":141.347577,"zip":"0600063"},{"town":"南三条西八丁目","koaza":"","lat":43.055722,"lng":141.345865,"zip":"0600063"},{"town":"南三条西九丁目","koaza":"","lat":43.055427,"lng":141.344449,"zip":"0600063"},{"town":"南三条東一丁目","koaza":"","lat":43.058007,"lng":141.358313,"zip":"0600053"},{"town":"南三条東二丁目","koaza":"","lat":43.058194,"lng":141.35965,"zip":"0600053"},{"town":"南三条東三丁目","koaza":"","lat":43.058527,"lng":141.361189,"zip":"0600053"},{"town":"南三条東四丁目","koaza":"","lat":43.058625,"lng":141.362777,"zip":"0600053"},{"town":"南三条東五丁目","koaza":"","lat":43.058868,"lng":141.36446,"zip":"0600053"},{"town":"南三条東六丁目","koaza":"","lat":43.059064,"lng":141.365517,"zip":"0600053"},{"town":"南四条西十丁目","koaza":"","lat":43.054303,"lng":141.34292,"zip":"0640804"},{"town":"南四条西十一丁目","koaza":"","lat":43.054289,"lng":141.341191,"zip":"0640804"},{"town":"南四条西十二丁目","koaza":"","lat":43.054058,"lng":141.33951,"zip":"0640804"},{"town":"南四条西十三丁目","koaza":"","lat":43.053741,"lng":141.337492,"zip":"0640804"},{"town":"南四条西十四丁目","koaza":"","lat":43.053819,"lng":141.335616,"zip":"0640804"},{"town":"南四条西十五丁目","koaza":"","lat":43.053527,"lng":141.33393,"zip":"0640804"},{"town":"南四条西十六丁目","koaza":"","lat":43.053444,"lng":141.33222,"zip":"0640804"},{"town":"南四条西十七丁目","koaza":"","lat":43.053206,"lng":141.330535,"zip":"0640804"},{"town":"南四条西十八丁目","koaza":"","lat":43.05326,"lng":141.328657,"zip":"0640804"},{"town":"南四条西一丁目","koaza":"","lat":43.056139,"lng":141.357439,"zip":"0640804"},{"town":"南四条西二十丁目","koaza":"","lat":43.053277,"lng":141.32728,"zip":"0640804"},{"town":"南四条西二十一丁目","koaza":"","lat":43.053076,"lng":141.325966,"zip":"0640804"},{"town":"南四条西二十二丁目","koaza":"","lat":43.052891,"lng":141.324607,"zip":"0640804"},{"town":"南四条西二十三丁目","koaza":"","lat":43.052702,"lng":141.32325,"zip":"0640804"},{"town":"南四条西二十四丁目","koaza":"","lat":43.052509,"lng":141.321909,"zip":"0640804"},{"town":"南四条西二十五丁目","koaza":"","lat":43.052328,"lng":141.320483,"zip":"0640804"},{"town":"南四条西二十六丁目","koaza":"","lat":43.05208,"lng":141.31902,"zip":"0640804"},{"town":"南四条西二十七丁目","koaza":"","lat":43.051886,"lng":141.317492,"zip":"0640804"},{"town":"南四条西二十八丁目","koaza":"","lat":43.051827,"lng":141.316003,"zip":"0640804"},{"town":"南四条西二丁目","koaza":"","lat":43.055872,"lng":141.355699,"zip":"0640804"},{"town":"南四条西三丁目","koaza":"","lat":43.05561,"lng":141.35413,"zip":"0640804"},{"town":"南四条西四丁目","koaza":"","lat":43.05533,"lng":141.35259,"zip":"0640804"},{"town":"南四条西五丁目","koaza":"","lat":43.055225,"lng":141.35099,"zip":"0640804"},{"town":"南四条西六丁目","koaza":"","lat":43.055018,"lng":141.349432,"zip":"0640804"},{"town":"南四条西七丁目","koaza":"","lat":43.054805,"lng":141.34787,"zip":"0640804"},{"town":"南四条西八丁目","koaza":"","lat":43.054597,"lng":141.346315,"zip":"0640804"},{"town":"南四条西九丁目","koaza":"","lat":43.054484,"lng":141.344647,"zip":"0640804"},{"town":"南四条東一丁目","koaza":"","lat":43.056905,"lng":141.358595,"zip":"0600054"},{"town":"南四条東二丁目","koaza":"","lat":43.0571,"lng":141.359931,"zip":"0600054"},{"town":"南四条東三丁目","koaza":"","lat":43.0573,"lng":141.361494,"zip":"0600054"},{"town":"南四条東四丁目","koaza":"","lat":43.057091,"lng":141.36316,"zip":"0600054"},{"town":"南四条東五丁目","koaza":"","lat":43.057696,"lng":141.364566,"zip":"0600054"},{"town":"南五条西十丁目","koaza":"","lat":43.0531,"lng":141.342925,"zip":"0640805"},{"town":"南五条西十一丁目","koaza":"","lat":43.053013,"lng":141.341451,"zip":"0640805"},{"town":"南五条西十二丁目","koaza":"","lat":43.05289,"lng":141.339648,"zip":"0640805"},{"town":"南五条西十三丁目","koaza":"","lat":43.052813,"lng":141.337617,"zip":"0640805"},{"town":"南五条西十四丁目","koaza":"","lat":43.052552,"lng":141.335779,"zip":"0640805"},{"town":"南五条西十五丁目","koaza":"","lat":43.052378,"lng":141.334076,"zip":"0640805"},{"town":"南五条西十六丁目","koaza":"","lat":43.052233,"lng":141.332386,"zip":"0640805"},{"town":"南五条西十七丁目","koaza":"","lat":43.051951,"lng":141.330545,"zip":"0640805"},{"town":"南五条西十八丁目","koaza":"","lat":43.052202,"lng":141.328944,"zip":"0640805"},{"town":"南五条西一丁目","koaza":"","lat":43.055002,"lng":141.357696,"zip":"0640805"},{"town":"南五条西二十丁目","koaza":"","lat":43.052288,"lng":141.327561,"zip":"0640805"},{"town":"南五条西二十一丁目","koaza":"","lat":43.051996,"lng":141.326227,"zip":"0640805"},{"town":"南五条西二十二丁目","koaza":"","lat":43.051809,"lng":141.324866,"zip":"0640805"},{"town":"南五条西二十三丁目","koaza":"","lat":43.051605,"lng":141.323517,"zip":"0640805"},{"town":"南五条西二十四丁目","koaza":"","lat":43.051405,"lng":141.322169,"zip":"0640805"},{"town":"南五条西二十五丁目","koaza":"","lat":43.051189,"lng":141.320757,"zip":"0640805"},{"town":"南五条西二十六丁目","koaza":"","lat":43.050993,"lng":141.319302,"zip":"0640805"},{"town":"南五条西二十七丁目","koaza":"","lat":43.050665,"lng":141.317864,"zip":"0640805"},{"town":"南五条西二十八丁目","koaza":"","lat":43.05062,"lng":141.316429,"zip":"0640805"},{"town":"南五条西二丁目","koaza":"","lat":43.054607,"lng":141.35586,"zip":"0640805"},{"town":"南五条西三丁目","koaza":"","lat":43.054574,"lng":141.354391,"zip":"0640805"},{"town":"南五条西四丁目","koaza":"","lat":43.054347,"lng":141.352838,"zip":"0640805"},{"town":"南五条西五丁目","koaza":"","lat":43.054,"lng":141.351452,"zip":"0640805"},{"town":"南五条西六丁目","koaza":"","lat":43.053875,"lng":141.349716,"zip":"0640805"},{"town":"南五条西七丁目","koaza":"","lat":43.053663,"lng":141.348154,"zip":"0640805"},{"town":"南五条西八丁目","koaza":"","lat":43.053456,"lng":141.346596,"zip":"0640805"},{"town":"南五条西九丁目","koaza":"","lat":43.053225,"lng":141.344734,"zip":"0640805"},{"town":"南五条東一丁目","koaza":"","lat":43.0558,"lng":141.358981,"zip":"0600055"},{"town":"南五条東二丁目","koaza":"","lat":43.055973,"lng":141.36021,"zip":"0600055"},{"town":"南五条東三丁目","koaza":"","lat":43.056202,"lng":141.361725,"zip":"0600055"},{"town":"南五条東四丁目","koaza":"","lat":43.056238,"lng":141.36308,"zip":"0600055"},{"town":"南五条東五丁目","koaza":"","lat":43.056794,"lng":141.364387,"zip":"0600055"},{"town":"南六条西十丁目","koaza":"","lat":43.051842,"lng":141.343044,"zip":"0640806"},{"town":"南六条西十一丁目","koaza":"","lat":43.051791,"lng":141.341531,"zip":"0640806"},{"town":"南六条西十二丁目","koaza":"","lat":43.05176,"lng":141.339755,"zip":"0640806"},{"town":"南六条西十三丁目","koaza":"","lat":43.051738,"lng":141.337754,"zip":"0640806"},{"town":"南六条西十四丁目","koaza":"","lat":43.051246,"lng":141.336119,"zip":"0640806"},{"town":"南六条西十五丁目","koaza":"","lat":43.051426,"lng":141.334197,"zip":"0640806"},{"town":"南六条西十六丁目","koaza":"","lat":43.051093,"lng":141.33253,"zip":"0640806"},{"town":"南六条西十七丁目","koaza":"","lat":43.051036,"lng":141.330824,"zip":"0640806"},{"town":"南六条西十八丁目","koaza":"","lat":43.051073,"lng":141.329258,"zip":"0640806"},{"town":"南六条西一丁目","koaza":"","lat":43.053827,"lng":141.358196,"zip":"0640806"},{"town":"南六条西二十丁目","koaza":"","lat":43.050605,"lng":141.327788,"zip":"0640806"},{"town":"南六条西二十一丁目","koaza":"","lat":43.050497,"lng":141.326575,"zip":"0640806"},{"town":"南六条西二十二丁目","koaza":"","lat":43.05034,"lng":141.325207,"zip":"0640806"},{"town":"南六条西二十三丁目","koaza":"","lat":43.050142,"lng":141.32385,"zip":"0640806"},{"town":"南六条西二十四丁目","koaza":"","lat":43.049855,"lng":141.322537,"zip":"0640806"},{"town":"南六条西二十五丁目","koaza":"","lat":43.049863,"lng":141.321072,"zip":"0640806"},{"town":"南六条西二十六丁目","koaza":"","lat":43.049595,"lng":141.319633,"zip":"0640806"},{"town":"南六条西二十七丁目","koaza":"","lat":43.049777,"lng":141.318647,"zip":"0640806"},{"town":"南六条西二丁目","koaza":"","lat":43.053567,"lng":141.356258,"zip":"0640806"},{"town":"南六条西三丁目","koaza":"","lat":43.053528,"lng":141.35478,"zip":"0640806"},{"town":"南六条西四丁目","koaza":"","lat":43.053186,"lng":141.353135,"zip":"0640806"},{"town":"南六条西五丁目","koaza":"","lat":43.053003,"lng":141.351558,"zip":"0640806"},{"town":"南六条西六丁目","koaza":"","lat":43.05273,"lng":141.35,"zip":"0640806"},{"town":"南六条西七丁目","koaza":"","lat":43.052519,"lng":141.348437,"zip":"0640806"},{"town":"南六条西八丁目","koaza":"","lat":43.05238,"lng":141.346699,"zip":"0640806"},{"town":"南六条西九丁目","koaza":"","lat":43.051974,"lng":141.345082,"zip":"0640806"},{"town":"南六条東一丁目","koaza":"","lat":43.054583,"lng":141.359281,"zip":"0600056"},{"town":"南六条東二丁目","koaza":"","lat":43.054712,"lng":141.360498,"zip":"0600056"},{"town":"南六条東三丁目","koaza":"","lat":43.054998,"lng":141.361803,"zip":"0600056"},{"town":"南七条西十丁目","koaza":"","lat":43.050743,"lng":141.343163,"zip":"0640807"},{"town":"南七条西十一丁目","koaza":"","lat":43.050659,"lng":141.34165,"zip":"0640807"},{"town":"南七条西十二丁目","koaza":"","lat":43.050434,"lng":141.339923,"zip":"0640807"},{"town":"南七条西十三丁目","koaza":"","lat":43.050624,"lng":141.3379,"zip":"0640807"},{"town":"南七条西十四丁目","koaza":"","lat":43.050206,"lng":141.336078,"zip":"0640807"},{"town":"南七条西十五丁目","koaza":"","lat":43.049922,"lng":141.334563,"zip":"0640807"},{"town":"南七条西十六丁目","koaza":"","lat":43.049699,"lng":141.332882,"zip":"0640807"},{"town":"南七条西十七丁目","koaza":"","lat":43.049684,"lng":141.330999,"zip":"0640807"},{"town":"南七条西十八丁目","koaza":"","lat":43.049586,"lng":141.329306,"zip":"0640807"},{"town":"南七条西一丁目","koaza":"","lat":43.0524,"lng":141.35877,"zip":"0640807"},{"town":"南七条西二十丁目","koaza":"","lat":43.049109,"lng":141.328061,"zip":"0640807"},{"town":"南七条西二十一丁目","koaza":"","lat":43.049215,"lng":141.326881,"zip":"0640807"},{"town":"南七条西二十二丁目","koaza":"","lat":43.049022,"lng":141.325644,"zip":"0640807"},{"town":"南七条西二十三丁目","koaza":"","lat":43.0486,"lng":141.32453,"zip":"0640807"},{"town":"南七条西二十四丁目","koaza":"","lat":43.048193,"lng":141.322972,"zip":"0640807"},{"town":"南七条西二十五丁目","koaza":"","lat":43.047653,"lng":141.321469,"zip":"0640807"},{"town":"南七条西二十六丁目","koaza":"","lat":43.047218,"lng":141.320572,"zip":"0640807"},{"town":"南七条西二丁目","koaza":"","lat":43.052376,"lng":141.356578,"zip":"0640807"},{"town":"南七条西三丁目","koaza":"","lat":43.052192,"lng":141.354995,"zip":"0640807"},{"town":"南七条西四丁目","koaza":"","lat":43.052004,"lng":141.353433,"zip":"0640807"},{"town":"南七条西五丁目","koaza":"","lat":43.051794,"lng":141.351839,"zip":"0640807"},{"town":"南七条西六丁目","koaza":"","lat":43.05158,"lng":141.350264,"zip":"0640807"},{"town":"南七条西七丁目","koaza":"","lat":43.051268,"lng":141.348731,"zip":"0640807"},{"town":"南七条西八丁目","koaza":"","lat":43.05111,"lng":141.347162,"zip":"0640807"},{"town":"南七条西九丁目","koaza":"","lat":43.050986,"lng":141.344862,"zip":"0640807"},{"town":"南七条東一丁目","koaza":"","lat":43.053432,"lng":141.359486,"zip":"0600057"},{"town":"南七条東二丁目","koaza":"","lat":43.053478,"lng":141.360442,"zip":"0600057"},{"town":"南八条西十丁目","koaza":"","lat":43.04938,"lng":141.343248,"zip":"0640808"},{"town":"南八条西十一丁目","koaza":"","lat":43.049215,"lng":141.341822,"zip":"0640808"},{"town":"南八条西十二丁目","koaza":"","lat":43.049051,"lng":141.340104,"zip":"0640808"},{"town":"南八条西十三丁目","koaza":"","lat":43.049039,"lng":141.338105,"zip":"0640808"},{"town":"南八条西十四丁目","koaza":"","lat":43.048815,"lng":141.336254,"zip":"0640808"},{"town":"南八条西十五丁目","koaza":"","lat":43.048773,"lng":141.334373,"zip":"0640808"},{"town":"南八条西十六丁目","koaza":"","lat":43.048465,"lng":141.332875,"zip":"0640808"},{"town":"南八条西十七丁目","koaza":"","lat":43.048359,"lng":141.331176,"zip":"0640808"},{"town":"南八条西十八丁目","koaza":"","lat":43.048233,"lng":141.329478,"zip":"0640808"},{"town":"南八条西一丁目","koaza":"","lat":43.050881,"lng":141.358757,"zip":"0640808"},{"town":"南八条西二十丁目","koaza":"","lat":43.048064,"lng":141.328257,"zip":"0640808"},{"town":"南八条西二十一丁目","koaza":"","lat":43.048285,"lng":141.327401,"zip":"0640808"},{"town":"南八条西二十二丁目","koaza":"","lat":43.048231,"lng":141.326083,"zip":"0640808"},{"town":"南八条西二十三丁目","koaza":"","lat":43.047443,"lng":141.32477,"zip":"0640808"},{"town":"南八条西二十四丁目","koaza":"","lat":43.0468,"lng":141.323439,"zip":"0640808"},{"town":"南八条西二十五丁目","koaza":"","lat":43.046162,"lng":141.32221,"zip":"0640808"},{"town":"南八条西二十六丁目","koaza":"","lat":43.045132,"lng":141.32066,"zip":"0640808"},{"town":"南八条西二丁目","koaza":"","lat":43.05107,"lng":141.357087,"zip":"0640808"},{"town":"南八条西三丁目","koaza":"","lat":43.050792,"lng":141.355352,"zip":"0640808"},{"town":"南八条西四丁目","koaza":"","lat":43.050627,"lng":141.353771,"zip":"0640808"},{"town":"南八条西五丁目","koaza":"","lat":43.050067,"lng":141.352418,"zip":"0640808"},{"town":"南八条西六丁目","koaza":"","lat":43.04982,"lng":141.350544,"zip":"0640808"},{"town":"南八条西七丁目","koaza":"","lat":43.049761,"lng":141.348773,"zip":"0640808"},{"town":"南八条西八丁目","koaza":"","lat":43.049631,"lng":141.346922,"zip":"0640808"},{"town":"南八条西九丁目","koaza":"","lat":43.049467,"lng":141.344933,"zip":"0640808"},{"town":"南九条西十丁目","koaza":"","lat":43.047793,"lng":141.343436,"zip":"0640809"},{"town":"南九条西十一丁目","koaza":"","lat":43.047749,"lng":141.341984,"zip":"0640809"},{"town":"南九条西十二丁目","koaza":"","lat":43.047629,"lng":141.34028,"zip":"0640809"},{"town":"南九条西十三丁目","koaza":"","lat":43.047379,"lng":141.338111,"zip":"0640809"},{"town":"南九条西十四丁目","koaza":"","lat":43.047333,"lng":141.336288,"zip":"0640809"},{"town":"南九条西十五丁目","koaza":"","lat":43.047185,"lng":141.334748,"zip":"0640809"},{"town":"南九条西十六丁目","koaza":"","lat":43.047106,"lng":141.333056,"zip":"0640809"},{"town":"南九条西十七丁目","koaza":"","lat":43.047233,"lng":141.331326,"zip":"0640809"},{"town":"南九条西十八丁目","koaza":"","lat":43.046927,"lng":141.329638,"zip":"0640809"},{"town":"南九条西一丁目","koaza":"","lat":43.04962,"lng":141.358157,"zip":"0640809"},{"town":"南九条西二十丁目","koaza":"","lat":43.04688,"lng":141.327484,"zip":"0640809"},{"town":"南九条西二十一丁目","koaza":"","lat":43.046201,"lng":141.324768,"zip":"0640809"},{"town":"南九条西二十二丁目","koaza":"","lat":43.04493,"lng":141.322664,"zip":"0640809"},{"town":"南九条西二十三丁目","koaza":"","lat":43.043625,"lng":141.321402,"zip":"0640809"},{"town":"南九条西二丁目","koaza":"","lat":43.049629,"lng":141.356928,"zip":"0640809"},{"town":"南九条西三丁目","koaza":"","lat":43.04947,"lng":141.355692,"zip":"0640809"},{"town":"南九条西四丁目","koaza":"","lat":43.048579,"lng":141.353361,"zip":"0640809"},{"town":"南九条西五丁目","koaza":"","lat":43.048407,"lng":141.352245,"zip":"0640809"},{"town":"南九条西六丁目","koaza":"","lat":43.048187,"lng":141.350838,"zip":"0640809"},{"town":"南九条西七丁目","koaza":"","lat":43.047972,"lng":141.349002,"zip":"0640809"},{"town":"南九条西八丁目","koaza":"","lat":43.048044,"lng":141.347128,"zip":"0640809"},{"town":"南九条西九丁目","koaza":"","lat":43.047949,"lng":141.345136,"zip":"0640809"},{"town":"宮ケ丘","koaza":"","lat":43.051478,"lng":141.306634,"zip":"0640959"},{"town":"宮ケ丘一丁目","koaza":"","lat":43.058156,"lng":141.312341,"zip":"0640959"},{"town":"宮ケ丘二丁目","koaza":"","lat":43.05803,"lng":141.31072,"zip":"0640959"},{"town":"宮ケ丘三丁目","koaza":"","lat":43.057254,"lng":141.309325,"zip":"0640959"},{"town":"宮の森","koaza":"","lat":43.044885,"lng":141.287113,"zip":"0640958"},{"town":"宮の森一条十丁目","koaza":"","lat":43.057091,"lng":141.30657,"zip":"0640951"},{"town":"宮の森一条十一丁目","koaza":"","lat":43.055977,"lng":141.304193,"zip":"0640951"},{"town":"宮の森一条十二丁目","koaza":"","lat":43.054523,"lng":141.303107,"zip":"0640951"},{"town":"宮の森一条十三丁目","koaza":"","lat":43.052889,"lng":141.302281,"zip":"0640951"},{"town":"宮の森一条十四丁目","koaza":"","lat":43.050015,"lng":141.30137,"zip":"0640951"},{"town":"宮の森一条十五丁目","koaza":"","lat":43.048828,"lng":141.297746,"zip":"0640951"},{"town":"宮の森一条十六丁目","koaza":"","lat":43.046152,"lng":141.294973,"zip":"0640951"},{"town":"宮の森一条十七丁目","koaza":"","lat":43.043314,"lng":141.292982,"zip":"0640951"},{"town":"宮の森一条十八丁目","koaza":"","lat":43.040884,"lng":141.291257,"zip":"0640951"},{"town":"宮の森一条一丁目","koaza":"","lat":43.064416,"lng":141.313022,"zip":"0640951"},{"town":"宮の森一条二丁目","koaza":"","lat":43.063436,"lng":141.31211,"zip":"0640951"},{"town":"宮の森一条三丁目","koaza":"","lat":43.062841,"lng":141.31129,"zip":"0640951"},{"town":"宮の森一条四丁目","koaza":"","lat":43.062216,"lng":141.310748,"zip":"0640951"},{"town":"宮の森一条五丁目","koaza":"","lat":43.061732,"lng":141.310386,"zip":"0640951"},{"town":"宮の森一条六丁目","koaza":"","lat":43.060501,"lng":141.309683,"zip":"0640951"},{"town":"宮の森一条七丁目","koaza":"","lat":43.059444,"lng":141.309185,"zip":"0640951"},{"town":"宮の森一条八丁目","koaza":"","lat":43.05886,"lng":141.308538,"zip":"0640951"},{"town":"宮の森一条九丁目","koaza":"","lat":43.058057,"lng":141.307943,"zip":"0640951"},{"town":"宮の森二条十丁目","koaza":"","lat":43.058164,"lng":141.303513,"zip":"0640952"},{"town":"宮の森二条十一丁目","koaza":"","lat":43.057189,"lng":141.301715,"zip":"0640952"},{"town":"宮の森二条十二丁目","koaza":"","lat":43.055839,"lng":141.30085,"zip":"0640952"},{"town":"宮の森二条十三丁目","koaza":"","lat":43.053684,"lng":141.300208,"zip":"0640952"},{"town":"宮の森二条十四丁目","koaza":"","lat":43.051695,"lng":141.300199,"zip":"0640952"},{"town":"宮の森二条十五丁目","koaza":"","lat":43.049126,"lng":141.295662,"zip":"0640952"},{"town":"宮の森二条十六丁目","koaza":"","lat":43.047166,"lng":141.291192,"zip":"0640952"},{"town":"宮の森二条十七丁目","koaza":"","lat":43.043801,"lng":141.290776,"zip":"0640952"},{"town":"宮の森二条一丁目","koaza":"","lat":43.06516,"lng":141.3118,"zip":"0640952"},{"town":"宮の森二条二丁目","koaza":"","lat":43.064318,"lng":141.310986,"zip":"0640952"},{"town":"宮の森二条三丁目","koaza":"","lat":43.06373,"lng":141.309874,"zip":"0640952"},{"town":"宮の森二条四丁目","koaza":"","lat":43.062998,"lng":141.309291,"zip":"0640952"},{"town":"宮の森二条五丁目","koaza":"","lat":43.062197,"lng":141.308941,"zip":"0640952"},{"town":"宮の森二条六丁目","koaza":"","lat":43.061779,"lng":141.307052,"zip":"0640952"},{"town":"宮の森二条七丁目","koaza":"","lat":43.060597,"lng":141.30707,"zip":"0640952"},{"town":"宮の森二条八丁目","koaza":"","lat":43.059754,"lng":141.306342,"zip":"0640952"},{"town":"宮の森二条九丁目","koaza":"","lat":43.059046,"lng":141.304913,"zip":"0640952"},{"town":"宮の森三条十丁目","koaza":"","lat":43.059194,"lng":141.301651,"zip":"0640953"},{"town":"宮の森三条十一丁目","koaza":"","lat":43.058514,"lng":141.298967,"zip":"0640953"},{"town":"宮の森三条十二丁目","koaza":"","lat":43.056508,"lng":141.297583,"zip":"0640953"},{"town":"宮の森三条十三丁目","koaza":"","lat":43.052626,"lng":141.297926,"zip":"0640953"},{"town":"宮の森三条一丁目","koaza":"","lat":43.06653,"lng":141.309367,"zip":"0640953"},{"town":"宮の森三条二丁目","koaza":"","lat":43.065852,"lng":141.308325,"zip":"0640953"},{"town":"宮の森三条三丁目","koaza":"","lat":43.065228,"lng":141.307614,"zip":"0640953"},{"town":"宮の森三条四丁目","koaza":"","lat":43.064511,"lng":141.306759,"zip":"0640953"},{"town":"宮の森三条五丁目","koaza":"","lat":43.063716,"lng":141.306022,"zip":"0640953"},{"town":"宮の森三条六丁目","koaza":"","lat":43.062888,"lng":141.305167,"zip":"0640953"},{"town":"宮の森三条七丁目","koaza":"","lat":43.061915,"lng":141.30375,"zip":"0640953"},{"town":"宮の森三条八丁目","koaza":"","lat":43.061089,"lng":141.302782,"zip":"0640953"},{"town":"宮の森三条九丁目","koaza":"","lat":43.060456,"lng":141.301575,"zip":"0640953"},{"town":"宮の森四条十丁目","koaza":"","lat":43.060356,"lng":141.298776,"zip":"0640954"},{"town":"宮の森四条十一丁目","koaza":"","lat":43.058653,"lng":141.295779,"zip":"0640954"},{"town":"宮の森四条十二丁目","koaza":"","lat":43.055479,"lng":141.294501,"zip":"0640954"},{"town":"宮の森四条十三丁目","koaza":"","lat":43.053373,"lng":141.295124,"zip":"0640954"},{"town":"宮の森四条一丁目","koaza":"","lat":43.067898,"lng":141.306688,"zip":"0640954"},{"town":"宮の森四条二丁目","koaza":"","lat":43.067178,"lng":141.305863,"zip":"0640954"},{"town":"宮の森四条三丁目","koaza":"","lat":43.066603,"lng":141.305015,"zip":"0640954"},{"town":"宮の森四条四丁目","koaza":"","lat":43.065829,"lng":141.304515,"zip":"0640954"},{"town":"宮の森四条五丁目","koaza":"","lat":43.065043,"lng":141.303407,"zip":"0640954"},{"town":"宮の森四条六丁目","koaza":"","lat":43.064284,"lng":141.3025,"zip":"0640954"},{"town":"宮の森四条七丁目","koaza":"","lat":43.063629,"lng":141.301729,"zip":"0640954"},{"town":"宮の森四条八丁目","koaza":"","lat":43.06287,"lng":141.30084,"zip":"0640954"},{"town":"宮の森四条九丁目","koaza":"","lat":43.061685,"lng":141.299348,"zip":"0640954"}]