[{"town":"有明","koaza":"","lat":42.932893,"lng":141.416259,"zip":"0040821"},{"town":"美しが丘一条十丁目","koaza":"","lat":42.97729,"lng":141.468694,"zip":"0040811"},{"town":"美しが丘一条一丁目","koaza":"","lat":42.989985,"lng":141.448709,"zip":"0040811"},{"town":"美しが丘一条二丁目","koaza":"","lat":42.989159,"lng":141.451063,"zip":"0040811"},{"town":"美しが丘一条三丁目","koaza":"","lat":42.987921,"lng":141.452361,"zip":"0040811"},{"town":"美しが丘一条四丁目","koaza":"","lat":42.986899,"lng":141.453582,"zip":"0040811"},{"town":"美しが丘一条五丁目","koaza":"","lat":42.984621,"lng":141.456448,"zip":"0040811"},{"town":"美しが丘一条六丁目","koaza":"","lat":42.982673,"lng":141.459665,"zip":"0040811"},{"town":"美しが丘一条七丁目","koaza":"","lat":42.981198,"lng":141.462399,"zip":"0040811"},{"town":"美しが丘一条八丁目","koaza":"","lat":42.979559,"lng":141.465403,"zip":"0040811"},{"town":"美しが丘一条九丁目","koaza":"","lat":42.977746,"lng":141.466391,"zip":"0040811"},{"town":"美しが丘二条十丁目","koaza":"","lat":42.97585,"lng":141.467205,"zip":"0040812"},{"town":"美しが丘二条一丁目","koaza":"","lat":42.988939,"lng":141.44707,"zip":"0040812"},{"town":"美しが丘二条二丁目","koaza":"","lat":42.987804,"lng":141.449417,"zip":"0040812"},{"town":"美しが丘二条三丁目","koaza":"","lat":42.986792,"lng":141.451364,"zip":"0040812"},{"town":"美しが丘二条四丁目","koaza":"","lat":42.984905,"lng":141.452073,"zip":"0040812"},{"town":"美しが丘二条五丁目","koaza":"","lat":42.983853,"lng":141.455031,"zip":"0040812"},{"town":"美しが丘二条六丁目","koaza":"","lat":42.981919,"lng":141.458426,"zip":"0040812"},{"town":"美しが丘二条七丁目","koaza":"","lat":42.978906,"lng":141.461193,"zip":"0040812"},{"town":"美しが丘二条八丁目","koaza":"","lat":42.978192,"lng":141.463964,"zip":"0040812"},{"town":"美しが丘二条九丁目","koaza":"","lat":42.976296,"lng":141.464752,"zip":"0040812"},{"town":"美しが丘三条十丁目","koaza":"","lat":42.974842,"lng":141.46637,"zip":"0040813"},{"town":"美しが丘三条一丁目","koaza":"","lat":42.987933,"lng":141.445954,"zip":"0040813"},{"town":"美しが丘三条二丁目","koaza":"","lat":42.98622,"lng":141.447931,"zip":"0040813"},{"town":"美しが丘三条三丁目","koaza":"","lat":42.984038,"lng":141.449416,"zip":"0040813"},{"town":"美しが丘三条四丁目","koaza":"","lat":42.982217,"lng":141.452073,"zip":"0040813"},{"town":"美しが丘三条五丁目","koaza":"","lat":42.981332,"lng":141.454194,"zip":"0040813"},{"town":"美しが丘三条六丁目","koaza":"","lat":42.979802,"lng":141.458125,"zip":"0040813"},{"town":"美しが丘三条七丁目","koaza":"","lat":42.977376,"lng":141.460625,"zip":"0040813"},{"town":"美しが丘三条八丁目","koaza":"","lat":42.977063,"lng":141.462577,"zip":"0040813"},{"town":"美しが丘三条九丁目","koaza":"","lat":42.975619,"lng":141.464075,"zip":"0040813"},{"town":"美しが丘四条十丁目","koaza":"","lat":42.973354,"lng":141.465202,"zip":"0040814"},{"town":"美しが丘四条五丁目","koaza":"","lat":42.979671,"lng":141.453206,"zip":"0040814"},{"town":"美しが丘四条六丁目","koaza":"","lat":42.977807,"lng":141.456121,"zip":"0040814"},{"town":"美しが丘四条七丁目","koaza":"","lat":42.976633,"lng":141.459642,"zip":"0040814"},{"town":"美しが丘四条八丁目","koaza":"","lat":42.975723,"lng":141.46125,"zip":"0040814"},{"town":"美しが丘四条九丁目","koaza":"","lat":42.974829,"lng":141.462796,"zip":"0040814"},{"town":"美しが丘五条五丁目","koaza":"","lat":42.977905,"lng":141.45003,"zip":"0040815"},{"town":"美しが丘五条六丁目","koaza":"","lat":42.975824,"lng":141.454277,"zip":"0040815"},{"town":"美しが丘五条九丁目","koaza":"","lat":42.973602,"lng":141.461973,"zip":"0040815"},{"town":"北野一条一丁目","koaza":"","lat":43.010025,"lng":141.425816,"zip":"0040861"},{"town":"北野一条二丁目","koaza":"","lat":43.007937,"lng":141.429546,"zip":"0040861"},{"town":"北野二条一丁目","koaza":"","lat":43.01236,"lng":141.428044,"zip":"0040862"},{"town":"北野二条二丁目","koaza":"","lat":43.011058,"lng":141.431612,"zip":"0040862"},{"town":"北野二条三丁目","koaza":"","lat":43.008858,"lng":141.43607,"zip":"0040862"},{"town":"北野三条一丁目","koaza":"","lat":43.015535,"lng":141.429967,"zip":"0040863"},{"town":"北野三条二丁目","koaza":"","lat":43.014095,"lng":141.433051,"zip":"0040863"},{"town":"北野三条三丁目","koaza":"","lat":43.011197,"lng":141.4375,"zip":"0040863"},{"town":"北野三条四丁目","koaza":"","lat":43.008455,"lng":141.441448,"zip":"0040863"},{"town":"北野三条五丁目","koaza":"","lat":43.007051,"lng":141.444592,"zip":"0040863"},{"town":"北野四条一丁目","koaza":"","lat":43.018235,"lng":141.43029,"zip":"0040864"},{"town":"北野四条二丁目","koaza":"","lat":43.017374,"lng":141.433129,"zip":"0040864"},{"town":"北野四条三丁目","koaza":"","lat":43.014599,"lng":141.437208,"zip":"0040864"},{"town":"北野四条四丁目","koaza":"","lat":43.01242,"lng":141.442724,"zip":"0040864"},{"town":"北野四条五丁目","koaza":"","lat":43.011117,"lng":141.447122,"zip":"0040864"},{"town":"北野五条一丁目","koaza":"","lat":43.019774,"lng":141.431475,"zip":"0040865"},{"town":"北野五条二丁目","koaza":"","lat":43.019156,"lng":141.433836,"zip":"0040865"},{"town":"北野五条三丁目","koaza":"","lat":43.017701,"lng":141.437507,"zip":"0040865"},{"town":"北野五条四丁目","koaza":"","lat":43.015227,"lng":141.442716,"zip":"0040865"},{"town":"北野五条五丁目","koaza":"","lat":43.014208,"lng":141.448941,"zip":"0040865"},{"town":"北野六条一丁目","koaza":"","lat":43.023645,"lng":141.431849,"zip":"0040866"},{"town":"北野六条二丁目","koaza":"","lat":43.021238,"lng":141.435259,"zip":"0040866"},{"town":"北野六条三丁目","koaza":"","lat":43.019961,"lng":141.437633,"zip":"0040866"},{"town":"北野六条四丁目","koaza":"","lat":43.018197,"lng":141.443453,"zip":"0040866"},{"town":"北野六条五丁目","koaza":"","lat":43.016428,"lng":141.44969,"zip":"0040866"},{"town":"北野七条一丁目","koaza":"","lat":43.024456,"lng":141.435005,"zip":"0040867"},{"town":"北野七条二丁目","koaza":"","lat":43.022952,"lng":141.437191,"zip":"0040867"},{"town":"北野七条三丁目","koaza":"","lat":43.02153,"lng":141.440401,"zip":"0040867"},{"town":"北野七条四丁目","koaza":"","lat":43.020292,"lng":141.444737,"zip":"0040867"},{"town":"北野七条五丁目","koaza":"","lat":43.018515,"lng":141.450438,"zip":"0040867"},{"town":"清田","koaza":"","lat":42.985107,"lng":141.419968,"zip":"0040859"},{"town":"清田十条三丁目","koaza":"","lat":42.981059,"lng":141.425004,"zip":"0040840"},{"town":"清田十条四丁目","koaza":"","lat":42.98007,"lng":141.428589,"zip":"0040840"},{"town":"清田一条一丁目","koaza":"","lat":43.003848,"lng":141.435711,"zip":"0040841"},{"town":"清田一条二丁目","koaza":"","lat":43.005267,"lng":141.439807,"zip":"0040841"},{"town":"清田一条三丁目","koaza":"","lat":43.003661,"lng":141.442828,"zip":"0040841"},{"town":"清田一条四丁目","koaza":"","lat":42.999698,"lng":141.440944,"zip":"0040841"},{"town":"清田二条一丁目","koaza":"","lat":43.004985,"lng":141.428751,"zip":"0040842"},{"town":"清田二条二丁目","koaza":"","lat":43.003029,"lng":141.432145,"zip":"0040842"},{"town":"清田二条三丁目","koaza":"","lat":43.000597,"lng":141.435678,"zip":"0040842"},{"town":"清田三条一丁目","koaza":"","lat":43.00274,"lng":141.426903,"zip":"0040843"},{"town":"清田三条二丁目","koaza":"","lat":43.000719,"lng":141.431061,"zip":"0040843"},{"town":"清田三条三丁目","koaza":"","lat":42.998724,"lng":141.433405,"zip":"0040843"},{"town":"清田四条一丁目","koaza":"","lat":43.000344,"lng":141.424911,"zip":"0040844"},{"town":"清田四条二丁目","koaza":"","lat":42.999357,"lng":141.428116,"zip":"0040844"},{"town":"清田四条三丁目","koaza":"","lat":42.99732,"lng":141.432294,"zip":"0040844"},{"town":"清田四条四丁目","koaza":"","lat":42.99642,"lng":141.434583,"zip":"0040844"},{"town":"清田五条一丁目","koaza":"","lat":42.998185,"lng":141.423454,"zip":"0040845"},{"town":"清田五条二丁目","koaza":"","lat":42.996712,"lng":141.427874,"zip":"0040845"},{"town":"清田五条三丁目","koaza":"","lat":42.995337,"lng":141.43234,"zip":"0040845"},{"town":"清田五条四丁目","koaza":"","lat":42.99509,"lng":141.435109,"zip":"0040845"},{"town":"清田六条一丁目","koaza":"","lat":42.995131,"lng":141.423148,"zip":"0040846"},{"town":"清田六条二丁目","koaza":"","lat":42.993241,"lng":141.428973,"zip":"0040846"},{"town":"清田六条三丁目","koaza":"","lat":42.992571,"lng":141.432322,"zip":"0040846"},{"town":"清田六条四丁目","koaza":"","lat":42.992781,"lng":141.434903,"zip":"0040846"},{"town":"清田七条一丁目","koaza":"","lat":42.993253,"lng":141.422101,"zip":"0040847"},{"town":"清田七条二丁目","koaza":"","lat":42.990628,"lng":141.426931,"zip":"0040847"},{"town":"清田七条三丁目","koaza":"","lat":42.988115,"lng":141.432854,"zip":"0040847"},{"town":"清田七条四丁目","koaza":"","lat":42.989322,"lng":141.436057,"zip":"0040847"},{"town":"清田八条一丁目","koaza":"","lat":42.989961,"lng":141.422751,"zip":"0040848"},{"town":"清田八条二丁目","koaza":"","lat":42.98814,"lng":141.425569,"zip":"0040848"},{"town":"清田八条三丁目","koaza":"","lat":42.984849,"lng":141.431662,"zip":"0040848"},{"town":"清田九条一丁目","koaza":"","lat":42.988203,"lng":141.421376,"zip":"0040849"},{"town":"清田九条三丁目","koaza":"","lat":42.981925,"lng":141.431423,"zip":"0040849"},{"town":"里塚","koaza":"","lat":42.969969,"lng":141.462757,"zip":"0040809"},{"town":"里塚一条一丁目","koaza":"","lat":42.988493,"lng":141.454646,"zip":"0040801"},{"town":"里塚一条二丁目","koaza":"","lat":42.987644,"lng":141.457465,"zip":"0040801"},{"town":"里塚一条三丁目","koaza":"","lat":42.985818,"lng":141.458146,"zip":"0040801"},{"town":"里塚一条四丁目","koaza":"","lat":42.983916,"lng":141.461653,"zip":"0040801"},{"town":"里塚二条一丁目","koaza":"","lat":42.990676,"lng":141.457685,"zip":"0040802"},{"town":"里塚二条二丁目","koaza":"","lat":42.990246,"lng":141.462424,"zip":"0040802"},{"town":"里塚二条三丁目","koaza":"","lat":42.988557,"lng":141.463537,"zip":"0040802"},{"town":"里塚二条四丁目","koaza":"","lat":42.985299,"lng":141.464478,"zip":"0040802"},{"town":"里塚二条五丁目","koaza":"","lat":42.984124,"lng":141.466791,"zip":"0040802"},{"town":"里塚二条六丁目","koaza":"","lat":42.981382,"lng":141.468042,"zip":"0040802"},{"town":"里塚二条七丁目","koaza":"","lat":42.97908,"lng":141.470125,"zip":"0040802"},{"town":"里塚三条一丁目","koaza":"","lat":42.992038,"lng":141.459669,"zip":"0040803"},{"town":"里塚三条二丁目","koaza":"","lat":42.992009,"lng":141.463974,"zip":"0040803"},{"town":"里塚三条三丁目","koaza":"","lat":42.990607,"lng":141.467149,"zip":"0040803"},{"town":"里塚三条四丁目","koaza":"","lat":42.988285,"lng":141.467331,"zip":"0040803"},{"town":"里塚三条五丁目","koaza":"","lat":42.98695,"lng":141.46928,"zip":"0040803"},{"town":"里塚三条六丁目","koaza":"","lat":42.983505,"lng":141.470798,"zip":"0040803"},{"town":"里塚三条七丁目","koaza":"","lat":42.981635,"lng":141.472343,"zip":"0040803"},{"town":"里塚四条一丁目","koaza":"","lat":42.994504,"lng":141.463087,"zip":"0040804"},{"town":"里塚四条三丁目","koaza":"","lat":42.993562,"lng":141.46713,"zip":"0040804"},{"town":"里塚緑ケ丘十丁目","koaza":"","lat":42.988316,"lng":141.471655,"zip":"0040805"},{"town":"里塚緑ケ丘十一丁目","koaza":"","lat":42.988325,"lng":141.474036,"zip":"0040805"},{"town":"里塚緑ケ丘十二丁目","koaza":"","lat":42.986068,"lng":141.474902,"zip":"0040805"},{"town":"里塚緑ケ丘一丁目","koaza":"","lat":43.000543,"lng":141.470337,"zip":"0040805"},{"town":"里塚緑ケ丘二丁目","koaza":"","lat":42.999809,"lng":141.474828,"zip":"0040805"},{"town":"里塚緑ケ丘三丁目","koaza":"","lat":42.997829,"lng":141.470578,"zip":"0040805"},{"town":"里塚緑ケ丘四丁目","koaza":"","lat":42.994584,"lng":141.470655,"zip":"0040805"},{"town":"里塚緑ケ丘五丁目","koaza":"","lat":42.996052,"lng":141.474034,"zip":"0040805"},{"town":"里塚緑ケ丘六丁目","koaza":"","lat":42.993725,"lng":141.477729,"zip":"0040805"},{"town":"里塚緑ケ丘七丁目","koaza":"","lat":42.991425,"lng":141.476292,"zip":"0040805"},{"town":"里塚緑ケ丘八丁目","koaza":"","lat":42.992818,"lng":141.474042,"zip":"0040805"},{"town":"里塚緑ケ丘九丁目","koaza":"","lat":42.99279,"lng":141.471272,"zip":"0040805"},{"town":"真栄","koaza":"","lat":42.966681,"lng":141.431141,"zip":"0040839"},{"town":"真栄一条一丁目","koaza":"","lat":42.998093,"lng":141.439132,"zip":"0040831"},{"town":"真栄一条二丁目","koaza":"","lat":42.994047,"lng":141.44357,"zip":"0040831"},{"town":"真栄二条一丁目","koaza":"","lat":42.994192,"lng":141.439989,"zip":"0040832"},{"town":"真栄二条二丁目","koaza":"","lat":42.99166,"lng":141.444565,"zip":"0040832"},{"town":"真栄三条二丁目","koaza":"","lat":42.990006,"lng":141.442853,"zip":"0040833"},{"town":"真栄四条一丁目","koaza":"","lat":42.987373,"lng":141.438152,"zip":"0040834"},{"town":"真栄四条二丁目","koaza":"","lat":42.986916,"lng":141.44078,"zip":"0040834"},{"town":"真栄四条三丁目","koaza":"","lat":42.985299,"lng":141.442722,"zip":"0040834"},{"town":"真栄四条四丁目","koaza":"","lat":42.9847,"lng":141.445373,"zip":"0040834"},{"town":"真栄四条五丁目","koaza":"","lat":42.982233,"lng":141.448465,"zip":"0040834"},{"town":"真栄五条一丁目","koaza":"","lat":42.983896,"lng":141.43617,"zip":"0040835"},{"town":"真栄五条二丁目","koaza":"","lat":42.982803,"lng":141.439619,"zip":"0040835"},{"town":"真栄五条三丁目","koaza":"","lat":42.981861,"lng":141.4429,"zip":"0040835"},{"town":"真栄五条四丁目","koaza":"","lat":42.980917,"lng":141.445635,"zip":"0040835"},{"town":"真栄五条五丁目","koaza":"","lat":42.979854,"lng":141.448932,"zip":"0040835"},{"town":"真栄六条一丁目","koaza":"","lat":42.98092,"lng":141.434085,"zip":"0040836"},{"town":"平岡十条一丁目","koaza":"","lat":43.018824,"lng":141.456831,"zip":"0040880"},{"town":"平岡十条二丁目","koaza":"","lat":43.017612,"lng":141.460222,"zip":"0040880"},{"town":"平岡十条三丁目","koaza":"","lat":43.015542,"lng":141.461841,"zip":"0040880"},{"town":"平岡一条一丁目","koaza":"","lat":42.998493,"lng":141.443506,"zip":"0040871"},{"town":"平岡一条二丁目","koaza":"","lat":42.996586,"lng":141.446317,"zip":"0040871"},{"town":"平岡一条三丁目","koaza":"","lat":42.995205,"lng":141.446971,"zip":"0040871"},{"town":"平岡一条四丁目","koaza":"","lat":42.993365,"lng":141.449151,"zip":"0040871"},{"town":"平岡一条五丁目","koaza":"","lat":42.991314,"lng":141.451498,"zip":"0040871"},{"town":"平岡一条六丁目","koaza":"","lat":42.990173,"lng":141.452852,"zip":"0040871"},{"town":"平岡二条一丁目","koaza":"","lat":43.001423,"lng":141.445657,"zip":"0040872"},{"town":"平岡二条二丁目","koaza":"","lat":42.999344,"lng":141.447907,"zip":"0040872"},{"town":"平岡二条三丁目","koaza":"","lat":42.997556,"lng":141.449318,"zip":"0040872"},{"town":"平岡二条四丁目","koaza":"","lat":42.995992,"lng":141.451478,"zip":"0040872"},{"town":"平岡二条五丁目","koaza":"","lat":42.993796,"lng":141.453901,"zip":"0040872"},{"town":"平岡二条六丁目","koaza":"","lat":42.99249,"lng":141.456281,"zip":"0040872"},{"town":"平岡三条一丁目","koaza":"","lat":43.004084,"lng":141.447219,"zip":"0040873"},{"town":"平岡三条二丁目","koaza":"","lat":43.001707,"lng":141.448991,"zip":"0040873"},{"town":"平岡三条三丁目","koaza":"","lat":43.000039,"lng":141.451967,"zip":"0040873"},{"town":"平岡三条四丁目","koaza":"","lat":42.997573,"lng":141.453681,"zip":"0040873"},{"town":"平岡三条五丁目","koaza":"","lat":42.998217,"lng":141.458144,"zip":"0040873"},{"town":"平岡三条六丁目","koaza":"","lat":42.995261,"lng":141.460847,"zip":"0040873"},{"town":"平岡四条一丁目","koaza":"","lat":43.006644,"lng":141.448809,"zip":"0040874"},{"town":"平岡四条二丁目","koaza":"","lat":43.004585,"lng":141.451227,"zip":"0040874"},{"town":"平岡四条三丁目","koaza":"","lat":43.003489,"lng":141.454156,"zip":"0040874"},{"town":"平岡四条六丁目","koaza":"","lat":42.998094,"lng":141.462235,"zip":"0040874"},{"town":"平岡四条七丁目","koaza":"","lat":42.997219,"lng":141.464829,"zip":"0040874"},{"town":"平岡五条一丁目","koaza":"","lat":43.008501,"lng":141.450323,"zip":"0040875"},{"town":"平岡五条二丁目","koaza":"","lat":43.007407,"lng":141.453092,"zip":"0040875"},{"town":"平岡五条三丁目","koaza":"","lat":43.006395,"lng":141.455402,"zip":"0040875"},{"town":"平岡五条四丁目","koaza":"","lat":43.00284,"lng":141.457951,"zip":"0040875"},{"town":"平岡五条六丁目","koaza":"","lat":43.000593,"lng":141.462937,"zip":"0040875"},{"town":"平岡六条一丁目","koaza":"","lat":43.010415,"lng":141.451288,"zip":"0040876"},{"town":"平岡六条二丁目","koaza":"","lat":43.009222,"lng":141.454322,"zip":"0040876"},{"town":"平岡六条三丁目","koaza":"","lat":43.007812,"lng":141.457203,"zip":"0040876"},{"town":"平岡六条四丁目","koaza":"","lat":43.006306,"lng":141.460004,"zip":"0040876"},{"town":"平岡七条一丁目","koaza":"","lat":43.012363,"lng":141.452586,"zip":"0040877"},{"town":"平岡七条二丁目","koaza":"","lat":43.010631,"lng":141.455278,"zip":"0040877"},{"town":"平岡七条三丁目","koaza":"","lat":43.01034,"lng":141.458927,"zip":"0040877"},{"town":"平岡七条四丁目","koaza":"","lat":43.008857,"lng":141.461617,"zip":"0040877"},{"town":"平岡八条一丁目","koaza":"","lat":43.014084,"lng":141.454043,"zip":"0040878"},{"town":"平岡八条二丁目","koaza":"","lat":43.012451,"lng":141.456483,"zip":"0040878"},{"town":"平岡八条三丁目","koaza":"","lat":43.012456,"lng":141.458952,"zip":"0040878"},{"town":"平岡八条四丁目","koaza":"","lat":43.009987,"lng":141.464055,"zip":"0040878"},{"town":"平岡九条一丁目","koaza":"","lat":43.016395,"lng":141.455349,"zip":"0040879"},{"town":"平岡九条二丁目","koaza":"","lat":43.014503,"lng":141.457864,"zip":"0040879"},{"town":"平岡九条三丁目","koaza":"","lat":43.013717,"lng":141.461257,"zip":"0040879"},{"town":"平岡九条四丁目","koaza":"","lat":43.012971,"lng":141.464042,"zip":"0040879"},{"town":"平岡公園","koaza":"","lat":43.001738,"lng":141.464782,"zip":"0040881"},{"town":"平岡公園東十丁目","koaza":"","lat":43.00293,"lng":141.474645,"zip":"0040882"},{"town":"平岡公園東十一丁目","koaza":"","lat":43.002886,"lng":141.471163,"zip":"0040882"},{"town":"平岡公園東一丁目","koaza":"","lat":43.011599,"lng":141.467441,"zip":"0040882"},{"town":"平岡公園東二丁目","koaza":"","lat":43.010328,"lng":141.46988,"zip":"0040882"},{"town":"平岡公園東三丁目","koaza":"","lat":43.008816,"lng":141.472397,"zip":"0040882"},{"town":"平岡公園東四丁目","koaza":"","lat":43.005098,"lng":141.471701,"zip":"0040882"},{"town":"平岡公園東五丁目","koaza":"","lat":43.005003,"lng":141.474073,"zip":"0040882"},{"town":"平岡公園東六丁目","koaza":"","lat":43.008036,"lng":141.475141,"zip":"0040882"},{"town":"平岡公園東七丁目","koaza":"","lat":43.006839,"lng":141.476948,"zip":"0040882"},{"town":"平岡公園東八丁目","koaza":"","lat":43.00621,"lng":141.479873,"zip":"0040882"},{"town":"平岡公園東九丁目","koaza":"","lat":43.002053,"lng":141.477844,"zip":"0040882"}]