[{"town":"字岩部","koaza":"","lat":41.522293,"lng":140.357052,"zip":"0491300"},{"town":"字浦和","koaza":"","lat":41.506433,"lng":140.291519,"zip":"0491300"},{"town":"字塩釜","koaza":"","lat":41.503285,"lng":140.2719,"zip":"0491300"},{"town":"字白符","koaza":"","lat":41.473037,"lng":140.216183,"zip":"0491300"},{"town":"字千軒","koaza":"","lat":41.57572,"lng":140.211303,"zip":"0491300"},{"town":"字館崎","koaza":"","lat":41.441096,"lng":140.226013,"zip":"0491300"},{"town":"字月崎","koaza":"","lat":41.489038,"lng":140.263032,"zip":"0491300"},{"town":"字豊浜","koaza":"","lat":41.449645,"lng":140.230964,"zip":"0491300"},{"town":"字桧倉","koaza":"","lat":41.517468,"lng":140.205175,"zip":"0491300"},{"town":"字日出","koaza":"","lat":41.507015,"lng":140.308228,"zip":"0491300"},{"town":"字日向","koaza":"","lat":41.471105,"lng":140.253382,"zip":"0491300"},{"town":"字福島","koaza":"","lat":41.482704,"lng":140.245902,"zip":"0491300"},{"town":"字松浦","koaza":"","lat":41.417013,"lng":140.211463,"zip":"0491300"},{"town":"字三岳","koaza":"","lat":41.508289,"lng":140.253472,"zip":"0491300"},{"town":"字宮歌","koaza":"","lat":41.456514,"lng":140.230028,"zip":"0491300"},{"town":"字美山","koaza":"","lat":41.446092,"lng":140.204221,"zip":"0491300"},{"town":"字吉岡","koaza":"","lat":41.44708,"lng":140.222663,"zip":"0491300"},{"town":"字吉野","koaza":"","lat":41.433042,"lng":140.214805,"zip":"0491300"}]