[{"town":"字赤神","koaza":"","lat":41.492914,"lng":140.073625,"zip":"0491500"},{"town":"字朝日","koaza":"","lat":41.432804,"lng":140.126726,"zip":"0491500"},{"town":"字愛宕","koaza":"","lat":41.445089,"lng":140.092964,"zip":"0491500"},{"town":"字荒谷","koaza":"","lat":41.43054,"lng":140.180849,"zip":"0491500"},{"town":"字江良","koaza":"","lat":41.554978,"lng":140.007851,"zip":"0491500"},{"town":"字大磯","koaza":"","lat":41.426343,"lng":140.094634,"zip":"0491500"},{"town":"字大沢","koaza":"","lat":41.448331,"lng":140.171775,"zip":"0491500"},{"town":"字大島","koaza":"","lat":41.510099,"lng":139.360479,"zip":"0491500"},{"town":"字大津","koaza":"","lat":41.565208,"lng":140.101262,"zip":"0491500"},{"town":"字上川","koaza":"","lat":41.479276,"lng":140.145887,"zip":"0491500"},{"town":"字神山","koaza":"","lat":41.618086,"lng":139.99154,"zip":"0491500"},{"town":"字唐津","koaza":"","lat":41.429354,"lng":140.103913,"zip":"0491500"},{"town":"字清部","koaza":"","lat":41.526242,"lng":140.016839,"zip":"0491500"},{"town":"字小島","koaza":"","lat":41.358899,"lng":139.804646,"zip":"0491500"},{"town":"字小浜","koaza":"","lat":41.519237,"lng":140.02359,"zip":"0491500"},{"town":"字札前","koaza":"","lat":41.470135,"lng":140.046134,"zip":"0491500"},{"town":"字静浦","koaza":"","lat":41.493721,"lng":140.03324,"zip":"0491500"},{"town":"字白神","koaza":"","lat":41.412351,"lng":140.188004,"zip":"0491500"},{"town":"字白坂","koaza":"","lat":41.578336,"lng":139.99323,"zip":"0491500"},{"town":"字神明","koaza":"","lat":41.457066,"lng":140.113025,"zip":"0491500"},{"town":"字高野","koaza":"","lat":41.546384,"lng":140.101423,"zip":"0491500"},{"town":"字建石","koaza":"","lat":41.431952,"lng":140.076647,"zip":"0491500"},{"town":"字館浜","koaza":"","lat":41.460573,"lng":140.071324,"zip":"0491500"},{"town":"字月島","koaza":"","lat":41.429496,"lng":140.123034,"zip":"0491500"},{"town":"字豊岡","koaza":"","lat":41.435443,"lng":140.116486,"zip":"0491500"},{"town":"字西館","koaza":"","lat":41.445076,"lng":140.102436,"zip":"0491500"},{"town":"字博多","koaza":"","lat":41.428658,"lng":140.100242,"zip":"0491500"},{"town":"字原口","koaza":"","lat":41.598271,"lng":140.022242,"zip":"0491500"},{"town":"字東山","koaza":"","lat":41.445091,"lng":140.119988,"zip":"0491500"},{"town":"字福山","koaza":"","lat":41.431828,"lng":140.111609,"zip":"0491500"},{"town":"字二越","koaza":"","lat":41.560724,"lng":139.995516,"zip":"0491500"},{"town":"字弁天","koaza":"","lat":41.42168,"lng":140.087902,"zip":"0491500"},{"town":"字松城","koaza":"","lat":41.430748,"lng":140.107234,"zip":"0491500"},{"town":"字茂草","koaza":"","lat":41.520106,"lng":140.096377,"zip":"0491500"}]