[{"town":"宇遠内","koaza":"","lat":44.937051,"lng":142.51172,"zip":"0985827"},{"town":"歌登大曲","koaza":"","lat":44.649941,"lng":142.494878,"zip":"0985445"},{"town":"歌登大奮","koaza":"","lat":44.71683,"lng":142.507149,"zip":"0985444"},{"town":"歌登上徳志別","koaza":"","lat":44.734278,"lng":142.609501,"zip":"0985443"},{"town":"歌登毛登別","koaza":"","lat":44.828327,"lng":142.361162,"zip":"0985221"},{"town":"歌登志美宇丹","koaza":"","lat":44.795326,"lng":142.582082,"zip":"0985441"},{"town":"歌登中央","koaza":"","lat":44.77964,"lng":142.435749,"zip":"0985212"},{"town":"歌登西歌登","koaza":"","lat":44.865014,"lng":142.401806,"zip":"0985211"},{"town":"歌登西町","koaza":"","lat":44.844978,"lng":142.473751,"zip":"0985206"},{"town":"歌登パンケナイ","koaza":"","lat":44.923075,"lng":142.442733,"zip":"0985201"},{"town":"歌登桧垣町","koaza":"","lat":44.837292,"lng":142.466878,"zip":"0985205"},{"town":"歌登東歌登","koaza":"","lat":44.822065,"lng":142.487502,"zip":"0985202"},{"town":"歌登東町","koaza":"","lat":44.842306,"lng":142.482228,"zip":"0985207"},{"town":"歌登辺毛内","koaza":"","lat":44.786922,"lng":142.511619,"zip":"0985203"},{"town":"歌登豊沃","koaza":"","lat":44.746344,"lng":142.646693,"zip":"0985442"},{"town":"歌登本幌別","koaza":"","lat":44.742436,"lng":142.375613,"zip":"0985213"},{"town":"歌登南町","koaza":"","lat":44.836583,"lng":142.476929,"zip":"0985204"},{"town":"梅ヶ枝町","koaza":"","lat":44.937665,"lng":142.583062,"zip":"0985800"},{"town":"岡島","koaza":"","lat":44.862783,"lng":142.58617,"zip":"0985802"},{"town":"乙忠部","koaza":"","lat":44.771829,"lng":142.685324,"zip":"0985952"},{"town":"音標","koaza":"","lat":44.679554,"lng":142.804095,"zip":"0985955"},{"town":"上音標","koaza":"","lat":44.652316,"lng":142.690635,"zip":"0985954"},{"town":"北浜町","koaza":"","lat":44.94439,"lng":142.580622,"zip":"0985826"},{"town":"幸町","koaza":"","lat":44.936083,"lng":142.584357,"zip":"0985805"},{"town":"栄町","koaza":"","lat":44.935822,"lng":142.576059,"zip":"0985821"},{"town":"下幌別","koaza":"","lat":44.889275,"lng":142.548977,"zip":"0985803"},{"town":"新港町","koaza":"","lat":44.926261,"lng":142.568006,"zip":"0985808"},{"town":"新栄町","koaza":"","lat":44.943279,"lng":142.578203,"zip":"0985825"},{"town":"問牧","koaza":"","lat":44.996679,"lng":142.503447,"zip":"0985815"},{"town":"徳志別","koaza":"","lat":44.814037,"lng":142.608267,"zip":"0985801"},{"town":"風烈布","koaza":"","lat":44.67662,"lng":142.62785,"zip":"0985953"},{"town":"北栄町","koaza":"","lat":44.944305,"lng":142.56999,"zip":"0985824"},{"town":"北幸町","koaza":"","lat":44.934135,"lng":142.569082,"zip":"0985822"},{"town":"本町","koaza":"","lat":44.938606,"lng":142.582011,"zip":"0985807"},{"town":"三笠町","koaza":"","lat":44.939421,"lng":142.571059,"zip":"0985823"},{"town":"岬町","koaza":"","lat":44.960031,"lng":142.575955,"zip":"0985814"},{"town":"南浜町","koaza":"","lat":44.920395,"lng":142.579864,"zip":"0985804"},{"town":"目梨泊","koaza":"","lat":45.035808,"lng":142.498003,"zip":"0985816"},{"town":"山臼","koaza":"","lat":44.806715,"lng":142.664413,"zip":"0985951"}]