[{"town":"字宇曽丹","koaza":"","lat":45.060567,"lng":142.374026,"zip":"0985700"},{"town":"字宇津内","koaza":"","lat":45.026371,"lng":142.266117,"zip":"0985700"},{"town":"字楓","koaza":"","lat":45.100447,"lng":142.348406,"zip":"0985700"},{"town":"字金ケ丘","koaza":"","lat":45.085735,"lng":142.298692,"zip":"0985700"},{"town":"字上茂宇津内","koaza":"","lat":45.045504,"lng":142.221352,"zip":"0985700"},{"town":"字共和","koaza":"","lat":45.175657,"lng":142.240713,"zip":"0985700"},{"town":"字下頓別","koaza":"","lat":45.058591,"lng":142.322914,"zip":"0985700"},{"town":"字斜内","koaza":"","lat":45.074198,"lng":142.452342,"zip":"0985700"},{"town":"字高砂","koaza":"","lat":45.030411,"lng":142.322279,"zip":"0985700"},{"town":"字戸出","koaza":"","lat":45.112711,"lng":142.375218,"zip":"0985700"},{"town":"字常盤","koaza":"","lat":45.077543,"lng":142.341866,"zip":"0985700"},{"town":"字豊寒別","koaza":"","lat":45.086043,"lng":142.406363,"zip":"0985700"},{"town":"字頓別","koaza":"","lat":45.151447,"lng":142.365283,"zip":"0985700"},{"town":"字仁達内","koaza":"","lat":45.100203,"lng":142.247291,"zip":"0985700"},{"town":"字浜頓別","koaza":"","lat":45.120229,"lng":142.388867,"zip":"0985700"},{"town":"旭ケ丘一丁目","koaza":"","lat":45.119878,"lng":142.362572,"zip":"0985741"},{"town":"旭ケ丘二丁目","koaza":"","lat":45.119589,"lng":142.364961,"zip":"0985741"},{"town":"旭ケ丘三丁目","koaza":"","lat":45.117436,"lng":142.367461,"zip":"0985741"},{"town":"旭ケ丘四丁目","koaza":"","lat":45.117282,"lng":142.365664,"zip":"0985741"},{"town":"旭ケ丘五丁目","koaza":"","lat":45.117399,"lng":142.362947,"zip":"0985741"},{"town":"旭ケ丘六丁目","koaza":"","lat":45.112697,"lng":142.363757,"zip":"0985741"},{"town":"字ポン仁達内","koaza":"","lat":45.125582,"lng":142.297561,"zip":"0985700"},{"town":"字茂宇津内","koaza":"","lat":45.062834,"lng":142.282666,"zip":"0985700"},{"town":"字安別","koaza":"","lat":45.142166,"lng":142.228046,"zip":"0985700"},{"town":"字山軽","koaza":"","lat":45.149472,"lng":142.326032,"zip":"0985700"},{"town":"大通一丁目","koaza":"","lat":45.124768,"lng":142.362288,"zip":"0985725"},{"town":"大通二丁目","koaza":"","lat":45.124969,"lng":142.363852,"zip":"0985725"},{"town":"大通三丁目","koaza":"","lat":45.125156,"lng":142.365409,"zip":"0985725"},{"town":"大通四丁目","koaza":"","lat":45.125345,"lng":142.366955,"zip":"0985725"},{"town":"大通五丁目","koaza":"","lat":45.125738,"lng":142.368421,"zip":"0985725"},{"town":"大通六丁目","koaza":"","lat":45.125902,"lng":142.369851,"zip":"0985725"},{"town":"大通七丁目","koaza":"","lat":45.126071,"lng":142.371147,"zip":"0985725"},{"town":"大通八丁目","koaza":"","lat":45.125987,"lng":142.373089,"zip":"0985725"},{"town":"北一条一丁目","koaza":"","lat":45.125613,"lng":142.362087,"zip":"0985700"},{"town":"北一条二丁目","koaza":"","lat":45.125788,"lng":142.363489,"zip":"0985700"},{"town":"北一条三丁目","koaza":"","lat":45.126026,"lng":142.365358,"zip":"0985700"},{"town":"北一条四丁目","koaza":"","lat":45.126204,"lng":142.366744,"zip":"0985700"},{"town":"北一条五丁目","koaza":"","lat":45.126733,"lng":142.368176,"zip":"0985700"},{"town":"北一条六丁目","koaza":"","lat":45.126695,"lng":142.369616,"zip":"0985700"},{"town":"北一条七丁目","koaza":"","lat":45.126921,"lng":142.371066,"zip":"0985700"},{"town":"北二条一丁目","koaza":"","lat":45.126439,"lng":142.361882,"zip":"0985700"},{"town":"北二条二丁目","koaza":"","lat":45.126633,"lng":142.363443,"zip":"0985700"},{"town":"北二条三丁目","koaza":"","lat":45.12684,"lng":142.365012,"zip":"0985700"},{"town":"北二条四丁目","koaza":"","lat":45.127032,"lng":142.366545,"zip":"0985700"},{"town":"北二条五丁目","koaza":"","lat":45.127284,"lng":142.368032,"zip":"0985700"},{"town":"北二条六丁目","koaza":"","lat":45.127186,"lng":142.369569,"zip":"0985700"},{"town":"北二条七丁目","koaza":"","lat":45.127363,"lng":142.370972,"zip":"0985700"},{"town":"北三条一丁目","koaza":"","lat":45.127262,"lng":142.36169,"zip":"0985700"},{"town":"北三条二丁目","koaza":"","lat":45.12747,"lng":142.363239,"zip":"0985700"},{"town":"北三条三丁目","koaza":"","lat":45.127673,"lng":142.364817,"zip":"0985700"},{"town":"北三条四丁目","koaza":"","lat":45.127852,"lng":142.366346,"zip":"0985700"},{"town":"北三条五丁目","koaza":"","lat":45.127756,"lng":142.367914,"zip":"0985700"},{"town":"北三条六丁目","koaza":"","lat":45.127794,"lng":142.369427,"zip":"0985700"},{"town":"北三条七丁目","koaza":"","lat":45.127991,"lng":142.370833,"zip":"0985700"},{"town":"北四条一丁目","koaza":"","lat":45.130345,"lng":142.360549,"zip":"0985700"},{"town":"北四条二丁目","koaza":"","lat":45.129396,"lng":142.363391,"zip":"0985700"},{"town":"北四条三丁目","koaza":"","lat":45.12918,"lng":142.365073,"zip":"0985700"},{"town":"北四条四丁目","koaza":"","lat":45.129549,"lng":142.365962,"zip":"0985700"},{"town":"北四条五丁目","koaza":"","lat":45.129316,"lng":142.369027,"zip":"0985700"},{"town":"北四条六丁目","koaza":"","lat":45.128691,"lng":142.369213,"zip":"0985700"},{"town":"北四条七丁目","koaza":"","lat":45.128544,"lng":142.370706,"zip":"0985700"},{"town":"北四条八丁目","koaza":"","lat":45.129958,"lng":142.372167,"zip":"0985700"},{"town":"クッチャロ湖畔","koaza":"","lat":45.127154,"lng":142.349682,"zip":"0985739"},{"town":"智福一丁目","koaza":"","lat":45.136185,"lng":142.365727,"zip":"0985761"},{"town":"智福二丁目","koaza":"","lat":45.147828,"lng":142.35216,"zip":"0985761"},{"town":"中央北","koaza":"","lat":45.125996,"lng":142.359167,"zip":"0985704"},{"town":"中央南","koaza":"","lat":45.12281,"lng":142.361261,"zip":"0985705"},{"town":"日の出一丁目","koaza":"","lat":45.124797,"lng":142.355689,"zip":"0985734"},{"town":"日の出二丁目","koaza":"","lat":45.12813,"lng":142.354814,"zip":"0985734"},{"town":"日の出三丁目","koaza":"","lat":45.129165,"lng":142.357635,"zip":"0985734"},{"town":"日の出四丁目","koaza":"","lat":45.133636,"lng":142.357913,"zip":"0985734"},{"town":"緑ケ丘一丁目","koaza":"","lat":45.123206,"lng":142.356091,"zip":"0985738"},{"town":"緑ケ丘二丁目","koaza":"","lat":45.121207,"lng":142.356607,"zip":"0985738"},{"town":"緑ケ丘三丁目","koaza":"","lat":45.122071,"lng":142.3594,"zip":"0985738"},{"town":"緑ケ丘四丁目","koaza":"","lat":45.119439,"lng":142.35861,"zip":"0985738"},{"town":"緑ケ丘五丁目","koaza":"","lat":45.117877,"lng":142.359581,"zip":"0985738"},{"town":"緑ケ丘六丁目","koaza":"","lat":45.118445,"lng":142.354178,"zip":"0985738"},{"town":"緑ケ丘七丁目","koaza":"","lat":45.11622,"lng":142.351107,"zip":"0985738"},{"town":"緑ケ丘八丁目","koaza":"","lat":45.112154,"lng":142.359927,"zip":"0985738"},{"town":"南一条一丁目","koaza":"","lat":45.123939,"lng":142.36251,"zip":"0985700"},{"town":"南一条二丁目","koaza":"","lat":45.124139,"lng":142.364064,"zip":"0985700"},{"town":"南一条三丁目","koaza":"","lat":45.124324,"lng":142.365618,"zip":"0985700"},{"town":"南一条四丁目","koaza":"","lat":45.124524,"lng":142.367144,"zip":"0985700"},{"town":"南一条五丁目","koaza":"","lat":45.124699,"lng":142.36867,"zip":"0985700"},{"town":"南一条六丁目","koaza":"","lat":45.124994,"lng":142.369924,"zip":"0985700"},{"town":"南一条七丁目","koaza":"","lat":45.124769,"lng":142.371257,"zip":"0985700"},{"town":"南二条一丁目","koaza":"","lat":45.123127,"lng":142.362723,"zip":"0985700"},{"town":"南二条二丁目","koaza":"","lat":45.12333,"lng":142.364266,"zip":"0985700"},{"town":"南二条三丁目","koaza":"","lat":45.123521,"lng":142.365807,"zip":"0985700"},{"town":"南二条四丁目","koaza":"","lat":45.123722,"lng":142.367347,"zip":"0985700"},{"town":"南二条五丁目","koaza":"","lat":45.123716,"lng":142.369256,"zip":"0985700"},{"town":"南三条一丁目","koaza":"","lat":45.121696,"lng":142.363096,"zip":"0985700"},{"town":"南三条二丁目","koaza":"","lat":45.121791,"lng":142.364662,"zip":"0985700"},{"town":"南三条三丁目","koaza":"","lat":45.121876,"lng":142.36659,"zip":"0985700"},{"town":"南三条四丁目","koaza":"","lat":45.122667,"lng":142.367617,"zip":"0985700"},{"town":"南三条五丁目","koaza":"","lat":45.123313,"lng":142.37153,"zip":"0985700"}]