[{"town":"秋勇留島","koaza":"","lat":43.367617,"lng":146.003754,"zip":"0870000"},{"town":"明郷","koaza":"","lat":43.263637,"lng":145.244786,"zip":"0860061"},{"town":"曙町一丁目","koaza":"","lat":43.332617,"lng":145.592715,"zip":"0870006"},{"town":"曙町二丁目","koaza":"","lat":43.331805,"lng":145.593957,"zip":"0870006"},{"town":"曙町三丁目","koaza":"","lat":43.331226,"lng":145.595614,"zip":"0870006"},{"town":"朝日町一丁目","koaza":"","lat":43.336156,"lng":145.585948,"zip":"0870014"},{"town":"朝日町二丁目","koaza":"","lat":43.335073,"lng":145.585883,"zip":"0870014"},{"town":"朝日町三丁目","koaza":"","lat":43.33568,"lng":145.587303,"zip":"0870014"},{"town":"厚床一丁目","koaza":"","lat":43.232452,"lng":145.257262,"zip":"0860064"},{"town":"厚床二丁目","koaza":"","lat":43.22915,"lng":145.24748,"zip":"0860064"},{"town":"有磯町一丁目","koaza":"","lat":43.333212,"lng":145.587562,"zip":"0870008"},{"town":"有磯町二丁目","koaza":"","lat":43.333677,"lng":145.589331,"zip":"0870008"},{"town":"梅ケ枝町一丁目","koaza":"","lat":43.333507,"lng":145.578379,"zip":"0870052"},{"town":"梅ケ枝町二丁目","koaza":"","lat":43.334238,"lng":145.579485,"zip":"0870052"},{"town":"梅ケ枝町三丁目","koaza":"","lat":43.334921,"lng":145.580884,"zip":"0870052"},{"town":"落石西","koaza":"","lat":43.174454,"lng":145.511118,"zip":"0881781"},{"town":"落石東","koaza":"","lat":43.203966,"lng":145.487311,"zip":"0881782"},{"town":"温根沼","koaza":"","lat":43.27401,"lng":145.504455,"zip":"0870035"},{"town":"温根元","koaza":"","lat":43.39197,"lng":145.756252,"zip":"0870166"},{"town":"海岸町一丁目","koaza":"","lat":43.339983,"lng":145.586694,"zip":"0870054"},{"town":"海岸町二丁目","koaza":"","lat":43.342566,"lng":145.586558,"zip":"0870054"},{"town":"桂木","koaza":"","lat":43.305838,"lng":145.601054,"zip":"0870023"},{"town":"川口","koaza":"","lat":43.262949,"lng":145.362378,"zip":"0860072"},{"town":"北浜町一丁目","koaza":"","lat":43.351455,"lng":145.595599,"zip":"0870001"},{"town":"北浜町二丁目","koaza":"","lat":43.353708,"lng":145.603281,"zip":"0870001"},{"town":"清隆町一丁目","koaza":"","lat":43.330751,"lng":145.579113,"zip":"0870042"},{"town":"清隆町二丁目","koaza":"","lat":43.329985,"lng":145.580112,"zip":"0870042"},{"town":"清隆町三丁目","koaza":"","lat":43.329085,"lng":145.58129,"zip":"0870042"},{"town":"光洋町一丁目","koaza":"","lat":43.328211,"lng":145.59449,"zip":"0870004"},{"town":"光洋町二丁目","koaza":"","lat":43.319523,"lng":145.59927,"zip":"0870004"},{"town":"光洋町三丁目","koaza":"","lat":43.32493,"lng":145.602123,"zip":"0870004"},{"town":"光洋町四丁目","koaza":"","lat":43.321123,"lng":145.609942,"zip":"0870004"},{"town":"光洋町五丁目","koaza":"","lat":43.320613,"lng":145.62814,"zip":"0870004"},{"town":"光和町一丁目","koaza":"","lat":43.327372,"lng":145.58031,"zip":"0870027"},{"town":"光和町二丁目","koaza":"","lat":43.326343,"lng":145.581074,"zip":"0870027"},{"town":"光和町三丁目","koaza":"","lat":43.325352,"lng":145.58228,"zip":"0870027"},{"town":"琴平町一丁目","koaza":"","lat":43.344862,"lng":145.585014,"zip":"0870055"},{"town":"琴平町二丁目","koaza":"","lat":43.344947,"lng":145.588345,"zip":"0870055"},{"town":"琴平町三丁目","koaza":"","lat":43.347266,"lng":145.588169,"zip":"0870055"},{"town":"湖南","koaza":"","lat":43.257248,"lng":145.320847,"zip":"0860062"},{"town":"駒場町一丁目","koaza":"","lat":43.335287,"lng":145.594213,"zip":"0870012"},{"town":"駒場町二丁目","koaza":"","lat":43.341396,"lng":145.59404,"zip":"0870012"},{"town":"駒場町三丁目","koaza":"","lat":43.353616,"lng":145.609538,"zip":"0870012"},{"town":"珸瑤瑁一丁目","koaza":"","lat":43.372448,"lng":145.774998,"zip":"0870164"},{"town":"珸瑤瑁二丁目","koaza":"","lat":43.360115,"lng":145.786238,"zip":"0870164"},{"town":"珸瑤瑁三丁目","koaza":"","lat":43.371756,"lng":145.804956,"zip":"0870164"},{"town":"昆布盛","koaza":"","lat":43.224256,"lng":145.523292,"zip":"0881784"},{"town":"幸町一丁目","koaza":"","lat":43.330356,"lng":145.587019,"zip":"0870021"},{"town":"幸町二丁目","koaza":"","lat":43.329258,"lng":145.587931,"zip":"0870021"},{"town":"幸町三丁目","koaza":"","lat":43.328125,"lng":145.5888,"zip":"0870021"},{"town":"栄町一丁目","koaza":"","lat":43.33657,"lng":145.589276,"zip":"0870010"},{"town":"栄町二丁目","koaza":"","lat":43.335597,"lng":145.590142,"zip":"0870010"},{"town":"定基町一丁目","koaza":"","lat":43.329082,"lng":145.572325,"zip":"0870047"},{"town":"定基町二丁目","koaza":"","lat":43.329849,"lng":145.573432,"zip":"0870047"},{"town":"定基町三丁目","koaza":"","lat":43.328271,"lng":145.573396,"zip":"0870047"},{"town":"定基町四丁目","koaza":"","lat":43.329051,"lng":145.57449,"zip":"0870047"},{"town":"汐見町一丁目","koaza":"","lat":43.339154,"lng":145.590444,"zip":"0870019"},{"town":"汐見町二丁目","koaza":"","lat":43.341802,"lng":145.589506,"zip":"0870019"},{"town":"敷島町一丁目","koaza":"","lat":43.324411,"lng":145.575714,"zip":"0870026"},{"town":"敷島町二丁目","koaza":"","lat":43.325123,"lng":145.578282,"zip":"0870026"},{"town":"志発島","koaza":"","lat":43.508774,"lng":146.137634,"zip":"0870000"},{"town":"春国岱","koaza":"","lat":43.278391,"lng":145.43728,"zip":"0870000"},{"town":"昭和町一丁目","koaza":"","lat":43.326433,"lng":145.590443,"zip":"0870022"},{"town":"昭和町二丁目","koaza":"","lat":43.324225,"lng":145.591856,"zip":"0870022"},{"town":"昭和町三丁目","koaza":"","lat":43.325093,"lng":145.594254,"zip":"0870022"},{"town":"昭和町四丁目","koaza":"","lat":43.318349,"lng":145.595788,"zip":"0870022"},{"town":"水晶島","koaza":"","lat":43.436418,"lng":145.915332,"zip":"0870000"},{"town":"大正町一丁目","koaza":"","lat":43.328929,"lng":145.583971,"zip":"0870028"},{"town":"大正町二丁目","koaza":"","lat":43.32791,"lng":145.584758,"zip":"0870028"},{"town":"大正町三丁目","koaza":"","lat":43.326892,"lng":145.585545,"zip":"0870028"},{"town":"宝町一丁目","koaza":"","lat":43.331494,"lng":145.589718,"zip":"0870005"},{"town":"宝町二丁目","koaza":"","lat":43.330392,"lng":145.590597,"zip":"0870005"},{"town":"宝町三丁目","koaza":"","lat":43.329375,"lng":145.59141,"zip":"0870005"},{"town":"多楽島","koaza":"","lat":43.632241,"lng":146.325012,"zip":"0870000"},{"town":"千島町一丁目","koaza":"","lat":43.337949,"lng":145.587399,"zip":"0870018"},{"town":"千島町二丁目","koaza":"","lat":43.338859,"lng":145.588424,"zip":"0870018"},{"town":"長節","koaza":"","lat":43.254538,"lng":145.550965,"zip":"0881785"},{"town":"月岡町一丁目","koaza":"","lat":43.315546,"lng":145.580178,"zip":"0870031"},{"town":"月岡町二丁目","koaza":"","lat":43.303293,"lng":145.578874,"zip":"0870031"},{"town":"月見町一丁目","koaza":"","lat":43.333772,"lng":145.591194,"zip":"0870007"},{"town":"月見町二丁目","koaza":"","lat":43.333743,"lng":145.592701,"zip":"0870007"},{"town":"東梅","koaza":"","lat":43.243556,"lng":145.495311,"zip":"0860074"},{"town":"常盤町一丁目","koaza":"","lat":43.330638,"lng":145.581239,"zip":"0870041"},{"town":"常盤町二丁目","koaza":"","lat":43.3309,"lng":145.582249,"zip":"0870041"},{"town":"常盤町三丁目","koaza":"","lat":43.331451,"lng":145.583574,"zip":"0870041"},{"town":"友知","koaza":"","lat":43.3261,"lng":145.663055,"zip":"0870161"},{"town":"豊里","koaza":"","lat":43.374046,"lng":145.718481,"zip":"0870167"},{"town":"鳴海町一丁目","koaza":"","lat":43.337386,"lng":145.584138,"zip":"0870017"},{"town":"鳴海町二丁目","koaza":"","lat":43.337975,"lng":145.585486,"zip":"0870017"},{"town":"鳴海町三丁目","koaza":"","lat":43.336514,"lng":145.584633,"zip":"0870017"},{"town":"鳴海町四丁目","koaza":"","lat":43.337029,"lng":145.586165,"zip":"0870017"},{"town":"西厚床","koaza":"","lat":43.231949,"lng":145.226019,"zip":"0860065"},{"town":"西浜町十丁目","koaza":"","lat":43.32275,"lng":145.555963,"zip":"0870025"},{"town":"西浜町一丁目","koaza":"","lat":43.319159,"lng":145.573803,"zip":"0870025"},{"town":"西浜町二丁目","koaza":"","lat":43.319938,"lng":145.569286,"zip":"0870025"},{"town":"西浜町三丁目","koaza":"","lat":43.319099,"lng":145.563835,"zip":"0870025"},{"town":"西浜町四丁目","koaza":"","lat":43.316921,"lng":145.564235,"zip":"0870025"},{"town":"西浜町五丁目","koaza":"","lat":43.314459,"lng":145.568573,"zip":"0870025"},{"town":"西浜町六丁目","koaza":"","lat":43.313958,"lng":145.560195,"zip":"0870025"},{"town":"西浜町七丁目","koaza":"","lat":43.324385,"lng":145.567572,"zip":"0870025"},{"town":"西浜町八丁目","koaza":"","lat":43.322217,"lng":145.562537,"zip":"0870025"},{"town":"西浜町九丁目","koaza":"","lat":43.319286,"lng":145.556988,"zip":"0870025"},{"town":"西和田","koaza":"","lat":43.25584,"lng":145.531613,"zip":"0870033"},{"town":"納沙布","koaza":"","lat":43.379056,"lng":145.794707,"zip":"0870165"},{"town":"初田牛","koaza":"","lat":43.212425,"lng":145.33224,"zip":"0860076"},{"town":"花咲町一丁目","koaza":"","lat":43.335725,"lng":145.581973,"zip":"0870015"},{"town":"花咲町二丁目","koaza":"","lat":43.334901,"lng":145.582428,"zip":"0870015"},{"town":"花咲町三丁目","koaza":"","lat":43.333973,"lng":145.583301,"zip":"0870015"},{"town":"花咲港","koaza":"","lat":43.289495,"lng":145.584087,"zip":"0870032"},{"town":"花園町一丁目","koaza":"","lat":43.326801,"lng":145.56899,"zip":"0870045"},{"town":"花園町二丁目","koaza":"","lat":43.327525,"lng":145.570135,"zip":"0870045"},{"town":"花園町三丁目","koaza":"","lat":43.328294,"lng":145.57123,"zip":"0870045"},{"town":"花園町四丁目","koaza":"","lat":43.325987,"lng":145.5701,"zip":"0870045"},{"town":"花園町五丁目","koaza":"","lat":43.326727,"lng":145.571183,"zip":"0870045"},{"town":"花園町六丁目","koaza":"","lat":43.327491,"lng":145.572287,"zip":"0870045"},{"town":"花園町七丁目","koaza":"","lat":43.325053,"lng":145.571319,"zip":"0870045"},{"town":"花園町八丁目","koaza":"","lat":43.325754,"lng":145.572449,"zip":"0870045"},{"town":"花園町九丁目","koaza":"","lat":43.326434,"lng":145.573661,"zip":"0870045"},{"town":"歯舞一丁目","koaza":"","lat":43.333592,"lng":145.729833,"zip":"0870163"},{"town":"歯舞二丁目","koaza":"","lat":43.347991,"lng":145.731739,"zip":"0870163"},{"town":"歯舞三丁目","koaza":"","lat":43.350882,"lng":145.759484,"zip":"0870163"},{"town":"歯舞四丁目","koaza":"","lat":43.340753,"lng":145.754448,"zip":"0870163"},{"town":"歯舞五丁目","koaza":"","lat":43.350252,"lng":145.77198,"zip":"0870163"},{"town":"浜松","koaza":"","lat":43.202141,"lng":145.524218,"zip":"0881783"},{"town":"東厚床","koaza":"","lat":43.220247,"lng":145.287829,"zip":"0860063"},{"town":"東和田","koaza":"","lat":43.29277,"lng":145.548542,"zip":"0870034"},{"town":"双沖一丁目","koaza":"","lat":43.340028,"lng":145.687152,"zip":"0870162"},{"town":"双沖二丁目","koaza":"","lat":43.345275,"lng":145.705015,"zip":"0870162"},{"town":"平内町一丁目","koaza":"","lat":43.330885,"lng":145.574168,"zip":"0870048"},{"town":"平内町二丁目","koaza":"","lat":43.331611,"lng":145.575276,"zip":"0870048"},{"town":"平内町三丁目","koaza":"","lat":43.329828,"lng":145.575588,"zip":"0870048"},{"town":"平内町四丁目","koaza":"","lat":43.330589,"lng":145.576679,"zip":"0870048"},{"town":"別当賀","koaza":"","lat":43.220236,"lng":145.402571,"zip":"0860075"},{"town":"弁天島","koaza":"","lat":43.342518,"lng":145.576698,"zip":"0870000"},{"town":"弁天町一丁目","koaza":"","lat":43.343219,"lng":145.591213,"zip":"0870011"},{"town":"弁天町二丁目","koaza":"","lat":43.344788,"lng":145.590715,"zip":"0870011"},{"town":"宝林町一丁目","koaza":"","lat":43.323715,"lng":145.583012,"zip":"0870024"},{"town":"宝林町二丁目","koaza":"","lat":43.325369,"lng":145.586143,"zip":"0870024"},{"town":"宝林町三丁目","koaza":"","lat":43.32345,"lng":145.588086,"zip":"0870024"},{"town":"宝林町四丁目","koaza":"","lat":43.31577,"lng":145.589868,"zip":"0870024"},{"town":"宝林町五丁目","koaza":"","lat":43.3077,"lng":145.589428,"zip":"0870024"},{"town":"北斗町一丁目","koaza":"","lat":43.329003,"lng":145.576678,"zip":"0870043"},{"town":"北斗町二丁目","koaza":"","lat":43.329779,"lng":145.577762,"zip":"0870043"},{"town":"北斗町三丁目","koaza":"","lat":43.328047,"lng":145.577892,"zip":"0870043"},{"town":"北斗町四丁目","koaza":"","lat":43.328715,"lng":145.57915,"zip":"0870043"},{"town":"穂香","koaza":"","lat":43.307715,"lng":145.535199,"zip":"0870037"},{"town":"幌茂尻","koaza":"","lat":43.292523,"lng":145.520096,"zip":"0870036"},{"town":"本町一丁目","koaza":"","lat":43.334077,"lng":145.578127,"zip":"0870053"},{"town":"本町二丁目","koaza":"","lat":43.335581,"lng":145.578623,"zip":"0870053"},{"town":"本町三丁目","koaza":"","lat":43.33688,"lng":145.578687,"zip":"0870053"},{"town":"本町四丁目","koaza":"","lat":43.337992,"lng":145.58104,"zip":"0870053"},{"town":"本町五丁目","koaza":"","lat":43.337873,"lng":145.58354,"zip":"0870053"},{"town":"牧の内","koaza":"","lat":43.357838,"lng":145.650281,"zip":"0870002"},{"town":"松ケ枝町一丁目","koaza":"","lat":43.336123,"lng":145.583196,"zip":"0870016"},{"town":"松ケ枝町二丁目","koaza":"","lat":43.335484,"lng":145.583821,"zip":"0870016"},{"town":"松ケ枝町三丁目","koaza":"","lat":43.334509,"lng":145.584556,"zip":"0870016"},{"town":"松本町一丁目","koaza":"","lat":43.32747,"lng":145.574448,"zip":"0870044"},{"town":"松本町二丁目","koaza":"","lat":43.328222,"lng":145.575576,"zip":"0870044"},{"town":"松本町三丁目","koaza":"","lat":43.326694,"lng":145.575451,"zip":"0870044"},{"town":"松本町四丁目","koaza":"","lat":43.327311,"lng":145.576774,"zip":"0870044"},{"town":"岬町一丁目","koaza":"","lat":43.327606,"lng":145.56792,"zip":"0870046"},{"town":"岬町二丁目","koaza":"","lat":43.328593,"lng":145.568742,"zip":"0870046"},{"town":"岬町三丁目","koaza":"","lat":43.329142,"lng":145.570157,"zip":"0870046"},{"town":"岬町四丁目","koaza":"","lat":43.329851,"lng":145.571255,"zip":"0870046"},{"town":"岬町五丁目","koaza":"","lat":43.33074,"lng":145.572418,"zip":"0870046"},{"town":"緑町一丁目","koaza":"","lat":43.332678,"lng":145.579154,"zip":"0870051"},{"town":"緑町二丁目","koaza":"","lat":43.333103,"lng":145.58053,"zip":"0870051"},{"town":"緑町三丁目","koaza":"","lat":43.333667,"lng":145.581858,"zip":"0870051"},{"town":"明治町一丁目","koaza":"","lat":43.333803,"lng":145.596328,"zip":"0870003"},{"town":"明治町二丁目","koaza":"","lat":43.331696,"lng":145.598868,"zip":"0870003"},{"town":"明治町三丁目","koaza":"","lat":43.331325,"lng":145.602261,"zip":"0870003"},{"town":"弥栄町一丁目","koaza":"","lat":43.331982,"lng":145.584842,"zip":"0870009"},{"town":"弥栄町二丁目","koaza":"","lat":43.332518,"lng":145.586115,"zip":"0870009"},{"town":"弥生町一丁目","koaza":"","lat":43.333099,"lng":145.576876,"zip":"0870049"},{"town":"弥生町二丁目","koaza":"","lat":43.33157,"lng":145.578064,"zip":"0870049"},{"town":"槍昔","koaza":"","lat":43.291789,"lng":145.278777,"zip":"0860071"},{"town":"勇留島","koaza":"","lat":43.421445,"lng":146.068617,"zip":"0870000"},{"town":"酪陽","koaza":"","lat":43.25788,"lng":145.42259,"zip":"0860073"}]