[{"town":"字旭","koaza":"","lat":42.093779,"lng":143.11929,"zip":"0580000"},{"town":"字鵜苫","koaza":"","lat":42.154458,"lng":142.888637,"zip":"0580000"},{"town":"字大泉","koaza":"","lat":42.185372,"lng":143.120455,"zip":"0580000"},{"town":"字岡田","koaza":"","lat":42.163122,"lng":142.942275,"zip":"0580000"},{"town":"字新富","koaza":"","lat":42.189301,"lng":143.015461,"zip":"0580000"},{"town":"字田代","koaza":"","lat":42.163451,"lng":142.974839,"zip":"0580000"},{"town":"字西様似","koaza":"","lat":42.165731,"lng":142.918702,"zip":"0580000"},{"town":"朝日丘","koaza":"","lat":42.131511,"lng":142.951863,"zip":"0580012"},{"town":"字平宇","koaza":"","lat":42.131891,"lng":142.981568,"zip":"0580000"},{"town":"字冬島","koaza":"","lat":42.108858,"lng":143.011941,"zip":"0580000"},{"town":"字幌満","koaza":"","lat":42.09816,"lng":143.045891,"zip":"0580000"},{"town":"大通一丁目","koaza":"","lat":42.127965,"lng":142.932439,"zip":"0580014"},{"town":"大通二丁目","koaza":"","lat":42.12677,"lng":142.938031,"zip":"0580014"},{"town":"大通三丁目","koaza":"","lat":42.126332,"lng":142.94332,"zip":"0580014"},{"town":"会所町","koaza":"","lat":42.122415,"lng":142.919345,"zip":"0580024"},{"town":"栄町","koaza":"","lat":42.133202,"lng":142.9305,"zip":"0580023"},{"town":"潮見台","koaza":"","lat":42.132479,"lng":142.916965,"zip":"0580027"},{"town":"錦町","koaza":"","lat":42.132956,"lng":142.939385,"zip":"0580015"},{"town":"西町","koaza":"","lat":42.135415,"lng":142.910218,"zip":"0580032"},{"town":"本町一丁目","koaza":"","lat":42.129667,"lng":142.914612,"zip":"0580026"},{"town":"本町二丁目","koaza":"","lat":42.128387,"lng":142.919619,"zip":"0580026"},{"town":"本町三丁目","koaza":"","lat":42.12654,"lng":142.92148,"zip":"0580026"},{"town":"緑町","koaza":"","lat":42.13248,"lng":142.942678,"zip":"0580013"},{"town":"港町","koaza":"","lat":42.128517,"lng":142.914026,"zip":"0580025"}]