[{"town":"字赤川","koaza":"","lat":43.33741,"lng":141.6523,"zip":"0610500"},{"town":"字厚軽臼内","koaza":"","lat":43.351949,"lng":141.722199,"zip":"0610500"},{"town":"字雁里","koaza":"","lat":43.296014,"lng":141.667037,"zip":"0610500"},{"town":"字北郷","koaza":"","lat":43.343703,"lng":141.633365,"zip":"0610500"},{"town":"字五耕地山","koaza":"","lat":43.339663,"lng":141.617018,"zip":"0610500"},{"town":"字札比内","koaza":"","lat":43.36895,"lng":141.747048,"zip":"0610500"},{"town":"字市南","koaza":"","lat":43.327405,"lng":141.67886,"zip":"0610500"},{"town":"字新生","koaza":"","lat":43.336207,"lng":141.688841,"zip":"0610500"},{"town":"字新田","koaza":"","lat":43.313245,"lng":141.612847,"zip":"0610500"},{"town":"字月形","koaza":"","lat":43.341217,"lng":141.674206,"zip":"0610500"},{"town":"字当別原野","koaza":"","lat":43.304709,"lng":141.61081,"zip":"0610500"},{"town":"字豊ケ丘","koaza":"","lat":43.371726,"lng":141.703377,"zip":"0610500"},{"town":"字農事会","koaza":"","lat":43.320936,"lng":141.673984,"zip":"0610500"},{"town":"字月ケ岡","koaza":"","lat":43.321018,"lng":141.625153,"zip":"0610500"},{"town":"字知来乙","koaza":"","lat":43.327076,"lng":141.636658,"zip":"0610500"},{"town":"字南耕地","koaza":"","lat":43.318298,"lng":141.648478,"zip":"0610500"}]