[{"town":"赤沼町","koaza":"","lat":41.930867,"lng":140.225427,"zip":"0431111"},{"town":"字相生","koaza":"","lat":41.972514,"lng":140.376393,"zip":"0431100"},{"town":"字旭丘","koaza":"","lat":41.957775,"lng":140.396987,"zip":"0431100"},{"town":"字稲見","koaza":"","lat":41.985994,"lng":140.275324,"zip":"0431100"},{"town":"字鶉","koaza":"","lat":41.939066,"lng":140.300747,"zip":"0431100"},{"town":"字上里","koaza":"","lat":41.93459,"lng":140.26332,"zip":"0431100"},{"town":"字上の山","koaza":"","lat":41.90271,"lng":140.257974,"zip":"0431100"},{"town":"字木間内","koaza":"","lat":41.937794,"lng":140.377961,"zip":"0431100"},{"town":"字共和","koaza":"","lat":41.961727,"lng":140.341249,"zip":"0431100"},{"town":"字清水","koaza":"","lat":42.011365,"lng":140.343921,"zip":"0431100"},{"town":"字社の山","koaza":"","lat":41.922666,"lng":140.387412,"zip":"0431100"},{"town":"字城丘","koaza":"","lat":41.836757,"lng":140.332521,"zip":"0431100"},{"town":"字新栄","koaza":"","lat":41.902342,"lng":140.304321,"zip":"0431100"},{"town":"字須賀","koaza":"","lat":41.903928,"lng":140.379348,"zip":"0431100"},{"town":"字滝野","koaza":"","lat":41.948679,"lng":140.247382,"zip":"0431100"},{"town":"字当路","koaza":"","lat":41.893001,"lng":140.282554,"zip":"0431100"},{"town":"字峠下","koaza":"","lat":41.981089,"lng":140.44288,"zip":"0431100"},{"town":"字富栄","koaza":"","lat":41.908977,"lng":140.213622,"zip":"0431100"},{"town":"字富里","koaza":"","lat":41.872811,"lng":140.410881,"zip":"0431100"},{"town":"字中館","koaza":"","lat":41.907316,"lng":140.327381,"zip":"0431100"},{"town":"字美和","koaza":"","lat":41.902352,"lng":140.193219,"zip":"0431100"},{"town":"鶉町","koaza":"","lat":41.927567,"lng":140.324973,"zip":"0431237"},{"town":"新町","koaza":"","lat":41.921023,"lng":140.225857,"zip":"0431113"},{"town":"館町","koaza":"","lat":41.897174,"lng":140.356873,"zip":"0431351"},{"town":"本町","koaza":"","lat":41.916673,"lng":140.225955,"zip":"0431114"},{"town":"松園町","koaza":"","lat":41.913974,"lng":140.234561,"zip":"0431115"},{"town":"緑町","koaza":"","lat":41.917221,"lng":140.216335,"zip":"0431112"},{"town":"南館町","koaza":"","lat":41.868791,"lng":140.274554,"zip":"0431365"}]