[{"town":"一条一丁目","koaza":"","lat":43.113328,"lng":141.560867,"zip":"0670000"},{"town":"一条二丁目","koaza":"","lat":43.112791,"lng":141.560277,"zip":"0670000"},{"town":"一条三丁目","koaza":"","lat":43.112177,"lng":141.559785,"zip":"0670000"},{"town":"二条一丁目","koaza":"","lat":43.113989,"lng":141.559999,"zip":"0670000"},{"town":"二条二丁目","koaza":"","lat":43.113291,"lng":141.559238,"zip":"0670000"},{"town":"二条三丁目","koaza":"","lat":43.112777,"lng":141.558786,"zip":"0670000"},{"town":"二条四丁目","koaza":"","lat":43.112246,"lng":141.558431,"zip":"0670000"},{"town":"二条五丁目","koaza":"","lat":43.111597,"lng":141.558296,"zip":"0670000"},{"town":"二条六丁目","koaza":"","lat":43.111172,"lng":141.557563,"zip":"0670000"},{"town":"三条一丁目","koaza":"","lat":43.114496,"lng":141.559128,"zip":"0670000"},{"town":"三条二丁目","koaza":"","lat":43.113688,"lng":141.558403,"zip":"0670000"},{"town":"三条三丁目","koaza":"","lat":43.113175,"lng":141.557947,"zip":"0670000"},{"town":"三条四丁目","koaza":"","lat":43.112668,"lng":141.557502,"zip":"0670000"},{"town":"三条五丁目","koaza":"","lat":43.112143,"lng":141.557029,"zip":"0670000"},{"town":"三条六丁目","koaza":"","lat":43.111617,"lng":141.556584,"zip":"0670000"},{"town":"四条一丁目","koaza":"","lat":43.114886,"lng":141.558086,"zip":"0670000"},{"town":"四条二丁目","koaza":"","lat":43.114149,"lng":141.557443,"zip":"0670000"},{"town":"四条三丁目","koaza":"","lat":43.113641,"lng":141.556995,"zip":"0670000"},{"town":"四条四丁目","koaza":"","lat":43.113124,"lng":141.556544,"zip":"0670000"},{"town":"四条五丁目","koaza":"","lat":43.11257,"lng":141.556069,"zip":"0670000"},{"town":"四条六丁目","koaza":"","lat":43.112158,"lng":141.555617,"zip":"0670000"},{"town":"四条七丁目","koaza":"","lat":43.111385,"lng":141.555729,"zip":"0670000"},{"town":"五条一丁目","koaza":"","lat":43.115333,"lng":141.557188,"zip":"0670000"},{"town":"五条二丁目","koaza":"","lat":43.114581,"lng":141.556548,"zip":"0670000"},{"town":"五条三丁目","koaza":"","lat":43.114075,"lng":141.556104,"zip":"0670000"},{"town":"五条四丁目","koaza":"","lat":43.113542,"lng":141.555634,"zip":"0670000"},{"town":"五条五丁目","koaza":"","lat":43.113054,"lng":141.555232,"zip":"0670000"},{"town":"五条六丁目","koaza":"","lat":43.112522,"lng":141.55475,"zip":"0670000"},{"town":"五条七丁目","koaza":"","lat":43.111661,"lng":141.553886,"zip":"0670000"},{"town":"六条五丁目","koaza":"","lat":43.113479,"lng":141.554188,"zip":"0670000"},{"town":"六条六丁目","koaza":"","lat":43.113032,"lng":141.553587,"zip":"0670000"},{"town":"六条七丁目","koaza":"","lat":43.112228,"lng":141.553282,"zip":"0670000"},{"town":"六条八丁目","koaza":"","lat":43.111427,"lng":141.552598,"zip":"0670000"},{"town":"七条六丁目","koaza":"","lat":43.113342,"lng":141.552634,"zip":"0670000"},{"town":"七条七丁目","koaza":"","lat":43.112695,"lng":141.552533,"zip":"0670000"},{"town":"七条八丁目","koaza":"","lat":43.111605,"lng":141.551592,"zip":"0670000"},{"town":"八条七丁目","koaza":"","lat":43.11295,"lng":141.551761,"zip":"0670000"},{"town":"八条八丁目","koaza":"","lat":43.111798,"lng":141.550567,"zip":"0670000"},{"town":"あけぼの町","koaza":"","lat":43.101886,"lng":141.577563,"zip":"0670025"},{"town":"あさひが丘","koaza":"","lat":43.086502,"lng":141.540926,"zip":"0690826"},{"town":"朝日町","koaza":"","lat":43.106276,"lng":141.573163,"zip":"0670024"},{"town":"いずみ野","koaza":"","lat":43.116689,"lng":141.533419,"zip":"0670034"},{"town":"一番町","koaza":"","lat":43.10896,"lng":141.548498,"zip":"0670072"},{"town":"江別太","koaza":"","lat":43.099823,"lng":141.603347,"zip":"0670022"},{"town":"王子","koaza":"","lat":43.118623,"lng":141.550862,"zip":"0670001"},{"town":"大麻","koaza":"","lat":43.081344,"lng":141.479407,"zip":"0690845"},{"town":"大麻泉町","koaza":"","lat":43.081365,"lng":141.51059,"zip":"0690864"},{"town":"大麻扇町","koaza":"","lat":43.067448,"lng":141.484523,"zip":"0690843"},{"town":"大麻北町","koaza":"","lat":43.088321,"lng":141.500595,"zip":"0690861"},{"town":"大麻栄町","koaza":"","lat":43.087025,"lng":141.50526,"zip":"0690862"},{"town":"大麻桜木町","koaza":"","lat":43.074552,"lng":141.485322,"zip":"0690846"},{"town":"大麻沢町","koaza":"","lat":43.070164,"lng":141.48787,"zip":"0690842"},{"town":"大麻新町","koaza":"","lat":43.084615,"lng":141.508351,"zip":"0690863"},{"town":"大麻園町","koaza":"","lat":43.081006,"lng":141.496789,"zip":"0690851"},{"town":"大麻高町","koaza":"","lat":43.076518,"lng":141.503747,"zip":"0690853"},{"town":"大麻中町","koaza":"","lat":43.073445,"lng":141.495015,"zip":"0690854"},{"town":"大麻西町","koaza":"","lat":43.063645,"lng":141.482971,"zip":"0690844"},{"town":"大麻晴美町","koaza":"","lat":43.084266,"lng":141.501314,"zip":"0690866"},{"town":"大麻東町","koaza":"","lat":43.078596,"lng":141.499829,"zip":"0690852"},{"town":"大麻ひかり町","koaza":"","lat":43.067854,"lng":141.478538,"zip":"0690847"},{"town":"大麻南樹町","koaza":"","lat":43.081942,"lng":141.504457,"zip":"0690865"},{"town":"大麻宮町","koaza":"","lat":43.076352,"lng":141.490093,"zip":"0690855"},{"town":"大麻元町","koaza":"","lat":43.082513,"lng":141.492331,"zip":"0690841"},{"town":"大川通","koaza":"","lat":43.116387,"lng":141.560217,"zip":"0670000"},{"town":"角山","koaza":"","lat":43.124406,"lng":141.479868,"zip":"0670052"},{"town":"上江別","koaza":"","lat":43.094152,"lng":141.557517,"zip":"0670064"},{"town":"上江別西町","koaza":"","lat":43.102603,"lng":141.549661,"zip":"0670063"},{"town":"上江別東町","koaza":"","lat":43.107783,"lng":141.559409,"zip":"0670061"},{"town":"上江別南町","koaza":"","lat":43.102584,"lng":141.55752,"zip":"0670062"},{"town":"工栄町","koaza":"","lat":43.125598,"lng":141.518918,"zip":"0670051"},{"town":"幸町","koaza":"","lat":43.098763,"lng":141.535549,"zip":"0690812"},{"town":"篠津","koaza":"","lat":43.146971,"lng":141.526236,"zip":"0670055"},{"town":"新栄台","koaza":"","lat":43.108435,"lng":141.514597,"zip":"0690806"},{"town":"高砂町","koaza":"","lat":43.102521,"lng":141.539385,"zip":"0670074"},{"town":"中央町","koaza":"","lat":43.104184,"lng":141.521622,"zip":"0690801"},{"town":"対雁","koaza":"","lat":43.120738,"lng":141.532562,"zip":"0670033"},{"town":"東光町","koaza":"","lat":43.11098,"lng":141.569257,"zip":"0670023"},{"town":"豊幌","koaza":"","lat":43.134696,"lng":141.642701,"zip":"0670021"},{"town":"豊幌花園町","koaza":"","lat":43.131905,"lng":141.619895,"zip":"0670026"},{"town":"豊幌はみんぐ町","koaza":"","lat":43.137738,"lng":141.63046,"zip":"0670028"},{"town":"豊幌美咲町","koaza":"","lat":43.133904,"lng":141.626456,"zip":"0670027"},{"town":"中島","koaza":"","lat":43.148149,"lng":141.496617,"zip":"0670053"},{"town":"錦町","koaza":"","lat":43.101807,"lng":141.527954,"zip":"0690811"},{"town":"西野幌","koaza":"","lat":43.048496,"lng":141.525398,"zip":"0690832"},{"town":"野幌寿町","koaza":"","lat":43.101759,"lng":141.516635,"zip":"0690802"},{"town":"野幌末広町","koaza":"","lat":43.090051,"lng":141.516035,"zip":"0690815"},{"town":"野幌住吉町","koaza":"","lat":43.091977,"lng":141.512335,"zip":"0690816"},{"town":"野幌町","koaza":"","lat":43.093789,"lng":141.526876,"zip":"0690813"},{"town":"野幌屯田町","koaza":"","lat":43.096819,"lng":141.51094,"zip":"0690803"},{"town":"野幌東町","koaza":"","lat":43.090919,"lng":141.534941,"zip":"0690825"},{"town":"野幌松並町","koaza":"","lat":43.086781,"lng":141.518387,"zip":"0690814"},{"town":"野幌美幸町","koaza":"","lat":43.093295,"lng":141.506,"zip":"0690804"},{"town":"野幌代々木町","koaza":"","lat":43.096877,"lng":141.520944,"zip":"0690817"},{"town":"野幌若葉町","koaza":"","lat":43.083459,"lng":141.52501,"zip":"0690831"},{"town":"萩ケ岡","koaza":"","lat":43.109903,"lng":141.554103,"zip":"0670071"},{"town":"東野幌","koaza":"","lat":43.059122,"lng":141.568467,"zip":"0690822"},{"town":"東野幌町","koaza":"","lat":43.093601,"lng":141.539364,"zip":"0690821"},{"town":"東野幌本町","koaza":"","lat":43.087571,"lng":141.531583,"zip":"0690824"},{"town":"文京台","koaza":"","lat":43.062674,"lng":141.490931,"zip":"0690833"},{"town":"文京台東町","koaza":"","lat":43.069075,"lng":141.497009,"zip":"0690834"},{"town":"文京台緑町","koaza":"","lat":43.074175,"lng":141.510374,"zip":"0690836"},{"town":"文京台南町","koaza":"","lat":43.063192,"lng":141.502272,"zip":"0690835"},{"town":"牧場町","koaza":"","lat":43.113826,"lng":141.537082,"zip":"0670005"},{"town":"緑ケ丘","koaza":"","lat":43.082962,"lng":141.537266,"zip":"0690823"},{"town":"緑町西一丁目","koaza":"","lat":43.113316,"lng":141.548838,"zip":"0670002"},{"town":"緑町西二丁目","koaza":"","lat":43.115182,"lng":141.544815,"zip":"0670002"},{"town":"緑町西三丁目","koaza":"","lat":43.117084,"lng":141.541855,"zip":"0670002"},{"town":"緑町東一丁目","koaza":"","lat":43.114829,"lng":141.550116,"zip":"0670003"},{"town":"緑町東二丁目","koaza":"","lat":43.116736,"lng":141.54622,"zip":"0670003"},{"town":"緑町東三丁目","koaza":"","lat":43.119768,"lng":141.54335,"zip":"0670003"},{"town":"緑町東四丁目","koaza":"","lat":43.121476,"lng":141.543986,"zip":"0670003"},{"town":"美原","koaza":"","lat":43.143856,"lng":141.581672,"zip":"0670056"},{"town":"見晴台","koaza":"","lat":43.112452,"lng":141.519585,"zip":"0670042"},{"town":"向ケ丘","koaza":"","lat":43.105763,"lng":141.533614,"zip":"0670075"},{"town":"萌えぎ野中央","koaza":"","lat":43.10924,"lng":141.579679,"zip":"0670058"},{"town":"萌えぎ野西","koaza":"","lat":43.114537,"lng":141.577509,"zip":"0670059"},{"town":"萌えぎ野東","koaza":"","lat":43.105262,"lng":141.582972,"zip":"0670057"},{"town":"元江別","koaza":"","lat":43.11556,"lng":141.525121,"zip":"0670032"},{"town":"元江別本町","koaza":"","lat":43.107923,"lng":141.528513,"zip":"0670041"},{"town":"元野幌","koaza":"","lat":43.105317,"lng":141.495767,"zip":"0690867"},{"town":"元町","koaza":"","lat":43.109032,"lng":141.538372,"zip":"0670031"},{"town":"八幡","koaza":"","lat":43.157669,"lng":141.474621,"zip":"0670054"},{"town":"弥生町","koaza":"","lat":43.106012,"lng":141.544427,"zip":"0670073"},{"town":"ゆめみ野東町","koaza":"","lat":43.101111,"lng":141.567875,"zip":"0670065"},{"town":"ゆめみ野南町","koaza":"","lat":43.098762,"lng":141.559908,"zip":"0670066"},{"town":"若草町","koaza":"","lat":43.1124,"lng":141.542549,"zip":"0670004"}]