[{"town":"字旭町","koaza":"","lat":42.485537,"lng":142.099616,"zip":"0550000"},{"town":"字厚賀町","koaza":"","lat":42.432497,"lng":142.218414,"zip":"0550000"},{"town":"字幾千世","koaza":"","lat":42.504246,"lng":142.126832,"zip":"0550000"},{"town":"字賀張","koaza":"","lat":42.480907,"lng":142.266309,"zip":"0550000"},{"town":"字清畠","koaza":"","lat":42.501958,"lng":142.233459,"zip":"0550000"},{"town":"字庫富","koaza":"","lat":42.53164,"lng":142.164244,"zip":"0550000"},{"town":"字正和","koaza":"","lat":42.537094,"lng":142.315845,"zip":"0550000"},{"town":"字千栄","koaza":"","lat":42.877732,"lng":142.613768,"zip":"0550000"},{"town":"字富岡","koaza":"","lat":42.842863,"lng":142.463776,"zip":"0550000"},{"town":"字富浜","koaza":"","lat":42.492604,"lng":142.037861,"zip":"0550000"},{"town":"字豊郷","koaza":"","lat":42.523855,"lng":142.214957,"zip":"0550000"},{"town":"字豊田","koaza":"","lat":42.467564,"lng":142.292173,"zip":"0550000"},{"town":"字日高","koaza":"","lat":42.896351,"lng":142.434477,"zip":"0550000"},{"town":"字平賀","koaza":"","lat":42.539925,"lng":142.038643,"zip":"0550000"},{"town":"字広富","koaza":"","lat":42.590886,"lng":142.252503,"zip":"0550000"},{"town":"字福満","koaza":"","lat":42.52511,"lng":142.08181,"zip":"0550000"},{"town":"字三岩","koaza":"","lat":42.825963,"lng":142.416972,"zip":"0550000"},{"town":"字緑町","koaza":"","lat":42.498762,"lng":142.073177,"zip":"0550000"},{"town":"字美原","koaza":"","lat":42.43886,"lng":142.241185,"zip":"0550000"},{"town":"字三和","koaza":"","lat":42.591337,"lng":142.388254,"zip":"0550000"},{"town":"栄町西一丁目","koaza":"","lat":42.878504,"lng":142.438081,"zip":"0552304"},{"town":"栄町西二丁目","koaza":"","lat":42.876242,"lng":142.434704,"zip":"0552304"},{"town":"栄町東一丁目","koaza":"","lat":42.879529,"lng":142.439718,"zip":"0552303"},{"town":"栄町東二丁目","koaza":"","lat":42.880637,"lng":142.44179,"zip":"0552303"},{"town":"新町一丁目","koaza":"","lat":42.879748,"lng":142.435831,"zip":"0552305"},{"town":"新町二丁目","koaza":"","lat":42.879976,"lng":142.432581,"zip":"0552305"},{"town":"新町三丁目","koaza":"","lat":42.884267,"lng":142.432368,"zip":"0552305"},{"town":"富川北一丁目","koaza":"","lat":42.520085,"lng":142.041175,"zip":"0550001"},{"town":"富川北二丁目","koaza":"","lat":42.521073,"lng":142.033482,"zip":"0550001"},{"town":"富川北三丁目","koaza":"","lat":42.522617,"lng":142.031423,"zip":"0550001"},{"town":"富川北四丁目","koaza":"","lat":42.522884,"lng":142.028063,"zip":"0550001"},{"town":"富川北五丁目","koaza":"","lat":42.532706,"lng":142.020652,"zip":"0550001"},{"town":"富川北六丁目","koaza":"","lat":42.523923,"lng":142.03524,"zip":"0550001"},{"town":"富川北七丁目","koaza":"","lat":42.52537,"lng":142.036768,"zip":"0550001"},{"town":"富川駒丘","koaza":"","lat":42.540305,"lng":142.002658,"zip":"0550008"},{"town":"富川西十丁目","koaza":"","lat":42.533912,"lng":141.98914,"zip":"0550007"},{"town":"富川西十一丁目","koaza":"","lat":42.537784,"lng":141.984979,"zip":"0550007"},{"town":"富川西十二丁目","koaza":"","lat":42.518733,"lng":141.98939,"zip":"0550007"},{"town":"富川西一丁目","koaza":"","lat":42.52297,"lng":142.022767,"zip":"0550007"},{"town":"富川西二丁目","koaza":"","lat":42.52502,"lng":142.01902,"zip":"0550007"},{"town":"富川西三丁目","koaza":"","lat":42.527423,"lng":142.016836,"zip":"0550007"},{"town":"富川西四丁目","koaza":"","lat":42.533255,"lng":142.012205,"zip":"0550007"},{"town":"富川西五丁目","koaza":"","lat":42.517223,"lng":142.0132,"zip":"0550007"},{"town":"富川西六丁目","koaza":"","lat":42.520242,"lng":142.009997,"zip":"0550007"},{"town":"富川西七丁目","koaza":"","lat":42.524263,"lng":142.005407,"zip":"0550007"},{"town":"富川西八丁目","koaza":"","lat":42.527955,"lng":142.000849,"zip":"0550007"},{"town":"富川西九丁目","koaza":"","lat":42.530761,"lng":141.994711,"zip":"0550007"},{"town":"富川東一丁目","koaza":"","lat":42.518062,"lng":142.049602,"zip":"0550004"},{"town":"富川東二丁目","koaza":"","lat":42.513223,"lng":142.053687,"zip":"0550004"},{"town":"富川東三丁目","koaza":"","lat":42.508118,"lng":142.061326,"zip":"0550004"},{"town":"富川東四丁目","koaza":"","lat":42.508153,"lng":142.02779,"zip":"0550004"},{"town":"富川東五丁目","koaza":"","lat":42.504152,"lng":142.035518,"zip":"0550004"},{"town":"富川東六丁目","koaza":"","lat":42.498252,"lng":142.0459,"zip":"0550004"},{"town":"富川南一丁目","koaza":"","lat":42.517555,"lng":142.029798,"zip":"0550006"},{"town":"富川南二丁目","koaza":"","lat":42.517973,"lng":142.020406,"zip":"0550006"},{"town":"富川南三丁目","koaza":"","lat":42.515942,"lng":142.02679,"zip":"0550006"},{"town":"富川南四丁目","koaza":"","lat":42.514199,"lng":142.022729,"zip":"0550006"},{"town":"富川南五丁目","koaza":"","lat":42.508579,"lng":142.016929,"zip":"0550006"},{"town":"富川南六丁目","koaza":"","lat":42.51339,"lng":142.014176,"zip":"0550006"},{"town":"本町西一丁目","koaza":"","lat":42.875805,"lng":142.441241,"zip":"0552302"},{"town":"本町西二丁目","koaza":"","lat":42.876028,"lng":142.439268,"zip":"0552302"},{"town":"本町西三丁目","koaza":"","lat":42.876784,"lng":142.438675,"zip":"0552302"},{"town":"本町東一丁目","koaza":"","lat":42.877135,"lng":142.442154,"zip":"0552301"},{"town":"本町東二丁目","koaza":"","lat":42.876442,"lng":142.445979,"zip":"0552301"},{"town":"本町東三丁目","koaza":"","lat":42.878775,"lng":142.442022,"zip":"0552301"},{"town":"松風町一丁目","koaza":"","lat":42.877763,"lng":142.448775,"zip":"0552307"},{"town":"松風町二丁目","koaza":"","lat":42.87999,"lng":142.446118,"zip":"0552307"},{"town":"宮下町一丁目","koaza":"","lat":42.88139,"lng":142.438801,"zip":"0552306"},{"town":"宮下町二丁目","koaza":"","lat":42.881981,"lng":142.436997,"zip":"0552306"},{"town":"宮下町三丁目","koaza":"","lat":42.884847,"lng":142.43693,"zip":"0552306"},{"town":"門別本町","koaza":"","lat":42.474516,"lng":142.079071,"zip":"0592121"},{"town":"山手町一丁目","koaza":"","lat":42.88175,"lng":142.449717,"zip":"0552308"},{"town":"山手町二丁目","koaza":"","lat":42.884213,"lng":142.443821,"zip":"0552308"},{"town":"山手町三丁目","koaza":"","lat":42.886002,"lng":142.449782,"zip":"0552308"},{"town":"若葉町一丁目","koaza":"","lat":42.872458,"lng":142.435553,"zip":"0552309"},{"town":"若葉町二丁目","koaza":"","lat":42.874981,"lng":142.442202,"zip":"0552309"}]