[{"town":"字イショッポ","koaza":"","lat":43.126471,"lng":143.354112,"zip":"0801200"},{"town":"字ウリマク","koaza":"","lat":43.164061,"lng":143.134381,"zip":"0801200"},{"town":"字ウリマク西十線","koaza":"","lat":43.165805,"lng":143.144433,"zip":"0801200"},{"town":"字ウリマク西十一線","koaza":"","lat":43.16696,"lng":143.138189,"zip":"0801200"},{"town":"字ウリマク西十二線","koaza":"","lat":43.168213,"lng":143.132197,"zip":"0801200"},{"town":"字ウリマク西十三線","koaza":"","lat":43.171072,"lng":143.127853,"zip":"0801200"},{"town":"字ウリマク西九線","koaza":"","lat":43.164749,"lng":143.150329,"zip":"0801200"},{"town":"字上音更","koaza":"","lat":43.210296,"lng":143.131086,"zip":"0801200"},{"town":"字上音更基線","koaza":"","lat":43.210123,"lng":143.231138,"zip":"0801200"},{"town":"字上音更西十線","koaza":"","lat":43.176274,"lng":143.148415,"zip":"0801200"},{"town":"字上音更西十一線","koaza":"","lat":43.177426,"lng":143.141778,"zip":"0801200"},{"town":"字上音更西十二線","koaza":"","lat":43.178627,"lng":143.135123,"zip":"0801200"},{"town":"字上音更西十三線","koaza":"","lat":43.17855,"lng":143.127337,"zip":"0801200"},{"town":"字上音更西十四線","koaza":"","lat":43.181254,"lng":143.121486,"zip":"0801200"},{"town":"字上音更西十五線","koaza":"","lat":43.216381,"lng":143.12711,"zip":"0801200"},{"town":"字上音更西十六線","koaza":"","lat":43.217214,"lng":143.122661,"zip":"0801200"},{"town":"字上音更西一線","koaza":"","lat":43.211185,"lng":143.224615,"zip":"0801200"},{"town":"字上音更西二線","koaza":"","lat":43.209497,"lng":143.216339,"zip":"0801200"},{"town":"字上音更西三線","koaza":"","lat":43.216332,"lng":143.21208,"zip":"0801200"},{"town":"字上音更西四線","koaza":"","lat":43.218588,"lng":143.205678,"zip":"0801200"},{"town":"字上音更西五線","koaza":"","lat":43.177643,"lng":143.183419,"zip":"0801200"},{"town":"字上音更西六線","koaza":"","lat":43.204428,"lng":143.186666,"zip":"0801200"},{"town":"字上音更西七線","koaza":"","lat":43.167353,"lng":143.166241,"zip":"0801200"},{"town":"字上音更西八線","koaza":"","lat":43.167681,"lng":143.159391,"zip":"0801200"},{"town":"字上音更西九線","koaza":"","lat":43.212783,"lng":143.168376,"zip":"0801200"},{"town":"字上音更東一線","koaza":"","lat":43.210269,"lng":143.237936,"zip":"0801200"},{"town":"字上音更東二線","koaza":"","lat":43.211371,"lng":143.24546,"zip":"0801200"},{"town":"字上音更東三線","koaza":"","lat":43.211734,"lng":143.252288,"zip":"0801200"},{"town":"字士幌","koaza":"","lat":43.199175,"lng":143.351622,"zip":"0801200"},{"town":"字士幌幹線","koaza":"","lat":43.171028,"lng":143.237682,"zip":"0801200"},{"town":"字士幌幹西一線","koaza":"","lat":43.171613,"lng":143.23159,"zip":"0801200"},{"town":"字士幌幹西二線","koaza":"","lat":43.171145,"lng":143.22413,"zip":"0801200"},{"town":"字士幌幹西三線","koaza":"","lat":43.177417,"lng":143.220562,"zip":"0801200"},{"town":"字士幌幹東一線","koaza":"","lat":43.147272,"lng":143.235047,"zip":"0801200"},{"town":"字士幌基線","koaza":"","lat":43.173708,"lng":143.260915,"zip":"0801200"},{"town":"字士幌仲通","koaza":"","lat":43.168944,"lng":143.246195,"zip":"0801200"},{"town":"字士幌西一線","koaza":"","lat":43.174583,"lng":143.254082,"zip":"0801200"},{"town":"字士幌西二線","koaza":"","lat":43.190041,"lng":143.250524,"zip":"0801200"},{"town":"字士幌西三線","koaza":"","lat":43.187278,"lng":143.245302,"zip":"0801200"},{"town":"字士幌東十線","koaza":"","lat":43.179528,"lng":143.331832,"zip":"0801200"},{"town":"字士幌東十一線","koaza":"","lat":43.178605,"lng":143.339243,"zip":"0801200"},{"town":"字士幌東十二線","koaza":"","lat":43.177122,"lng":143.345741,"zip":"0801200"},{"town":"字士幌東十三線","koaza":"","lat":43.178517,"lng":143.3521,"zip":"0801200"},{"town":"字士幌東十四線","koaza":"","lat":43.178938,"lng":143.35908,"zip":"0801200"},{"town":"字士幌東十五線","koaza":"","lat":43.178094,"lng":143.365575,"zip":"0801200"},{"town":"字士幌東十六線","koaza":"","lat":43.172286,"lng":143.371535,"zip":"0801200"},{"town":"字士幌東十七線","koaza":"","lat":43.171153,"lng":143.378173,"zip":"0801200"},{"town":"字士幌東十八線","koaza":"","lat":43.170348,"lng":143.384804,"zip":"0801200"},{"town":"字士幌東一線","koaza":"","lat":43.187053,"lng":143.270644,"zip":"0801200"},{"town":"字士幌東二線","koaza":"","lat":43.186251,"lng":143.277347,"zip":"0801200"},{"town":"字士幌東三線","koaza":"","lat":43.18541,"lng":143.284138,"zip":"0801200"},{"town":"字士幌東四線","koaza":"","lat":43.18458,"lng":143.290855,"zip":"0801200"},{"town":"字士幌東五線","koaza":"","lat":43.1838,"lng":143.297606,"zip":"0801200"},{"town":"字士幌東六線","koaza":"","lat":43.172932,"lng":143.302134,"zip":"0801200"},{"town":"字士幌東七線","koaza":"","lat":43.172129,"lng":143.30925,"zip":"0801200"},{"town":"字士幌東八線","koaza":"","lat":43.181286,"lng":143.318149,"zip":"0801200"},{"town":"字士幌東九線","koaza":"","lat":43.180299,"lng":143.324941,"zip":"0801200"},{"town":"字士幌本通西","koaza":"","lat":43.16983,"lng":143.243965,"zip":"0801200"},{"town":"字士幌本通東","koaza":"","lat":43.16913,"lng":143.249689,"zip":"0801200"},{"town":"字下居辺","koaza":"","lat":43.101967,"lng":143.36844,"zip":"0801200"},{"town":"字下居辺基線","koaza":"","lat":43.12813,"lng":143.375001,"zip":"0801200"},{"town":"字下居辺北一線","koaza":"","lat":43.146852,"lng":143.377125,"zip":"0801200"},{"town":"字下居辺北二線","koaza":"","lat":43.140647,"lng":143.383707,"zip":"0801200"},{"town":"字下居辺北三線","koaza":"","lat":43.115579,"lng":143.404681,"zip":"0801200"},{"town":"字下居辺北四線","koaza":"","lat":43.122498,"lng":143.396552,"zip":"0801200"},{"town":"字下居辺北五線","koaza":"","lat":43.128809,"lng":143.398829,"zip":"0801200"},{"town":"字下居辺西二線","koaza":"","lat":43.129795,"lng":143.369208,"zip":"0801200"},{"town":"字下居辺西三線","koaza":"","lat":43.131416,"lng":143.362721,"zip":"0801200"},{"town":"字下居辺東一線","koaza":"","lat":43.153035,"lng":143.372883,"zip":"0801200"},{"town":"字下居辺南二線","koaza":"","lat":43.10449,"lng":143.388523,"zip":"0801200"},{"town":"字下居辺南三線","koaza":"","lat":43.100608,"lng":143.384206,"zip":"0801200"},{"town":"字下居辺南四線","koaza":"","lat":43.094582,"lng":143.387803,"zip":"0801200"},{"town":"字中音更基線","koaza":"","lat":43.168613,"lng":143.21529,"zip":"0801200"},{"town":"字中音更西一線","koaza":"","lat":43.169769,"lng":143.20989,"zip":"0801200"},{"town":"字中音更西二線","koaza":"","lat":43.170956,"lng":143.203215,"zip":"0801200"},{"town":"字中音更西三線","koaza":"","lat":43.171833,"lng":143.198087,"zip":"0801200"},{"town":"字中音更西四線","koaza":"","lat":43.154914,"lng":143.18332,"zip":"0801200"},{"town":"字中音更西五線","koaza":"","lat":43.157021,"lng":143.175347,"zip":"0801200"},{"town":"字中音更西六線","koaza":"","lat":43.167217,"lng":143.173328,"zip":"0801200"},{"town":"字中音更西七線","koaza":"","lat":43.151585,"lng":143.15947,"zip":"0801200"},{"town":"字中音更西八線","koaza":"","lat":43.155804,"lng":143.155676,"zip":"0801200"},{"town":"字中音更西九線","koaza":"","lat":43.155946,"lng":143.154137,"zip":"0801200"},{"town":"字中音更東一線","koaza":"","lat":43.149599,"lng":143.214022,"zip":"0801200"},{"town":"字中士幌","koaza":"","lat":43.129921,"lng":143.325117,"zip":"0801200"},{"town":"字中士幌幹線","koaza":"","lat":43.114015,"lng":143.218801,"zip":"0801200"},{"town":"字中士幌幹西一線","koaza":"","lat":43.115582,"lng":143.214309,"zip":"0801200"},{"town":"字中士幌幹東一線","koaza":"","lat":43.112857,"lng":143.224931,"zip":"0801200"},{"town":"字中士幌幹東二線","koaza":"","lat":43.09469,"lng":143.2227,"zip":"0801200"},{"town":"字中士幌基線","koaza":"","lat":43.121067,"lng":143.247176,"zip":"0801200"},{"town":"字中士幌西一線","koaza":"","lat":43.121634,"lng":143.242173,"zip":"0801200"},{"town":"字中士幌西二線","koaza":"","lat":43.122417,"lng":143.235477,"zip":"0801200"},{"town":"字中士幌東一線","koaza":"","lat":43.130061,"lng":143.259069,"zip":"0801200"},{"town":"字中士幌東二線","koaza":"","lat":43.129357,"lng":143.264298,"zip":"0801200"},{"town":"字中士幌東三線","koaza":"","lat":43.128468,"lng":143.272294,"zip":"0801200"},{"town":"字中士幌東四線","koaza":"","lat":43.127728,"lng":143.27839,"zip":"0801200"},{"town":"字中士幌東五線","koaza":"","lat":43.126919,"lng":143.28497,"zip":"0801200"},{"town":"字中士幌東六線","koaza":"","lat":43.124734,"lng":143.290243,"zip":"0801200"},{"town":"字中士幌東七線","koaza":"","lat":43.125195,"lng":143.299335,"zip":"0801200"},{"town":"字中士幌東八線","koaza":"","lat":43.124446,"lng":143.305507,"zip":"0801200"},{"town":"字中士幌東九線","koaza":"","lat":43.123888,"lng":143.310343,"zip":"0801200"},{"town":"字ワッカクンネップ","koaza":"","lat":43.106608,"lng":143.344227,"zip":"0801200"},{"town":"西一条","koaza":"","lat":43.169468,"lng":143.244835,"zip":"0801200"},{"town":"西二条","koaza":"","lat":43.169604,"lng":143.243722,"zip":"0801200"},{"town":"西三条","koaza":"","lat":43.169702,"lng":143.242889,"zip":"0801200"},{"town":"東一条一丁目","koaza":"","lat":43.169053,"lng":143.247046,"zip":"0801200"},{"town":"東一条二丁目","koaza":"","lat":43.168426,"lng":143.246925,"zip":"0801200"},{"town":"東二条一丁目","koaza":"","lat":43.168921,"lng":143.248157,"zip":"0801200"},{"town":"東二条二丁目","koaza":"","lat":43.168296,"lng":143.248032,"zip":"0801200"},{"town":"東三条一丁目","koaza":"","lat":43.168784,"lng":143.249303,"zip":"0801200"},{"town":"東三条二丁目","koaza":"","lat":43.168163,"lng":143.249177,"zip":"0801200"},{"town":"東四条一丁目","koaza":"","lat":43.168645,"lng":143.250429,"zip":"0801200"},{"town":"東四条二丁目","koaza":"","lat":43.168026,"lng":143.250192,"zip":"0801200"},{"town":"東五条一丁目","koaza":"","lat":43.168516,"lng":143.251197,"zip":"0801200"},{"town":"東五条二丁目","koaza":"","lat":43.16791,"lng":143.251367,"zip":"0801200"},{"town":"東六条一丁目","koaza":"","lat":43.168405,"lng":143.252451,"zip":"0801200"},{"town":"東六条二丁目","koaza":"","lat":43.167783,"lng":143.252294,"zip":"0801200"}]