[{"town":"字ウリマク","koaza":"","lat":43.290695,"lng":143.047232,"zip":"0810200"},{"town":"泉町一丁目","koaza":"","lat":43.102582,"lng":142.986413,"zip":"0810212"},{"town":"泉町二丁目","koaza":"","lat":43.104977,"lng":142.9872,"zip":"0810212"},{"town":"泉町三丁目","koaza":"","lat":43.106653,"lng":142.987794,"zip":"0810212"},{"town":"泉町四丁目","koaza":"","lat":43.109232,"lng":142.988696,"zip":"0810212"},{"town":"瓜幕西一丁目","koaza":"","lat":43.167138,"lng":143.021629,"zip":"0810341"},{"town":"瓜幕西二十四線","koaza":"","lat":43.165468,"lng":143.049414,"zip":"0810200"},{"town":"瓜幕西二十五線","koaza":"","lat":43.16672,"lng":143.042766,"zip":"0810200"},{"town":"瓜幕西二十六線","koaza":"","lat":43.16796,"lng":143.036143,"zip":"0810200"},{"town":"瓜幕西二十七線","koaza":"","lat":43.169183,"lng":143.031406,"zip":"0810200"},{"town":"瓜幕西二十八線","koaza":"","lat":43.175722,"lng":143.024623,"zip":"0810200"},{"town":"瓜幕西二十九線","koaza":"","lat":43.173036,"lng":143.016648,"zip":"0810200"},{"town":"瓜幕西二丁目","koaza":"","lat":43.168407,"lng":143.023828,"zip":"0810341"},{"town":"瓜幕西三十線","koaza":"","lat":43.169084,"lng":143.008186,"zip":"0810200"},{"town":"瓜幕西三十一線","koaza":"","lat":43.165895,"lng":142.999923,"zip":"0810200"},{"town":"瓜幕西三十二線","koaza":"","lat":43.167163,"lng":142.993303,"zip":"0810200"},{"town":"瓜幕西三十三線","koaza":"","lat":43.168267,"lng":142.986918,"zip":"0810200"},{"town":"瓜幕西三丁目","koaza":"","lat":43.16989,"lng":143.024303,"zip":"0810341"},{"town":"瓜幕東一丁目","koaza":"","lat":43.16618,"lng":143.026806,"zip":"0810342"},{"town":"瓜幕東二丁目","koaza":"","lat":43.167793,"lng":143.027368,"zip":"0810342"},{"town":"瓜幕東三丁目","koaza":"","lat":43.169449,"lng":143.027938,"zip":"0810342"},{"town":"瓜幕南一丁目","koaza":"","lat":43.163914,"lng":143.025624,"zip":"0810343"},{"town":"瓜幕南二丁目","koaza":"","lat":43.16518,"lng":143.022678,"zip":"0810343"},{"town":"瓜幕南三丁目","koaza":"","lat":43.165783,"lng":143.019395,"zip":"0810343"},{"town":"柏ケ丘","koaza":"","lat":43.095043,"lng":142.977728,"zip":"0810225"},{"town":"上然別西十線","koaza":"","lat":43.042289,"lng":143.055544,"zip":"0810200"},{"town":"上然別西十一線","koaza":"","lat":43.041865,"lng":143.048842,"zip":"0810200"},{"town":"上然別西十二線","koaza":"","lat":43.045967,"lng":143.041338,"zip":"0810200"},{"town":"上然別西十三線","koaza":"","lat":43.047619,"lng":143.034642,"zip":"0810200"},{"town":"上然別西九線","koaza":"","lat":43.03875,"lng":143.062899,"zip":"0810200"},{"town":"上幌内","koaza":"","lat":43.184757,"lng":142.973319,"zip":"0810226"},{"town":"上幌内一線北","koaza":"","lat":43.164683,"lng":142.964841,"zip":"0810200"},{"town":"上幌内一線南","koaza":"","lat":43.15488,"lng":142.960316,"zip":"0810200"},{"town":"上幌内二線北","koaza":"","lat":43.16852,"lng":142.959001,"zip":"0810200"},{"town":"上幌内二線南","koaza":"","lat":43.154507,"lng":142.953668,"zip":"0810200"},{"town":"上幌内三線北","koaza":"","lat":43.170279,"lng":142.951463,"zip":"0810200"},{"town":"上幌内三線南","koaza":"","lat":43.152672,"lng":142.945651,"zip":"0810200"},{"town":"上幌内四線北","koaza":"","lat":43.171247,"lng":142.943814,"zip":"0810200"},{"town":"上幌内四線南","koaza":"","lat":43.154214,"lng":142.937239,"zip":"0810200"},{"town":"上幌内五線北","koaza":"","lat":43.170375,"lng":142.936337,"zip":"0810200"},{"town":"上幌内五線南","koaza":"","lat":43.151476,"lng":142.928003,"zip":"0810200"},{"town":"上幌内基線北","koaza":"","lat":43.163486,"lng":142.971764,"zip":"0810200"},{"town":"上幌内基線南","koaza":"","lat":43.152553,"lng":142.968167,"zip":"0810200"},{"town":"北瓜幕","koaza":"","lat":43.209168,"lng":143.027682,"zip":"0810344"},{"town":"北鹿追北十線","koaza":"","lat":43.128309,"lng":143.043642,"zip":"0810200"},{"town":"北鹿追北十一線","koaza":"","lat":43.132801,"lng":143.048527,"zip":"0810200"},{"town":"北鹿追北十二線","koaza":"","lat":43.138025,"lng":143.046914,"zip":"0810200"},{"town":"北鹿追北十三線","koaza":"","lat":43.14283,"lng":143.048619,"zip":"0810200"},{"town":"北鹿追北十四線","koaza":"","lat":43.147657,"lng":143.050446,"zip":"0810200"},{"town":"北鹿追北十五線","koaza":"","lat":43.150955,"lng":143.051161,"zip":"0810200"},{"town":"北鹿追北六線","koaza":"","lat":43.109145,"lng":143.037185,"zip":"0810200"},{"town":"北鹿追北七線","koaza":"","lat":43.113864,"lng":143.038781,"zip":"0810200"},{"town":"北鹿追北八線","koaza":"","lat":43.118651,"lng":143.040051,"zip":"0810200"},{"town":"北鹿追北九線","koaza":"","lat":43.123477,"lng":143.041928,"zip":"0810200"},{"town":"北町一丁目","koaza":"","lat":43.111994,"lng":142.997507,"zip":"0810202"},{"town":"北町二丁目","koaza":"","lat":43.112435,"lng":142.994511,"zip":"0810202"},{"town":"北町三丁目","koaza":"","lat":43.112886,"lng":142.992298,"zip":"0810202"},{"town":"北町四丁目","koaza":"","lat":43.113436,"lng":142.989866,"zip":"0810202"},{"town":"栄町一丁目","koaza":"","lat":43.100313,"lng":142.987285,"zip":"0810221"},{"town":"栄町二丁目","koaza":"","lat":43.10031,"lng":142.989148,"zip":"0810221"},{"town":"笹川北十線","koaza":"","lat":43.136976,"lng":143.001171,"zip":"0810200"},{"town":"笹川北十一線","koaza":"","lat":43.141683,"lng":143.003547,"zip":"0810200"},{"town":"笹川北十二線","koaza":"","lat":43.146014,"lng":143.006251,"zip":"0810200"},{"town":"笹川北十三線","koaza":"","lat":43.150781,"lng":143.006005,"zip":"0810200"},{"town":"笹川北十四線","koaza":"","lat":43.155488,"lng":143.008582,"zip":"0810200"},{"town":"笹川北十五線","koaza":"","lat":43.158903,"lng":143.009152,"zip":"0810200"},{"town":"笹川北六線","koaza":"","lat":43.117837,"lng":142.992183,"zip":"0810200"},{"town":"笹川北七線","koaza":"","lat":43.123338,"lng":142.98883,"zip":"0810200"},{"town":"笹川北八線","koaza":"","lat":43.127992,"lng":142.996586,"zip":"0810200"},{"town":"笹川北九線","koaza":"","lat":43.132724,"lng":142.99833,"zip":"0810200"},{"town":"鹿追基線","koaza":"","lat":43.082463,"lng":143.013604,"zip":"0810217"},{"town":"鹿追北一線","koaza":"","lat":43.086735,"lng":143.018051,"zip":"0810200"},{"town":"鹿追北二線","koaza":"","lat":43.091922,"lng":143.01871,"zip":"0810200"},{"town":"鹿追北三線","koaza":"","lat":43.096556,"lng":143.022984,"zip":"0810200"},{"town":"鹿追北四線","koaza":"","lat":43.101571,"lng":143.022211,"zip":"0810200"},{"town":"鹿追北五線","koaza":"","lat":43.106333,"lng":143.026177,"zip":"0810200"},{"town":"鹿追南一線","koaza":"","lat":43.077455,"lng":143.01423,"zip":"0810200"},{"town":"鹿追南二線","koaza":"","lat":43.072704,"lng":143.013966,"zip":"0810200"},{"town":"新町一丁目","koaza":"","lat":43.101723,"lng":142.991173,"zip":"0810201"},{"town":"新町二丁目","koaza":"","lat":43.103909,"lng":142.991883,"zip":"0810201"},{"town":"新町三丁目","koaza":"","lat":43.10579,"lng":142.992689,"zip":"0810201"},{"town":"新町四丁目","koaza":"","lat":43.108253,"lng":142.993521,"zip":"0810201"},{"town":"中瓜幕西二十線","koaza":"","lat":43.1782,"lng":143.082024,"zip":"0810200"},{"town":"中瓜幕西二十一線","koaza":"","lat":43.170421,"lng":143.072279,"zip":"0810200"},{"town":"中瓜幕西二十二線","koaza":"","lat":43.174008,"lng":143.066376,"zip":"0810200"},{"town":"中瓜幕西二十三線","koaza":"","lat":43.172935,"lng":143.059069,"zip":"0810200"},{"town":"仲町一丁目","koaza":"","lat":43.102155,"lng":142.988685,"zip":"0810211"},{"town":"仲町二丁目","koaza":"","lat":43.104335,"lng":142.989535,"zip":"0810211"},{"town":"仲町三丁目","koaza":"","lat":43.106233,"lng":142.990164,"zip":"0810211"},{"town":"仲町四丁目","koaza":"","lat":43.10876,"lng":142.990998,"zip":"0810211"},{"town":"西笹川","koaza":"","lat":43.147792,"lng":142.973602,"zip":"0810205"},{"town":"西町一丁目","koaza":"","lat":43.103207,"lng":142.983076,"zip":"0810213"},{"town":"西町二丁目","koaza":"","lat":43.105448,"lng":142.98362,"zip":"0810213"},{"town":"西町三丁目","koaza":"","lat":43.107317,"lng":142.984256,"zip":"0810213"},{"town":"西町四丁目","koaza":"","lat":43.109955,"lng":142.985146,"zip":"0810213"},{"town":"東瓜幕西十線","koaza":"","lat":43.156172,"lng":143.144171,"zip":"0810200"},{"town":"東瓜幕西十一線","koaza":"","lat":43.158177,"lng":143.138551,"zip":"0810200"},{"town":"東瓜幕西十二線","koaza":"","lat":43.160834,"lng":143.13235,"zip":"0810200"},{"town":"東瓜幕西十三線","koaza":"","lat":43.164044,"lng":143.126396,"zip":"0810200"},{"town":"東瓜幕西十四線","koaza":"","lat":43.16753,"lng":143.120604,"zip":"0810200"},{"town":"東瓜幕西十五線","koaza":"","lat":43.171995,"lng":143.115158,"zip":"0810200"},{"town":"東瓜幕西十六線","koaza":"","lat":43.1732,"lng":143.108551,"zip":"0810200"},{"town":"東瓜幕西十七線","koaza":"","lat":43.174452,"lng":143.101904,"zip":"0810200"},{"town":"東瓜幕西十八線","koaza":"","lat":43.175724,"lng":143.095245,"zip":"0810200"},{"town":"東瓜幕西十九線","koaza":"","lat":43.176959,"lng":143.088631,"zip":"0810200"},{"town":"東瓜幕西九線","koaza":"","lat":43.153784,"lng":143.148444,"zip":"0810200"},{"town":"東町一丁目","koaza":"","lat":43.099341,"lng":142.989049,"zip":"0810222"},{"town":"東町二丁目","koaza":"","lat":43.098842,"lng":142.992583,"zip":"0810222"},{"town":"東町三丁目","koaza":"","lat":43.097382,"lng":142.991034,"zip":"0810222"},{"town":"東町四丁目","koaza":"","lat":43.093957,"lng":142.99181,"zip":"0810222"},{"town":"美蔓西十四線","koaza":"","lat":43.047784,"lng":143.028509,"zip":"0810200"},{"town":"美蔓西十五線","koaza":"","lat":43.050265,"lng":143.021389,"zip":"0810200"},{"town":"美蔓西十六線","koaza":"","lat":43.053331,"lng":143.013894,"zip":"0810200"},{"town":"美蔓西十七線","koaza":"","lat":43.058045,"lng":143.006176,"zip":"0810200"},{"town":"美蔓西十八線","koaza":"","lat":43.063277,"lng":142.998123,"zip":"0810200"},{"town":"美蔓西十九線","koaza":"","lat":43.06717,"lng":142.990473,"zip":"0810200"},{"town":"美蔓西二十線","koaza":"","lat":43.069916,"lng":142.983485,"zip":"0810200"},{"town":"美蔓西二十一線","koaza":"","lat":43.065607,"lng":142.977173,"zip":"0810200"},{"town":"美蔓西二十二線","koaza":"","lat":43.067695,"lng":142.970929,"zip":"0810200"},{"town":"幌内","koaza":"","lat":43.117684,"lng":142.954171,"zip":"0810227"},{"town":"幌内西二十一線","koaza":"","lat":43.081348,"lng":142.97499,"zip":"0810200"},{"town":"幌内西二十二線","koaza":"","lat":43.083497,"lng":142.967608,"zip":"0810200"},{"town":"幌内西二十三線","koaza":"","lat":43.085963,"lng":142.960465,"zip":"0810200"},{"town":"幌内西二十四線","koaza":"","lat":43.091139,"lng":142.952882,"zip":"0810200"},{"town":"幌内西二十五線","koaza":"","lat":43.097947,"lng":142.945055,"zip":"0810200"},{"town":"幌内西二十六線","koaza":"","lat":43.113695,"lng":142.936182,"zip":"0810200"},{"town":"幌内西二十七線","koaza":"","lat":43.116055,"lng":142.930556,"zip":"0810200"},{"town":"緑町一丁目","koaza":"","lat":43.101175,"lng":142.993879,"zip":"0810203"},{"town":"緑町二丁目","koaza":"","lat":43.10337,"lng":142.994654,"zip":"0810203"},{"town":"緑町三丁目","koaza":"","lat":43.105219,"lng":142.995252,"zip":"0810203"},{"town":"緑町四丁目","koaza":"","lat":43.107683,"lng":142.996285,"zip":"0810203"},{"town":"南町一丁目","koaza":"","lat":43.097271,"lng":142.982785,"zip":"0810223"},{"town":"南町二丁目","koaza":"","lat":43.096881,"lng":142.987318,"zip":"0810223"},{"town":"南町三丁目","koaza":"","lat":43.094917,"lng":142.988647,"zip":"0810223"},{"town":"南町四丁目","koaza":"","lat":43.095154,"lng":142.984777,"zip":"0810223"},{"town":"南町五丁目","koaza":"","lat":43.091919,"lng":142.988446,"zip":"0810223"},{"town":"元町一丁目","koaza":"","lat":43.099578,"lng":142.985438,"zip":"0810224"},{"town":"元町二丁目","koaza":"","lat":43.100908,"lng":142.984598,"zip":"0810224"},{"town":"元町三丁目","koaza":"","lat":43.098421,"lng":142.982379,"zip":"0810224"},{"town":"元町四丁目","koaza":"","lat":43.100923,"lng":142.98068,"zip":"0810224"}]