[{"town":"字長流枝","koaza":"","lat":43.028931,"lng":143.327935,"zip":"0800100"},{"town":"字長流枝幹線","koaza":"","lat":43.018174,"lng":143.35673,"zip":"0800100"},{"town":"字音更基線","koaza":"","lat":43.021632,"lng":143.191924,"zip":"0800100"},{"town":"字音更西一線","koaza":"","lat":43.006213,"lng":143.187189,"zip":"0800100"},{"town":"字音更西二線","koaza":"","lat":43.005685,"lng":143.180464,"zip":"0800100"},{"town":"字音更西三線","koaza":"","lat":43.005191,"lng":143.173719,"zip":"0800100"},{"town":"字音更西四線","koaza":"","lat":43.004863,"lng":143.168585,"zip":"0800100"},{"town":"字音更東一線","koaza":"","lat":43.009545,"lng":143.199055,"zip":"0800100"},{"town":"字上然別基線","koaza":"","lat":43.064748,"lng":143.081097,"zip":"0800100"},{"town":"字上然別北","koaza":"","lat":43.047563,"lng":143.128507,"zip":"0800100"},{"town":"字上然別北十線","koaza":"","lat":43.062542,"lng":143.108548,"zip":"0800100"},{"town":"字上然別北十一線","koaza":"","lat":43.063987,"lng":143.101969,"zip":"0800100"},{"town":"字上然別北十二線","koaza":"","lat":43.063909,"lng":143.096667,"zip":"0800100"},{"town":"字上然別北五線","koaza":"","lat":43.048955,"lng":143.135102,"zip":"0800100"},{"town":"字上然別北六線","koaza":"","lat":43.057282,"lng":143.133041,"zip":"0800100"},{"town":"字上然別北七線","koaza":"","lat":43.055403,"lng":143.126094,"zip":"0800100"},{"town":"字上然別北八線","koaza":"","lat":43.059717,"lng":143.121695,"zip":"0800100"},{"town":"字上然別北九線","koaza":"","lat":43.061212,"lng":143.115204,"zip":"0800100"},{"town":"字上然別西一線","koaza":"","lat":43.043817,"lng":143.120713,"zip":"0800100"},{"town":"字上然別西二線","koaza":"","lat":43.044357,"lng":143.114035,"zip":"0800100"},{"town":"字上然別西三線","koaza":"","lat":43.044797,"lng":143.107073,"zip":"0800100"},{"town":"字上然別西四線","koaza":"","lat":43.04492,"lng":143.100022,"zip":"0800100"},{"town":"字上然別西五線","koaza":"","lat":43.044621,"lng":143.093145,"zip":"0800100"},{"town":"字上然別西六線","koaza":"","lat":43.044258,"lng":143.086314,"zip":"0800100"},{"town":"字上然別西七線","koaza":"","lat":43.045933,"lng":143.079218,"zip":"0800100"},{"town":"字上然別西八線","koaza":"","lat":43.047441,"lng":143.072309,"zip":"0800100"},{"town":"字上然別西九線","koaza":"","lat":43.04746,"lng":143.067183,"zip":"0800100"},{"town":"字上然別南一線","koaza":"","lat":43.059112,"lng":143.08168,"zip":"0800100"},{"town":"字駒場基線","koaza":"","lat":43.086124,"lng":143.187323,"zip":"0800100"},{"town":"字駒場西一線","koaza":"","lat":43.08731,"lng":143.180791,"zip":"0800100"},{"town":"字駒場西二線","koaza":"","lat":43.088259,"lng":143.175503,"zip":"0800100"},{"town":"字駒場東一線","koaza":"","lat":43.075197,"lng":143.190225,"zip":"0800100"},{"town":"字然別基線","koaza":"","lat":42.975959,"lng":143.136845,"zip":"0800100"},{"town":"字然別北三線西","koaza":"","lat":42.946161,"lng":143.169175,"zip":"0800100"},{"town":"字然別北四線西","koaza":"","lat":42.949396,"lng":143.161367,"zip":"0800100"},{"town":"字然別北五線西","koaza":"","lat":42.953876,"lng":143.158772,"zip":"0800100"},{"town":"字然別北六線西","koaza":"","lat":42.958981,"lng":143.160924,"zip":"0800100"},{"town":"字然別北七線西","koaza":"","lat":42.963948,"lng":143.160226,"zip":"0800100"},{"town":"字然別北八線西","koaza":"","lat":42.968497,"lng":143.156502,"zip":"0800100"},{"town":"字然別北九線西","koaza":"","lat":42.972329,"lng":143.155961,"zip":"0800100"},{"town":"字然別西四線","koaza":"","lat":42.979711,"lng":143.168444,"zip":"0800100"},{"town":"字然別西五線","koaza":"","lat":42.979323,"lng":143.163343,"zip":"0800100"},{"town":"字然別西六線","koaza":"","lat":42.978828,"lng":143.15657,"zip":"0800100"},{"town":"字然別西七線","koaza":"","lat":42.978319,"lng":143.149915,"zip":"0800100"},{"town":"字然別東一線","koaza":"","lat":42.980294,"lng":143.14286,"zip":"0800100"},{"town":"字然別東","koaza":"","lat":42.978623,"lng":143.123952,"zip":"0800100"},{"town":"字然別西一線","koaza":"","lat":42.973508,"lng":143.13046,"zip":"0800100"},{"town":"字下音更北四線西","koaza":"","lat":42.948585,"lng":143.177541,"zip":"0800100"},{"town":"字下音更北五線西","koaza":"","lat":42.95537,"lng":143.178071,"zip":"0800100"},{"town":"字下音更北六線西","koaza":"","lat":42.960676,"lng":143.179697,"zip":"0800100"},{"town":"字下音更北七線西","koaza":"","lat":42.965613,"lng":143.182446,"zip":"0800100"},{"town":"字下音更北八線西","koaza":"","lat":42.970422,"lng":143.18181,"zip":"0800100"},{"town":"字下音更北九線西","koaza":"","lat":42.974197,"lng":143.181338,"zip":"0800100"},{"town":"字下士幌","koaza":"","lat":42.960144,"lng":143.252452,"zip":"0800100"},{"town":"字下士幌幹線","koaza":"","lat":42.974509,"lng":143.26311,"zip":"0800100"},{"town":"字高倉西二線","koaza":"","lat":43.021138,"lng":143.11527,"zip":"0800100"},{"town":"字高倉西三線","koaza":"","lat":43.020755,"lng":143.110114,"zip":"0800100"},{"town":"字高倉西四線","koaza":"","lat":43.020252,"lng":143.10326,"zip":"0800100"},{"town":"字高倉西五線","koaza":"","lat":43.019751,"lng":143.096444,"zip":"0800100"},{"town":"字高倉西六線","koaza":"","lat":43.019443,"lng":143.089568,"zip":"0800100"},{"town":"字高倉西七線","koaza":"","lat":43.0192,"lng":143.082779,"zip":"0800100"},{"town":"字高倉西八線","koaza":"","lat":43.020204,"lng":143.075827,"zip":"0800100"},{"town":"字高倉西九線","koaza":"","lat":43.021648,"lng":143.070489,"zip":"0800100"},{"town":"字東和","koaza":"","lat":43.018744,"lng":143.285513,"zip":"0800100"},{"town":"字東和基線","koaza":"","lat":43.009594,"lng":143.235041,"zip":"0800100"},{"town":"字東和西一線","koaza":"","lat":43.009134,"lng":143.228525,"zip":"0800100"},{"town":"字東和西二線","koaza":"","lat":43.008635,"lng":143.221922,"zip":"0800100"},{"town":"字東和西三線","koaza":"","lat":43.008321,"lng":143.214914,"zip":"0800100"},{"town":"字東和西四線","koaza":"","lat":43.015822,"lng":143.206748,"zip":"0800100"},{"town":"字東和西五線","koaza":"","lat":43.021396,"lng":143.198803,"zip":"0800100"},{"town":"字東和東一線","koaza":"","lat":43.010047,"lng":143.242025,"zip":"0800100"},{"town":"字東和東二線","koaza":"","lat":43.010464,"lng":143.248907,"zip":"0800100"},{"town":"字東和東三線","koaza":"","lat":43.011252,"lng":143.25559,"zip":"0800100"},{"town":"字東和東四線","koaza":"","lat":43.014155,"lng":143.262106,"zip":"0800100"},{"town":"字東和東五線","koaza":"","lat":43.0294,"lng":143.266839,"zip":"0800100"},{"town":"字東和東六線","koaza":"","lat":43.030684,"lng":143.27358,"zip":"0800100"},{"town":"字東和東七線","koaza":"","lat":43.033696,"lng":143.27951,"zip":"0800100"},{"town":"字東和東八線","koaza":"","lat":43.039176,"lng":143.286377,"zip":"0800100"},{"town":"字豊田","koaza":"","lat":43.090308,"lng":143.315397,"zip":"0800100"},{"town":"字豊田基線","koaza":"","lat":43.098645,"lng":143.245852,"zip":"0800100"},{"town":"字豊田西一線","koaza":"","lat":43.079954,"lng":143.233096,"zip":"0800100"},{"town":"字豊田西二線","koaza":"","lat":43.0816,"lng":143.227902,"zip":"0800100"},{"town":"字豊田東十線","koaza":"","lat":43.096076,"lng":143.311415,"zip":"0800100"},{"town":"字豊田東一線","koaza":"","lat":43.098023,"lng":143.250757,"zip":"0800100"},{"town":"字豊田東二線","koaza":"","lat":43.097226,"lng":143.257433,"zip":"0800100"},{"town":"字豊田東三線","koaza":"","lat":43.096339,"lng":143.264146,"zip":"0800100"},{"town":"字豊田東四線","koaza":"","lat":43.095582,"lng":143.271018,"zip":"0800100"},{"town":"字豊田東五線","koaza":"","lat":43.094724,"lng":143.277912,"zip":"0800100"},{"town":"字豊田東六線","koaza":"","lat":43.093926,"lng":143.284582,"zip":"0800100"},{"town":"字豊田東七線","koaza":"","lat":43.093146,"lng":143.291241,"zip":"0800100"},{"town":"字豊田東八線","koaza":"","lat":43.092345,"lng":143.297856,"zip":"0800100"},{"town":"字豊田東九線","koaza":"","lat":43.091776,"lng":143.304147,"zip":"0800100"},{"town":"字中音更","koaza":"","lat":43.12886,"lng":143.119482,"zip":"0800100"},{"town":"字中音更基線","koaza":"","lat":43.120137,"lng":143.19954,"zip":"0800100"},{"town":"字中音更西十線","koaza":"","lat":43.137798,"lng":143.131842,"zip":"0800100"},{"town":"字中音更西十一線","koaza":"","lat":43.140758,"lng":143.125746,"zip":"0800100"},{"town":"字中音更西一線","koaza":"","lat":43.122197,"lng":143.191412,"zip":"0800100"},{"town":"字中音更西二線","koaza":"","lat":43.128078,"lng":143.184331,"zip":"0800100"},{"town":"字中音更西三線","koaza":"","lat":43.129279,"lng":143.177815,"zip":"0800100"},{"town":"字中音更西四線","koaza":"","lat":43.130489,"lng":143.17114,"zip":"0800100"},{"town":"字中音更西五線","koaza":"","lat":43.131751,"lng":143.164456,"zip":"0800100"},{"town":"字中音更西六線","koaza":"","lat":43.132986,"lng":143.15784,"zip":"0800100"},{"town":"字中音更西七線","koaza":"","lat":43.134197,"lng":143.151422,"zip":"0800100"},{"town":"字中音更西八線","koaza":"","lat":43.1329,"lng":143.143926,"zip":"0800100"},{"town":"字中音更西九線","koaza":"","lat":43.135185,"lng":143.137526,"zip":"0800100"},{"town":"字中音更東一線","koaza":"","lat":43.11948,"lng":143.20855,"zip":"0800100"},{"town":"字西中音更北十線","koaza":"","lat":43.115486,"lng":143.084771,"zip":"0800100"},{"town":"字西中音更北十一線","koaza":"","lat":43.120285,"lng":143.086632,"zip":"0800100"},{"town":"字西中音更北十二線","koaza":"","lat":43.125162,"lng":143.088337,"zip":"0800100"},{"town":"字西中音更北十三線","koaza":"","lat":43.130045,"lng":143.089611,"zip":"0800100"},{"town":"字西中音更北十四線","koaza":"","lat":43.134823,"lng":143.09147,"zip":"0800100"},{"town":"字西中音更北十五線","koaza":"","lat":43.139695,"lng":143.092974,"zip":"0800100"},{"town":"字西中音更北十六線","koaza":"","lat":43.144644,"lng":143.095081,"zip":"0800100"},{"town":"字西中音更北十七線","koaza":"","lat":43.14965,"lng":143.09667,"zip":"0800100"},{"town":"字西中音更北十八線","koaza":"","lat":43.154498,"lng":143.098619,"zip":"0800100"},{"town":"字西中音更北十九線","koaza":"","lat":43.159339,"lng":143.099803,"zip":"0800100"},{"town":"字東音更","koaza":"","lat":43.056879,"lng":143.301311,"zip":"0800100"},{"town":"字東音更幹線","koaza":"","lat":43.062862,"lng":143.207248,"zip":"0800100"},{"town":"字東音更幹西","koaza":"","lat":43.079261,"lng":143.199305,"zip":"0800100"},{"town":"字東音更幹西一線","koaza":"","lat":43.052036,"lng":143.198018,"zip":"0800100"},{"town":"字東音更幹東一線","koaza":"","lat":43.062514,"lng":143.214857,"zip":"0800100"},{"town":"字東音更基線","koaza":"","lat":43.060318,"lng":143.235644,"zip":"0800100"},{"town":"字東音更西","koaza":"","lat":43.081139,"lng":143.223116,"zip":"0800100"},{"town":"字東音更西一線","koaza":"","lat":43.06061,"lng":143.22825,"zip":"0800100"},{"town":"字東音更西二線","koaza":"","lat":43.057261,"lng":143.221199,"zip":"0800100"},{"town":"字東音更東一線","koaza":"","lat":43.056757,"lng":143.241752,"zip":"0800100"},{"town":"字東音更東二線","koaza":"","lat":43.056583,"lng":143.248398,"zip":"0800100"},{"town":"字東音更東三線","koaza":"","lat":43.056396,"lng":143.255141,"zip":"0800100"},{"town":"字東音更東四線","koaza":"","lat":43.056262,"lng":143.262212,"zip":"0800100"},{"town":"字東音更東五線","koaza":"","lat":43.056074,"lng":143.269291,"zip":"0800100"},{"town":"字東音更東六線","koaza":"","lat":43.05586,"lng":143.276046,"zip":"0800100"},{"town":"字東音更東七線","koaza":"","lat":43.055772,"lng":143.282719,"zip":"0800100"},{"town":"字東音更東八線","koaza":"","lat":43.055601,"lng":143.289327,"zip":"0800100"},{"town":"字東音更東九線","koaza":"","lat":43.062111,"lng":143.297819,"zip":"0800100"},{"town":"字東士狩北三線","koaza":"","lat":43.037003,"lng":143.146506,"zip":"0800100"},{"town":"字東士狩北四線","koaza":"","lat":43.037726,"lng":143.141476,"zip":"0800100"},{"town":"字東士狩北五線","koaza":"","lat":43.039146,"lng":143.136165,"zip":"0800100"},{"town":"字東士狩北六線","koaza":"","lat":43.04364,"lng":143.133141,"zip":"0800100"},{"town":"字東士狩北七線","koaza":"","lat":43.045801,"lng":143.128194,"zip":"0800100"},{"town":"字東士狩西四線","koaza":"","lat":43.009587,"lng":143.1644,"zip":"0800100"},{"town":"字東士狩西五線","koaza":"","lat":43.009155,"lng":143.159132,"zip":"0800100"},{"town":"字東士狩西六線","koaza":"","lat":43.008693,"lng":143.152419,"zip":"0800100"},{"town":"字東士狩西七線","koaza":"","lat":43.008158,"lng":143.146329,"zip":"0800100"},{"town":"字東士狩西八線","koaza":"","lat":42.994617,"lng":143.141582,"zip":"0800100"},{"town":"字万年基線","koaza":"","lat":43.012336,"lng":143.131794,"zip":"0800100"},{"town":"字万年西一線","koaza":"","lat":43.011837,"lng":143.125015,"zip":"0800100"},{"town":"字万年西二線","koaza":"","lat":43.011342,"lng":143.119964,"zip":"0800100"},{"town":"字万年西三線","koaza":"","lat":42.995991,"lng":143.113511,"zip":"0800100"},{"town":"字万年西四線","koaza":"","lat":42.997702,"lng":143.106483,"zip":"0800100"},{"town":"字万年西五線","koaza":"","lat":43.001513,"lng":143.100643,"zip":"0800100"},{"town":"字万年東一線","koaza":"","lat":43.012524,"lng":143.138659,"zip":"0800100"},{"town":"字万年東二線","koaza":"","lat":43.017374,"lng":143.143017,"zip":"0800100"},{"town":"字南中音更基線","koaza":"","lat":43.0697,"lng":143.055606,"zip":"0800100"},{"town":"字南中音更北一線","koaza":"","lat":43.072028,"lng":143.069767,"zip":"0800100"},{"town":"字南中音更北二線","koaza":"","lat":43.076858,"lng":143.071341,"zip":"0800100"},{"town":"字南中音更北三線","koaza":"","lat":43.081685,"lng":143.073002,"zip":"0800100"},{"town":"字南中音更北四線","koaza":"","lat":43.08656,"lng":143.074281,"zip":"0800100"},{"town":"字南中音更北五線","koaza":"","lat":43.091286,"lng":143.076449,"zip":"0800100"},{"town":"字南中音更北六線","koaza":"","lat":43.096173,"lng":143.077623,"zip":"0800100"},{"town":"字南中音更北七線","koaza":"","lat":43.100998,"lng":143.079943,"zip":"0800100"},{"town":"字南中音更北八線","koaza":"","lat":43.105852,"lng":143.081371,"zip":"0800100"},{"town":"字南中音更北九線","koaza":"","lat":43.110551,"lng":143.083647,"zip":"0800100"},{"town":"字南中音更南一線","koaza":"","lat":43.064488,"lng":143.062482,"zip":"0800100"},{"town":"大通十丁目","koaza":"","lat":42.993745,"lng":143.200733,"zip":"0800101"},{"town":"大通十一丁目","koaza":"","lat":42.992707,"lng":143.200786,"zip":"0800101"},{"town":"大通十二丁目","koaza":"","lat":42.991241,"lng":143.200647,"zip":"0800101"},{"town":"大通十三丁目","koaza":"","lat":42.989548,"lng":143.200935,"zip":"0800101"},{"town":"大通十四丁目","koaza":"","lat":42.987827,"lng":143.200957,"zip":"0800101"},{"town":"大通十五丁目","koaza":"","lat":42.98628,"lng":143.201944,"zip":"0800101"},{"town":"大通十六丁目","koaza":"","lat":42.984705,"lng":143.200698,"zip":"0800101"},{"town":"大通十七丁目","koaza":"","lat":42.982882,"lng":143.202149,"zip":"0800101"},{"town":"大通十八丁目","koaza":"","lat":42.981247,"lng":143.203096,"zip":"0800101"},{"town":"大通十九丁目","koaza":"","lat":42.979637,"lng":143.202775,"zip":"0800101"},{"town":"大通一丁目","koaza":"","lat":43.002693,"lng":143.196241,"zip":"0800101"},{"town":"大通二十丁目","koaza":"","lat":42.97794,"lng":143.202038,"zip":"0800101"},{"town":"大通二丁目","koaza":"","lat":43.001329,"lng":143.196443,"zip":"0800101"},{"town":"大通三丁目","koaza":"","lat":43.000751,"lng":143.197436,"zip":"0800101"},{"town":"大通四丁目","koaza":"","lat":42.999666,"lng":143.197909,"zip":"0800101"},{"town":"大通五丁目","koaza":"","lat":42.998422,"lng":143.197547,"zip":"0800101"},{"town":"大通六丁目","koaza":"","lat":42.997776,"lng":143.198963,"zip":"0800101"},{"town":"大通七丁目","koaza":"","lat":42.996447,"lng":143.199215,"zip":"0800101"},{"town":"大通八丁目","koaza":"","lat":42.995577,"lng":143.19954,"zip":"0800101"},{"town":"大通九丁目","koaza":"","lat":42.994722,"lng":143.199876,"zip":"0800101"},{"town":"大通北一丁目","koaza":"","lat":43.004144,"lng":143.196096,"zip":"0800102"},{"town":"北鈴蘭北二丁目","koaza":"","lat":42.960078,"lng":143.192673,"zip":"0800305"},{"town":"北鈴蘭北三丁目","koaza":"","lat":42.959963,"lng":143.191015,"zip":"0800305"},{"town":"北鈴蘭北四丁目","koaza":"","lat":42.959562,"lng":143.189034,"zip":"0800305"},{"town":"北鈴蘭北五丁目","koaza":"","lat":42.95969,"lng":143.187395,"zip":"0800305"},{"town":"北鈴蘭南一丁目","koaza":"","lat":42.957721,"lng":143.194596,"zip":"0800306"},{"town":"北鈴蘭南二丁目","koaza":"","lat":42.957645,"lng":143.19296,"zip":"0800306"},{"town":"北鈴蘭南三丁目","koaza":"","lat":42.957438,"lng":143.191454,"zip":"0800306"},{"town":"北鈴蘭南四丁目","koaza":"","lat":42.957393,"lng":143.189589,"zip":"0800306"},{"town":"北鈴蘭南五丁目","koaza":"","lat":42.957269,"lng":143.187818,"zip":"0800306"},{"town":"木野大通西十丁目","koaza":"","lat":42.954731,"lng":143.205042,"zip":"0800301"},{"town":"木野大通西十一丁目","koaza":"","lat":42.95633,"lng":143.205191,"zip":"0800301"},{"town":"木野大通西十二丁目","koaza":"","lat":42.958489,"lng":143.205408,"zip":"0800301"},{"town":"木野大通西十三丁目","koaza":"","lat":42.961024,"lng":143.205646,"zip":"0800301"},{"town":"木野大通西十四丁目","koaza":"","lat":42.963542,"lng":143.205872,"zip":"0800301"},{"town":"木野大通西十五丁目","koaza":"","lat":42.966076,"lng":143.206092,"zip":"0800301"},{"town":"木野大通西十六丁目","koaza":"","lat":42.968621,"lng":143.206265,"zip":"0800301"},{"town":"木野大通西十七丁目","koaza":"","lat":42.971138,"lng":143.206481,"zip":"0800301"},{"town":"木野大通西十八丁目","koaza":"","lat":42.973657,"lng":143.206714,"zip":"0800301"},{"town":"木野大通西十九丁目","koaza":"","lat":42.976235,"lng":143.207256,"zip":"0800301"},{"town":"木野大通西一丁目","koaza":"","lat":42.938312,"lng":143.200665,"zip":"0800301"},{"town":"木野大通西二丁目","koaza":"","lat":42.941219,"lng":143.201278,"zip":"0800301"},{"town":"木野大通西三丁目","koaza":"","lat":42.942508,"lng":143.202888,"zip":"0800301"},{"town":"木野大通西四丁目","koaza":"","lat":42.944201,"lng":143.203914,"zip":"0800301"},{"town":"木野大通西五丁目","koaza":"","lat":42.946182,"lng":143.204167,"zip":"0800301"},{"town":"木野大通西六丁目","koaza":"","lat":42.94766,"lng":143.204209,"zip":"0800301"},{"town":"木野大通西七丁目","koaza":"","lat":42.94977,"lng":143.204368,"zip":"0800301"},{"town":"木野大通西八丁目","koaza":"","lat":42.951259,"lng":143.20457,"zip":"0800301"},{"town":"木野大通西九丁目","koaza":"","lat":42.953268,"lng":143.204775,"zip":"0800301"},{"town":"木野大通東十丁目","koaza":"","lat":42.954908,"lng":143.208316,"zip":"0800111"},{"town":"木野大通東十一丁目","koaza":"","lat":42.956928,"lng":143.208027,"zip":"0800111"},{"town":"木野大通東十二丁目","koaza":"","lat":42.958588,"lng":143.2092,"zip":"0800111"},{"town":"木野大通東十三丁目","koaza":"","lat":42.961309,"lng":143.209271,"zip":"0800111"},{"town":"木野大通東十四丁目","koaza":"","lat":42.964122,"lng":143.21041,"zip":"0800111"},{"town":"木野大通東十五丁目","koaza":"","lat":42.966285,"lng":143.208846,"zip":"0800111"},{"town":"木野大通東十六丁目","koaza":"","lat":42.968782,"lng":143.208839,"zip":"0800111"},{"town":"木野大通東十七丁目","koaza":"","lat":42.971127,"lng":143.210021,"zip":"0800111"},{"town":"木野大通東十八丁目","koaza":"","lat":42.973858,"lng":143.209934,"zip":"0800111"},{"town":"木野大通東十九丁目","koaza":"","lat":42.976353,"lng":143.209881,"zip":"0800111"},{"town":"木野大通東一丁目","koaza":"","lat":42.937812,"lng":143.204172,"zip":"0800111"},{"town":"木野大通東二丁目","koaza":"","lat":42.941343,"lng":143.204112,"zip":"0800111"},{"town":"木野大通東三丁目","koaza":"","lat":42.94262,"lng":143.204659,"zip":"0800111"},{"town":"木野大通東四丁目","koaza":"","lat":42.944091,"lng":143.204911,"zip":"0800111"},{"town":"木野大通東五丁目","koaza":"","lat":42.946154,"lng":143.205263,"zip":"0800111"},{"town":"木野大通東六丁目","koaza":"","lat":42.947961,"lng":143.206733,"zip":"0800111"},{"town":"木野大通東七丁目","koaza":"","lat":42.949171,"lng":143.206256,"zip":"0800111"},{"town":"木野大通東八丁目","koaza":"","lat":42.950501,"lng":143.208043,"zip":"0800111"},{"town":"木野大通東九丁目","koaza":"","lat":42.95311,"lng":143.207199,"zip":"0800111"},{"town":"木野公園下町","koaza":"","lat":42.94187,"lng":143.198849,"zip":"0800303"},{"town":"木野新町","koaza":"","lat":42.954351,"lng":143.196803,"zip":"0800304"},{"town":"木野西通十丁目","koaza":"","lat":42.954664,"lng":143.202239,"zip":"0800302"},{"town":"木野西通十一丁目","koaza":"","lat":42.956142,"lng":143.202261,"zip":"0800302"},{"town":"木野西通十二丁目","koaza":"","lat":42.958283,"lng":143.202601,"zip":"0800302"},{"town":"木野西通十三丁目","koaza":"","lat":42.960546,"lng":143.2024,"zip":"0800302"},{"town":"木野西通十四丁目","koaza":"","lat":42.963291,"lng":143.202452,"zip":"0800302"},{"town":"木野西通十五丁目","koaza":"","lat":42.965979,"lng":143.202942,"zip":"0800302"},{"town":"木野西通十六丁目","koaza":"","lat":42.968349,"lng":143.202252,"zip":"0800302"},{"town":"木野西通十七丁目","koaza":"","lat":42.970846,"lng":143.202172,"zip":"0800302"},{"town":"木野西通十八丁目","koaza":"","lat":42.973313,"lng":143.202104,"zip":"0800302"},{"town":"木野西通十九丁目","koaza":"","lat":42.976107,"lng":143.20254,"zip":"0800302"},{"town":"木野西通四丁目","koaza":"","lat":42.944348,"lng":143.203103,"zip":"0800302"},{"town":"木野西通五丁目","koaza":"","lat":42.946194,"lng":143.202894,"zip":"0800302"},{"town":"木野西通六丁目","koaza":"","lat":42.947776,"lng":143.20271,"zip":"0800302"},{"town":"木野西通七丁目","koaza":"","lat":42.949463,"lng":143.202682,"zip":"0800302"},{"town":"木野西通八丁目","koaza":"","lat":42.95162,"lng":143.201327,"zip":"0800302"},{"town":"木野西通九丁目","koaza":"","lat":42.953198,"lng":143.202465,"zip":"0800302"},{"town":"木野東通一丁目","koaza":"","lat":42.938056,"lng":143.206555,"zip":"0800112"},{"town":"木野東通二丁目","koaza":"","lat":42.941043,"lng":143.206384,"zip":"0800112"},{"town":"木野東通三丁目","koaza":"","lat":42.942669,"lng":143.20629,"zip":"0800112"},{"town":"木野東通四丁目","koaza":"","lat":42.943733,"lng":143.207162,"zip":"0800112"},{"town":"木野東通五丁目","koaza":"","lat":42.946131,"lng":143.207615,"zip":"0800112"},{"town":"希望が丘","koaza":"","lat":42.989022,"lng":143.193023,"zip":"0800335"},{"town":"共栄台西十一丁目","koaza":"","lat":42.954812,"lng":143.198073,"zip":"0800314"},{"town":"共栄台西十二丁目","koaza":"","lat":42.957889,"lng":143.196675,"zip":"0800314"},{"town":"共栄台西十三丁目","koaza":"","lat":42.960291,"lng":143.195692,"zip":"0800314"},{"town":"共栄台東十丁目","koaza":"","lat":42.953506,"lng":143.199586,"zip":"0800315"},{"town":"共栄台東十一丁目","koaza":"","lat":42.955914,"lng":143.199246,"zip":"0800315"},{"town":"共栄台東十二丁目","koaza":"","lat":42.95808,"lng":143.199319,"zip":"0800315"},{"town":"共栄台東十三丁目","koaza":"","lat":42.96031,"lng":143.199179,"zip":"0800315"},{"town":"駒場北一条通一丁目","koaza":"","lat":43.048772,"lng":143.187176,"zip":"0800100"},{"town":"駒場北一条通二丁目","koaza":"","lat":43.048945,"lng":143.18586,"zip":"0800100"},{"town":"駒場北一条通三丁目","koaza":"","lat":43.049227,"lng":143.184394,"zip":"0800100"},{"town":"駒場北一条通四丁目","koaza":"","lat":43.049485,"lng":143.182936,"zip":"0800100"},{"town":"駒場北一条通五丁目","koaza":"","lat":43.049783,"lng":143.181411,"zip":"0800100"},{"town":"駒場北二条通一丁目","koaza":"","lat":43.049649,"lng":143.187301,"zip":"0800100"},{"town":"駒場北二条通二丁目","koaza":"","lat":43.049871,"lng":143.186172,"zip":"0800100"},{"town":"駒場北二条通三丁目","koaza":"","lat":43.050144,"lng":143.184713,"zip":"0800100"},{"town":"駒場北二条通四丁目","koaza":"","lat":43.050402,"lng":143.183248,"zip":"0800100"},{"town":"駒場北二条通五丁目","koaza":"","lat":43.050742,"lng":143.181528,"zip":"0800100"},{"town":"駒場北町","koaza":"","lat":43.051835,"lng":143.184238,"zip":"0800564"},{"town":"駒場並木","koaza":"","lat":43.079716,"lng":143.135445,"zip":"0800572"},{"town":"駒場西","koaza":"","lat":43.038013,"lng":143.155266,"zip":"0800574"},{"town":"駒場東","koaza":"","lat":43.047763,"lng":143.19118,"zip":"0800568"},{"town":"駒場平和台","koaza":"","lat":43.048481,"lng":143.188596,"zip":"0800563"},{"town":"駒場本通一丁目","koaza":"","lat":43.047581,"lng":143.186913,"zip":"0800565"},{"town":"駒場本通二丁目","koaza":"","lat":43.047753,"lng":143.185426,"zip":"0800565"},{"town":"駒場本通三丁目","koaza":"","lat":43.048034,"lng":143.183961,"zip":"0800565"},{"town":"駒場本通四丁目","koaza":"","lat":43.048305,"lng":143.182514,"zip":"0800565"},{"town":"駒場本通五丁目","koaza":"","lat":43.048641,"lng":143.180801,"zip":"0800565"},{"town":"駒場南","koaza":"","lat":43.038915,"lng":143.181777,"zip":"0800566"},{"town":"駒場南一条通","koaza":"","lat":43.046671,"lng":143.182937,"zip":"0800100"},{"town":"駒場南一条通一丁目","koaza":"","lat":43.046624,"lng":143.186799,"zip":"0800100"},{"town":"駒場南一条通二丁目","koaza":"","lat":43.046886,"lng":143.18512,"zip":"0800100"},{"town":"駒場南一条通三丁目","koaza":"","lat":43.047162,"lng":143.183662,"zip":"0800100"},{"town":"駒場南一条通四丁目","koaza":"","lat":43.047443,"lng":143.182205,"zip":"0800100"},{"town":"駒場南一条通五丁目","koaza":"","lat":43.047798,"lng":143.180487,"zip":"0800100"},{"town":"駒場南二条通","koaza":"","lat":43.045846,"lng":143.183429,"zip":"0800100"},{"town":"駒場南三条通","koaza":"","lat":43.044796,"lng":143.18378,"zip":"0800100"},{"town":"駒場南四条通","koaza":"","lat":43.043854,"lng":143.182938,"zip":"0800100"},{"town":"桜が丘","koaza":"","lat":42.99872,"lng":143.194695,"zip":"0800321"},{"town":"桜が丘西","koaza":"","lat":42.997864,"lng":143.1926,"zip":"0800322"},{"town":"新通十丁目","koaza":"","lat":42.99438,"lng":143.203867,"zip":"0800104"},{"town":"新通十一丁目","koaza":"","lat":42.993181,"lng":143.20416,"zip":"0800104"},{"town":"新通十二丁目","koaza":"","lat":42.991503,"lng":143.20453,"zip":"0800104"},{"town":"新通十三丁目","koaza":"","lat":42.989848,"lng":143.204895,"zip":"0800104"},{"town":"新通十四丁目","koaza":"","lat":42.988224,"lng":143.205259,"zip":"0800104"},{"town":"新通十五丁目","koaza":"","lat":42.986563,"lng":143.205656,"zip":"0800104"},{"town":"新通十六丁目","koaza":"","lat":42.985184,"lng":143.207587,"zip":"0800104"},{"town":"新通十七丁目","koaza":"","lat":42.983391,"lng":143.208048,"zip":"0800104"},{"town":"新通十八丁目","koaza":"","lat":42.981743,"lng":143.20843,"zip":"0800104"},{"town":"新通十九丁目","koaza":"","lat":42.98007,"lng":143.208702,"zip":"0800104"},{"town":"新通一丁目","koaza":"","lat":43.002997,"lng":143.200129,"zip":"0800104"},{"town":"新通二十丁目","koaza":"","lat":42.978658,"lng":143.208814,"zip":"0800104"},{"town":"新通二丁目","koaza":"","lat":43.001667,"lng":143.200143,"zip":"0800104"},{"town":"新通三丁目","koaza":"","lat":43.000946,"lng":143.200808,"zip":"0800104"},{"town":"新通四丁目","koaza":"","lat":43.000093,"lng":143.201104,"zip":"0800104"},{"town":"新通五丁目","koaza":"","lat":42.99944,"lng":143.201435,"zip":"0800104"},{"town":"新通六丁目","koaza":"","lat":42.998033,"lng":143.202256,"zip":"0800104"},{"town":"新通七丁目","koaza":"","lat":42.99683,"lng":143.203055,"zip":"0800104"},{"town":"新通八丁目","koaza":"","lat":42.995997,"lng":143.20348,"zip":"0800104"},{"town":"新通九丁目","koaza":"","lat":42.995219,"lng":143.203669,"zip":"0800104"},{"town":"新通北一丁目","koaza":"","lat":43.004644,"lng":143.200421,"zip":"0800105"},{"town":"新通北二丁目","koaza":"","lat":43.006286,"lng":143.198683,"zip":"0800105"},{"town":"鈴蘭公園","koaza":"","lat":42.944651,"lng":143.199376,"zip":"0800313"},{"town":"すずらん台北町一丁目","koaza":"","lat":42.954535,"lng":143.186153,"zip":"0800361"},{"town":"すずらん台北町二丁目","koaza":"","lat":42.954366,"lng":143.18387,"zip":"0800361"},{"town":"すずらん台仲町一丁目","koaza":"","lat":42.952269,"lng":143.18632,"zip":"0800362"},{"town":"すずらん台南町一丁目","koaza":"","lat":42.949306,"lng":143.186938,"zip":"0800363"},{"town":"住吉台","koaza":"","lat":42.988482,"lng":143.197602,"zip":"0800323"},{"town":"十勝川温泉","koaza":"","lat":42.950583,"lng":143.298131,"zip":"0800261"},{"town":"十勝川温泉北十丁目","koaza":"","lat":42.93897,"lng":143.290835,"zip":"0800262"},{"town":"十勝川温泉北十一丁目","koaza":"","lat":42.93871,"lng":143.292982,"zip":"0800262"},{"town":"十勝川温泉北十二丁目","koaza":"","lat":42.938438,"lng":143.295396,"zip":"0800262"},{"town":"十勝川温泉北十三丁目","koaza":"","lat":42.938438,"lng":143.297655,"zip":"0800262"},{"town":"十勝川温泉北十四丁目","koaza":"","lat":42.938101,"lng":143.299976,"zip":"0800262"},{"town":"十勝川温泉北十五丁目","koaza":"","lat":42.936409,"lng":143.302386,"zip":"0800262"},{"town":"十勝川温泉北十六丁目","koaza":"","lat":42.935814,"lng":143.304723,"zip":"0800262"},{"town":"十勝川温泉北十七丁目","koaza":"","lat":42.93556,"lng":143.30726,"zip":"0800262"},{"town":"十勝川温泉北十八丁目","koaza":"","lat":42.936708,"lng":143.30919,"zip":"0800262"},{"town":"十勝川温泉北十九丁目","koaza":"","lat":42.93723,"lng":143.311337,"zip":"0800262"},{"town":"十勝川温泉北一丁目","koaza":"","lat":42.951748,"lng":143.267899,"zip":"0800262"},{"town":"十勝川温泉北二十丁目","koaza":"","lat":42.93782,"lng":143.313467,"zip":"0800262"},{"town":"十勝川温泉北二丁目","koaza":"","lat":42.950321,"lng":143.271154,"zip":"0800262"},{"town":"十勝川温泉北三丁目","koaza":"","lat":42.948643,"lng":143.273739,"zip":"0800262"},{"town":"十勝川温泉北四丁目","koaza":"","lat":42.946914,"lng":143.276171,"zip":"0800262"},{"town":"十勝川温泉北五丁目","koaza":"","lat":42.94487,"lng":143.278616,"zip":"0800262"},{"town":"十勝川温泉北六丁目","koaza":"","lat":42.943863,"lng":143.28107,"zip":"0800262"},{"town":"十勝川温泉北七丁目","koaza":"","lat":42.942669,"lng":143.283513,"zip":"0800262"},{"town":"十勝川温泉北八丁目","koaza":"","lat":42.939915,"lng":143.286208,"zip":"0800262"},{"town":"十勝川温泉北九丁目","koaza":"","lat":42.940315,"lng":143.288671,"zip":"0800262"},{"town":"十勝川温泉南十丁目","koaza":"","lat":42.934304,"lng":143.291303,"zip":"0800263"},{"town":"十勝川温泉南十一丁目","koaza":"","lat":42.93386,"lng":143.29358,"zip":"0800263"},{"town":"十勝川温泉南十二丁目","koaza":"","lat":42.93196,"lng":143.296304,"zip":"0800263"},{"town":"十勝川温泉南十三丁目","koaza":"","lat":42.93154,"lng":143.298647,"zip":"0800263"},{"town":"十勝川温泉南十四丁目","koaza":"","lat":42.930391,"lng":143.300895,"zip":"0800263"},{"town":"十勝川温泉南十五丁目","koaza":"","lat":42.928742,"lng":143.303368,"zip":"0800263"},{"town":"十勝川温泉南十六丁目","koaza":"","lat":42.929145,"lng":143.305602,"zip":"0800263"},{"town":"十勝川温泉南十七丁目","koaza":"","lat":42.927021,"lng":143.308325,"zip":"0800263"},{"town":"十勝川温泉南十八丁目","koaza":"","lat":42.930171,"lng":143.310028,"zip":"0800263"},{"town":"十勝川温泉南十九丁目","koaza":"","lat":42.930743,"lng":143.31269,"zip":"0800263"},{"town":"十勝川温泉南一丁目","koaza":"","lat":42.945774,"lng":143.270027,"zip":"0800263"},{"town":"十勝川温泉南二十丁目","koaza":"","lat":42.934587,"lng":143.314721,"zip":"0800263"},{"town":"十勝川温泉南二丁目","koaza":"","lat":42.944856,"lng":143.272308,"zip":"0800263"},{"town":"十勝川温泉南三丁目","koaza":"","lat":42.943593,"lng":143.274427,"zip":"0800263"},{"town":"十勝川温泉南四丁目","koaza":"","lat":42.942539,"lng":143.276758,"zip":"0800263"},{"town":"十勝川温泉南五丁目","koaza":"","lat":42.941199,"lng":143.279107,"zip":"0800263"},{"town":"十勝川温泉南六丁目","koaza":"","lat":42.938496,"lng":143.281788,"zip":"0800263"},{"town":"十勝川温泉南七丁目","koaza":"","lat":42.936385,"lng":143.28434,"zip":"0800263"},{"town":"十勝川温泉南八丁目","koaza":"","lat":42.935163,"lng":143.28686,"zip":"0800263"},{"town":"十勝川温泉南九丁目","koaza":"","lat":42.933976,"lng":143.289331,"zip":"0800263"},{"town":"中鈴蘭北五丁目","koaza":"","lat":42.955057,"lng":143.189616,"zip":"0800307"},{"town":"中鈴蘭北六丁目","koaza":"","lat":42.954943,"lng":143.188144,"zip":"0800307"},{"town":"中鈴蘭南一丁目","koaza":"","lat":42.953,"lng":143.196009,"zip":"0800308"},{"town":"中鈴蘭南二丁目","koaza":"","lat":42.952898,"lng":143.194125,"zip":"0800308"},{"town":"中鈴蘭南三丁目","koaza":"","lat":42.95254,"lng":143.192627,"zip":"0800308"},{"town":"中鈴蘭南四丁目","koaza":"","lat":42.952972,"lng":143.190868,"zip":"0800308"},{"town":"中鈴蘭南五丁目","koaza":"","lat":42.95257,"lng":143.189449,"zip":"0800308"},{"town":"中鈴蘭南六丁目","koaza":"","lat":42.952646,"lng":143.188037,"zip":"0800308"},{"town":"中鈴蘭元町","koaza":"","lat":42.955356,"lng":143.193027,"zip":"0800309"},{"town":"柏寿台","koaza":"","lat":43.003162,"lng":143.192994,"zip":"0800325"},{"town":"東通十丁目","koaza":"","lat":42.995217,"lng":143.206837,"zip":"0800106"},{"town":"東通十一丁目","koaza":"","lat":42.993433,"lng":143.208707,"zip":"0800106"},{"town":"東通十二丁目","koaza":"","lat":42.991813,"lng":143.209319,"zip":"0800106"},{"town":"東通十三丁目","koaza":"","lat":42.990205,"lng":143.209884,"zip":"0800106"},{"town":"東通十四丁目","koaza":"","lat":42.988632,"lng":143.210967,"zip":"0800106"},{"town":"東通十五丁目","koaza":"","lat":42.986942,"lng":143.210624,"zip":"0800106"},{"town":"東通十六丁目","koaza":"","lat":42.98535,"lng":143.21245,"zip":"0800106"},{"town":"東通十七丁目","koaza":"","lat":42.983722,"lng":143.21249,"zip":"0800106"},{"town":"東通十八丁目","koaza":"","lat":42.982045,"lng":143.212781,"zip":"0800106"},{"town":"東通十九丁目","koaza":"","lat":42.980377,"lng":143.213369,"zip":"0800106"},{"town":"東通二十丁目","koaza":"","lat":42.97881,"lng":143.214538,"zip":"0800106"},{"town":"ひびき野仲町一丁目","koaza":"","lat":42.941565,"lng":143.217931,"zip":"0800162"},{"town":"ひびき野仲町二丁目","koaza":"","lat":42.939912,"lng":143.2184,"zip":"0800162"},{"town":"ひびき野西町一丁目","koaza":"","lat":42.942019,"lng":143.213657,"zip":"0800163"},{"town":"ひびき野西町二丁目","koaza":"","lat":42.940276,"lng":143.21421,"zip":"0800163"},{"town":"ひびき野東町一丁目","koaza":"","lat":42.942058,"lng":143.221727,"zip":"0800161"},{"town":"ひびき野東町二丁目","koaza":"","lat":42.940086,"lng":143.222475,"zip":"0800161"},{"town":"宝来北一条一丁目","koaza":"","lat":42.954515,"lng":143.21202,"zip":"0800141"},{"town":"宝来北一条二丁目","koaza":"","lat":42.952766,"lng":143.21368,"zip":"0800141"},{"town":"宝来北一条三丁目","koaza":"","lat":42.952472,"lng":143.215915,"zip":"0800141"},{"town":"宝来北一条四丁目","koaza":"","lat":42.952627,"lng":143.218389,"zip":"0800141"},{"town":"宝来北一条五丁目","koaza":"","lat":42.953283,"lng":143.220573,"zip":"0800141"},{"town":"宝来北一条六丁目","koaza":"","lat":42.953457,"lng":143.222848,"zip":"0800141"},{"town":"宝来北一条七丁目","koaza":"","lat":42.953604,"lng":143.225111,"zip":"0800141"},{"town":"宝来北一条八丁目","koaza":"","lat":42.95373,"lng":143.227345,"zip":"0800141"},{"town":"宝来北二条一丁目","koaza":"","lat":42.958867,"lng":143.211718,"zip":"0800142"},{"town":"宝来北二条二丁目","koaza":"","lat":42.957799,"lng":143.213393,"zip":"0800142"},{"town":"宝来北二条三丁目","koaza":"","lat":42.957944,"lng":143.215476,"zip":"0800142"},{"town":"宝来北二条四丁目","koaza":"","lat":42.958111,"lng":143.2177,"zip":"0800142"},{"town":"宝来北二条五丁目","koaza":"","lat":42.958275,"lng":143.219947,"zip":"0800142"},{"town":"宝来北二条六丁目","koaza":"","lat":42.958436,"lng":143.222205,"zip":"0800142"},{"town":"宝来北二条七丁目","koaza":"","lat":42.958598,"lng":143.224469,"zip":"0800142"},{"town":"宝来北二条八丁目","koaza":"","lat":42.958752,"lng":143.226694,"zip":"0800142"},{"town":"宝来北三条四丁目","koaza":"","lat":42.962933,"lng":143.215782,"zip":"0800143"},{"town":"宝来北三条五丁目","koaza":"","lat":42.963276,"lng":143.219301,"zip":"0800143"},{"town":"宝来北三条六丁目","koaza":"","lat":42.963439,"lng":143.221558,"zip":"0800143"},{"town":"宝来北三条七丁目","koaza":"","lat":42.963605,"lng":143.223848,"zip":"0800143"},{"town":"宝来北三条八丁目","koaza":"","lat":42.963763,"lng":143.226292,"zip":"0800143"},{"town":"宝来北四条四丁目","koaza":"","lat":42.968122,"lng":143.216731,"zip":"0800144"},{"town":"宝来北四条五丁目","koaza":"","lat":42.968194,"lng":143.218677,"zip":"0800144"},{"town":"宝来北四条六丁目","koaza":"","lat":42.96835,"lng":143.220925,"zip":"0800144"},{"town":"宝来北四条七丁目","koaza":"","lat":42.968508,"lng":143.223226,"zip":"0800144"},{"town":"宝来北四条八丁目","koaza":"","lat":42.968667,"lng":143.225444,"zip":"0800144"},{"town":"宝来北五条七丁目","koaza":"","lat":42.973294,"lng":143.220624,"zip":"0800145"},{"town":"宝来北五条八丁目","koaza":"","lat":42.973586,"lng":143.224813,"zip":"0800145"},{"town":"宝来北六条七丁目","koaza":"","lat":42.977054,"lng":143.219976,"zip":"0800146"},{"town":"宝来北六条八丁目","koaza":"","lat":42.977341,"lng":143.224332,"zip":"0800146"},{"town":"宝来仲町北一丁目","koaza":"","lat":42.949552,"lng":143.217194,"zip":"0800132"},{"town":"宝来仲町南一丁目","koaza":"","lat":42.946793,"lng":143.217468,"zip":"0800135"},{"town":"宝来仲町南二丁目","koaza":"","lat":42.944326,"lng":143.217799,"zip":"0800135"},{"town":"宝来西町北一丁目","koaza":"","lat":42.949387,"lng":143.213876,"zip":"0800139"},{"town":"宝来西町南一丁目","koaza":"","lat":42.946543,"lng":143.214278,"zip":"0800134"},{"town":"宝来西町南二丁目","koaza":"","lat":42.944062,"lng":143.214384,"zip":"0800134"},{"town":"宝来東町北一丁目","koaza":"","lat":42.949772,"lng":143.22035,"zip":"0800133"},{"town":"宝来東町南一丁目","koaza":"","lat":42.947045,"lng":143.220825,"zip":"0800136"},{"town":"宝来東町南二丁目","koaza":"","lat":42.944619,"lng":143.22197,"zip":"0800136"},{"town":"宝来本通一丁目","koaza":"","lat":42.947668,"lng":143.210796,"zip":"0800131"},{"town":"宝来本通六丁目","koaza":"","lat":42.948548,"lng":143.22349,"zip":"0800131"},{"town":"宝来本通七丁目","koaza":"","lat":42.948699,"lng":143.225758,"zip":"0800131"},{"town":"宝来本通八丁目","koaza":"","lat":42.948835,"lng":143.227996,"zip":"0800131"},{"town":"宝来南一条一丁目","koaza":"","lat":42.942468,"lng":143.210177,"zip":"0800137"},{"town":"宝来南一条六丁目","koaza":"","lat":42.943578,"lng":143.224845,"zip":"0800137"},{"town":"宝来南一条七丁目","koaza":"","lat":42.943718,"lng":143.226425,"zip":"0800137"},{"town":"宝来南一条八丁目","koaza":"","lat":42.943883,"lng":143.228628,"zip":"0800137"},{"town":"宝来南二条一丁目","koaza":"","lat":42.938504,"lng":143.210916,"zip":"0800138"},{"town":"宝来南二条二丁目","koaza":"","lat":42.938105,"lng":143.215552,"zip":"0800138"},{"town":"宝来南二条三丁目","koaza":"","lat":42.938494,"lng":143.217926,"zip":"0800138"},{"town":"宝来南二条四丁目","koaza":"","lat":42.938876,"lng":143.219558,"zip":"0800138"},{"town":"宝来南二条五丁目","koaza":"","lat":42.939021,"lng":143.222397,"zip":"0800138"},{"town":"宝来南二条六丁目","koaza":"","lat":42.93965,"lng":143.225866,"zip":"0800138"},{"town":"宝来南二条七丁目","koaza":"","lat":42.939475,"lng":143.227006,"zip":"0800138"},{"town":"宝来南二条八丁目","koaza":"","lat":42.93891,"lng":143.229462,"zip":"0800138"},{"town":"北明台","koaza":"","lat":43.005573,"lng":143.193719,"zip":"0800326"},{"town":"北陽台","koaza":"","lat":43.000789,"lng":143.193247,"zip":"0800327"},{"town":"緑が丘","koaza":"","lat":42.985081,"lng":143.195368,"zip":"0800334"},{"town":"南鈴蘭北一丁目","koaza":"","lat":42.95035,"lng":143.199997,"zip":"0800311"},{"town":"南鈴蘭北二丁目","koaza":"","lat":42.95039,"lng":143.198375,"zip":"0800311"},{"town":"南鈴蘭北三丁目","koaza":"","lat":42.950259,"lng":143.196027,"zip":"0800311"},{"town":"南鈴蘭北四丁目","koaza":"","lat":42.95008,"lng":143.193622,"zip":"0800311"},{"town":"南鈴蘭北五丁目","koaza":"","lat":42.949917,"lng":143.19141,"zip":"0800311"},{"town":"南鈴蘭北六丁目","koaza":"","lat":42.949155,"lng":143.1892,"zip":"0800311"},{"town":"南鈴蘭南一丁目","koaza":"","lat":42.948121,"lng":143.200949,"zip":"0800312"},{"town":"南鈴蘭南二丁目","koaza":"","lat":42.947922,"lng":143.198615,"zip":"0800312"},{"town":"南鈴蘭南三丁目","koaza":"","lat":42.947738,"lng":143.196544,"zip":"0800312"},{"town":"南鈴蘭南四丁目","koaza":"","lat":42.947659,"lng":143.194444,"zip":"0800312"},{"town":"南鈴蘭南五丁目","koaza":"","lat":42.947703,"lng":143.191893,"zip":"0800312"},{"town":"南住吉台","koaza":"","lat":42.98142,"lng":143.194042,"zip":"0800324"},{"town":"元町","koaza":"","lat":42.994315,"lng":143.197069,"zip":"0800103"},{"town":"柳町北区","koaza":"","lat":42.975428,"lng":143.214475,"zip":"0800121"},{"town":"柳町仲区","koaza":"","lat":42.971127,"lng":143.214936,"zip":"0800122"},{"town":"柳町南区","koaza":"","lat":42.967286,"lng":143.213048,"zip":"0800123"},{"town":"雄飛が丘","koaza":"","lat":42.99411,"lng":143.193982,"zip":"0800330"},{"town":"雄飛が丘北区","koaza":"","lat":43.002837,"lng":143.189555,"zip":"0800331"},{"town":"雄飛が丘仲区","koaza":"","lat":42.998582,"lng":143.190233,"zip":"0800332"},{"town":"雄飛が丘南区","koaza":"","lat":42.993858,"lng":143.190605,"zip":"0800333"},{"town":"緑陽台北区","koaza":"","lat":42.974065,"lng":143.195007,"zip":"0800316"},{"town":"緑陽台仲区","koaza":"","lat":42.9691,"lng":143.195648,"zip":"0800317"},{"town":"緑陽台南区","koaza":"","lat":42.96413,"lng":143.196294,"zip":"0800318"},{"town":"字下士幌","koaza":"北八線東","lat":42.973724,"lng":143.225985,"zip":"0800100"},{"town":"字下士幌","koaza":"北一線東","lat":42.940345,"lng":143.267789,"zip":"0800100"},{"town":"字下士幌","koaza":"北六線東","lat":42.962875,"lng":143.230729,"zip":"0800100"},{"town":"字下士幌","koaza":"北五線東","lat":42.960859,"lng":143.237765,"zip":"0800100"},{"town":"字下士幌","koaza":"北四線東","lat":42.955382,"lng":143.231698,"zip":"0800100"},{"town":"字下士幌","koaza":"北三線東","lat":42.948426,"lng":143.239439,"zip":"0800100"},{"town":"字下士幌","koaza":"北二線東","lat":42.943251,"lng":143.252932,"zip":"0800100"},{"town":"字下士幌","koaza":"基線東","lat":42.937741,"lng":143.27513,"zip":"0800100"}]