[{"town":"大通北一丁目","koaza":"","lat":42.699827,"lng":143.133431,"zip":"0891310"},{"town":"大通北二丁目","koaza":"","lat":42.701265,"lng":143.134464,"zip":"0891310"},{"town":"大通北三丁目","koaza":"","lat":42.702865,"lng":143.135583,"zip":"0891310"},{"town":"大通北四丁目","koaza":"","lat":42.703957,"lng":143.136369,"zip":"0891310"},{"town":"大通北五丁目","koaza":"","lat":42.704722,"lng":143.136958,"zip":"0891310"},{"town":"大通北六丁目","koaza":"","lat":42.705588,"lng":143.137671,"zip":"0891310"},{"town":"大通北七丁目","koaza":"","lat":42.706749,"lng":143.138402,"zip":"0891310"},{"town":"大通北八丁目","koaza":"","lat":42.708763,"lng":143.13984,"zip":"0891310"},{"town":"大通南一丁目","koaza":"","lat":42.698646,"lng":143.132567,"zip":"0891330"},{"town":"大通南二丁目","koaza":"","lat":42.697662,"lng":143.131901,"zip":"0891330"},{"town":"大通南三丁目","koaza":"","lat":42.6967,"lng":143.131234,"zip":"0891330"},{"town":"大通南四丁目","koaza":"","lat":42.695743,"lng":143.130562,"zip":"0891330"},{"town":"大通南五丁目","koaza":"","lat":42.694571,"lng":143.129428,"zip":"0891330"},{"town":"大通南六丁目","koaza":"","lat":42.693176,"lng":143.128134,"zip":"0891330"},{"town":"大通南七丁目","koaza":"","lat":42.692054,"lng":143.126399,"zip":"0891330"},{"town":"大通南八丁目","koaza":"","lat":42.690532,"lng":143.125722,"zip":"0891330"},{"town":"上札内","koaza":"","lat":42.636455,"lng":143.093537,"zip":"0891371"},{"town":"上札内基線","koaza":"","lat":42.627062,"lng":143.09167,"zip":"0891300"},{"town":"上札内西一線","koaza":"","lat":42.628944,"lng":143.087231,"zip":"0891300"},{"town":"上札内西二線","koaza":"","lat":42.62879,"lng":143.079809,"zip":"0891300"},{"town":"上札内西三線","koaza":"","lat":42.623676,"lng":143.072034,"zip":"0891300"},{"town":"上札内東一線","koaza":"","lat":42.622244,"lng":143.094877,"zip":"0891300"},{"town":"共栄東三線","koaza":"","lat":42.710632,"lng":143.169036,"zip":"0891300"},{"town":"共栄東四線","koaza":"","lat":42.709289,"lng":143.175493,"zip":"0891300"},{"town":"共栄東五線","koaza":"","lat":42.707561,"lng":143.183564,"zip":"0891300"},{"town":"協和東一線","koaza":"","lat":42.696273,"lng":143.144563,"zip":"0891300"},{"town":"協和東二線","koaza":"","lat":42.694535,"lng":143.152139,"zip":"0891300"},{"town":"協和東三線","koaza":"","lat":42.692785,"lng":143.158482,"zip":"0891300"},{"town":"協和東四線","koaza":"","lat":42.69102,"lng":143.166663,"zip":"0891300"},{"town":"協和東五線","koaza":"","lat":42.689141,"lng":143.174815,"zip":"0891300"},{"town":"興和東四線","koaza":"","lat":42.722252,"lng":143.182829,"zip":"0891300"},{"town":"興和東五線","koaza":"","lat":42.720854,"lng":143.190973,"zip":"0891300"},{"town":"栄東一線","koaza":"","lat":42.679577,"lng":143.133078,"zip":"0891300"},{"town":"栄東二線","koaza":"","lat":42.676912,"lng":143.140732,"zip":"0891300"},{"town":"栄東三線","koaza":"","lat":42.674781,"lng":143.146772,"zip":"0891300"},{"town":"栄東四線","koaza":"","lat":42.672649,"lng":143.152858,"zip":"0891300"},{"town":"栄東五線","koaza":"","lat":42.669607,"lng":143.160172,"zip":"0891300"},{"town":"新札内東三線","koaza":"","lat":42.684302,"lng":143.076795,"zip":"0891300"},{"town":"新札内東四線","koaza":"","lat":42.682667,"lng":143.081515,"zip":"0891300"},{"town":"新札内東五線","koaza":"","lat":42.679788,"lng":143.087201,"zip":"0891300"},{"town":"新札内東六線","koaza":"","lat":42.678451,"lng":143.095446,"zip":"0891300"},{"town":"新札内南","koaza":"","lat":42.650155,"lng":143.054245,"zip":"0891355"},{"town":"新札内南東三線","koaza":"","lat":42.666383,"lng":143.062498,"zip":"0891300"},{"town":"新札内南東四線","koaza":"","lat":42.665142,"lng":143.067497,"zip":"0891300"},{"town":"新札内南東五線","koaza":"","lat":42.66003,"lng":143.071605,"zip":"0891300"},{"town":"新札内南東六線","koaza":"","lat":42.655793,"lng":143.073974,"zip":"0891300"},{"town":"新生東一線","koaza":"","lat":42.718107,"lng":143.15755,"zip":"0891300"},{"town":"新生東二線","koaza":"","lat":42.716823,"lng":143.164189,"zip":"0891300"},{"town":"新生東三線","koaza":"","lat":42.723871,"lng":143.175879,"zip":"0891300"},{"town":"常盤基線","koaza":"","lat":42.671988,"lng":143.120598,"zip":"0891367"},{"town":"常盤西一線","koaza":"","lat":42.673595,"lng":143.116013,"zip":"0891300"},{"town":"常盤西二線","koaza":"","lat":42.675702,"lng":143.109863,"zip":"0891300"},{"town":"常盤西三線","koaza":"","lat":42.684598,"lng":143.106255,"zip":"0891300"},{"town":"中札内基線","koaza":"","lat":42.704047,"lng":143.144984,"zip":"0891325"},{"town":"中札内西一線","koaza":"","lat":42.705773,"lng":143.143166,"zip":"0891300"},{"town":"中札内西二線","koaza":"","lat":42.701449,"lng":143.127267,"zip":"0891300"},{"town":"中札内西三線","koaza":"","lat":42.697731,"lng":143.11733,"zip":"0891300"},{"town":"中戸蔦東四線","koaza":"","lat":42.726097,"lng":143.118223,"zip":"0891300"},{"town":"中戸蔦東五線","koaza":"","lat":42.724201,"lng":143.122756,"zip":"0891300"},{"town":"中戸蔦東六線","koaza":"","lat":42.721084,"lng":143.128393,"zip":"0891300"},{"town":"中戸蔦東七線","koaza":"","lat":42.71927,"lng":143.133479,"zip":"0891300"},{"town":"西一条北一丁目","koaza":"","lat":42.700241,"lng":143.132189,"zip":"0891311"},{"town":"西一条北二丁目","koaza":"","lat":42.701632,"lng":143.133008,"zip":"0891311"},{"town":"西一条北三丁目","koaza":"","lat":42.703606,"lng":143.134251,"zip":"0891311"},{"town":"西一条北四丁目","koaza":"","lat":42.704426,"lng":143.135512,"zip":"0891311"},{"town":"西一条北五丁目","koaza":"","lat":42.705263,"lng":143.135535,"zip":"0891311"},{"town":"西一条北六丁目","koaza":"","lat":42.705769,"lng":143.136605,"zip":"0891311"},{"town":"西一条北七丁目","koaza":"","lat":42.70707,"lng":143.136847,"zip":"0891311"},{"town":"西一条北八丁目","koaza":"","lat":42.708996,"lng":143.138261,"zip":"0891311"},{"town":"西一条北九丁目","koaza":"","lat":42.710122,"lng":143.13931,"zip":"0891311"},{"town":"西一条南一丁目","koaza":"","lat":42.699102,"lng":143.131329,"zip":"0891331"},{"town":"西一条南二丁目","koaza":"","lat":42.698027,"lng":143.130662,"zip":"0891331"},{"town":"西一条南三丁目","koaza":"","lat":42.697158,"lng":143.130078,"zip":"0891331"},{"town":"西一条南四丁目","koaza":"","lat":42.696197,"lng":143.129424,"zip":"0891331"},{"town":"西一条南五丁目","koaza":"","lat":42.695091,"lng":143.128525,"zip":"0891331"},{"town":"西二条北一丁目","koaza":"","lat":42.700581,"lng":143.131582,"zip":"0891312"},{"town":"西二条北五丁目","koaza":"","lat":42.705727,"lng":143.133907,"zip":"0891312"},{"town":"西二条北七丁目","koaza":"","lat":42.707441,"lng":143.135079,"zip":"0891312"},{"town":"西二条北八丁目","koaza":"","lat":42.708687,"lng":143.136364,"zip":"0891312"},{"town":"西二条南一丁目","koaza":"","lat":42.699356,"lng":143.130578,"zip":"0891332"},{"town":"西二条南二丁目","koaza":"","lat":42.698531,"lng":143.129097,"zip":"0891332"},{"town":"西二条南三丁目","koaza":"","lat":42.697795,"lng":143.128753,"zip":"0891332"},{"town":"西二条南四丁目","koaza":"","lat":42.696938,"lng":143.128178,"zip":"0891332"},{"town":"西二条南五丁目","koaza":"","lat":42.695505,"lng":143.127314,"zip":"0891332"},{"town":"西二条南六丁目","koaza":"","lat":42.694005,"lng":143.126382,"zip":"0891332"},{"town":"西二条南七丁目","koaza":"","lat":42.692527,"lng":143.125142,"zip":"0891332"},{"town":"西二条南八丁目","koaza":"","lat":42.691048,"lng":143.124253,"zip":"0891332"},{"town":"西札内","koaza":"","lat":42.61218,"lng":142.958454,"zip":"0891356"},{"town":"西戸蔦東一線","koaza":"","lat":42.706024,"lng":143.079807,"zip":"0891300"},{"town":"西戸蔦東二線","koaza":"","lat":42.713046,"lng":143.090279,"zip":"0891300"},{"town":"西戸蔦東三線","koaza":"","lat":42.71073,"lng":143.096176,"zip":"0891300"},{"town":"西戸蔦東四線","koaza":"","lat":42.70884,"lng":143.10048,"zip":"0891300"},{"town":"東一条北一丁目","koaza":"","lat":42.699164,"lng":143.134677,"zip":"0891321"},{"town":"東一条北二丁目","koaza":"","lat":42.700735,"lng":143.135887,"zip":"0891321"},{"town":"東一条北三丁目","koaza":"","lat":42.702177,"lng":143.136985,"zip":"0891321"},{"town":"東一条北四丁目","koaza":"","lat":42.703246,"lng":143.137696,"zip":"0891321"},{"town":"東一条北五丁目","koaza":"","lat":42.704155,"lng":143.13845,"zip":"0891321"},{"town":"東一条北六丁目","koaza":"","lat":42.704986,"lng":143.13906,"zip":"0891321"},{"town":"東一条北七丁目","koaza":"","lat":42.70607,"lng":143.140011,"zip":"0891321"},{"town":"東一条北八丁目","koaza":"","lat":42.708102,"lng":143.140721,"zip":"0891321"},{"town":"東一条北九丁目","koaza":"","lat":42.709715,"lng":143.141381,"zip":"0891321"},{"town":"東一条南一丁目","koaza":"","lat":42.698123,"lng":143.13384,"zip":"0891341"},{"town":"東一条南二丁目","koaza":"","lat":42.697199,"lng":143.133108,"zip":"0891341"},{"town":"東一条南三丁目","koaza":"","lat":42.696237,"lng":143.132421,"zip":"0891341"},{"town":"東一条南四丁目","koaza":"","lat":42.695273,"lng":143.131738,"zip":"0891341"},{"town":"東一条南五丁目","koaza":"","lat":42.693961,"lng":143.13081,"zip":"0891341"},{"town":"東一条南六丁目","koaza":"","lat":42.692457,"lng":143.130555,"zip":"0891341"},{"town":"東一条南七丁目","koaza":"","lat":42.691171,"lng":143.129016,"zip":"0891341"},{"town":"東一条南八丁目","koaza":"","lat":42.689673,"lng":143.128573,"zip":"0891341"},{"town":"東二条北一丁目","koaza":"","lat":42.698657,"lng":143.135793,"zip":"0891322"},{"town":"東二条北二丁目","koaza":"","lat":42.700106,"lng":143.136998,"zip":"0891322"},{"town":"東二条北三丁目","koaza":"","lat":42.701523,"lng":143.138148,"zip":"0891322"},{"town":"東二条北四丁目","koaza":"","lat":42.702722,"lng":143.13914,"zip":"0891322"},{"town":"東二条北五丁目","koaza":"","lat":42.703624,"lng":143.139855,"zip":"0891322"},{"town":"東二条北六丁目","koaza":"","lat":42.704534,"lng":143.140592,"zip":"0891322"},{"town":"東二条北七丁目","koaza":"","lat":42.70591,"lng":143.141614,"zip":"0891322"},{"town":"東二条北八丁目","koaza":"","lat":42.707295,"lng":143.142401,"zip":"0891322"},{"town":"東二条南一丁目","koaza":"","lat":42.697551,"lng":143.134999,"zip":"0891342"},{"town":"東二条南二丁目","koaza":"","lat":42.696787,"lng":143.134261,"zip":"0891342"},{"town":"東二条南三丁目","koaza":"","lat":42.695736,"lng":143.133343,"zip":"0891342"},{"town":"東二条南四丁目","koaza":"","lat":42.694897,"lng":143.132547,"zip":"0891342"},{"town":"東二条南五丁目","koaza":"","lat":42.693965,"lng":143.132044,"zip":"0891342"},{"town":"東三条北一丁目","koaza":"","lat":42.698154,"lng":143.137148,"zip":"0891323"},{"town":"東三条北二丁目","koaza":"","lat":42.69965,"lng":143.137885,"zip":"0891323"},{"town":"東三条北三丁目","koaza":"","lat":42.701019,"lng":143.13913,"zip":"0891323"},{"town":"東三条南一丁目","koaza":"","lat":42.696904,"lng":143.136252,"zip":"0891343"},{"town":"東三条南二丁目","koaza":"","lat":42.69649,"lng":143.135185,"zip":"0891343"},{"town":"東三条南三丁目","koaza":"","lat":42.695428,"lng":143.134708,"zip":"0891343"},{"town":"東三条南四丁目","koaza":"","lat":42.694492,"lng":143.133878,"zip":"0891343"},{"town":"東三条南五丁目","koaza":"","lat":42.693345,"lng":143.132989,"zip":"0891343"},{"town":"東四条北一丁目","koaza":"","lat":42.696905,"lng":143.138763,"zip":"0891324"},{"town":"東四条北二丁目","koaza":"","lat":42.698591,"lng":143.139503,"zip":"0891324"},{"town":"東四条南一丁目","koaza":"","lat":42.69607,"lng":143.137895,"zip":"0891344"},{"town":"東四条南二丁目","koaza":"","lat":42.695394,"lng":143.137313,"zip":"0891344"},{"town":"東四条南三丁目","koaza":"","lat":42.694459,"lng":143.136375,"zip":"0891344"},{"town":"東四条南五丁目","koaza":"","lat":42.693084,"lng":143.135074,"zip":"0891344"},{"town":"東四条南六丁目","koaza":"","lat":42.691563,"lng":143.133103,"zip":"0891344"},{"town":"東四条南七丁目","koaza":"","lat":42.690124,"lng":143.132267,"zip":"0891344"},{"town":"東四条南八丁目","koaza":"","lat":42.688583,"lng":143.131318,"zip":"0891344"},{"town":"東五条南一丁目","koaza":"","lat":42.694632,"lng":143.138984,"zip":"0891345"},{"town":"東五条南五丁目","koaza":"","lat":42.692475,"lng":143.13742,"zip":"0891345"},{"town":"東戸蔦東四線","koaza":"","lat":42.706991,"lng":143.102947,"zip":"0891300"},{"town":"東戸蔦東五線","koaza":"","lat":42.704638,"lng":143.107126,"zip":"0891300"},{"town":"東戸蔦東六線","koaza":"","lat":42.702438,"lng":143.113342,"zip":"0891300"},{"town":"東戸蔦東七線","koaza":"","lat":42.707112,"lng":143.123291,"zip":"0891300"},{"town":"南札内","koaza":"","lat":42.620015,"lng":142.826681,"zip":"0891374"},{"town":"南札内幹線","koaza":"","lat":42.609054,"lng":143.04456,"zip":"0891300"},{"town":"南札内基線","koaza":"","lat":42.606052,"lng":143.076198,"zip":"0891300"},{"town":"南札内西一線","koaza":"","lat":42.606377,"lng":143.069063,"zip":"0891300"},{"town":"南札内西二線","koaza":"","lat":42.611465,"lng":143.066898,"zip":"0891300"},{"town":"南札内西三線","koaza":"","lat":42.608958,"lng":143.059615,"zip":"0891300"},{"town":"南札内西四線","koaza":"","lat":42.610028,"lng":143.054577,"zip":"0891300"},{"town":"南常盤東一線","koaza":"","lat":42.662388,"lng":143.121935,"zip":"0891300"},{"town":"南常盤東二線","koaza":"","lat":42.659675,"lng":143.129521,"zip":"0891300"},{"town":"南常盤東三線","koaza":"","lat":42.657553,"lng":143.135613,"zip":"0891300"},{"town":"南常盤東四線","koaza":"","lat":42.654867,"lng":143.143262,"zip":"0891300"},{"town":"南常盤東五線","koaza":"","lat":42.652721,"lng":143.150022,"zip":"0891300"},{"town":"元札内基線","koaza":"","lat":42.647252,"lng":143.104677,"zip":"0891300"},{"town":"元札内西一線","koaza":"","lat":42.648941,"lng":143.100192,"zip":"0891300"},{"town":"元札内西二線","koaza":"","lat":42.6475,"lng":143.094573,"zip":"0891300"},{"town":"元札内東一線","koaza":"","lat":42.645634,"lng":143.109259,"zip":"0891300"},{"town":"元札内東二線","koaza":"","lat":42.64347,"lng":143.115321,"zip":"0891300"},{"town":"元札内東三線","koaza":"","lat":42.640825,"lng":143.122943,"zip":"0891300"},{"town":"元札内東四線","koaza":"","lat":42.63848,"lng":143.133737,"zip":"0891300"},{"town":"元更別東一線","koaza":"","lat":42.605336,"lng":143.087958,"zip":"0891300"},{"town":"元更別東二線","koaza":"","lat":42.625852,"lng":143.103982,"zip":"0891300"},{"town":"元更別東三線","koaza":"","lat":42.623946,"lng":143.112179,"zip":"0891300"},{"town":"元更別東四線","koaza":"","lat":42.61279,"lng":143.104821,"zip":"0891300"},{"town":"元更別東五線","koaza":"","lat":42.608033,"lng":143.105014,"zip":"0891300"},{"town":"元大正基線","koaza":"","lat":42.720624,"lng":143.151626,"zip":"0891300"},{"town":"元大正西一線","koaza":"","lat":42.717228,"lng":143.145104,"zip":"0891300"},{"town":"元大正西二線","koaza":"","lat":42.716052,"lng":143.137361,"zip":"0891300"}]