[{"town":"字姉茶","koaza":"","lat":42.23358,"lng":142.734241,"zip":"0570000"},{"town":"字井寒台","koaza":"","lat":42.183531,"lng":142.747956,"zip":"0570000"},{"town":"字絵笛","koaza":"","lat":42.200577,"lng":142.739153,"zip":"0570000"},{"town":"字上絵笛","koaza":"","lat":42.232064,"lng":142.767219,"zip":"0570000"},{"town":"字上杵臼","koaza":"","lat":42.254759,"lng":143.01765,"zip":"0570000"},{"town":"字上西舎","koaza":"","lat":42.339394,"lng":142.940897,"zip":"0570000"},{"town":"字上向別","koaza":"","lat":42.236923,"lng":142.82396,"zip":"0570000"},{"town":"字杵臼","koaza":"","lat":42.186187,"lng":142.878162,"zip":"0570000"},{"town":"字白泉","koaza":"","lat":42.149223,"lng":142.822549,"zip":"0570000"},{"town":"字月寒","koaza":"","lat":42.162268,"lng":142.813828,"zip":"0570000"},{"town":"字東栄","koaza":"","lat":42.201161,"lng":142.706574,"zip":"0570000"},{"town":"字富里","koaza":"","lat":42.217893,"lng":142.714138,"zip":"0570000"},{"town":"字西舎","koaza":"","lat":42.236363,"lng":142.883785,"zip":"0570000"},{"town":"字西幌別","koaza":"","lat":42.159106,"lng":142.837816,"zip":"0570000"},{"town":"字野深","koaza":"","lat":42.356256,"lng":142.827529,"zip":"0570000"},{"town":"字東幌別","koaza":"","lat":42.147905,"lng":142.85976,"zip":"0570000"},{"town":"旭町","koaza":"","lat":42.164226,"lng":142.784204,"zip":"0570011"},{"town":"字瑞穂","koaza":"","lat":42.239194,"lng":142.71763,"zip":"0570000"},{"town":"字向別","koaza":"","lat":42.200996,"lng":142.784454,"zip":"0570000"},{"town":"入船町","koaza":"","lat":42.15941,"lng":142.780275,"zip":"0570014"},{"town":"大通一丁目","koaza":"","lat":42.165683,"lng":142.772267,"zip":"0570013"},{"town":"大通二丁目","koaza":"","lat":42.163369,"lng":142.774175,"zip":"0570013"},{"town":"大通三丁目","koaza":"","lat":42.161724,"lng":142.775263,"zip":"0570013"},{"town":"大通四丁目","koaza":"","lat":42.16047,"lng":142.776994,"zip":"0570013"},{"town":"大通五丁目","koaza":"","lat":42.159654,"lng":142.782037,"zip":"0570013"},{"town":"荻伏町","koaza":"","lat":42.216457,"lng":142.674224,"zip":"0593451"},{"town":"堺町西一丁目","koaza":"","lat":42.177399,"lng":142.759376,"zip":"0570034"},{"town":"堺町西二丁目","koaza":"","lat":42.178641,"lng":142.756974,"zip":"0570034"},{"town":"堺町西三丁目","koaza":"","lat":42.181323,"lng":142.760135,"zip":"0570034"},{"town":"堺町西四丁目","koaza":"","lat":42.184333,"lng":142.760888,"zip":"0570034"},{"town":"堺町西五丁目","koaza":"","lat":42.187033,"lng":142.76107,"zip":"0570034"},{"town":"堺町西六丁目","koaza":"","lat":42.187094,"lng":142.765196,"zip":"0570034"},{"town":"堺町東一丁目","koaza":"","lat":42.176288,"lng":142.761608,"zip":"0570033"},{"town":"堺町東二丁目","koaza":"","lat":42.175155,"lng":142.764069,"zip":"0570033"},{"town":"堺町東三丁目","koaza":"","lat":42.18121,"lng":142.763861,"zip":"0570033"},{"town":"堺町東四丁目","koaza":"","lat":42.17793,"lng":142.766153,"zip":"0570033"},{"town":"堺町東五丁目","koaza":"","lat":42.1825,"lng":142.766959,"zip":"0570033"},{"town":"堺町東六丁目","koaza":"","lat":42.185344,"lng":142.767848,"zip":"0570033"},{"town":"栄丘西通","koaza":"","lat":42.173873,"lng":142.767344,"zip":"0570000"},{"town":"栄丘東通","koaza":"","lat":42.17176,"lng":142.769202,"zip":"0570000"},{"town":"潮見町","koaza":"","lat":42.165278,"lng":142.776214,"zip":"0570021"},{"town":"昌平町駅通","koaza":"","lat":42.169611,"lng":142.770373,"zip":"0570000"},{"town":"昌平町西通","koaza":"","lat":42.169901,"lng":142.773698,"zip":"0570000"},{"town":"昌平町東通","koaza":"","lat":42.169544,"lng":142.775897,"zip":"0570000"},{"town":"築地一丁目","koaza":"","lat":42.16742,"lng":142.767918,"zip":"0570024"},{"town":"築地二丁目","koaza":"","lat":42.169576,"lng":142.766274,"zip":"0570024"},{"town":"築地三丁目","koaza":"","lat":42.172344,"lng":142.765211,"zip":"0570024"},{"town":"常盤町","koaza":"","lat":42.174255,"lng":142.785947,"zip":"0570012"},{"town":"浜町","koaza":"","lat":42.161173,"lng":142.773689,"zip":"0570015"},{"town":"東町うしお一丁目","koaza":"","lat":42.156557,"lng":142.78924,"zip":"0570005"},{"town":"東町うしお二丁目","koaza":"","lat":42.159157,"lng":142.799821,"zip":"0570005"},{"town":"東町かしわ一丁目","koaza":"","lat":42.160934,"lng":142.796316,"zip":"0570006"},{"town":"東町かしわ二丁目","koaza":"","lat":42.161955,"lng":142.793378,"zip":"0570006"},{"town":"東町かしわ三丁目","koaza":"","lat":42.164604,"lng":142.796102,"zip":"0570006"},{"town":"東町かしわ四丁目","koaza":"","lat":42.169364,"lng":142.802424,"zip":"0570006"},{"town":"東町ちのみ一丁目","koaza":"","lat":42.160788,"lng":142.786913,"zip":"0570007"},{"town":"東町ちのみ二丁目","koaza":"","lat":42.163091,"lng":142.789312,"zip":"0570007"},{"town":"東町ちのみ三丁目","koaza":"","lat":42.16636,"lng":142.791179,"zip":"0570007"},{"town":"東町ちのみ四丁目","koaza":"","lat":42.171632,"lng":142.797016,"zip":"0570007"},{"town":"緑町","koaza":"","lat":42.18199,"lng":142.779211,"zip":"0570025"},{"town":"向が丘西一丁目","koaza":"","lat":42.189542,"lng":142.765516,"zip":"0570032"},{"town":"向が丘西二丁目","koaza":"","lat":42.19354,"lng":142.76926,"zip":"0570032"},{"town":"向が丘西三丁目","koaza":"","lat":42.190892,"lng":142.758122,"zip":"0570032"},{"town":"向が丘西四丁目","koaza":"","lat":42.193782,"lng":142.761402,"zip":"0570032"},{"town":"向が丘西五丁目","koaza":"","lat":42.201404,"lng":142.764101,"zip":"0570032"},{"town":"向が丘西六丁目","koaza":"","lat":42.200678,"lng":142.773856,"zip":"0570032"},{"town":"向が丘東一丁目","koaza":"","lat":42.187439,"lng":142.769561,"zip":"0570031"},{"town":"向が丘東二丁目","koaza":"","lat":42.191375,"lng":142.772161,"zip":"0570031"}]