[{"town":"一条","koaza":"","lat":43.722666,"lng":142.047411,"zip":"0740001"},{"town":"二条","koaza":"","lat":43.721947,"lng":142.048293,"zip":"0740002"},{"town":"三条","koaza":"","lat":43.721294,"lng":142.048795,"zip":"0740003"},{"town":"四条","koaza":"","lat":43.719153,"lng":142.044735,"zip":"0740004"},{"town":"五条","koaza":"","lat":43.718471,"lng":142.045233,"zip":"0740005"},{"town":"六条","koaza":"","lat":43.717503,"lng":142.044714,"zip":"0740006"},{"town":"七条","koaza":"","lat":43.717997,"lng":142.049065,"zip":"0740007"},{"town":"八条","koaza":"","lat":43.717027,"lng":142.048722,"zip":"0740008"},{"town":"九条","koaza":"","lat":43.718553,"lng":142.057893,"zip":"0740009"},{"town":"あけぼの町","koaza":"","lat":43.744923,"lng":142.035818,"zip":"0740031"},{"town":"一已町","koaza":"","lat":43.743596,"lng":142.071808,"zip":"0740028"},{"town":"稲穂町一丁目","koaza":"","lat":43.726108,"lng":142.051615,"zip":"0740021"},{"town":"稲穂町二丁目","koaza":"","lat":43.729607,"lng":142.048903,"zip":"0740021"},{"town":"ウッカ","koaza":"","lat":43.852405,"lng":142.085863,"zip":"0740143"},{"town":"宇摩","koaza":"","lat":43.825175,"lng":142.098189,"zip":"0740142"},{"town":"納内町","koaza":"","lat":43.749916,"lng":142.149299,"zip":"0780151"},{"town":"納内町二丁目","koaza":"","lat":43.725361,"lng":142.130377,"zip":"0780151"},{"town":"納内町三丁目","koaza":"","lat":43.725917,"lng":142.133462,"zip":"0780151"},{"town":"納内町北","koaza":"","lat":43.73499,"lng":142.130512,"zip":"0780153"},{"town":"納内町グリーンタウン","koaza":"","lat":43.731134,"lng":142.137503,"zip":"0780154"},{"town":"音江町","koaza":"","lat":43.678168,"lng":142.100187,"zip":"0741273"},{"town":"音江町一丁目","koaza":"","lat":43.69604,"lng":142.072973,"zip":"0741273"},{"town":"音江町二丁目","koaza":"","lat":43.694636,"lng":142.076657,"zip":"0741273"},{"town":"開西町一丁目","koaza":"","lat":43.711618,"lng":142.014843,"zip":"0740014"},{"town":"開西町二丁目","koaza":"","lat":43.709083,"lng":142.016354,"zip":"0740014"},{"town":"開西町三丁目","koaza":"","lat":43.706777,"lng":142.017722,"zip":"0740014"},{"town":"新光町一丁目","koaza":"","lat":43.721627,"lng":142.035399,"zip":"0740024"},{"town":"新光町二丁目","koaza":"","lat":43.724241,"lng":142.036916,"zip":"0740024"},{"town":"新光町三丁目","koaza":"","lat":43.723117,"lng":142.030635,"zip":"0740024"},{"town":"太子町","koaza":"","lat":43.721018,"lng":142.037825,"zip":"0740023"},{"town":"鷹泊","koaza":"","lat":43.958688,"lng":142.069402,"zip":"0740144"},{"town":"多度志","koaza":"","lat":43.812097,"lng":142.047545,"zip":"0740141"},{"town":"多度志南","koaza":"","lat":43.793285,"lng":142.049143,"zip":"0740147"},{"town":"錦町","koaza":"","lat":43.718745,"lng":142.030134,"zip":"0740025"},{"town":"錦町北","koaza":"","lat":43.720483,"lng":142.024741,"zip":"0740027"},{"town":"錦町西","koaza":"","lat":43.717565,"lng":142.025127,"zip":"0740026"},{"town":"西町","koaza":"","lat":43.713287,"lng":142.028943,"zip":"0740012"},{"town":"広里町一丁目","koaza":"","lat":43.708618,"lng":142.046428,"zip":"0741271"},{"town":"広里町二丁目","koaza":"","lat":43.708062,"lng":142.050765,"zip":"0741271"},{"town":"広里町三丁目","koaza":"","lat":43.711401,"lng":142.051099,"zip":"0741271"},{"town":"広里町四丁目","koaza":"","lat":43.708667,"lng":142.054101,"zip":"0741271"},{"town":"広里町五丁目","koaza":"","lat":43.707336,"lng":142.058772,"zip":"0741271"},{"town":"深川町","koaza":"","lat":43.704985,"lng":141.996427,"zip":"0740016"},{"town":"文光町","koaza":"","lat":43.711299,"lng":142.022566,"zip":"0740013"},{"town":"北光町一丁目","koaza":"","lat":43.723897,"lng":142.044876,"zip":"0740022"},{"town":"北光町二丁目","koaza":"","lat":43.72737,"lng":142.042653,"zip":"0740022"},{"town":"北光町三丁目","koaza":"","lat":43.732509,"lng":142.040511,"zip":"0740022"},{"town":"幌内","koaza":"","lat":43.85786,"lng":142.118787,"zip":"0740145"},{"town":"緑町","koaza":"","lat":43.710343,"lng":142.035329,"zip":"0740011"},{"town":"湯内","koaza":"","lat":43.808009,"lng":142.157252,"zip":"0740146"},{"town":"深川町","koaza":"メム","lat":43.716216,"lng":142.020316,"zip":"0740016"},{"town":"一已町","koaza":"一已","lat":43.742812,"lng":142.027078,"zip":"0740028"},{"town":"音江町","koaza":"音江","lat":43.691106,"lng":142.061114,"zip":"0741273"},{"town":"音江町","koaza":"広里","lat":43.69851,"lng":142.069194,"zip":"0741273"}]