[{"town":"朝日町西一丁目","koaza":"","lat":43.568725,"lng":141.910629,"zip":"0730018"},{"town":"朝日町西二丁目","koaza":"","lat":43.570033,"lng":141.911264,"zip":"0730018"},{"town":"朝日町西三丁目","koaza":"","lat":43.571314,"lng":141.911655,"zip":"0730018"},{"town":"朝日町西四丁目","koaza":"","lat":43.572486,"lng":141.912532,"zip":"0730018"},{"town":"朝日町東一丁目","koaza":"","lat":43.566457,"lng":141.920059,"zip":"0730015"},{"town":"朝日町東二丁目","koaza":"","lat":43.567925,"lng":141.919551,"zip":"0730015"},{"town":"朝日町東三丁目","koaza":"","lat":43.569374,"lng":141.919759,"zip":"0730015"},{"town":"朝日町東四丁目","koaza":"","lat":43.570355,"lng":141.920948,"zip":"0730015"},{"town":"有明町一丁目","koaza":"","lat":43.554344,"lng":141.899208,"zip":"0730045"},{"town":"有明町二丁目","koaza":"","lat":43.558915,"lng":141.898503,"zip":"0730045"},{"town":"有明町三丁目","koaza":"","lat":43.560061,"lng":141.895469,"zip":"0730045"},{"town":"有明町四丁目","koaza":"","lat":43.56095,"lng":141.89245,"zip":"0730045"},{"town":"有明町五丁目","koaza":"","lat":43.557513,"lng":141.896966,"zip":"0730045"},{"town":"有明町六丁目","koaza":"","lat":43.555454,"lng":141.895571,"zip":"0730045"},{"town":"有明町河川敷地","koaza":"","lat":43.555904,"lng":141.891599,"zip":"0730000"},{"town":"泉町","koaza":"","lat":43.576446,"lng":141.896562,"zip":"0730042"},{"town":"泉町一丁目","koaza":"","lat":43.572066,"lng":141.889248,"zip":"0730042"},{"town":"泉町二丁目","koaza":"","lat":43.573455,"lng":141.892483,"zip":"0730042"},{"town":"泉町河川敷地","koaza":"","lat":43.57407,"lng":141.882515,"zip":"0730000"},{"town":"一の坂町西一丁目","koaza":"","lat":43.564275,"lng":141.906148,"zip":"0730017"},{"town":"一の坂町西二丁目","koaza":"","lat":43.566417,"lng":141.907969,"zip":"0730017"},{"town":"一の坂町西三丁目","koaza":"","lat":43.567243,"lng":141.9105,"zip":"0730017"},{"town":"一の坂町東一丁目","koaza":"","lat":43.564517,"lng":141.913886,"zip":"0730016"},{"town":"一の坂町東二丁目","koaza":"","lat":43.565294,"lng":141.914494,"zip":"0730016"},{"town":"一の坂町東三丁目","koaza":"","lat":43.565592,"lng":141.917459,"zip":"0730016"},{"town":"江部乙町","koaza":"","lat":43.636462,"lng":141.967886,"zip":"0790461"},{"town":"江部乙町西十丁目","koaza":"","lat":43.617571,"lng":141.934224,"zip":"0790462"},{"town":"江部乙町西十一丁目","koaza":"","lat":43.623016,"lng":141.936827,"zip":"0790462"},{"town":"江部乙町西十二丁目","koaza":"","lat":43.627794,"lng":141.938829,"zip":"0790462"},{"town":"江部乙町西十三丁目","koaza":"","lat":43.632798,"lng":141.941534,"zip":"0790462"},{"town":"江部乙町東十丁目","koaza":"","lat":43.616146,"lng":141.939912,"zip":"0790463"},{"town":"江部乙町東十一丁目","koaza":"","lat":43.621244,"lng":141.942319,"zip":"0790463"},{"town":"江部乙町東十二丁目","koaza":"","lat":43.626307,"lng":141.944747,"zip":"0790463"},{"town":"江部乙町東十三丁目","koaza":"","lat":43.631402,"lng":141.947178,"zip":"0790463"},{"town":"扇町一丁目","koaza":"","lat":43.564371,"lng":141.89034,"zip":"0730046"},{"town":"扇町二丁目","koaza":"","lat":43.56784,"lng":141.886899,"zip":"0730046"},{"town":"扇町三丁目","koaza":"","lat":43.570132,"lng":141.887245,"zip":"0730046"},{"town":"扇町河川敷地","koaza":"","lat":43.566745,"lng":141.882097,"zip":"0730000"},{"town":"大町一丁目","koaza":"","lat":43.557489,"lng":141.911674,"zip":"0730022"},{"town":"大町二丁目","koaza":"","lat":43.558587,"lng":141.912282,"zip":"0730022"},{"town":"大町三丁目","koaza":"","lat":43.559682,"lng":141.912089,"zip":"0730022"},{"town":"大町四丁目","koaza":"","lat":43.560596,"lng":141.914067,"zip":"0730022"},{"town":"大町五丁目","koaza":"","lat":43.56187,"lng":141.913924,"zip":"0730022"},{"town":"大町六丁目","koaza":"","lat":43.562889,"lng":141.915211,"zip":"0730022"},{"town":"花月町一丁目","koaza":"","lat":43.551643,"lng":141.903236,"zip":"0730036"},{"town":"花月町二丁目","koaza":"","lat":43.550814,"lng":141.904366,"zip":"0730036"},{"town":"花月町三丁目","koaza":"","lat":43.549924,"lng":141.905363,"zip":"0730036"},{"town":"北滝の川","koaza":"","lat":43.59285,"lng":141.944995,"zip":"0730001"},{"town":"黄金町西一丁目","koaza":"","lat":43.573977,"lng":141.913067,"zip":"0730011"},{"town":"黄金町西二丁目","koaza":"","lat":43.575198,"lng":141.91423,"zip":"0730011"},{"town":"黄金町西三丁目","koaza":"","lat":43.576484,"lng":141.91445,"zip":"0730011"},{"town":"黄金町西四丁目","koaza":"","lat":43.577675,"lng":141.914637,"zip":"0730011"},{"town":"黄金町東一丁目","koaza":"","lat":43.571892,"lng":141.920348,"zip":"0730012"},{"town":"黄金町東二丁目","koaza":"","lat":43.572999,"lng":141.921716,"zip":"0730012"},{"town":"黄金町東三丁目","koaza":"","lat":43.574277,"lng":141.921796,"zip":"0730012"},{"town":"黄金町東四丁目","koaza":"","lat":43.575388,"lng":141.924354,"zip":"0730012"},{"town":"幸町一丁目","koaza":"","lat":43.568183,"lng":141.903983,"zip":"0730043"},{"town":"幸町二丁目","koaza":"","lat":43.569745,"lng":141.898254,"zip":"0730043"},{"town":"幸町三丁目","koaza":"","lat":43.571788,"lng":141.906764,"zip":"0730043"},{"town":"幸町四丁目","koaza":"","lat":43.575682,"lng":141.908641,"zip":"0730043"},{"town":"栄町一丁目","koaza":"","lat":43.552921,"lng":141.902872,"zip":"0730031"},{"town":"栄町二丁目","koaza":"","lat":43.555343,"lng":141.904546,"zip":"0730031"},{"town":"栄町三丁目","koaza":"","lat":43.55586,"lng":141.902984,"zip":"0730031"},{"town":"栄町四丁目","koaza":"","lat":43.557273,"lng":141.902926,"zip":"0730031"},{"town":"新町一丁目","koaza":"","lat":43.553409,"lng":141.913918,"zip":"0730033"},{"town":"新町二丁目","koaza":"","lat":43.552692,"lng":141.915206,"zip":"0730033"},{"town":"新町三丁目","koaza":"","lat":43.552058,"lng":141.916771,"zip":"0730033"},{"town":"新町四丁目","koaza":"","lat":43.552362,"lng":141.920195,"zip":"0730033"},{"town":"新町五丁目","koaza":"","lat":43.552418,"lng":141.923106,"zip":"0730033"},{"town":"新町六丁目","koaza":"","lat":43.552528,"lng":141.928397,"zip":"0730033"},{"town":"新町河川敷地","koaza":"","lat":43.55006,"lng":141.919754,"zip":"0730000"},{"town":"空知町一丁目","koaza":"","lat":43.548997,"lng":141.906347,"zip":"0730034"},{"town":"空知町二丁目","koaza":"","lat":43.548469,"lng":141.908227,"zip":"0730034"},{"town":"空知町三丁目","koaza":"","lat":43.546686,"lng":141.907352,"zip":"0730034"},{"town":"空知町河川敷地","koaza":"","lat":43.545503,"lng":141.908318,"zip":"0730000"},{"town":"滝の川町西一丁目","koaza":"","lat":43.584088,"lng":141.918586,"zip":"0730003"},{"town":"滝の川町西二丁目","koaza":"","lat":43.585426,"lng":141.918416,"zip":"0730003"},{"town":"滝の川町西三丁目","koaza":"","lat":43.586534,"lng":141.919847,"zip":"0730003"},{"town":"滝の川町西四丁目","koaza":"","lat":43.588229,"lng":141.920262,"zip":"0730003"},{"town":"滝の川町西五丁目","koaza":"","lat":43.589777,"lng":141.920883,"zip":"0730003"},{"town":"滝の川町西六丁目","koaza":"","lat":43.591098,"lng":141.922117,"zip":"0730003"},{"town":"滝の川町西七丁目","koaza":"","lat":43.592164,"lng":141.92287,"zip":"0730003"},{"town":"滝の川町西八丁目","koaza":"","lat":43.593356,"lng":141.922772,"zip":"0730003"},{"town":"滝の川町東一丁目","koaza":"","lat":43.582046,"lng":141.926706,"zip":"0730004"},{"town":"滝の川町東二丁目","koaza":"","lat":43.583389,"lng":141.926913,"zip":"0730004"},{"town":"滝の川町東三丁目","koaza":"","lat":43.584779,"lng":141.928778,"zip":"0730004"},{"town":"滝の川町東四丁目","koaza":"","lat":43.586271,"lng":141.928332,"zip":"0730004"},{"town":"屯田町西一丁目","koaza":"","lat":43.594508,"lng":141.923503,"zip":"0730002"},{"town":"屯田町西二丁目","koaza":"","lat":43.595519,"lng":141.924342,"zip":"0730002"},{"town":"屯田町西三丁目","koaza":"","lat":43.596761,"lng":141.924499,"zip":"0730002"},{"town":"屯田町西四丁目","koaza":"","lat":43.597571,"lng":141.926146,"zip":"0730002"},{"town":"中島町","koaza":"","lat":43.541343,"lng":141.894983,"zip":"0730035"},{"town":"中島町一丁目","koaza":"","lat":43.548023,"lng":141.899107,"zip":"0730035"},{"town":"中島町二丁目","koaza":"","lat":43.54611,"lng":141.89865,"zip":"0730035"},{"town":"中島町三丁目","koaza":"","lat":43.544784,"lng":141.900393,"zip":"0730035"},{"town":"中島町四丁目","koaza":"","lat":43.543263,"lng":141.901658,"zip":"0730035"},{"town":"中島町五丁目","koaza":"","lat":43.541511,"lng":141.902484,"zip":"0730035"},{"town":"西滝川","koaza":"","lat":43.593742,"lng":141.891772,"zip":"0730041"},{"town":"西町一丁目","koaza":"","lat":43.56277,"lng":141.903829,"zip":"0730044"},{"town":"西町二丁目","koaza":"","lat":43.563341,"lng":141.90227,"zip":"0730044"},{"town":"西町三丁目","koaza":"","lat":43.563848,"lng":141.900547,"zip":"0730044"},{"town":"西町四丁目","koaza":"","lat":43.563754,"lng":141.89928,"zip":"0730044"},{"town":"西町五丁目","koaza":"","lat":43.564075,"lng":141.89806,"zip":"0730044"},{"town":"西町六丁目","koaza":"","lat":43.564932,"lng":141.896061,"zip":"0730044"},{"town":"西町七丁目","koaza":"","lat":43.564447,"lng":141.894356,"zip":"0730044"},{"town":"西町八丁目","koaza":"","lat":43.565631,"lng":141.893768,"zip":"0730044"},{"town":"二の坂町","koaza":"","lat":43.581756,"lng":141.914298,"zip":"0730005"},{"town":"二の坂町西一丁目","koaza":"","lat":43.579221,"lng":141.915769,"zip":"0730006"},{"town":"二の坂町西二丁目","koaza":"","lat":43.58056,"lng":141.91724,"zip":"0730006"},{"town":"二の坂町西三丁目","koaza":"","lat":43.581985,"lng":141.917455,"zip":"0730006"},{"town":"二の坂町西四丁目","koaza":"","lat":43.582891,"lng":141.917875,"zip":"0730006"},{"town":"二の坂町東一丁目","koaza":"","lat":43.576673,"lng":141.924376,"zip":"0730005"},{"town":"二の坂町東二丁目","koaza":"","lat":43.577902,"lng":141.924351,"zip":"0730005"},{"town":"二の坂町東三丁目","koaza":"","lat":43.57959,"lng":141.924722,"zip":"0730005"},{"town":"二の坂町東四丁目","koaza":"","lat":43.580993,"lng":141.927086,"zip":"0730005"},{"town":"東滝川","koaza":"","lat":43.579884,"lng":141.975311,"zip":"0730026"},{"town":"東滝川町一丁目","koaza":"","lat":43.573203,"lng":141.984361,"zip":"0730027"},{"town":"東滝川町二丁目","koaza":"","lat":43.573552,"lng":141.98246,"zip":"0730027"},{"town":"東滝川町三丁目","koaza":"","lat":43.572396,"lng":141.978236,"zip":"0730027"},{"town":"東滝川町四丁目","koaza":"","lat":43.570227,"lng":141.978326,"zip":"0730027"},{"town":"東町","koaza":"","lat":43.557989,"lng":141.942569,"zip":"0730024"},{"town":"東町一丁目","koaza":"","lat":43.554379,"lng":141.923884,"zip":"0730024"},{"town":"東町二丁目","koaza":"","lat":43.555389,"lng":141.926524,"zip":"0730024"},{"town":"東町三丁目","koaza":"","lat":43.556914,"lng":141.927466,"zip":"0730024"},{"town":"東町四丁目","koaza":"","lat":43.558303,"lng":141.927709,"zip":"0730024"},{"town":"東町五丁目","koaza":"","lat":43.559699,"lng":141.928492,"zip":"0730024"},{"town":"東町六丁目","koaza":"","lat":43.561159,"lng":141.929204,"zip":"0730024"},{"town":"東町七丁目","koaza":"","lat":43.562293,"lng":141.930425,"zip":"0730024"},{"town":"東町八丁目","koaza":"","lat":43.563351,"lng":141.933198,"zip":"0730024"},{"town":"文京町一丁目","koaza":"","lat":43.565236,"lng":141.925703,"zip":"0730014"},{"town":"文京町二丁目","koaza":"","lat":43.565994,"lng":141.926669,"zip":"0730014"},{"town":"文京町三丁目","koaza":"","lat":43.567723,"lng":141.928175,"zip":"0730014"},{"town":"文京町四丁目","koaza":"","lat":43.569688,"lng":141.929146,"zip":"0730014"},{"town":"本町一丁目","koaza":"","lat":43.55898,"lng":141.905888,"zip":"0730021"},{"town":"本町二丁目","koaza":"","lat":43.560116,"lng":141.906327,"zip":"0730021"},{"town":"本町三丁目","koaza":"","lat":43.56126,"lng":141.906778,"zip":"0730021"},{"town":"本町四丁目","koaza":"","lat":43.562227,"lng":141.907883,"zip":"0730021"},{"town":"本町五丁目","koaza":"","lat":43.563166,"lng":141.908767,"zip":"0730021"},{"town":"本町六丁目","koaza":"","lat":43.563882,"lng":141.909948,"zip":"0730021"},{"town":"緑町一丁目","koaza":"","lat":43.556081,"lng":141.917196,"zip":"0730023"},{"town":"緑町二丁目","koaza":"","lat":43.557203,"lng":141.917699,"zip":"0730023"},{"town":"緑町三丁目","koaza":"","lat":43.558119,"lng":141.918233,"zip":"0730023"},{"town":"緑町四丁目","koaza":"","lat":43.559329,"lng":141.918779,"zip":"0730023"},{"town":"緑町五丁目","koaza":"","lat":43.560866,"lng":141.918657,"zip":"0730023"},{"town":"緑町六丁目","koaza":"","lat":43.561833,"lng":141.920014,"zip":"0730023"},{"town":"緑町七丁目","koaza":"","lat":43.563513,"lng":141.921357,"zip":"0730023"},{"town":"南滝の川","koaza":"","lat":43.571843,"lng":141.941174,"zip":"0730013"},{"town":"明神町一丁目","koaza":"","lat":43.556461,"lng":141.90859,"zip":"0730032"},{"town":"明神町二丁目","koaza":"","lat":43.555454,"lng":141.90974,"zip":"0730032"},{"town":"明神町三丁目","koaza":"","lat":43.554776,"lng":141.911104,"zip":"0730032"},{"town":"明神町四丁目","koaza":"","lat":43.554092,"lng":141.912511,"zip":"0730032"},{"town":"流通団地一丁目","koaza":"","lat":43.555948,"lng":141.936434,"zip":"0730025"},{"town":"流通団地二丁目","koaza":"","lat":43.559034,"lng":141.939312,"zip":"0730025"},{"town":"流通団地三丁目","koaza":"","lat":43.561567,"lng":141.941616,"zip":"0730025"}]