[{"town":"字旭台","koaza":"","lat":42.319471,"lng":140.034989,"zip":"0494300"},{"town":"字稲穂","koaza":"","lat":42.401428,"lng":140.069542,"zip":"0494300"},{"town":"字今金","koaza":"","lat":42.431708,"lng":140.028393,"zip":"0494300"},{"town":"字奥沢","koaza":"","lat":42.370189,"lng":140.111146,"zip":"0494300"},{"town":"字神丘","koaza":"","lat":42.431837,"lng":139.978324,"zip":"0494300"},{"town":"字金原","koaza":"","lat":42.372705,"lng":139.970033,"zip":"0494300"},{"town":"字白石","koaza":"","lat":42.36896,"lng":140.054883,"zip":"0494300"},{"town":"字鈴岡","koaza":"","lat":42.493968,"lng":139.989631,"zip":"0494300"},{"town":"字鈴金","koaza":"","lat":42.408109,"lng":139.97294,"zip":"0494300"},{"town":"字住吉","koaza":"","lat":42.429664,"lng":140.119208,"zip":"0494300"},{"town":"字田代","koaza":"","lat":42.406141,"lng":140.03032,"zip":"0494300"},{"town":"字種川","koaza":"","lat":42.448,"lng":140.084698,"zip":"0494300"},{"town":"字豊田","koaza":"","lat":42.402047,"lng":139.948043,"zip":"0494300"},{"town":"字中里","koaza":"","lat":42.406828,"lng":140.153507,"zip":"0494300"},{"town":"字日進","koaza":"","lat":42.316026,"lng":139.998604,"zip":"0494300"},{"town":"字花石","koaza":"","lat":42.426752,"lng":140.180385,"zip":"0494300"},{"town":"字光台","koaza":"","lat":42.460576,"lng":140.064339,"zip":"0494300"},{"town":"字美利河","koaza":"","lat":42.493877,"lng":140.185929,"zip":"0494300"},{"town":"字御影","koaza":"","lat":42.450903,"lng":140.025371,"zip":"0494300"},{"town":"字宮島","koaza":"","lat":42.456418,"lng":140.164386,"zip":"0494300"},{"town":"字八束","koaza":"","lat":42.380857,"lng":140.013055,"zip":"0494300"}]