[{"town":"明元町一丁目","koaza":"","lat":43.94527,"lng":141.637368,"zip":"0770041"},{"town":"明元町二丁目","koaza":"","lat":43.944601,"lng":141.638695,"zip":"0770041"},{"town":"明元町三丁目","koaza":"","lat":43.944084,"lng":141.640559,"zip":"0770041"},{"town":"明元町四丁目","koaza":"","lat":43.94371,"lng":141.64202,"zip":"0770041"},{"town":"明元町五丁目","koaza":"","lat":43.943249,"lng":141.64289,"zip":"0770041"},{"town":"明元町六丁目","koaza":"","lat":43.942376,"lng":141.643908,"zip":"0770041"},{"town":"旭町一丁目","koaza":"","lat":43.936633,"lng":141.646846,"zip":"0770043"},{"town":"旭町二丁目","koaza":"","lat":43.936069,"lng":141.648194,"zip":"0770043"},{"town":"旭町三丁目","koaza":"","lat":43.934856,"lng":141.649596,"zip":"0770043"},{"town":"五十嵐町一丁目","koaza":"","lat":43.937203,"lng":141.662605,"zip":"0770023"},{"town":"五十嵐町二丁目","koaza":"","lat":43.936265,"lng":141.661489,"zip":"0770023"},{"town":"五十嵐町三丁目","koaza":"","lat":43.935979,"lng":141.659576,"zip":"0770023"},{"town":"泉町一丁目","koaza":"","lat":43.93219,"lng":141.649958,"zip":"0770026"},{"town":"泉町二丁目","koaza":"","lat":43.929825,"lng":141.652515,"zip":"0770026"},{"town":"大字留萌村","koaza":"","lat":43.861254,"lng":141.706942,"zip":"0770000"},{"town":"大町一丁目","koaza":"","lat":43.949695,"lng":141.632507,"zip":"0770048"},{"town":"大町二丁目","koaza":"","lat":43.946641,"lng":141.631837,"zip":"0770048"},{"town":"大町三丁目","koaza":"","lat":43.944936,"lng":141.634213,"zip":"0770048"},{"town":"大和田一丁目","koaza":"","lat":43.917666,"lng":141.694304,"zip":"0770012"},{"town":"大和田二丁目","koaza":"","lat":43.924102,"lng":141.699667,"zip":"0770012"},{"town":"大和田三丁目","koaza":"","lat":43.915759,"lng":141.6982,"zip":"0770012"},{"town":"沖見町一丁目","koaza":"","lat":43.930344,"lng":141.631727,"zip":"0770037"},{"town":"沖見町二丁目","koaza":"","lat":43.933401,"lng":141.637483,"zip":"0770037"},{"town":"沖見町三丁目","koaza":"","lat":43.930925,"lng":141.636366,"zip":"0770037"},{"town":"沖見町四丁目","koaza":"","lat":43.927883,"lng":141.635579,"zip":"0770037"},{"town":"沖見町五丁目","koaza":"","lat":43.93004,"lng":141.64139,"zip":"0770037"},{"town":"沖見町六丁目","koaza":"","lat":43.925292,"lng":141.641389,"zip":"0770037"},{"town":"開運町一丁目","koaza":"","lat":43.939818,"lng":141.649514,"zip":"0770042"},{"town":"開運町二丁目","koaza":"","lat":43.939807,"lng":141.647282,"zip":"0770042"},{"town":"開運町三丁目","koaza":"","lat":43.938834,"lng":141.646789,"zip":"0770042"},{"town":"春日町一丁目","koaza":"","lat":43.954078,"lng":141.647452,"zip":"0770003"},{"town":"春日町二丁目","koaza":"","lat":43.957789,"lng":141.661125,"zip":"0770003"},{"town":"春日町三丁目","koaza":"","lat":43.955883,"lng":141.658603,"zip":"0770003"},{"town":"寿町一丁目","koaza":"","lat":43.938212,"lng":141.636726,"zip":"0770038"},{"town":"寿町二丁目","koaza":"","lat":43.936215,"lng":141.637886,"zip":"0770038"},{"town":"寿町三丁目","koaza":"","lat":43.935106,"lng":141.637657,"zip":"0770038"},{"town":"幸町一丁目","koaza":"","lat":43.94054,"lng":141.636579,"zip":"0770031"},{"town":"幸町二丁目","koaza":"","lat":43.939966,"lng":141.637845,"zip":"0770031"},{"town":"幸町三丁目","koaza":"","lat":43.93938,"lng":141.638777,"zip":"0770031"},{"town":"幸町四丁目","koaza":"","lat":43.938865,"lng":141.639565,"zip":"0770031"},{"town":"栄町一丁目","koaza":"","lat":43.942518,"lng":141.649314,"zip":"0770007"},{"town":"栄町二丁目","koaza":"","lat":43.941314,"lng":141.649792,"zip":"0770007"},{"town":"栄町三丁目","koaza":"","lat":43.940175,"lng":141.65131,"zip":"0770007"},{"town":"三泊町","koaza":"","lat":43.98038,"lng":141.654398,"zip":"0770001"},{"town":"塩見町","koaza":"","lat":43.962441,"lng":141.653909,"zip":"0770002"},{"town":"東雲町一丁目","koaza":"","lat":43.935285,"lng":141.670667,"zip":"0770011"},{"town":"東雲町二丁目","koaza":"","lat":43.92965,"lng":141.676635,"zip":"0770011"},{"town":"東雲町三丁目","koaza":"","lat":43.923893,"lng":141.684579,"zip":"0770011"},{"town":"末広町一丁目","koaza":"","lat":43.941502,"lng":141.655839,"zip":"0770006"},{"town":"末広町二丁目","koaza":"","lat":43.940543,"lng":141.654718,"zip":"0770006"},{"town":"末広町三丁目","koaza":"","lat":43.939679,"lng":141.654243,"zip":"0770006"},{"town":"末広町四丁目","koaza":"","lat":43.939067,"lng":141.652526,"zip":"0770006"},{"town":"住之江町一丁目","koaza":"","lat":43.934799,"lng":141.653329,"zip":"0770027"},{"town":"住之江町二丁目","koaza":"","lat":43.934248,"lng":141.656007,"zip":"0770027"},{"town":"住之江町三丁目","koaza":"","lat":43.932611,"lng":141.652622,"zip":"0770027"},{"town":"住之江町四丁目","koaza":"","lat":43.931814,"lng":141.653993,"zip":"0770027"},{"town":"瀬越町","koaza":"","lat":43.940053,"lng":141.634593,"zip":"0770047"},{"town":"高砂町一丁目","koaza":"","lat":43.940019,"lng":141.658987,"zip":"0770021"},{"town":"高砂町二丁目","koaza":"","lat":43.938746,"lng":141.657869,"zip":"0770021"},{"town":"高砂町三丁目","koaza":"","lat":43.937757,"lng":141.656755,"zip":"0770021"},{"town":"樽真布町","koaza":"","lat":43.903254,"lng":141.807504,"zip":"0783167"},{"town":"千鳥町一丁目","koaza":"","lat":43.933848,"lng":141.662506,"zip":"0770024"},{"town":"千鳥町二丁目","koaza":"","lat":43.932951,"lng":141.661605,"zip":"0770024"},{"town":"千鳥町三丁目","koaza":"","lat":43.931626,"lng":141.664603,"zip":"0770024"},{"town":"千鳥町四丁目","koaza":"","lat":43.930115,"lng":141.658381,"zip":"0770024"},{"town":"潮静一丁目","koaza":"","lat":43.922656,"lng":141.678616,"zip":"0770013"},{"town":"潮静二丁目","koaza":"","lat":43.920457,"lng":141.677825,"zip":"0770013"},{"town":"潮静三丁目","koaza":"","lat":43.920733,"lng":141.682795,"zip":"0770013"},{"town":"潮静四丁目","koaza":"","lat":43.916552,"lng":141.681494,"zip":"0770013"},{"town":"錦町一丁目","koaza":"","lat":43.93994,"lng":141.643112,"zip":"0770044"},{"town":"錦町二丁目","koaza":"","lat":43.938918,"lng":141.643805,"zip":"0770044"},{"town":"錦町三丁目","koaza":"","lat":43.938211,"lng":141.644824,"zip":"0770044"},{"town":"錦町四丁目","koaza":"","lat":43.937473,"lng":141.645878,"zip":"0770044"},{"town":"野本町","koaza":"","lat":43.932586,"lng":141.657591,"zip":"0770025"},{"town":"花園町一丁目","koaza":"","lat":43.937346,"lng":141.649735,"zip":"0770028"},{"town":"花園町二丁目","koaza":"","lat":43.937431,"lng":141.651309,"zip":"0770028"},{"town":"花園町三丁目","koaza":"","lat":43.9368,"lng":141.652719,"zip":"0770028"},{"town":"花園町四丁目","koaza":"","lat":43.937112,"lng":141.655388,"zip":"0770028"},{"town":"花園町五丁目","koaza":"","lat":43.936045,"lng":141.657086,"zip":"0770028"},{"town":"浜中町","koaza":"","lat":43.91696,"lng":141.639673,"zip":"0770036"},{"town":"船場町一丁目","koaza":"","lat":43.944698,"lng":141.652361,"zip":"0770005"},{"town":"船場町二丁目","koaza":"","lat":43.944664,"lng":141.648918,"zip":"0770005"},{"town":"平和台一丁目","koaza":"","lat":43.926335,"lng":141.646077,"zip":"0770034"},{"town":"平和台二丁目","koaza":"","lat":43.923859,"lng":141.646617,"zip":"0770034"},{"town":"堀川町一丁目","koaza":"","lat":43.940372,"lng":141.662442,"zip":"0770022"},{"town":"堀川町二丁目","koaza":"","lat":43.938058,"lng":141.666004,"zip":"0770022"},{"town":"堀川町三丁目","koaza":"","lat":43.940606,"lng":141.666579,"zip":"0770022"},{"town":"幌糠町","koaza":"","lat":43.853846,"lng":141.760813,"zip":"0783168"},{"town":"本町一丁目","koaza":"","lat":43.942216,"lng":141.638908,"zip":"0770045"},{"town":"本町二丁目","koaza":"","lat":43.941623,"lng":141.639843,"zip":"0770045"},{"town":"本町三丁目","koaza":"","lat":43.941028,"lng":141.64077,"zip":"0770045"},{"town":"本町四丁目","koaza":"","lat":43.940511,"lng":141.641556,"zip":"0770045"},{"town":"緑ケ丘町一丁目","koaza":"","lat":43.929219,"lng":141.668034,"zip":"0770015"},{"town":"緑ケ丘町二丁目","koaza":"","lat":43.926653,"lng":141.665928,"zip":"0770015"},{"town":"港町一丁目","koaza":"","lat":43.944107,"lng":141.635857,"zip":"0770046"},{"town":"港町二丁目","koaza":"","lat":43.943137,"lng":141.636334,"zip":"0770046"},{"town":"港町三丁目","koaza":"","lat":43.942525,"lng":141.637446,"zip":"0770046"},{"town":"南町一丁目","koaza":"","lat":43.928734,"lng":141.672239,"zip":"0770014"},{"town":"南町二丁目","koaza":"","lat":43.925734,"lng":141.67167,"zip":"0770014"},{"town":"南町三丁目","koaza":"","lat":43.924157,"lng":141.675863,"zip":"0770014"},{"town":"南町四丁目","koaza":"","lat":43.921406,"lng":141.671965,"zip":"0770014"},{"town":"見晴町一丁目","koaza":"","lat":43.933988,"lng":141.642855,"zip":"0770033"},{"town":"見晴町二丁目","koaza":"","lat":43.93302,"lng":141.646173,"zip":"0770033"},{"town":"見晴町三丁目","koaza":"","lat":43.931197,"lng":141.648424,"zip":"0770033"},{"town":"見晴町四丁目","koaza":"","lat":43.929751,"lng":141.646953,"zip":"0770033"},{"town":"見晴町五丁目","koaza":"","lat":43.927201,"lng":141.649012,"zip":"0770033"},{"town":"見晴町六丁目","koaza":"","lat":43.924446,"lng":141.649542,"zip":"0770033"},{"town":"見晴町七丁目","koaza":"","lat":43.924678,"lng":141.653214,"zip":"0770033"},{"town":"宮園町一丁目","koaza":"","lat":43.93826,"lng":141.64066,"zip":"0770032"},{"town":"宮園町二丁目","koaza":"","lat":43.93745,"lng":141.641733,"zip":"0770032"},{"town":"宮園町三丁目","koaza":"","lat":43.936152,"lng":141.642078,"zip":"0770032"},{"town":"宮園町四丁目","koaza":"","lat":43.936217,"lng":141.644188,"zip":"0770032"},{"town":"元川町一丁目","koaza":"","lat":43.934303,"lng":141.667011,"zip":"0770016"},{"town":"元川町二丁目","koaza":"","lat":43.932983,"lng":141.666928,"zip":"0770016"},{"town":"元町一丁目","koaza":"","lat":43.947672,"lng":141.647032,"zip":"0770004"},{"town":"元町二丁目","koaza":"","lat":43.94836,"lng":141.644123,"zip":"0770004"},{"town":"元町三丁目","koaza":"","lat":43.949146,"lng":141.643258,"zip":"0770004"},{"town":"元町四丁目","koaza":"","lat":43.95042,"lng":141.643143,"zip":"0770004"},{"town":"元町五丁目","koaza":"","lat":43.952929,"lng":141.640915,"zip":"0770004"},{"town":"礼受町","koaza":"","lat":43.908171,"lng":141.621937,"zip":"0770035"}]