[{"town":"青葉町","koaza":"","lat":42.398287,"lng":141.080418,"zip":"0590027"},{"town":"柏木町一丁目","koaza":"","lat":42.417302,"lng":141.100103,"zip":"0590017"},{"town":"柏木町二丁目","koaza":"","lat":42.419539,"lng":141.091938,"zip":"0590017"},{"town":"柏木町三丁目","koaza":"","lat":42.419882,"lng":141.095228,"zip":"0590017"},{"town":"柏木町四丁目","koaza":"","lat":42.421062,"lng":141.097387,"zip":"0590017"},{"town":"柏木町五丁目","koaza":"","lat":42.428014,"lng":141.088433,"zip":"0590017"},{"town":"片倉町一丁目","koaza":"","lat":42.418279,"lng":141.089114,"zip":"0590016"},{"town":"片倉町二丁目","koaza":"","lat":42.419589,"lng":141.086774,"zip":"0590016"},{"town":"片倉町三丁目","koaza":"","lat":42.414431,"lng":141.089705,"zip":"0590016"},{"town":"片倉町四丁目","koaza":"","lat":42.413432,"lng":141.083592,"zip":"0590016"},{"town":"片倉町五丁目","koaza":"","lat":42.415868,"lng":141.086249,"zip":"0590016"},{"town":"片倉町六丁目","koaza":"","lat":42.418289,"lng":141.0835,"zip":"0590016"},{"town":"上登別町","koaza":"","lat":42.490609,"lng":141.117622,"zip":"0590552"},{"town":"上鷲別町","koaza":"","lat":42.400299,"lng":141.041612,"zip":"0590031"},{"town":"カルルス町","koaza":"","lat":42.532164,"lng":141.095797,"zip":"0590553"},{"town":"川上町","koaza":"","lat":42.43158,"lng":141.059101,"zip":"0590022"},{"town":"鉱山町","koaza":"","lat":42.490208,"lng":141.028333,"zip":"0590021"},{"town":"幸町一丁目","koaza":"","lat":42.423237,"lng":141.125623,"zip":"0590002"},{"town":"幸町二丁目","koaza":"","lat":42.422449,"lng":141.127493,"zip":"0590002"},{"town":"幸町三丁目","koaza":"","lat":42.428746,"lng":141.132784,"zip":"0590002"},{"town":"幸町四丁目","koaza":"","lat":42.427558,"lng":141.134514,"zip":"0590002"},{"town":"幸町五丁目","koaza":"","lat":42.433478,"lng":141.138909,"zip":"0590002"},{"town":"幸町六丁目","koaza":"","lat":42.43189,"lng":141.140618,"zip":"0590002"},{"town":"栄町一丁目","koaza":"","lat":42.369647,"lng":141.061335,"zip":"0590033"},{"town":"栄町二丁目","koaza":"","lat":42.369071,"lng":141.062826,"zip":"0590033"},{"town":"栄町三丁目","koaza":"","lat":42.377548,"lng":141.069405,"zip":"0590033"},{"town":"栄町四丁目","koaza":"","lat":42.376926,"lng":141.070604,"zip":"0590033"},{"town":"桜木町一丁目","koaza":"","lat":42.403054,"lng":141.097251,"zip":"0590023"},{"town":"桜木町二丁目","koaza":"","lat":42.404515,"lng":141.094079,"zip":"0590023"},{"town":"桜木町三丁目","koaza":"","lat":42.40699,"lng":141.089554,"zip":"0590023"},{"town":"桜木町四丁目","koaza":"","lat":42.40553,"lng":141.087011,"zip":"0590023"},{"town":"桜木町五丁目","koaza":"","lat":42.410335,"lng":141.085556,"zip":"0590023"},{"town":"桜木町六丁目","koaza":"","lat":42.409601,"lng":141.082047,"zip":"0590023"},{"town":"札内町","koaza":"","lat":42.471882,"lng":141.117954,"zip":"0590005"},{"town":"新栄町","koaza":"","lat":42.430638,"lng":141.131127,"zip":"0590001"},{"town":"新川町一丁目","koaza":"","lat":42.405993,"lng":141.100295,"zip":"0590015"},{"town":"新川町二丁目","koaza":"","lat":42.407235,"lng":141.09818,"zip":"0590015"},{"town":"新川町三丁目","koaza":"","lat":42.408693,"lng":141.094569,"zip":"0590015"},{"town":"新川町四丁目","koaza":"","lat":42.411496,"lng":141.092268,"zip":"0590015"},{"town":"新生町一丁目","koaza":"","lat":42.374698,"lng":141.063863,"zip":"0590032"},{"town":"新生町二丁目","koaza":"","lat":42.378883,"lng":141.067771,"zip":"0590032"},{"town":"新生町三丁目","koaza":"","lat":42.375922,"lng":141.061968,"zip":"0590032"},{"town":"新生町四丁目","koaza":"","lat":42.38073,"lng":141.064945,"zip":"0590032"},{"town":"新生町五丁目","koaza":"","lat":42.377503,"lng":141.059489,"zip":"0590032"},{"town":"新生町六丁目","koaza":"","lat":42.381054,"lng":141.061363,"zip":"0590032"},{"town":"千歳町","koaza":"","lat":42.434863,"lng":141.114119,"zip":"0590003"},{"town":"千歳町一丁目","koaza":"","lat":42.415407,"lng":141.112135,"zip":"0590003"},{"town":"千歳町二丁目","koaza":"","lat":42.420767,"lng":141.118763,"zip":"0590003"},{"town":"千歳町三丁目","koaza":"","lat":42.420179,"lng":141.108087,"zip":"0590003"},{"town":"千歳町四丁目","koaza":"","lat":42.419981,"lng":141.113152,"zip":"0590003"},{"town":"千歳町五丁目","koaza":"","lat":42.423939,"lng":141.109646,"zip":"0590003"},{"town":"千歳町六丁目","koaza":"","lat":42.425374,"lng":141.110334,"zip":"0590003"},{"town":"中央町一丁目","koaza":"","lat":42.41193,"lng":141.108116,"zip":"0590012"},{"town":"中央町二丁目","koaza":"","lat":42.409787,"lng":141.105538,"zip":"0590012"},{"town":"中央町三丁目","koaza":"","lat":42.407472,"lng":141.103003,"zip":"0590012"},{"town":"中央町四丁目","koaza":"","lat":42.410754,"lng":141.10395,"zip":"0590012"},{"town":"中央町五丁目","koaza":"","lat":42.413221,"lng":141.103837,"zip":"0590012"},{"town":"中央町六丁目","koaza":"","lat":42.413767,"lng":141.10692,"zip":"0590012"},{"town":"中央町七丁目","koaza":"","lat":42.41569,"lng":141.107739,"zip":"0590012"},{"town":"常盤町一丁目","koaza":"","lat":42.415961,"lng":141.10349,"zip":"0590011"},{"town":"常盤町二丁目","koaza":"","lat":42.416932,"lng":141.105332,"zip":"0590011"},{"town":"常盤町三丁目","koaza":"","lat":42.421821,"lng":141.105592,"zip":"0590011"},{"town":"常盤町四丁目","koaza":"","lat":42.42256,"lng":141.101871,"zip":"0590011"},{"town":"常盤町五丁目","koaza":"","lat":42.420983,"lng":141.099991,"zip":"0590011"},{"town":"常盤町六丁目","koaza":"","lat":42.432038,"lng":141.09628,"zip":"0590011"},{"town":"富浦町","koaza":"","lat":42.441114,"lng":141.135637,"zip":"0590462"},{"town":"富浦町一丁目","koaza":"","lat":42.443211,"lng":141.156758,"zip":"0590462"},{"town":"富浦町二丁目","koaza":"","lat":42.439875,"lng":141.15166,"zip":"0590462"},{"town":"富浦町三丁目","koaza":"","lat":42.436092,"lng":141.146417,"zip":"0590462"},{"town":"富浦町四丁目","koaza":"","lat":42.437885,"lng":141.14457,"zip":"0590462"},{"town":"富浦町五丁目","koaza":"","lat":42.43959,"lng":141.14375,"zip":"0590462"},{"town":"富岸町","koaza":"","lat":42.401494,"lng":141.060836,"zip":"0590028"},{"town":"富岸町一丁目","koaza":"","lat":42.390454,"lng":141.071171,"zip":"0590028"},{"town":"富岸町二丁目","koaza":"","lat":42.385403,"lng":141.068146,"zip":"0590028"},{"town":"富岸町三丁目","koaza":"","lat":42.388684,"lng":141.060941,"zip":"0590028"},{"town":"中登別町","koaza":"","lat":42.468701,"lng":141.159061,"zip":"0590463"},{"town":"登別温泉町","koaza":"","lat":42.499363,"lng":141.142747,"zip":"0590551"},{"town":"登別東町一丁目","koaza":"","lat":42.454637,"lng":141.181334,"zip":"0590464"},{"town":"登別東町二丁目","koaza":"","lat":42.451398,"lng":141.176961,"zip":"0590464"},{"town":"登別東町三丁目","koaza":"","lat":42.459648,"lng":141.179631,"zip":"0590464"},{"town":"登別東町四丁目","koaza":"","lat":42.458731,"lng":141.174713,"zip":"0590464"},{"town":"登別東町五丁目","koaza":"","lat":42.455546,"lng":141.168955,"zip":"0590464"},{"town":"登別本町一丁目","koaza":"","lat":42.45005,"lng":141.172946,"zip":"0590465"},{"town":"登別本町二丁目","koaza":"","lat":42.452486,"lng":141.164842,"zip":"0590465"},{"town":"登別本町三丁目","koaza":"","lat":42.447206,"lng":141.165725,"zip":"0590465"},{"town":"登別港町一丁目","koaza":"","lat":42.450674,"lng":141.181112,"zip":"0590466"},{"town":"登別港町二丁目","koaza":"","lat":42.444507,"lng":141.170569,"zip":"0590466"},{"town":"富士町一丁目","koaza":"","lat":42.41373,"lng":141.101878,"zip":"0590014"},{"town":"富士町二丁目","koaza":"","lat":42.410422,"lng":141.10154,"zip":"0590014"},{"town":"富士町三丁目","koaza":"","lat":42.40885,"lng":141.099671,"zip":"0590014"},{"town":"富士町四丁目","koaza":"","lat":42.411084,"lng":141.099671,"zip":"0590014"},{"town":"富士町五丁目","koaza":"","lat":42.413217,"lng":141.099483,"zip":"0590014"},{"town":"富士町六丁目","koaza":"","lat":42.411992,"lng":141.096851,"zip":"0590014"},{"town":"富士町七丁目","koaza":"","lat":42.415035,"lng":141.09604,"zip":"0590014"},{"town":"幌別町一丁目","koaza":"","lat":42.406793,"lng":141.10422,"zip":"0590013"},{"town":"幌別町二丁目","koaza":"","lat":42.405478,"lng":141.104426,"zip":"0590013"},{"town":"幌別町三丁目","koaza":"","lat":42.410661,"lng":141.10933,"zip":"0590013"},{"town":"幌別町四丁目","koaza":"","lat":42.409654,"lng":141.110384,"zip":"0590013"},{"town":"幌別町五丁目","koaza":"","lat":42.414556,"lng":141.114255,"zip":"0590013"},{"town":"幌別町六丁目","koaza":"","lat":42.413107,"lng":141.11498,"zip":"0590013"},{"town":"幌別町七丁目","koaza":"","lat":42.418591,"lng":141.119638,"zip":"0590013"},{"town":"幌別町八丁目","koaza":"","lat":42.417156,"lng":141.120346,"zip":"0590013"},{"town":"美園町一丁目","koaza":"","lat":42.361564,"lng":141.044343,"zip":"0590036"},{"town":"美園町二丁目","koaza":"","lat":42.363274,"lng":141.047885,"zip":"0590036"},{"town":"美園町三丁目","koaza":"","lat":42.364254,"lng":141.042016,"zip":"0590036"},{"town":"美園町四丁目","koaza":"","lat":42.365284,"lng":141.04637,"zip":"0590036"},{"town":"美園町五丁目","koaza":"","lat":42.367573,"lng":141.040208,"zip":"0590036"},{"town":"美園町六丁目","koaza":"","lat":42.37531,"lng":141.038533,"zip":"0590036"},{"town":"緑町一丁目","koaza":"","lat":42.39856,"lng":141.091884,"zip":"0590024"},{"town":"緑町二丁目","koaza":"","lat":42.403302,"lng":141.0901,"zip":"0590024"},{"town":"緑町三丁目","koaza":"","lat":42.398808,"lng":141.086358,"zip":"0590024"},{"town":"緑町四丁目","koaza":"","lat":42.402028,"lng":141.08662,"zip":"0590024"},{"town":"大和町一丁目","koaza":"","lat":42.396677,"lng":141.092359,"zip":"0590025"},{"town":"大和町二丁目","koaza":"","lat":42.385839,"lng":141.079512,"zip":"0590025"},{"town":"来馬町","koaza":"","lat":42.462765,"lng":141.084589,"zip":"0590004"},{"town":"若草町一丁目","koaza":"","lat":42.366289,"lng":141.053146,"zip":"0590035"},{"town":"若草町二丁目","koaza":"","lat":42.369989,"lng":141.058001,"zip":"0590035"},{"town":"若草町三丁目","koaza":"","lat":42.367496,"lng":141.050908,"zip":"0590035"},{"town":"若草町四丁目","koaza":"","lat":42.371442,"lng":141.05548,"zip":"0590035"},{"town":"若草町五丁目","koaza":"","lat":42.369275,"lng":141.046488,"zip":"0590035"},{"town":"若草町六丁目","koaza":"","lat":42.373112,"lng":141.054428,"zip":"0590035"},{"town":"若山町一丁目","koaza":"","lat":42.393792,"lng":141.083547,"zip":"0590026"},{"town":"若山町二丁目","koaza":"","lat":42.390045,"lng":141.079369,"zip":"0590026"},{"town":"若山町三丁目","koaza":"","lat":42.385548,"lng":141.074654,"zip":"0590026"},{"town":"若山町四丁目","koaza":"","lat":42.381926,"lng":141.070431,"zip":"0590026"},{"town":"鷲別町一丁目","koaza":"","lat":42.355333,"lng":141.049919,"zip":"0590034"},{"town":"鷲別町二丁目","koaza":"","lat":42.358317,"lng":141.046112,"zip":"0590034"},{"town":"鷲別町三丁目","koaza":"","lat":42.359163,"lng":141.049223,"zip":"0590034"},{"town":"鷲別町四丁目","koaza":"","lat":42.361518,"lng":141.051931,"zip":"0590034"},{"town":"鷲別町五丁目","koaza":"","lat":42.36519,"lng":141.055819,"zip":"0590034"},{"town":"鷲別町六丁目","koaza":"","lat":42.360454,"lng":141.0546,"zip":"0590034"}]