[{"town":"字石山","koaza":"","lat":42.574356,"lng":141.277508,"zip":"0590900"},{"town":"字北吉原","koaza":"","lat":42.546464,"lng":141.235816,"zip":"0590900"},{"town":"字虎杖浜","koaza":"","lat":42.483168,"lng":141.190769,"zip":"0590900"},{"town":"字社台","koaza":"","lat":42.634272,"lng":141.324566,"zip":"0590900"},{"town":"字白老","koaza":"","lat":42.597181,"lng":141.315958,"zip":"0590900"},{"town":"字竹浦","koaza":"","lat":42.547084,"lng":141.167725,"zip":"0590900"},{"town":"字萩野","koaza":"","lat":42.548392,"lng":141.248605,"zip":"0590900"},{"town":"字森野","koaza":"","lat":42.664506,"lng":141.217188,"zip":"0590900"},{"town":"大町一丁目","koaza":"","lat":42.55035,"lng":141.355963,"zip":"0590905"},{"town":"大町二丁目","koaza":"","lat":42.553092,"lng":141.358191,"zip":"0590905"},{"town":"大町三丁目","koaza":"","lat":42.552164,"lng":141.360089,"zip":"0590905"},{"town":"大町四丁目","koaza":"","lat":42.550514,"lng":141.361688,"zip":"0590905"},{"town":"大町五丁目","koaza":"","lat":42.548223,"lng":141.360532,"zip":"0590905"},{"town":"大町六丁目","koaza":"","lat":42.548702,"lng":141.357847,"zip":"0590905"},{"town":"川沿一丁目","koaza":"","lat":42.552202,"lng":141.345714,"zip":"0590915"},{"town":"川沿二丁目","koaza":"","lat":42.551751,"lng":141.342107,"zip":"0590915"},{"town":"川沿三丁目","koaza":"","lat":42.555036,"lng":141.342353,"zip":"0590915"},{"town":"川沿四丁目","koaza":"","lat":42.557248,"lng":141.343234,"zip":"0590915"},{"town":"栄町一丁目","koaza":"","lat":42.553434,"lng":141.351321,"zip":"0590914"},{"town":"栄町二丁目","koaza":"","lat":42.55226,"lng":141.348183,"zip":"0590914"},{"town":"栄町三丁目","koaza":"","lat":42.554665,"lng":141.34777,"zip":"0590914"},{"town":"陣屋町","koaza":"","lat":42.56483,"lng":141.3431,"zip":"0590912"},{"town":"末広町一丁目","koaza":"","lat":42.554232,"lng":141.357142,"zip":"0590907"},{"town":"末広町二丁目","koaza":"","lat":42.556335,"lng":141.357383,"zip":"0590907"},{"town":"末広町三丁目","koaza":"","lat":42.555409,"lng":141.352718,"zip":"0590907"},{"town":"末広町四丁目","koaza":"","lat":42.557221,"lng":141.353202,"zip":"0590907"},{"town":"末広町五丁目","koaza":"","lat":42.55885,"lng":141.353723,"zip":"0590907"},{"town":"高砂町一丁目","koaza":"","lat":42.547918,"lng":141.351376,"zip":"0590916"},{"town":"高砂町二丁目","koaza":"","lat":42.546401,"lng":141.353821,"zip":"0590916"},{"town":"高砂町三丁目","koaza":"","lat":42.545322,"lng":141.348551,"zip":"0590916"},{"town":"高砂町四丁目","koaza":"","lat":42.543626,"lng":141.350135,"zip":"0590916"},{"town":"東町一丁目","koaza":"","lat":42.556281,"lng":141.363158,"zip":"0590904"},{"town":"東町二丁目","koaza":"","lat":42.555471,"lng":141.364063,"zip":"0590904"},{"town":"東町三丁目","koaza":"","lat":42.553351,"lng":141.364052,"zip":"0590904"},{"town":"東町四丁目","koaza":"","lat":42.555043,"lng":141.367485,"zip":"0590904"},{"town":"東町五丁目","koaza":"","lat":42.552374,"lng":141.367456,"zip":"0590904"},{"town":"日の出町一丁目","koaza":"","lat":42.560154,"lng":141.370278,"zip":"0590903"},{"town":"日の出町二丁目","koaza":"","lat":42.563241,"lng":141.375043,"zip":"0590903"},{"town":"日の出町三丁目","koaza":"","lat":42.556976,"lng":141.369705,"zip":"0590903"},{"town":"日の出町四丁目","koaza":"","lat":42.554933,"lng":141.372223,"zip":"0590903"},{"town":"日の出町五丁目","koaza":"","lat":42.558647,"lng":141.377006,"zip":"0590903"},{"town":"本町一丁目","koaza":"","lat":42.550817,"lng":141.350889,"zip":"0590906"},{"town":"本町二丁目","koaza":"","lat":42.546913,"lng":141.345884,"zip":"0590906"},{"town":"本町三丁目","koaza":"","lat":42.547971,"lng":141.343665,"zip":"0590906"},{"town":"緑丘一丁目","koaza":"","lat":42.556771,"lng":141.348071,"zip":"0590908"},{"town":"緑丘二丁目","koaza":"","lat":42.558702,"lng":141.347709,"zip":"0590908"},{"town":"緑丘三丁目","koaza":"","lat":42.559978,"lng":141.347555,"zip":"0590908"},{"town":"緑丘四丁目","koaza":"","lat":42.565371,"lng":141.349841,"zip":"0590908"},{"town":"緑町","koaza":"","lat":42.56145,"lng":141.336452,"zip":"0590913"},{"town":"若草町一丁目","koaza":"","lat":42.559663,"lng":141.360399,"zip":"0590902"},{"town":"若草町二丁目","koaza":"","lat":42.558999,"lng":141.364067,"zip":"0590902"}]