[{"town":"相泊","koaza":"","lat":44.186819,"lng":145.317394,"zip":"0861806"},{"town":"麻布町","koaza":"","lat":43.967969,"lng":145.133767,"zip":"0861842"},{"town":"海岸町","koaza":"","lat":44.056747,"lng":145.234096,"zip":"0861815"},{"town":"春日町","koaza":"","lat":43.949572,"lng":145.117791,"zip":"0861843"},{"town":"化石浜","koaza":"","lat":44.238668,"lng":145.346718,"zip":"0861804"},{"town":"北浜","koaza":"","lat":44.135754,"lng":145.253377,"zip":"0861813"},{"town":"共栄町","koaza":"","lat":44.027624,"lng":145.200678,"zip":"0861816"},{"town":"崩浜","koaza":"","lat":44.208649,"lng":145.333125,"zip":"0861805"},{"town":"昆布浜","koaza":"","lat":44.160387,"lng":145.293087,"zip":"0861812"},{"town":"栄町","koaza":"","lat":44.025103,"lng":145.189285,"zip":"0861823"},{"town":"知床岬","koaza":"","lat":44.323109,"lng":145.342761,"zip":"0861801"},{"town":"瀬石","koaza":"","lat":44.175536,"lng":145.308194,"zip":"0861811"},{"town":"滝ノ下","koaza":"","lat":44.28816,"lng":145.352926,"zip":"0861802"},{"town":"知昭町","koaza":"","lat":43.984974,"lng":145.15426,"zip":"0861836"},{"town":"富士見町","koaza":"","lat":44.019397,"lng":145.19333,"zip":"0861831"},{"town":"船泊","koaza":"","lat":44.261088,"lng":145.364258,"zip":"0861803"},{"town":"船見町","koaza":"","lat":44.022902,"lng":145.19599,"zip":"0861832"},{"town":"幌萌町","koaza":"","lat":43.921424,"lng":145.107307,"zip":"0861844"},{"town":"本町","koaza":"","lat":44.017895,"lng":145.186691,"zip":"0861833"},{"town":"松法町","koaza":"","lat":43.993416,"lng":145.163304,"zip":"0861835"},{"town":"岬町","koaza":"","lat":44.102412,"lng":145.238844,"zip":"0861814"},{"town":"緑町","koaza":"","lat":44.02225,"lng":145.18413,"zip":"0861821"},{"town":"峯浜町","koaza":"","lat":43.883193,"lng":145.070641,"zip":"0861751"},{"town":"八木浜町","koaza":"","lat":43.980493,"lng":145.14103,"zip":"0861841"},{"town":"湯ノ沢町","koaza":"","lat":44.030945,"lng":145.167716,"zip":"0861822"},{"town":"礼文町","koaza":"","lat":44.007692,"lng":145.176837,"zip":"0861834"}]