[{"town":"字袋達布","koaza":"","lat":43.206845,"lng":141.635256,"zip":"0681100"},{"town":"第三十五線北","koaza":"","lat":43.224271,"lng":141.570327,"zip":"0681100"},{"town":"第三十五線南","koaza":"","lat":43.183168,"lng":141.576386,"zip":"0681100"},{"town":"第三十六線北","koaza":"","lat":43.22706,"lng":141.575092,"zip":"0681100"},{"town":"第三十六線南","koaza":"","lat":43.183505,"lng":141.581502,"zip":"0681100"},{"town":"第三十七線北","koaza":"","lat":43.231587,"lng":141.581437,"zip":"0681100"},{"town":"第三十七線南","koaza":"","lat":43.184449,"lng":141.588422,"zip":"0681100"},{"town":"第三十八線北","koaza":"","lat":43.234931,"lng":141.587914,"zip":"0681100"},{"town":"第三十八線南","koaza":"","lat":43.1854,"lng":141.595214,"zip":"0681100"},{"town":"第三十九線北","koaza":"","lat":43.239327,"lng":141.594234,"zip":"0681100"},{"town":"第三十九線南","koaza":"","lat":43.186294,"lng":141.602016,"zip":"0681100"},{"town":"第四十線北","koaza":"","lat":43.239482,"lng":141.601203,"zip":"0681100"},{"town":"第四十線南","koaza":"","lat":43.185656,"lng":141.609135,"zip":"0681100"},{"town":"第四十一線北","koaza":"","lat":43.239621,"lng":141.608251,"zip":"0681100"},{"town":"第四十一線南","koaza":"","lat":43.191995,"lng":141.615229,"zip":"0681100"},{"town":"第四十二線北","koaza":"","lat":43.246159,"lng":141.614245,"zip":"0681100"},{"town":"第四十二線南","koaza":"","lat":43.196358,"lng":141.62154,"zip":"0681100"},{"town":"第四十三線北","koaza":"","lat":43.246708,"lng":141.621136,"zip":"0681100"},{"town":"第四十三線南","koaza":"","lat":43.198648,"lng":141.627786,"zip":"0681100"},{"town":"第四十四線北","koaza":"","lat":43.247271,"lng":141.628196,"zip":"0681100"},{"town":"第四十四線南","koaza":"","lat":43.195931,"lng":141.6352,"zip":"0681100"},{"town":"第四十五線北","koaza":"","lat":43.250113,"lng":141.634723,"zip":"0681100"},{"town":"第四十五線南","koaza":"","lat":43.198798,"lng":141.642198,"zip":"0681100"},{"town":"第四十六線北","koaza":"","lat":43.24806,"lng":141.641829,"zip":"0681100"},{"town":"第四十六線南","koaza":"","lat":43.2053,"lng":141.645616,"zip":"0681100"},{"town":"第四十七線北","koaza":"","lat":43.246848,"lng":141.648863,"zip":"0681100"},{"town":"第四十八線北","koaza":"","lat":43.244126,"lng":141.656398,"zip":"0681100"}]