[{"town":"厚田区厚田","koaza":"","lat":43.478768,"lng":141.481144,"zip":"0613601"},{"town":"厚田区押琴","koaza":"","lat":43.363462,"lng":141.431231,"zip":"0613602"},{"town":"厚田区濃昼","koaza":"","lat":43.478761,"lng":141.403681,"zip":"0613151"},{"town":"厚田区小谷","koaza":"","lat":43.37657,"lng":141.436826,"zip":"0613603"},{"town":"厚田区古潭","koaza":"","lat":43.378897,"lng":141.475985,"zip":"0613521"},{"town":"厚田区聚富","koaza":"","lat":43.27675,"lng":141.415123,"zip":"0613331"},{"town":"厚田区虹が原","koaza":"","lat":43.255213,"lng":141.383339,"zip":"0613332"},{"town":"厚田区別狩","koaza":"","lat":43.463675,"lng":141.539034,"zip":"0613605"},{"town":"厚田区嶺泊","koaza":"","lat":43.341374,"lng":141.442754,"zip":"0613522"},{"town":"厚田区安瀬","koaza":"","lat":43.443783,"lng":141.431349,"zip":"0613606"},{"town":"親船町","koaza":"","lat":43.23524,"lng":141.341063,"zip":"0613377"},{"town":"親船東一条一丁目","koaza":"","lat":43.225007,"lng":141.341225,"zip":"0613365"},{"town":"親船東一条二丁目","koaza":"","lat":43.224397,"lng":141.344742,"zip":"0613365"},{"town":"親船東二条一丁目","koaza":"","lat":43.227163,"lng":141.342562,"zip":"0613366"},{"town":"親船東二条二丁目","koaza":"","lat":43.226303,"lng":141.346319,"zip":"0613366"},{"town":"親船東三条一丁目","koaza":"","lat":43.230363,"lng":141.343263,"zip":"0613367"},{"town":"親船東三条二丁目","koaza":"","lat":43.229114,"lng":141.345015,"zip":"0613367"},{"town":"北生振","koaza":"","lat":43.231882,"lng":141.392809,"zip":"0613362"},{"town":"志美","koaza":"","lat":43.218419,"lng":141.332313,"zip":"0613220"},{"town":"新港中央一丁目","koaza":"","lat":43.179715,"lng":141.294749,"zip":"0613242"},{"town":"新港中央二丁目","koaza":"","lat":43.189581,"lng":141.302696,"zip":"0613242"},{"town":"新港中央三丁目","koaza":"","lat":43.200705,"lng":141.307905,"zip":"0613242"},{"town":"新港中央四丁目","koaza":"","lat":43.202917,"lng":141.299194,"zip":"0613242"},{"town":"新港西一丁目","koaza":"","lat":43.166058,"lng":141.28541,"zip":"0613241"},{"town":"新港西二丁目","koaza":"","lat":43.172374,"lng":141.280536,"zip":"0613241"},{"town":"新港西三丁目","koaza":"","lat":43.162095,"lng":141.256816,"zip":"0613241"},{"town":"新港東一丁目","koaza":"","lat":43.207772,"lng":141.335656,"zip":"0613243"},{"town":"新港東二丁目","koaza":"","lat":43.208306,"lng":141.323433,"zip":"0613243"},{"town":"新港東三丁目","koaza":"","lat":43.213726,"lng":141.329061,"zip":"0613243"},{"town":"新港東四丁目","koaza":"","lat":43.213675,"lng":141.313411,"zip":"0613243"},{"town":"新港南一丁目","koaza":"","lat":43.192213,"lng":141.332346,"zip":"0613244"},{"town":"新港南二丁目","koaza":"","lat":43.187951,"lng":141.316757,"zip":"0613244"},{"town":"新港南三丁目","koaza":"","lat":43.199708,"lng":141.322058,"zip":"0613244"},{"town":"新町","koaza":"","lat":43.248449,"lng":141.356281,"zip":"0613373"},{"town":"樽川","koaza":"","lat":43.153515,"lng":141.267788,"zip":"0613253"},{"town":"樽川三条一丁目","koaza":"","lat":43.154934,"lng":141.290512,"zip":"0613253"},{"town":"樽川三条二丁目","koaza":"","lat":43.15612,"lng":141.288875,"zip":"0613253"},{"town":"樽川三条三丁目","koaza":"","lat":43.157315,"lng":141.287225,"zip":"0613253"},{"town":"樽川四条一丁目","koaza":"","lat":43.153115,"lng":141.288088,"zip":"0613254"},{"town":"樽川四条二丁目","koaza":"","lat":43.154301,"lng":141.286456,"zip":"0613254"},{"town":"樽川四条三丁目","koaza":"","lat":43.155505,"lng":141.284802,"zip":"0613254"},{"town":"樽川五条一丁目","koaza":"","lat":43.151401,"lng":141.285783,"zip":"0613255"},{"town":"樽川五条二丁目","koaza":"","lat":43.152606,"lng":141.284167,"zip":"0613255"},{"town":"樽川五条三丁目","koaza":"","lat":43.153816,"lng":141.282543,"zip":"0613255"},{"town":"樽川六条一丁目","koaza":"","lat":43.149499,"lng":141.283259,"zip":"0613256"},{"town":"樽川六条二丁目","koaza":"","lat":43.150804,"lng":141.281723,"zip":"0613256"},{"town":"樽川六条三丁目","koaza":"","lat":43.152005,"lng":141.280113,"zip":"0613256"},{"town":"樽川七条一丁目","koaza":"","lat":43.147673,"lng":141.28084,"zip":"0613257"},{"town":"樽川七条二丁目","koaza":"","lat":43.1489,"lng":141.279154,"zip":"0613257"},{"town":"樽川七条三丁目","koaza":"","lat":43.150189,"lng":141.277367,"zip":"0613257"},{"town":"樽川八条一丁目","koaza":"","lat":43.145885,"lng":141.278169,"zip":"0613258"},{"town":"樽川八条二丁目","koaza":"","lat":43.147052,"lng":141.276575,"zip":"0613258"},{"town":"樽川八条三丁目","koaza":"","lat":43.148054,"lng":141.274684,"zip":"0613258"},{"town":"樽川九条一丁目","koaza":"","lat":43.144144,"lng":141.275952,"zip":"0613259"},{"town":"樽川九条二丁目","koaza":"","lat":43.145627,"lng":141.274021,"zip":"0613259"},{"town":"樽川九条三丁目","koaza":"","lat":43.146687,"lng":141.27168,"zip":"0613259"},{"town":"仲町","koaza":"","lat":43.247477,"lng":141.35591,"zip":"0613374"},{"town":"八幡一丁目","koaza":"","lat":43.242705,"lng":141.364868,"zip":"0613484"},{"town":"八幡二丁目","koaza":"","lat":43.248527,"lng":141.36877,"zip":"0613484"},{"town":"八幡三丁目","koaza":"","lat":43.253762,"lng":141.374699,"zip":"0613484"},{"town":"八幡四丁目","koaza":"","lat":43.245273,"lng":141.375725,"zip":"0613484"},{"town":"八幡五丁目","koaza":"","lat":43.248467,"lng":141.382061,"zip":"0613484"},{"town":"八幡町若生","koaza":"","lat":43.241599,"lng":141.355557,"zip":"0613200"},{"town":"八幡町来札","koaza":"","lat":43.25258,"lng":141.367733,"zip":"0613200"},{"town":"花川","koaza":"","lat":43.146984,"lng":141.312996,"zip":"0613219"},{"town":"花川北一条一丁目","koaza":"","lat":43.159822,"lng":141.300137,"zip":"0613211"},{"town":"花川北一条二丁目","koaza":"","lat":43.158167,"lng":141.301605,"zip":"0613211"},{"town":"花川北一条三丁目","koaza":"","lat":43.155161,"lng":141.305239,"zip":"0613211"},{"town":"花川北一条四丁目","koaza":"","lat":43.153357,"lng":141.307734,"zip":"0613211"},{"town":"花川北一条五丁目","koaza":"","lat":43.151617,"lng":141.310167,"zip":"0613211"},{"town":"花川北一条六丁目","koaza":"","lat":43.149508,"lng":141.312364,"zip":"0613211"},{"town":"花川北二条一丁目","koaza":"","lat":43.162167,"lng":141.30328,"zip":"0613212"},{"town":"花川北二条二丁目","koaza":"","lat":43.160798,"lng":141.305833,"zip":"0613212"},{"town":"花川北二条三丁目","koaza":"","lat":43.157088,"lng":141.307515,"zip":"0613212"},{"town":"花川北二条四丁目","koaza":"","lat":43.156334,"lng":141.311235,"zip":"0613212"},{"town":"花川北二条五丁目","koaza":"","lat":43.154494,"lng":141.312588,"zip":"0613212"},{"town":"花川北二条六丁目","koaza":"","lat":43.153067,"lng":141.314746,"zip":"0613212"},{"town":"花川北三条一丁目","koaza":"","lat":43.164457,"lng":141.30627,"zip":"0613213"},{"town":"花川北三条二丁目","koaza":"","lat":43.162796,"lng":141.30733,"zip":"0613213"},{"town":"花川北三条三丁目","koaza":"","lat":43.161379,"lng":141.311671,"zip":"0613213"},{"town":"花川北三条四丁目","koaza":"","lat":43.159032,"lng":141.313368,"zip":"0613213"},{"town":"花川北三条五丁目","koaza":"","lat":43.157952,"lng":141.316844,"zip":"0613213"},{"town":"花川北三条六丁目","koaza":"","lat":43.155346,"lng":141.318435,"zip":"0613213"},{"town":"花川北四条一丁目","koaza":"","lat":43.167203,"lng":141.310072,"zip":"0613214"},{"town":"花川北四条二丁目","koaza":"","lat":43.165983,"lng":141.313064,"zip":"0613214"},{"town":"花川北四条三丁目","koaza":"","lat":43.16381,"lng":141.313714,"zip":"0613214"},{"town":"花川北四条四丁目","koaza":"","lat":43.162551,"lng":141.316493,"zip":"0613214"},{"town":"花川北四条五丁目","koaza":"","lat":43.160925,"lng":141.31764,"zip":"0613214"},{"town":"花川北五条一丁目","koaza":"","lat":43.168879,"lng":141.313619,"zip":"0613215"},{"town":"花川北五条二丁目","koaza":"","lat":43.166356,"lng":141.317007,"zip":"0613215"},{"town":"花川北五条三丁目","koaza":"","lat":43.164348,"lng":141.319829,"zip":"0613215"},{"town":"花川北六条一丁目","koaza":"","lat":43.170453,"lng":141.315323,"zip":"0613216"},{"town":"花川北六条二丁目","koaza":"","lat":43.169025,"lng":141.31859,"zip":"0613216"},{"town":"花川北六条三丁目","koaza":"","lat":43.167654,"lng":141.320425,"zip":"0613216"},{"town":"花川北六条四丁目","koaza":"","lat":43.165565,"lng":141.321913,"zip":"0613216"},{"town":"花川北六条五丁目","koaza":"","lat":43.167078,"lng":141.324833,"zip":"0613216"},{"town":"花川北七条一丁目","koaza":"","lat":43.172469,"lng":141.318713,"zip":"0613217"},{"town":"花川北七条二丁目","koaza":"","lat":43.170368,"lng":141.321255,"zip":"0613217"},{"town":"花川北七条三丁目","koaza":"","lat":43.168576,"lng":141.325231,"zip":"0613217"},{"town":"花川東","koaza":"","lat":43.157126,"lng":141.3271,"zip":"0613248"},{"town":"花川東一条一丁目","koaza":"","lat":43.16856,"lng":141.334066,"zip":"0613261"},{"town":"花川東一条二丁目","koaza":"","lat":43.169104,"lng":141.336893,"zip":"0613261"},{"town":"花川東一条三丁目","koaza":"","lat":43.168477,"lng":141.339111,"zip":"0613261"},{"town":"花川東一条四丁目","koaza":"","lat":43.1679,"lng":141.341222,"zip":"0613261"},{"town":"花川東二条一丁目","koaza":"","lat":43.167108,"lng":141.334216,"zip":"0613262"},{"town":"花川東二条二丁目","koaza":"","lat":43.166992,"lng":141.336907,"zip":"0613262"},{"town":"花川東二条三丁目","koaza":"","lat":43.166586,"lng":141.340255,"zip":"0613262"},{"town":"花川南十条一丁目","koaza":"","lat":43.140561,"lng":141.275635,"zip":"0613210"},{"town":"花川南十条二丁目","koaza":"","lat":43.13881,"lng":141.278029,"zip":"0613210"},{"town":"花川南十条三丁目","koaza":"","lat":43.137048,"lng":141.280516,"zip":"0613210"},{"town":"花川南十条四丁目","koaza":"","lat":43.135343,"lng":141.28323,"zip":"0613210"},{"town":"花川南一条一丁目","koaza":"","lat":43.156806,"lng":141.29777,"zip":"0613201"},{"town":"花川南一条二丁目","koaza":"","lat":43.155356,"lng":141.299967,"zip":"0613201"},{"town":"花川南一条三丁目","koaza":"","lat":43.153579,"lng":141.30247,"zip":"0613201"},{"town":"花川南一条四丁目","koaza":"","lat":43.151877,"lng":141.305014,"zip":"0613201"},{"town":"花川南一条五丁目","koaza":"","lat":43.149917,"lng":141.306558,"zip":"0613201"},{"town":"花川南一条六丁目","koaza":"","lat":43.148684,"lng":141.309724,"zip":"0613201"},{"town":"花川南二条一丁目","koaza":"","lat":43.154688,"lng":141.295306,"zip":"0613202"},{"town":"花川南二条二丁目","koaza":"","lat":43.153096,"lng":141.297457,"zip":"0613202"},{"town":"花川南二条三丁目","koaza":"","lat":43.151716,"lng":141.299988,"zip":"0613202"},{"town":"花川南二条四丁目","koaza":"","lat":43.149949,"lng":141.302476,"zip":"0613202"},{"town":"花川南二条五丁目","koaza":"","lat":43.148112,"lng":141.305105,"zip":"0613202"},{"town":"花川南二条六丁目","koaza":"","lat":43.146504,"lng":141.307947,"zip":"0613202"},{"town":"花川南三条一丁目","koaza":"","lat":43.153451,"lng":141.292581,"zip":"0613203"},{"town":"花川南三条二丁目","koaza":"","lat":43.151694,"lng":141.294695,"zip":"0613203"},{"town":"花川南三条三丁目","koaza":"","lat":43.150062,"lng":141.297656,"zip":"0613203"},{"town":"花川南三条四丁目","koaza":"","lat":43.148138,"lng":141.300045,"zip":"0613203"},{"town":"花川南三条五丁目","koaza":"","lat":43.146644,"lng":141.30255,"zip":"0613203"},{"town":"花川南四条一丁目","koaza":"","lat":43.151637,"lng":141.290156,"zip":"0613204"},{"town":"花川南四条二丁目","koaza":"","lat":43.149862,"lng":141.292658,"zip":"0613204"},{"town":"花川南四条三丁目","koaza":"","lat":43.148045,"lng":141.295781,"zip":"0613204"},{"town":"花川南四条四丁目","koaza":"","lat":43.146841,"lng":141.298152,"zip":"0613204"},{"town":"花川南四条五丁目","koaza":"","lat":43.144403,"lng":141.302589,"zip":"0613204"},{"town":"花川南四条六丁目","koaza":"","lat":43.142537,"lng":141.302536,"zip":"0613204"},{"town":"花川南五条一丁目","koaza":"","lat":43.149858,"lng":141.287295,"zip":"0613205"},{"town":"花川南五条二丁目","koaza":"","lat":43.148046,"lng":141.290235,"zip":"0613205"},{"town":"花川南五条三丁目","koaza":"","lat":43.146274,"lng":141.292724,"zip":"0613205"},{"town":"花川南五条四丁目","koaza":"","lat":43.144504,"lng":141.295216,"zip":"0613205"},{"town":"花川南五条五丁目","koaza":"","lat":43.142317,"lng":141.298784,"zip":"0613205"},{"town":"花川南五条六丁目","koaza":"","lat":43.141216,"lng":141.300928,"zip":"0613205"},{"town":"花川南六条一丁目","koaza":"","lat":43.148004,"lng":141.285342,"zip":"0613206"},{"town":"花川南六条二丁目","koaza":"","lat":43.146236,"lng":141.287803,"zip":"0613206"},{"town":"花川南六条三丁目","koaza":"","lat":43.144458,"lng":141.290289,"zip":"0613206"},{"town":"花川南六条四丁目","koaza":"","lat":43.142683,"lng":141.292774,"zip":"0613206"},{"town":"花川南六条五丁目","koaza":"","lat":43.141326,"lng":141.295121,"zip":"0613206"},{"town":"花川南七条一丁目","koaza":"","lat":43.146269,"lng":141.282921,"zip":"0613207"},{"town":"花川南七条二丁目","koaza":"","lat":43.14442,"lng":141.285376,"zip":"0613207"},{"town":"花川南七条三丁目","koaza":"","lat":43.142637,"lng":141.287855,"zip":"0613207"},{"town":"花川南七条四丁目","koaza":"","lat":43.140878,"lng":141.290365,"zip":"0613207"},{"town":"花川南七条五丁目","koaza":"","lat":43.139751,"lng":141.293029,"zip":"0613207"},{"town":"花川南八条一丁目","koaza":"","lat":43.144352,"lng":141.280475,"zip":"0613208"},{"town":"花川南八条二丁目","koaza":"","lat":43.142595,"lng":141.282953,"zip":"0613208"},{"town":"花川南八条三丁目","koaza":"","lat":43.140599,"lng":141.285721,"zip":"0613208"},{"town":"花川南八条四丁目","koaza":"","lat":43.138886,"lng":141.28812,"zip":"0613208"},{"town":"花川南八条五丁目","koaza":"","lat":43.138205,"lng":141.291043,"zip":"0613208"},{"town":"花川南九条一丁目","koaza":"","lat":43.142534,"lng":141.277604,"zip":"0613209"},{"town":"花川南九条二丁目","koaza":"","lat":43.140756,"lng":141.280056,"zip":"0613209"},{"town":"花川南九条三丁目","koaza":"","lat":43.138959,"lng":141.283063,"zip":"0613209"},{"town":"花川南九条四丁目","koaza":"","lat":43.137254,"lng":141.285623,"zip":"0613209"},{"town":"花川南九条五丁目","koaza":"","lat":43.136183,"lng":141.287562,"zip":"0613209"},{"town":"浜益区送毛","koaza":"","lat":43.510774,"lng":141.381088,"zip":"0613112"},{"town":"浜益区雄冬","koaza":"","lat":43.722221,"lng":141.345568,"zip":"0770351"},{"town":"浜益区柏木","koaza":"","lat":43.573488,"lng":141.405653,"zip":"0613107"},{"town":"浜益区川下","koaza":"","lat":43.586199,"lng":141.388818,"zip":"0613106"},{"town":"浜益区群別","koaza":"","lat":43.648568,"lng":141.461317,"zip":"0613102"},{"town":"浜益区濃昼","koaza":"","lat":43.501307,"lng":141.412094,"zip":"0613113"},{"town":"浜益区御料地","koaza":"","lat":43.606929,"lng":141.537963,"zip":"0613109"},{"town":"浜益区千代志別","koaza":"","lat":43.709983,"lng":141.3624,"zip":"0613105"},{"town":"浜益区床丹","koaza":"","lat":43.686303,"lng":141.368434,"zip":"0613104"},{"town":"浜益区浜益","koaza":"","lat":43.606806,"lng":141.392589,"zip":"0613101"},{"town":"浜益区毘砂別","koaza":"","lat":43.545418,"lng":141.405956,"zip":"0613111"},{"town":"浜益区幌","koaza":"","lat":43.674079,"lng":141.425452,"zip":"0613103"},{"town":"浜益区実田","koaza":"","lat":43.608988,"lng":141.46249,"zip":"0613108"},{"town":"浜町","koaza":"","lat":43.258517,"lng":141.360802,"zip":"0613371"},{"town":"花畔","koaza":"","lat":43.171716,"lng":141.304852,"zip":"0613281"},{"town":"花畔一条一丁目","koaza":"","lat":43.175947,"lng":141.319009,"zip":"0613281"},{"town":"花畔一条二丁目","koaza":"","lat":43.181367,"lng":141.322842,"zip":"0613281"},{"town":"花畔二条一丁目","koaza":"","lat":43.172594,"lng":141.313754,"zip":"0613282"},{"town":"花畔三条一丁目","koaza":"","lat":43.175576,"lng":141.315371,"zip":"0613283"},{"town":"花畔四条一丁目","koaza":"","lat":43.178391,"lng":141.318282,"zip":"0613284"},{"town":"美登位","koaza":"","lat":43.208325,"lng":141.408153,"zip":"0613368"},{"town":"船場町","koaza":"","lat":43.220131,"lng":141.362472,"zip":"0613378"},{"town":"弁天町","koaza":"","lat":43.24687,"lng":141.34807,"zip":"0613372"},{"town":"本町","koaza":"","lat":43.247151,"lng":141.354785,"zip":"0613375"},{"town":"緑ケ原一丁目","koaza":"","lat":43.251837,"lng":141.386065,"zip":"0613483"},{"town":"緑ケ原二丁目","koaza":"","lat":43.249824,"lng":141.390466,"zip":"0613483"},{"town":"横町","koaza":"","lat":43.244615,"lng":141.348198,"zip":"0613376"},{"town":"緑苑台中央一丁目","koaza":"","lat":43.159941,"lng":141.334551,"zip":"0613230"},{"town":"緑苑台中央二丁目","koaza":"","lat":43.157758,"lng":141.337457,"zip":"0613230"},{"town":"緑苑台中央三丁目","koaza":"","lat":43.157343,"lng":141.33922,"zip":"0613230"},{"town":"緑苑台西一条二丁目","koaza":"","lat":43.155479,"lng":141.334632,"zip":"0613231"},{"town":"緑苑台西一条三丁目","koaza":"","lat":43.154721,"lng":141.335858,"zip":"0613231"},{"town":"緑苑台西二条三丁目","koaza":"","lat":43.151736,"lng":141.332977,"zip":"0613232"},{"town":"緑苑台東一条一丁目","koaza":"","lat":43.161398,"lng":141.337967,"zip":"0613221"},{"town":"緑苑台東一条二丁目","koaza":"","lat":43.160218,"lng":141.339441,"zip":"0613221"},{"town":"緑苑台東二条一丁目","koaza":"","lat":43.163398,"lng":141.340783,"zip":"0613222"},{"town":"緑苑台東二条二丁目","koaza":"","lat":43.162145,"lng":141.343096,"zip":"0613222"},{"town":"緑苑台東三条一丁目","koaza":"","lat":43.165783,"lng":141.342447,"zip":"0613223"},{"town":"緑苑台東三条二丁目","koaza":"","lat":43.164358,"lng":141.344722,"zip":"0613223"},{"town":"緑苑台東三条三丁目","koaza":"","lat":43.162747,"lng":141.348518,"zip":"0613223"},{"town":"若生","koaza":"","lat":43.239438,"lng":141.361671,"zip":"0613363"},{"town":"若生町","koaza":"","lat":43.244049,"lng":141.358271,"zip":"0613363"},{"town":"生振","koaza":"","lat":43.192729,"lng":141.364523,"zip":"0613245"},{"town":"厚田区望来","koaza":"","lat":43.361553,"lng":141.510812,"zip":"0613523"},{"town":"八幡町シララトカリ","koaza":"","lat":43.305321,"lng":141.50421,"zip":"0613200"},{"town":"八幡町俊別","koaza":"","lat":43.307522,"lng":141.513335,"zip":"0613200"},{"town":"八幡町シップ中島","koaza":"","lat":43.24817,"lng":141.395453,"zip":"0613200"},{"town":"八幡町シップ","koaza":"","lat":43.256763,"lng":141.406892,"zip":"0613200"},{"town":"八幡町大曲","koaza":"","lat":43.257349,"lng":141.396635,"zip":"0613200"},{"town":"八幡町五の沢","koaza":"","lat":43.265819,"lng":141.452515,"zip":"0613200"},{"town":"八幡町","koaza":"","lat":43.271341,"lng":141.469668,"zip":"0613480"},{"town":"八幡町高岡","koaza":"","lat":43.27212,"lng":141.462424,"zip":"0613200"}]