[{"town":"字青山","koaza":"","lat":43.323519,"lng":141.556801,"zip":"0610200"},{"town":"字青山奥","koaza":"","lat":43.40113,"lng":141.588868,"zip":"0610200"},{"town":"字青山奥二番川","koaza":"","lat":43.46108,"lng":141.610589,"zip":"0610200"},{"town":"字青山奥四番川","koaza":"","lat":43.545922,"lng":141.572034,"zip":"0610200"},{"town":"字金沢","koaza":"","lat":43.244255,"lng":141.562613,"zip":"0610200"},{"town":"字高岡","koaza":"","lat":43.23294,"lng":141.438043,"zip":"0610200"},{"town":"字中小屋","koaza":"","lat":43.305789,"lng":141.594492,"zip":"0610200"},{"town":"字東裏","koaza":"","lat":43.212305,"lng":141.552476,"zip":"0610200"},{"town":"字茂平沢","koaza":"","lat":43.267387,"lng":141.554072,"zip":"0610200"},{"town":"春日町","koaza":"","lat":43.228145,"lng":141.524055,"zip":"0610232"},{"town":"樺戸町","koaza":"","lat":43.218493,"lng":141.531097,"zip":"0610218"},{"town":"川下","koaza":"","lat":43.185685,"lng":141.483292,"zip":"0613774"},{"town":"幸町","koaza":"","lat":43.214575,"lng":141.516217,"zip":"0610217"},{"town":"栄町","koaza":"","lat":43.211801,"lng":141.51877,"zip":"0610216"},{"town":"獅子内","koaza":"","lat":43.208715,"lng":141.466526,"zip":"0613772"},{"town":"下川町","koaza":"","lat":43.207166,"lng":141.505114,"zip":"0610205"},{"town":"白樺町","koaza":"","lat":43.223706,"lng":141.515577,"zip":"0610233"},{"town":"スウェーデンヒルズ","koaza":"","lat":43.217884,"lng":141.457893,"zip":"0613777"},{"town":"末広","koaza":"","lat":43.217024,"lng":141.512944,"zip":"0610224"},{"town":"園生","koaza":"","lat":43.22209,"lng":141.516708,"zip":"0610227"},{"town":"対雁","koaza":"","lat":43.199031,"lng":141.51747,"zip":"0610215"},{"town":"当別太","koaza":"","lat":43.180897,"lng":141.449234,"zip":"0613773"},{"town":"錦町","koaza":"","lat":43.221095,"lng":141.512445,"zip":"0610226"},{"town":"西町","koaza":"","lat":43.223512,"lng":141.50759,"zip":"0610234"},{"town":"東町","koaza":"","lat":43.224115,"lng":141.527178,"zip":"0610221"},{"town":"ビトエ","koaza":"","lat":43.179225,"lng":141.418526,"zip":"0028089"},{"town":"太美スターライト","koaza":"","lat":43.195075,"lng":141.452306,"zip":"0613779"},{"town":"太美町","koaza":"","lat":43.192776,"lng":141.442157,"zip":"0613776"},{"town":"太美南","koaza":"","lat":43.186245,"lng":141.444927,"zip":"0613778"},{"town":"北栄町","koaza":"","lat":43.227645,"lng":141.514882,"zip":"0610235"},{"town":"美里","koaza":"","lat":43.217811,"lng":141.507891,"zip":"0610225"},{"town":"緑町","koaza":"","lat":43.222266,"lng":141.52172,"zip":"0610228"},{"town":"元町","koaza":"","lat":43.218793,"lng":141.520608,"zip":"0610222"},{"town":"弥生","koaza":"","lat":43.218567,"lng":141.51585,"zip":"0610223"},{"town":"蕨岱","koaza":"","lat":43.182351,"lng":141.539757,"zip":"0610214"},{"town":"若葉","koaza":"","lat":43.223179,"lng":141.494284,"zip":"0610204"},{"town":"字上当別","koaza":"","lat":43.240378,"lng":141.473262,"zip":"0610200"},{"town":"六軒町","koaza":"","lat":43.23805,"lng":141.516826,"zip":"0610231"},{"town":"字田の沢","koaza":"","lat":43.247868,"lng":141.496401,"zip":"0610200"},{"town":"字弁華別","koaza":"","lat":43.276601,"lng":141.514794,"zip":"0610200"}]