[{"town":"一の沢","koaza":"","lat":43.521098,"lng":141.973009,"zip":"0730107"},{"town":"鶉","koaza":"","lat":43.48454,"lng":141.94571,"zip":"0730116"},{"town":"オアシス","koaza":"","lat":43.491667,"lng":141.896035,"zip":"0730100"},{"town":"北吉野町","koaza":"","lat":43.487842,"lng":141.93361,"zip":"0730118"},{"town":"空知太","koaza":"","lat":43.535079,"lng":141.937146,"zip":"0730177"},{"town":"空知太西一条一丁目","koaza":"","lat":43.528068,"lng":141.914958,"zip":"0730171"},{"town":"空知太西一条二丁目","koaza":"","lat":43.52967,"lng":141.915704,"zip":"0730171"},{"town":"空知太西一条三丁目","koaza":"","lat":43.532285,"lng":141.916502,"zip":"0730171"},{"town":"空知太西一条四丁目","koaza":"","lat":43.534652,"lng":141.91865,"zip":"0730171"},{"town":"空知太西一条五丁目","koaza":"","lat":43.53683,"lng":141.919648,"zip":"0730171"},{"town":"空知太西一条六丁目","koaza":"","lat":43.539879,"lng":141.920936,"zip":"0730171"},{"town":"空知太西一条七丁目","koaza":"","lat":43.541445,"lng":141.921549,"zip":"0730171"},{"town":"空知太西二条四丁目","koaza":"","lat":43.537181,"lng":141.917679,"zip":"0730172"},{"town":"空知太西二条五丁目","koaza":"","lat":43.5385,"lng":141.918849,"zip":"0730172"},{"town":"空知太西三条四丁目","koaza":"","lat":43.538322,"lng":141.916511,"zip":"0730173"},{"town":"空知太西三条五丁目","koaza":"","lat":43.539564,"lng":141.918235,"zip":"0730173"},{"town":"空知太西三条六丁目","koaza":"","lat":43.540791,"lng":141.919845,"zip":"0730173"},{"town":"空知太西四条四丁目","koaza":"","lat":43.53934,"lng":141.915404,"zip":"0730174"},{"town":"空知太西四条五丁目","koaza":"","lat":43.540448,"lng":141.917256,"zip":"0730174"},{"town":"空知太西四条六丁目","koaza":"","lat":43.541742,"lng":141.91943,"zip":"0730174"},{"town":"空知太西四条七丁目","koaza":"","lat":43.542862,"lng":141.92104,"zip":"0730174"},{"town":"空知太西五条四丁目","koaza":"","lat":43.540254,"lng":141.914438,"zip":"0730175"},{"town":"空知太西五条五丁目","koaza":"","lat":43.541343,"lng":141.916298,"zip":"0730175"},{"town":"空知太西五条六丁目","koaza":"","lat":43.542982,"lng":141.918455,"zip":"0730175"},{"town":"空知太西五条七丁目","koaza":"","lat":43.544006,"lng":141.920403,"zip":"0730175"},{"town":"空知太西五条八丁目","koaza":"","lat":43.544523,"lng":141.922423,"zip":"0730175"},{"town":"空知太西六条五丁目","koaza":"","lat":43.542967,"lng":141.915925,"zip":"0730176"},{"town":"空知太西六条六丁目","koaza":"","lat":43.54451,"lng":141.917069,"zip":"0730176"},{"town":"空知太西六条七丁目","koaza":"","lat":43.545602,"lng":141.9187,"zip":"0730176"},{"town":"空知太西六条八丁目","koaza":"","lat":43.546185,"lng":141.920863,"zip":"0730176"},{"town":"空知太東一条一丁目","koaza":"","lat":43.526185,"lng":141.918106,"zip":"0730101"},{"town":"空知太東一条二丁目","koaza":"","lat":43.52865,"lng":141.918681,"zip":"0730101"},{"town":"空知太東一条三丁目","koaza":"","lat":43.531794,"lng":141.919611,"zip":"0730101"},{"town":"空知太東一条四丁目","koaza":"","lat":43.534778,"lng":141.92066,"zip":"0730101"},{"town":"空知太東一条五丁目","koaza":"","lat":43.537022,"lng":141.921332,"zip":"0730101"},{"town":"空知太東一条六丁目","koaza":"","lat":43.539258,"lng":141.921977,"zip":"0730101"},{"town":"空知太東一条七丁目","koaza":"","lat":43.541906,"lng":141.923129,"zip":"0730101"},{"town":"空知太東二条一丁目","koaza":"","lat":43.525923,"lng":141.919743,"zip":"0730102"},{"town":"空知太東二条二丁目","koaza":"","lat":43.528189,"lng":141.920423,"zip":"0730102"},{"town":"空知太東二条三丁目","koaza":"","lat":43.531567,"lng":141.921601,"zip":"0730102"},{"town":"空知太東二条四丁目","koaza":"","lat":43.534473,"lng":141.922451,"zip":"0730102"},{"town":"空知太東二条五丁目","koaza":"","lat":43.536769,"lng":141.922941,"zip":"0730102"},{"town":"空知太東二条六丁目","koaza":"","lat":43.539016,"lng":141.923591,"zip":"0730102"},{"town":"空知太東三条一丁目","koaza":"","lat":43.525589,"lng":141.922062,"zip":"0730103"},{"town":"空知太東三条二丁目","koaza":"","lat":43.528063,"lng":141.922649,"zip":"0730103"},{"town":"空知太東三条三丁目","koaza":"","lat":43.530478,"lng":141.924947,"zip":"0730103"},{"town":"空知太東三条四丁目","koaza":"","lat":43.532769,"lng":141.923756,"zip":"0730103"},{"town":"空知太東三条五丁目","koaza":"","lat":43.535793,"lng":141.924533,"zip":"0730103"},{"town":"空知太東三条六丁目","koaza":"","lat":43.538518,"lng":141.926054,"zip":"0730103"},{"town":"空知太東四条一丁目","koaza":"","lat":43.525483,"lng":141.92454,"zip":"0730104"},{"town":"空知太東四条二丁目","koaza":"","lat":43.527342,"lng":141.924806,"zip":"0730104"},{"town":"空知太東四条四丁目","koaza":"","lat":43.53257,"lng":141.925501,"zip":"0730104"},{"town":"空知太東四条五丁目","koaza":"","lat":43.53545,"lng":141.926659,"zip":"0730104"},{"town":"空知太東五条四丁目","koaza":"","lat":43.532206,"lng":141.927301,"zip":"0730105"},{"town":"富平","koaza":"","lat":43.549259,"lng":141.948441,"zip":"0791181"},{"town":"豊沼町","koaza":"","lat":43.46585,"lng":141.891478,"zip":"0730138"},{"town":"西一条北十丁目","koaza":"","lat":43.502377,"lng":141.909334,"zip":"0730161"},{"town":"西一条北十一丁目","koaza":"","lat":43.504123,"lng":141.909948,"zip":"0730161"},{"town":"西一条北十二丁目","koaza":"","lat":43.505776,"lng":141.909931,"zip":"0730161"},{"town":"西一条北十三丁目","koaza":"","lat":43.507656,"lng":141.910086,"zip":"0730161"},{"town":"西一条北十四丁目","koaza":"","lat":43.509014,"lng":141.911973,"zip":"0730161"},{"town":"西一条北十五丁目","koaza":"","lat":43.510452,"lng":141.912349,"zip":"0730161"},{"town":"西一条北十六丁目","koaza":"","lat":43.512148,"lng":141.912772,"zip":"0730161"},{"town":"西一条北十七丁目","koaza":"","lat":43.51372,"lng":141.913313,"zip":"0730161"},{"town":"西一条北十八丁目","koaza":"","lat":43.515304,"lng":141.913577,"zip":"0730161"},{"town":"西一条北十九丁目","koaza":"","lat":43.51715,"lng":141.9143,"zip":"0730161"},{"town":"西一条北一丁目","koaza":"","lat":43.491579,"lng":141.906814,"zip":"0730161"},{"town":"西一条北二十丁目","koaza":"","lat":43.518919,"lng":141.91442,"zip":"0730161"},{"town":"西一条北二十一丁目","koaza":"","lat":43.520519,"lng":141.914862,"zip":"0730161"},{"town":"西一条北二十二丁目","koaza":"","lat":43.522106,"lng":141.915171,"zip":"0730161"},{"town":"西一条北二十三丁目","koaza":"","lat":43.524048,"lng":141.915906,"zip":"0730161"},{"town":"西一条北二十四丁目","koaza":"","lat":43.526086,"lng":141.915151,"zip":"0730161"},{"town":"西一条北二丁目","koaza":"","lat":43.492786,"lng":141.907173,"zip":"0730161"},{"town":"西一条北三丁目","koaza":"","lat":43.494014,"lng":141.90753,"zip":"0730161"},{"town":"西一条北四丁目","koaza":"","lat":43.495108,"lng":141.907843,"zip":"0730161"},{"town":"西一条北五丁目","koaza":"","lat":43.496259,"lng":141.908165,"zip":"0730161"},{"town":"西一条北六丁目","koaza":"","lat":43.497393,"lng":141.908477,"zip":"0730161"},{"town":"西一条北七丁目","koaza":"","lat":43.498498,"lng":141.908783,"zip":"0730161"},{"town":"西一条北八丁目","koaza":"","lat":43.499648,"lng":141.909108,"zip":"0730161"},{"town":"西一条北九丁目","koaza":"","lat":43.500692,"lng":141.909487,"zip":"0730161"},{"town":"西一条南十丁目","koaza":"","lat":43.479418,"lng":141.903138,"zip":"0730141"},{"town":"西一条南十一丁目","koaza":"","lat":43.477554,"lng":141.90258,"zip":"0730141"},{"town":"西一条南十二丁目","koaza":"","lat":43.475589,"lng":141.902003,"zip":"0730141"},{"town":"西一条南十三丁目","koaza":"","lat":43.473577,"lng":141.90141,"zip":"0730141"},{"town":"西一条南十四丁目","koaza":"","lat":43.472087,"lng":141.900961,"zip":"0730141"},{"town":"西一条南一丁目","koaza":"","lat":43.490604,"lng":141.906516,"zip":"0730141"},{"town":"西一条南二十一丁目","koaza":"","lat":43.460454,"lng":141.896235,"zip":"0730141"},{"town":"西一条南二十二丁目","koaza":"","lat":43.458076,"lng":141.895479,"zip":"0730141"},{"town":"西一条南二丁目","koaza":"","lat":43.489694,"lng":141.906242,"zip":"0730141"},{"town":"西一条南三丁目","koaza":"","lat":43.488859,"lng":141.906063,"zip":"0730141"},{"town":"西一条南四丁目","koaza":"","lat":43.487383,"lng":141.90515,"zip":"0730141"},{"town":"西一条南五丁目","koaza":"","lat":43.485572,"lng":141.905111,"zip":"0730141"},{"town":"西一条南六丁目","koaza":"","lat":43.484527,"lng":141.904713,"zip":"0730141"},{"town":"西一条南七丁目","koaza":"","lat":43.483424,"lng":141.904392,"zip":"0730141"},{"town":"西一条南八丁目","koaza":"","lat":43.482105,"lng":141.903644,"zip":"0730141"},{"town":"西一条南九丁目","koaza":"","lat":43.480916,"lng":141.903715,"zip":"0730141"},{"town":"西二条北十四丁目","koaza":"","lat":43.509106,"lng":141.910979,"zip":"0730162"},{"town":"西二条北十六丁目","koaza":"","lat":43.512286,"lng":141.911875,"zip":"0730162"},{"town":"西二条北十七丁目","koaza":"","lat":43.513824,"lng":141.912278,"zip":"0730162"},{"town":"西二条北十八丁目","koaza":"","lat":43.515476,"lng":141.912814,"zip":"0730162"},{"town":"西二条北十九丁目","koaza":"","lat":43.517528,"lng":141.913435,"zip":"0730162"},{"town":"西二条北一丁目","koaza":"","lat":43.491751,"lng":141.90603,"zip":"0730162"},{"town":"西二条北二十丁目","koaza":"","lat":43.518921,"lng":141.913204,"zip":"0730162"},{"town":"西二条北二十一丁目","koaza":"","lat":43.520701,"lng":141.913684,"zip":"0730162"},{"town":"西二条北二十二丁目","koaza":"","lat":43.522084,"lng":141.91409,"zip":"0730162"},{"town":"西二条北二十三丁目","koaza":"","lat":43.524233,"lng":141.913295,"zip":"0730162"},{"town":"西二条北二十四丁目","koaza":"","lat":43.526604,"lng":141.912044,"zip":"0730162"},{"town":"西二条北二丁目","koaza":"","lat":43.492778,"lng":141.906294,"zip":"0730162"},{"town":"西二条北三丁目","koaza":"","lat":43.494167,"lng":141.906757,"zip":"0730162"},{"town":"西二条北四丁目","koaza":"","lat":43.495224,"lng":141.907065,"zip":"0730162"},{"town":"西二条北五丁目","koaza":"","lat":43.496372,"lng":141.907395,"zip":"0730162"},{"town":"西二条北六丁目","koaza":"","lat":43.497502,"lng":141.907712,"zip":"0730162"},{"town":"西二条北七丁目","koaza":"","lat":43.49861,"lng":141.908018,"zip":"0730162"},{"town":"西二条北八丁目","koaza":"","lat":43.499696,"lng":141.908319,"zip":"0730162"},{"town":"西二条北九丁目","koaza":"","lat":43.500834,"lng":141.908638,"zip":"0730162"},{"town":"西二条南十丁目","koaza":"","lat":43.479597,"lng":141.902338,"zip":"0730142"},{"town":"西二条南十一丁目","koaza":"","lat":43.477676,"lng":141.901775,"zip":"0730142"},{"town":"西二条南十二丁目","koaza":"","lat":43.475706,"lng":141.901208,"zip":"0730142"},{"town":"西二条南十三丁目","koaza":"","lat":43.473694,"lng":141.900619,"zip":"0730142"},{"town":"西二条南十四丁目","koaza":"","lat":43.472207,"lng":141.90018,"zip":"0730142"},{"town":"西二条南一丁目","koaza":"","lat":43.49055,"lng":141.90574,"zip":"0730142"},{"town":"西二条南二丁目","koaza":"","lat":43.489788,"lng":141.905431,"zip":"0730142"},{"town":"西二条南三丁目","koaza":"","lat":43.488875,"lng":141.905163,"zip":"0730142"},{"town":"西二条南五丁目","koaza":"","lat":43.485804,"lng":141.904252,"zip":"0730142"},{"town":"西二条南六丁目","koaza":"","lat":43.484649,"lng":141.903913,"zip":"0730142"},{"town":"西二条南七丁目","koaza":"","lat":43.483596,"lng":141.903594,"zip":"0730142"},{"town":"西二条南八丁目","koaza":"","lat":43.482514,"lng":141.903274,"zip":"0730142"},{"town":"西二条南九丁目","koaza":"","lat":43.481049,"lng":141.902894,"zip":"0730142"},{"town":"西三条北十丁目","koaza":"","lat":43.504488,"lng":141.90651,"zip":"0730163"},{"town":"西三条北十四丁目","koaza":"","lat":43.509317,"lng":141.909971,"zip":"0730163"},{"town":"西三条北十五丁目","koaza":"","lat":43.510546,"lng":141.910843,"zip":"0730163"},{"town":"西三条北十六丁目","koaza":"","lat":43.512808,"lng":141.911225,"zip":"0730163"},{"town":"西三条北十七丁目","koaza":"","lat":43.51397,"lng":141.911039,"zip":"0730163"},{"town":"西三条北十八丁目","koaza":"","lat":43.515668,"lng":141.910862,"zip":"0730163"},{"town":"西三条北十九丁目","koaza":"","lat":43.517717,"lng":141.912214,"zip":"0730163"},{"town":"西三条北一丁目","koaza":"","lat":43.491921,"lng":141.905179,"zip":"0730163"},{"town":"西三条北二十丁目","koaza":"","lat":43.519106,"lng":141.912064,"zip":"0730163"},{"town":"西三条北二十一丁目","koaza":"","lat":43.520867,"lng":141.912657,"zip":"0730163"},{"town":"西三条北二十二丁目","koaza":"","lat":43.522247,"lng":141.913069,"zip":"0730163"},{"town":"西三条北二丁目","koaza":"","lat":43.493153,"lng":141.90563,"zip":"0730163"},{"town":"西三条北三丁目","koaza":"","lat":43.49429,"lng":141.905963,"zip":"0730163"},{"town":"西三条北四丁目","koaza":"","lat":43.495342,"lng":141.906273,"zip":"0730163"},{"town":"西三条北五丁目","koaza":"","lat":43.496488,"lng":141.906608,"zip":"0730163"},{"town":"西三条北六丁目","koaza":"","lat":43.497613,"lng":141.906933,"zip":"0730163"},{"town":"西三条北七丁目","koaza":"","lat":43.499265,"lng":141.906994,"zip":"0730163"},{"town":"西三条北九丁目","koaza":"","lat":43.501004,"lng":141.90668,"zip":"0730163"},{"town":"西三条南十丁目","koaza":"","lat":43.479681,"lng":141.901329,"zip":"0730143"},{"town":"西三条南十一丁目","koaza":"","lat":43.477829,"lng":141.900758,"zip":"0730143"},{"town":"西三条南十二丁目","koaza":"","lat":43.475858,"lng":141.900189,"zip":"0730143"},{"town":"西三条南十三丁目","koaza":"","lat":43.473842,"lng":141.899615,"zip":"0730143"},{"town":"西三条南十四丁目","koaza":"","lat":43.472354,"lng":141.899199,"zip":"0730143"},{"town":"西三条南一丁目","koaza":"","lat":43.490797,"lng":141.904919,"zip":"0730143"},{"town":"西三条南二十一丁目","koaza":"","lat":43.460976,"lng":141.892998,"zip":"0730143"},{"town":"西三条南二十二丁目","koaza":"","lat":43.458501,"lng":141.892895,"zip":"0730143"},{"town":"西三条南二丁目","koaza":"","lat":43.489911,"lng":141.904657,"zip":"0730143"},{"town":"西三条南三丁目","koaza":"","lat":43.488983,"lng":141.904444,"zip":"0730143"},{"town":"西三条南四丁目","koaza":"","lat":43.487561,"lng":141.904043,"zip":"0730143"},{"town":"西三条南五丁目","koaza":"","lat":43.485946,"lng":141.903708,"zip":"0730143"},{"town":"西三条南六丁目","koaza":"","lat":43.484728,"lng":141.903352,"zip":"0730143"},{"town":"西三条南七丁目","koaza":"","lat":43.483968,"lng":141.903117,"zip":"0730143"},{"town":"西三条南八丁目","koaza":"","lat":43.48274,"lng":141.902045,"zip":"0730143"},{"town":"西三条南九丁目","koaza":"","lat":43.48118,"lng":141.902136,"zip":"0730143"},{"town":"西四条北十四丁目","koaza":"","lat":43.509471,"lng":141.909125,"zip":"0730164"},{"town":"西四条北十五丁目","koaza":"","lat":43.51086,"lng":141.909544,"zip":"0730164"},{"town":"西四条北十六丁目","koaza":"","lat":43.5124,"lng":141.910449,"zip":"0730164"},{"town":"西四条北十七丁目","koaza":"","lat":43.513694,"lng":141.909742,"zip":"0730164"},{"town":"西四条北十八丁目","koaza":"","lat":43.514788,"lng":141.909039,"zip":"0730164"},{"town":"西四条北十九丁目","koaza":"","lat":43.518014,"lng":141.910765,"zip":"0730164"},{"town":"西四条北一丁目","koaza":"","lat":43.492235,"lng":141.904146,"zip":"0730164"},{"town":"西四条北二十丁目","koaza":"","lat":43.519474,"lng":141.910852,"zip":"0730164"},{"town":"西四条北二十一丁目","koaza":"","lat":43.521091,"lng":141.911273,"zip":"0730164"},{"town":"西四条北二十二丁目","koaza":"","lat":43.522467,"lng":141.911681,"zip":"0730164"},{"town":"西四条北二丁目","koaza":"","lat":43.493365,"lng":141.904713,"zip":"0730164"},{"town":"西四条北三丁目","koaza":"","lat":43.494402,"lng":141.905195,"zip":"0730164"},{"town":"西四条北四丁目","koaza":"","lat":43.495457,"lng":141.9055,"zip":"0730164"},{"town":"西四条北五丁目","koaza":"","lat":43.496606,"lng":141.905834,"zip":"0730164"},{"town":"西四条北六丁目","koaza":"","lat":43.497728,"lng":141.906161,"zip":"0730164"},{"town":"西四条南十丁目","koaza":"","lat":43.480384,"lng":141.901172,"zip":"0730144"},{"town":"西四条南一丁目","koaza":"","lat":43.490871,"lng":141.903833,"zip":"0730144"},{"town":"西四条南二十二丁目","koaza":"","lat":43.45954,"lng":141.891411,"zip":"0730144"},{"town":"西四条南二丁目","koaza":"","lat":43.490013,"lng":141.903599,"zip":"0730144"},{"town":"西四条南三丁目","koaza":"","lat":43.48907,"lng":141.90362,"zip":"0730144"},{"town":"西四条南四丁目","koaza":"","lat":43.48764,"lng":141.903433,"zip":"0730144"},{"town":"西四条南五丁目","koaza":"","lat":43.486082,"lng":141.903251,"zip":"0730144"},{"town":"西四条南六丁目","koaza":"","lat":43.484931,"lng":141.90274,"zip":"0730144"},{"town":"西四条南七丁目","koaza":"","lat":43.484094,"lng":141.902286,"zip":"0730144"},{"town":"西四条南九丁目","koaza":"","lat":43.481305,"lng":141.901439,"zip":"0730144"},{"town":"西五条北十三丁目","koaza":"","lat":43.508485,"lng":141.906345,"zip":"0730165"},{"town":"西五条北十四丁目","koaza":"","lat":43.509625,"lng":141.908145,"zip":"0730165"},{"town":"西五条北十五丁目","koaza":"","lat":43.511098,"lng":141.908566,"zip":"0730165"},{"town":"西五条北十六丁目","koaza":"","lat":43.512797,"lng":141.90917,"zip":"0730165"},{"town":"西五条北二十丁目","koaza":"","lat":43.520248,"lng":141.909876,"zip":"0730165"},{"town":"西五条北二十一丁目","koaza":"","lat":43.521347,"lng":141.909696,"zip":"0730165"},{"town":"西五条北二十二丁目","koaza":"","lat":43.522729,"lng":141.909997,"zip":"0730165"},{"town":"西五条北二十三丁目","koaza":"","lat":43.524671,"lng":141.91059,"zip":"0730165"},{"town":"西五条北二丁目","koaza":"","lat":43.493511,"lng":141.903973,"zip":"0730165"},{"town":"西五条北三丁目","koaza":"","lat":43.494513,"lng":141.904415,"zip":"0730165"},{"town":"西五条北四丁目","koaza":"","lat":43.495577,"lng":141.904695,"zip":"0730165"},{"town":"西五条北五丁目","koaza":"","lat":43.496729,"lng":141.905006,"zip":"0730165"},{"town":"西五条北六丁目","koaza":"","lat":43.497853,"lng":141.90532,"zip":"0730165"},{"town":"西五条北七丁目","koaza":"","lat":43.498999,"lng":141.905636,"zip":"0730165"},{"town":"西五条北八丁目","koaza":"","lat":43.499888,"lng":141.905874,"zip":"0730165"},{"town":"西五条南十丁目","koaza":"","lat":43.479907,"lng":141.900112,"zip":"0730145"},{"town":"西五条南十一丁目","koaza":"","lat":43.477979,"lng":141.899758,"zip":"0730145"},{"town":"西五条南二十一丁目","koaza":"","lat":43.462291,"lng":141.891315,"zip":"0730145"},{"town":"西五条南二十二丁目","koaza":"","lat":43.459656,"lng":141.890047,"zip":"0730145"},{"town":"西五条南八丁目","koaza":"","lat":43.482807,"lng":141.900323,"zip":"0730145"},{"town":"西五条南九丁目","koaza":"","lat":43.481618,"lng":141.900605,"zip":"0730145"},{"town":"西六条北十四丁目","koaza":"","lat":43.509791,"lng":141.906765,"zip":"0730166"},{"town":"西六条北十五丁目","koaza":"","lat":43.511187,"lng":141.907125,"zip":"0730166"},{"town":"西六条北十六丁目","koaza":"","lat":43.513338,"lng":141.908366,"zip":"0730166"},{"town":"西六条北二十一丁目","koaza":"","lat":43.522038,"lng":141.908355,"zip":"0730166"},{"town":"西六条北二十二丁目","koaza":"","lat":43.524133,"lng":141.908667,"zip":"0730166"},{"town":"西六条北二十三丁目","koaza":"","lat":43.52795,"lng":141.90749,"zip":"0730166"},{"town":"西六条北二十四丁目","koaza":"","lat":43.528251,"lng":141.910601,"zip":"0730166"},{"town":"西六条北二丁目","koaza":"","lat":43.493577,"lng":141.90334,"zip":"0730166"},{"town":"西六条北三丁目","koaza":"","lat":43.494637,"lng":141.903622,"zip":"0730166"},{"town":"西六条北四丁目","koaza":"","lat":43.495702,"lng":141.9039,"zip":"0730166"},{"town":"西六条北五丁目","koaza":"","lat":43.49685,"lng":141.904203,"zip":"0730166"},{"town":"西六条北六丁目","koaza":"","lat":43.497976,"lng":141.904501,"zip":"0730166"},{"town":"西六条北七丁目","koaza":"","lat":43.499122,"lng":141.904812,"zip":"0730166"},{"town":"西六条北八丁目","koaza":"","lat":43.499907,"lng":141.905025,"zip":"0730166"},{"town":"西六条南十一丁目","koaza":"","lat":43.478333,"lng":141.898906,"zip":"0730146"},{"town":"西六条南十二丁目","koaza":"","lat":43.476262,"lng":141.89879,"zip":"0730146"},{"town":"西六条南十三丁目","koaza":"","lat":43.474065,"lng":141.898109,"zip":"0730146"},{"town":"西六条南十四丁目","koaza":"","lat":43.47258,"lng":141.897693,"zip":"0730146"},{"town":"西六条南二十二丁目","koaza":"","lat":43.459796,"lng":141.889163,"zip":"0730146"},{"town":"西七条北十四丁目","koaza":"","lat":43.509853,"lng":141.905584,"zip":"0730167"},{"town":"西七条北十五丁目","koaza":"","lat":43.51119,"lng":141.906028,"zip":"0730167"},{"town":"西七条北二十二丁目","koaza":"","lat":43.524803,"lng":141.906468,"zip":"0730167"},{"town":"西七条北二十三丁目","koaza":"","lat":43.526764,"lng":141.906892,"zip":"0730167"},{"town":"西七条北二十四丁目","koaza":"","lat":43.53046,"lng":141.908833,"zip":"0730167"},{"town":"西七条北二丁目","koaza":"","lat":43.493769,"lng":141.902621,"zip":"0730167"},{"town":"西七条北三丁目","koaza":"","lat":43.494758,"lng":141.902885,"zip":"0730167"},{"town":"西七条北四丁目","koaza":"","lat":43.495819,"lng":141.903158,"zip":"0730167"},{"town":"西七条北五丁目","koaza":"","lat":43.496961,"lng":141.903458,"zip":"0730167"},{"town":"西七条北六丁目","koaza":"","lat":43.498222,"lng":141.903133,"zip":"0730167"},{"town":"西七条北七丁目","koaza":"","lat":43.499663,"lng":141.90408,"zip":"0730167"},{"town":"西七条北九丁目","koaza":"","lat":43.50174,"lng":141.90462,"zip":"0730167"},{"town":"西七条南十一丁目","koaza":"","lat":43.478152,"lng":141.897112,"zip":"0730147"},{"town":"西七条南十二丁目","koaza":"","lat":43.476384,"lng":141.896438,"zip":"0730147"},{"town":"西七条南十三丁目","koaza":"","lat":43.474354,"lng":141.896681,"zip":"0730147"},{"town":"西七条南十四丁目","koaza":"","lat":43.473236,"lng":141.895827,"zip":"0730147"},{"town":"西七条南二十二丁目","koaza":"","lat":43.460156,"lng":141.888142,"zip":"0730147"},{"town":"西八条北十四丁目","koaza":"","lat":43.509915,"lng":141.904998,"zip":"0730168"},{"town":"西八条北十五丁目","koaza":"","lat":43.511195,"lng":141.905402,"zip":"0730168"},{"town":"西八条北二十二丁目","koaza":"","lat":43.526303,"lng":141.904427,"zip":"0730168"},{"town":"西八条北二十三丁目","koaza":"","lat":43.528282,"lng":141.905252,"zip":"0730168"},{"town":"西八条北二十四丁目","koaza":"","lat":43.531395,"lng":141.9066,"zip":"0730168"},{"town":"西八条北二丁目","koaza":"","lat":43.493836,"lng":141.901832,"zip":"0730168"},{"town":"西八条北三丁目","koaza":"","lat":43.494911,"lng":141.901993,"zip":"0730168"},{"town":"西八条北四丁目","koaza":"","lat":43.495973,"lng":141.902282,"zip":"0730168"},{"town":"西八条北五丁目","koaza":"","lat":43.497095,"lng":141.902593,"zip":"0730168"},{"town":"西九条北三丁目","koaza":"","lat":43.495303,"lng":141.900056,"zip":"0730100"},{"town":"西九条北四丁目","koaza":"","lat":43.496318,"lng":141.900179,"zip":"0730100"},{"town":"西九条北五丁目","koaza":"","lat":43.497419,"lng":141.900202,"zip":"0730100"},{"town":"西九条北六丁目","koaza":"","lat":43.498293,"lng":141.90034,"zip":"0730100"},{"town":"西豊沼","koaza":"","lat":43.473794,"lng":141.882103,"zip":"0730148"},{"town":"晴見一条北十丁目","koaza":"","lat":43.500817,"lng":141.919075,"zip":"0730111"},{"town":"晴見一条北十一丁目","koaza":"","lat":43.502431,"lng":141.920604,"zip":"0730111"},{"town":"晴見一条北五丁目","koaza":"","lat":43.495364,"lng":141.918019,"zip":"0730111"},{"town":"晴見一条北六丁目","koaza":"","lat":43.49621,"lng":141.918129,"zip":"0730111"},{"town":"晴見一条北七丁目","koaza":"","lat":43.497454,"lng":141.918332,"zip":"0730111"},{"town":"晴見一条北八丁目","koaza":"","lat":43.498668,"lng":141.91858,"zip":"0730111"},{"town":"晴見一条北九丁目","koaza":"","lat":43.499495,"lng":141.918735,"zip":"0730111"},{"town":"晴見二条北十丁目","koaza":"","lat":43.500629,"lng":141.92267,"zip":"0730112"},{"town":"晴見二条北五丁目","koaza":"","lat":43.494867,"lng":141.921413,"zip":"0730112"},{"town":"晴見二条北六丁目","koaza":"","lat":43.495602,"lng":141.920979,"zip":"0730112"},{"town":"晴見二条北七丁目","koaza":"","lat":43.496766,"lng":141.921846,"zip":"0730112"},{"town":"晴見二条北八丁目","koaza":"","lat":43.497902,"lng":141.922783,"zip":"0730112"},{"town":"晴見二条北九丁目","koaza":"","lat":43.499143,"lng":141.921549,"zip":"0730112"},{"town":"晴見三条北十丁目","koaza":"","lat":43.499923,"lng":141.926028,"zip":"0730113"},{"town":"晴見三条北八丁目","koaza":"","lat":43.497728,"lng":141.925092,"zip":"0730113"},{"town":"晴見三条北九丁目","koaza":"","lat":43.498661,"lng":141.925003,"zip":"0730113"},{"town":"晴見四条北十丁目","koaza":"","lat":43.499105,"lng":141.928261,"zip":"0730114"},{"town":"晴見四条北八丁目","koaza":"","lat":43.497328,"lng":141.927585,"zip":"0730114"},{"town":"晴見四条北九丁目","koaza":"","lat":43.498199,"lng":141.927818,"zip":"0730114"},{"town":"東一条北十丁目","koaza":"","lat":43.501993,"lng":141.911139,"zip":"0730151"},{"town":"東一条北十一丁目","koaza":"","lat":43.503611,"lng":141.911615,"zip":"0730151"},{"town":"東一条北十二丁目","koaza":"","lat":43.505421,"lng":141.912023,"zip":"0730151"},{"town":"東一条北十三丁目","koaza":"","lat":43.507426,"lng":141.912494,"zip":"0730151"},{"town":"東一条北十四丁目","koaza":"","lat":43.508914,"lng":141.912761,"zip":"0730151"},{"town":"東一条北十五丁目","koaza":"","lat":43.510202,"lng":141.913119,"zip":"0730151"},{"town":"東一条北十六丁目","koaza":"","lat":43.512148,"lng":141.91372,"zip":"0730151"},{"town":"東一条北十七丁目","koaza":"","lat":43.513378,"lng":141.914014,"zip":"0730151"},{"town":"東一条北十八丁目","koaza":"","lat":43.514888,"lng":141.914361,"zip":"0730151"},{"town":"東一条北十九丁目","koaza":"","lat":43.516886,"lng":141.915559,"zip":"0730151"},{"town":"東一条北一丁目","koaza":"","lat":43.491387,"lng":141.907628,"zip":"0730151"},{"town":"東一条北二十丁目","koaza":"","lat":43.518537,"lng":141.916034,"zip":"0730151"},{"town":"東一条北二十一丁目","koaza":"","lat":43.520276,"lng":141.916524,"zip":"0730151"},{"town":"東一条北二十二丁目","koaza":"","lat":43.52197,"lng":141.917084,"zip":"0730151"},{"town":"東一条北二十三丁目","koaza":"","lat":43.523904,"lng":141.917119,"zip":"0730151"},{"town":"東一条北二丁目","koaza":"","lat":43.492669,"lng":141.908014,"zip":"0730151"},{"town":"東一条北三丁目","koaza":"","lat":43.494022,"lng":141.908414,"zip":"0730151"},{"town":"東一条北四丁目","koaza":"","lat":43.494981,"lng":141.90869,"zip":"0730151"},{"town":"東一条北五丁目","koaza":"","lat":43.496014,"lng":141.909086,"zip":"0730151"},{"town":"東一条北六丁目","koaza":"","lat":43.497253,"lng":141.909358,"zip":"0730151"},{"town":"東一条北七丁目","koaza":"","lat":43.498368,"lng":141.909694,"zip":"0730151"},{"town":"東一条北八丁目","koaza":"","lat":43.499565,"lng":141.910043,"zip":"0730151"},{"town":"東一条北九丁目","koaza":"","lat":43.500712,"lng":141.910367,"zip":"0730151"},{"town":"東一条南十丁目","koaza":"","lat":43.479324,"lng":141.904024,"zip":"0730131"},{"town":"東一条南十一丁目","koaza":"","lat":43.477579,"lng":141.903832,"zip":"0730131"},{"town":"東一条南十二丁目","koaza":"","lat":43.475468,"lng":141.903187,"zip":"0730131"},{"town":"東一条南十三丁目","koaza":"","lat":43.473432,"lng":141.902369,"zip":"0730131"},{"town":"東一条南十四丁目","koaza":"","lat":43.471933,"lng":141.901933,"zip":"0730131"},{"town":"東一条南十五丁目","koaza":"","lat":43.470342,"lng":141.90179,"zip":"0730131"},{"town":"東一条南十六丁目","koaza":"","lat":43.4687,"lng":141.901314,"zip":"0730131"},{"town":"東一条南十七丁目","koaza":"","lat":43.467257,"lng":141.900981,"zip":"0730131"},{"town":"東一条南十八丁目","koaza":"","lat":43.46543,"lng":141.900199,"zip":"0730131"},{"town":"東一条南十九丁目","koaza":"","lat":43.463889,"lng":141.899741,"zip":"0730131"},{"town":"東一条南一丁目","koaza":"","lat":43.490464,"lng":141.907354,"zip":"0730131"},{"town":"東一条南二十丁目","koaza":"","lat":43.462354,"lng":141.899282,"zip":"0730131"},{"town":"東一条南二十一丁目","koaza":"","lat":43.460579,"lng":141.898728,"zip":"0730131"},{"town":"東一条南二十二丁目","koaza":"","lat":43.458277,"lng":141.898008,"zip":"0730131"},{"town":"東一条南二丁目","koaza":"","lat":43.489563,"lng":141.907088,"zip":"0730131"},{"town":"東一条南三丁目","koaza":"","lat":43.488618,"lng":141.906802,"zip":"0730131"},{"town":"東一条南四丁目","koaza":"","lat":43.487207,"lng":141.906373,"zip":"0730131"},{"town":"東一条南五丁目","koaza":"","lat":43.485708,"lng":141.905939,"zip":"0730131"},{"town":"東一条南六丁目","koaza":"","lat":43.484582,"lng":141.905537,"zip":"0730131"},{"town":"東一条南七丁目","koaza":"","lat":43.483391,"lng":141.905322,"zip":"0730131"},{"town":"東一条南八丁目","koaza":"","lat":43.481981,"lng":141.904825,"zip":"0730131"},{"town":"東一条南九丁目","koaza":"","lat":43.480794,"lng":141.904474,"zip":"0730131"},{"town":"東二条北一丁目","koaza":"","lat":43.491123,"lng":141.908482,"zip":"0730152"},{"town":"東二条北二丁目","koaza":"","lat":43.492418,"lng":141.908995,"zip":"0730152"},{"town":"東二条北三丁目","koaza":"","lat":43.493874,"lng":141.909352,"zip":"0730152"},{"town":"東二条北四丁目","koaza":"","lat":43.494869,"lng":141.90965,"zip":"0730152"},{"town":"東二条北五丁目","koaza":"","lat":43.495941,"lng":141.909976,"zip":"0730152"},{"town":"東二条北六丁目","koaza":"","lat":43.496895,"lng":141.910716,"zip":"0730152"},{"town":"東二条北七丁目","koaza":"","lat":43.498161,"lng":141.911122,"zip":"0730152"},{"town":"東二条北八丁目","koaza":"","lat":43.499466,"lng":141.911302,"zip":"0730152"},{"town":"東二条北九丁目","koaza":"","lat":43.500635,"lng":141.911553,"zip":"0730152"},{"town":"東二条南十丁目","koaza":"","lat":43.479224,"lng":141.904687,"zip":"0730132"},{"town":"東二条南一丁目","koaza":"","lat":43.490323,"lng":141.908249,"zip":"0730132"},{"town":"東二条南二丁目","koaza":"","lat":43.489417,"lng":141.907975,"zip":"0730132"},{"town":"東二条南三丁目","koaza":"","lat":43.488538,"lng":141.907594,"zip":"0730132"},{"town":"東二条南四丁目","koaza":"","lat":43.487095,"lng":141.907166,"zip":"0730132"},{"town":"東二条南五丁目","koaza":"","lat":43.485602,"lng":141.906685,"zip":"0730132"},{"town":"東二条南六丁目","koaza":"","lat":43.484244,"lng":141.906163,"zip":"0730132"},{"town":"東二条南七丁目","koaza":"","lat":43.483096,"lng":141.905872,"zip":"0730132"},{"town":"東二条南八丁目","koaza":"","lat":43.481881,"lng":141.905496,"zip":"0730132"},{"town":"東二条南九丁目","koaza":"","lat":43.480693,"lng":141.905133,"zip":"0730132"},{"town":"東三条北一丁目","koaza":"","lat":43.49149,"lng":141.909389,"zip":"0730153"},{"town":"東三条南十丁目","koaza":"","lat":43.479073,"lng":141.905698,"zip":"0730133"},{"town":"東三条南十一丁目","koaza":"","lat":43.477175,"lng":141.90512,"zip":"0730133"},{"town":"東三条南十二丁目","koaza":"","lat":43.475068,"lng":141.904486,"zip":"0730133"},{"town":"東三条南十三丁目","koaza":"","lat":43.473258,"lng":141.903814,"zip":"0730133"},{"town":"東三条南十四丁目","koaza":"","lat":43.471679,"lng":141.903891,"zip":"0730133"},{"town":"東三条南十五丁目","koaza":"","lat":43.470604,"lng":141.903064,"zip":"0730133"},{"town":"東三条南十六丁目","koaza":"","lat":43.468841,"lng":141.902681,"zip":"0730133"},{"town":"東三条南十七丁目","koaza":"","lat":43.467079,"lng":141.902166,"zip":"0730133"},{"town":"東三条南十八丁目","koaza":"","lat":43.465409,"lng":141.901508,"zip":"0730133"},{"town":"東三条南十九丁目","koaza":"","lat":43.463886,"lng":141.900791,"zip":"0730133"},{"town":"東三条南一丁目","koaza":"","lat":43.489783,"lng":141.909094,"zip":"0730133"},{"town":"東三条南二十丁目","koaza":"","lat":43.462146,"lng":141.900558,"zip":"0730133"},{"town":"東三条南二十一丁目","koaza":"","lat":43.46064,"lng":141.899941,"zip":"0730133"},{"town":"東三条南二十二丁目","koaza":"","lat":43.458269,"lng":141.899382,"zip":"0730133"},{"town":"東三条南三丁目","koaza":"","lat":43.488393,"lng":141.908871,"zip":"0730133"},{"town":"東三条南四丁目","koaza":"","lat":43.487006,"lng":141.90838,"zip":"0730133"},{"town":"東三条南五丁目","koaza":"","lat":43.485461,"lng":141.907643,"zip":"0730133"},{"town":"東三条南六丁目","koaza":"","lat":43.484173,"lng":141.907229,"zip":"0730133"},{"town":"東三条南七丁目","koaza":"","lat":43.482979,"lng":141.906871,"zip":"0730133"},{"town":"東三条南八丁目","koaza":"","lat":43.481757,"lng":141.906505,"zip":"0730133"},{"town":"東三条南九丁目","koaza":"","lat":43.480544,"lng":141.906138,"zip":"0730133"},{"town":"東四条北十丁目","koaza":"","lat":43.501759,"lng":141.913235,"zip":"0730154"},{"town":"東四条北十一丁目","koaza":"","lat":43.503418,"lng":141.913639,"zip":"0730154"},{"town":"東四条北五丁目","koaza":"","lat":43.496419,"lng":141.911972,"zip":"0730154"},{"town":"東四条北六丁目","koaza":"","lat":43.497259,"lng":141.91213,"zip":"0730154"},{"town":"東四条北七丁目","koaza":"","lat":43.498113,"lng":141.912397,"zip":"0730154"},{"town":"東四条北八丁目","koaza":"","lat":43.499129,"lng":141.912572,"zip":"0730154"},{"town":"東四条北九丁目","koaza":"","lat":43.500371,"lng":141.912827,"zip":"0730154"},{"town":"東四条南十丁目","koaza":"","lat":43.478902,"lng":141.906807,"zip":"0730134"},{"town":"東四条南十一丁目","koaza":"","lat":43.477004,"lng":141.906255,"zip":"0730134"},{"town":"東四条南十二丁目","koaza":"","lat":43.474972,"lng":141.905664,"zip":"0730134"},{"town":"東四条南十三丁目","koaza":"","lat":43.472967,"lng":141.905144,"zip":"0730134"},{"town":"東四条南十四丁目","koaza":"","lat":43.471524,"lng":141.90469,"zip":"0730134"},{"town":"東四条南十五丁目","koaza":"","lat":43.470211,"lng":141.903986,"zip":"0730134"},{"town":"東四条南十六丁目","koaza":"","lat":43.468569,"lng":141.903614,"zip":"0730134"},{"town":"東四条南十七丁目","koaza":"","lat":43.466953,"lng":141.90314,"zip":"0730134"},{"town":"東四条南十八丁目","koaza":"","lat":43.465042,"lng":141.9025,"zip":"0730134"},{"town":"東四条南十九丁目","koaza":"","lat":43.463766,"lng":141.901936,"zip":"0730134"},{"town":"東四条南二十丁目","koaza":"","lat":43.461981,"lng":141.901386,"zip":"0730134"},{"town":"東四条南二十一丁目","koaza":"","lat":43.460065,"lng":141.900948,"zip":"0730134"},{"town":"東四条南二十二丁目","koaza":"","lat":43.457808,"lng":141.901964,"zip":"0730134"},{"town":"東四条南三丁目","koaza":"","lat":43.488178,"lng":141.9102,"zip":"0730134"},{"town":"東四条南四丁目","koaza":"","lat":43.486667,"lng":141.909962,"zip":"0730134"},{"town":"東四条南五丁目","koaza":"","lat":43.485434,"lng":141.908711,"zip":"0730134"},{"town":"東四条南六丁目","koaza":"","lat":43.484008,"lng":141.908299,"zip":"0730134"},{"town":"東四条南七丁目","koaza":"","lat":43.482842,"lng":141.907965,"zip":"0730134"},{"town":"東四条南八丁目","koaza":"","lat":43.481607,"lng":141.907602,"zip":"0730134"},{"town":"東四条南九丁目","koaza":"","lat":43.480275,"lng":141.907297,"zip":"0730134"},{"town":"東五条北十丁目","koaza":"","lat":43.501345,"lng":141.915368,"zip":"0730155"},{"town":"東五条北五丁目","koaza":"","lat":43.496245,"lng":141.913063,"zip":"0730155"},{"town":"東五条北六丁目","koaza":"","lat":43.497031,"lng":141.913279,"zip":"0730155"},{"town":"東五条北七丁目","koaza":"","lat":43.498255,"lng":141.913487,"zip":"0730155"},{"town":"東五条北八丁目","koaza":"","lat":43.49928,"lng":141.914182,"zip":"0730155"},{"town":"東五条北九丁目","koaza":"","lat":43.500171,"lng":141.914331,"zip":"0730155"},{"town":"東五条南十丁目","koaza":"","lat":43.478919,"lng":141.908097,"zip":"0730135"},{"town":"東五条南十一丁目","koaza":"","lat":43.476774,"lng":141.907482,"zip":"0730135"},{"town":"東五条南十二丁目","koaza":"","lat":43.474577,"lng":141.907024,"zip":"0730135"},{"town":"東五条南十三丁目","koaza":"","lat":43.472895,"lng":141.906369,"zip":"0730135"},{"town":"東五条南十四丁目","koaza":"","lat":43.47173,"lng":141.90604,"zip":"0730135"},{"town":"東五条南十五丁目","koaza":"","lat":43.469972,"lng":141.906709,"zip":"0730135"},{"town":"東五条南十六丁目","koaza":"","lat":43.46825,"lng":141.905749,"zip":"0730135"},{"town":"東五条南十七丁目","koaza":"","lat":43.466654,"lng":141.904941,"zip":"0730135"},{"town":"東五条南十八丁目","koaza":"","lat":43.464843,"lng":141.904754,"zip":"0730135"},{"town":"東五条南十九丁目","koaza":"","lat":43.463324,"lng":141.9043,"zip":"0730135"},{"town":"東五条南二十丁目","koaza":"","lat":43.461591,"lng":141.903779,"zip":"0730135"},{"town":"東五条南二十一丁目","koaza":"","lat":43.459288,"lng":141.903136,"zip":"0730135"},{"town":"東五条南三丁目","koaza":"","lat":43.488034,"lng":141.911258,"zip":"0730135"},{"town":"東五条南四丁目","koaza":"","lat":43.486518,"lng":141.91106,"zip":"0730135"},{"town":"東五条南五丁目","koaza":"","lat":43.485146,"lng":141.909965,"zip":"0730135"},{"town":"東五条南六丁目","koaza":"","lat":43.483885,"lng":141.909341,"zip":"0730135"},{"town":"東五条南七丁目","koaza":"","lat":43.482696,"lng":141.908981,"zip":"0730135"},{"town":"東五条南八丁目","koaza":"","lat":43.481441,"lng":141.908604,"zip":"0730135"},{"town":"東五条南九丁目","koaza":"","lat":43.480336,"lng":141.908581,"zip":"0730135"},{"town":"東六条北十丁目","koaza":"","lat":43.501149,"lng":141.916603,"zip":"0730156"},{"town":"東六条北十一丁目","koaza":"","lat":43.502977,"lng":141.916023,"zip":"0730156"},{"town":"東六条北五丁目","koaza":"","lat":43.496012,"lng":141.914837,"zip":"0730156"},{"town":"東六条北六丁目","koaza":"","lat":43.496991,"lng":141.914846,"zip":"0730156"},{"town":"東六条北七丁目","koaza":"","lat":43.49812,"lng":141.915097,"zip":"0730156"},{"town":"東六条北八丁目","koaza":"","lat":43.49913,"lng":141.915673,"zip":"0730156"},{"town":"東六条北九丁目","koaza":"","lat":43.500009,"lng":141.915914,"zip":"0730156"},{"town":"東六条南十丁目","koaza":"","lat":43.47768,"lng":141.909426,"zip":"0730136"},{"town":"東六条南十一丁目","koaza":"","lat":43.476241,"lng":141.909008,"zip":"0730136"},{"town":"東六条南十二丁目","koaza":"","lat":43.474605,"lng":141.908535,"zip":"0730136"},{"town":"東六条南十三丁目","koaza":"","lat":43.473107,"lng":141.908099,"zip":"0730136"},{"town":"東六条南十四丁目","koaza":"","lat":43.47162,"lng":141.907748,"zip":"0730136"},{"town":"東六条南三丁目","koaza":"","lat":43.487628,"lng":141.91264,"zip":"0730136"},{"town":"東六条南五丁目","koaza":"","lat":43.484843,"lng":141.910941,"zip":"0730136"},{"town":"東六条南六丁目","koaza":"","lat":43.483743,"lng":141.91049,"zip":"0730136"},{"town":"東六条南七丁目","koaza":"","lat":43.482464,"lng":141.910232,"zip":"0730136"},{"town":"東六条南八丁目","koaza":"","lat":43.481263,"lng":141.909876,"zip":"0730136"},{"town":"東六条南九丁目","koaza":"","lat":43.479654,"lng":141.909873,"zip":"0730136"},{"town":"東七条南四丁目","koaza":"","lat":43.485923,"lng":141.912257,"zip":"0730137"},{"town":"東七条南五丁目","koaza":"","lat":43.484755,"lng":141.911982,"zip":"0730137"},{"town":"東七条南六丁目","koaza":"","lat":43.483522,"lng":141.911605,"zip":"0730137"},{"town":"東七条南七丁目","koaza":"","lat":43.482141,"lng":141.911194,"zip":"0730137"},{"town":"東七条南八丁目","koaza":"","lat":43.481009,"lng":141.91087,"zip":"0730137"},{"town":"東豊沼","koaza":"","lat":43.465597,"lng":141.921096,"zip":"0730126"},{"town":"日の出一条南十丁目","koaza":"","lat":43.477434,"lng":141.911539,"zip":"0730127"},{"town":"日の出一条南十一丁目","koaza":"","lat":43.476149,"lng":141.911088,"zip":"0730127"},{"town":"日の出一条南十二丁目","koaza":"","lat":43.474035,"lng":141.909778,"zip":"0730127"},{"town":"日の出一条南九丁目","koaza":"","lat":43.47892,"lng":141.912729,"zip":"0730127"},{"town":"日の出二条南九丁目","koaza":"","lat":43.479168,"lng":141.915028,"zip":"0730100"},{"town":"北光","koaza":"","lat":43.517071,"lng":141.93261,"zip":"0730108"},{"town":"三砂町","koaza":"","lat":43.491953,"lng":141.912183,"zip":"0730157"},{"town":"南吉野町","koaza":"","lat":43.484409,"lng":141.930193,"zip":"0730117"},{"town":"宮城の沢","koaza":"","lat":43.466289,"lng":141.953079,"zip":"0730125"},{"town":"焼山","koaza":"","lat":43.498496,"lng":141.954425,"zip":"0730115"},{"town":"吉野一条北一丁目","koaza":"","lat":43.490915,"lng":141.915935,"zip":"0730158"},{"town":"吉野一条北二丁目","koaza":"","lat":43.49169,"lng":141.917052,"zip":"0730158"},{"town":"吉野一条北三丁目","koaza":"","lat":43.492795,"lng":141.916491,"zip":"0730158"},{"town":"吉野一条北四丁目","koaza":"","lat":43.494076,"lng":141.91819,"zip":"0730158"},{"town":"吉野一条南一丁目","koaza":"","lat":43.489042,"lng":141.91539,"zip":"0730121"},{"town":"吉野一条南二丁目","koaza":"","lat":43.487773,"lng":141.914692,"zip":"0730121"},{"town":"吉野一条南三丁目","koaza":"","lat":43.486862,"lng":141.914179,"zip":"0730121"},{"town":"吉野一条南四丁目","koaza":"","lat":43.4856,"lng":141.914409,"zip":"0730121"},{"town":"吉野一条南五丁目","koaza":"","lat":43.484414,"lng":141.914046,"zip":"0730121"},{"town":"吉野一条南六丁目","koaza":"","lat":43.483216,"lng":141.913672,"zip":"0730121"},{"town":"吉野一条南七丁目","koaza":"","lat":43.481977,"lng":141.913737,"zip":"0730121"},{"town":"吉野一条南八丁目","koaza":"","lat":43.480937,"lng":141.913028,"zip":"0730121"},{"town":"吉野二条北一丁目","koaza":"","lat":43.490235,"lng":141.919327,"zip":"0730159"},{"town":"吉野二条北二丁目","koaza":"","lat":43.491252,"lng":141.91963,"zip":"0730159"},{"town":"吉野二条北三丁目","koaza":"","lat":43.492279,"lng":141.919935,"zip":"0730159"},{"town":"吉野二条北四丁目","koaza":"","lat":43.49361,"lng":141.920411,"zip":"0730159"},{"town":"吉野二条南一丁目","koaza":"","lat":43.488608,"lng":141.918845,"zip":"0730122"},{"town":"吉野二条南二丁目","koaza":"","lat":43.487332,"lng":141.916871,"zip":"0730122"},{"town":"吉野二条南三丁目","koaza":"","lat":43.48707,"lng":141.918451,"zip":"0730122"},{"town":"吉野二条南四丁目","koaza":"","lat":43.485484,"lng":141.917621,"zip":"0730122"},{"town":"吉野二条南五丁目","koaza":"","lat":43.483673,"lng":141.917445,"zip":"0730122"},{"town":"吉野二条南六丁目","koaza":"","lat":43.482353,"lng":141.917139,"zip":"0730122"},{"town":"吉野二条南七丁目","koaza":"","lat":43.481465,"lng":141.916833,"zip":"0730122"},{"town":"吉野二条南八丁目","koaza":"","lat":43.480183,"lng":141.916458,"zip":"0730122"},{"town":"吉野三条南三丁目","koaza":"","lat":43.486559,"lng":141.921263,"zip":"0730123"},{"town":"吉野三条南四丁目","koaza":"","lat":43.485015,"lng":141.921432,"zip":"0730123"},{"town":"吉野三条南五丁目","koaza":"","lat":43.483235,"lng":141.920894,"zip":"0730123"},{"town":"吉野三条南六丁目","koaza":"","lat":43.482185,"lng":141.920586,"zip":"0730123"},{"town":"吉野三条南七丁目","koaza":"","lat":43.481178,"lng":141.92028,"zip":"0730123"},{"town":"吉野三条南八丁目","koaza":"","lat":43.480059,"lng":141.919941,"zip":"0730123"},{"town":"吉野四条南三丁目","koaza":"","lat":43.485486,"lng":141.925156,"zip":"0730124"},{"town":"吉野四条南四丁目","koaza":"","lat":43.484329,"lng":141.924622,"zip":"0730124"},{"town":"吉野四条南五丁目","koaza":"","lat":43.482709,"lng":141.924253,"zip":"0730124"},{"town":"吉野四条南六丁目","koaza":"","lat":43.481942,"lng":141.923954,"zip":"0730124"},{"town":"吉野四条南七丁目","koaza":"","lat":43.480433,"lng":141.923522,"zip":"0730124"},{"town":"吉野四条南八丁目","koaza":"","lat":43.479108,"lng":141.923789,"zip":"0730124"},{"town":"東三条北二丁目","koaza":"","lat":43.493032,"lng":141.909745,"zip":"0730153"},{"town":"東三条北三丁目","koaza":"","lat":43.494111,"lng":141.909577,"zip":"0730153"},{"town":"東三条北四丁目","koaza":"","lat":43.49495,"lng":141.909818,"zip":"0730153"},{"town":"東三条北五丁目","koaza":"","lat":43.496079,"lng":141.910686,"zip":"0730153"},{"town":"東三条北六丁目","koaza":"","lat":43.497392,"lng":141.911247,"zip":"0730153"},{"town":"東三条北七丁目","koaza":"","lat":43.498392,"lng":141.910919,"zip":"0730153"}]