[{"town":"朝日一丁目","koaza":"","lat":45.382922,"lng":141.707212,"zip":"0970015"},{"town":"朝日二丁目","koaza":"","lat":45.384385,"lng":141.710786,"zip":"0970015"},{"town":"朝日三丁目","koaza":"","lat":45.382696,"lng":141.712414,"zip":"0970015"},{"town":"朝日四丁目","koaza":"","lat":45.378381,"lng":141.713341,"zip":"0970015"},{"town":"朝日五丁目","koaza":"","lat":45.384304,"lng":141.70264,"zip":"0970015"},{"town":"朝日六丁目","koaza":"","lat":45.379996,"lng":141.704546,"zip":"0970015"},{"town":"恵比須一丁目","koaza":"","lat":45.43355,"lng":141.664503,"zip":"0970025"},{"town":"恵比須二丁目","koaza":"","lat":45.435373,"lng":141.662175,"zip":"0970025"},{"town":"恵比須三丁目","koaza":"","lat":45.437333,"lng":141.660402,"zip":"0970025"},{"town":"恵比須四丁目","koaza":"","lat":45.438677,"lng":141.657005,"zip":"0970025"},{"town":"恵比須五丁目","koaza":"","lat":45.440812,"lng":141.654899,"zip":"0970025"},{"town":"大字声問村","koaza":"","lat":45.299825,"lng":141.834911,"zip":"0970000"},{"town":"大字宗谷村","koaza":"","lat":45.420858,"lng":141.934731,"zip":"0970000"},{"town":"大字抜海村","koaza":"","lat":45.256226,"lng":141.665065,"zip":"0970000"},{"town":"大字稚内村","koaza":"","lat":45.38739,"lng":141.659489,"zip":"0970000"},{"town":"開運一丁目","koaza":"","lat":45.419276,"lng":141.679249,"zip":"0970023"},{"town":"開運二丁目","koaza":"","lat":45.416355,"lng":141.679614,"zip":"0970023"},{"town":"声問一丁目","koaza":"","lat":45.401106,"lng":141.742734,"zip":"0986642"},{"town":"声問二丁目","koaza":"","lat":45.409469,"lng":141.749775,"zip":"0986642"},{"town":"声問三丁目","koaza":"","lat":45.406777,"lng":141.752391,"zip":"0986642"},{"town":"声問四丁目","koaza":"","lat":45.403745,"lng":141.776252,"zip":"0986642"},{"town":"声問五丁目","koaza":"","lat":45.398047,"lng":141.762075,"zip":"0986642"},{"town":"こまどり一丁目","koaza":"","lat":45.393976,"lng":141.688884,"zip":"0970003"},{"town":"こまどり二丁目","koaza":"","lat":45.391,"lng":141.689797,"zip":"0970003"},{"town":"こまどり三丁目","koaza":"","lat":45.391403,"lng":141.686102,"zip":"0970003"},{"town":"こまどり四丁目","koaza":"","lat":45.388015,"lng":141.686406,"zip":"0970003"},{"town":"こまどり五丁目","koaza":"","lat":45.382506,"lng":141.686877,"zip":"0970003"},{"town":"栄一丁目","koaza":"","lat":45.389843,"lng":141.694469,"zip":"0970017"},{"town":"栄二丁目","koaza":"","lat":45.391544,"lng":141.700839,"zip":"0970017"},{"town":"栄三丁目","koaza":"","lat":45.38975,"lng":141.700608,"zip":"0970017"},{"town":"栄四丁目","koaza":"","lat":45.388122,"lng":141.700271,"zip":"0970017"},{"town":"栄五丁目","koaza":"","lat":45.386793,"lng":141.700816,"zip":"0970017"},{"town":"潮見一丁目","koaza":"","lat":45.394797,"lng":141.697418,"zip":"0970002"},{"town":"潮見二丁目","koaza":"","lat":45.394569,"lng":141.700212,"zip":"0970002"},{"town":"潮見三丁目","koaza":"","lat":45.394532,"lng":141.702632,"zip":"0970002"},{"town":"潮見四丁目","koaza":"","lat":45.394461,"lng":141.705124,"zip":"0970002"},{"town":"潮見五丁目","koaza":"","lat":45.394594,"lng":141.708821,"zip":"0970002"},{"town":"新光町","koaza":"","lat":45.371441,"lng":141.695207,"zip":"0970014"},{"town":"新末広町","koaza":"","lat":45.404074,"lng":141.68906,"zip":"0970000"},{"town":"新港町","koaza":"","lat":45.406842,"lng":141.680909,"zip":"0970006"},{"town":"末広一丁目","koaza":"","lat":45.40247,"lng":141.683703,"zip":"0970001"},{"town":"末広二丁目","koaza":"","lat":45.400206,"lng":141.688893,"zip":"0970001"},{"town":"末広三丁目","koaza":"","lat":45.401198,"lng":141.694944,"zip":"0970001"},{"town":"末広四丁目","koaza":"","lat":45.401136,"lng":141.699764,"zip":"0970001"},{"town":"末広五丁目","koaza":"","lat":45.400972,"lng":141.704,"zip":"0970001"},{"town":"宗谷岬","koaza":"","lat":45.512988,"lng":141.945088,"zip":"0986758"},{"town":"大黒一丁目","koaza":"","lat":45.399811,"lng":141.682713,"zip":"0970005"},{"town":"大黒二丁目","koaza":"","lat":45.398378,"lng":141.685773,"zip":"0970005"},{"town":"大黒三丁目","koaza":"","lat":45.397383,"lng":141.689144,"zip":"0970005"},{"town":"大黒四丁目","koaza":"","lat":45.395984,"lng":141.691672,"zip":"0970005"},{"town":"大黒五丁目","koaza":"","lat":45.395439,"lng":141.694768,"zip":"0970005"},{"town":"中央一丁目","koaza":"","lat":45.419991,"lng":141.673864,"zip":"0970022"},{"town":"中央二丁目","koaza":"","lat":45.418418,"lng":141.674318,"zip":"0970022"},{"town":"中央三丁目","koaza":"","lat":45.415852,"lng":141.674643,"zip":"0970022"},{"town":"中央四丁目","koaza":"","lat":45.413146,"lng":141.67533,"zip":"0970022"},{"town":"中央五丁目","koaza":"","lat":45.410622,"lng":141.675045,"zip":"0970022"},{"town":"富岡一丁目","koaza":"","lat":45.39155,"lng":141.713579,"zip":"0970012"},{"town":"富岡二丁目","koaza":"","lat":45.392066,"lng":141.718129,"zip":"0970012"},{"town":"富岡三丁目","koaza":"","lat":45.392526,"lng":141.722492,"zip":"0970012"},{"town":"富岡四丁目","koaza":"","lat":45.387325,"lng":141.718787,"zip":"0970012"},{"town":"富岡五丁目","koaza":"","lat":45.387162,"lng":141.72483,"zip":"0970012"},{"town":"富岡六丁目","koaza":"","lat":45.391329,"lng":141.725911,"zip":"0970012"},{"town":"西浜一丁目","koaza":"","lat":45.403793,"lng":141.636541,"zip":"0970037"},{"town":"西浜二丁目","koaza":"","lat":45.390693,"lng":141.640505,"zip":"0970037"},{"town":"西浜三丁目","koaza":"","lat":45.382656,"lng":141.64652,"zip":"0970037"},{"town":"西浜四丁目","koaza":"","lat":45.375524,"lng":141.654209,"zip":"0970037"},{"town":"ノシャップ","koaza":"","lat":45.440342,"lng":141.645834,"zip":"0970026"},{"town":"ノシャップ一丁目","koaza":"","lat":45.444709,"lng":141.651805,"zip":"0970026"},{"town":"ノシャップ二丁目","koaza":"","lat":45.447786,"lng":141.646607,"zip":"0970026"},{"town":"ノシャップ三丁目","koaza":"","lat":45.444081,"lng":141.644698,"zip":"0970026"},{"town":"ノシャップ四丁目","koaza":"","lat":45.439782,"lng":141.642675,"zip":"0970026"},{"town":"ノシャップ五丁目","koaza":"","lat":45.436336,"lng":141.640009,"zip":"0970026"},{"town":"萩見一丁目","koaza":"","lat":45.39162,"lng":141.704719,"zip":"0970016"},{"town":"萩見二丁目","koaza":"","lat":45.388305,"lng":141.704772,"zip":"0970016"},{"town":"萩見三丁目","koaza":"","lat":45.39182,"lng":141.709173,"zip":"0970016"},{"town":"萩見四丁目","koaza":"","lat":45.389081,"lng":141.710309,"zip":"0970016"},{"town":"萩見五丁目","koaza":"","lat":45.386735,"lng":141.711082,"zip":"0970016"},{"town":"はまなす一丁目","koaza":"","lat":45.394703,"lng":141.713822,"zip":"0970011"},{"town":"はまなす二丁目","koaza":"","lat":45.395351,"lng":141.719078,"zip":"0970011"},{"town":"はまなす三丁目","koaza":"","lat":45.396027,"lng":141.724226,"zip":"0970011"},{"town":"はまなす四丁目","koaza":"","lat":45.396787,"lng":141.7284,"zip":"0970011"},{"town":"はまなす五丁目","koaza":"","lat":45.397347,"lng":141.73309,"zip":"0970011"},{"town":"富士見一丁目","koaza":"","lat":45.431571,"lng":141.640551,"zip":"0970027"},{"town":"富士見二丁目","koaza":"","lat":45.427617,"lng":141.639442,"zip":"0970027"},{"town":"富士見三丁目","koaza":"","lat":45.424498,"lng":141.637843,"zip":"0970027"},{"town":"富士見四丁目","koaza":"","lat":45.421054,"lng":141.637845,"zip":"0970027"},{"town":"富士見五丁目","koaza":"","lat":45.415401,"lng":141.637442,"zip":"0970027"},{"town":"宝来一丁目","koaza":"","lat":45.421191,"lng":141.672732,"zip":"0970024"},{"town":"宝来二丁目","koaza":"","lat":45.42283,"lng":141.671736,"zip":"0970024"},{"town":"宝来三丁目","koaza":"","lat":45.424869,"lng":141.670545,"zip":"0970024"},{"town":"宝来四丁目","koaza":"","lat":45.427197,"lng":141.668712,"zip":"0970024"},{"town":"宝来五丁目","koaza":"","lat":45.430201,"lng":141.666967,"zip":"0970024"},{"town":"緑一丁目","koaza":"","lat":45.395818,"lng":141.684081,"zip":"0970004"},{"town":"緑二丁目","koaza":"","lat":45.393723,"lng":141.681918,"zip":"0970004"},{"town":"緑三丁目","koaza":"","lat":45.391408,"lng":141.681054,"zip":"0970004"},{"town":"緑四丁目","koaza":"","lat":45.387773,"lng":141.679045,"zip":"0970004"},{"town":"緑五丁目","koaza":"","lat":45.38396,"lng":141.676342,"zip":"0970004"},{"town":"緑六丁目","koaza":"","lat":45.38104,"lng":141.668647,"zip":"0970004"},{"town":"港一丁目","koaza":"","lat":45.408654,"lng":141.67522,"zip":"0970021"},{"town":"港二丁目","koaza":"","lat":45.405938,"lng":141.675013,"zip":"0970021"},{"town":"港三丁目","koaza":"","lat":45.403099,"lng":141.674608,"zip":"0970021"},{"town":"港四丁目","koaza":"","lat":45.399857,"lng":141.67728,"zip":"0970021"},{"town":"港五丁目","koaza":"","lat":45.402514,"lng":141.679217,"zip":"0970021"},{"town":"若葉台","koaza":"","lat":45.378894,"lng":141.720844,"zip":"0970013"},{"town":"若葉台一丁目","koaza":"","lat":45.384289,"lng":141.718898,"zip":"0970013"},{"town":"若葉台二丁目","koaza":"","lat":45.38307,"lng":141.724825,"zip":"0970013"},{"town":"若葉台三丁目","koaza":"","lat":45.381518,"lng":141.720704,"zip":"0970013"}]