[{"town":"稲穂一丁目","koaza":"","lat":43.026435,"lng":141.599152,"zip":"0690239"},{"town":"稲穂二丁目","koaza":"","lat":43.026568,"lng":141.596152,"zip":"0690239"},{"town":"稲穂三丁目","koaza":"","lat":43.029237,"lng":141.596774,"zip":"0690239"},{"town":"稲穂四丁目","koaza":"","lat":43.028414,"lng":141.594691,"zip":"0690239"},{"town":"稲穂五丁目","koaza":"","lat":43.0268,"lng":141.591685,"zip":"0690239"},{"town":"北町一丁目","koaza":"","lat":43.068164,"lng":141.658581,"zip":"0690231"},{"town":"北町二丁目","koaza":"","lat":43.066611,"lng":141.657004,"zip":"0690231"},{"town":"北町三丁目","koaza":"","lat":43.06642,"lng":141.652854,"zip":"0690231"},{"town":"北町四丁目","koaza":"","lat":43.068829,"lng":141.652932,"zip":"0690231"},{"town":"北町五丁目","koaza":"","lat":43.067163,"lng":141.654142,"zip":"0690231"},{"town":"北町六丁目","koaza":"","lat":43.069182,"lng":141.655951,"zip":"0690231"},{"town":"栄町一丁目","koaza":"","lat":43.063092,"lng":141.651468,"zip":"0690237"},{"town":"栄町二丁目","koaza":"","lat":43.064395,"lng":141.647633,"zip":"0690237"},{"town":"栄町三丁目","koaza":"","lat":43.065271,"lng":141.650019,"zip":"0690237"},{"town":"栄町四丁目","koaza":"","lat":43.066309,"lng":141.651533,"zip":"0690237"},{"town":"中央一丁目","koaza":"","lat":43.060371,"lng":141.65555,"zip":"0690235"},{"town":"中央二丁目","koaza":"","lat":43.058994,"lng":141.652814,"zip":"0690235"},{"town":"中央三丁目","koaza":"","lat":43.06119,"lng":141.650768,"zip":"0690235"},{"town":"中央四丁目","koaza":"","lat":43.062618,"lng":141.653692,"zip":"0690235"},{"town":"西町一丁目","koaza":"","lat":43.061677,"lng":141.646545,"zip":"0690236"},{"town":"西町二丁目","koaza":"","lat":43.059919,"lng":141.64407,"zip":"0690236"},{"town":"西町三丁目","koaza":"","lat":43.061983,"lng":141.641257,"zip":"0690236"},{"town":"西町四丁目","koaza":"","lat":43.064422,"lng":141.641688,"zip":"0690236"},{"town":"西町五丁目","koaza":"","lat":43.062851,"lng":141.643638,"zip":"0690236"},{"town":"西町六丁目","koaza":"","lat":43.063646,"lng":141.645063,"zip":"0690236"},{"town":"東町一丁目","koaza":"","lat":43.059005,"lng":141.665811,"zip":"0690233"},{"town":"東町二丁目","koaza":"","lat":43.057454,"lng":141.662801,"zip":"0690233"},{"town":"東町三丁目","koaza":"","lat":43.059724,"lng":141.661253,"zip":"0690233"},{"town":"東町四丁目","koaza":"","lat":43.061076,"lng":141.663909,"zip":"0690233"},{"town":"美園一丁目","koaza":"","lat":43.056465,"lng":141.659659,"zip":"0690234"},{"town":"美園二丁目","koaza":"","lat":43.054465,"lng":141.657381,"zip":"0690234"},{"town":"美園三丁目","koaza":"","lat":43.056874,"lng":141.655752,"zip":"0690234"},{"town":"美園四丁目","koaza":"","lat":43.058352,"lng":141.658209,"zip":"0690234"},{"town":"緑町一丁目","koaza":"","lat":43.062773,"lng":141.662484,"zip":"0690232"},{"town":"緑町二丁目","koaza":"","lat":43.061265,"lng":141.659505,"zip":"0690232"},{"town":"緑町三丁目","koaza":"","lat":43.062635,"lng":141.658072,"zip":"0690232"},{"town":"緑町四丁目","koaza":"","lat":43.063854,"lng":141.656378,"zip":"0690232"},{"town":"緑町五丁目","koaza":"","lat":43.065408,"lng":141.659729,"zip":"0690232"},{"town":"緑町六丁目","koaza":"","lat":43.06389,"lng":141.660988,"zip":"0690232"},{"town":"南十線西","koaza":"","lat":43.081895,"lng":141.634894,"zip":"0690200"},{"town":"南十一線西","koaza":"","lat":43.07196,"lng":141.627433,"zip":"0690200"},{"town":"南十二線西","koaza":"","lat":43.065463,"lng":141.626903,"zip":"0690200"},{"town":"南十三線西","koaza":"","lat":43.049224,"lng":141.607148,"zip":"0690200"},{"town":"南十四線西","koaza":"","lat":43.041752,"lng":141.604831,"zip":"0690200"},{"town":"南十五線西","koaza":"","lat":43.039834,"lng":141.613187,"zip":"0690200"},{"town":"南十六線西","koaza":"","lat":43.041272,"lng":141.62816,"zip":"0690200"},{"town":"南十七線西","koaza":"","lat":43.042105,"lng":141.64192,"zip":"0690200"},{"town":"南十八線西","koaza":"","lat":43.028323,"lng":141.626943,"zip":"0690200"},{"town":"南十九線西","koaza":"","lat":43.02644,"lng":141.637078,"zip":"0690200"},{"town":"南二十線西","koaza":"","lat":43.007034,"lng":141.609606,"zip":"0690200"},{"town":"南二十一線西","koaza":"","lat":43.000204,"lng":141.606097,"zip":"0690200"},{"town":"南七線西","koaza":"","lat":43.097764,"lng":141.629632,"zip":"0690200"},{"town":"南八線西","koaza":"","lat":43.091229,"lng":141.628788,"zip":"0690200"},{"town":"南九線西","koaza":"","lat":43.0862,"lng":141.63105,"zip":"0690200"},{"town":"元町一丁目","koaza":"","lat":43.071311,"lng":141.654777,"zip":"0690238"},{"town":"元町二丁目","koaza":"","lat":43.070253,"lng":141.651129,"zip":"0690238"},{"town":"元町三丁目","koaza":"","lat":43.06958,"lng":141.648266,"zip":"0690238"},{"town":"元町四丁目","koaza":"","lat":43.0669,"lng":141.646527,"zip":"0690238"}]