[{"town":"旭町一丁目","koaza":"","lat":43.456121,"lng":142.475635,"zip":"0710553"},{"town":"旭町二丁目","koaza":"","lat":43.457213,"lng":142.477058,"zip":"0710553"},{"town":"旭町三丁目","koaza":"","lat":43.45869,"lng":142.477375,"zip":"0710553"},{"town":"旭町四丁目","koaza":"","lat":43.460505,"lng":142.477461,"zip":"0710553"},{"town":"旭町五丁目","koaza":"","lat":43.462138,"lng":142.478832,"zip":"0710553"},{"town":"泉町一丁目","koaza":"","lat":43.466826,"lng":142.46267,"zip":"0710547"},{"town":"泉町二丁目","koaza":"","lat":43.468776,"lng":142.464378,"zip":"0710547"},{"town":"泉町三丁目","koaza":"","lat":43.470362,"lng":142.466159,"zip":"0710547"},{"town":"扇町一丁目","koaza":"","lat":43.468352,"lng":142.460463,"zip":"0710548"},{"town":"扇町二丁目","koaza":"","lat":43.470396,"lng":142.460934,"zip":"0710548"},{"town":"扇町三丁目","koaza":"","lat":43.472315,"lng":142.461588,"zip":"0710548"},{"town":"大町一丁目","koaza":"","lat":43.456965,"lng":142.468983,"zip":"0710561"},{"town":"大町二丁目","koaza":"","lat":43.455728,"lng":142.467433,"zip":"0710561"},{"town":"大町三丁目","koaza":"","lat":43.454026,"lng":142.466533,"zip":"0710561"},{"town":"大町四丁目","koaza":"","lat":43.452591,"lng":142.465258,"zip":"0710561"},{"town":"大町五丁目","koaza":"","lat":43.450456,"lng":142.464825,"zip":"0710561"},{"town":"丘町一丁目","koaza":"","lat":43.450594,"lng":142.479643,"zip":"0710565"},{"town":"丘町二丁目","koaza":"","lat":43.448271,"lng":142.47876,"zip":"0710565"},{"town":"丘町三丁目","koaza":"","lat":43.445877,"lng":142.477021,"zip":"0710565"},{"town":"丘町四丁目","koaza":"","lat":43.445552,"lng":142.474101,"zip":"0710565"},{"town":"基線北","koaza":"","lat":43.455624,"lng":142.458474,"zip":"0710520"},{"town":"基線北二十号","koaza":"","lat":43.439225,"lng":142.448419,"zip":"0710500"},{"town":"基線北二十一号","koaza":"","lat":43.442233,"lng":142.451141,"zip":"0710500"},{"town":"基線北二十二号","koaza":"","lat":43.446407,"lng":142.454933,"zip":"0710500"},{"town":"基線北二十三号","koaza":"","lat":43.450712,"lng":142.459397,"zip":"0710500"},{"town":"基線北二十四号","koaza":"","lat":43.454166,"lng":142.459649,"zip":"0710500"},{"town":"基線北二十七号","koaza":"","lat":43.467852,"lng":142.475031,"zip":"0710500"},{"town":"基線北二十八号","koaza":"","lat":43.471168,"lng":142.477355,"zip":"0710500"},{"town":"基線北二十九号","koaza":"","lat":43.475318,"lng":142.481122,"zip":"0710500"},{"town":"北町一丁目","koaza":"","lat":43.47449,"lng":142.465934,"zip":"0710549"},{"town":"北町二丁目","koaza":"","lat":43.472992,"lng":142.464332,"zip":"0710549"},{"town":"北町三丁目","koaza":"","lat":43.475766,"lng":142.463984,"zip":"0710549"},{"town":"国有無番地","koaza":"","lat":43.418869,"lng":142.573542,"zip":"0710500"},{"town":"栄町一丁目","koaza":"","lat":43.465834,"lng":142.467682,"zip":"0710544"},{"town":"栄町二丁目","koaza":"","lat":43.465776,"lng":142.465826,"zip":"0710544"},{"town":"栄町三丁目","koaza":"","lat":43.464903,"lng":142.464035,"zip":"0710544"},{"town":"桜町一丁目","koaza":"","lat":43.452711,"lng":142.477625,"zip":"0710564"},{"town":"桜町二丁目","koaza":"","lat":43.451352,"lng":142.476529,"zip":"0710564"},{"town":"桜町三丁目","koaza":"","lat":43.449688,"lng":142.474887,"zip":"0710564"},{"town":"十人牧場","koaza":"","lat":43.46753,"lng":142.537929,"zip":"0710576"},{"town":"新町一丁目","koaza":"","lat":43.455017,"lng":142.477585,"zip":"0710554"},{"town":"新町二丁目","koaza":"","lat":43.456254,"lng":142.47903,"zip":"0710554"},{"town":"新町三丁目","koaza":"","lat":43.457728,"lng":142.479473,"zip":"0710554"},{"town":"新町四丁目","koaza":"","lat":43.459293,"lng":142.480452,"zip":"0710554"},{"town":"新町五丁目","koaza":"","lat":43.460749,"lng":142.481724,"zip":"0710554"},{"town":"第一安井牧場","koaza":"","lat":43.426547,"lng":142.511458,"zip":"0710500"},{"town":"第二安井牧場","koaza":"","lat":43.474344,"lng":142.499798,"zip":"0710500"},{"town":"富町一丁目","koaza":"","lat":43.458326,"lng":142.464482,"zip":"0710541"},{"town":"富町二丁目","koaza":"","lat":43.455967,"lng":142.46284,"zip":"0710541"},{"town":"富町三丁目","koaza":"","lat":43.453917,"lng":142.462219,"zip":"0710541"},{"town":"中ノ沢","koaza":"","lat":43.448115,"lng":142.539143,"zip":"0710500"},{"town":"中町一丁目","koaza":"","lat":43.463869,"lng":142.468723,"zip":"0710543"},{"town":"中町二丁目","koaza":"","lat":43.46265,"lng":142.466635,"zip":"0710543"},{"town":"中町三丁目","koaza":"","lat":43.462325,"lng":142.464317,"zip":"0710543"},{"town":"西十線北二十八号","koaza":"","lat":43.482574,"lng":142.405998,"zip":"0710500"},{"town":"西十線北二十九号","koaza":"","lat":43.502253,"lng":142.423723,"zip":"0710500"},{"town":"西十線北三十号","koaza":"","lat":43.506501,"lng":142.427692,"zip":"0710500"},{"town":"西十線北三十一号","koaza":"","lat":43.511374,"lng":142.43135,"zip":"0710500"},{"town":"西十線北三十二号","koaza":"","lat":43.514869,"lng":142.435253,"zip":"0710500"},{"town":"西十線北三十三号","koaza":"","lat":43.518762,"lng":142.438783,"zip":"0710500"},{"town":"西十線北三十四号","koaza":"","lat":43.522825,"lng":142.442465,"zip":"0710500"},{"town":"西十線北三十五号","koaza":"","lat":43.527348,"lng":142.446576,"zip":"0710500"},{"town":"西十線北三十六号","koaza":"","lat":43.531496,"lng":142.449057,"zip":"0710500"},{"town":"西十一線北二十八号","koaza":"","lat":43.49098,"lng":142.405588,"zip":"0710500"},{"town":"西十一線北二十九号","koaza":"","lat":43.504659,"lng":142.41817,"zip":"0710500"},{"town":"西十一線北三十号","koaza":"","lat":43.509045,"lng":142.422192,"zip":"0710500"},{"town":"西十一線北三十一号","koaza":"","lat":43.513307,"lng":142.426054,"zip":"0710500"},{"town":"西十一線北三十二号","koaza":"","lat":43.517412,"lng":142.429789,"zip":"0710500"},{"town":"西十一線北三十三号","koaza":"","lat":43.521301,"lng":142.433328,"zip":"0710500"},{"town":"西十一線北三十四号","koaza":"","lat":43.525368,"lng":142.437038,"zip":"0710500"},{"town":"西十一線北三十五号","koaza":"","lat":43.529894,"lng":142.441165,"zip":"0710500"},{"town":"西十一線北三十六号","koaza":"","lat":43.53441,"lng":142.445179,"zip":"0710500"},{"town":"西十二線北二十八号","koaza":"","lat":43.496275,"lng":142.402188,"zip":"0710500"},{"town":"西十二線北二十九号","koaza":"","lat":43.507357,"lng":142.412595,"zip":"0710500"},{"town":"西十二線北三十号","koaza":"","lat":43.511673,"lng":142.416513,"zip":"0710500"},{"town":"西十二線北三十一号","koaza":"","lat":43.515886,"lng":142.420353,"zip":"0710500"},{"town":"西十二線北三十二号","koaza":"","lat":43.520046,"lng":142.424141,"zip":"0710500"},{"town":"西十二線北三十三号","koaza":"","lat":43.523931,"lng":142.42769,"zip":"0710500"},{"town":"西十二線北三十四号","koaza":"","lat":43.528005,"lng":142.431414,"zip":"0710500"},{"town":"西十二線北三十五号","koaza":"","lat":43.532547,"lng":142.435547,"zip":"0710500"},{"town":"西十二線北三十六号","koaza":"","lat":43.537956,"lng":142.440076,"zip":"0710500"},{"town":"西十三線北二十九号","koaza":"","lat":43.504475,"lng":142.404035,"zip":"0710500"},{"town":"西十三線北三十号","koaza":"","lat":43.514227,"lng":142.411001,"zip":"0710500"},{"town":"西十三線北三十一号","koaza":"","lat":43.518449,"lng":142.414844,"zip":"0710500"},{"town":"西十三線北三十二号","koaza":"","lat":43.52261,"lng":142.418633,"zip":"0710500"},{"town":"西十三線北三十三号","koaza":"","lat":43.526493,"lng":142.422181,"zip":"0710500"},{"town":"西十三線北三十四号","koaza":"","lat":43.530578,"lng":142.425909,"zip":"0710500"},{"town":"西十三線北三十五号","koaza":"","lat":43.535274,"lng":142.431187,"zip":"0710500"},{"town":"西十三線北三十六号","koaza":"","lat":43.539911,"lng":142.434369,"zip":"0710500"},{"town":"西十三線北三十七号","koaza":"","lat":43.544074,"lng":142.436885,"zip":"0710500"},{"town":"西十四線北三十号","koaza":"","lat":43.514423,"lng":142.404631,"zip":"0710500"},{"town":"西十四線北三十一号","koaza":"","lat":43.521182,"lng":142.408975,"zip":"0710500"},{"town":"西十四線北三十二号","koaza":"","lat":43.525341,"lng":142.412778,"zip":"0710500"},{"town":"西十四線北三十三号","koaza":"","lat":43.529221,"lng":142.416321,"zip":"0710500"},{"town":"西十四線北三十四号","koaza":"","lat":43.533167,"lng":142.419928,"zip":"0710500"},{"town":"西十四線北三十五号","koaza":"","lat":43.535493,"lng":142.423016,"zip":"0710500"},{"town":"西十四線北三十六号","koaza":"","lat":43.542097,"lng":142.431567,"zip":"0710500"},{"town":"西十四線北三十七号","koaza":"","lat":43.547278,"lng":142.432989,"zip":"0710500"},{"town":"西十五線北三十一号","koaza":"","lat":43.52242,"lng":142.403537,"zip":"0710500"},{"town":"西十五線北三十二号","koaza":"","lat":43.528102,"lng":142.406868,"zip":"0710500"},{"town":"西十五線北三十三号","koaza":"","lat":43.53197,"lng":142.410419,"zip":"0710500"},{"town":"西十六線北三十三号","koaza":"","lat":43.532033,"lng":142.404358,"zip":"0710500"},{"town":"西十六線北三十四号","koaza":"","lat":43.537096,"lng":142.408989,"zip":"0710500"},{"town":"西一線北二十号","koaza":"","lat":43.441831,"lng":142.442824,"zip":"0710500"},{"town":"西一線北二十一号","koaza":"","lat":43.444838,"lng":142.445539,"zip":"0710500"},{"town":"西一線北二十二号","koaza":"","lat":43.449019,"lng":142.449313,"zip":"0710500"},{"town":"西一線北二十三号","koaza":"","lat":43.453483,"lng":142.453672,"zip":"0710500"},{"town":"西一線北二十四号","koaza":"","lat":43.457579,"lng":142.456586,"zip":"0710500"},{"town":"西一線北二十五号","koaza":"","lat":43.460669,"lng":142.457047,"zip":"0710500"},{"town":"西一線北二十七号","koaza":"","lat":43.470568,"lng":142.469228,"zip":"0710500"},{"town":"西一線北二十八号","koaza":"","lat":43.473646,"lng":142.470771,"zip":"0710500"},{"town":"西一線北二十九号","koaza":"","lat":43.477973,"lng":142.475471,"zip":"0710500"},{"town":"西一線北三十号","koaza":"","lat":43.482127,"lng":142.479219,"zip":"0710500"},{"town":"西一線北三十一号","koaza":"","lat":43.486133,"lng":142.482839,"zip":"0710500"},{"town":"西一線北三十二号","koaza":"","lat":43.490367,"lng":142.487485,"zip":"0710500"},{"town":"西一線北三十三号","koaza":"","lat":43.494412,"lng":142.490328,"zip":"0710500"},{"town":"西一線北三十四号","koaza":"","lat":43.499687,"lng":142.495035,"zip":"0710500"},{"town":"西二線北二十号","koaza":"","lat":43.444461,"lng":142.437179,"zip":"0710500"},{"town":"西二線北二十一号","koaza":"","lat":43.447458,"lng":142.439889,"zip":"0710500"},{"town":"西二線北二十二号","koaza":"","lat":43.451645,"lng":142.443645,"zip":"0710500"},{"town":"西二線北二十三号","koaza":"","lat":43.455799,"lng":142.44738,"zip":"0710500"},{"town":"西二線北二十四号","koaza":"","lat":43.459852,"lng":142.451022,"zip":"0710500"},{"town":"西二線北二十五号","koaza":"","lat":43.46386,"lng":142.453591,"zip":"0710500"},{"town":"西二線北二十六号","koaza":"","lat":43.468858,"lng":142.456912,"zip":"0710500"},{"town":"西二線北二十七号","koaza":"","lat":43.473425,"lng":142.459823,"zip":"0710500"},{"town":"西二線北二十八号","koaza":"","lat":43.476514,"lng":142.468254,"zip":"0710500"},{"town":"西二線北二十九号","koaza":"","lat":43.480662,"lng":142.469705,"zip":"0710500"},{"town":"西二線北三十号","koaza":"","lat":43.484846,"lng":142.473462,"zip":"0710500"},{"town":"西二線北三十一号","koaza":"","lat":43.488891,"lng":142.477104,"zip":"0710500"},{"town":"西二線北三十二号","koaza":"","lat":43.492973,"lng":142.479942,"zip":"0710500"},{"town":"西二線北三十三号","koaza":"","lat":43.49716,"lng":142.484535,"zip":"0710500"},{"town":"西二線北三十四号","koaza":"","lat":43.501697,"lng":142.488916,"zip":"0710500"},{"town":"西三線北二十号","koaza":"","lat":43.44714,"lng":142.43142,"zip":"0710500"},{"town":"西三線北二十一号","koaza":"","lat":43.450132,"lng":142.434117,"zip":"0710500"},{"town":"西三線北二十二号","koaza":"","lat":43.454319,"lng":142.43786,"zip":"0710500"},{"town":"西三線北二十三号","koaza":"","lat":43.458472,"lng":142.441573,"zip":"0710500"},{"town":"西三線北二十四号","koaza":"","lat":43.462526,"lng":142.445206,"zip":"0710500"},{"town":"西三線北二十五号","koaza":"","lat":43.466431,"lng":142.448702,"zip":"0710500"},{"town":"西三線北二十六号","koaza":"","lat":43.4707,"lng":142.45252,"zip":"0710500"},{"town":"西三線北二十七号","koaza":"","lat":43.475102,"lng":142.456463,"zip":"0710500"},{"town":"西三線北二十八号","koaza":"","lat":43.479157,"lng":142.460101,"zip":"0710500"},{"town":"西三線北二十九号","koaza":"","lat":43.483379,"lng":142.463885,"zip":"0710500"},{"town":"西三線北三十号","koaza":"","lat":43.487589,"lng":142.467656,"zip":"0710500"},{"town":"西三線北三十一号","koaza":"","lat":43.491669,"lng":142.471313,"zip":"0710500"},{"town":"西三線北三十二号","koaza":"","lat":43.495941,"lng":142.475136,"zip":"0710500"},{"town":"西三線北三十三号","koaza":"","lat":43.500014,"lng":142.47884,"zip":"0710500"},{"town":"西三線北三十四号","koaza":"","lat":43.503754,"lng":142.482716,"zip":"0710500"},{"town":"西四線北二十号","koaza":"","lat":43.449814,"lng":142.42568,"zip":"0710500"},{"town":"西四線北二十一号","koaza":"","lat":43.452797,"lng":142.428359,"zip":"0710500"},{"town":"西四線北二十二号","koaza":"","lat":43.456983,"lng":142.432098,"zip":"0710500"},{"town":"西四線北二十三号","koaza":"","lat":43.461127,"lng":142.435797,"zip":"0710500"},{"town":"西四線北二十四号","koaza":"","lat":43.465177,"lng":142.439419,"zip":"0710500"},{"town":"西四線北二十五号","koaza":"","lat":43.469084,"lng":142.442918,"zip":"0710500"},{"town":"西四線北二十六号","koaza":"","lat":43.473359,"lng":142.446743,"zip":"0710500"},{"town":"西四線北二十七号","koaza":"","lat":43.477773,"lng":142.450692,"zip":"0710500"},{"town":"西四線北二十八号","koaza":"","lat":43.481833,"lng":142.454323,"zip":"0710500"},{"town":"西四線北二十九号","koaza":"","lat":43.486069,"lng":142.458123,"zip":"0710500"},{"town":"西四線北三十号","koaza":"","lat":43.490303,"lng":142.461918,"zip":"0710500"},{"town":"西四線北三十一号","koaza":"","lat":43.494418,"lng":142.465596,"zip":"0710500"},{"town":"西四線北三十二号","koaza":"","lat":43.498642,"lng":142.469375,"zip":"0710500"},{"town":"西四線北三十三号","koaza":"","lat":43.504476,"lng":142.475106,"zip":"0710500"},{"town":"西五線北二十号","koaza":"","lat":43.452471,"lng":142.420012,"zip":"0710500"},{"town":"西五線北二十一号","koaza":"","lat":43.455444,"lng":142.422667,"zip":"0710500"},{"town":"西五線北二十二号","koaza":"","lat":43.459619,"lng":142.426387,"zip":"0710500"},{"town":"西五線北二十三号","koaza":"","lat":43.463764,"lng":142.430078,"zip":"0710500"},{"town":"西五線北二十四号","koaza":"","lat":43.467806,"lng":142.433681,"zip":"0710500"},{"town":"西五線北二十五号","koaza":"","lat":43.471718,"lng":142.437165,"zip":"0710500"},{"town":"西五線北二十六号","koaza":"","lat":43.476006,"lng":142.440993,"zip":"0710500"},{"town":"西五線北二十七号","koaza":"","lat":43.480436,"lng":142.444949,"zip":"0710500"},{"town":"西五線北二十八号","koaza":"","lat":43.484501,"lng":142.448568,"zip":"0710500"},{"town":"西五線北二十九号","koaza":"","lat":43.488755,"lng":142.452364,"zip":"0710500"},{"town":"西五線北三十号","koaza":"","lat":43.49302,"lng":142.45617,"zip":"0710500"},{"town":"西五線北三十一号","koaza":"","lat":43.497173,"lng":142.459875,"zip":"0710500"},{"town":"西五線北三十二号","koaza":"","lat":43.501506,"lng":142.463787,"zip":"0710500"},{"town":"西五線北三十三号","koaza":"","lat":43.505346,"lng":142.467718,"zip":"0710500"},{"town":"西五線北三十四号","koaza":"","lat":43.509217,"lng":142.471239,"zip":"0710500"},{"town":"西六線北二十二号","koaza":"","lat":43.458461,"lng":142.417285,"zip":"0710500"},{"town":"西六線北二十三号","koaza":"","lat":43.466414,"lng":142.42433,"zip":"0710500"},{"town":"西六線北二十四号","koaza":"","lat":43.470448,"lng":142.427932,"zip":"0710500"},{"town":"西六線北二十五号","koaza":"","lat":43.474352,"lng":142.431418,"zip":"0710500"},{"town":"西六線北二十六号","koaza":"","lat":43.478644,"lng":142.435257,"zip":"0710500"},{"town":"西六線北二十七号","koaza":"","lat":43.483085,"lng":142.439232,"zip":"0710500"},{"town":"西六線北二十八号","koaza":"","lat":43.487148,"lng":142.442867,"zip":"0710500"},{"town":"西六線北二十九号","koaza":"","lat":43.491414,"lng":142.446674,"zip":"0710500"},{"town":"西六線北三十号","koaza":"","lat":43.495698,"lng":142.450498,"zip":"0710500"},{"town":"西六線北三十一号","koaza":"","lat":43.500723,"lng":142.454321,"zip":"0710500"},{"town":"西六線北三十二号","koaza":"","lat":43.504072,"lng":142.458446,"zip":"0710500"},{"town":"西六線北三十三号","koaza":"","lat":43.50796,"lng":142.461997,"zip":"0710500"},{"town":"西六線北三十四号","koaza":"","lat":43.51276,"lng":142.466107,"zip":"0710500"},{"town":"西七線北二十一号","koaza":"","lat":43.459849,"lng":142.410299,"zip":"0710500"},{"town":"西七線北二十二号","koaza":"","lat":43.464931,"lng":142.414852,"zip":"0710500"},{"town":"西七線北二十三号","koaza":"","lat":43.469065,"lng":142.418561,"zip":"0710500"},{"town":"西七線北二十四号","koaza":"","lat":43.473094,"lng":142.422169,"zip":"0710500"},{"town":"西七線北二十五号","koaza":"","lat":43.476993,"lng":142.425668,"zip":"0710500"},{"town":"西七線北二十六号","koaza":"","lat":43.481286,"lng":142.429518,"zip":"0710500"},{"town":"西七線北二十七号","koaza":"","lat":43.485741,"lng":142.433505,"zip":"0710500"},{"town":"西七線北二十八号","koaza":"","lat":43.489802,"lng":142.437143,"zip":"0710500"},{"town":"西七線北二十九号","koaza":"","lat":43.494076,"lng":142.440968,"zip":"0710500"},{"town":"西七線北三十号","koaza":"","lat":43.498374,"lng":142.444821,"zip":"0710500"},{"town":"西七線北三十一号","koaza":"","lat":43.502619,"lng":142.448903,"zip":"0710500"},{"town":"西七線北三十二号","koaza":"","lat":43.506696,"lng":142.452806,"zip":"0710500"},{"town":"西七線北三十三号","koaza":"","lat":43.510594,"lng":142.456334,"zip":"0710500"},{"town":"西七線北三十四号","koaza":"","lat":43.514628,"lng":142.459971,"zip":"0710500"},{"town":"西七線北三十五号","koaza":"","lat":43.518509,"lng":142.461859,"zip":"0710500"},{"town":"西八線北二十二号","koaza":"","lat":43.464633,"lng":142.407025,"zip":"0710500"},{"town":"西八線北二十三号","koaza":"","lat":43.471839,"lng":142.41253,"zip":"0710500"},{"town":"西八線北二十四号","koaza":"","lat":43.475872,"lng":142.416116,"zip":"0710500"},{"town":"西八線北二十五号","koaza":"","lat":43.479784,"lng":142.419599,"zip":"0710500"},{"town":"西八線北二十六号","koaza":"","lat":43.484095,"lng":142.423435,"zip":"0710500"},{"town":"西八線北二十七号","koaza":"","lat":43.488565,"lng":142.427415,"zip":"0710500"},{"town":"西八線北二十八号","koaza":"","lat":43.492632,"lng":142.431029,"zip":"0710500"},{"town":"西八線北二十九号","koaza":"","lat":43.496924,"lng":142.434844,"zip":"0710500"},{"town":"西八線北三十号","koaza":"","lat":43.501306,"lng":142.438804,"zip":"0710500"},{"town":"西八線北三十一号","koaza":"","lat":43.505364,"lng":142.442839,"zip":"0710500"},{"town":"西八線北三十二号","koaza":"","lat":43.509558,"lng":142.446663,"zip":"0710500"},{"town":"西八線北三十三号","koaza":"","lat":43.51346,"lng":142.450195,"zip":"0710500"},{"town":"西八線北三十四号","koaza":"","lat":43.517497,"lng":142.453864,"zip":"0710500"},{"town":"西八線北三十五号","koaza":"","lat":43.522367,"lng":142.457548,"zip":"0710500"},{"town":"西九線北二十四号","koaza":"","lat":43.471417,"lng":142.403879,"zip":"0710500"},{"town":"西九線北二十五号","koaza":"","lat":43.481883,"lng":142.413891,"zip":"0710500"},{"town":"西九線北二十六号","koaza":"","lat":43.486831,"lng":142.417501,"zip":"0710500"},{"town":"西九線北二十七号","koaza":"","lat":43.49132,"lng":142.421467,"zip":"0710500"},{"town":"西九線北二十八号","koaza":"","lat":43.495393,"lng":142.425067,"zip":"0710500"},{"town":"西九線北二十九号","koaza":"","lat":43.499856,"lng":142.429057,"zip":"0710500"},{"town":"西九線北三十号","koaza":"","lat":43.503483,"lng":142.432914,"zip":"0710500"},{"town":"西九線北三十一号","koaza":"","lat":43.508199,"lng":142.436878,"zip":"0710500"},{"town":"西九線北三十二号","koaza":"","lat":43.512365,"lng":142.44064,"zip":"0710500"},{"town":"西九線北三十三号","koaza":"","lat":43.51627,"lng":142.44416,"zip":"0710500"},{"town":"西九線北三十四号","koaza":"","lat":43.520327,"lng":142.447825,"zip":"0710500"},{"town":"西九線北三十五号","koaza":"","lat":43.525798,"lng":142.452784,"zip":"0710500"},{"town":"錦町一丁目","koaza":"","lat":43.460009,"lng":142.468356,"zip":"0710542"},{"town":"錦町二丁目","koaza":"","lat":43.460044,"lng":142.466946,"zip":"0710542"},{"town":"錦町三丁目","koaza":"","lat":43.460595,"lng":142.46441,"zip":"0710542"},{"town":"西町一丁目","koaza":"","lat":43.462864,"lng":142.461959,"zip":"0710546"},{"town":"西町二丁目","koaza":"","lat":43.463841,"lng":142.458329,"zip":"0710546"},{"town":"西町三丁目","koaza":"","lat":43.465078,"lng":142.461071,"zip":"0710546"},{"town":"西町四丁目","koaza":"","lat":43.46593,"lng":142.457834,"zip":"0710546"},{"town":"倍本農場","koaza":"","lat":43.406769,"lng":142.529772,"zip":"0710533"},{"town":"東十線北十六号","koaza":"","lat":43.394274,"lng":142.489594,"zip":"0710500"},{"town":"東十線北十七号","koaza":"","lat":43.398529,"lng":142.494095,"zip":"0710500"},{"town":"東十線北十八号","koaza":"","lat":43.402754,"lng":142.49778,"zip":"0710500"},{"town":"東十線北十九号","koaza":"","lat":43.407036,"lng":142.501437,"zip":"0710500"},{"town":"東十線北二十号","koaza":"","lat":43.411319,"lng":142.50504,"zip":"0710500"},{"town":"東十一線北十八号","koaza":"","lat":43.400042,"lng":142.50336,"zip":"0710500"},{"town":"東十一線北十九号","koaza":"","lat":43.404429,"lng":142.507116,"zip":"0710500"},{"town":"東十一線北二十号","koaza":"","lat":43.408656,"lng":142.510724,"zip":"0710500"},{"town":"東十一線北二十一号","koaza":"","lat":43.412824,"lng":142.514283,"zip":"0710500"},{"town":"東十一線北二十二号","koaza":"","lat":43.417047,"lng":142.517895,"zip":"0710500"},{"town":"東十二線北十九号","koaza":"","lat":43.401771,"lng":142.512956,"zip":"0710500"},{"town":"東十二線北二十号","koaza":"","lat":43.405927,"lng":142.516555,"zip":"0710500"},{"town":"東十二線北二十一号","koaza":"","lat":43.410107,"lng":142.520162,"zip":"0710500"},{"town":"東十二線北二十二号","koaza":"","lat":43.414366,"lng":142.523844,"zip":"0710500"},{"town":"東十二線北二十三号","koaza":"","lat":43.418928,"lng":142.527688,"zip":"0710500"},{"town":"東一線北二十号","koaza":"","lat":43.436685,"lng":142.453882,"zip":"0710500"},{"town":"東一線北二十一号","koaza":"","lat":43.439661,"lng":142.456689,"zip":"0710500"},{"town":"東一線北二十二号","koaza":"","lat":43.443837,"lng":142.46047,"zip":"0710500"},{"town":"東一線北二十三号","koaza":"","lat":43.447806,"lng":142.462611,"zip":"0710500"},{"town":"東一線北二十六号","koaza":"","lat":43.463051,"lng":142.479276,"zip":"0710500"},{"town":"東一線北二十七号","koaza":"","lat":43.465062,"lng":142.480166,"zip":"0710500"},{"town":"東二線北二十号","koaza":"","lat":43.433996,"lng":142.459074,"zip":"0710500"},{"town":"東二線北二十一号","koaza":"","lat":43.437004,"lng":142.462418,"zip":"0710500"},{"town":"東二線北二十二号","koaza":"","lat":43.441259,"lng":142.466199,"zip":"0710500"},{"town":"東二線北二十三号","koaza":"","lat":43.444467,"lng":142.468254,"zip":"0710500"},{"town":"東二線北二十七号","koaza":"","lat":43.462502,"lng":142.484912,"zip":"0710500"},{"town":"東二線北二十八号","koaza":"","lat":43.466141,"lng":142.488182,"zip":"0710500"},{"town":"東三線北二十号","koaza":"","lat":43.431261,"lng":142.46494,"zip":"0710500"},{"town":"東三線北二十一号","koaza":"","lat":43.434247,"lng":142.468351,"zip":"0710500"},{"town":"東三線北二十二号","koaza":"","lat":43.438457,"lng":142.472066,"zip":"0710500"},{"town":"東三線北二十三号","koaza":"","lat":43.442089,"lng":142.475269,"zip":"0710500"},{"town":"東三線北二十四号","koaza":"","lat":43.446202,"lng":142.481038,"zip":"0710500"},{"town":"東三線北二十五号","koaza":"","lat":43.450916,"lng":142.485175,"zip":"0710500"},{"town":"東三線北二十六号","koaza":"","lat":43.455059,"lng":142.486838,"zip":"0710500"},{"town":"東三線北二十七号","koaza":"","lat":43.459393,"lng":142.490643,"zip":"0710500"},{"town":"東三線北二十八号","koaza":"","lat":43.463396,"lng":142.493949,"zip":"0710500"},{"town":"東四線北十六号","koaza":"","lat":43.409564,"lng":142.456936,"zip":"0710500"},{"town":"東四線北十七号","koaza":"","lat":43.414089,"lng":142.460957,"zip":"0710500"},{"town":"東四線北十八号","koaza":"","lat":43.418244,"lng":142.464512,"zip":"0710500"},{"town":"東四線北十九号","koaza":"","lat":43.422548,"lng":142.468222,"zip":"0710500"},{"town":"東四線北二十号","koaza":"","lat":43.427459,"lng":142.472508,"zip":"0710500"},{"town":"東四線北二十一号","koaza":"","lat":43.431555,"lng":142.474139,"zip":"0710500"},{"town":"東四線北二十二号","koaza":"","lat":43.435874,"lng":142.478732,"zip":"0710500"},{"town":"東四線北二十三号","koaza":"","lat":43.44002,"lng":142.481553,"zip":"0710500"},{"town":"東四線北二十四号","koaza":"","lat":43.444138,"lng":142.485167,"zip":"0710500"},{"town":"東四線北二十五号","koaza":"","lat":43.448074,"lng":142.488633,"zip":"0710500"},{"town":"東四線北二十六号","koaza":"","lat":43.45258,"lng":142.493635,"zip":"0710500"},{"town":"東四線北二十七号","koaza":"","lat":43.456706,"lng":142.496159,"zip":"0710500"},{"town":"東四線北二十八号","koaza":"","lat":43.46112,"lng":142.499357,"zip":"0710500"},{"town":"東五線北十六号","koaza":"","lat":43.40741,"lng":142.461359,"zip":"0710500"},{"town":"東五線北十七号","koaza":"","lat":43.411968,"lng":142.465425,"zip":"0710500"},{"town":"東五線北十八号","koaza":"","lat":43.416346,"lng":142.469303,"zip":"0710500"},{"town":"東五線北十九号","koaza":"","lat":43.420031,"lng":142.472576,"zip":"0710500"},{"town":"東五線北二十号","koaza":"","lat":43.424718,"lng":142.476263,"zip":"0710500"},{"town":"東五線北二十一号","koaza":"","lat":43.428873,"lng":142.479903,"zip":"0710500"},{"town":"東五線北二十二号","koaza":"","lat":43.433233,"lng":142.483732,"zip":"0710500"},{"town":"東五線北二十三号","koaza":"","lat":43.437352,"lng":142.487333,"zip":"0710500"},{"town":"東五線北二十四号","koaza":"","lat":43.442134,"lng":142.490741,"zip":"0710500"},{"town":"東五線北二十五号","koaza":"","lat":43.445327,"lng":142.494291,"zip":"0710500"},{"town":"東五線北二十六号","koaza":"","lat":43.449868,"lng":142.49823,"zip":"0710500"},{"town":"東五線北二十七号","koaza":"","lat":43.454224,"lng":142.501979,"zip":"0710500"},{"town":"東五線北二十八号","koaza":"","lat":43.457858,"lng":142.505154,"zip":"0710500"},{"town":"東五線北二十九号","koaza":"","lat":43.464345,"lng":142.510742,"zip":"0710500"},{"town":"東五線北三十号","koaza":"","lat":43.467124,"lng":142.513168,"zip":"0710500"},{"town":"東六線北十六号","koaza":"","lat":43.404027,"lng":142.467123,"zip":"0710500"},{"town":"東六線北十七号","koaza":"","lat":43.409292,"lng":142.471052,"zip":"0710500"},{"town":"東六線北十八号","koaza":"","lat":43.413493,"lng":142.474815,"zip":"0710500"},{"town":"東六線北十九号","koaza":"","lat":43.417954,"lng":142.47874,"zip":"0710500"},{"town":"東六線北二十号","koaza":"","lat":43.422023,"lng":142.481911,"zip":"0710500"},{"town":"東六線北二十一号","koaza":"","lat":43.426236,"lng":142.485563,"zip":"0710500"},{"town":"東六線北二十二号","koaza":"","lat":43.430453,"lng":142.48929,"zip":"0710500"},{"town":"東六線北二十三号","koaza":"","lat":43.434691,"lng":142.493056,"zip":"0710500"},{"town":"東六線北二十四号","koaza":"","lat":43.438835,"lng":142.495006,"zip":"0710500"},{"town":"東六線北二十五号","koaza":"","lat":43.443268,"lng":142.500649,"zip":"0710500"},{"town":"東六線北二十六号","koaza":"","lat":43.447164,"lng":142.50398,"zip":"0710500"},{"town":"東六線北二十七号","koaza":"","lat":43.451602,"lng":142.507822,"zip":"0710500"},{"town":"東六線北二十八号","koaza":"","lat":43.456326,"lng":142.511116,"zip":"0710500"},{"town":"東六線北二十九号","koaza":"","lat":43.460617,"lng":142.514849,"zip":"0710500"},{"town":"東六線北三十号","koaza":"","lat":43.464442,"lng":142.518983,"zip":"0710500"},{"town":"東七線北十六号","koaza":"","lat":43.402102,"lng":142.47279,"zip":"0710500"},{"town":"東七線北十七号","koaza":"","lat":43.406576,"lng":142.476777,"zip":"0710500"},{"town":"東七線北十八号","koaza":"","lat":43.410788,"lng":142.480546,"zip":"0710500"},{"town":"東七線北十九号","koaza":"","lat":43.415124,"lng":142.484413,"zip":"0710500"},{"town":"東七線北二十号","koaza":"","lat":43.419472,"lng":142.487958,"zip":"0710500"},{"town":"東七線北二十二号","koaza":"","lat":43.427649,"lng":142.495345,"zip":"0710500"},{"town":"東七線北二十八号","koaza":"","lat":43.453652,"lng":142.517838,"zip":"0710500"},{"town":"東八線北十六号","koaza":"","lat":43.399422,"lng":142.478322,"zip":"0710500"},{"town":"東八線北十七号","koaza":"","lat":43.403923,"lng":142.482392,"zip":"0710500"},{"town":"東八線北十八号","koaza":"","lat":43.408134,"lng":142.486175,"zip":"0710500"},{"town":"東八線北十九号","koaza":"","lat":43.41245,"lng":142.490055,"zip":"0710500"},{"town":"東八線北二十号","koaza":"","lat":43.416708,"lng":142.493777,"zip":"0710500"},{"town":"東九線北十六号","koaza":"","lat":43.396466,"lng":142.483089,"zip":"0710500"},{"town":"東九線北十七号","koaza":"","lat":43.401227,"lng":142.488109,"zip":"0710500"},{"town":"東九線北十八号","koaza":"","lat":43.405599,"lng":142.49331,"zip":"0710500"},{"town":"東九線北十九号","koaza":"","lat":43.409739,"lng":142.495625,"zip":"0710500"},{"town":"東九線北二十号","koaza":"","lat":43.41399,"lng":142.499336,"zip":"0710500"},{"town":"東町一丁目","koaza":"","lat":43.454024,"lng":142.479534,"zip":"0710555"},{"town":"東町二丁目","koaza":"","lat":43.455189,"lng":142.4807,"zip":"0710555"},{"town":"東町三丁目","koaza":"","lat":43.456431,"lng":142.482064,"zip":"0710555"},{"town":"東町四丁目","koaza":"","lat":43.457884,"lng":142.48335,"zip":"0710555"},{"town":"東町五丁目","koaza":"","lat":43.459364,"lng":142.484657,"zip":"0710555"},{"town":"光町一丁目","koaza":"","lat":43.459073,"lng":142.461136,"zip":"0710545"},{"town":"光町二丁目","koaza":"","lat":43.460457,"lng":142.460935,"zip":"0710545"},{"town":"光町三丁目","koaza":"","lat":43.461838,"lng":142.458912,"zip":"0710545"},{"town":"吹上","koaza":"","lat":43.430989,"lng":142.640238,"zip":"0710579"},{"town":"緑町一丁目","koaza":"","lat":43.453512,"lng":142.475036,"zip":"0710563"},{"town":"緑町二丁目","koaza":"","lat":43.452501,"lng":142.473601,"zip":"0710563"},{"town":"緑町三丁目","koaza":"","lat":43.450836,"lng":142.474199,"zip":"0710563"},{"town":"南町一丁目","koaza":"","lat":43.455512,"lng":142.472105,"zip":"0710562"},{"town":"南町二丁目","koaza":"","lat":43.453619,"lng":142.470976,"zip":"0710562"},{"town":"南町三丁目","koaza":"","lat":43.451592,"lng":142.471385,"zip":"0710562"},{"town":"南町四丁目","koaza":"","lat":43.448667,"lng":142.469797,"zip":"0710562"},{"town":"宮町一丁目","koaza":"","lat":43.457303,"lng":142.472343,"zip":"0710552"},{"town":"宮町二丁目","koaza":"","lat":43.458645,"lng":142.473501,"zip":"0710552"},{"town":"宮町三丁目","koaza":"","lat":43.459971,"lng":142.474557,"zip":"0710552"},{"town":"宮町四丁目","koaza":"","lat":43.462019,"lng":142.474695,"zip":"0710552"},{"town":"宮町五丁目","koaza":"","lat":43.463369,"lng":142.475928,"zip":"0710552"},{"town":"宮町六丁目","koaza":"","lat":43.464766,"lng":142.477738,"zip":"0710552"},{"town":"向町一丁目","koaza":"","lat":43.452683,"lng":142.481632,"zip":"0710566"},{"town":"本町一丁目","koaza":"","lat":43.458731,"lng":142.469264,"zip":"0710551"},{"town":"本町二丁目","koaza":"","lat":43.460408,"lng":142.470231,"zip":"0710551"},{"town":"本町三丁目","koaza":"","lat":43.462239,"lng":142.470717,"zip":"0710551"},{"town":"本町四丁目","koaza":"","lat":43.463835,"lng":142.471045,"zip":"0710551"},{"town":"本町五丁目","koaza":"","lat":43.465508,"lng":142.471221,"zip":"0710551"},{"town":"本町六丁目","koaza":"","lat":43.46754,"lng":142.471246,"zip":"0710551"}]