[{"town":"暁町","koaza":"","lat":43.397381,"lng":142.414601,"zip":"0710770"},{"town":"字中富良野","koaza":"","lat":43.425173,"lng":142.397413,"zip":"0710700"},{"town":"字中富良野伊藤農場","koaza":"","lat":43.406619,"lng":142.39696,"zip":"0710700"},{"town":"字中富良野基線北","koaza":"","lat":43.425669,"lng":142.436631,"zip":"0710700"},{"town":"字中富良野鹿討農場","koaza":"","lat":43.389565,"lng":142.394897,"zip":"0710700"},{"town":"字中富良野新田中農場","koaza":"","lat":43.439032,"lng":142.407593,"zip":"0710700"},{"town":"字中富良野奈江","koaza":"","lat":43.437899,"lng":142.379097,"zip":"0710700"},{"town":"字中富良野西一線北","koaza":"","lat":43.424378,"lng":142.427399,"zip":"0710700"},{"town":"字中富良野西二線北","koaza":"","lat":43.424413,"lng":142.419583,"zip":"0710700"},{"town":"字中富良野西三線北","koaza":"","lat":43.432042,"lng":142.418392,"zip":"0710700"},{"town":"字中富良野東十線北","koaza":"","lat":43.37889,"lng":142.47705,"zip":"0710700"},{"town":"字中富良野東十一線北","koaza":"","lat":43.375164,"lng":142.484737,"zip":"0710700"},{"town":"字中富良野東一線北","koaza":"","lat":43.383381,"lng":142.407723,"zip":"0710700"},{"town":"字中富良野東二線北","koaza":"","lat":43.398258,"lng":142.429047,"zip":"0710700"},{"town":"字中富良野東三線北","koaza":"","lat":43.393672,"lng":142.433128,"zip":"0710700"},{"town":"字中富良野東四線北","koaza":"","lat":43.394285,"lng":142.441799,"zip":"0710700"},{"town":"字中富良野東五線北","koaza":"","lat":43.375475,"lng":142.433452,"zip":"0710700"},{"town":"字中富良野東六線北","koaza":"","lat":43.382958,"lng":142.447032,"zip":"0710700"},{"town":"字中富良野東七線北","koaza":"","lat":43.375456,"lng":142.44936,"zip":"0710700"},{"town":"字中富良野東八線北","koaza":"","lat":43.38091,"lng":142.462471,"zip":"0710700"},{"town":"字中富良野東九線北","koaza":"","lat":43.378839,"lng":142.468883,"zip":"0710700"},{"town":"字中富良野福原農場","koaza":"","lat":43.399483,"lng":142.404833,"zip":"0710700"},{"town":"字中富良野ベベルイ","koaza":"","lat":43.378047,"lng":142.528074,"zip":"0710700"},{"town":"字中富良野吉井農場","koaza":"","lat":43.391625,"lng":142.366732,"zip":"0710700"},{"town":"旭町","koaza":"","lat":43.399931,"lng":142.414873,"zip":"0710755"},{"town":"丘町","koaza":"","lat":43.403137,"lng":142.415681,"zip":"0710762"},{"town":"北町","koaza":"","lat":43.411377,"lng":142.427697,"zip":"0710751"},{"town":"新町","koaza":"","lat":43.400973,"lng":142.420587,"zip":"0710754"},{"town":"西町","koaza":"","lat":43.410049,"lng":142.423732,"zip":"0710761"},{"town":"東町","koaza":"","lat":43.405493,"lng":142.428556,"zip":"0710726"},{"town":"本町","koaza":"","lat":43.407181,"lng":142.424915,"zip":"0710752"},{"town":"南町","koaza":"","lat":43.404203,"lng":142.422514,"zip":"0710753"},{"town":"宮町","koaza":"","lat":43.413566,"lng":142.423524,"zip":"0710714"}]