[{"town":"あけぼの町","koaza":"","lat":44.192729,"lng":143.085977,"zip":"0995601"},{"town":"字オシラネップ原野","koaza":"","lat":44.090793,"lng":143.131974,"zip":"0995600"},{"town":"字上渚滑原野","koaza":"","lat":44.239306,"lng":143.11575,"zip":"0995600"},{"town":"字滝ノ上原野","koaza":"","lat":44.074606,"lng":142.923158,"zip":"0995600"},{"town":"字滝ノ上市街地一条通一丁目","koaza":"","lat":44.194827,"lng":143.080634,"zip":"0995600"},{"town":"字滝ノ上市街地一条通二丁目","koaza":"","lat":44.194085,"lng":143.081468,"zip":"0995600"},{"town":"字滝ノ上市街地一条通三丁目","koaza":"","lat":44.193121,"lng":143.081687,"zip":"0995600"},{"town":"字滝ノ上市街地二条通一丁目","koaza":"","lat":44.194425,"lng":143.079075,"zip":"0995600"},{"town":"字滝ノ上市街地二条通二丁目","koaza":"","lat":44.19345,"lng":143.080101,"zip":"0995600"},{"town":"字滝ノ上市街地二条通三丁目","koaza":"","lat":44.192557,"lng":143.08103,"zip":"0995600"},{"town":"字滝ノ上市街地三条通一丁目","koaza":"","lat":44.193582,"lng":143.077856,"zip":"0995600"},{"town":"字滝ノ上市街地三条通二丁目","koaza":"","lat":44.19282,"lng":143.078796,"zip":"0995600"},{"town":"字滝ノ上市街地三条通三丁目","koaza":"","lat":44.191882,"lng":143.07978,"zip":"0995600"},{"town":"字滝ノ上市街地四条通三丁目","koaza":"","lat":44.191245,"lng":143.078361,"zip":"0995600"},{"town":"字滝ノ上市街地五条通三丁目","koaza":"","lat":44.190599,"lng":143.077161,"zip":"0995600"},{"town":"字滝ノ上市街地士別通四丁目","koaza":"","lat":44.195371,"lng":143.077793,"zip":"0995600"},{"town":"字滝ノ上市街地士別通三丁目","koaza":"","lat":44.19565,"lng":143.079124,"zip":"0995600"},{"town":"雄鎮内","koaza":"","lat":44.202402,"lng":143.149579,"zip":"0995544"},{"town":"幸町","koaza":"","lat":44.201033,"lng":143.054348,"zip":"0995606"},{"town":"栄町","koaza":"","lat":44.191766,"lng":143.068401,"zip":"0995605"},{"town":"奥札久留","koaza":"","lat":44.159202,"lng":142.929481,"zip":"0995600"},{"town":"白鳥","koaza":"","lat":44.134837,"lng":143.060306,"zip":"0995612"},{"town":"新町","koaza":"","lat":44.194632,"lng":143.101866,"zip":"0995543"},{"town":"一区","koaza":"","lat":44.16037,"lng":143.051268,"zip":"0995600"},{"town":"二区","koaza":"","lat":44.165389,"lng":143.017582,"zip":"0995600"},{"town":"三区","koaza":"","lat":44.134064,"lng":143.012217,"zip":"0995600"},{"town":"四区","koaza":"","lat":44.091359,"lng":143.012965,"zip":"0995600"},{"town":"五区","koaza":"","lat":44.000573,"lng":142.952351,"zip":"0995600"},{"town":"大正","koaza":"","lat":44.178086,"lng":143.152165,"zip":"0995551"},{"town":"滝下","koaza":"","lat":44.20943,"lng":143.170056,"zip":"0995552"},{"town":"滝西","koaza":"","lat":44.10974,"lng":142.978634,"zip":"0995613"},{"town":"滝美町","koaza":"","lat":44.183519,"lng":143.078027,"zip":"0995603"},{"town":"濁川中央","koaza":"","lat":44.192063,"lng":143.109385,"zip":"0995541"},{"town":"濁川みどり町","koaza":"","lat":44.190965,"lng":143.118691,"zip":"0995542"},{"town":"元町","koaza":"","lat":44.19922,"lng":143.09228,"zip":"0995604"},{"town":"上雄柏","koaza":"","lat":44.051561,"lng":143.049587,"zip":"0995600"},{"town":"字滝ノ上市街地五条通二丁目","koaza":"","lat":44.191242,"lng":143.076184,"zip":"0995600"},{"town":"字滝ノ上市街地四条通二丁目","koaza":"","lat":44.192185,"lng":143.077776,"zip":"0995600"},{"town":"字サクルー原野","koaza":"","lat":44.23444,"lng":143.040224,"zip":"0995600"},{"town":"旭町","koaza":"","lat":44.196751,"lng":143.084362,"zip":"0995602"},{"town":"字滝ノ上市街地士別通二丁目","koaza":"","lat":44.196305,"lng":143.080964,"zip":"0995600"},{"town":"字滝ノ上市街地士別通一丁目","koaza":"","lat":44.19705,"lng":143.081994,"zip":"0995600"}]