[{"town":"曙町","koaza":"","lat":44.228466,"lng":143.619525,"zip":"0996402"},{"town":"旭","koaza":"","lat":44.199496,"lng":143.555802,"zip":"0996321"},{"town":"開盛","koaza":"","lat":44.098609,"lng":143.512838,"zip":"0996503"},{"town":"上芭露","koaza":"","lat":44.095634,"lng":143.640677,"zip":"0930732"},{"town":"上富美","koaza":"","lat":44.11069,"lng":143.452241,"zip":"0996504"},{"town":"上湧別屯田市街地","koaza":"","lat":44.147462,"lng":143.58188,"zip":"0996501"},{"town":"川西","koaza":"","lat":44.228734,"lng":143.578632,"zip":"0996415"},{"town":"北兵村一区","koaza":"","lat":44.167966,"lng":143.580734,"zip":"0996325"},{"town":"北兵村二区","koaza":"","lat":44.175963,"lng":143.610361,"zip":"0996323"},{"town":"北兵村三区","koaza":"","lat":44.193802,"lng":143.610317,"zip":"0996322"},{"town":"計呂地","koaza":"","lat":44.065532,"lng":143.718039,"zip":"0930651"},{"town":"栄町","koaza":"","lat":44.223313,"lng":143.612948,"zip":"0996404"},{"town":"札富美","koaza":"","lat":44.175735,"lng":143.53407,"zip":"0996506"},{"town":"志撫子","koaza":"","lat":44.087172,"lng":143.688542,"zip":"0930652"},{"town":"信部内","koaza":"","lat":44.227148,"lng":143.532522,"zip":"0996271"},{"town":"登栄床","koaza":"","lat":44.194996,"lng":143.72699,"zip":"0996412"},{"town":"中湧別北町","koaza":"","lat":44.191744,"lng":143.591307,"zip":"0996326"},{"town":"中湧別中町","koaza":"","lat":44.185919,"lng":143.595332,"zip":"0996329"},{"town":"中湧別東町","koaza":"","lat":44.184204,"lng":143.598257,"zip":"0996327"},{"town":"中湧別南町","koaza":"","lat":44.185001,"lng":143.584345,"zip":"0996328"},{"town":"錦町","koaza":"","lat":44.212148,"lng":143.606956,"zip":"0996414"},{"town":"西芭露","koaza":"","lat":44.041882,"lng":143.588915,"zip":"0930733"},{"town":"芭露","koaza":"","lat":44.136736,"lng":143.65169,"zip":"0930731"},{"town":"東","koaza":"","lat":44.205362,"lng":143.650619,"zip":"0996411"},{"town":"東芭露","koaza":"","lat":44.028459,"lng":143.643664,"zip":"0930734"},{"town":"福島","koaza":"","lat":44.173785,"lng":143.642899,"zip":"0930735"},{"town":"富美","koaza":"","lat":44.146992,"lng":143.477698,"zip":"0996505"},{"town":"緑町","koaza":"","lat":44.226841,"lng":143.614268,"zip":"0996403"},{"town":"港町","koaza":"","lat":44.229876,"lng":143.620994,"zip":"0996401"},{"town":"南兵村一区","koaza":"","lat":44.110838,"lng":143.568026,"zip":"0996509"},{"town":"南兵村二区","koaza":"","lat":44.128886,"lng":143.575213,"zip":"0996508"},{"town":"南兵村三区","koaza":"","lat":44.147937,"lng":143.552651,"zip":"0996507"},{"town":"緑蔭","koaza":"","lat":44.180075,"lng":143.486212,"zip":"0996272"}]