[{"town":"字秋里","koaza":"","lat":44.445705,"lng":143.133474,"zip":"0981600"},{"town":"字朝日","koaza":"","lat":44.357259,"lng":143.046545,"zip":"0981600"},{"town":"字宇津","koaza":"","lat":44.426635,"lng":142.955084,"zip":"0981600"},{"town":"字興部","koaza":"","lat":44.475852,"lng":143.115095,"zip":"0981600"},{"town":"字沙留","koaza":"","lat":44.430463,"lng":143.198521,"zip":"0981600"},{"town":"字住吉","koaza":"","lat":44.368445,"lng":143.191834,"zip":"0981600"},{"town":"字富丘","koaza":"","lat":44.393414,"lng":143.24795,"zip":"0981600"},{"town":"字豊野","koaza":"","lat":44.405451,"lng":143.13524,"zip":"0981600"},{"town":"字豊畑","koaza":"","lat":44.342891,"lng":143.10489,"zip":"0981600"},{"town":"字北興","koaza":"","lat":44.442534,"lng":143.078885,"zip":"0981600"},{"town":"字興部","koaza":"宮下町","lat":44.475277,"lng":143.105736,"zip":"0981600"},{"town":"字興部","koaza":"仲町","lat":44.471147,"lng":143.116832,"zip":"0981600"},{"town":"字興部","koaza":"新泉町","lat":44.465966,"lng":143.113802,"zip":"0981600"},{"town":"字興部","koaza":"泉町","lat":44.4678,"lng":143.116093,"zip":"0981600"},{"town":"字興部","koaza":"本町","lat":44.473424,"lng":143.118775,"zip":"0981600"},{"town":"字興部","koaza":"元町","lat":44.474615,"lng":143.121752,"zip":"0981600"},{"town":"字興部","koaza":"栄町","lat":44.468828,"lng":143.122449,"zip":"0981600"},{"town":"字興部","koaza":"旭町","lat":44.469889,"lng":143.12495,"zip":"0981600"},{"town":"字興部","koaza":"緑ケ丘","lat":44.468644,"lng":143.127512,"zip":"0981600"},{"town":"字興部","koaza":"浜町","lat":44.477944,"lng":143.129207,"zip":"0981600"},{"town":"字興部","koaza":"東町","lat":44.470599,"lng":143.130852,"zip":"0981600"},{"town":"字興部","koaza":"春日町","lat":44.46909,"lng":143.139099,"zip":"0981600"}]