[{"town":"大山町一丁目","koaza":"","lat":44.340211,"lng":143.344835,"zip":"0940021"},{"town":"大山町二丁目","koaza":"","lat":44.335255,"lng":143.345036,"zip":"0940021"},{"town":"大山町三丁目","koaza":"","lat":44.330509,"lng":143.343469,"zip":"0940021"},{"town":"大山町四丁目","koaza":"","lat":44.338603,"lng":143.328228,"zip":"0940021"},{"town":"落石町一丁目","koaza":"","lat":44.364475,"lng":143.347155,"zip":"0940007"},{"town":"落石町二丁目","koaza":"","lat":44.367239,"lng":143.338867,"zip":"0940007"},{"town":"落石町三丁目","koaza":"","lat":44.360283,"lng":143.34069,"zip":"0940007"},{"town":"落石町四丁目","koaza":"","lat":44.363551,"lng":143.336247,"zip":"0940007"},{"town":"落石町五丁目","koaza":"","lat":44.356845,"lng":143.336096,"zip":"0940007"},{"town":"落石町六丁目","koaza":"","lat":44.360866,"lng":143.330654,"zip":"0940007"},{"town":"落石町七丁目","koaza":"","lat":44.355227,"lng":143.32456,"zip":"0940007"},{"town":"海洋公園","koaza":"","lat":44.333595,"lng":143.372742,"zip":"0940031"},{"town":"上鴻之舞","koaza":"","lat":44.076401,"lng":143.317273,"zip":"0940027"},{"town":"上渚滑町十丁目","koaza":"","lat":44.246958,"lng":143.26874,"zip":"0995354"},{"town":"上渚滑町十一丁目","koaza":"","lat":44.242664,"lng":143.265386,"zip":"0995354"},{"town":"上渚滑町一丁目","koaza":"","lat":44.239623,"lng":143.256285,"zip":"0995354"},{"town":"上渚滑町二丁目","koaza":"","lat":44.241785,"lng":143.257512,"zip":"0995354"},{"town":"上渚滑町三丁目","koaza":"","lat":44.243138,"lng":143.259204,"zip":"0995354"},{"town":"上渚滑町四丁目","koaza":"","lat":44.244626,"lng":143.260025,"zip":"0995354"},{"town":"上渚滑町五丁目","koaza":"","lat":44.24571,"lng":143.26302,"zip":"0995354"},{"town":"上渚滑町六丁目","koaza":"","lat":44.246766,"lng":143.260097,"zip":"0995354"},{"town":"上渚滑町七丁目","koaza":"","lat":44.246203,"lng":143.256739,"zip":"0995354"},{"town":"上渚滑町八丁目","koaza":"","lat":44.249424,"lng":143.261378,"zip":"0995354"},{"town":"上渚滑町九丁目","koaza":"","lat":44.24868,"lng":143.264416,"zip":"0995354"},{"town":"上渚滑町上古丹","koaza":"","lat":44.091131,"lng":143.258358,"zip":"0995364"},{"town":"上渚滑町奥東","koaza":"","lat":44.22517,"lng":143.220647,"zip":"0995362"},{"town":"上渚滑町上立牛","koaza":"","lat":44.045722,"lng":143.174937,"zip":"0940000"},{"town":"上渚滑町更生","koaza":"","lat":44.213421,"lng":143.263146,"zip":"0995355"},{"town":"上渚滑町下渚滑","koaza":"","lat":44.332121,"lng":143.287994,"zip":"0995351"},{"town":"上渚滑町下立牛","koaza":"","lat":44.182956,"lng":143.222287,"zip":"0995363"},{"town":"上渚滑町上東","koaza":"","lat":44.239133,"lng":143.302327,"zip":"0995353"},{"town":"上渚滑町上東二十四線","koaza":"","lat":44.283087,"lng":143.302698,"zip":"0940000"},{"town":"上渚滑町中渚滑","koaza":"","lat":44.297262,"lng":143.281907,"zip":"0995352"},{"town":"上渚滑町中立牛","koaza":"","lat":44.117864,"lng":143.17395,"zip":"0995365"},{"town":"上渚滑町和訓辺","koaza":"","lat":44.257908,"lng":143.217585,"zip":"0995361"},{"town":"上藻別","koaza":"","lat":44.168035,"lng":143.337164,"zip":"0940025"},{"town":"北浜町一丁目","koaza":"","lat":44.365899,"lng":143.350191,"zip":"0940001"},{"town":"北浜町二丁目","koaza":"","lat":44.368774,"lng":143.344075,"zip":"0940001"},{"town":"北浜町三丁目","koaza":"","lat":44.36993,"lng":143.346118,"zip":"0940001"},{"town":"弘道","koaza":"","lat":44.235464,"lng":143.443168,"zip":"0996133"},{"town":"鴻之舞","koaza":"","lat":44.11557,"lng":143.367608,"zip":"0940026"},{"town":"鴻之舞旭町","koaza":"","lat":44.128036,"lng":143.348522,"zip":"0940000"},{"town":"鴻之舞泉町","koaza":"","lat":44.121206,"lng":143.344297,"zip":"0940000"},{"town":"鴻之舞喜楽町","koaza":"","lat":44.129902,"lng":143.347392,"zip":"0940000"},{"town":"鴻之舞金竜町","koaza":"","lat":44.123911,"lng":143.345772,"zip":"0940000"},{"town":"鴻之舞栄町","koaza":"","lat":44.140899,"lng":143.345185,"zip":"0940000"},{"town":"鴻之舞末広町","koaza":"","lat":44.137597,"lng":143.34803,"zip":"0940000"},{"town":"鴻之舞住吉町","koaza":"","lat":44.13474,"lng":143.349068,"zip":"0940000"},{"town":"鴻之舞元町","koaza":"","lat":44.13222,"lng":143.349316,"zip":"0940000"},{"town":"小向","koaza":"","lat":44.286876,"lng":143.427414,"zip":"0996132"},{"town":"幸町一丁目","koaza":"","lat":44.358052,"lng":143.355175,"zip":"0940005"},{"town":"幸町二丁目","koaza":"","lat":44.356293,"lng":143.354684,"zip":"0940005"},{"town":"幸町三丁目","koaza":"","lat":44.35509,"lng":143.353879,"zip":"0940005"},{"town":"幸町四丁目","koaza":"","lat":44.353535,"lng":143.353094,"zip":"0940005"},{"town":"幸町五丁目","koaza":"","lat":44.351891,"lng":143.352572,"zip":"0940005"},{"town":"幸町六丁目","koaza":"","lat":44.350258,"lng":143.352193,"zip":"0940005"},{"town":"幸町七丁目","koaza":"","lat":44.348412,"lng":143.352009,"zip":"0940005"},{"town":"幸町八丁目","koaza":"","lat":44.346533,"lng":143.35083,"zip":"0940005"},{"town":"潮見町一丁目","koaza":"","lat":44.356676,"lng":143.352078,"zip":"0940006"},{"town":"潮見町二丁目","koaza":"","lat":44.357912,"lng":143.350738,"zip":"0940006"},{"town":"潮見町三丁目","koaza":"","lat":44.360958,"lng":143.349695,"zip":"0940006"},{"town":"潮見町四丁目","koaza":"","lat":44.357922,"lng":143.347839,"zip":"0940006"},{"town":"潮見町五丁目","koaza":"","lat":44.358359,"lng":143.344833,"zip":"0940006"},{"town":"志文","koaza":"","lat":44.179412,"lng":143.431443,"zip":"0996242"},{"town":"渚滑町一丁目","koaza":"","lat":44.370284,"lng":143.335275,"zip":"0995171"},{"town":"渚滑町二丁目","koaza":"","lat":44.373136,"lng":143.329194,"zip":"0995171"},{"town":"渚滑町三丁目","koaza":"","lat":44.377161,"lng":143.322633,"zip":"0995171"},{"town":"渚滑町四丁目","koaza":"","lat":44.372447,"lng":143.317374,"zip":"0995171"},{"town":"渚滑町五丁目","koaza":"","lat":44.376291,"lng":143.312971,"zip":"0995171"},{"town":"渚滑町六丁目","koaza":"","lat":44.369282,"lng":143.311973,"zip":"0995171"},{"town":"渚滑町七丁目","koaza":"","lat":44.373143,"lng":143.307575,"zip":"0995171"},{"town":"渚滑町八丁目","koaza":"","lat":44.366123,"lng":143.306592,"zip":"0995171"},{"town":"渚滑町九丁目","koaza":"","lat":44.36997,"lng":143.302221,"zip":"0995171"},{"town":"渚滑町宇津々","koaza":"","lat":44.320684,"lng":143.2019,"zip":"0995174"},{"town":"渚滑町川向","koaza":"","lat":44.385975,"lng":143.291622,"zip":"0995175"},{"town":"渚滑町元新","koaza":"","lat":44.361916,"lng":143.316026,"zip":"0995172"},{"town":"渚滑町元新一丁目","koaza":"","lat":44.364554,"lng":143.330222,"zip":"0995172"},{"town":"渚滑町元新二丁目","koaza":"","lat":44.366005,"lng":143.327943,"zip":"0995172"},{"town":"渚滑町元新三丁目","koaza":"","lat":44.366599,"lng":143.324826,"zip":"0995172"},{"town":"渚滑町元新四丁目","koaza":"","lat":44.368504,"lng":143.324173,"zip":"0995172"},{"town":"渚滑町元新五丁目","koaza":"","lat":44.369986,"lng":143.320558,"zip":"0995172"},{"town":"渚滑町元西","koaza":"","lat":44.36175,"lng":143.291363,"zip":"0995173"},{"town":"新港町一丁目","koaza":"","lat":44.34607,"lng":143.358951,"zip":"0940012"},{"town":"新港町二丁目","koaza":"","lat":44.343567,"lng":143.361818,"zip":"0940012"},{"town":"新港町三丁目","koaza":"","lat":44.340688,"lng":143.361562,"zip":"0940012"},{"town":"新港町四丁目","koaza":"","lat":44.336745,"lng":143.367498,"zip":"0940012"},{"town":"新生","koaza":"","lat":44.319831,"lng":143.344575,"zip":"0940022"},{"town":"沼の上","koaza":"","lat":44.244035,"lng":143.50431,"zip":"0996241"},{"town":"花園町一丁目","koaza":"","lat":44.353307,"lng":143.350741,"zip":"0940015"},{"town":"花園町二丁目","koaza":"","lat":44.350954,"lng":143.349247,"zip":"0940015"},{"town":"花園町三丁目","koaza":"","lat":44.349695,"lng":143.347373,"zip":"0940015"},{"town":"花園町四丁目","koaza":"","lat":44.350834,"lng":143.34356,"zip":"0940015"},{"town":"花園町五丁目","koaza":"","lat":44.352828,"lng":143.346237,"zip":"0940015"},{"town":"花園町六丁目","koaza":"","lat":44.352806,"lng":143.341344,"zip":"0940015"},{"town":"花園町七丁目","koaza":"","lat":44.350925,"lng":143.338808,"zip":"0940015"},{"town":"花園町八丁目","koaza":"","lat":44.354846,"lng":143.344162,"zip":"0940015"},{"town":"弁天町一丁目","koaza":"","lat":44.354578,"lng":143.363117,"zip":"0940003"},{"town":"弁天町二丁目","koaza":"","lat":44.357434,"lng":143.358926,"zip":"0940003"},{"town":"弁天町三丁目","koaza":"","lat":44.358837,"lng":143.356582,"zip":"0940003"},{"town":"本町一丁目","koaza":"","lat":44.356699,"lng":143.357257,"zip":"0940004"},{"town":"本町二丁目","koaza":"","lat":44.355608,"lng":143.356236,"zip":"0940004"},{"town":"本町三丁目","koaza":"","lat":44.354352,"lng":143.355751,"zip":"0940004"},{"town":"本町四丁目","koaza":"","lat":44.353162,"lng":143.35478,"zip":"0940004"},{"town":"本町五丁目","koaza":"","lat":44.35174,"lng":143.354302,"zip":"0940004"},{"town":"本町六丁目","koaza":"","lat":44.35023,"lng":143.354394,"zip":"0940004"},{"town":"本町七丁目","koaza":"","lat":44.348367,"lng":143.35485,"zip":"0940004"},{"town":"本町八丁目","koaza":"","lat":44.347167,"lng":143.354949,"zip":"0940004"},{"town":"真砂町一丁目","koaza":"","lat":44.360575,"lng":143.353265,"zip":"0940002"},{"town":"真砂町二丁目","koaza":"","lat":44.362073,"lng":143.352515,"zip":"0940002"},{"town":"真砂町三丁目","koaza":"","lat":44.363215,"lng":143.352323,"zip":"0940002"},{"town":"真砂町四丁目","koaza":"","lat":44.36068,"lng":143.355008,"zip":"0940002"},{"town":"真砂町五丁目","koaza":"","lat":44.363311,"lng":143.353939,"zip":"0940002"},{"town":"緑町一丁目","koaza":"","lat":44.348331,"lng":143.348144,"zip":"0940014"},{"town":"緑町二丁目","koaza":"","lat":44.348931,"lng":143.344902,"zip":"0940014"},{"town":"緑町三丁目","koaza":"","lat":44.349121,"lng":143.341094,"zip":"0940014"},{"town":"緑町四丁目","koaza":"","lat":44.345092,"lng":143.348018,"zip":"0940014"},{"town":"緑町五丁目","koaza":"","lat":44.34527,"lng":143.342684,"zip":"0940014"},{"town":"港町一丁目","koaza":"","lat":44.355175,"lng":143.358695,"zip":"0940011"},{"town":"港町二丁目","koaza":"","lat":44.354911,"lng":143.35725,"zip":"0940011"},{"town":"港町三丁目","koaza":"","lat":44.353937,"lng":143.357119,"zip":"0940011"},{"town":"港町四丁目","koaza":"","lat":44.352834,"lng":143.356221,"zip":"0940011"},{"town":"港町五丁目","koaza":"","lat":44.351569,"lng":143.356647,"zip":"0940011"},{"town":"港町六丁目","koaza":"","lat":44.350438,"lng":143.356501,"zip":"0940011"},{"town":"港町七丁目","koaza":"","lat":44.349438,"lng":143.357242,"zip":"0940011"},{"town":"港町八丁目","koaza":"","lat":44.347467,"lng":143.359099,"zip":"0940011"},{"town":"南が丘町一丁目","koaza":"","lat":44.345634,"lng":143.354114,"zip":"0940013"},{"town":"南が丘町二丁目","koaza":"","lat":44.343862,"lng":143.354463,"zip":"0940013"},{"town":"南が丘町三丁目","koaza":"","lat":44.341032,"lng":143.353535,"zip":"0940013"},{"town":"南が丘町四丁目","koaza":"","lat":44.338878,"lng":143.353331,"zip":"0940013"},{"town":"南が丘町五丁目","koaza":"","lat":44.341463,"lng":143.357775,"zip":"0940013"},{"town":"南が丘町六丁目","koaza":"","lat":44.338688,"lng":143.359013,"zip":"0940013"},{"town":"南が丘町七丁目","koaza":"","lat":44.334237,"lng":143.361043,"zip":"0940013"},{"town":"南が丘町八丁目","koaza":"","lat":44.334501,"lng":143.353193,"zip":"0940013"},{"town":"元紋別","koaza":"","lat":44.312305,"lng":143.380313,"zip":"0940023"},{"town":"藻別","koaza":"","lat":44.244708,"lng":143.355954,"zip":"0940024"},{"town":"八十士","koaza":"","lat":44.247531,"lng":143.409631,"zip":"0996131"}]