[{"town":"一条通北十丁目","koaza":"","lat":44.071873,"lng":143.535785,"zip":"0990403"},{"town":"一条通北一丁目","koaza":"","lat":44.058992,"lng":143.52641,"zip":"0990403"},{"town":"一条通北二丁目","koaza":"","lat":44.06031,"lng":143.527452,"zip":"0990403"},{"town":"一条通北三丁目","koaza":"","lat":44.061445,"lng":143.529354,"zip":"0990403"},{"town":"一条通北四丁目","koaza":"","lat":44.062826,"lng":143.530235,"zip":"0990403"},{"town":"一条通北五丁目","koaza":"","lat":44.064457,"lng":143.531212,"zip":"0990403"},{"town":"一条通北六丁目","koaza":"","lat":44.065862,"lng":143.532051,"zip":"0990403"},{"town":"一条通北七丁目","koaza":"","lat":44.067558,"lng":143.532919,"zip":"0990403"},{"town":"一条通北八丁目","koaza":"","lat":44.069108,"lng":143.534178,"zip":"0990403"},{"town":"一条通北九丁目","koaza":"","lat":44.070067,"lng":143.536123,"zip":"0990403"},{"town":"一条通南一丁目","koaza":"","lat":44.057283,"lng":143.525641,"zip":"0990417"},{"town":"一条通南二丁目","koaza":"","lat":44.055667,"lng":143.524562,"zip":"0990417"},{"town":"一条通南三丁目","koaza":"","lat":44.054584,"lng":143.52302,"zip":"0990417"},{"town":"二条通北一丁目","koaza":"","lat":44.05821,"lng":143.528532,"zip":"0990402"},{"town":"二条通北二丁目","koaza":"","lat":44.059131,"lng":143.530054,"zip":"0990402"},{"town":"二条通北三丁目","koaza":"","lat":44.060525,"lng":143.532009,"zip":"0990402"},{"town":"二条通北四丁目","koaza":"","lat":44.061984,"lng":143.533148,"zip":"0990402"},{"town":"二条通北五丁目","koaza":"","lat":44.063716,"lng":143.533466,"zip":"0990402"},{"town":"二条通北六丁目","koaza":"","lat":44.065244,"lng":143.534951,"zip":"0990402"},{"town":"二条通北七丁目","koaza":"","lat":44.066862,"lng":143.534919,"zip":"0990402"},{"town":"二条通北八丁目","koaza":"","lat":44.068071,"lng":143.534999,"zip":"0990402"},{"town":"二条通南一丁目","koaza":"","lat":44.056567,"lng":143.52809,"zip":"0990418"},{"town":"二条通南二丁目","koaza":"","lat":44.055262,"lng":143.527114,"zip":"0990418"},{"town":"生田原","koaza":"","lat":43.926654,"lng":143.533989,"zip":"0990701"},{"town":"生田原旭野","koaza":"","lat":43.978466,"lng":143.56376,"zip":"0990623"},{"town":"生田原伊吹","koaza":"","lat":43.877267,"lng":143.463696,"zip":"0990702"},{"town":"生田原岩戸","koaza":"","lat":43.900309,"lng":143.427538,"zip":"0990704"},{"town":"生田原清里","koaza":"","lat":43.838396,"lng":143.467808,"zip":"0990705"},{"town":"生田原豊原","koaza":"","lat":43.948857,"lng":143.541966,"zip":"0990624"},{"town":"生田原水穂","koaza":"","lat":44.007734,"lng":143.527636,"zip":"0990621"},{"town":"生田原八重","koaza":"","lat":43.876588,"lng":143.551963,"zip":"0990703"},{"town":"生田原安国","koaza":"","lat":43.973168,"lng":143.496724,"zip":"0990622"},{"town":"岩見通北十丁目","koaza":"","lat":44.074841,"lng":143.527904,"zip":"0990405"},{"town":"岩見通北十一丁目","koaza":"","lat":44.076382,"lng":143.528354,"zip":"0990405"},{"town":"岩見通北一丁目","koaza":"","lat":44.060347,"lng":143.521537,"zip":"0990405"},{"town":"岩見通北二丁目","koaza":"","lat":44.061903,"lng":143.522162,"zip":"0990405"},{"town":"岩見通北三丁目","koaza":"","lat":44.063024,"lng":143.522896,"zip":"0990405"},{"town":"岩見通北四丁目","koaza":"","lat":44.064593,"lng":143.523388,"zip":"0990405"},{"town":"岩見通北五丁目","koaza":"","lat":44.06682,"lng":143.524435,"zip":"0990405"},{"town":"岩見通北六丁目","koaza":"","lat":44.068155,"lng":143.525254,"zip":"0990405"},{"town":"岩見通北七丁目","koaza":"","lat":44.069775,"lng":143.526555,"zip":"0990405"},{"town":"岩見通北八丁目","koaza":"","lat":44.071426,"lng":143.527231,"zip":"0990405"},{"town":"岩見通北九丁目","koaza":"","lat":44.07314,"lng":143.527438,"zip":"0990405"},{"town":"岩見通南一丁目","koaza":"","lat":44.058871,"lng":143.520612,"zip":"0990415"},{"town":"岩見通南二丁目","koaza":"","lat":44.057114,"lng":143.519381,"zip":"0990415"},{"town":"岩見通南三丁目","koaza":"","lat":44.055894,"lng":143.519295,"zip":"0990415"},{"town":"岩見通南四丁目","koaza":"","lat":44.054443,"lng":143.518378,"zip":"0990415"},{"town":"大通北十丁目","koaza":"","lat":44.073161,"lng":143.53302,"zip":"0990404"},{"town":"大通北十一丁目","koaza":"","lat":44.074567,"lng":143.533965,"zip":"0990404"},{"town":"大通北一丁目","koaza":"","lat":44.059754,"lng":143.524045,"zip":"0990404"},{"town":"大通北二丁目","koaza":"","lat":44.061311,"lng":143.524275,"zip":"0990404"},{"town":"大通北三丁目","koaza":"","lat":44.0624,"lng":143.525122,"zip":"0990404"},{"town":"大通北四丁目","koaza":"","lat":44.064459,"lng":143.526558,"zip":"0990404"},{"town":"大通北五丁目","koaza":"","lat":44.0655,"lng":143.52803,"zip":"0990404"},{"town":"大通北六丁目","koaza":"","lat":44.067041,"lng":143.528868,"zip":"0990404"},{"town":"大通北七丁目","koaza":"","lat":44.068637,"lng":143.529876,"zip":"0990404"},{"town":"大通北八丁目","koaza":"","lat":44.070245,"lng":143.530612,"zip":"0990404"},{"town":"大通北九丁目","koaza":"","lat":44.071786,"lng":143.531161,"zip":"0990404"},{"town":"大通南一丁目","koaza":"","lat":44.058116,"lng":143.523024,"zip":"0990416"},{"town":"大通南二丁目","koaza":"","lat":44.056398,"lng":143.521988,"zip":"0990416"},{"town":"大通南三丁目","koaza":"","lat":44.05517,"lng":143.521264,"zip":"0990416"},{"town":"大通南四丁目","koaza":"","lat":44.054268,"lng":143.520423,"zip":"0990416"},{"town":"奥白滝","koaza":"","lat":43.872767,"lng":143.079797,"zip":"0990126"},{"town":"学田一丁目","koaza":"","lat":44.07699,"lng":143.518873,"zip":"0990401"},{"town":"学田二丁目","koaza":"","lat":44.07977,"lng":143.528332,"zip":"0990401"},{"town":"学田三丁目","koaza":"","lat":44.085097,"lng":143.529196,"zip":"0990401"},{"town":"学田四丁目","koaza":"","lat":44.089237,"lng":143.531194,"zip":"0990401"},{"town":"学田五丁目","koaza":"","lat":44.093812,"lng":143.5367,"zip":"0990401"},{"town":"柏","koaza":"","lat":43.991477,"lng":143.390577,"zip":"0990347"},{"town":"上白滝","koaza":"","lat":43.878282,"lng":143.128609,"zip":"0990127"},{"town":"旧白滝","koaza":"","lat":43.910887,"lng":143.224986,"zip":"0990102"},{"town":"清川","koaza":"","lat":44.035206,"lng":143.486233,"zip":"0990422"},{"town":"寿町","koaza":"","lat":44.039209,"lng":143.517866,"zip":"0990413"},{"town":"栄野","koaza":"","lat":44.025719,"lng":143.431352,"zip":"0990343"},{"town":"下白滝","koaza":"","lat":43.942072,"lng":143.272456,"zip":"0990101"},{"town":"社名淵","koaza":"","lat":44.075937,"lng":143.457474,"zip":"0990426"},{"town":"白滝","koaza":"","lat":43.880165,"lng":143.177523,"zip":"0990111"},{"town":"白滝上支湧別","koaza":"","lat":43.815482,"lng":143.132505,"zip":"0990123"},{"town":"白滝北支湧別","koaza":"","lat":43.864363,"lng":143.162916,"zip":"0990121"},{"town":"白滝支湧別","koaza":"","lat":43.844993,"lng":143.145695,"zip":"0990122"},{"town":"白滝天狗平","koaza":"","lat":43.86019,"lng":143.096383,"zip":"0990125"},{"town":"瀬戸瀬西町","koaza":"","lat":44.0078,"lng":143.417498,"zip":"0990342"},{"town":"瀬戸瀬東町","koaza":"","lat":44.006068,"lng":143.436792,"zip":"0990341"},{"town":"千代田","koaza":"","lat":44.078317,"lng":143.380916,"zip":"0990425"},{"town":"留岡","koaza":"","lat":44.072274,"lng":143.489283,"zip":"0990408"},{"town":"豊里","koaza":"","lat":44.024613,"lng":143.532224,"zip":"0990412"},{"town":"西町一丁目","koaza":"","lat":44.056499,"lng":143.512872,"zip":"0990428"},{"town":"西町二丁目","koaza":"","lat":44.052969,"lng":143.510576,"zip":"0990428"},{"town":"西町三丁目","koaza":"","lat":44.048503,"lng":143.505729,"zip":"0990428"},{"town":"野上","koaza":"","lat":44.007004,"lng":143.470901,"zip":"0990344"},{"town":"白竜","koaza":"","lat":44.09911,"lng":143.391864,"zip":"0990400"},{"town":"東白滝","koaza":"","lat":43.85634,"lng":143.130333,"zip":"0990124"},{"town":"東町一丁目","koaza":"","lat":44.057915,"lng":143.538541,"zip":"0990410"},{"town":"東町二丁目","koaza":"","lat":44.052719,"lng":143.539834,"zip":"0990410"},{"town":"東町三丁目","koaza":"","lat":44.049663,"lng":143.538181,"zip":"0990410"},{"town":"東町四丁目","koaza":"","lat":44.044649,"lng":143.534942,"zip":"0990410"},{"town":"東町五丁目","koaza":"","lat":44.039551,"lng":143.532884,"zip":"0990410"},{"town":"福路一丁目","koaza":"","lat":44.050011,"lng":143.517172,"zip":"0990421"},{"town":"福路二丁目","koaza":"","lat":44.045532,"lng":143.516126,"zip":"0990421"},{"town":"福路三丁目","koaza":"","lat":44.039779,"lng":143.511013,"zip":"0990421"},{"town":"丸瀬布金山","koaza":"","lat":44.022921,"lng":143.365437,"zip":"0990211"},{"town":"丸瀬布上丸","koaza":"","lat":43.979632,"lng":143.260546,"zip":"0990212"},{"town":"丸瀬布上武利","koaza":"","lat":43.917019,"lng":143.329002,"zip":"0990213"},{"town":"丸瀬布新町","koaza":"","lat":44.004373,"lng":143.341256,"zip":"0990201"},{"town":"丸瀬布大平","koaza":"","lat":43.925321,"lng":143.292997,"zip":"0990214"},{"town":"丸瀬布天神町","koaza":"","lat":43.99891,"lng":143.31745,"zip":"0990202"},{"town":"丸瀬布中町","koaza":"","lat":44.00487,"lng":143.335927,"zip":"0990203"},{"town":"丸瀬布西町","koaza":"","lat":44.001809,"lng":143.332472,"zip":"0990204"},{"town":"丸瀬布東町","koaza":"","lat":44.012865,"lng":143.341452,"zip":"0990205"},{"town":"丸瀬布水谷町","koaza":"","lat":44.007058,"lng":143.32866,"zip":"0990206"},{"town":"丸瀬布南丸","koaza":"","lat":43.974258,"lng":143.304687,"zip":"0990215"},{"town":"丸瀬布武利","koaza":"","lat":43.971867,"lng":143.335898,"zip":"0990216"},{"town":"丸瀬布元町","koaza":"","lat":43.997258,"lng":143.329358,"zip":"0990207"},{"town":"丸大","koaza":"","lat":44.063045,"lng":143.51164,"zip":"0990407"},{"town":"南町一丁目","koaza":"","lat":44.051715,"lng":143.524776,"zip":"0990414"},{"town":"南町二丁目","koaza":"","lat":44.052583,"lng":143.531474,"zip":"0990414"},{"town":"南町三丁目","koaza":"","lat":44.047628,"lng":143.526116,"zip":"0990414"},{"town":"南町四丁目","koaza":"","lat":44.043101,"lng":143.523889,"zip":"0990414"},{"town":"見晴","koaza":"","lat":44.055968,"lng":143.485309,"zip":"0990427"},{"town":"美山","koaza":"","lat":44.055311,"lng":143.417199,"zip":"0990424"},{"town":"宮前町","koaza":"","lat":44.05914,"lng":143.513505,"zip":"0990406"},{"town":"向遠軽","koaza":"","lat":44.052201,"lng":143.5593,"zip":"0990411"},{"town":"弥生","koaza":"","lat":44.077961,"lng":143.564135,"zip":"0990400"},{"town":"湯の里","koaza":"","lat":43.958591,"lng":143.427697,"zip":"0990345"},{"town":"若咲内","koaza":"","lat":44.011873,"lng":143.3865,"zip":"0990346"},{"town":"若松","koaza":"","lat":44.049306,"lng":143.453652,"zip":"0990423"}]