[{"town":"東藻琴","koaza":"","lat":43.819002,"lng":144.318681,"zip":"0993222"},{"town":"東藻琴清浦","koaza":"","lat":43.787862,"lng":144.363822,"zip":"0992300"},{"town":"東藻琴栄","koaza":"","lat":43.868569,"lng":144.370116,"zip":"0992300"},{"town":"東藻琴新富","koaza":"","lat":43.826744,"lng":144.338685,"zip":"0993222"},{"town":"東藻琴末広","koaza":"","lat":43.790874,"lng":144.308002,"zip":"0993232"},{"town":"東藻琴大進","koaza":"","lat":43.874041,"lng":144.313094,"zip":"0993221"},{"town":"東藻琴千草","koaza":"","lat":43.829818,"lng":144.264601,"zip":"0993231"},{"town":"東藻琴西倉","koaza":"","lat":43.859721,"lng":144.288657,"zip":"0993202"},{"town":"東藻琴福富","koaza":"","lat":43.790183,"lng":144.262637,"zip":"0993234"},{"town":"東藻琴明生","koaza":"","lat":43.849922,"lng":144.358237,"zip":"0993224"},{"town":"東藻琴山園","koaza":"","lat":43.743727,"lng":144.3102,"zip":"0993243"},{"town":"女満別朝日","koaza":"","lat":43.909159,"lng":144.220299,"zip":"0992362"},{"town":"女満別開陽","koaza":"","lat":43.817841,"lng":144.23403,"zip":"0992382"},{"town":"女満別公園一丁目","koaza":"","lat":43.914659,"lng":144.180048,"zip":"0992304"},{"town":"女満別公園二丁目","koaza":"","lat":43.917778,"lng":144.17988,"zip":"0992304"},{"town":"女満別公園三丁目","koaza":"","lat":43.917216,"lng":144.181873,"zip":"0992304"},{"town":"女満別公園四丁目","koaza":"","lat":43.919343,"lng":144.180396,"zip":"0992304"},{"town":"女満別公園五丁目","koaza":"","lat":43.918498,"lng":144.183011,"zip":"0992304"},{"town":"女満別公園六丁目","koaza":"","lat":43.917722,"lng":144.185795,"zip":"0992304"},{"town":"女満別公園通","koaza":"","lat":43.91014,"lng":144.176349,"zip":"0992351"},{"town":"女満別湖南","koaza":"","lat":43.945711,"lng":144.186262,"zip":"0992361"},{"town":"女満別湖畔一丁目","koaza":"","lat":43.917549,"lng":144.171672,"zip":"0992306"},{"town":"女満別湖畔二丁目","koaza":"","lat":43.916743,"lng":144.168032,"zip":"0992306"},{"town":"女満別湖畔三丁目","koaza":"","lat":43.916648,"lng":144.163186,"zip":"0992306"},{"town":"女満別湖畔四丁目","koaza":"","lat":43.914571,"lng":144.164161,"zip":"0992306"},{"town":"女満別昭和","koaza":"","lat":43.914269,"lng":144.198749,"zip":"0992356"},{"town":"女満別住吉","koaza":"","lat":43.916571,"lng":144.104355,"zip":"0992302"},{"town":"女満別大成","koaza":"","lat":43.852642,"lng":144.211147,"zip":"0992381"},{"town":"女満別大東","koaza":"","lat":43.877276,"lng":144.180452,"zip":"0992372"},{"town":"女満別中央","koaza":"","lat":43.889186,"lng":144.165298,"zip":"0992371"},{"town":"女満別眺湖台一丁目","koaza":"","lat":43.914935,"lng":144.186242,"zip":"0992354"},{"town":"女満別眺湖台二丁目","koaza":"","lat":43.914277,"lng":144.188506,"zip":"0992354"},{"town":"女満別眺湖台三丁目","koaza":"","lat":43.912794,"lng":144.191365,"zip":"0992354"},{"town":"女満別東陽一丁目","koaza":"","lat":43.911203,"lng":144.1794,"zip":"0992305"},{"town":"女満別東陽二丁目","koaza":"","lat":43.913736,"lng":144.182188,"zip":"0992305"},{"town":"女満別東陽三丁目","koaza":"","lat":43.915909,"lng":144.18361,"zip":"0992305"},{"town":"女満別巴沢","koaza":"","lat":43.890548,"lng":144.211911,"zip":"0992373"},{"town":"女満別豊里","koaza":"","lat":43.874617,"lng":144.108991,"zip":"0992303"},{"town":"女満別西一条一丁目","koaza":"","lat":43.9148,"lng":144.170148,"zip":"0992321"},{"town":"女満別西一条二丁目","koaza":"","lat":43.913926,"lng":144.171069,"zip":"0992321"},{"town":"女満別西一条三丁目","koaza":"","lat":43.913581,"lng":144.172203,"zip":"0992321"},{"town":"女満別西一条四丁目","koaza":"","lat":43.91315,"lng":144.173609,"zip":"0992321"},{"town":"女満別西一条五丁目","koaza":"","lat":43.91273,"lng":144.175033,"zip":"0992321"},{"town":"女満別西一条六丁目","koaza":"","lat":43.912442,"lng":144.177055,"zip":"0992321"},{"town":"女満別西二条一丁目","koaza":"","lat":43.914306,"lng":144.16832,"zip":"0992322"},{"town":"女満別西二条二丁目","koaza":"","lat":43.913057,"lng":144.16965,"zip":"0992322"},{"town":"女満別西二条三丁目","koaza":"","lat":43.912839,"lng":144.171757,"zip":"0992322"},{"town":"女満別西二条四丁目","koaza":"","lat":43.912401,"lng":144.173163,"zip":"0992322"},{"town":"女満別西二条五丁目","koaza":"","lat":43.911763,"lng":144.174453,"zip":"0992322"},{"town":"女満別西二条六丁目","koaza":"","lat":43.910929,"lng":144.175754,"zip":"0992322"},{"town":"女満別西三条一丁目","koaza":"","lat":43.91366,"lng":144.165443,"zip":"0992323"},{"town":"女満別西三条二丁目","koaza":"","lat":43.912046,"lng":144.168614,"zip":"0992323"},{"town":"女満別西三条三丁目","koaza":"","lat":43.911621,"lng":144.171039,"zip":"0992323"},{"town":"女満別西三条四丁目","koaza":"","lat":43.911183,"lng":144.172451,"zip":"0992323"},{"town":"女満別西三条五丁目","koaza":"","lat":43.910539,"lng":144.173708,"zip":"0992323"},{"town":"女満別西三条六丁目","koaza":"","lat":43.909876,"lng":144.174963,"zip":"0992323"},{"town":"女満別西四条一丁目","koaza":"","lat":43.91136,"lng":144.164693,"zip":"0992324"},{"town":"女満別西四条二丁目","koaza":"","lat":43.910519,"lng":144.166894,"zip":"0992324"},{"town":"女満別西四条三丁目","koaza":"","lat":43.909781,"lng":144.169278,"zip":"0992324"},{"town":"女満別西四条四丁目","koaza":"","lat":43.909351,"lng":144.171371,"zip":"0992324"},{"town":"女満別西四条五丁目","koaza":"","lat":43.908323,"lng":144.173279,"zip":"0992324"},{"town":"女満別西五条二丁目","koaza":"","lat":43.909675,"lng":144.164445,"zip":"0992325"},{"town":"女満別西五条三丁目","koaza":"","lat":43.908386,"lng":144.167624,"zip":"0992325"},{"town":"女満別西五条四丁目","koaza":"","lat":43.907944,"lng":144.1705,"zip":"0992325"},{"town":"女満別西五条五丁目","koaza":"","lat":43.906761,"lng":144.171855,"zip":"0992325"},{"town":"女満別西六条三丁目","koaza":"","lat":43.90741,"lng":144.165942,"zip":"0992326"},{"town":"女満別西六条四丁目","koaza":"","lat":43.906677,"lng":144.169718,"zip":"0992326"},{"town":"女満別西六条五丁目","koaza":"","lat":43.905667,"lng":144.171691,"zip":"0992326"},{"town":"女満別西七条四丁目","koaza":"","lat":43.905081,"lng":144.168737,"zip":"0992327"},{"town":"女満別西七条五丁目","koaza":"","lat":43.903978,"lng":144.169503,"zip":"0992327"},{"town":"女満別日進","koaza":"","lat":43.863584,"lng":144.247398,"zip":"0992383"},{"town":"女満別東一条一丁目","koaza":"","lat":43.916269,"lng":144.173104,"zip":"0992311"},{"town":"女満別東一条三丁目","koaza":"","lat":43.915268,"lng":144.173797,"zip":"0992311"},{"town":"女満別東一条四丁目","koaza":"","lat":43.915177,"lng":144.174819,"zip":"0992311"},{"town":"女満別東一条五丁目","koaza":"","lat":43.914803,"lng":144.175965,"zip":"0992311"},{"town":"女満別東一条六丁目","koaza":"","lat":43.914517,"lng":144.177798,"zip":"0992311"},{"town":"女満別東二条一丁目","koaza":"","lat":43.918129,"lng":144.17451,"zip":"0992312"},{"town":"女満別東二条四丁目","koaza":"","lat":43.916078,"lng":144.175902,"zip":"0992312"},{"town":"女満別東二条五丁目","koaza":"","lat":43.915641,"lng":144.176432,"zip":"0992312"},{"town":"女満別東二条六丁目","koaza":"","lat":43.917029,"lng":144.177426,"zip":"0992312"},{"town":"女満別本郷","koaza":"","lat":43.90229,"lng":144.146799,"zip":"0992301"},{"town":"女満別本通一丁目","koaza":"","lat":43.915535,"lng":144.171396,"zip":"0992310"},{"town":"女満別本通三丁目","koaza":"","lat":43.914654,"lng":144.172852,"zip":"0992310"},{"town":"女満別本通四丁目","koaza":"","lat":43.914192,"lng":144.17424,"zip":"0992310"},{"town":"女満別本通五丁目","koaza":"","lat":43.913725,"lng":144.175795,"zip":"0992310"},{"town":"女満別本通六丁目","koaza":"","lat":43.913638,"lng":144.177303,"zip":"0992310"},{"town":"女満別夕陽台一丁目","koaza":"","lat":43.912006,"lng":144.183213,"zip":"0992355"},{"town":"女満別夕陽台二丁目","koaza":"","lat":43.911824,"lng":144.185277,"zip":"0992355"},{"town":"女満別夕陽台三丁目","koaza":"","lat":43.911947,"lng":144.187438,"zip":"0992355"}]