[{"town":"字稲富","koaza":"","lat":43.890257,"lng":144.275215,"zip":"0930000"},{"town":"字卯原内","koaza":"","lat":44.000672,"lng":144.088367,"zip":"0930000"},{"town":"字浦士別","koaza":"","lat":43.90552,"lng":144.413307,"zip":"0930000"},{"town":"字大曲","koaza":"","lat":44.003734,"lng":144.231827,"zip":"0930000"},{"town":"字音根内","koaza":"","lat":43.909719,"lng":144.377997,"zip":"0930000"},{"town":"字嘉多山","koaza":"","lat":43.969845,"lng":144.140946,"zip":"0930000"},{"town":"字北浜","koaza":"","lat":43.949893,"lng":144.337964,"zip":"0930000"},{"town":"字清浦","koaza":"","lat":43.810859,"lng":144.379856,"zip":"0930000"},{"town":"字越歳","koaza":"","lat":43.953216,"lng":144.066879,"zip":"0930000"},{"town":"字栄","koaza":"","lat":43.864987,"lng":144.390799,"zip":"0930000"},{"town":"字三眺","koaza":"","lat":44.019805,"lng":144.216005,"zip":"0930000"},{"town":"字潮見","koaza":"","lat":43.991311,"lng":144.258458,"zip":"0930000"},{"town":"字昭和","koaza":"","lat":43.940769,"lng":144.294764,"zip":"0930000"},{"town":"字天都山","koaza":"","lat":44.009858,"lng":144.245808,"zip":"0930000"},{"town":"字豊郷","koaza":"","lat":43.959323,"lng":144.273434,"zip":"0930000"},{"town":"字中園","koaza":"","lat":43.918906,"lng":144.260279,"zip":"0930000"},{"town":"字能取","koaza":"","lat":44.091054,"lng":144.117382,"zip":"0930000"},{"town":"字東網走","koaza":"","lat":43.944616,"lng":144.248233,"zip":"0930000"},{"town":"字二ツ岩","koaza":"","lat":44.059779,"lng":144.247294,"zip":"0930000"},{"town":"字二見ケ岡","koaza":"","lat":44.019308,"lng":144.158201,"zip":"0930000"},{"town":"字平和","koaza":"","lat":44.03332,"lng":144.085141,"zip":"0930000"},{"town":"字鱒浦","koaza":"","lat":43.981294,"lng":144.28836,"zip":"0930000"},{"town":"字丸万","koaza":"","lat":43.912567,"lng":144.320264,"zip":"0930000"},{"town":"字美岬","koaza":"","lat":44.072302,"lng":144.209232,"zip":"0930000"},{"town":"字実豊","koaza":"","lat":43.916182,"lng":144.343929,"zip":"0930000"},{"town":"字明治","koaza":"","lat":44.041576,"lng":144.247559,"zip":"0930000"},{"town":"字藻琴","koaza":"","lat":43.960949,"lng":144.309864,"zip":"0930000"},{"town":"字八坂","koaza":"","lat":43.974685,"lng":144.246819,"zip":"0930000"},{"town":"字山里","koaza":"","lat":43.923094,"lng":144.302397,"zip":"0930000"},{"town":"字呼人","koaza":"","lat":43.965078,"lng":144.205663,"zip":"0930000"},{"town":"大曲一丁目","koaza":"","lat":44.013497,"lng":144.231191,"zip":"0930045"},{"town":"大曲二丁目","koaza":"","lat":44.010734,"lng":144.226516,"zip":"0930045"},{"town":"海岸町","koaza":"","lat":44.033588,"lng":144.258825,"zip":"0930083"},{"town":"桂町","koaza":"","lat":44.007488,"lng":144.267229,"zip":"0930041"},{"town":"桂町一丁目","koaza":"","lat":44.01595,"lng":144.268562,"zip":"0930041"},{"town":"桂町二丁目","koaza":"","lat":44.014733,"lng":144.272669,"zip":"0930041"},{"town":"桂町三丁目","koaza":"","lat":44.010065,"lng":144.272176,"zip":"0930041"},{"town":"桂町四丁目","koaza":"","lat":44.012457,"lng":144.270616,"zip":"0930041"},{"town":"桂町五丁目","koaza":"","lat":44.010128,"lng":144.267719,"zip":"0930041"},{"town":"北十条西一丁目","koaza":"","lat":44.028668,"lng":144.262055,"zip":"0930080"},{"town":"北十条西二丁目","koaza":"","lat":44.028411,"lng":144.261147,"zip":"0930080"},{"town":"北十条西三丁目","koaza":"","lat":44.027875,"lng":144.259786,"zip":"0930080"},{"town":"北十条西四丁目","koaza":"","lat":44.027462,"lng":144.258439,"zip":"0930080"},{"town":"北十条西五丁目","koaza":"","lat":44.026968,"lng":144.257199,"zip":"0930080"},{"town":"北十条西六丁目","koaza":"","lat":44.026516,"lng":144.256365,"zip":"0930080"},{"town":"北十条東一丁目","koaza":"","lat":44.02912,"lng":144.263081,"zip":"0930060"},{"town":"北十一条西一丁目","koaza":"","lat":44.029143,"lng":144.261487,"zip":"0930081"},{"town":"北十一条西二丁目","koaza":"","lat":44.028833,"lng":144.260698,"zip":"0930081"},{"town":"北十一条西三丁目","koaza":"","lat":44.028428,"lng":144.259404,"zip":"0930081"},{"town":"北十一条西四丁目","koaza":"","lat":44.027964,"lng":144.258363,"zip":"0930081"},{"town":"北十一条西五丁目","koaza":"","lat":44.027503,"lng":144.25738,"zip":"0930081"},{"town":"北十一条東一丁目","koaza":"","lat":44.029533,"lng":144.262245,"zip":"0930061"},{"town":"北十二条西二丁目","koaza":"","lat":44.029537,"lng":144.259578,"zip":"0930082"},{"town":"北十二条東一丁目","koaza":"","lat":44.030442,"lng":144.261984,"zip":"0930062"},{"town":"北一条西一丁目","koaza":"","lat":44.023857,"lng":144.26578,"zip":"0930071"},{"town":"北一条西二丁目","koaza":"","lat":44.023109,"lng":144.263391,"zip":"0930071"},{"town":"北一条西四丁目","koaza":"","lat":44.02237,"lng":144.261377,"zip":"0930071"},{"town":"北一条西五丁目","koaza":"","lat":44.02231,"lng":144.260226,"zip":"0930071"},{"town":"北一条東一丁目","koaza":"","lat":44.024273,"lng":144.26729,"zip":"0930051"},{"town":"北一条東二丁目","koaza":"","lat":44.024281,"lng":144.270211,"zip":"0930051"},{"town":"北二条西一丁目","koaza":"","lat":44.024638,"lng":144.265255,"zip":"0930072"},{"town":"北二条西二丁目","koaza":"","lat":44.024159,"lng":144.263918,"zip":"0930072"},{"town":"北二条西三丁目","koaza":"","lat":44.023639,"lng":144.262562,"zip":"0930072"},{"town":"北二条西四丁目","koaza":"","lat":44.023247,"lng":144.260873,"zip":"0930072"},{"town":"北二条西五丁目","koaza":"","lat":44.022821,"lng":144.259996,"zip":"0930072"},{"town":"北二条西六丁目","koaza":"","lat":44.022295,"lng":144.258507,"zip":"0930072"},{"town":"北二条西七丁目","koaza":"","lat":44.022026,"lng":144.257037,"zip":"0930072"},{"town":"北二条東一丁目","koaza":"","lat":44.02509,"lng":144.266566,"zip":"0930052"},{"town":"北二条東二丁目","koaza":"","lat":44.025676,"lng":144.268168,"zip":"0930052"},{"town":"北三条西一丁目","koaza":"","lat":44.025149,"lng":144.264904,"zip":"0930073"},{"town":"北三条西二丁目","koaza":"","lat":44.02467,"lng":144.263578,"zip":"0930073"},{"town":"北三条西三丁目","koaza":"","lat":44.024164,"lng":144.262137,"zip":"0930073"},{"town":"北三条西四丁目","koaza":"","lat":44.023748,"lng":144.26097,"zip":"0930073"},{"town":"北三条西五丁目","koaza":"","lat":44.023289,"lng":144.259668,"zip":"0930073"},{"town":"北三条西六丁目","koaza":"","lat":44.02287,"lng":144.258322,"zip":"0930073"},{"town":"北三条西七丁目","koaza":"","lat":44.022402,"lng":144.257058,"zip":"0930073"},{"town":"北三条西八丁目","koaza":"","lat":44.022013,"lng":144.255505,"zip":"0930073"},{"town":"北三条東一丁目","koaza":"","lat":44.025591,"lng":144.266075,"zip":"0930053"},{"town":"北三条東二丁目","koaza":"","lat":44.026146,"lng":144.267776,"zip":"0930053"},{"town":"北四条西一丁目","koaza":"","lat":44.02566,"lng":144.264558,"zip":"0930074"},{"town":"北四条西二丁目","koaza":"","lat":44.025183,"lng":144.263221,"zip":"0930074"},{"town":"北四条西三丁目","koaza":"","lat":44.024686,"lng":144.261951,"zip":"0930074"},{"town":"北四条西四丁目","koaza":"","lat":44.024262,"lng":144.26062,"zip":"0930074"},{"town":"北四条西五丁目","koaza":"","lat":44.023722,"lng":144.259217,"zip":"0930074"},{"town":"北四条西六丁目","koaza":"","lat":44.023384,"lng":144.25798,"zip":"0930074"},{"town":"北四条西七丁目","koaza":"","lat":44.022827,"lng":144.257091,"zip":"0930074"},{"town":"北四条西八丁目","koaza":"","lat":44.022243,"lng":144.254961,"zip":"0930074"},{"town":"北四条東一丁目","koaza":"","lat":44.026123,"lng":144.265869,"zip":"0930054"},{"town":"北四条東二丁目","koaza":"","lat":44.02661,"lng":144.267263,"zip":"0930054"},{"town":"北五条西一丁目","koaza":"","lat":44.026178,"lng":144.26416,"zip":"0930075"},{"town":"北五条西二丁目","koaza":"","lat":44.025684,"lng":144.262883,"zip":"0930075"},{"town":"北五条西三丁目","koaza":"","lat":44.025242,"lng":144.261586,"zip":"0930075"},{"town":"北五条西四丁目","koaza":"","lat":44.024782,"lng":144.260274,"zip":"0930075"},{"town":"北五条西五丁目","koaza":"","lat":44.024318,"lng":144.258973,"zip":"0930075"},{"town":"北五条西六丁目","koaza":"","lat":44.023852,"lng":144.25772,"zip":"0930075"},{"town":"北五条西七丁目","koaza":"","lat":44.023237,"lng":144.256617,"zip":"0930075"},{"town":"北五条西八丁目","koaza":"","lat":44.022731,"lng":144.255286,"zip":"0930075"},{"town":"北五条東一丁目","koaza":"","lat":44.026605,"lng":144.265399,"zip":"0930055"},{"town":"北五条東二丁目","koaza":"","lat":44.027106,"lng":144.266847,"zip":"0930055"},{"town":"北六条西一丁目","koaza":"","lat":44.02676,"lng":144.263852,"zip":"0930076"},{"town":"北六条西二丁目","koaza":"","lat":44.026265,"lng":144.26244,"zip":"0930076"},{"town":"北六条西三丁目","koaza":"","lat":44.025805,"lng":144.261215,"zip":"0930076"},{"town":"北六条西四丁目","koaza":"","lat":44.025344,"lng":144.259899,"zip":"0930076"},{"town":"北六条西五丁目","koaza":"","lat":44.024878,"lng":144.258539,"zip":"0930076"},{"town":"北六条西六丁目","koaza":"","lat":44.024415,"lng":144.257333,"zip":"0930076"},{"town":"北六条西七丁目","koaza":"","lat":44.023165,"lng":144.255714,"zip":"0930076"},{"town":"北六条東一丁目","koaza":"","lat":44.027199,"lng":144.265173,"zip":"0930056"},{"town":"北六条東二丁目","koaza":"","lat":44.027584,"lng":144.266426,"zip":"0930056"},{"town":"北七条西一丁目","koaza":"","lat":44.027297,"lng":144.263475,"zip":"0930077"},{"town":"北七条西二丁目","koaza":"","lat":44.026823,"lng":144.262128,"zip":"0930077"},{"town":"北七条西三丁目","koaza":"","lat":44.026365,"lng":144.260834,"zip":"0930077"},{"town":"北七条西四丁目","koaza":"","lat":44.025857,"lng":144.259391,"zip":"0930077"},{"town":"北七条西五丁目","koaza":"","lat":44.025421,"lng":144.258269,"zip":"0930077"},{"town":"北七条西六丁目","koaza":"","lat":44.02483,"lng":144.256743,"zip":"0930077"},{"town":"北七条東一丁目","koaza":"","lat":44.027903,"lng":144.264818,"zip":"0930057"},{"town":"北七条東二丁目","koaza":"","lat":44.027849,"lng":144.26558,"zip":"0930057"},{"town":"北八条西一丁目","koaza":"","lat":44.027745,"lng":144.263084,"zip":"0930078"},{"town":"北八条西二丁目","koaza":"","lat":44.027337,"lng":144.261778,"zip":"0930078"},{"town":"北八条西三丁目","koaza":"","lat":44.026879,"lng":144.260482,"zip":"0930078"},{"town":"北八条西四丁目","koaza":"","lat":44.026416,"lng":144.259177,"zip":"0930078"},{"town":"北八条西五丁目","koaza":"","lat":44.02595,"lng":144.257813,"zip":"0930078"},{"town":"北八条西六丁目","koaza":"","lat":44.025462,"lng":144.256512,"zip":"0930078"},{"town":"北八条東一丁目","koaza":"","lat":44.028374,"lng":144.264713,"zip":"0930058"},{"town":"北九条西一丁目","koaza":"","lat":44.028201,"lng":144.262621,"zip":"0930079"},{"town":"北九条西二丁目","koaza":"","lat":44.027853,"lng":144.261421,"zip":"0930079"},{"town":"北九条西三丁目","koaza":"","lat":44.02739,"lng":144.260129,"zip":"0930079"},{"town":"北九条西四丁目","koaza":"","lat":44.026927,"lng":144.258878,"zip":"0930079"},{"town":"北九条西五丁目","koaza":"","lat":44.026549,"lng":144.257576,"zip":"0930079"},{"town":"北九条西六丁目","koaza":"","lat":44.026033,"lng":144.256356,"zip":"0930079"},{"town":"北九条東一丁目","koaza":"","lat":44.028778,"lng":144.264047,"zip":"0930059"},{"town":"向陽ケ丘","koaza":"","lat":44.031815,"lng":144.234215,"zip":"0930084"},{"town":"向陽ケ丘一丁目","koaza":"","lat":44.026727,"lng":144.254498,"zip":"0930084"},{"town":"向陽ケ丘二丁目","koaza":"","lat":44.031727,"lng":144.256274,"zip":"0930084"},{"town":"向陽ケ丘三丁目","koaza":"","lat":44.026932,"lng":144.252077,"zip":"0930084"},{"town":"向陽ケ丘四丁目","koaza":"","lat":44.031679,"lng":144.252213,"zip":"0930084"},{"town":"向陽ケ丘五丁目","koaza":"","lat":44.029531,"lng":144.2503,"zip":"0930084"},{"town":"向陽ケ丘六丁目","koaza":"","lat":44.024397,"lng":144.246022,"zip":"0930084"},{"town":"向陽ケ丘七丁目","koaza":"","lat":44.029232,"lng":144.245443,"zip":"0930084"},{"town":"駒場","koaza":"","lat":44.00469,"lng":144.285663,"zip":"0930035"},{"town":"駒場北一丁目","koaza":"","lat":44.009614,"lng":144.276934,"zip":"0930033"},{"town":"駒場北二丁目","koaza":"","lat":44.007695,"lng":144.278637,"zip":"0930033"},{"town":"駒場北三丁目","koaza":"","lat":44.006284,"lng":144.279959,"zip":"0930033"},{"town":"駒場北四丁目","koaza":"","lat":44.004903,"lng":144.282025,"zip":"0930033"},{"town":"駒場北五丁目","koaza":"","lat":44.002041,"lng":144.284292,"zip":"0930033"},{"town":"駒場北六丁目","koaza":"","lat":43.999379,"lng":144.286227,"zip":"0930033"},{"town":"駒場南一丁目","koaza":"","lat":44.006931,"lng":144.272233,"zip":"0930035"},{"town":"駒場南二丁目","koaza":"","lat":44.005482,"lng":144.27512,"zip":"0930035"},{"town":"駒場南三丁目","koaza":"","lat":44.004136,"lng":144.275754,"zip":"0930035"},{"town":"駒場南四丁目","koaza":"","lat":44.003471,"lng":144.278288,"zip":"0930035"},{"town":"駒場南五丁目","koaza":"","lat":44.000926,"lng":144.277385,"zip":"0930035"},{"town":"駒場南六丁目","koaza":"","lat":43.999858,"lng":144.280069,"zip":"0930035"},{"town":"駒場南七丁目","koaza":"","lat":43.998555,"lng":144.282335,"zip":"0930035"},{"town":"駒場南八丁目","koaza":"","lat":43.996205,"lng":144.281759,"zip":"0930035"},{"town":"潮見十丁目","koaza":"","lat":43.996514,"lng":144.260087,"zip":"0930042"},{"town":"潮見十一丁目","koaza":"","lat":43.994459,"lng":144.25961,"zip":"0930042"},{"town":"潮見一丁目","koaza":"","lat":44.006518,"lng":144.263868,"zip":"0930042"},{"town":"潮見二丁目","koaza":"","lat":44.000774,"lng":144.260088,"zip":"0930042"},{"town":"潮見三丁目","koaza":"","lat":44.003515,"lng":144.267183,"zip":"0930042"},{"town":"潮見四丁目","koaza":"","lat":44.002025,"lng":144.270425,"zip":"0930042"},{"town":"潮見五丁目","koaza":"","lat":43.999217,"lng":144.273519,"zip":"0930042"},{"town":"潮見六丁目","koaza":"","lat":43.999828,"lng":144.268546,"zip":"0930042"},{"town":"潮見七丁目","koaza":"","lat":43.999446,"lng":144.265873,"zip":"0930042"},{"town":"潮見八丁目","koaza":"","lat":43.997414,"lng":144.26516,"zip":"0930042"},{"town":"潮見九丁目","koaza":"","lat":43.996219,"lng":144.263499,"zip":"0930042"},{"town":"新町一丁目","koaza":"","lat":44.01845,"lng":144.244658,"zip":"0930046"},{"town":"新町二丁目","koaza":"","lat":44.01752,"lng":144.245301,"zip":"0930046"},{"town":"新町三丁目","koaza":"","lat":44.016632,"lng":144.24541,"zip":"0930046"},{"town":"台町一丁目","koaza":"","lat":44.016188,"lng":144.276183,"zip":"0930031"},{"town":"台町二丁目","koaza":"","lat":44.016323,"lng":144.280272,"zip":"0930031"},{"town":"台町三丁目","koaza":"","lat":44.012488,"lng":144.277054,"zip":"0930031"},{"town":"つくしケ丘一丁目","koaza":"","lat":43.996117,"lng":144.290301,"zip":"0930034"},{"town":"つくしケ丘二丁目","koaza":"","lat":43.995675,"lng":144.28683,"zip":"0930034"},{"town":"つくしケ丘三丁目","koaza":"","lat":43.993866,"lng":144.283749,"zip":"0930034"},{"town":"つくしケ丘四丁目","koaza":"","lat":43.993075,"lng":144.287935,"zip":"0930034"},{"town":"つくしケ丘五丁目","koaza":"","lat":43.991854,"lng":144.290435,"zip":"0930034"},{"town":"つくしケ丘六丁目","koaza":"","lat":43.993249,"lng":144.293273,"zip":"0930034"},{"town":"錦町","koaza":"","lat":44.007898,"lng":144.256746,"zip":"0930043"},{"town":"能取港町一丁目","koaza":"","lat":44.04011,"lng":144.18263,"zip":"0930131"},{"town":"能取港町二丁目","koaza":"","lat":44.038957,"lng":144.183887,"zip":"0930131"},{"town":"能取港町三丁目","koaza":"","lat":44.038509,"lng":144.185012,"zip":"0930131"},{"town":"能取港町四丁目","koaza":"","lat":44.037941,"lng":144.186484,"zip":"0930131"},{"town":"能取港町五丁目","koaza":"","lat":44.046918,"lng":144.186479,"zip":"0930131"},{"town":"鱒浦一丁目","koaza":"","lat":43.989743,"lng":144.289554,"zip":"0993119"},{"town":"鱒浦二丁目","koaza":"","lat":43.98528,"lng":144.292078,"zip":"0993119"},{"town":"鱒浦三丁目","koaza":"","lat":43.990848,"lng":144.28159,"zip":"0993119"},{"town":"鱒浦四丁目","koaza":"","lat":43.986991,"lng":144.281202,"zip":"0993119"},{"town":"鱒浦五丁目","koaza":"","lat":43.990431,"lng":144.278014,"zip":"0993119"},{"town":"緑町","koaza":"","lat":44.022399,"lng":144.249592,"zip":"0930089"},{"town":"港町","koaza":"","lat":44.016519,"lng":144.285552,"zip":"0930032"},{"town":"南十条西二丁目","koaza":"","lat":44.01711,"lng":144.266,"zip":"0930020"},{"town":"南十条西三丁目","koaza":"","lat":44.016933,"lng":144.264511,"zip":"0930020"},{"town":"南十条西四丁目","koaza":"","lat":44.016868,"lng":144.26276,"zip":"0930020"},{"town":"南十条東三丁目","koaza":"","lat":44.017574,"lng":144.272822,"zip":"0930010"},{"town":"南十条東四丁目","koaza":"","lat":44.017678,"lng":144.273451,"zip":"0930010"},{"town":"南十条東五丁目","koaza":"","lat":44.018338,"lng":144.275407,"zip":"0930010"},{"town":"南十一条西二丁目","koaza":"","lat":44.0163,"lng":144.266132,"zip":"0930021"},{"town":"南十一条西三丁目","koaza":"","lat":44.016038,"lng":144.264777,"zip":"0930021"},{"town":"南十二条西二丁目","koaza":"","lat":44.01515,"lng":144.266397,"zip":"0930022"},{"town":"南十二条西三丁目","koaza":"","lat":44.014457,"lng":144.263466,"zip":"0930022"},{"town":"南十三条西二丁目","koaza":"","lat":44.014081,"lng":144.266506,"zip":"0930023"},{"town":"南十三条西三丁目","koaza":"","lat":44.01405,"lng":144.264805,"zip":"0930023"},{"town":"南十四条西二丁目","koaza":"","lat":44.013203,"lng":144.266533,"zip":"0930024"},{"town":"南十四条西三丁目","koaza":"","lat":44.012941,"lng":144.264931,"zip":"0930024"},{"town":"南一条西一丁目","koaza":"","lat":44.022839,"lng":144.266472,"zip":"0930011"},{"town":"南一条西二丁目","koaza":"","lat":44.022505,"lng":144.264841,"zip":"0930011"},{"town":"南一条東一丁目","koaza":"","lat":44.022985,"lng":144.26814,"zip":"0930001"},{"town":"南一条東二丁目","koaza":"","lat":44.023016,"lng":144.269875,"zip":"0930001"},{"town":"南二条西一丁目","koaza":"","lat":44.021949,"lng":144.266864,"zip":"0930012"},{"town":"南二条西二丁目","koaza":"","lat":44.021868,"lng":144.265567,"zip":"0930012"},{"town":"南二条西三丁目","koaza":"","lat":44.021964,"lng":144.263252,"zip":"0930012"},{"town":"南二条西四丁目","koaza":"","lat":44.021613,"lng":144.261419,"zip":"0930012"},{"town":"南二条西五丁目","koaza":"","lat":44.021433,"lng":144.259759,"zip":"0930012"},{"town":"南二条東一丁目","koaza":"","lat":44.022107,"lng":144.268433,"zip":"0930002"},{"town":"南二条東二丁目","koaza":"","lat":44.022267,"lng":144.270007,"zip":"0930002"},{"town":"南二条東三丁目","koaza":"","lat":44.022558,"lng":144.271546,"zip":"0930002"},{"town":"南三条西一丁目","koaza":"","lat":44.021376,"lng":144.266968,"zip":"0930013"},{"town":"南三条西二丁目","koaza":"","lat":44.021222,"lng":144.265426,"zip":"0930013"},{"town":"南三条西三丁目","koaza":"","lat":44.021111,"lng":144.263762,"zip":"0930013"},{"town":"南三条西四丁目","koaza":"","lat":44.020897,"lng":144.261185,"zip":"0930013"},{"town":"南三条東一丁目","koaza":"","lat":44.021536,"lng":144.268543,"zip":"0930003"},{"town":"南三条東二丁目","koaza":"","lat":44.021695,"lng":144.270111,"zip":"0930003"},{"town":"南三条東三丁目","koaza":"","lat":44.021855,"lng":144.27168,"zip":"0930003"},{"town":"南三条東四丁目","koaza":"","lat":44.022279,"lng":144.2732,"zip":"0930003"},{"town":"南三条東五丁目","koaza":"","lat":44.022169,"lng":144.274829,"zip":"0930003"},{"town":"南三条東六丁目","koaza":"","lat":44.022407,"lng":144.276222,"zip":"0930003"},{"town":"南三条東七丁目","koaza":"","lat":44.022572,"lng":144.279356,"zip":"0930003"},{"town":"南四条西一丁目","koaza":"","lat":44.020808,"lng":144.267072,"zip":"0930014"},{"town":"南四条西二丁目","koaza":"","lat":44.020652,"lng":144.265529,"zip":"0930014"},{"town":"南四条西三丁目","koaza":"","lat":44.020494,"lng":144.263961,"zip":"0930014"},{"town":"南四条西四丁目","koaza":"","lat":44.020292,"lng":144.261956,"zip":"0930014"},{"town":"南四条東一丁目","koaza":"","lat":44.020965,"lng":144.268652,"zip":"0930004"},{"town":"南四条東二丁目","koaza":"","lat":44.021125,"lng":144.270224,"zip":"0930004"},{"town":"南四条東三丁目","koaza":"","lat":44.021283,"lng":144.271788,"zip":"0930004"},{"town":"南四条東四丁目","koaza":"","lat":44.021441,"lng":144.273358,"zip":"0930004"},{"town":"南四条東五丁目","koaza":"","lat":44.0216,"lng":144.274929,"zip":"0930004"},{"town":"南四条東六丁目","koaza":"","lat":44.02234,"lng":144.277941,"zip":"0930004"},{"town":"南四条東七丁目","koaza":"","lat":44.021621,"lng":144.279342,"zip":"0930004"},{"town":"南五条西一丁目","koaza":"","lat":44.020241,"lng":144.267184,"zip":"0930015"},{"town":"南五条西二丁目","koaza":"","lat":44.020086,"lng":144.265646,"zip":"0930015"},{"town":"南五条西三丁目","koaza":"","lat":44.019929,"lng":144.264068,"zip":"0930015"},{"town":"南五条西四丁目","koaza":"","lat":44.019768,"lng":144.262248,"zip":"0930015"},{"town":"南五条東一丁目","koaza":"","lat":44.0204,"lng":144.268761,"zip":"0930005"},{"town":"南五条東二丁目","koaza":"","lat":44.020559,"lng":144.270327,"zip":"0930005"},{"town":"南五条東三丁目","koaza":"","lat":44.020593,"lng":144.271909,"zip":"0930005"},{"town":"南五条東四丁目","koaza":"","lat":44.020874,"lng":144.273459,"zip":"0930005"},{"town":"南五条東五丁目","koaza":"","lat":44.021033,"lng":144.275034,"zip":"0930005"},{"town":"南五条東六丁目","koaza":"","lat":44.021217,"lng":144.277027,"zip":"0930005"},{"town":"南五条東七丁目","koaza":"","lat":44.021405,"lng":144.278571,"zip":"0930005"},{"town":"南六条西一丁目","koaza":"","lat":44.019658,"lng":144.267293,"zip":"0930016"},{"town":"南六条西二丁目","koaza":"","lat":44.019502,"lng":144.26575,"zip":"0930016"},{"town":"南六条西三丁目","koaza":"","lat":44.019369,"lng":144.26417,"zip":"0930016"},{"town":"南六条西四丁目","koaza":"","lat":44.019231,"lng":144.262645,"zip":"0930016"},{"town":"南六条東一丁目","koaza":"","lat":44.019818,"lng":144.26887,"zip":"0930006"},{"town":"南六条東二丁目","koaza":"","lat":44.019975,"lng":144.270439,"zip":"0930006"},{"town":"南六条東三丁目","koaza":"","lat":44.020093,"lng":144.272008,"zip":"0930006"},{"town":"南六条東四丁目","koaza":"","lat":44.020292,"lng":144.273573,"zip":"0930006"},{"town":"南六条東五丁目","koaza":"","lat":44.02045,"lng":144.275149,"zip":"0930006"},{"town":"南六条東六丁目","koaza":"","lat":44.020656,"lng":144.277345,"zip":"0930006"},{"town":"南六条東七丁目","koaza":"","lat":44.020841,"lng":144.279202,"zip":"0930006"},{"town":"南七条西一丁目","koaza":"","lat":44.019029,"lng":144.267293,"zip":"0930017"},{"town":"南七条西二丁目","koaza":"","lat":44.018917,"lng":144.265852,"zip":"0930017"},{"town":"南七条西三丁目","koaza":"","lat":44.01873,"lng":144.264274,"zip":"0930017"},{"town":"南七条西四丁目","koaza":"","lat":44.018654,"lng":144.26285,"zip":"0930017"},{"town":"南七条東一丁目","koaza":"","lat":44.019235,"lng":144.26898,"zip":"0930007"},{"town":"南七条東二丁目","koaza":"","lat":44.01939,"lng":144.270548,"zip":"0930007"},{"town":"南七条東三丁目","koaza":"","lat":44.01955,"lng":144.272111,"zip":"0930007"},{"town":"南七条東四丁目","koaza":"","lat":44.019708,"lng":144.273682,"zip":"0930007"},{"town":"南七条東五丁目","koaza":"","lat":44.019867,"lng":144.275258,"zip":"0930007"},{"town":"南七条東六丁目","koaza":"","lat":44.020095,"lng":144.277735,"zip":"0930007"},{"town":"南七条東七丁目","koaza":"","lat":44.020044,"lng":144.28019,"zip":"0930007"},{"town":"南八条西一丁目","koaza":"","lat":44.018493,"lng":144.267506,"zip":"0930018"},{"town":"南八条西二丁目","koaza":"","lat":44.018394,"lng":144.265903,"zip":"0930018"},{"town":"南八条西三丁目","koaza":"","lat":44.018215,"lng":144.264318,"zip":"0930018"},{"town":"南八条西四丁目","koaza":"","lat":44.018093,"lng":144.263011,"zip":"0930018"},{"town":"南八条東一丁目","koaza":"","lat":44.018623,"lng":144.269088,"zip":"0930008"},{"town":"南八条東二丁目","koaza":"","lat":44.018832,"lng":144.270647,"zip":"0930008"},{"town":"南八条東三丁目","koaza":"","lat":44.018979,"lng":144.272215,"zip":"0930008"},{"town":"南八条東四丁目","koaza":"","lat":44.019132,"lng":144.273792,"zip":"0930008"},{"town":"南八条東五丁目","koaza":"","lat":44.019297,"lng":144.27537,"zip":"0930008"},{"town":"南八条東六丁目","koaza":"","lat":44.019552,"lng":144.277638,"zip":"0930008"},{"town":"南八条東七丁目","koaza":"","lat":44.019206,"lng":144.281566,"zip":"0930008"},{"town":"南九条西二丁目","koaza":"","lat":44.01787,"lng":144.265816,"zip":"0930019"},{"town":"南九条西三丁目","koaza":"","lat":44.017717,"lng":144.264395,"zip":"0930019"},{"town":"南九条西四丁目","koaza":"","lat":44.017545,"lng":144.262831,"zip":"0930019"},{"town":"南九条東二丁目","koaza":"","lat":44.018302,"lng":144.270746,"zip":"0930009"},{"town":"南九条東三丁目","koaza":"","lat":44.018401,"lng":144.27232,"zip":"0930009"},{"town":"南九条東四丁目","koaza":"","lat":44.018568,"lng":144.273897,"zip":"0930009"},{"town":"南九条東五丁目","koaza":"","lat":44.018726,"lng":144.275472,"zip":"0930009"},{"town":"南九条東六丁目","koaza":"","lat":44.018813,"lng":144.276787,"zip":"0930009"}]