[{"town":"字一の沢","koaza":"","lat":43.300004,"lng":141.885852,"zip":"0720000"},{"town":"一心町","koaza":"","lat":43.322204,"lng":141.830019,"zip":"0720044"},{"town":"大通西一条北一丁目","koaza":"","lat":43.333129,"lng":141.860241,"zip":"0720021"},{"town":"大通西一条北二丁目","koaza":"","lat":43.334412,"lng":141.860595,"zip":"0720021"},{"town":"大通西一条北三丁目","koaza":"","lat":43.335686,"lng":141.860985,"zip":"0720021"},{"town":"大通西一条北四丁目","koaza":"","lat":43.336854,"lng":141.861452,"zip":"0720021"},{"town":"大通西一条南一丁目","koaza":"","lat":43.33194,"lng":141.85992,"zip":"0720023"},{"town":"大通西一条南二丁目","koaza":"","lat":43.330793,"lng":141.859669,"zip":"0720023"},{"town":"大通西一条南三丁目","koaza":"","lat":43.329495,"lng":141.85921,"zip":"0720023"},{"town":"大通西一条南四丁目","koaza":"","lat":43.328056,"lng":141.858798,"zip":"0720023"},{"town":"大通西一条南五丁目","koaza":"","lat":43.326135,"lng":141.858267,"zip":"0720023"},{"town":"大通西一条南六丁目","koaza":"","lat":43.324044,"lng":141.85757,"zip":"0720023"},{"town":"大通西一条南七丁目","koaza":"","lat":43.321176,"lng":141.856875,"zip":"0720023"},{"town":"大通東一条北一丁目","koaza":"","lat":43.333087,"lng":141.861164,"zip":"0720001"},{"town":"大通東一条北二丁目","koaza":"","lat":43.334115,"lng":141.861322,"zip":"0720001"},{"town":"大通東一条北三丁目","koaza":"","lat":43.335654,"lng":141.861837,"zip":"0720001"},{"town":"大通東一条北四丁目","koaza":"","lat":43.337005,"lng":141.862244,"zip":"0720001"},{"town":"大通東一条南一丁目","koaza":"","lat":43.331806,"lng":141.860731,"zip":"0720011"},{"town":"大通東一条南二丁目","koaza":"","lat":43.330544,"lng":141.860343,"zip":"0720011"},{"town":"大通東一条南三丁目","koaza":"","lat":43.32934,"lng":141.860013,"zip":"0720011"},{"town":"大通東一条南四丁目","koaza":"","lat":43.328034,"lng":141.859638,"zip":"0720011"},{"town":"大通東一条南五丁目","koaza":"","lat":43.326138,"lng":141.859221,"zip":"0720011"},{"town":"大通東一条南六丁目","koaza":"","lat":43.323874,"lng":141.858585,"zip":"0720011"},{"town":"大通東一条南七丁目","koaza":"","lat":43.321219,"lng":141.85781,"zip":"0720011"},{"town":"落合町入初","koaza":"","lat":43.329479,"lng":141.898373,"zip":"0720835"},{"town":"落合町栄町","koaza":"","lat":43.331299,"lng":141.91249,"zip":"0720831"},{"town":"落合町住吉","koaza":"","lat":43.312838,"lng":141.908766,"zip":"0720834"},{"town":"落合町本町","koaza":"","lat":43.314516,"lng":141.919037,"zip":"0720832"},{"town":"落合町緑が丘","koaza":"","lat":43.326808,"lng":141.908963,"zip":"0720833"},{"town":"開発町北","koaza":"","lat":43.344411,"lng":141.807182,"zip":"0720046"},{"town":"開発町親和","koaza":"","lat":43.356045,"lng":141.795498,"zip":"0720047"},{"town":"開発町南","koaza":"","lat":43.328138,"lng":141.809862,"zip":"0720045"},{"town":"上美唄町","koaza":"","lat":43.335516,"lng":141.781775,"zip":"0720051"},{"town":"上美唄町中央","koaza":"","lat":43.323792,"lng":141.754996,"zip":"0720053"},{"town":"上美唄町沼の端","koaza":"","lat":43.334754,"lng":141.761351,"zip":"0720054"},{"town":"上美唄町東","koaza":"","lat":43.322364,"lng":141.779814,"zip":"0720052"},{"town":"上美唄町南","koaza":"","lat":43.312929,"lng":141.764435,"zip":"0720000"},{"town":"我路町一条","koaza":"","lat":43.323441,"lng":141.944445,"zip":"0720851"},{"town":"我路町二条","koaza":"","lat":43.323844,"lng":141.944721,"zip":"0720852"},{"town":"我路町三条","koaza":"","lat":43.32472,"lng":141.942179,"zip":"0720853"},{"town":"我路町四条","koaza":"","lat":43.325375,"lng":141.943553,"zip":"0720854"},{"town":"我路町菊水","koaza":"","lat":43.308636,"lng":141.930546,"zip":"0720857"},{"town":"我路町公園通り","koaza":"","lat":43.326442,"lng":141.942474,"zip":"0720855"},{"town":"我路町新町","koaza":"","lat":43.331755,"lng":141.948202,"zip":"0720856"},{"town":"癸巳町","koaza":"","lat":43.352108,"lng":141.865614,"zip":"0720009"},{"town":"癸巳町奔美唄","koaza":"","lat":43.354675,"lng":141.897967,"zip":"0720008"},{"town":"北美唄町","koaza":"","lat":43.367188,"lng":141.817179,"zip":"0790274"},{"town":"共練町西","koaza":"","lat":43.329961,"lng":141.890559,"zip":"0720819"},{"town":"共練町東","koaza":"","lat":43.320366,"lng":141.889385,"zip":"0720819"},{"town":"光珠内町","koaza":"","lat":43.279774,"lng":141.832062,"zip":"0682181"},{"town":"光珠内町上中の沢","koaza":"","lat":43.293383,"lng":141.868752,"zip":"0720000"},{"town":"光珠内町北","koaza":"","lat":43.294183,"lng":141.841236,"zip":"0720000"},{"town":"光珠内町下中の沢","koaza":"","lat":43.299574,"lng":141.82751,"zip":"0720000"},{"town":"光珠内町拓北","koaza":"","lat":43.309605,"lng":141.810974,"zip":"0720000"},{"town":"光珠内町東山","koaza":"","lat":43.284365,"lng":141.866988,"zip":"0720000"},{"town":"光珠内町南","koaza":"","lat":43.266678,"lng":141.830826,"zip":"0682181"},{"town":"進徳町","koaza":"","lat":43.314141,"lng":141.851035,"zip":"0720042"},{"town":"進徳町西","koaza":"","lat":43.309624,"lng":141.830151,"zip":"0720043"},{"town":"進徳町東","koaza":"","lat":43.309571,"lng":141.859135,"zip":"0720041"},{"town":"茶志内町","koaza":"","lat":43.377235,"lng":141.890358,"zip":"0790261"},{"town":"茶志内町協和","koaza":"","lat":43.378805,"lng":141.84453,"zip":"0790267"},{"town":"茶志内町本町","koaza":"","lat":43.369756,"lng":141.870614,"zip":"0790266"},{"town":"東明一条一丁目","koaza":"","lat":43.333022,"lng":141.890173,"zip":"0720803"},{"town":"東明一条二丁目","koaza":"","lat":43.336762,"lng":141.890352,"zip":"0720803"},{"town":"東明一条三丁目","koaza":"","lat":43.339803,"lng":141.889853,"zip":"0720803"},{"town":"東明二条一丁目","koaza":"","lat":43.333304,"lng":141.893079,"zip":"0720804"},{"town":"東明二条二丁目","koaza":"","lat":43.336482,"lng":141.89389,"zip":"0720804"},{"town":"東明二条三丁目","koaza":"","lat":43.338966,"lng":141.893322,"zip":"0720804"},{"town":"東明三条一丁目","koaza":"","lat":43.332752,"lng":141.895774,"zip":"0720805"},{"town":"東明三条二丁目","koaza":"","lat":43.335758,"lng":141.896673,"zip":"0720805"},{"town":"東明三条三丁目","koaza":"","lat":43.337686,"lng":141.897461,"zip":"0720805"},{"town":"東明四条一丁目","koaza":"","lat":43.332784,"lng":141.898486,"zip":"0720806"},{"town":"東明四条二丁目","koaza":"","lat":43.335147,"lng":141.899057,"zip":"0720806"},{"town":"東明四条三丁目","koaza":"","lat":43.336337,"lng":141.899907,"zip":"0720806"},{"town":"東明五条一丁目","koaza":"","lat":43.332837,"lng":141.901883,"zip":"0720807"},{"town":"東明五条二丁目","koaza":"","lat":43.334529,"lng":141.901318,"zip":"0720807"},{"town":"東明町","koaza":"","lat":43.342346,"lng":141.900478,"zip":"0720808"},{"town":"豊葦町","koaza":"","lat":43.295432,"lng":141.797538,"zip":"0790176"},{"town":"中村町北","koaza":"","lat":43.385627,"lng":141.822409,"zip":"0790273"},{"town":"中村町中央","koaza":"","lat":43.374738,"lng":141.795281,"zip":"0790272"},{"town":"中村町南","koaza":"","lat":43.36436,"lng":141.781441,"zip":"0790271"},{"town":"西一条北一丁目","koaza":"","lat":43.333267,"lng":141.859309,"zip":"0720022"},{"town":"西一条北二丁目","koaza":"","lat":43.334534,"lng":141.859664,"zip":"0720022"},{"town":"西一条北三丁目","koaza":"","lat":43.33582,"lng":141.860005,"zip":"0720022"},{"town":"西一条北四丁目","koaza":"","lat":43.337018,"lng":141.860634,"zip":"0720022"},{"town":"西一条北五丁目","koaza":"","lat":43.338313,"lng":141.861285,"zip":"0720022"},{"town":"西一条北六丁目","koaza":"","lat":43.339588,"lng":141.861785,"zip":"0720022"},{"town":"西一条北七丁目","koaza":"","lat":43.34111,"lng":141.862204,"zip":"0720022"},{"town":"西一条北八丁目","koaza":"","lat":43.342956,"lng":141.862313,"zip":"0720022"},{"town":"西一条北九丁目","koaza":"","lat":43.344868,"lng":141.862928,"zip":"0720022"},{"town":"西一条南一丁目","koaza":"","lat":43.332085,"lng":141.858982,"zip":"0720024"},{"town":"西一条南二丁目","koaza":"","lat":43.330841,"lng":141.858627,"zip":"0720024"},{"town":"西一条南三丁目","koaza":"","lat":43.329703,"lng":141.857956,"zip":"0720024"},{"town":"西一条南四丁目","koaza":"","lat":43.328119,"lng":141.857934,"zip":"0720024"},{"town":"西一条南五丁目","koaza":"","lat":43.326257,"lng":141.857386,"zip":"0720024"},{"town":"西一条南六丁目","koaza":"","lat":43.324203,"lng":141.855913,"zip":"0720024"},{"town":"西一条南七丁目","koaza":"","lat":43.321612,"lng":141.855868,"zip":"0720024"},{"town":"西二条北一丁目","koaza":"","lat":43.333436,"lng":141.85744,"zip":"0720031"},{"town":"西二条北二丁目","koaza":"","lat":43.334872,"lng":141.857547,"zip":"0720031"},{"town":"西二条北三丁目","koaza":"","lat":43.336042,"lng":141.857962,"zip":"0720031"},{"town":"西二条北四丁目","koaza":"","lat":43.337234,"lng":141.858503,"zip":"0720031"},{"town":"西二条北五丁目","koaza":"","lat":43.338521,"lng":141.859491,"zip":"0720031"},{"town":"西二条北六丁目","koaza":"","lat":43.339651,"lng":141.860064,"zip":"0720031"},{"town":"西二条北七丁目","koaza":"","lat":43.341449,"lng":141.86022,"zip":"0720031"},{"town":"西二条北八丁目","koaza":"","lat":43.343425,"lng":141.860559,"zip":"0720031"},{"town":"西二条北九丁目","koaza":"","lat":43.345149,"lng":141.861038,"zip":"0720031"},{"town":"西二条南一丁目","koaza":"","lat":43.332477,"lng":141.856845,"zip":"0720025"},{"town":"西二条南二丁目","koaza":"","lat":43.331156,"lng":141.856514,"zip":"0720025"},{"town":"西二条南三丁目","koaza":"","lat":43.329981,"lng":141.856258,"zip":"0720025"},{"town":"西二条南四丁目","koaza":"","lat":43.328574,"lng":141.856321,"zip":"0720025"},{"town":"西二条南五丁目","koaza":"","lat":43.326331,"lng":141.855585,"zip":"0720025"},{"town":"西二条南六丁目","koaza":"","lat":43.324516,"lng":141.85417,"zip":"0720025"},{"town":"西二条南七丁目","koaza":"","lat":43.321906,"lng":141.85414,"zip":"0720025"},{"town":"西三条北一丁目","koaza":"","lat":43.334015,"lng":141.854366,"zip":"0720032"},{"town":"西三条北二丁目","koaza":"","lat":43.33516,"lng":141.854748,"zip":"0720032"},{"town":"西三条北三丁目","koaza":"","lat":43.336736,"lng":141.855296,"zip":"0720032"},{"town":"西三条北四丁目","koaza":"","lat":43.338036,"lng":141.855641,"zip":"0720032"},{"town":"西三条北五丁目","koaza":"","lat":43.338964,"lng":141.856309,"zip":"0720032"},{"town":"西三条北六丁目","koaza":"","lat":43.340385,"lng":141.8573,"zip":"0720032"},{"town":"西三条北七丁目","koaza":"","lat":43.341883,"lng":141.856955,"zip":"0720032"},{"town":"西三条北八丁目","koaza":"","lat":43.343822,"lng":141.857871,"zip":"0720032"},{"town":"西三条北九丁目","koaza":"","lat":43.34555,"lng":141.85834,"zip":"0720032"},{"town":"西三条南一丁目","koaza":"","lat":43.332855,"lng":141.854031,"zip":"0720026"},{"town":"西三条南二丁目","koaza":"","lat":43.331609,"lng":141.853707,"zip":"0720026"},{"town":"西三条南三丁目","koaza":"","lat":43.330242,"lng":141.853753,"zip":"0720026"},{"town":"西三条南四丁目","koaza":"","lat":43.328773,"lng":141.853507,"zip":"0720026"},{"town":"西三条南五丁目","koaza":"","lat":43.326917,"lng":141.853393,"zip":"0720026"},{"town":"西三条南六丁目","koaza":"","lat":43.324749,"lng":141.852811,"zip":"0720026"},{"town":"西三条南七丁目","koaza":"","lat":43.322077,"lng":141.852013,"zip":"0720026"},{"town":"西四条北一丁目","koaza":"","lat":43.335108,"lng":141.850577,"zip":"0720033"},{"town":"西四条北二丁目","koaza":"","lat":43.335448,"lng":141.852745,"zip":"0720033"},{"town":"西四条北三丁目","koaza":"","lat":43.337125,"lng":141.852074,"zip":"0720033"},{"town":"西四条北四丁目","koaza":"","lat":43.33842,"lng":141.852442,"zip":"0720033"},{"town":"西四条北五丁目","koaza":"","lat":43.339421,"lng":141.852737,"zip":"0720033"},{"town":"西四条北六丁目","koaza":"","lat":43.340874,"lng":141.853145,"zip":"0720033"},{"town":"西四条北七丁目","koaza":"","lat":43.342652,"lng":141.853642,"zip":"0720033"},{"town":"西四条北八丁目","koaza":"","lat":43.34438,"lng":141.854131,"zip":"0720033"},{"town":"西四条北九丁目","koaza":"","lat":43.346101,"lng":141.854632,"zip":"0720033"},{"town":"西四条南一丁目","koaza":"","lat":43.333348,"lng":141.850923,"zip":"0720027"},{"town":"西四条南二丁目","koaza":"","lat":43.33213,"lng":141.850948,"zip":"0720027"},{"town":"西四条南三丁目","koaza":"","lat":43.330954,"lng":141.850216,"zip":"0720027"},{"town":"西四条南四丁目","koaza":"","lat":43.329475,"lng":141.849792,"zip":"0720027"},{"town":"西四条南五丁目","koaza":"","lat":43.327439,"lng":141.849716,"zip":"0720027"},{"town":"西四条南六丁目","koaza":"","lat":43.325411,"lng":141.848138,"zip":"0720027"},{"town":"西四条南七丁目","koaza":"","lat":43.323038,"lng":141.850402,"zip":"0720027"},{"town":"西五条北二丁目","koaza":"","lat":43.336983,"lng":141.847541,"zip":"0720034"},{"town":"西五条北三丁目","koaza":"","lat":43.338676,"lng":141.847376,"zip":"0720034"},{"town":"西五条北四丁目","koaza":"","lat":43.338901,"lng":141.849828,"zip":"0720034"},{"town":"西五条北五丁目","koaza":"","lat":43.340214,"lng":141.849087,"zip":"0720034"},{"town":"西五条北六丁目","koaza":"","lat":43.342212,"lng":141.849596,"zip":"0720034"},{"town":"西五条北七丁目","koaza":"","lat":43.343653,"lng":141.849521,"zip":"0720034"},{"town":"西五条南三丁目","koaza":"","lat":43.332452,"lng":141.846086,"zip":"0720028"},{"town":"西五条南四丁目","koaza":"","lat":43.329767,"lng":141.847257,"zip":"0720028"},{"town":"西美唄町大曲","koaza":"","lat":43.328957,"lng":141.718793,"zip":"0720057"},{"town":"西美唄町富樫","koaza":"","lat":43.344718,"lng":141.717642,"zip":"0720058"},{"town":"西美唄町元村","koaza":"","lat":43.351436,"lng":141.780648,"zip":"0720055"},{"town":"西美唄町元村美富","koaza":"","lat":43.343458,"lng":141.759781,"zip":"0720059"},{"town":"西美唄町山形","koaza":"","lat":43.339941,"lng":141.744217,"zip":"0720056"},{"town":"日東町","koaza":"","lat":43.385383,"lng":141.904584,"zip":"0790262"},{"town":"日東町栄町","koaza":"","lat":43.387956,"lng":141.885117,"zip":"0790262"},{"town":"日東町住吉","koaza":"","lat":43.387835,"lng":141.889592,"zip":"0790263"},{"town":"日東町富の郷","koaza":"","lat":43.383644,"lng":141.886609,"zip":"0790265"},{"town":"日東町本町","koaza":"","lat":43.385699,"lng":141.884343,"zip":"0790264"},{"town":"盤の沢町桜が丘","koaza":"","lat":43.355699,"lng":141.9451,"zip":"0720844"},{"town":"盤の沢町高台","koaza":"","lat":43.344077,"lng":141.931171,"zip":"0720843"},{"town":"盤の沢町滝の上","koaza":"","lat":43.342463,"lng":141.949596,"zip":"0720841"},{"town":"盤の沢町本町","koaza":"","lat":43.337684,"lng":141.918755,"zip":"0720842"},{"town":"東一条北一丁目","koaza":"","lat":43.332816,"lng":141.862021,"zip":"0720002"},{"town":"東一条北二丁目","koaza":"","lat":43.333902,"lng":141.862264,"zip":"0720002"},{"town":"東一条北三丁目","koaza":"","lat":43.335543,"lng":141.862797,"zip":"0720002"},{"town":"東一条北四丁目","koaza":"","lat":43.336787,"lng":141.863171,"zip":"0720002"},{"town":"東一条北五丁目","koaza":"","lat":43.338115,"lng":141.863139,"zip":"0720002"},{"town":"東一条北六丁目","koaza":"","lat":43.339339,"lng":141.863477,"zip":"0720002"},{"town":"東一条北七丁目","koaza":"","lat":43.340869,"lng":141.863899,"zip":"0720002"},{"town":"東一条北八丁目","koaza":"","lat":43.34284,"lng":141.864452,"zip":"0720002"},{"town":"東一条北九丁目","koaza":"","lat":43.344568,"lng":141.864939,"zip":"0720002"},{"town":"東一条南一丁目","koaza":"","lat":43.331609,"lng":141.861771,"zip":"0720012"},{"town":"東一条南二丁目","koaza":"","lat":43.330425,"lng":141.861301,"zip":"0720012"},{"town":"東一条南三丁目","koaza":"","lat":43.329272,"lng":141.860992,"zip":"0720012"},{"town":"東一条南四丁目","koaza":"","lat":43.327893,"lng":141.860607,"zip":"0720012"},{"town":"東一条南五丁目","koaza":"","lat":43.326109,"lng":141.860198,"zip":"0720012"},{"town":"東一条南六丁目","koaza":"","lat":43.323749,"lng":141.859508,"zip":"0720012"},{"town":"東一条南七丁目","koaza":"","lat":43.321191,"lng":141.858747,"zip":"0720012"},{"town":"東二条北一丁目","koaza":"","lat":43.332548,"lng":141.863739,"zip":"0720003"},{"town":"東二条北二丁目","koaza":"","lat":43.333825,"lng":141.864137,"zip":"0720003"},{"town":"東二条北三丁目","koaza":"","lat":43.335282,"lng":141.864579,"zip":"0720003"},{"town":"東二条北四丁目","koaza":"","lat":43.336503,"lng":141.864906,"zip":"0720003"},{"town":"東二条北五丁目","koaza":"","lat":43.337654,"lng":141.865625,"zip":"0720003"},{"town":"東二条北六丁目","koaza":"","lat":43.339169,"lng":141.866036,"zip":"0720003"},{"town":"東二条北七丁目","koaza":"","lat":43.340667,"lng":141.866453,"zip":"0720003"},{"town":"東二条北八丁目","koaza":"","lat":43.342517,"lng":141.867876,"zip":"0720003"},{"town":"東二条北九丁目","koaza":"","lat":43.344051,"lng":141.868402,"zip":"0720003"},{"town":"東二条南一丁目","koaza":"","lat":43.331554,"lng":141.863447,"zip":"0720013"},{"town":"東二条南二丁目","koaza":"","lat":43.330624,"lng":141.863172,"zip":"0720013"},{"town":"東二条南三丁目","koaza":"","lat":43.329269,"lng":141.862811,"zip":"0720013"},{"town":"東二条南四丁目","koaza":"","lat":43.327398,"lng":141.862272,"zip":"0720013"},{"town":"東二条南五丁目","koaza":"","lat":43.325931,"lng":141.861846,"zip":"0720013"},{"town":"東二条南六丁目","koaza":"","lat":43.323797,"lng":141.861239,"zip":"0720013"},{"town":"東二条南七丁目","koaza":"","lat":43.320881,"lng":141.860898,"zip":"0720013"},{"town":"東三条北一丁目","koaza":"","lat":43.332222,"lng":141.866941,"zip":"0720004"},{"town":"東三条北二丁目","koaza":"","lat":43.333191,"lng":141.86755,"zip":"0720004"},{"town":"東三条北三丁目","koaza":"","lat":43.334751,"lng":141.867753,"zip":"0720004"},{"town":"東三条北四丁目","koaza":"","lat":43.335999,"lng":141.868082,"zip":"0720004"},{"town":"東三条北五丁目","koaza":"","lat":43.337202,"lng":141.868621,"zip":"0720004"},{"town":"東三条北六丁目","koaza":"","lat":43.338675,"lng":141.869199,"zip":"0720004"},{"town":"東三条北七丁目","koaza":"","lat":43.340249,"lng":141.870158,"zip":"0720004"},{"town":"東三条北八丁目","koaza":"","lat":43.34183,"lng":141.870191,"zip":"0720004"},{"town":"東三条北九丁目","koaza":"","lat":43.343574,"lng":141.87155,"zip":"0720004"},{"town":"東三条南一丁目","koaza":"","lat":43.330909,"lng":141.866544,"zip":"0720014"},{"town":"東三条南二丁目","koaza":"","lat":43.329715,"lng":141.866211,"zip":"0720014"},{"town":"東三条南三丁目","koaza":"","lat":43.328453,"lng":141.865224,"zip":"0720014"},{"town":"東三条南四丁目","koaza":"","lat":43.327306,"lng":141.864888,"zip":"0720014"},{"town":"東三条南五丁目","koaza":"","lat":43.325958,"lng":141.864213,"zip":"0720014"},{"town":"東三条南六丁目","koaza":"","lat":43.323149,"lng":141.863462,"zip":"0720014"},{"town":"東三条南七丁目","koaza":"","lat":43.320489,"lng":141.863061,"zip":"0720014"},{"town":"東四条北一丁目","koaza":"","lat":43.331387,"lng":141.870677,"zip":"0720005"},{"town":"東四条北二丁目","koaza":"","lat":43.332589,"lng":141.871027,"zip":"0720005"},{"town":"東四条北三丁目","koaza":"","lat":43.334052,"lng":141.871498,"zip":"0720005"},{"town":"東四条北四丁目","koaza":"","lat":43.335415,"lng":141.871892,"zip":"0720005"},{"town":"東四条北五丁目","koaza":"","lat":43.336741,"lng":141.872289,"zip":"0720005"},{"town":"東四条北六丁目","koaza":"","lat":43.338183,"lng":141.872681,"zip":"0720005"},{"town":"東四条北七丁目","koaza":"","lat":43.339687,"lng":141.873107,"zip":"0720005"},{"town":"東四条北八丁目","koaza":"","lat":43.341424,"lng":141.873585,"zip":"0720005"},{"town":"東四条北九丁目","koaza":"","lat":43.34301,"lng":141.874436,"zip":"0720005"},{"town":"東四条南一丁目","koaza":"","lat":43.329667,"lng":141.870026,"zip":"0720015"},{"town":"東四条南三丁目","koaza":"","lat":43.327812,"lng":141.868873,"zip":"0720015"},{"town":"東四条南四丁目","koaza":"","lat":43.326793,"lng":141.868553,"zip":"0720015"},{"town":"東四条南五丁目","koaza":"","lat":43.325265,"lng":141.868055,"zip":"0720015"},{"town":"東四条南六丁目","koaza":"","lat":43.322883,"lng":141.867329,"zip":"0720015"},{"town":"東四条南七丁目","koaza":"","lat":43.319986,"lng":141.86669,"zip":"0720015"},{"town":"東五条北十丁目","koaza":"","lat":43.3453,"lng":141.87882,"zip":"0720006"},{"town":"東五条北十一丁目","koaza":"","lat":43.348786,"lng":141.879494,"zip":"0720006"},{"town":"東五条北一丁目","koaza":"","lat":43.330928,"lng":141.874227,"zip":"0720006"},{"town":"東五条北二丁目","koaza":"","lat":43.332005,"lng":141.874527,"zip":"0720006"},{"town":"東五条北三丁目","koaza":"","lat":43.333042,"lng":141.874832,"zip":"0720006"},{"town":"東五条北四丁目","koaza":"","lat":43.334605,"lng":141.875302,"zip":"0720006"},{"town":"東五条北五丁目","koaza":"","lat":43.336448,"lng":141.875823,"zip":"0720006"},{"town":"東五条北六丁目","koaza":"","lat":43.337753,"lng":141.876195,"zip":"0720006"},{"town":"東五条北七丁目","koaza":"","lat":43.339013,"lng":141.876922,"zip":"0720006"},{"town":"東五条北八丁目","koaza":"","lat":43.341086,"lng":141.877203,"zip":"0720006"},{"town":"東五条北九丁目","koaza":"","lat":43.34297,"lng":141.877767,"zip":"0720006"},{"town":"東五条南一丁目","koaza":"","lat":43.329858,"lng":141.873893,"zip":"0720016"},{"town":"東五条南二丁目","koaza":"","lat":43.328338,"lng":141.873427,"zip":"0720016"},{"town":"東五条南三丁目","koaza":"","lat":43.327283,"lng":141.873115,"zip":"0720016"},{"town":"東五条南四丁目","koaza":"","lat":43.326358,"lng":141.872805,"zip":"0720016"},{"town":"東五条南五丁目","koaza":"","lat":43.324621,"lng":141.87228,"zip":"0720016"},{"town":"東五条南六丁目","koaza":"","lat":43.321738,"lng":141.871386,"zip":"0720016"},{"town":"東五条南七丁目","koaza":"","lat":43.3192,"lng":141.870237,"zip":"0720016"},{"town":"東六条北十丁目","koaza":"","lat":43.344349,"lng":141.881685,"zip":"0720007"},{"town":"東六条北十一丁目","koaza":"","lat":43.347057,"lng":141.881778,"zip":"0720007"},{"town":"東六条北一丁目","koaza":"","lat":43.330666,"lng":141.877752,"zip":"0720007"},{"town":"東六条北二丁目","koaza":"","lat":43.332037,"lng":141.87812,"zip":"0720007"},{"town":"東六条北三丁目","koaza":"","lat":43.333403,"lng":141.878498,"zip":"0720007"},{"town":"東六条北四丁目","koaza":"","lat":43.334737,"lng":141.878875,"zip":"0720007"},{"town":"東六条北五丁目","koaza":"","lat":43.336296,"lng":141.87867,"zip":"0720007"},{"town":"東六条北六丁目","koaza":"","lat":43.33754,"lng":141.879675,"zip":"0720007"},{"town":"東六条北七丁目","koaza":"","lat":43.339353,"lng":141.880205,"zip":"0720007"},{"town":"東六条北八丁目","koaza":"","lat":43.341303,"lng":141.880441,"zip":"0720007"},{"town":"東六条北九丁目","koaza":"","lat":43.342643,"lng":141.881549,"zip":"0720007"},{"town":"東六条南一丁目","koaza":"","lat":43.32928,"lng":141.877615,"zip":"0720017"},{"town":"東六条南二丁目","koaza":"","lat":43.328024,"lng":141.877224,"zip":"0720017"},{"town":"東六条南三丁目","koaza":"","lat":43.326893,"lng":141.876886,"zip":"0720017"},{"town":"東六条南四丁目","koaza":"","lat":43.325181,"lng":141.87625,"zip":"0720017"},{"town":"東六条南五丁目","koaza":"","lat":43.322857,"lng":141.875476,"zip":"0720017"},{"town":"東六条南六丁目","koaza":"","lat":43.32064,"lng":141.874551,"zip":"0720017"},{"town":"東七条北十丁目","koaza":"","lat":43.344589,"lng":141.884937,"zip":"0720801"},{"town":"東七条北一丁目","koaza":"","lat":43.33083,"lng":141.881613,"zip":"0720801"},{"town":"東七条北二丁目","koaza":"","lat":43.332368,"lng":141.882023,"zip":"0720801"},{"town":"東七条北三丁目","koaza":"","lat":43.333437,"lng":141.882302,"zip":"0720801"},{"town":"東七条北四丁目","koaza":"","lat":43.33464,"lng":141.882633,"zip":"0720801"},{"town":"東七条北五丁目","koaza":"","lat":43.335985,"lng":141.882999,"zip":"0720801"},{"town":"東七条北六丁目","koaza":"","lat":43.337343,"lng":141.883329,"zip":"0720801"},{"town":"東七条北七丁目","koaza":"","lat":43.338553,"lng":141.8836,"zip":"0720801"},{"town":"東七条北八丁目","koaza":"","lat":43.34062,"lng":141.883809,"zip":"0720801"},{"town":"東七条北九丁目","koaza":"","lat":43.34208,"lng":141.884514,"zip":"0720801"},{"town":"東七条南一丁目","koaza":"","lat":43.329725,"lng":141.880866,"zip":"0720811"},{"town":"東七条南二丁目","koaza":"","lat":43.328266,"lng":141.881882,"zip":"0720811"},{"town":"東七条南三丁目","koaza":"","lat":43.32662,"lng":141.882401,"zip":"0720811"},{"town":"東七条南四丁目","koaza":"","lat":43.324793,"lng":141.880626,"zip":"0720811"},{"town":"東七条南五丁目","koaza":"","lat":43.322623,"lng":141.879218,"zip":"0720811"},{"town":"東七条南六丁目","koaza":"","lat":43.319848,"lng":141.87776,"zip":"0720811"},{"town":"東八条北一丁目","koaza":"","lat":43.331018,"lng":141.885819,"zip":"0720802"},{"town":"東八条北二丁目","koaza":"","lat":43.332036,"lng":141.886162,"zip":"0720802"},{"town":"東八条北三丁目","koaza":"","lat":43.333125,"lng":141.885917,"zip":"0720802"},{"town":"東八条北四丁目","koaza":"","lat":43.33442,"lng":141.886483,"zip":"0720802"},{"town":"東八条北五丁目","koaza":"","lat":43.335594,"lng":141.886612,"zip":"0720802"},{"town":"東八条北六丁目","koaza":"","lat":43.33701,"lng":141.886784,"zip":"0720802"},{"town":"東八条北七丁目","koaza":"","lat":43.338123,"lng":141.886829,"zip":"0720802"},{"town":"東八条北八丁目","koaza":"","lat":43.341384,"lng":141.886908,"zip":"0720802"},{"town":"東八条南一丁目","koaza":"","lat":43.329048,"lng":141.88589,"zip":"0720812"},{"town":"東美唄町旭台","koaza":"","lat":43.326841,"lng":141.998725,"zip":"0720000"},{"town":"東美唄町一の沢","koaza":"","lat":43.329127,"lng":141.98113,"zip":"0720000"},{"town":"東美唄町楓が丘","koaza":"","lat":43.326471,"lng":141.949619,"zip":"0720000"},{"town":"東美唄町桂台","koaza":"","lat":43.310882,"lng":141.974516,"zip":"0720000"},{"town":"東美唄町我路の沢","koaza":"","lat":43.3057,"lng":141.942256,"zip":"0720000"},{"town":"東美唄町鴻の台","koaza":"","lat":43.305043,"lng":141.951808,"zip":"0720000"},{"town":"東美唄町桜が丘","koaza":"","lat":43.326496,"lng":141.954816,"zip":"0720000"},{"town":"東美唄町清水台","koaza":"","lat":43.329938,"lng":141.963951,"zip":"0720000"},{"town":"東美唄町月見台","koaza":"","lat":43.326477,"lng":141.959267,"zip":"0720000"},{"town":"東美唄町常盤台","koaza":"","lat":43.338659,"lng":141.972432,"zip":"0720000"},{"town":"東美唄町二の沢","koaza":"","lat":43.377778,"lng":142.015744,"zip":"0720000"},{"town":"東美唄町番町","koaza":"","lat":43.314652,"lng":141.941675,"zip":"0720000"},{"town":"東美唄町宮の下","koaza":"","lat":43.326725,"lng":141.964351,"zip":"0720000"},{"town":"南美唄町旭町","koaza":"","lat":43.316362,"lng":141.889568,"zip":"0720813"},{"town":"南美唄町大通一丁目","koaza":"","lat":43.31173,"lng":141.875823,"zip":"0720822"},{"town":"南美唄町大通二丁目","koaza":"","lat":43.310215,"lng":141.875181,"zip":"0720822"},{"town":"南美唄町大通三丁目","koaza":"","lat":43.309155,"lng":141.874304,"zip":"0720822"},{"town":"南美唄町大通四丁目","koaza":"","lat":43.307307,"lng":141.873629,"zip":"0720822"},{"town":"南美唄町大通五丁目","koaza":"","lat":43.305656,"lng":141.872313,"zip":"0720822"},{"town":"南美唄町大通六丁目","koaza":"","lat":43.303931,"lng":141.871065,"zip":"0720822"},{"town":"南美唄町大通七丁目","koaza":"","lat":43.301886,"lng":141.870626,"zip":"0720822"},{"town":"南美唄町北町","koaza":"","lat":43.317766,"lng":141.875835,"zip":"0720817"},{"town":"南美唄町栄町北","koaza":"","lat":43.316682,"lng":141.871145,"zip":"0720827"},{"town":"南美唄町栄町南","koaza":"","lat":43.314982,"lng":141.867399,"zip":"0720826"},{"town":"南美唄町桜井町","koaza":"","lat":43.307442,"lng":141.86416,"zip":"0720825"},{"town":"南美唄町下","koaza":"","lat":43.310843,"lng":141.868614,"zip":"0720823"},{"town":"南美唄町新富町","koaza":"","lat":43.302096,"lng":141.86497,"zip":"0720824"},{"town":"南美唄町仲町","koaza":"","lat":43.3155,"lng":141.876813,"zip":"0720816"},{"town":"南美唄町西町","koaza":"","lat":43.314686,"lng":141.874316,"zip":"0720828"},{"town":"南美唄町東町","koaza":"","lat":43.314095,"lng":141.886969,"zip":"0720000"},{"town":"南美唄町南町","koaza":"","lat":43.312321,"lng":141.878635,"zip":"0720815"},{"town":"南美唄町山の手","koaza":"","lat":43.304743,"lng":141.89656,"zip":"0720814"},{"town":"峰延町公園","koaza":"","lat":43.255285,"lng":141.81477,"zip":"0790173"},{"town":"峰延町東","koaza":"","lat":43.256784,"lng":141.826987,"zip":"0790172"},{"town":"峰延町本町","koaza":"","lat":43.264104,"lng":141.818322,"zip":"0790174"},{"town":"峰延町峰樺","koaza":"","lat":43.27148,"lng":141.808724,"zip":"0790175"},{"town":"西五条北一丁目","koaza":"","lat":43.335366,"lng":141.847034,"zip":"0720034"},{"town":"西五条南一丁目","koaza":"","lat":43.333714,"lng":141.846521,"zip":"0720028"},{"town":"字開発原野","koaza":"","lat":43.341521,"lng":141.82679,"zip":"0720000"},{"town":"開発町桜井","koaza":"","lat":43.352688,"lng":141.816212,"zip":"0720000"},{"town":"字美唄沼の内","koaza":"","lat":43.335597,"lng":141.833481,"zip":"0720000"},{"town":"沼の内町北","koaza":"","lat":43.359414,"lng":141.847547,"zip":"0720037"},{"town":"字沼の内","koaza":"","lat":43.338586,"lng":141.8392,"zip":"0720000"},{"town":"字美唄","koaza":"","lat":43.346838,"lng":141.847281,"zip":"0720000"},{"town":"沼の内町西","koaza":"","lat":43.350033,"lng":141.836091,"zip":"0720038"},{"town":"南美唄町","koaza":"","lat":43.301739,"lng":141.87976,"zip":"0720813"}]