[{"town":"旭町","koaza":"","lat":43.509189,"lng":142.227726,"zip":"0750036"},{"town":"旭町油谷","koaza":"","lat":43.549812,"lng":142.237615,"zip":"0750035"},{"town":"芦別","koaza":"","lat":43.370082,"lng":142.191518,"zip":"0750000"},{"town":"泉","koaza":"","lat":43.378645,"lng":142.34332,"zip":"0760081"},{"town":"上芦別町","koaza":"","lat":43.493035,"lng":142.202046,"zip":"0791371"},{"town":"川岸","koaza":"","lat":43.427426,"lng":142.163049,"zip":"0750166"},{"town":"北一条西一丁目","koaza":"","lat":43.518223,"lng":142.184778,"zip":"0750001"},{"town":"北一条西二丁目","koaza":"","lat":43.51901,"lng":142.182425,"zip":"0750001"},{"town":"北一条東一丁目","koaza":"","lat":43.518294,"lng":142.18836,"zip":"0750011"},{"town":"北一条東二丁目","koaza":"","lat":43.518533,"lng":142.1918,"zip":"0750011"},{"town":"北二条西一丁目","koaza":"","lat":43.520634,"lng":142.184087,"zip":"0750002"},{"town":"北二条西二丁目","koaza":"","lat":43.520479,"lng":142.181006,"zip":"0750002"},{"town":"北二条西三丁目","koaza":"","lat":43.520926,"lng":142.178965,"zip":"0750002"},{"town":"北二条東一丁目","koaza":"","lat":43.52073,"lng":142.188011,"zip":"0750012"},{"town":"北二条東二丁目","koaza":"","lat":43.521046,"lng":142.191437,"zip":"0750012"},{"town":"北三条西一丁目","koaza":"","lat":43.522924,"lng":142.184087,"zip":"0750003"},{"town":"北三条西二丁目","koaza":"","lat":43.522575,"lng":142.180689,"zip":"0750003"},{"town":"北三条西三丁目","koaza":"","lat":43.522627,"lng":142.177505,"zip":"0750003"},{"town":"北三条東一丁目","koaza":"","lat":43.523224,"lng":142.187648,"zip":"0750013"},{"town":"北三条東二丁目","koaza":"","lat":43.523345,"lng":142.190602,"zip":"0750013"},{"town":"北四条西一丁目","koaza":"","lat":43.525376,"lng":142.183156,"zip":"0750004"},{"town":"北四条西二丁目","koaza":"","lat":43.525172,"lng":142.180295,"zip":"0750004"},{"town":"北四条西三丁目","koaza":"","lat":43.524885,"lng":142.177114,"zip":"0750004"},{"town":"北四条西四丁目","koaza":"","lat":43.524644,"lng":142.174702,"zip":"0750004"},{"town":"北四条東一丁目","koaza":"","lat":43.525839,"lng":142.188279,"zip":"0750014"},{"town":"北五条西一丁目","koaza":"","lat":43.528215,"lng":142.183088,"zip":"0750005"},{"town":"北五条西二丁目","koaza":"","lat":43.527563,"lng":142.179962,"zip":"0750005"},{"town":"北五条西三丁目","koaza":"","lat":43.527314,"lng":142.176514,"zip":"0750005"},{"town":"北五条西四丁目","koaza":"","lat":43.526995,"lng":142.173046,"zip":"0750005"},{"town":"北五条西五丁目","koaza":"","lat":43.52764,"lng":142.170322,"zip":"0750005"},{"town":"北五条東一丁目","koaza":"","lat":43.528294,"lng":142.186696,"zip":"0750015"},{"town":"北五条東二丁目","koaza":"","lat":43.528849,"lng":142.189897,"zip":"0750015"},{"town":"北六条西一丁目","koaza":"","lat":43.529847,"lng":142.18343,"zip":"0750006"},{"town":"北六条西二丁目","koaza":"","lat":43.529955,"lng":142.179846,"zip":"0750006"},{"town":"北六条西三丁目","koaza":"","lat":43.529805,"lng":142.176114,"zip":"0750006"},{"town":"北六条西四丁目","koaza":"","lat":43.529457,"lng":142.172615,"zip":"0750006"},{"town":"北六条西五丁目","koaza":"","lat":43.529809,"lng":142.168887,"zip":"0750006"},{"town":"北六条東一丁目","koaza":"","lat":43.530083,"lng":142.186601,"zip":"0750016"},{"town":"北七条西二丁目","koaza":"","lat":43.531482,"lng":142.179398,"zip":"0750007"},{"town":"北七条西三丁目","koaza":"","lat":43.532006,"lng":142.175759,"zip":"0750007"},{"town":"北七条西四丁目","koaza":"","lat":43.532121,"lng":142.172167,"zip":"0750007"},{"town":"北七条西五丁目","koaza":"","lat":43.532413,"lng":142.167104,"zip":"0750007"},{"town":"北七条西六丁目","koaza":"","lat":43.533283,"lng":142.162498,"zip":"0750007"},{"town":"黄金町","koaza":"","lat":43.584794,"lng":142.194246,"zip":"0750252"},{"town":"新城町","koaza":"","lat":43.616243,"lng":142.201512,"zip":"0750251"},{"town":"高根町","koaza":"","lat":43.524896,"lng":142.150738,"zip":"0750019"},{"town":"滝里町","koaza":"","lat":43.418658,"lng":142.334896,"zip":"0750000"},{"town":"常磐","koaza":"","lat":43.581129,"lng":142.130998,"zip":"0750018"},{"town":"常磐町","koaza":"","lat":43.555005,"lng":142.154106,"zip":"0750018"},{"town":"豊岡","koaza":"","lat":43.622775,"lng":142.130561,"zip":"0750254"},{"town":"豊岡町","koaza":"","lat":43.608694,"lng":142.174306,"zip":"0750253"},{"town":"中の丘町","koaza":"","lat":43.473181,"lng":142.167257,"zip":"0750167"},{"town":"西芦別町","koaza":"","lat":43.488072,"lng":142.174188,"zip":"0750161"},{"town":"野花南町","koaza":"","lat":43.472279,"lng":142.241679,"zip":"0791372"},{"town":"東頼城町","koaza":"","lat":43.477641,"lng":142.172523,"zip":"0750162"},{"town":"福住町","koaza":"","lat":43.548447,"lng":142.112874,"zip":"0750017"},{"town":"幌内","koaza":"","lat":43.532494,"lng":142.258231,"zip":"0750034"},{"town":"本町","koaza":"","lat":43.517135,"lng":142.170809,"zip":"0750041"},{"town":"南一条西一丁目","koaza":"","lat":43.516072,"lng":142.186375,"zip":"0750021"},{"town":"南一条東一丁目","koaza":"","lat":43.515335,"lng":142.188795,"zip":"0750031"},{"town":"南一条東二丁目","koaza":"","lat":43.515852,"lng":142.192189,"zip":"0750031"},{"town":"南二条東一丁目","koaza":"","lat":43.513226,"lng":142.19025,"zip":"0750032"},{"town":"南二条東二丁目","koaza":"","lat":43.51309,"lng":142.192279,"zip":"0750032"},{"town":"南二条東三丁目","koaza":"","lat":43.513803,"lng":142.19524,"zip":"0750032"},{"town":"南三条東一丁目","koaza":"","lat":43.510712,"lng":142.19151,"zip":"0750033"},{"town":"南三条東二丁目","koaza":"","lat":43.510721,"lng":142.193749,"zip":"0750033"},{"town":"南三条東三丁目","koaza":"","lat":43.511367,"lng":142.19552,"zip":"0750033"},{"town":"頼城町","koaza":"","lat":43.441356,"lng":142.15848,"zip":"0750164"},{"town":"緑泉町","koaza":"","lat":43.463639,"lng":142.16853,"zip":"0750163"}]