[{"town":"字曙","koaza":"","lat":44.36569,"lng":141.854673,"zip":"0784100"},{"town":"字朝日","koaza":"","lat":44.350136,"lng":141.771792,"zip":"0784100"},{"town":"字上築","koaza":"","lat":44.379717,"lng":141.787887,"zip":"0784100"},{"town":"字上羽幌","koaza":"","lat":44.284979,"lng":141.944429,"zip":"0784100"},{"town":"字汐見","koaza":"","lat":44.390721,"lng":141.715351,"zip":"0784100"},{"town":"字平","koaza":"","lat":44.294718,"lng":141.806681,"zip":"0784100"},{"town":"字高台","koaza":"","lat":44.386358,"lng":141.735515,"zip":"0784100"},{"town":"字築別","koaza":"","lat":44.409712,"lng":141.756194,"zip":"0784100"},{"town":"字築別炭砿","koaza":"","lat":44.409958,"lng":141.940652,"zip":"0784100"},{"town":"字中央","koaza":"","lat":44.323894,"lng":141.751181,"zip":"0784100"},{"town":"字羽幌砿","koaza":"","lat":44.35043,"lng":141.917874,"zip":"0784100"},{"town":"大字天売","koaza":"","lat":44.427689,"lng":141.320501,"zip":"0784100"},{"town":"大字焼尻","koaza":"","lat":44.436902,"lng":141.406818,"zip":"0784100"},{"town":"北一条一丁目","koaza":"","lat":44.370228,"lng":141.70435,"zip":"0784111"},{"town":"北一条二丁目","koaza":"","lat":44.371192,"lng":141.70554,"zip":"0784111"},{"town":"北一条三丁目","koaza":"","lat":44.372097,"lng":141.706603,"zip":"0784111"},{"town":"北一条四丁目","koaza":"","lat":44.373305,"lng":141.707689,"zip":"0784111"},{"town":"北二条一丁目","koaza":"","lat":44.369651,"lng":141.705079,"zip":"0784112"},{"town":"北二条二丁目","koaza":"","lat":44.370663,"lng":141.706348,"zip":"0784112"},{"town":"北二条三丁目","koaza":"","lat":44.37158,"lng":141.707487,"zip":"0784112"},{"town":"北二条四丁目","koaza":"","lat":44.372328,"lng":141.708411,"zip":"0784112"},{"town":"北三条一丁目","koaza":"","lat":44.368127,"lng":141.707064,"zip":"0784113"},{"town":"北三条二丁目","koaza":"","lat":44.369169,"lng":141.708399,"zip":"0784113"},{"town":"北三条三丁目","koaza":"","lat":44.370105,"lng":141.709596,"zip":"0784113"},{"town":"北三条四丁目","koaza":"","lat":44.370991,"lng":141.710713,"zip":"0784113"},{"town":"北四条一丁目","koaza":"","lat":44.367231,"lng":141.708069,"zip":"0784114"},{"town":"北四条二丁目","koaza":"","lat":44.368574,"lng":141.709578,"zip":"0784114"},{"town":"北四条三丁目","koaza":"","lat":44.369426,"lng":141.710652,"zip":"0784114"},{"town":"北四条四丁目","koaza":"","lat":44.370307,"lng":141.711752,"zip":"0784114"},{"town":"北五条一丁目","koaza":"","lat":44.366664,"lng":141.709101,"zip":"0784115"},{"town":"北五条二丁目","koaza":"","lat":44.367904,"lng":141.710637,"zip":"0784115"},{"town":"北五条三丁目","koaza":"","lat":44.368749,"lng":141.711745,"zip":"0784115"},{"town":"北五条四丁目","koaza":"","lat":44.369582,"lng":141.712882,"zip":"0784115"},{"town":"北六条一丁目","koaza":"","lat":44.365948,"lng":141.709659,"zip":"0784116"},{"town":"北六条二丁目","koaza":"","lat":44.367391,"lng":141.711446,"zip":"0784116"},{"town":"北六条三丁目","koaza":"","lat":44.368252,"lng":141.712566,"zip":"0784116"},{"town":"北六条四丁目","koaza":"","lat":44.369088,"lng":141.713673,"zip":"0784116"},{"town":"北大通一丁目","koaza":"","lat":44.368893,"lng":141.705969,"zip":"0784110"},{"town":"北大通二丁目","koaza":"","lat":44.369956,"lng":141.707427,"zip":"0784110"},{"town":"北大通三丁目","koaza":"","lat":44.370809,"lng":141.708512,"zip":"0784110"},{"town":"北大通四丁目","koaza":"","lat":44.371686,"lng":141.709638,"zip":"0784110"},{"town":"北町","koaza":"","lat":44.37349,"lng":141.711577,"zip":"0784119"},{"town":"寿町","koaza":"","lat":44.351566,"lng":141.724509,"zip":"0784131"},{"town":"幸町","koaza":"","lat":44.362051,"lng":141.693303,"zip":"0784121"},{"town":"栄町","koaza":"","lat":44.346289,"lng":141.702082,"zip":"0784123"},{"town":"浜町一丁目","koaza":"","lat":44.371051,"lng":141.703534,"zip":"0784118"},{"town":"浜町二丁目","koaza":"","lat":44.372972,"lng":141.702991,"zip":"0784118"},{"town":"浜町三丁目","koaza":"","lat":44.373046,"lng":141.70495,"zip":"0784118"},{"town":"浜町四丁目","koaza":"","lat":44.374276,"lng":141.705823,"zip":"0784118"},{"town":"浜町五丁目","koaza":"","lat":44.375909,"lng":141.706365,"zip":"0784118"},{"town":"緑町","koaza":"","lat":44.359574,"lng":141.707959,"zip":"0784130"},{"town":"港町一丁目","koaza":"","lat":44.369887,"lng":141.702359,"zip":"0784120"},{"town":"港町二丁目","koaza":"","lat":44.367857,"lng":141.698555,"zip":"0784120"},{"town":"港町三丁目","koaza":"","lat":44.367457,"lng":141.696916,"zip":"0784120"},{"town":"港町四丁目","koaza":"","lat":44.366857,"lng":141.695401,"zip":"0784120"},{"town":"港町五丁目","koaza":"","lat":44.365737,"lng":141.694718,"zip":"0784120"},{"town":"港町六丁目","koaza":"","lat":44.36488,"lng":141.693746,"zip":"0784120"},{"town":"南一条一丁目","koaza":"","lat":44.368446,"lng":141.702118,"zip":"0784101"},{"town":"南一条二丁目","koaza":"","lat":44.366853,"lng":141.700137,"zip":"0784101"},{"town":"南一条三丁目","koaza":"","lat":44.366011,"lng":141.699094,"zip":"0784101"},{"town":"南一条四丁目","koaza":"","lat":44.365161,"lng":141.698016,"zip":"0784101"},{"town":"南一条五丁目","koaza":"","lat":44.364325,"lng":141.696958,"zip":"0784101"},{"town":"南一条六丁目","koaza":"","lat":44.363482,"lng":141.695908,"zip":"0784101"},{"town":"南二条一丁目","koaza":"","lat":44.367929,"lng":141.703049,"zip":"0784102"},{"town":"南二条二丁目","koaza":"","lat":44.36634,"lng":141.70094,"zip":"0784102"},{"town":"南二条三丁目","koaza":"","lat":44.365497,"lng":141.6999,"zip":"0784102"},{"town":"南二条四丁目","koaza":"","lat":44.364646,"lng":141.698821,"zip":"0784102"},{"town":"南二条五丁目","koaza":"","lat":44.363805,"lng":141.697767,"zip":"0784102"},{"town":"南二条六丁目","koaza":"","lat":44.362966,"lng":141.696708,"zip":"0784102"},{"town":"南三条一丁目","koaza":"","lat":44.366455,"lng":141.705008,"zip":"0784103"},{"town":"南三条二丁目","koaza":"","lat":44.364946,"lng":141.703112,"zip":"0784103"},{"town":"南三条三丁目","koaza":"","lat":44.364095,"lng":141.702047,"zip":"0784103"},{"town":"南三条四丁目","koaza":"","lat":44.363242,"lng":141.700973,"zip":"0784103"},{"town":"南三条五丁目","koaza":"","lat":44.362395,"lng":141.699911,"zip":"0784103"},{"town":"南三条六丁目","koaza":"","lat":44.36155,"lng":141.698851,"zip":"0784103"},{"town":"南四条一丁目","koaza":"","lat":44.365738,"lng":141.706019,"zip":"0784104"},{"town":"南四条二丁目","koaza":"","lat":44.364274,"lng":141.704164,"zip":"0784104"},{"town":"南四条三丁目","koaza":"","lat":44.363419,"lng":141.70309,"zip":"0784104"},{"town":"南四条四丁目","koaza":"","lat":44.362407,"lng":141.701963,"zip":"0784104"},{"town":"南四条五丁目","koaza":"","lat":44.36155,"lng":141.70135,"zip":"0784104"},{"town":"南四条六丁目","koaza":"","lat":44.360912,"lng":141.699887,"zip":"0784104"},{"town":"南五条一丁目","koaza":"","lat":44.365017,"lng":141.706821,"zip":"0784105"},{"town":"南五条二丁目","koaza":"","lat":44.363596,"lng":141.70521,"zip":"0784105"},{"town":"南五条三丁目","koaza":"","lat":44.36274,"lng":141.704133,"zip":"0784105"},{"town":"南五条四丁目","koaza":"","lat":44.361899,"lng":141.703225,"zip":"0784105"},{"town":"南五条五丁目","koaza":"","lat":44.360846,"lng":141.702285,"zip":"0784105"},{"town":"南五条六丁目","koaza":"","lat":44.360223,"lng":141.700954,"zip":"0784105"},{"town":"南六条一丁目","koaza":"","lat":44.364253,"lng":141.708012,"zip":"0784106"},{"town":"南六条二丁目","koaza":"","lat":44.362905,"lng":141.7063,"zip":"0784106"},{"town":"南六条三丁目","koaza":"","lat":44.362124,"lng":141.705325,"zip":"0784106"},{"town":"南六条四丁目","koaza":"","lat":44.361077,"lng":141.704065,"zip":"0784106"},{"town":"南六条五丁目","koaza":"","lat":44.36033,"lng":141.703179,"zip":"0784106"},{"town":"南六条六丁目","koaza":"","lat":44.359658,"lng":141.702131,"zip":"0784106"},{"town":"南七条一丁目","koaza":"","lat":44.363499,"lng":141.708901,"zip":"0784107"},{"town":"南七条二丁目","koaza":"","lat":44.362241,"lng":141.7073,"zip":"0784107"},{"town":"南七条三丁目","koaza":"","lat":44.361372,"lng":141.706233,"zip":"0784107"},{"town":"南七条四丁目","koaza":"","lat":44.360504,"lng":141.705201,"zip":"0784107"},{"town":"南七条五丁目","koaza":"","lat":44.359667,"lng":141.704132,"zip":"0784107"},{"town":"南七条六丁目","koaza":"","lat":44.359082,"lng":141.703367,"zip":"0784107"},{"town":"南大通一丁目","koaza":"","lat":44.367215,"lng":141.704009,"zip":"0784108"},{"town":"南大通二丁目","koaza":"","lat":44.365645,"lng":141.70203,"zip":"0784108"},{"town":"南大通三丁目","koaza":"","lat":44.364884,"lng":141.701087,"zip":"0784108"},{"town":"南大通四丁目","koaza":"","lat":44.363945,"lng":141.699898,"zip":"0784108"},{"town":"南大通五丁目","koaza":"","lat":44.363111,"lng":141.698864,"zip":"0784108"},{"town":"南大通六丁目","koaza":"","lat":44.362268,"lng":141.697756,"zip":"0784108"},{"town":"南町","koaza":"","lat":44.358303,"lng":141.698449,"zip":"0784122"}]