[{"town":"字旭","koaza":"","lat":44.300379,"lng":141.676764,"zip":"0783700"},{"town":"字岩見","koaza":"","lat":44.252327,"lng":141.764434,"zip":"0783700"},{"town":"字上平","koaza":"","lat":44.257445,"lng":141.677388,"zip":"0783700"},{"town":"字興津","koaza":"","lat":44.337705,"lng":141.684317,"zip":"0783700"},{"town":"字香川","koaza":"","lat":44.280576,"lng":141.668148,"zip":"0783700"},{"town":"字霧立","koaza":"","lat":44.194289,"lng":141.955392,"zip":"0783700"},{"town":"字小川","koaza":"","lat":44.261751,"lng":141.836605,"zip":"0783700"},{"town":"字九重","koaza":"","lat":44.21475,"lng":141.733487,"zip":"0783700"},{"town":"字古丹別","koaza":"","lat":44.267032,"lng":141.71917,"zip":"0783700"},{"town":"字栄浜","koaza":"","lat":44.313453,"lng":141.663592,"zip":"0783700"},{"town":"字三渓","koaza":"","lat":44.144956,"lng":141.843631,"zip":"0783700"},{"town":"字昭和","koaza":"","lat":44.321062,"lng":141.699703,"zip":"0783700"},{"town":"字苫前","koaza":"","lat":44.311675,"lng":141.652518,"zip":"0783700"},{"town":"字豊浦","koaza":"","lat":44.322878,"lng":141.673726,"zip":"0783700"},{"town":"字長島","koaza":"","lat":44.273446,"lng":141.694475,"zip":"0783700"},{"town":"字東川","koaza":"","lat":44.22297,"lng":141.800899,"zip":"0783700"},{"town":"字三豊","koaza":"","lat":44.292933,"lng":141.648842,"zip":"0783700"},{"town":"字力昼","koaza":"","lat":44.229721,"lng":141.678959,"zip":"0783700"}]