[{"town":"青葉町一丁目","koaza":"","lat":42.630407,"lng":141.573662,"zip":"0530807"},{"town":"青葉町二丁目","koaza":"","lat":42.628743,"lng":141.568258,"zip":"0530807"},{"town":"明野新町一丁目","koaza":"","lat":42.657366,"lng":141.637173,"zip":"0530054"},{"town":"明野新町二丁目","koaza":"","lat":42.65527,"lng":141.630025,"zip":"0530054"},{"town":"明野新町三丁目","koaza":"","lat":42.657415,"lng":141.627707,"zip":"0530054"},{"town":"明野新町四丁目","koaza":"","lat":42.659939,"lng":141.635431,"zip":"0530054"},{"town":"明野新町五丁目","koaza":"","lat":42.662304,"lng":141.633963,"zip":"0530054"},{"town":"明野新町六丁目","koaza":"","lat":42.659994,"lng":141.627058,"zip":"0530054"},{"town":"明野元町一丁目","koaza":"","lat":42.664719,"lng":141.666051,"zip":"0530051"},{"town":"明野元町二丁目","koaza":"","lat":42.668416,"lng":141.661819,"zip":"0530051"},{"town":"あけぼの町一丁目","koaza":"","lat":42.679371,"lng":141.669289,"zip":"0591366"},{"town":"あけぼの町二丁目","koaza":"","lat":42.675265,"lng":141.660991,"zip":"0591366"},{"town":"あけぼの町三丁目","koaza":"","lat":42.67178,"lng":141.651463,"zip":"0591366"},{"town":"あけぼの町四丁目","koaza":"","lat":42.678355,"lng":141.649473,"zip":"0591366"},{"town":"あけぼの町五丁目","koaza":"","lat":42.680824,"lng":141.64455,"zip":"0591366"},{"town":"字糸井","koaza":"","lat":42.66722,"lng":141.515154,"zip":"0530000"},{"town":"字柏原","koaza":"","lat":42.67771,"lng":141.760125,"zip":"0530000"},{"town":"字静川","koaza":"","lat":42.664337,"lng":141.796627,"zip":"0530000"},{"town":"字高丘","koaza":"","lat":42.678951,"lng":141.594406,"zip":"0530000"},{"town":"字樽前","koaza":"","lat":42.636065,"lng":141.391404,"zip":"0530000"},{"town":"字錦岡","koaza":"","lat":42.648456,"lng":141.481606,"zip":"0530000"},{"town":"旭町一丁目","koaza":"","lat":42.631497,"lng":141.608741,"zip":"0530018"},{"town":"旭町二丁目","koaza":"","lat":42.630607,"lng":141.60555,"zip":"0530018"},{"town":"旭町三丁目","koaza":"","lat":42.632467,"lng":141.603496,"zip":"0530018"},{"town":"旭町四丁目","koaza":"","lat":42.634051,"lng":141.606328,"zip":"0530018"},{"town":"字弁天","koaza":"","lat":42.629541,"lng":141.774865,"zip":"0530000"},{"town":"字丸山","koaza":"","lat":42.722251,"lng":141.507028,"zip":"0530000"},{"town":"字美沢","koaza":"","lat":42.75863,"lng":141.686296,"zip":"0530000"},{"town":"字勇払","koaza":"","lat":42.638559,"lng":141.706512,"zip":"0530000"},{"town":"有明町一丁目","koaza":"","lat":42.621088,"lng":141.565627,"zip":"0530812"},{"town":"有明町二丁目","koaza":"","lat":42.618879,"lng":141.554849,"zip":"0530812"},{"town":"泉町一丁目","koaza":"","lat":42.657484,"lng":141.609635,"zip":"0530047"},{"town":"泉町二丁目","koaza":"","lat":42.655499,"lng":141.60756,"zip":"0530047"},{"town":"一本松町","koaza":"","lat":42.655077,"lng":141.64713,"zip":"0591375"},{"town":"入船町一丁目","koaza":"","lat":42.640615,"lng":141.632619,"zip":"0530003"},{"town":"入船町二丁目","koaza":"","lat":42.644978,"lng":141.62995,"zip":"0530003"},{"town":"入船町三丁目","koaza":"","lat":42.643574,"lng":141.621559,"zip":"0530003"},{"town":"有珠の沢町一丁目","koaza":"","lat":42.641364,"lng":141.555249,"zip":"0530842"},{"town":"有珠の沢町二丁目","koaza":"","lat":42.645225,"lng":141.553127,"zip":"0530842"},{"town":"有珠の沢町三丁目","koaza":"","lat":42.639459,"lng":141.553206,"zip":"0530842"},{"town":"有珠の沢町四丁目","koaza":"","lat":42.641624,"lng":141.550975,"zip":"0530842"},{"town":"有珠の沢町五丁目","koaza":"","lat":42.64397,"lng":141.548884,"zip":"0530842"},{"town":"有珠の沢町六丁目","koaza":"","lat":42.645495,"lng":141.546435,"zip":"0530842"},{"town":"有珠の沢町七丁目","koaza":"","lat":42.648984,"lng":141.548187,"zip":"0530842"},{"town":"永福町一丁目","koaza":"","lat":42.618498,"lng":141.54492,"zip":"0530815"},{"town":"永福町二丁目","koaza":"","lat":42.620376,"lng":141.54329,"zip":"0530815"},{"town":"王子町一丁目","koaza":"","lat":42.634801,"lng":141.595129,"zip":"0530027"},{"town":"王子町二丁目","koaza":"","lat":42.63409,"lng":141.590264,"zip":"0530027"},{"town":"王子町三丁目","koaza":"","lat":42.637874,"lng":141.595066,"zip":"0530027"},{"town":"大町一丁目","koaza":"","lat":42.630804,"lng":141.596343,"zip":"0530024"},{"town":"大町二丁目","koaza":"","lat":42.631938,"lng":141.595215,"zip":"0530024"},{"town":"音羽町一丁目","koaza":"","lat":42.647222,"lng":141.614863,"zip":"0530044"},{"town":"音羽町二丁目","koaza":"","lat":42.645733,"lng":141.610423,"zip":"0530044"},{"town":"表町一丁目","koaza":"","lat":42.634952,"lng":141.602539,"zip":"0530022"},{"town":"表町二丁目","koaza":"","lat":42.634013,"lng":141.600479,"zip":"0530022"},{"town":"表町三丁目","koaza":"","lat":42.636237,"lng":141.598942,"zip":"0530022"},{"town":"表町四丁目","koaza":"","lat":42.636829,"lng":141.600834,"zip":"0530022"},{"town":"表町五丁目","koaza":"","lat":42.639322,"lng":141.600007,"zip":"0530022"},{"town":"表町六丁目","koaza":"","lat":42.638815,"lng":141.59737,"zip":"0530022"},{"town":"柏木町一丁目","koaza":"","lat":42.625519,"lng":141.529401,"zip":"0530823"},{"town":"柏木町二丁目","koaza":"","lat":42.6239,"lng":141.525055,"zip":"0530823"},{"town":"柏木町三丁目","koaza":"","lat":42.623089,"lng":141.521508,"zip":"0530823"},{"town":"柏木町四丁目","koaza":"","lat":42.62558,"lng":141.519504,"zip":"0530823"},{"town":"柏木町五丁目","koaza":"","lat":42.626799,"lng":141.523265,"zip":"0530823"},{"town":"柏木町六丁目","koaza":"","lat":42.628507,"lng":141.527864,"zip":"0530823"},{"town":"春日町一丁目","koaza":"","lat":42.647562,"lng":141.60494,"zip":"0530031"},{"town":"春日町二丁目","koaza":"","lat":42.647064,"lng":141.601749,"zip":"0530031"},{"town":"春日町三丁目","koaza":"","lat":42.648572,"lng":141.601112,"zip":"0530031"},{"town":"川沿町一丁目","koaza":"","lat":42.619635,"lng":141.53191,"zip":"0530822"},{"town":"川沿町二丁目","koaza":"","lat":42.617803,"lng":141.52809,"zip":"0530822"},{"town":"川沿町三丁目","koaza":"","lat":42.616407,"lng":141.524125,"zip":"0530822"},{"town":"川沿町四丁目","koaza":"","lat":42.619419,"lng":141.523514,"zip":"0530822"},{"town":"川沿町五丁目","koaza":"","lat":42.62071,"lng":141.526329,"zip":"0530822"},{"town":"川沿町六丁目","koaza":"","lat":42.622121,"lng":141.53049,"zip":"0530822"},{"town":"木場町一丁目","koaza":"","lat":42.641498,"lng":141.596555,"zip":"0530033"},{"town":"木場町二丁目","koaza":"","lat":42.644419,"lng":141.593295,"zip":"0530033"},{"town":"木場町三丁目","koaza":"","lat":42.646037,"lng":141.593513,"zip":"0530033"},{"town":"木場町四丁目","koaza":"","lat":42.640717,"lng":141.587831,"zip":"0530033"},{"town":"啓北町一丁目","koaza":"","lat":42.630762,"lng":141.565171,"zip":"0530854"},{"town":"啓北町二丁目","koaza":"","lat":42.633043,"lng":141.56187,"zip":"0530854"},{"town":"小糸井町一丁目","koaza":"","lat":42.616999,"lng":141.545648,"zip":"0530813"},{"town":"光洋町一丁目","koaza":"","lat":42.622737,"lng":141.56446,"zip":"0530811"},{"town":"光洋町二丁目","koaza":"","lat":42.624359,"lng":141.563562,"zip":"0530811"},{"town":"光洋町三丁目","koaza":"","lat":42.626377,"lng":141.563119,"zip":"0530811"},{"town":"寿町一丁目","koaza":"","lat":42.628842,"lng":141.598231,"zip":"0530016"},{"town":"寿町二丁目","koaza":"","lat":42.629955,"lng":141.597621,"zip":"0530016"},{"town":"幸町一丁目","koaza":"","lat":42.628471,"lng":141.5915,"zip":"0530026"},{"town":"幸町二丁目","koaza":"","lat":42.62942,"lng":141.589954,"zip":"0530026"},{"town":"栄町一丁目","koaza":"","lat":42.629152,"lng":141.602107,"zip":"0530017"},{"town":"栄町二丁目","koaza":"","lat":42.630285,"lng":141.601325,"zip":"0530017"},{"town":"栄町三丁目","koaza":"","lat":42.631261,"lng":141.599825,"zip":"0530017"},{"town":"桜木町一丁目","koaza":"","lat":42.629,"lng":141.561036,"zip":"0530832"},{"town":"桜木町二丁目","koaza":"","lat":42.626208,"lng":141.552754,"zip":"0530832"},{"town":"桜木町三丁目","koaza":"","lat":42.629441,"lng":141.551973,"zip":"0530832"},{"town":"桜木町四丁目","koaza":"","lat":42.631468,"lng":141.558192,"zip":"0530832"},{"town":"桜坂町一丁目","koaza":"","lat":42.638973,"lng":141.537213,"zip":"0530843"},{"town":"桜坂町二丁目","koaza":"","lat":42.639068,"lng":141.53518,"zip":"0530843"},{"town":"三光町一丁目","koaza":"","lat":42.653809,"lng":141.624703,"zip":"0530042"},{"town":"三光町二丁目","koaza":"","lat":42.651997,"lng":141.618136,"zip":"0530042"},{"town":"三光町三丁目","koaza":"","lat":42.654381,"lng":141.620699,"zip":"0530042"},{"town":"三光町四丁目","koaza":"","lat":42.656078,"lng":141.618897,"zip":"0530042"},{"town":"三光町五丁目","koaza":"","lat":42.656325,"lng":141.614803,"zip":"0530042"},{"town":"三光町六丁目","koaza":"","lat":42.657792,"lng":141.621974,"zip":"0530042"},{"town":"汐見町一丁目","koaza":"","lat":42.625548,"lng":141.615365,"zip":"0530012"},{"town":"汐見町二丁目","koaza":"","lat":42.625201,"lng":141.612316,"zip":"0530012"},{"town":"汐見町三丁目","koaza":"","lat":42.627779,"lng":141.60774,"zip":"0530012"},{"town":"清水町一丁目","koaza":"","lat":42.65147,"lng":141.602637,"zip":"0530034"},{"town":"清水町二丁目","koaza":"","lat":42.650728,"lng":141.597168,"zip":"0530034"},{"town":"清水町三丁目","koaza":"","lat":42.655016,"lng":141.595058,"zip":"0530034"},{"town":"清水町四丁目","koaza":"","lat":42.651112,"lng":141.584713,"zip":"0530034"},{"town":"しらかば町一丁目","koaza":"","lat":42.624155,"lng":141.547728,"zip":"0530821"},{"town":"しらかば町二丁目","koaza":"","lat":42.622684,"lng":141.541929,"zip":"0530821"},{"town":"しらかば町三丁目","koaza":"","lat":42.622011,"lng":141.536483,"zip":"0530821"},{"town":"しらかば町四丁目","koaza":"","lat":42.623735,"lng":141.537303,"zip":"0530821"},{"town":"しらかば町五丁目","koaza":"","lat":42.62592,"lng":141.542825,"zip":"0530821"},{"town":"しらかば町六丁目","koaza":"","lat":42.626919,"lng":141.547008,"zip":"0530821"},{"town":"白金町一丁目","koaza":"","lat":42.633613,"lng":141.583356,"zip":"0530801"},{"town":"白金町二丁目","koaza":"","lat":42.631655,"lng":141.578477,"zip":"0530801"},{"town":"新開町一丁目","koaza":"","lat":42.667618,"lng":141.658724,"zip":"0530052"},{"town":"新開町二丁目","koaza":"","lat":42.666172,"lng":141.653752,"zip":"0530052"},{"town":"新開町三丁目","koaza":"","lat":42.66385,"lng":141.647134,"zip":"0530052"},{"town":"新開町四丁目","koaza":"","lat":42.661924,"lng":141.641002,"zip":"0530052"},{"town":"新富町一丁目","koaza":"","lat":42.624898,"lng":141.576007,"zip":"0530805"},{"town":"新富町二丁目","koaza":"","lat":42.624098,"lng":141.571348,"zip":"0530805"},{"town":"新中野町一丁目","koaza":"","lat":42.644374,"lng":141.617325,"zip":"0530006"},{"town":"新中野町二丁目","koaza":"","lat":42.643113,"lng":141.614418,"zip":"0530006"},{"town":"新中野町三丁目","koaza":"","lat":42.641416,"lng":141.611384,"zip":"0530006"},{"town":"新明町一丁目","koaza":"","lat":42.670295,"lng":141.643072,"zip":"0530055"},{"town":"新明町二丁目","koaza":"","lat":42.668722,"lng":141.636799,"zip":"0530055"},{"town":"新明町三丁目","koaza":"","lat":42.666968,"lng":141.631078,"zip":"0530055"},{"town":"新明町四丁目","koaza":"","lat":42.663224,"lng":141.625201,"zip":"0530055"},{"town":"新明町五丁目","koaza":"","lat":42.666978,"lng":141.623013,"zip":"0530055"},{"town":"末広町一丁目","koaza":"","lat":42.63159,"lng":141.612337,"zip":"0530011"},{"town":"末広町二丁目","koaza":"","lat":42.634326,"lng":141.611932,"zip":"0530011"},{"town":"末広町三丁目","koaza":"","lat":42.636356,"lng":141.610479,"zip":"0530011"},{"town":"澄川町一丁目","koaza":"","lat":42.621592,"lng":141.518517,"zip":"0591271"},{"town":"澄川町二丁目","koaza":"","lat":42.620465,"lng":141.515013,"zip":"0591271"},{"town":"澄川町三丁目","koaza":"","lat":42.619137,"lng":141.510784,"zip":"0591271"},{"town":"澄川町四丁目","koaza":"","lat":42.617683,"lng":141.505506,"zip":"0591271"},{"town":"澄川町五丁目","koaza":"","lat":42.620422,"lng":141.503769,"zip":"0591271"},{"town":"澄川町六丁目","koaza":"","lat":42.622301,"lng":141.508882,"zip":"0591271"},{"town":"澄川町七丁目","koaza":"","lat":42.623569,"lng":141.51311,"zip":"0591271"},{"town":"澄川町八丁目","koaza":"","lat":42.62478,"lng":141.516395,"zip":"0591271"},{"town":"住吉町一丁目","koaza":"","lat":42.654414,"lng":141.611187,"zip":"0530046"},{"town":"住吉町二丁目","koaza":"","lat":42.652742,"lng":141.607184,"zip":"0530046"},{"town":"青雲町一丁目","koaza":"","lat":42.609636,"lng":141.496318,"zip":"0591263"},{"town":"青雲町二丁目","koaza":"","lat":42.609284,"lng":141.491292,"zip":"0591263"},{"town":"青雲町三丁目","koaza":"","lat":42.607579,"lng":141.48599,"zip":"0591263"},{"town":"大成町一丁目","koaza":"","lat":42.627684,"lng":141.575182,"zip":"0530806"},{"town":"大成町二丁目","koaza":"","lat":42.626671,"lng":141.569639,"zip":"0530806"},{"town":"高砂町一丁目","koaza":"","lat":42.627333,"lng":141.603066,"zip":"0530013"},{"town":"高砂町二丁目","koaza":"","lat":42.626954,"lng":141.599648,"zip":"0530013"},{"town":"拓勇西町一丁目","koaza":"","lat":42.667253,"lng":141.673835,"zip":"0591302"},{"town":"拓勇西町二丁目","koaza":"","lat":42.665593,"lng":141.669908,"zip":"0591302"},{"town":"拓勇西町三丁目","koaza":"","lat":42.668199,"lng":141.667334,"zip":"0591302"},{"town":"拓勇西町四丁目","koaza":"","lat":42.669527,"lng":141.672364,"zip":"0591302"},{"town":"拓勇西町五丁目","koaza":"","lat":42.672611,"lng":141.670428,"zip":"0591302"},{"town":"拓勇西町六丁目","koaza":"","lat":42.67084,"lng":141.666067,"zip":"0591302"},{"town":"拓勇西町七丁目","koaza":"","lat":42.672305,"lng":141.662161,"zip":"0591302"},{"town":"拓勇西町八丁目","koaza":"","lat":42.674925,"lng":141.669258,"zip":"0591302"},{"town":"拓勇東町一丁目","koaza":"","lat":42.670923,"lng":141.683314,"zip":"0591303"},{"town":"拓勇東町二丁目","koaza":"","lat":42.668974,"lng":141.678266,"zip":"0591303"},{"town":"拓勇東町三丁目","koaza":"","lat":42.671205,"lng":141.676695,"zip":"0591303"},{"town":"拓勇東町四丁目","koaza":"","lat":42.673917,"lng":141.682147,"zip":"0591303"},{"town":"拓勇東町六丁目","koaza":"","lat":42.673988,"lng":141.675021,"zip":"0591303"},{"town":"拓勇東町七丁目","koaza":"","lat":42.676723,"lng":141.673011,"zip":"0591303"},{"town":"東開町一丁目","koaza":"","lat":42.662514,"lng":141.701159,"zip":"0591301"},{"town":"東開町二丁目","koaza":"","lat":42.663097,"lng":141.696855,"zip":"0591301"},{"town":"東開町三丁目","koaza":"","lat":42.664915,"lng":141.685754,"zip":"0591301"},{"town":"東開町四丁目","koaza":"","lat":42.665353,"lng":141.692485,"zip":"0591301"},{"town":"東開町五丁目","koaza":"","lat":42.666433,"lng":141.695668,"zip":"0591301"},{"town":"東開町六丁目","koaza":"","lat":42.66732,"lng":141.698572,"zip":"0591301"},{"town":"ときわ町一丁目","koaza":"","lat":42.61495,"lng":141.518689,"zip":"0591261"},{"town":"ときわ町二丁目","koaza":"","lat":42.613248,"lng":141.514414,"zip":"0591261"},{"town":"ときわ町三丁目","koaza":"","lat":42.613816,"lng":141.509603,"zip":"0591261"},{"town":"ときわ町四丁目","koaza":"","lat":42.616037,"lng":141.512688,"zip":"0591261"},{"town":"ときわ町五丁目","koaza":"","lat":42.617403,"lng":141.516306,"zip":"0591261"},{"town":"ときわ町六丁目","koaza":"","lat":42.61843,"lng":141.519169,"zip":"0591261"},{"town":"豊川町一丁目","koaza":"","lat":42.635456,"lng":141.556728,"zip":"0530831"},{"town":"豊川町二丁目","koaza":"","lat":42.634589,"lng":141.554127,"zip":"0530831"},{"town":"豊川町三丁目","koaza":"","lat":42.632671,"lng":141.54823,"zip":"0530831"},{"town":"豊川町四丁目","koaza":"","lat":42.634692,"lng":141.548085,"zip":"0530831"},{"town":"錦町一丁目","koaza":"","lat":42.632273,"lng":141.598844,"zip":"0530023"},{"town":"錦町二丁目","koaza":"","lat":42.63338,"lng":141.597911,"zip":"0530023"},{"town":"日新町一丁目","koaza":"","lat":42.630464,"lng":141.544891,"zip":"0530833"},{"town":"日新町二丁目","koaza":"","lat":42.62904,"lng":141.540099,"zip":"0530833"},{"town":"日新町三丁目","koaza":"","lat":42.627804,"lng":141.534703,"zip":"0530833"},{"town":"日新町四丁目","koaza":"","lat":42.628453,"lng":141.532444,"zip":"0530833"},{"town":"日新町五丁目","koaza":"","lat":42.631782,"lng":141.538503,"zip":"0530833"},{"town":"日新町六丁目","koaza":"","lat":42.632674,"lng":141.543465,"zip":"0530833"},{"town":"沼ノ端中央一丁目","koaza":"","lat":42.67431,"lng":141.704937,"zip":"0591305"},{"town":"沼ノ端中央二丁目","koaza":"","lat":42.672108,"lng":141.69928,"zip":"0591305"},{"town":"沼ノ端中央三丁目","koaza":"","lat":42.670908,"lng":141.69622,"zip":"0591305"},{"town":"沼ノ端中央四丁目","koaza":"","lat":42.669879,"lng":141.692617,"zip":"0591305"},{"town":"沼ノ端中央五丁目","koaza":"","lat":42.668992,"lng":141.689324,"zip":"0591305"},{"town":"沼ノ端中央六丁目","koaza":"","lat":42.666419,"lng":141.681382,"zip":"0591305"},{"town":"のぞみ町一丁目","koaza":"","lat":42.615879,"lng":141.501942,"zip":"0591272"},{"town":"のぞみ町二丁目","koaza":"","lat":42.614451,"lng":141.497135,"zip":"0591272"},{"town":"のぞみ町三丁目","koaza":"","lat":42.617691,"lng":141.497357,"zip":"0591272"},{"town":"花園町一丁目","koaza":"","lat":42.633252,"lng":141.573567,"zip":"0530853"},{"town":"花園町二丁目","koaza":"","lat":42.632,"lng":141.569735,"zip":"0530853"},{"town":"花園町三丁目","koaza":"","lat":42.635234,"lng":141.567751,"zip":"0530853"},{"town":"花園町四丁目","koaza":"","lat":42.636425,"lng":141.571513,"zip":"0530853"},{"town":"浜町一丁目","koaza":"","lat":42.626628,"lng":141.596861,"zip":"0530014"},{"town":"浜町二丁目","koaza":"","lat":42.626286,"lng":141.594209,"zip":"0530014"},{"town":"はまなす町一丁目","koaza":"","lat":42.628881,"lng":141.516984,"zip":"0530845"},{"town":"はまなす町二丁目","koaza":"","lat":42.630022,"lng":141.513404,"zip":"0530845"},{"town":"晴海町","koaza":"","lat":42.649079,"lng":141.648823,"zip":"0591374"},{"town":"日の出町一丁目","koaza":"","lat":42.650663,"lng":141.625091,"zip":"0530043"},{"town":"日の出町二丁目","koaza":"","lat":42.64898,"lng":141.619988,"zip":"0530043"},{"town":"日吉町一丁目","koaza":"","lat":42.621143,"lng":141.556855,"zip":"0530816"},{"town":"日吉町二丁目","koaza":"","lat":42.619875,"lng":141.550742,"zip":"0530816"},{"town":"日吉町三丁目","koaza":"","lat":42.622067,"lng":141.549247,"zip":"0530816"},{"town":"日吉町四丁目","koaza":"","lat":42.623952,"lng":141.555686,"zip":"0530816"},{"town":"双葉町一丁目","koaza":"","lat":42.65083,"lng":141.613393,"zip":"0530045"},{"town":"双葉町二丁目","koaza":"","lat":42.649368,"lng":141.610608,"zip":"0530045"},{"town":"双葉町三丁目","koaza":"","lat":42.649171,"lng":141.606575,"zip":"0530045"},{"town":"船見町一丁目","koaza":"","lat":42.648244,"lng":141.626629,"zip":"0530007"},{"town":"船見町二丁目","koaza":"","lat":42.645771,"lng":141.621195,"zip":"0530007"},{"town":"北栄町二丁目","koaza":"","lat":42.673098,"lng":141.688153,"zip":"0591304"},{"town":"北光町一丁目","koaza":"","lat":42.636658,"lng":141.581481,"zip":"0530852"},{"town":"北光町二丁目","koaza":"","lat":42.635088,"lng":141.576787,"zip":"0530852"},{"town":"北光町三丁目","koaza":"","lat":42.638197,"lng":141.575686,"zip":"0530852"},{"town":"北光町四丁目","koaza":"","lat":42.640871,"lng":141.579836,"zip":"0530852"},{"town":"本幸町一丁目","koaza":"","lat":42.628647,"lng":141.595993,"zip":"0530015"},{"town":"本幸町二丁目","koaza":"","lat":42.627857,"lng":141.594139,"zip":"0530015"},{"town":"本町一丁目","koaza":"","lat":42.629518,"lng":141.594316,"zip":"0530025"},{"town":"本町二丁目","koaza":"","lat":42.630777,"lng":141.59328,"zip":"0530025"},{"town":"真砂町","koaza":"","lat":42.632725,"lng":141.658839,"zip":"0591373"},{"town":"松風町","koaza":"","lat":42.637025,"lng":141.559293,"zip":"0530841"},{"town":"美園町一丁目","koaza":"","lat":42.661446,"lng":141.618385,"zip":"0530041"},{"town":"美園町二丁目","koaza":"","lat":42.658503,"lng":141.613754,"zip":"0530041"},{"town":"美園町三丁目","koaza":"","lat":42.6609,"lng":141.61341,"zip":"0530041"},{"town":"美園町四丁目","koaza":"","lat":42.665125,"lng":141.616459,"zip":"0530041"},{"town":"緑町一丁目","koaza":"","lat":42.64342,"lng":141.604727,"zip":"0530032"},{"town":"緑町二丁目","koaza":"","lat":42.643655,"lng":141.598308,"zip":"0530032"},{"town":"港町一丁目","koaza":"","lat":42.633001,"lng":141.62233,"zip":"0530004"},{"town":"港町二丁目","koaza":"","lat":42.632176,"lng":141.617353,"zip":"0530004"},{"town":"美原町一丁目","koaza":"","lat":42.610837,"lng":141.506929,"zip":"0591262"},{"town":"美原町二丁目","koaza":"","lat":42.61057,"lng":141.499754,"zip":"0591262"},{"town":"美原町三丁目","koaza":"","lat":42.613198,"lng":141.504667,"zip":"0591262"},{"town":"宮の森町一丁目","koaza":"","lat":42.631646,"lng":141.527941,"zip":"0530844"},{"town":"宮の森町二丁目","koaza":"","lat":42.635987,"lng":141.525133,"zip":"0530844"},{"town":"宮前町一丁目","koaza":"","lat":42.606693,"lng":141.496884,"zip":"0591264"},{"town":"宮前町二丁目","koaza":"","lat":42.604965,"lng":141.489641,"zip":"0591264"},{"town":"宮前町三丁目","koaza":"","lat":42.603005,"lng":141.483657,"zip":"0591264"},{"town":"宮前町四丁目","koaza":"","lat":42.605495,"lng":141.481406,"zip":"0591264"},{"town":"宮前町五丁目","koaza":"","lat":42.606441,"lng":141.486291,"zip":"0591264"},{"town":"見山町一丁目","koaza":"","lat":42.640226,"lng":141.567753,"zip":"0530855"},{"town":"見山町二丁目","koaza":"","lat":42.637839,"lng":141.568322,"zip":"0530855"},{"town":"見山町三丁目","koaza":"","lat":42.637435,"lng":141.565091,"zip":"0530855"},{"town":"見山町四丁目","koaza":"","lat":42.636832,"lng":141.561555,"zip":"0530855"},{"town":"明徳町一丁目","koaza":"","lat":42.612413,"lng":141.492952,"zip":"0591273"},{"town":"明徳町二丁目","koaza":"","lat":42.610108,"lng":141.484675,"zip":"0591273"},{"town":"明徳町三丁目","koaza":"","lat":42.612755,"lng":141.482887,"zip":"0591273"},{"town":"明徳町四丁目","koaza":"","lat":42.614628,"lng":141.489393,"zip":"0591273"},{"town":"もえぎ町一丁目","koaza":"","lat":42.608138,"lng":141.479143,"zip":"0591274"},{"town":"もえぎ町二丁目","koaza":"","lat":42.610947,"lng":141.477673,"zip":"0591274"},{"town":"元中野町一丁目","koaza":"","lat":42.637184,"lng":141.621387,"zip":"0530005"},{"town":"元中野町二丁目","koaza":"","lat":42.635903,"lng":141.616484,"zip":"0530005"},{"town":"元中野町三丁目","koaza":"","lat":42.639031,"lng":141.614403,"zip":"0530005"},{"town":"元中野町四丁目","koaza":"","lat":42.640975,"lng":141.618143,"zip":"0530005"},{"town":"元町一丁目","koaza":"","lat":42.625234,"lng":141.588791,"zip":"0530804"},{"town":"元町二丁目","koaza":"","lat":42.624196,"lng":141.582356,"zip":"0530804"},{"town":"元町三丁目","koaza":"","lat":42.622882,"lng":141.57491,"zip":"0530804"},{"town":"矢代町一丁目","koaza":"","lat":42.626606,"lng":141.588575,"zip":"0530803"},{"town":"矢代町二丁目","koaza":"","lat":42.625744,"lng":141.581321,"zip":"0530803"},{"town":"矢代町三丁目","koaza":"","lat":42.627761,"lng":141.586894,"zip":"0530803"},{"town":"柳町一丁目","koaza":"","lat":42.662173,"lng":141.658446,"zip":"0530053"},{"town":"柳町二丁目","koaza":"","lat":42.658821,"lng":141.649442,"zip":"0530053"},{"town":"柳町三丁目","koaza":"","lat":42.656538,"lng":141.64175,"zip":"0530053"},{"town":"柳町四丁目","koaza":"","lat":42.653803,"lng":141.633569,"zip":"0530053"},{"town":"山手町一丁目","koaza":"","lat":42.642216,"lng":141.577566,"zip":"0530851"},{"town":"山手町二丁目","koaza":"","lat":42.6405,"lng":141.573131,"zip":"0530851"},{"town":"弥生町一丁目","koaza":"","lat":42.630123,"lng":141.584623,"zip":"0530802"},{"town":"弥生町二丁目","koaza":"","lat":42.628589,"lng":141.57969,"zip":"0530802"},{"town":"若草町一丁目","koaza":"","lat":42.639339,"lng":141.609614,"zip":"0530021"},{"town":"若草町二丁目","koaza":"","lat":42.638315,"lng":141.606835,"zip":"0530021"},{"town":"若草町三丁目","koaza":"","lat":42.637071,"lng":141.604557,"zip":"0530021"},{"town":"若草町四丁目","koaza":"","lat":42.640213,"lng":141.602634,"zip":"0530021"},{"town":"若草町五丁目","koaza":"","lat":42.641317,"lng":141.606708,"zip":"0530021"},{"town":"拓勇東町五丁目","koaza":"","lat":42.675939,"lng":141.679282,"zip":"0591303"},{"town":"拓勇東町八丁目","koaza":"","lat":42.678904,"lng":141.676608,"zip":"0591303"},{"town":"北栄町五丁目","koaza":"","lat":42.681534,"lng":141.680128,"zip":"0591304"},{"town":"北栄町三丁目","koaza":"","lat":42.677025,"lng":141.686709,"zip":"0591304"},{"town":"北栄町四丁目","koaza":"","lat":42.679202,"lng":141.683632,"zip":"0591304"},{"town":"北栄町一丁目","koaza":"","lat":42.6751,"lng":141.692086,"zip":"0591304"},{"town":"ウトナイ北十二丁目","koaza":"","lat":42.68457,"lng":141.68261,"zip":"0591306"},{"town":"ウトナイ北五丁目","koaza":"","lat":42.68227,"lng":141.686046,"zip":"0591306"},{"town":"ウトナイ北四丁目","koaza":"","lat":42.680592,"lng":141.690252,"zip":"0591306"},{"town":"ウトナイ南五丁目","koaza":"","lat":42.678291,"lng":141.69465,"zip":"0591307"},{"town":"ウトナイ南四丁目","koaza":"","lat":42.675414,"lng":141.696958,"zip":"0591307"},{"town":"ウトナイ北十一丁目","koaza":"","lat":42.687036,"lng":141.684357,"zip":"0591306"},{"town":"ウトナイ北六丁目","koaza":"","lat":42.684873,"lng":141.688038,"zip":"0591306"},{"town":"ウトナイ北三丁目","koaza":"","lat":42.682778,"lng":141.692342,"zip":"0591306"},{"town":"ウトナイ南六丁目","koaza":"","lat":42.680017,"lng":141.697021,"zip":"0591307"},{"town":"ウトナイ南三丁目","koaza":"","lat":42.677255,"lng":141.700514,"zip":"0591307"},{"town":"字沼ノ端","koaza":"","lat":42.670682,"lng":141.710419,"zip":"0530000"},{"town":"字植苗","koaza":"","lat":42.718511,"lng":141.676558,"zip":"0530000"},{"town":"ウトナイ北九丁目","koaza":"","lat":42.691385,"lng":141.68835,"zip":"0591306"},{"town":"ウトナイ北十丁目","koaza":"","lat":42.689199,"lng":141.686509,"zip":"0591306"},{"town":"ウトナイ北八丁目","koaza":"","lat":42.689314,"lng":141.692249,"zip":"0591306"},{"town":"ウトナイ北七丁目","koaza":"","lat":42.68722,"lng":141.690128,"zip":"0591306"},{"town":"ウトナイ北一丁目","koaza":"","lat":42.68676,"lng":141.696927,"zip":"0591306"},{"town":"ウトナイ北二丁目","koaza":"","lat":42.684781,"lng":141.69465,"zip":"0591306"},{"town":"ウトナイ南八丁目","koaza":"","lat":42.683722,"lng":141.701637,"zip":"0591307"},{"town":"ウトナイ南七丁目","koaza":"","lat":42.681743,"lng":141.699111,"zip":"0591307"},{"town":"ウトナイ南一丁目","koaza":"","lat":42.680984,"lng":141.705099,"zip":"0591307"},{"town":"ウトナイ南二丁目","koaza":"","lat":42.679119,"lng":141.702885,"zip":"0591307"},{"town":"錦西町一丁目","koaza":"","lat":42.601831,"lng":141.479164,"zip":"0591266"},{"town":"錦西町二丁目","koaza":"","lat":42.603943,"lng":141.475322,"zip":"0591266"},{"town":"錦西町三丁目","koaza":"","lat":42.600466,"lng":141.466796,"zip":"0591266"},{"town":"北星町一丁目","koaza":"","lat":42.60559,"lng":141.474041,"zip":"0591277"},{"town":"北星町二丁目","koaza":"","lat":42.602219,"lng":141.464818,"zip":"0591277"}]