[{"town":"字赤井川","koaza":"","lat":42.012556,"lng":140.640698,"zip":"0492300"},{"town":"字石倉町","koaza":"","lat":42.158605,"lng":140.461086,"zip":"0492300"},{"town":"字上台町","koaza":"","lat":42.098198,"lng":140.564475,"zip":"0492300"},{"town":"字蛯谷町","koaza":"","lat":42.123656,"lng":140.508093,"zip":"0492300"},{"town":"字尾白内町","koaza":"","lat":42.095042,"lng":140.624642,"zip":"0492300"},{"town":"字霞台","koaza":"","lat":42.069097,"lng":140.534029,"zip":"0492300"},{"town":"字桂川","koaza":"","lat":42.093723,"lng":140.507008,"zip":"0492300"},{"town":"字清澄町","koaza":"","lat":42.100847,"lng":140.574114,"zip":"0492300"},{"town":"字清滝","koaza":"","lat":42.109626,"lng":140.481552,"zip":"0492300"},{"town":"字栗ケ丘","koaza":"","lat":42.086432,"lng":140.535079,"zip":"0492300"},{"town":"字駒ケ岳","koaza":"","lat":42.043007,"lng":140.609941,"zip":"0492300"},{"town":"字栄町","koaza":"","lat":42.095453,"lng":140.597243,"zip":"0492300"},{"town":"字砂原一丁目","koaza":"","lat":42.123634,"lng":140.664961,"zip":"0492300"},{"town":"字砂原二丁目","koaza":"","lat":42.096061,"lng":140.687153,"zip":"0492300"},{"town":"字砂原三丁目","koaza":"","lat":42.118288,"lng":140.680183,"zip":"0492300"},{"town":"字砂原四丁目","koaza":"","lat":42.118645,"lng":140.68965,"zip":"0492300"},{"town":"字砂原五丁目","koaza":"","lat":42.119435,"lng":140.705338,"zip":"0492300"},{"town":"字砂原六丁目","koaza":"","lat":42.133223,"lng":140.710539,"zip":"0492300"},{"town":"字砂原原野四線","koaza":"","lat":42.112734,"lng":140.73815,"zip":"0492300"},{"town":"字砂原原野五線","koaza":"","lat":42.114858,"lng":140.734112,"zip":"0492300"},{"town":"字砂原原野六線","koaza":"","lat":42.117174,"lng":140.727704,"zip":"0492300"},{"town":"字砂原原野七線","koaza":"","lat":42.11406,"lng":140.720635,"zip":"0492300"},{"town":"字砂原原野八線","koaza":"","lat":42.111839,"lng":140.715382,"zip":"0492300"},{"town":"字砂原西一丁目","koaza":"","lat":42.11703,"lng":140.633455,"zip":"0492300"},{"town":"字砂原西二丁目","koaza":"","lat":42.117344,"lng":140.639581,"zip":"0492300"},{"town":"字砂原西三丁目","koaza":"","lat":42.111502,"lng":140.642575,"zip":"0492300"},{"town":"字砂原西四丁目","koaza":"","lat":42.11985,"lng":140.652539,"zip":"0492300"},{"town":"字砂原西五丁目","koaza":"","lat":42.128397,"lng":140.66204,"zip":"0492300"},{"town":"字砂原東一丁目","koaza":"","lat":42.124247,"lng":140.722347,"zip":"0492300"},{"town":"字砂原東二丁目","koaza":"","lat":42.109674,"lng":140.725908,"zip":"0492300"},{"town":"字砂原東三丁目","koaza":"","lat":42.118284,"lng":140.73587,"zip":"0492300"},{"town":"字砂原東四丁目","koaza":"","lat":42.112023,"lng":140.749153,"zip":"0492300"},{"town":"字砂原東五丁目","koaza":"","lat":42.096125,"lng":140.745386,"zip":"0492300"},{"town":"字三岱","koaza":"","lat":42.137342,"lng":140.415931,"zip":"0492300"},{"town":"字白川","koaza":"","lat":42.084959,"lng":140.605976,"zip":"0492300"},{"town":"字新川町","koaza":"","lat":42.107754,"lng":140.584912,"zip":"0492300"},{"town":"字常盤町","koaza":"","lat":42.100188,"lng":140.5914,"zip":"0492300"},{"town":"字鳥崎町","koaza":"","lat":42.106957,"lng":140.561272,"zip":"0492300"},{"town":"字濁川","koaza":"","lat":42.125318,"lng":140.453976,"zip":"0492300"},{"town":"字東森町","koaza":"","lat":42.104692,"lng":140.598653,"zip":"0492300"},{"town":"字姫川","koaza":"","lat":42.067787,"lng":140.576107,"zip":"0492300"},{"town":"字富士見町","koaza":"","lat":42.106099,"lng":140.546504,"zip":"0492300"},{"town":"字本茅部町","koaza":"","lat":42.140983,"lng":140.491596,"zip":"0492300"},{"town":"字本町","koaza":"","lat":42.108387,"lng":140.571847,"zip":"0492300"},{"town":"字港町","koaza":"","lat":42.109907,"lng":140.597313,"zip":"0492300"},{"town":"字御幸町","koaza":"","lat":42.105783,"lng":140.576199,"zip":"0492300"},{"town":"字森川町","koaza":"","lat":42.090051,"lng":140.577076,"zip":"0492300"},{"town":"字鷲ノ木町","koaza":"","lat":42.11079,"lng":140.526071,"zip":"0492300"}]