[{"town":"青葉町","koaza":"","lat":42.555599,"lng":140.764077,"zip":"0495601"},{"town":"旭浦","koaza":"","lat":42.625366,"lng":140.812825,"zip":"0495801"},{"town":"旭町","koaza":"","lat":42.550005,"lng":140.76413,"zip":"0495611"},{"town":"泉","koaza":"","lat":42.551237,"lng":140.795074,"zip":"0495602"},{"town":"入江","koaza":"","lat":42.533161,"lng":140.785997,"zip":"0495603"},{"town":"岩屋","koaza":"","lat":42.63839,"lng":140.894851,"zip":"0495811"},{"town":"大磯町","koaza":"","lat":42.554481,"lng":140.754106,"zip":"0495612"},{"town":"大原","koaza":"","lat":42.678308,"lng":140.840826,"zip":"0495821"},{"town":"香川","koaza":"","lat":42.659108,"lng":140.789734,"zip":"0495831"},{"town":"川東","koaza":"","lat":42.647074,"lng":140.869024,"zip":"0495812"},{"town":"栄町","koaza":"","lat":42.551074,"lng":140.767157,"zip":"0495604"},{"town":"清水","koaza":"","lat":42.574691,"lng":140.748564,"zip":"0495722"},{"town":"高砂町","koaza":"","lat":42.549047,"lng":140.776055,"zip":"0495605"},{"town":"財田","koaza":"","lat":42.646435,"lng":140.851932,"zip":"0495813"},{"town":"月浦","koaza":"","lat":42.596205,"lng":140.787526,"zip":"0495723"},{"town":"洞爺湖温泉","koaza":"","lat":42.563588,"lng":140.817795,"zip":"0495721"},{"town":"洞爺町","koaza":"","lat":42.642255,"lng":140.826371,"zip":"0495802"},{"town":"富丘","koaza":"","lat":42.679437,"lng":140.907034,"zip":"0495822"},{"town":"成香","koaza":"","lat":42.635059,"lng":140.789405,"zip":"0495832"},{"town":"花和","koaza":"","lat":42.62053,"lng":140.760219,"zip":"0495724"},{"town":"浜町","koaza":"","lat":42.547973,"lng":140.763164,"zip":"0495614"},{"town":"早月","koaza":"","lat":42.656011,"lng":140.932652,"zip":"0495814"},{"town":"伏見","koaza":"","lat":42.647516,"lng":140.756034,"zip":"0495833"},{"town":"本町","koaza":"","lat":42.549552,"lng":140.763158,"zip":"0495615"},{"town":"三豊","koaza":"","lat":42.568396,"lng":140.781582,"zip":"0495616"}]