[{"town":"字旭","koaza":"","lat":42.904941,"lng":140.717418,"zip":"0440000"},{"town":"字出雲","koaza":"","lat":42.952177,"lng":140.792987,"zip":"0440000"},{"town":"字岩雄登","koaza":"","lat":42.890594,"lng":140.633785,"zip":"0440000"},{"town":"字岩尾別","koaza":"","lat":42.884514,"lng":140.70554,"zip":"0440000"},{"town":"字樺山","koaza":"","lat":42.841952,"lng":140.702971,"zip":"0440000"},{"town":"字寒別","koaza":"","lat":42.900893,"lng":140.834216,"zip":"0440000"},{"town":"字琴平","koaza":"","lat":42.921073,"lng":140.759958,"zip":"0440000"},{"town":"字末広","koaza":"","lat":42.986944,"lng":140.79444,"zip":"0440000"},{"town":"字高砂","koaza":"","lat":42.880423,"lng":140.752568,"zip":"0440000"},{"town":"字高見","koaza":"","lat":42.955916,"lng":140.753716,"zip":"0440000"},{"town":"字高嶺","koaza":"","lat":42.851369,"lng":140.792196,"zip":"0440000"},{"town":"字巽","koaza":"","lat":42.879533,"lng":140.808971,"zip":"0440000"},{"town":"字峠下","koaza":"","lat":42.927377,"lng":140.733296,"zip":"0440000"},{"town":"字豊岡","koaza":"","lat":42.879154,"lng":140.837221,"zip":"0440000"},{"town":"字花園","koaza":"","lat":42.89563,"lng":140.657254,"zip":"0440000"},{"town":"字比羅夫","koaza":"","lat":42.856906,"lng":140.742496,"zip":"0440000"},{"town":"字富士見","koaza":"","lat":42.88179,"lng":140.778418,"zip":"0440000"},{"town":"字扶桑","koaza":"","lat":42.939997,"lng":140.817595,"zip":"0440000"},{"town":"字瑞穂","koaza":"","lat":42.919206,"lng":140.788781,"zip":"0440000"},{"town":"字緑","koaza":"","lat":42.921492,"lng":140.822864,"zip":"0440000"},{"town":"字八幡","koaza":"","lat":42.90059,"lng":140.795967,"zip":"0440000"},{"town":"字山田","koaza":"","lat":42.86543,"lng":140.700839,"zip":"0440000"},{"town":"字大和","koaza":"","lat":42.965209,"lng":140.8643,"zip":"0440000"},{"town":"字山梨","koaza":"","lat":42.933328,"lng":140.88855,"zip":"0440000"},{"town":"北一条西一丁目","koaza":"","lat":42.901881,"lng":140.751563,"zip":"0440051"},{"town":"北一条西二丁目","koaza":"","lat":42.901989,"lng":140.749023,"zip":"0440051"},{"town":"北一条西三丁目","koaza":"","lat":42.902095,"lng":140.747,"zip":"0440051"},{"town":"北一条東一丁目","koaza":"","lat":42.901779,"lng":140.753853,"zip":"0440001"},{"town":"北一条東二丁目","koaza":"","lat":42.902087,"lng":140.756572,"zip":"0440001"},{"town":"北一条東三丁目","koaza":"","lat":42.901505,"lng":140.758386,"zip":"0440001"},{"town":"北二条西一丁目","koaza":"","lat":42.902678,"lng":140.751644,"zip":"0440052"},{"town":"北二条西二丁目","koaza":"","lat":42.902812,"lng":140.749097,"zip":"0440052"},{"town":"北二条西三丁目","koaza":"","lat":42.902877,"lng":140.747089,"zip":"0440052"},{"town":"北二条東一丁目","koaza":"","lat":42.902579,"lng":140.753936,"zip":"0440002"},{"town":"北二条東二丁目","koaza":"","lat":42.90247,"lng":140.755503,"zip":"0440002"},{"town":"北二条東三丁目","koaza":"","lat":42.902497,"lng":140.758484,"zip":"0440002"},{"town":"北三条西一丁目","koaza":"","lat":42.903498,"lng":140.751718,"zip":"0440053"},{"town":"北三条西二丁目","koaza":"","lat":42.903659,"lng":140.749174,"zip":"0440053"},{"town":"北三条西三丁目","koaza":"","lat":42.90377,"lng":140.747186,"zip":"0440053"},{"town":"北三条西四丁目","koaza":"","lat":42.903138,"lng":140.744929,"zip":"0440053"},{"town":"北三条東十丁目","koaza":"","lat":42.900949,"lng":140.774344,"zip":"0440003"},{"town":"北三条東十一丁目","koaza":"","lat":42.901385,"lng":140.776639,"zip":"0440003"},{"town":"北三条東一丁目","koaza":"","lat":42.903441,"lng":140.754004,"zip":"0440003"},{"town":"北三条東二丁目","koaza":"","lat":42.903322,"lng":140.756288,"zip":"0440003"},{"town":"北三条東三丁目","koaza":"","lat":42.903249,"lng":140.758571,"zip":"0440003"},{"town":"北三条東四丁目","koaza":"","lat":42.902234,"lng":140.760794,"zip":"0440003"},{"town":"北三条東五丁目","koaza":"","lat":42.902074,"lng":140.763011,"zip":"0440003"},{"town":"北三条東六丁目","koaza":"","lat":42.902157,"lng":140.765502,"zip":"0440003"},{"town":"北三条東七丁目","koaza":"","lat":42.901935,"lng":140.767551,"zip":"0440003"},{"town":"北三条東八丁目","koaza":"","lat":42.901573,"lng":140.769618,"zip":"0440003"},{"town":"北三条東九丁目","koaza":"","lat":42.900991,"lng":140.771866,"zip":"0440003"},{"town":"北四条西一丁目","koaza":"","lat":42.904279,"lng":140.751801,"zip":"0440054"},{"town":"北四条西二丁目","koaza":"","lat":42.90454,"lng":140.749582,"zip":"0440054"},{"town":"北四条西三丁目","koaza":"","lat":42.904599,"lng":140.747313,"zip":"0440054"},{"town":"北四条西四丁目","koaza":"","lat":42.905597,"lng":140.744772,"zip":"0440054"},{"town":"北四条東十丁目","koaza":"","lat":42.904092,"lng":140.774252,"zip":"0440004"},{"town":"北四条東十一丁目","koaza":"","lat":42.904047,"lng":140.776856,"zip":"0440004"},{"town":"北四条東一丁目","koaza":"","lat":42.904217,"lng":140.754139,"zip":"0440004"},{"town":"北四条東二丁目","koaza":"","lat":42.904205,"lng":140.75638,"zip":"0440004"},{"town":"北四条東三丁目","koaza":"","lat":42.904068,"lng":140.758666,"zip":"0440004"},{"town":"北四条東四丁目","koaza":"","lat":42.904785,"lng":140.761023,"zip":"0440004"},{"town":"北四条東五丁目","koaza":"","lat":42.90489,"lng":140.763249,"zip":"0440004"},{"town":"北四条東六丁目","koaza":"","lat":42.904548,"lng":140.765498,"zip":"0440004"},{"town":"北四条東七丁目","koaza":"","lat":42.904451,"lng":140.76792,"zip":"0440004"},{"town":"北四条東八丁目","koaza":"","lat":42.90435,"lng":140.770173,"zip":"0440004"},{"town":"北四条東九丁目","koaza":"","lat":42.904251,"lng":140.772356,"zip":"0440004"},{"town":"北五条西一丁目","koaza":"","lat":42.905696,"lng":140.751902,"zip":"0440055"},{"town":"北五条西二丁目","koaza":"","lat":42.905792,"lng":140.749664,"zip":"0440055"},{"town":"北五条西三丁目","koaza":"","lat":42.905942,"lng":140.747409,"zip":"0440055"},{"town":"北五条東一丁目","koaza":"","lat":42.905618,"lng":140.753814,"zip":"0440005"},{"town":"北五条東二丁目","koaza":"","lat":42.905482,"lng":140.7565,"zip":"0440005"},{"town":"北五条東三丁目","koaza":"","lat":42.905345,"lng":140.758794,"zip":"0440005"},{"town":"北六条西一丁目","koaza":"","lat":42.907743,"lng":140.752107,"zip":"0440056"},{"town":"北六条西二丁目","koaza":"","lat":42.907848,"lng":140.749843,"zip":"0440056"},{"town":"北六条西三丁目","koaza":"","lat":42.90793,"lng":140.747575,"zip":"0440056"},{"town":"北六条西四丁目","koaza":"","lat":42.908075,"lng":140.745326,"zip":"0440056"},{"town":"北六条西五丁目","koaza":"","lat":42.908166,"lng":140.743271,"zip":"0440056"},{"town":"北六条東十丁目","koaza":"","lat":42.906654,"lng":140.774819,"zip":"0440006"},{"town":"北六条東十一丁目","koaza":"","lat":42.906548,"lng":140.777038,"zip":"0440006"},{"town":"北六条東一丁目","koaza":"","lat":42.907688,"lng":140.754412,"zip":"0440006"},{"town":"北六条東二丁目","koaza":"","lat":42.907605,"lng":140.756643,"zip":"0440006"},{"town":"北六条東三丁目","koaza":"","lat":42.907526,"lng":140.758937,"zip":"0440006"},{"town":"北六条東四丁目","koaza":"","lat":42.907262,"lng":140.761242,"zip":"0440006"},{"town":"北六条東五丁目","koaza":"","lat":42.907257,"lng":140.76343,"zip":"0440006"},{"town":"北六条東六丁目","koaza":"","lat":42.90677,"lng":140.765682,"zip":"0440006"},{"town":"北六条東七丁目","koaza":"","lat":42.906957,"lng":140.76809,"zip":"0440006"},{"town":"北六条東八丁目","koaza":"","lat":42.906786,"lng":140.770322,"zip":"0440006"},{"town":"北六条東九丁目","koaza":"","lat":42.906765,"lng":140.772566,"zip":"0440006"},{"town":"北七条西一丁目","koaza":"","lat":42.910255,"lng":140.752333,"zip":"0440057"},{"town":"北七条西二丁目","koaza":"","lat":42.910243,"lng":140.750052,"zip":"0440057"},{"town":"北七条西三丁目","koaza":"","lat":42.91046,"lng":140.747795,"zip":"0440057"},{"town":"北七条西四丁目","koaza":"","lat":42.910532,"lng":140.745481,"zip":"0440057"},{"town":"北七条西五丁目","koaza":"","lat":42.910682,"lng":140.743231,"zip":"0440057"},{"town":"北七条西六丁目","koaza":"","lat":42.910758,"lng":140.741393,"zip":"0440057"},{"town":"北七条東十丁目","koaza":"","lat":42.909127,"lng":140.775009,"zip":"0440007"},{"town":"北七条東十一丁目","koaza":"","lat":42.909013,"lng":140.777246,"zip":"0440007"},{"town":"北七条東一丁目","koaza":"","lat":42.91008,"lng":140.754625,"zip":"0440007"},{"town":"北七条東二丁目","koaza":"","lat":42.910009,"lng":140.756871,"zip":"0440007"},{"town":"北七条東三丁目","koaza":"","lat":42.909905,"lng":140.759174,"zip":"0440007"},{"town":"北七条東四丁目","koaza":"","lat":42.909794,"lng":140.761484,"zip":"0440007"},{"town":"北七条東五丁目","koaza":"","lat":42.909682,"lng":140.763676,"zip":"0440007"},{"town":"北七条東六丁目","koaza":"","lat":42.909568,"lng":140.765944,"zip":"0440007"},{"town":"北七条東七丁目","koaza":"","lat":42.90946,"lng":140.768255,"zip":"0440007"},{"town":"北七条東八丁目","koaza":"","lat":42.909356,"lng":140.770464,"zip":"0440007"},{"town":"北七条東九丁目","koaza":"","lat":42.909242,"lng":140.772751,"zip":"0440007"},{"town":"南十条西一丁目","koaza":"","lat":42.891023,"lng":140.750218,"zip":"0440044"},{"town":"南十条東一丁目","koaza":"","lat":42.890907,"lng":140.752859,"zip":"0440024"},{"town":"南十条東二丁目","koaza":"","lat":42.890525,"lng":140.753469,"zip":"0440024"},{"town":"南十一条西一丁目","koaza":"","lat":42.888614,"lng":140.750278,"zip":"0440045"},{"town":"南十一条東一丁目","koaza":"","lat":42.889168,"lng":140.753212,"zip":"0440025"},{"town":"南一条西一丁目","koaza":"","lat":42.900997,"lng":140.751475,"zip":"0440031"},{"town":"南一条西二丁目","koaza":"","lat":42.90114,"lng":140.748948,"zip":"0440031"},{"town":"南一条西三丁目","koaza":"","lat":42.901283,"lng":140.746737,"zip":"0440031"},{"town":"南一条東一丁目","koaza":"","lat":42.900809,"lng":140.75381,"zip":"0440011"},{"town":"南一条東二丁目","koaza":"","lat":42.900743,"lng":140.755984,"zip":"0440011"},{"town":"南一条東三丁目","koaza":"","lat":42.900503,"lng":140.758276,"zip":"0440011"},{"town":"南二条西一丁目","koaza":"","lat":42.900168,"lng":140.751396,"zip":"0440032"},{"town":"南二条西二丁目","koaza":"","lat":42.90031,"lng":140.748961,"zip":"0440032"},{"town":"南二条西三丁目","koaza":"","lat":42.900458,"lng":140.746843,"zip":"0440032"},{"town":"南二条東一丁目","koaza":"","lat":42.900109,"lng":140.753675,"zip":"0440012"},{"town":"南二条東二丁目","koaza":"","lat":42.899957,"lng":140.755978,"zip":"0440012"},{"town":"南三条西一丁目","koaza":"","lat":42.899265,"lng":140.751266,"zip":"0440033"},{"town":"南三条西二丁目","koaza":"","lat":42.899502,"lng":140.748805,"zip":"0440033"},{"town":"南三条西三丁目","koaza":"","lat":42.899588,"lng":140.746632,"zip":"0440033"},{"town":"南三条西四丁目","koaza":"","lat":42.900622,"lng":140.744671,"zip":"0440033"},{"town":"南三条東一丁目","koaza":"","lat":42.89916,"lng":140.753675,"zip":"0440013"},{"town":"南三条東二丁目","koaza":"","lat":42.899134,"lng":140.755916,"zip":"0440013"},{"town":"南三条東三丁目","koaza":"","lat":42.899267,"lng":140.758235,"zip":"0440013"},{"town":"南三条東四丁目","koaza":"","lat":42.899697,"lng":140.760532,"zip":"0440013"},{"town":"南三条東五丁目","koaza":"","lat":42.899539,"lng":140.76274,"zip":"0440013"},{"town":"南三条東六丁目","koaza":"","lat":42.899542,"lng":140.765028,"zip":"0440013"},{"town":"南三条東七丁目","koaza":"","lat":42.899441,"lng":140.768305,"zip":"0440013"},{"town":"南四条西一丁目","koaza":"","lat":42.898218,"lng":140.751247,"zip":"0440034"},{"town":"南四条西二丁目","koaza":"","lat":42.897786,"lng":140.748927,"zip":"0440034"},{"town":"南四条西三丁目","koaza":"","lat":42.89803,"lng":140.746523,"zip":"0440034"},{"town":"南四条西四丁目","koaza":"","lat":42.898161,"lng":140.744364,"zip":"0440034"},{"town":"南四条東一丁目","koaza":"","lat":42.898143,"lng":140.753517,"zip":"0440014"},{"town":"南四条東二丁目","koaza":"","lat":42.897507,"lng":140.755776,"zip":"0440014"},{"town":"南四条東三丁目","koaza":"","lat":42.897397,"lng":140.758093,"zip":"0440014"},{"town":"南四条東四丁目","koaza":"","lat":42.897292,"lng":140.760326,"zip":"0440014"},{"town":"南四条東五丁目","koaza":"","lat":42.897209,"lng":140.762521,"zip":"0440014"},{"town":"南四条東六丁目","koaza":"","lat":42.89662,"lng":140.764809,"zip":"0440014"},{"town":"南四条東七丁目","koaza":"","lat":42.897441,"lng":140.766731,"zip":"0440014"},{"town":"南五条西一丁目","koaza":"","lat":42.896942,"lng":140.751159,"zip":"0440035"},{"town":"南五条東一丁目","koaza":"","lat":42.896845,"lng":140.753403,"zip":"0440015"},{"town":"南六条西一丁目","koaza":"","lat":42.895742,"lng":140.751051,"zip":"0440036"},{"town":"南六条西二丁目","koaza":"","lat":42.895449,"lng":140.748744,"zip":"0440036"},{"town":"南六条西三丁目","koaza":"","lat":42.894893,"lng":140.746483,"zip":"0440036"},{"town":"南六条東一丁目","koaza":"","lat":42.895629,"lng":140.753287,"zip":"0440016"},{"town":"南六条東二丁目","koaza":"","lat":42.894938,"lng":140.755527,"zip":"0440016"},{"town":"南六条東三丁目","koaza":"","lat":42.894879,"lng":140.757877,"zip":"0440016"},{"town":"南六条東四丁目","koaza":"","lat":42.894447,"lng":140.760139,"zip":"0440016"},{"town":"南六条東五丁目","koaza":"","lat":42.894938,"lng":140.762369,"zip":"0440016"},{"town":"南七条西一丁目","koaza":"","lat":42.894498,"lng":140.750933,"zip":"0440041"},{"town":"南七条東一丁目","koaza":"","lat":42.894386,"lng":140.75317,"zip":"0440021"},{"town":"南八条西一丁目","koaza":"","lat":42.893476,"lng":140.750832,"zip":"0440042"},{"town":"南八条西二丁目","koaza":"","lat":42.893019,"lng":140.748581,"zip":"0440042"},{"town":"南八条東一丁目","koaza":"","lat":42.893218,"lng":140.753068,"zip":"0440022"},{"town":"南八条東二丁目","koaza":"","lat":42.891932,"lng":140.755036,"zip":"0440022"},{"town":"南八条東三丁目","koaza":"","lat":42.892291,"lng":140.757013,"zip":"0440022"},{"town":"南九条西一丁目","koaza":"","lat":42.892205,"lng":140.750724,"zip":"0440043"},{"town":"南九条西二丁目","koaza":"","lat":42.892258,"lng":140.748842,"zip":"0440043"},{"town":"南九条東一丁目","koaza":"","lat":42.892112,"lng":140.752963,"zip":"0440023"}]