[{"town":"愛冠","koaza":"","lat":43.293784,"lng":143.571268,"zip":"0893708"},{"town":"字足寄太","koaza":"","lat":43.269898,"lng":143.616552,"zip":"0893700"},{"town":"旭町一丁目","koaza":"","lat":43.241095,"lng":143.557494,"zip":"0893721"},{"town":"旭町二丁目","koaza":"","lat":43.242211,"lng":143.559618,"zip":"0893721"},{"town":"旭町三丁目","koaza":"","lat":43.249787,"lng":143.559734,"zip":"0893721"},{"town":"旭町四丁目","koaza":"","lat":43.248677,"lng":143.563886,"zip":"0893721"},{"town":"旭町五丁目","koaza":"","lat":43.245829,"lng":143.566565,"zip":"0893721"},{"town":"字ビリベツ","koaza":"","lat":43.343657,"lng":143.765379,"zip":"0893700"},{"town":"稲牛","koaza":"","lat":43.241902,"lng":143.731071,"zip":"0893724"},{"town":"大誉地","koaza":"","lat":43.411583,"lng":143.66931,"zip":"0894144"},{"town":"大誉地本町","koaza":"","lat":43.390606,"lng":143.676085,"zip":"0894252"},{"town":"上足寄","koaza":"","lat":43.418536,"lng":143.877484,"zip":"0893961"},{"town":"上足寄本町","koaza":"","lat":43.356799,"lng":143.786803,"zip":"0893962"},{"town":"上利別","koaza":"","lat":43.385616,"lng":143.627292,"zip":"0894142"},{"town":"上利別本町","koaza":"","lat":43.349407,"lng":143.602435,"zip":"0894141"},{"town":"上螺湾","koaza":"","lat":43.309006,"lng":143.800672,"zip":"0893963"},{"town":"北一条一丁目","koaza":"","lat":43.24443,"lng":143.546888,"zip":"0893701"},{"town":"北一条二丁目","koaza":"","lat":43.244758,"lng":143.548151,"zip":"0893701"},{"town":"北一条三丁目","koaza":"","lat":43.244664,"lng":143.549445,"zip":"0893701"},{"town":"北一条四丁目","koaza":"","lat":43.244314,"lng":143.553175,"zip":"0893701"},{"town":"北二条一丁目","koaza":"","lat":43.246096,"lng":143.547187,"zip":"0893702"},{"town":"北二条二丁目","koaza":"","lat":43.245755,"lng":143.548351,"zip":"0893702"},{"town":"北二条三丁目","koaza":"","lat":43.245698,"lng":143.54953,"zip":"0893702"},{"town":"北二条四丁目","koaza":"","lat":43.245713,"lng":143.551654,"zip":"0893702"},{"town":"北三条一丁目","koaza":"","lat":43.247345,"lng":143.548751,"zip":"0893703"},{"town":"北三条二丁目","koaza":"","lat":43.246983,"lng":143.552961,"zip":"0893703"},{"town":"北四条一丁目","koaza":"","lat":43.249413,"lng":143.548525,"zip":"0893704"},{"town":"北四条二丁目","koaza":"","lat":43.249149,"lng":143.551938,"zip":"0893704"},{"town":"北五条一丁目","koaza":"","lat":43.250934,"lng":143.549468,"zip":"0893705"},{"town":"北六条一丁目","koaza":"","lat":43.253314,"lng":143.548877,"zip":"0893706"},{"town":"喜登牛","koaza":"","lat":43.440215,"lng":143.421934,"zip":"0893874"},{"town":"共栄町","koaza":"","lat":43.223493,"lng":143.580001,"zip":"0893726"},{"town":"郊南一丁目","koaza":"","lat":43.222809,"lng":143.554348,"zip":"0893727"},{"town":"郊南二丁目","koaza":"","lat":43.205062,"lng":143.57339,"zip":"0893727"},{"town":"栄町一丁目","koaza":"","lat":43.233711,"lng":143.55036,"zip":"0893718"},{"town":"栄町二丁目","koaza":"","lat":43.234145,"lng":143.554603,"zip":"0893718"},{"town":"里見が丘","koaza":"","lat":43.245747,"lng":143.519175,"zip":"0893732"},{"town":"下愛冠一丁目","koaza":"","lat":43.267969,"lng":143.540604,"zip":"0893707"},{"town":"下愛冠二丁目","koaza":"","lat":43.258302,"lng":143.54679,"zip":"0893707"},{"town":"下愛冠三丁目","koaza":"","lat":43.260711,"lng":143.545055,"zip":"0893707"},{"town":"下愛冠四丁目","koaza":"","lat":43.264204,"lng":143.558577,"zip":"0893707"},{"town":"白糸","koaza":"","lat":43.381538,"lng":143.522953,"zip":"0894143"},{"town":"新町","koaza":"","lat":43.264629,"lng":143.585638,"zip":"0893722"},{"town":"常盤","koaza":"","lat":43.246731,"lng":143.534005,"zip":"0893734"},{"town":"中足寄","koaza":"","lat":43.288045,"lng":143.6215,"zip":"0893723"},{"town":"中矢","koaza":"","lat":43.255833,"lng":143.484734,"zip":"0893731"},{"town":"西町一丁目","koaza":"","lat":43.234203,"lng":143.544897,"zip":"0893733"},{"town":"西町二丁目","koaza":"","lat":43.238409,"lng":143.544945,"zip":"0893733"},{"town":"西町三丁目","koaza":"","lat":43.241503,"lng":143.54459,"zip":"0893733"},{"town":"西町四丁目","koaza":"","lat":43.243143,"lng":143.543059,"zip":"0893733"},{"town":"西町五丁目","koaza":"","lat":43.24457,"lng":143.543179,"zip":"0893733"},{"town":"西町六丁目","koaza":"","lat":43.246213,"lng":143.543479,"zip":"0893733"},{"town":"西町七丁目","koaza":"","lat":43.248642,"lng":143.543717,"zip":"0893733"},{"town":"西町八丁目","koaza":"","lat":43.251086,"lng":143.543948,"zip":"0893733"},{"town":"西町九丁目","koaza":"","lat":43.253826,"lng":143.544227,"zip":"0893733"},{"town":"美盛","koaza":"","lat":43.260028,"lng":143.534292,"zip":"0893735"},{"town":"平和","koaza":"","lat":43.246578,"lng":143.61479,"zip":"0893725"},{"town":"南一条一丁目","koaza":"","lat":43.243649,"lng":143.547271,"zip":"0893711"},{"town":"南一条二丁目","koaza":"","lat":43.243619,"lng":143.548169,"zip":"0893711"},{"town":"南一条三丁目","koaza":"","lat":43.243565,"lng":143.549342,"zip":"0893711"},{"town":"南一条四丁目","koaza":"","lat":43.243466,"lng":143.551245,"zip":"0893711"},{"town":"南一条五丁目","koaza":"","lat":43.243325,"lng":143.554312,"zip":"0893711"},{"town":"南二条一丁目","koaza":"","lat":43.242739,"lng":143.546745,"zip":"0893712"},{"town":"南二条二丁目","koaza":"","lat":43.242417,"lng":143.548058,"zip":"0893712"},{"town":"南二条三丁目","koaza":"","lat":43.242377,"lng":143.549219,"zip":"0893712"},{"town":"南二条四丁目","koaza":"","lat":43.242275,"lng":143.551128,"zip":"0893712"},{"town":"南二条五丁目","koaza":"","lat":43.242125,"lng":143.554249,"zip":"0893712"},{"town":"南三条一丁目","koaza":"","lat":43.241371,"lng":143.546823,"zip":"0893713"},{"town":"南三条二丁目","koaza":"","lat":43.24131,"lng":143.547933,"zip":"0893713"},{"town":"南三条三丁目","koaza":"","lat":43.241259,"lng":143.549007,"zip":"0893713"},{"town":"南三条四丁目","koaza":"","lat":43.241154,"lng":143.551044,"zip":"0893713"},{"town":"南三条五丁目","koaza":"","lat":43.241206,"lng":143.553822,"zip":"0893713"},{"town":"南四条一丁目","koaza":"","lat":43.240284,"lng":143.546728,"zip":"0893714"},{"town":"南四条二丁目","koaza":"","lat":43.240235,"lng":143.547845,"zip":"0893714"},{"town":"南四条三丁目","koaza":"","lat":43.240182,"lng":143.548922,"zip":"0893714"},{"town":"南四条四丁目","koaza":"","lat":43.23996,"lng":143.551219,"zip":"0893714"},{"town":"南四条五丁目","koaza":"","lat":43.239954,"lng":143.553373,"zip":"0893714"},{"town":"南四条六丁目","koaza":"","lat":43.240359,"lng":143.555134,"zip":"0893714"},{"town":"南五条一丁目","koaza":"","lat":43.239179,"lng":143.546638,"zip":"0893715"},{"town":"南五条二丁目","koaza":"","lat":43.239123,"lng":143.547762,"zip":"0893715"},{"town":"南五条三丁目","koaza":"","lat":43.239066,"lng":143.548697,"zip":"0893715"},{"town":"南五条四丁目","koaza":"","lat":43.238969,"lng":143.550881,"zip":"0893715"},{"town":"南五条五丁目","koaza":"","lat":43.238855,"lng":143.553291,"zip":"0893715"},{"town":"南五条六丁目","koaza":"","lat":43.238889,"lng":143.55556,"zip":"0893715"},{"town":"南六条一丁目","koaza":"","lat":43.237786,"lng":143.546528,"zip":"0893716"},{"town":"南六条二丁目","koaza":"","lat":43.237729,"lng":143.547672,"zip":"0893716"},{"town":"南六条三丁目","koaza":"","lat":43.237672,"lng":143.548916,"zip":"0893716"},{"town":"南六条四丁目","koaza":"","lat":43.237571,"lng":143.550955,"zip":"0893716"},{"town":"南六条五丁目","koaza":"","lat":43.237463,"lng":143.553188,"zip":"0893716"},{"town":"南六条六丁目","koaza":"","lat":43.237757,"lng":143.555668,"zip":"0893716"},{"town":"南六条七丁目","koaza":"","lat":43.237897,"lng":143.559192,"zip":"0893716"},{"town":"南七条一丁目","koaza":"","lat":43.234507,"lng":143.546217,"zip":"0893717"},{"town":"南七条二丁目","koaza":"","lat":43.23458,"lng":143.547392,"zip":"0893717"},{"town":"南七条三丁目","koaza":"","lat":43.233859,"lng":143.548293,"zip":"0893717"},{"town":"南七条四丁目","koaza":"","lat":43.23587,"lng":143.550167,"zip":"0893717"},{"town":"芽登","koaza":"","lat":43.402605,"lng":143.299201,"zip":"0893872"},{"town":"芽登本町","koaza":"","lat":43.27635,"lng":143.425116,"zip":"0893871"},{"town":"茂足寄","koaza":"","lat":43.417095,"lng":143.965398,"zip":"0893964"},{"town":"茂喜登牛","koaza":"","lat":43.339803,"lng":143.474918,"zip":"0893737"},{"town":"螺湾","koaza":"","lat":43.32186,"lng":143.683721,"zip":"0893965"},{"town":"螺湾本町","koaza":"","lat":43.31078,"lng":143.706486,"zip":"0893966"},{"town":"鷲府","koaza":"","lat":43.303596,"lng":143.525128,"zip":"0893736"}]