[{"town":"泉川","koaza":"","lat":43.393788,"lng":144.707204,"zip":"0882578"},{"town":"奥行","koaza":"","lat":43.302381,"lng":145.205137,"zip":"0860213"},{"town":"尾岱沼","koaza":"","lat":43.574712,"lng":145.18826,"zip":"0861641"},{"town":"尾岱沼潮見町","koaza":"","lat":43.566314,"lng":145.217685,"zip":"0861644"},{"town":"尾岱沼岬町","koaza":"","lat":43.583537,"lng":145.214303,"zip":"0861642"},{"town":"尾岱沼港町","koaza":"","lat":43.567674,"lng":145.221632,"zip":"0861643"},{"town":"上春別","koaza":"","lat":43.433,"lng":144.933559,"zip":"0882725"},{"town":"上春別旭町","koaza":"","lat":43.43186,"lng":144.901882,"zip":"0882722"},{"town":"上春別栄町","koaza":"","lat":43.430825,"lng":144.895331,"zip":"0882724"},{"town":"上春別緑町","koaza":"","lat":43.433368,"lng":144.898414,"zip":"0882721"},{"town":"上春別南町","koaza":"","lat":43.429196,"lng":144.896033,"zip":"0882723"},{"town":"上風連","koaza":"","lat":43.278353,"lng":145.10175,"zip":"0860131"},{"town":"大成","koaza":"","lat":43.450266,"lng":144.815911,"zip":"0882601"},{"town":"床丹","koaza":"","lat":43.480555,"lng":145.22589,"zip":"0860655"},{"town":"豊原","koaza":"","lat":43.432497,"lng":145.015186,"zip":"0860657"},{"town":"中春別","koaza":"","lat":43.520634,"lng":145.09913,"zip":"0860654"},{"town":"中春別西町","koaza":"","lat":43.47653,"lng":145.055734,"zip":"0860653"},{"town":"中春別東町","koaza":"","lat":43.478121,"lng":145.059323,"zip":"0860651"},{"town":"中春別南町","koaza":"","lat":43.473681,"lng":145.059955,"zip":"0860652"},{"town":"中西別","koaza":"","lat":43.353486,"lng":144.961094,"zip":"0860345"},{"town":"中西別朝日町","koaza":"","lat":43.365256,"lng":144.992692,"zip":"0860342"},{"town":"中西別光町","koaza":"","lat":43.363872,"lng":144.98789,"zip":"0860343"},{"town":"中西別本町","koaza":"","lat":43.366746,"lng":144.987072,"zip":"0860344"},{"town":"中西別緑町","koaza":"","lat":43.368446,"lng":144.992671,"zip":"0860341"},{"town":"西春別","koaza":"","lat":43.385871,"lng":144.837529,"zip":"0882576"},{"town":"西春別駅前曙町","koaza":"","lat":43.418995,"lng":144.76834,"zip":"0882566"},{"town":"西春別駅前柏町","koaza":"","lat":43.415192,"lng":144.772496,"zip":"0882561"},{"town":"西春別駅前寿町","koaza":"","lat":43.416048,"lng":144.765265,"zip":"0882565"},{"town":"西春別駅前栄町","koaza":"","lat":43.412639,"lng":144.769343,"zip":"0882562"},{"town":"西春別駅前錦町","koaza":"","lat":43.411788,"lng":144.76359,"zip":"0882563"},{"town":"西春別駅前西町","koaza":"","lat":43.41416,"lng":144.75895,"zip":"0882564"},{"town":"西春別清川町","koaza":"","lat":43.388618,"lng":144.813577,"zip":"0882572"},{"town":"西春別幸町","koaza":"","lat":43.391905,"lng":144.812126,"zip":"0882571"},{"town":"西春別昭栄町","koaza":"","lat":43.392847,"lng":144.804081,"zip":"0882574"},{"town":"西春別本久町","koaza":"","lat":43.387722,"lng":144.801894,"zip":"0882573"},{"town":"西春別宮園町","koaza":"","lat":43.39486,"lng":144.807743,"zip":"0882575"},{"town":"野付","koaza":"","lat":43.582286,"lng":145.323703,"zip":"0861645"},{"town":"走古丹","koaza":"","lat":43.334247,"lng":145.324927,"zip":"0860523"},{"town":"別海","koaza":"","lat":43.374465,"lng":145.179493,"zip":"0860216"},{"town":"別海旭町","koaza":"","lat":43.393824,"lng":145.130234,"zip":"0860202"},{"town":"別海川上町","koaza":"","lat":43.385564,"lng":145.11837,"zip":"0860215"},{"town":"別海寿町","koaza":"","lat":43.388277,"lng":145.132439,"zip":"0860211"},{"town":"別海新栄町","koaza":"","lat":43.393094,"lng":145.113375,"zip":"0860204"},{"town":"別海鶴舞町","koaza":"","lat":43.37989,"lng":145.135153,"zip":"0860212"},{"town":"別海常盤町","koaza":"","lat":43.395372,"lng":145.119565,"zip":"0860205"},{"town":"別海西本町","koaza":"","lat":43.391809,"lng":145.122675,"zip":"0860203"},{"town":"別海緑町","koaza":"","lat":43.385795,"lng":145.126134,"zip":"0860214"},{"town":"別海宮舞町","koaza":"","lat":43.398527,"lng":145.127052,"zip":"0860201"},{"town":"本別","koaza":"","lat":43.455585,"lng":144.74441,"zip":"0882602"},{"town":"本別海","koaza":"","lat":43.391147,"lng":145.273017,"zip":"0860522"},{"town":"美原","koaza":"","lat":43.485329,"lng":145.142639,"zip":"0860656"},{"town":"矢臼別","koaza":"","lat":43.279567,"lng":144.941165,"zip":"0882577"}]