[{"town":"曙一丁目","koaza":"","lat":43.012964,"lng":144.408303,"zip":"0880616"},{"town":"曙二丁目","koaza":"","lat":43.013642,"lng":144.409313,"zip":"0880616"},{"town":"曙三丁目","koaza":"","lat":43.014536,"lng":144.410691,"zip":"0880616"},{"town":"曙四丁目","koaza":"","lat":43.01537,"lng":144.412059,"zip":"0880616"},{"town":"字イワボッケ","koaza":"","lat":43.062904,"lng":144.4483,"zip":"0880600"},{"town":"字オビラシケ","koaza":"","lat":43.009761,"lng":144.480026,"zip":"0880600"},{"town":"字上別保原野","koaza":"","lat":43.013915,"lng":144.523284,"zip":"0880600"},{"town":"字達古武","koaza":"","lat":43.089722,"lng":144.500572,"zip":"0880600"},{"town":"字遠野","koaza":"","lat":43.054166,"lng":144.494837,"zip":"0880600"},{"town":"字遠野原野","koaza":"","lat":43.043039,"lng":144.507548,"zip":"0880600"},{"town":"字遠野原野基線","koaza":"","lat":43.030604,"lng":144.488597,"zip":"0880600"},{"town":"字遠野原野西一線","koaza":"","lat":43.032061,"lng":144.48337,"zip":"0880600"},{"town":"字遠野原野西二線","koaza":"","lat":43.032215,"lng":144.47958,"zip":"0880600"},{"town":"字遠野原野東一線","koaza":"","lat":43.031994,"lng":144.493894,"zip":"0880600"},{"town":"字床丹","koaza":"","lat":43.024146,"lng":144.466944,"zip":"0880600"},{"town":"字トリトウシ","koaza":"","lat":43.07314,"lng":144.442481,"zip":"0880600"},{"town":"字トリトウシ原野","koaza":"","lat":43.06824,"lng":144.443991,"zip":"0880600"},{"town":"字トリトウシ原野南十二線","koaza":"","lat":43.055465,"lng":144.468003,"zip":"0880600"},{"town":"字鳥通原野","koaza":"","lat":43.0723,"lng":144.417755,"zip":"0880600"},{"town":"字別保","koaza":"","lat":42.989442,"lng":144.504419,"zip":"0880600"},{"town":"字別保原野","koaza":"","lat":43.024714,"lng":144.433879,"zip":"0880600"},{"town":"字別保原野南十八線","koaza":"","lat":43.029233,"lng":144.449458,"zip":"0880600"},{"town":"字別保原野南十九線","koaza":"","lat":43.024597,"lng":144.44999,"zip":"0880600"},{"town":"字別保原野南二十線","koaza":"","lat":43.019963,"lng":144.448195,"zip":"0880600"},{"town":"字別保原野南二十一線","koaza":"","lat":43.01781,"lng":144.433507,"zip":"0880600"},{"town":"字別保原野南二十二線","koaza":"","lat":43.013146,"lng":144.428362,"zip":"0880600"},{"town":"字別保原野南二十三線","koaza":"","lat":43.001729,"lng":144.445022,"zip":"0880600"},{"town":"字別保原野南二十四線","koaza":"","lat":42.998246,"lng":144.442527,"zip":"0880600"},{"town":"字別保原野南二十四線東","koaza":"","lat":43.002466,"lng":144.428699,"zip":"0880600"},{"town":"字別保原野南二十五線","koaza":"","lat":42.994485,"lng":144.444516,"zip":"0880600"},{"town":"字別保原野南二十六線","koaza":"","lat":42.988789,"lng":144.447193,"zip":"0880600"},{"town":"字別保原野南二十七線","koaza":"","lat":42.985017,"lng":144.448523,"zip":"0880600"},{"town":"字モセウシナイ","koaza":"","lat":42.960385,"lng":144.4834,"zip":"0880600"},{"town":"大字跡永賀村","koaza":"","lat":42.963533,"lng":144.601728,"zip":"0880600"},{"town":"大字昆布森村","koaza":"","lat":42.984997,"lng":144.552866,"zip":"0880600"},{"town":"大字仙鳳趾村","koaza":"","lat":42.966902,"lng":144.713291,"zip":"0880600"},{"town":"柏西一丁目","koaza":"","lat":43.039731,"lng":144.467635,"zip":"0882155"},{"town":"柏西二丁目","koaza":"","lat":43.03896,"lng":144.466964,"zip":"0882155"},{"town":"柏西三丁目","koaza":"","lat":43.03736,"lng":144.46563,"zip":"0882155"},{"town":"柏西四丁目","koaza":"","lat":43.035728,"lng":144.465037,"zip":"0882155"},{"town":"柏西五丁目","koaza":"","lat":43.035231,"lng":144.467194,"zip":"0882155"},{"town":"柏西六丁目","koaza":"","lat":43.036851,"lng":144.467872,"zip":"0882155"},{"town":"柏西七丁目","koaza":"","lat":43.038167,"lng":144.468036,"zip":"0882155"},{"town":"柏東一丁目","koaza":"","lat":43.036775,"lng":144.471868,"zip":"0882154"},{"town":"柏東二丁目","koaza":"","lat":43.036367,"lng":144.469965,"zip":"0882154"},{"town":"柏東三丁目","koaza":"","lat":43.034641,"lng":144.469047,"zip":"0882154"},{"town":"柏東四丁目","koaza":"","lat":43.034289,"lng":144.470415,"zip":"0882154"},{"town":"柏東五丁目","koaza":"","lat":43.033844,"lng":144.471751,"zip":"0882154"},{"town":"柏東六丁目","koaza":"","lat":43.033979,"lng":144.473665,"zip":"0882154"},{"town":"柏東七丁目","koaza":"","lat":43.036306,"lng":144.473863,"zip":"0882154"},{"town":"桂一丁目","koaza":"","lat":43.004068,"lng":144.399481,"zip":"0880626"},{"town":"桂二丁目","koaza":"","lat":43.006479,"lng":144.399231,"zip":"0880626"},{"town":"桂三丁目","koaza":"","lat":43.007438,"lng":144.399871,"zip":"0880626"},{"town":"桂四丁目","koaza":"","lat":43.008127,"lng":144.400841,"zip":"0880626"},{"town":"桂五丁目","koaza":"","lat":43.008767,"lng":144.401845,"zip":"0880626"},{"town":"桂木一丁目","koaza":"","lat":43.009038,"lng":144.404962,"zip":"0880621"},{"town":"桂木二丁目","koaza":"","lat":43.01017,"lng":144.403535,"zip":"0880621"},{"town":"桂木三丁目","koaza":"","lat":43.011156,"lng":144.402343,"zip":"0880621"},{"town":"桂木四丁目","koaza":"","lat":43.010935,"lng":144.407568,"zip":"0880621"},{"town":"桂木五丁目","koaza":"","lat":43.01181,"lng":144.405962,"zip":"0880621"},{"town":"桂木六丁目","koaza":"","lat":43.012915,"lng":144.405068,"zip":"0880621"},{"town":"河畔十丁目","koaza":"","lat":43.038774,"lng":144.45264,"zip":"0882143"},{"town":"河畔一丁目","koaza":"","lat":43.03305,"lng":144.451054,"zip":"0882143"},{"town":"河畔二丁目","koaza":"","lat":43.034041,"lng":144.452472,"zip":"0882143"},{"town":"河畔三丁目","koaza":"","lat":43.03557,"lng":144.454966,"zip":"0882143"},{"town":"河畔四丁目","koaza":"","lat":43.03511,"lng":144.45228,"zip":"0882143"},{"town":"河畔五丁目","koaza":"","lat":43.036088,"lng":144.453213,"zip":"0882143"},{"town":"河畔六丁目","koaza":"","lat":43.036879,"lng":144.453569,"zip":"0882143"},{"town":"河畔七丁目","koaza":"","lat":43.037782,"lng":144.455941,"zip":"0882143"},{"town":"河畔八丁目","koaza":"","lat":43.037924,"lng":144.45478,"zip":"0882143"},{"town":"河畔九丁目","koaza":"","lat":43.038392,"lng":144.453704,"zip":"0882143"},{"town":"雁来","koaza":"","lat":43.015306,"lng":144.419843,"zip":"0880612"},{"town":"北見団地一丁目","koaza":"","lat":42.998431,"lng":144.4047,"zip":"0880625"},{"town":"北見団地二丁目","koaza":"","lat":42.999054,"lng":144.406404,"zip":"0880625"},{"town":"北見団地三丁目","koaza":"","lat":43.000354,"lng":144.406458,"zip":"0880625"},{"town":"北見団地四丁目","koaza":"","lat":43.001301,"lng":144.408207,"zip":"0880625"},{"town":"北見団地五丁目","koaza":"","lat":43.00222,"lng":144.40906,"zip":"0880625"},{"town":"北見団地六丁目","koaza":"","lat":42.999883,"lng":144.408516,"zip":"0880625"},{"town":"北見団地七丁目","koaza":"","lat":43.000524,"lng":144.410133,"zip":"0880625"},{"town":"木場一丁目","koaza":"","lat":43.007083,"lng":144.407069,"zip":"0880622"},{"town":"木場二丁目","koaza":"","lat":43.008909,"lng":144.409724,"zip":"0880622"},{"town":"木場三丁目","koaza":"","lat":43.003994,"lng":144.412757,"zip":"0880622"},{"town":"光和一丁目","koaza":"","lat":43.00249,"lng":144.40013,"zip":"0880623"},{"town":"光和二丁目","koaza":"","lat":43.003613,"lng":144.40109,"zip":"0880623"},{"town":"光和三丁目","koaza":"","lat":43.005081,"lng":144.402399,"zip":"0880623"},{"town":"光和四丁目","koaza":"","lat":43.006165,"lng":144.403772,"zip":"0880623"},{"town":"光和五丁目","koaza":"","lat":43.001723,"lng":144.401508,"zip":"0880623"},{"town":"光和六丁目","koaza":"","lat":43.002929,"lng":144.402706,"zip":"0880623"},{"town":"光和七丁目","koaza":"","lat":43.004098,"lng":144.403849,"zip":"0880623"},{"town":"光和八丁目","koaza":"","lat":43.004897,"lng":144.405334,"zip":"0880623"},{"town":"国誉一丁目","koaza":"","lat":43.008888,"lng":144.414115,"zip":"0880614"},{"town":"国誉二丁目","koaza":"","lat":43.007877,"lng":144.415165,"zip":"0880614"},{"town":"国誉三丁目","koaza":"","lat":43.009425,"lng":144.417214,"zip":"0880614"},{"town":"国誉四丁目","koaza":"","lat":43.007504,"lng":144.4165,"zip":"0880614"},{"town":"国誉五丁目","koaza":"","lat":43.006731,"lng":144.416928,"zip":"0880614"},{"town":"国誉六丁目","koaza":"","lat":43.009442,"lng":144.418315,"zip":"0880614"},{"town":"昆布森一丁目","koaza":"","lat":42.954882,"lng":144.52915,"zip":"0852272"},{"town":"昆布森二丁目","koaza":"","lat":42.952223,"lng":144.528095,"zip":"0852272"},{"town":"昆布森三丁目","koaza":"","lat":42.953842,"lng":144.535027,"zip":"0852272"},{"town":"昆布森四丁目","koaza":"","lat":42.961142,"lng":144.531089,"zip":"0852272"},{"town":"新開一丁目","koaza":"","lat":43.000041,"lng":144.403428,"zip":"0880624"},{"town":"新開二丁目","koaza":"","lat":43.001427,"lng":144.403406,"zip":"0880624"},{"town":"新開三丁目","koaza":"","lat":43.002322,"lng":144.404711,"zip":"0880624"},{"town":"新開四丁目","koaza":"","lat":43.0038,"lng":144.406388,"zip":"0880624"},{"town":"新開五丁目","koaza":"","lat":43.001058,"lng":144.404913,"zip":"0880624"},{"town":"新開六丁目","koaza":"","lat":43.001976,"lng":144.406653,"zip":"0880624"},{"town":"新開七丁目","koaza":"","lat":43.002934,"lng":144.408004,"zip":"0880624"},{"town":"雪裡","koaza":"","lat":43.020243,"lng":144.420186,"zip":"0880600"},{"town":"釧望台一丁目","koaza":"","lat":43.02154,"lng":144.442225,"zip":"0880608"},{"town":"釧望台二丁目","koaza":"","lat":43.019985,"lng":144.441081,"zip":"0880608"},{"town":"中央十丁目","koaza":"","lat":43.007075,"lng":144.437583,"zip":"0880606"},{"town":"中央一丁目","koaza":"","lat":43.0013,"lng":144.418939,"zip":"0880606"},{"town":"中央二丁目","koaza":"","lat":43.002561,"lng":144.422155,"zip":"0880606"},{"town":"中央三丁目","koaza":"","lat":43.006561,"lng":144.421998,"zip":"0880606"},{"town":"中央四丁目","koaza":"","lat":43.007242,"lng":144.427779,"zip":"0880606"},{"town":"中央五丁目","koaza":"","lat":43.01185,"lng":144.430415,"zip":"0880606"},{"town":"中央六丁目","koaza":"","lat":43.011438,"lng":144.431694,"zip":"0880606"},{"town":"中央七丁目","koaza":"","lat":43.009136,"lng":144.432835,"zip":"0880606"},{"town":"中央八丁目","koaza":"","lat":43.011381,"lng":144.434389,"zip":"0880606"},{"town":"中央九丁目","koaza":"","lat":43.014695,"lng":144.442918,"zip":"0880606"},{"town":"東陽大通西一丁目","koaza":"","lat":42.997735,"lng":144.432047,"zip":"0880628"},{"town":"東陽大通西二丁目","koaza":"","lat":42.998941,"lng":144.427019,"zip":"0880628"},{"town":"東陽西一丁目","koaza":"","lat":42.999052,"lng":144.434271,"zip":"0880627"},{"town":"東陽西二丁目","koaza":"","lat":43.000277,"lng":144.428528,"zip":"0880627"},{"town":"遠矢十丁目","koaza":"","lat":43.048493,"lng":144.453882,"zip":"0882145"},{"town":"遠矢一丁目","koaza":"","lat":43.046263,"lng":144.459735,"zip":"0882145"},{"town":"遠矢二丁目","koaza":"","lat":43.047448,"lng":144.458472,"zip":"0882145"},{"town":"遠矢三丁目","koaza":"","lat":43.045394,"lng":144.457026,"zip":"0882145"},{"town":"遠矢四丁目","koaza":"","lat":43.047844,"lng":144.457608,"zip":"0882145"},{"town":"遠矢五丁目","koaza":"","lat":43.045172,"lng":144.455368,"zip":"0882145"},{"town":"遠矢六丁目","koaza":"","lat":43.04643,"lng":144.455845,"zip":"0882145"},{"town":"遠矢七丁目","koaza":"","lat":43.047577,"lng":144.456172,"zip":"0882145"},{"town":"遠矢八丁目","koaza":"","lat":43.048645,"lng":144.456649,"zip":"0882145"},{"town":"遠矢九丁目","koaza":"","lat":43.04789,"lng":144.454722,"zip":"0882145"},{"town":"遠矢南一丁目","koaza":"","lat":43.036726,"lng":144.456762,"zip":"0882156"},{"town":"遠矢南二丁目","koaza":"","lat":43.037416,"lng":144.457692,"zip":"0882156"},{"town":"遠矢南三丁目","koaza":"","lat":43.037642,"lng":144.458965,"zip":"0882156"},{"town":"遠矢南四丁目","koaza":"","lat":43.036506,"lng":144.458596,"zip":"0882156"},{"town":"遠矢南五丁目","koaza":"","lat":43.03552,"lng":144.45794,"zip":"0882156"},{"town":"遠矢南六丁目","koaza":"","lat":43.036727,"lng":144.460784,"zip":"0882156"},{"town":"遠矢南七丁目","koaza":"","lat":43.036239,"lng":144.462933,"zip":"0882156"},{"town":"富原","koaza":"","lat":43.013488,"lng":144.416952,"zip":"0880618"},{"town":"豊美一丁目","koaza":"","lat":43.017986,"lng":144.418262,"zip":"0880611"},{"town":"豊美二丁目","koaza":"","lat":43.019888,"lng":144.416726,"zip":"0880611"},{"town":"鳥里一丁目","koaza":"","lat":43.039485,"lng":144.456706,"zip":"0882144"},{"town":"鳥里二丁目","koaza":"","lat":43.039898,"lng":144.455571,"zip":"0882144"},{"town":"鳥里三丁目","koaza":"","lat":43.040199,"lng":144.454535,"zip":"0882144"},{"town":"鳥里四丁目","koaza":"","lat":43.04057,"lng":144.453534,"zip":"0882144"},{"town":"鳥里五丁目","koaza":"","lat":43.041099,"lng":144.455856,"zip":"0882144"},{"town":"鳥里六丁目","koaza":"","lat":43.042849,"lng":144.455856,"zip":"0882144"},{"town":"鳥里七丁目","koaza":"","lat":43.043265,"lng":144.454567,"zip":"0882144"},{"town":"鳥通西十丁目","koaza":"","lat":43.057368,"lng":144.464699,"zip":"0882146"},{"town":"鳥通西一丁目","koaza":"","lat":43.05247,"lng":144.457512,"zip":"0882146"},{"town":"鳥通西二丁目","koaza":"","lat":43.051217,"lng":144.459974,"zip":"0882146"},{"town":"鳥通西三丁目","koaza":"","lat":43.052535,"lng":144.459615,"zip":"0882146"},{"town":"鳥通西四丁目","koaza":"","lat":43.053263,"lng":144.46093,"zip":"0882146"},{"town":"鳥通西五丁目","koaza":"","lat":43.054204,"lng":144.458204,"zip":"0882146"},{"town":"鳥通西六丁目","koaza":"","lat":43.054497,"lng":144.463308,"zip":"0882146"},{"town":"鳥通西七丁目","koaza":"","lat":43.053963,"lng":144.466554,"zip":"0882146"},{"town":"鳥通西八丁目","koaza":"","lat":43.0562,"lng":144.466615,"zip":"0882146"},{"town":"鳥通西九丁目","koaza":"","lat":43.057918,"lng":144.467211,"zip":"0882146"},{"town":"鳥通東一丁目","koaza":"","lat":43.059286,"lng":144.467813,"zip":"0882147"},{"town":"鳥通東二丁目","koaza":"","lat":43.060358,"lng":144.468957,"zip":"0882147"},{"town":"鳥通東三丁目","koaza":"","lat":43.060644,"lng":144.470247,"zip":"0882147"},{"town":"鳥通東四丁目","koaza":"","lat":43.060966,"lng":144.471419,"zip":"0882147"},{"town":"鳥通東五丁目","koaza":"","lat":43.061746,"lng":144.472007,"zip":"0882147"},{"town":"鳥通東六丁目","koaza":"","lat":43.062407,"lng":144.47282,"zip":"0882147"},{"town":"鳥通東七丁目","koaza":"","lat":43.063037,"lng":144.473606,"zip":"0882147"},{"town":"鳥通東八丁目","koaza":"","lat":43.057157,"lng":144.472657,"zip":"0882147"},{"town":"鳥通東九丁目","koaza":"","lat":43.060591,"lng":144.47347,"zip":"0882147"},{"town":"南陽台十丁目","koaza":"","lat":43.042231,"lng":144.467186,"zip":"0882152"},{"town":"南陽台一丁目","koaza":"","lat":43.042695,"lng":144.457264,"zip":"0882152"},{"town":"南陽台二丁目","koaza":"","lat":43.041402,"lng":144.459916,"zip":"0882152"},{"town":"南陽台三丁目","koaza":"","lat":43.042443,"lng":144.46184,"zip":"0882152"},{"town":"南陽台四丁目","koaza":"","lat":43.042589,"lng":144.462759,"zip":"0882152"},{"town":"南陽台五丁目","koaza":"","lat":43.04104,"lng":144.465044,"zip":"0882152"},{"town":"南陽台六丁目","koaza":"","lat":43.041902,"lng":144.464186,"zip":"0882152"},{"town":"南陽台七丁目","koaza":"","lat":43.042863,"lng":144.464508,"zip":"0882152"},{"town":"南陽台八丁目","koaza":"","lat":43.043538,"lng":144.464669,"zip":"0882152"},{"town":"南陽台九丁目","koaza":"","lat":43.044258,"lng":144.463419,"zip":"0882152"},{"town":"別保十丁目","koaza":"","lat":42.988503,"lng":144.476696,"zip":"0880604"},{"town":"別保一丁目","koaza":"","lat":42.996395,"lng":144.46738,"zip":"0880604"},{"town":"別保二丁目","koaza":"","lat":42.994569,"lng":144.466303,"zip":"0880604"},{"town":"別保三丁目","koaza":"","lat":42.994801,"lng":144.473064,"zip":"0880604"},{"town":"別保四丁目","koaza":"","lat":42.994459,"lng":144.470373,"zip":"0880604"},{"town":"別保五丁目","koaza":"","lat":42.992759,"lng":144.465669,"zip":"0880604"},{"town":"別保六丁目","koaza":"","lat":42.992656,"lng":144.471967,"zip":"0880604"},{"town":"別保七丁目","koaza":"","lat":42.993972,"lng":144.476889,"zip":"0880604"},{"town":"別保八丁目","koaza":"","lat":42.991841,"lng":144.479397,"zip":"0880604"},{"town":"別保九丁目","koaza":"","lat":42.98927,"lng":144.478192,"zip":"0880604"},{"town":"別保東一丁目","koaza":"","lat":42.996396,"lng":144.476499,"zip":"0880602"},{"town":"別保東二丁目","koaza":"","lat":42.999658,"lng":144.476944,"zip":"0880602"},{"town":"別保南一丁目","koaza":"","lat":42.984807,"lng":144.480609,"zip":"0880603"},{"town":"別保南二丁目","koaza":"","lat":42.983142,"lng":144.479855,"zip":"0880603"},{"town":"別保南三丁目","koaza":"","lat":42.979454,"lng":144.4803,"zip":"0880603"},{"town":"別保南四丁目","koaza":"","lat":42.976429,"lng":144.481011,"zip":"0880603"},{"town":"別保南五丁目","koaza":"","lat":42.97718,"lng":144.478105,"zip":"0880603"},{"town":"北都一丁目","koaza":"","lat":43.016052,"lng":144.415808,"zip":"0880617"},{"town":"北都二丁目","koaza":"","lat":43.017765,"lng":144.412834,"zip":"0880617"},{"town":"緑一丁目","koaza":"","lat":43.04158,"lng":144.470341,"zip":"0882153"},{"town":"緑二丁目","koaza":"","lat":43.042524,"lng":144.471565,"zip":"0882153"},{"town":"緑三丁目","koaza":"","lat":43.041791,"lng":144.473754,"zip":"0882153"},{"town":"緑四丁目","koaza":"","lat":43.040396,"lng":144.473089,"zip":"0882153"},{"town":"緑五丁目","koaza":"","lat":43.039638,"lng":144.469441,"zip":"0882153"},{"town":"緑六丁目","koaza":"","lat":43.040608,"lng":144.475651,"zip":"0882153"},{"town":"睦一丁目","koaza":"","lat":43.010144,"lng":144.41154,"zip":"0880615"},{"town":"睦二丁目","koaza":"","lat":43.010888,"lng":144.412693,"zip":"0880615"},{"town":"睦三丁目","koaza":"","lat":43.012482,"lng":144.414156,"zip":"0880615"},{"town":"睦四丁目","koaza":"","lat":43.010234,"lng":144.415344,"zip":"0880615"},{"town":"睦五丁目","koaza":"","lat":43.011499,"lng":144.416037,"zip":"0880615"},{"town":"睦六丁目","koaza":"","lat":43.01063,"lng":144.417053,"zip":"0880615"},{"town":"よし野十丁目","koaza":"","lat":43.039003,"lng":144.465316,"zip":"0882151"},{"town":"よし野一丁目","koaza":"","lat":43.039933,"lng":144.457559,"zip":"0882151"},{"town":"よし野二丁目","koaza":"","lat":43.040359,"lng":144.45954,"zip":"0882151"},{"town":"よし野三丁目","koaza":"","lat":43.038865,"lng":144.459142,"zip":"0882151"},{"town":"よし野四丁目","koaza":"","lat":43.040832,"lng":144.462408,"zip":"0882151"},{"town":"よし野五丁目","koaza":"","lat":43.040599,"lng":144.464235,"zip":"0882151"},{"town":"よし野六丁目","koaza":"","lat":43.040342,"lng":144.465917,"zip":"0882151"},{"town":"よし野七丁目","koaza":"","lat":43.03904,"lng":144.461235,"zip":"0882151"},{"town":"よし野八丁目","koaza":"","lat":43.038568,"lng":144.46285,"zip":"0882151"},{"town":"よし野九丁目","koaza":"","lat":43.039355,"lng":144.463896,"zip":"0882151"},{"town":"若葉一丁目","koaza":"","lat":43.006775,"lng":144.417886,"zip":"0880613"},{"town":"若葉二丁目","koaza":"","lat":43.006443,"lng":144.419151,"zip":"0880613"},{"town":"若葉三丁目","koaza":"","lat":43.009843,"lng":144.419532,"zip":"0880613"},{"town":"若葉四丁目","koaza":"","lat":43.00955,"lng":144.420758,"zip":"0880613"},{"town":"若葉五丁目","koaza":"","lat":43.009149,"lng":144.422374,"zip":"0880613"},{"town":"若葉六丁目","koaza":"","lat":43.011128,"lng":144.419916,"zip":"0880613"},{"town":"わらび一丁目","koaza":"","lat":43.030098,"lng":144.453423,"zip":"0882157"},{"town":"わらび二丁目","koaza":"","lat":43.031464,"lng":144.453547,"zip":"0882157"},{"town":"わらび三丁目","koaza":"","lat":43.030868,"lng":144.455485,"zip":"0882157"},{"town":"わらび四丁目","koaza":"","lat":43.032872,"lng":144.453636,"zip":"0882157"},{"town":"字トリトウシ原野","koaza":"南十八線","lat":43.030859,"lng":144.448614,"zip":"0880600"},{"town":"字上別保原野","koaza":"東五線","lat":43.013644,"lng":144.522119,"zip":"0880600"}]