[{"town":"愛国","koaza":"","lat":43.028943,"lng":144.391342,"zip":"0850062"},{"town":"愛国西一丁目","koaza":"","lat":43.012344,"lng":144.385082,"zip":"0850057"},{"town":"愛国西二丁目","koaza":"","lat":43.013746,"lng":144.381291,"zip":"0850057"},{"town":"愛国西三丁目","koaza":"","lat":43.015158,"lng":144.378709,"zip":"0850057"},{"town":"愛国西四丁目","koaza":"","lat":43.01706,"lng":144.375255,"zip":"0850057"},{"town":"愛国東一丁目","koaza":"","lat":43.005169,"lng":144.395562,"zip":"0850058"},{"town":"愛国東二丁目","koaza":"","lat":43.008117,"lng":144.393565,"zip":"0850058"},{"town":"愛国東三丁目","koaza":"","lat":43.009563,"lng":144.390538,"zip":"0850058"},{"town":"愛国東四丁目","koaza":"","lat":43.010948,"lng":144.387989,"zip":"0850058"},{"town":"青山","koaza":"","lat":43.073864,"lng":144.135694,"zip":"0850252"},{"town":"暁町","koaza":"","lat":43.007101,"lng":144.375255,"zip":"0850054"},{"town":"阿寒町阿寒湖温泉一丁目","koaza":"","lat":43.43457,"lng":144.100499,"zip":"0850467"},{"town":"阿寒町阿寒湖温泉二丁目","koaza":"","lat":43.432795,"lng":144.097031,"zip":"0850467"},{"town":"阿寒町阿寒湖温泉三丁目","koaza":"","lat":43.430862,"lng":144.097586,"zip":"0850467"},{"town":"阿寒町阿寒湖温泉四丁目","koaza":"","lat":43.432365,"lng":144.090567,"zip":"0850467"},{"town":"阿寒町阿寒湖温泉五丁目","koaza":"","lat":43.435984,"lng":144.085701,"zip":"0850467"},{"town":"阿寒町阿寒湖温泉六丁目","koaza":"","lat":43.439403,"lng":144.08102,"zip":"0850467"},{"town":"阿寒町飽別","koaza":"","lat":43.271989,"lng":144.100028,"zip":"0850238"},{"town":"阿寒町飽別四十九線","koaza":"","lat":43.271012,"lng":144.107103,"zip":"0850000"},{"town":"阿寒町飽別五十線","koaza":"","lat":43.276158,"lng":144.10477,"zip":"0850000"},{"town":"阿寒町飽別五十一線","koaza":"","lat":43.282003,"lng":144.109481,"zip":"0850000"},{"town":"阿寒町飽別五十二線","koaza":"","lat":43.286328,"lng":144.106417,"zip":"0850000"},{"town":"阿寒町飽別五十三線","koaza":"","lat":43.289165,"lng":144.09654,"zip":"0850000"},{"town":"阿寒町飽別五十四線","koaza":"","lat":43.295109,"lng":144.093612,"zip":"0850000"},{"town":"阿寒町飽別五十五線","koaza":"","lat":43.299924,"lng":144.092148,"zip":"0850000"},{"town":"阿寒町飽別五十六線","koaza":"","lat":43.304078,"lng":144.091683,"zip":"0850000"},{"town":"阿寒町飽別五十七線","koaza":"","lat":43.309658,"lng":144.091056,"zip":"0850000"},{"town":"阿寒町飽別五十八線","koaza":"","lat":43.315123,"lng":144.095201,"zip":"0850000"},{"town":"阿寒町飽別五十九線","koaza":"","lat":43.318859,"lng":144.095573,"zip":"0850000"},{"town":"阿寒町飽別基線","koaza":"","lat":43.341381,"lng":144.124752,"zip":"0850000"},{"town":"阿寒町飽別新","koaza":"","lat":43.290607,"lng":144.10089,"zip":"0850000"},{"town":"阿寒町飽別東一線","koaza":"","lat":43.33567,"lng":144.123573,"zip":"0850000"},{"town":"阿寒町旭町一丁目","koaza":"","lat":43.09779,"lng":144.122259,"zip":"0850212"},{"town":"阿寒町旭町二丁目","koaza":"","lat":43.098182,"lng":144.117739,"zip":"0850212"},{"town":"阿寒町旭町三丁目","koaza":"","lat":43.093236,"lng":144.11962,"zip":"0850212"},{"town":"阿寒町上阿寒","koaza":"","lat":43.145634,"lng":144.138329,"zip":"0850245"},{"town":"阿寒町上阿寒十九線","koaza":"","lat":43.128058,"lng":144.138149,"zip":"0850000"},{"town":"阿寒町上阿寒二十線","koaza":"","lat":43.130652,"lng":144.14257,"zip":"0850000"},{"town":"阿寒町上阿寒二十一線","koaza":"","lat":43.13551,"lng":144.144535,"zip":"0850000"},{"town":"阿寒町上阿寒二十二線","koaza":"","lat":43.139506,"lng":144.144917,"zip":"0850000"},{"town":"阿寒町上阿寒二十三線","koaza":"","lat":43.144416,"lng":144.148058,"zip":"0850000"},{"town":"阿寒町上阿寒二十四線","koaza":"","lat":43.149321,"lng":144.148937,"zip":"0850000"},{"town":"阿寒町上阿寒二十五線","koaza":"","lat":43.154241,"lng":144.149177,"zip":"0850000"},{"town":"阿寒町上阿寒二十六線","koaza":"","lat":43.15819,"lng":144.156588,"zip":"0850000"},{"town":"阿寒町上舌辛十六線","koaza":"","lat":43.114944,"lng":144.116336,"zip":"0850000"},{"town":"阿寒町上舌辛十七線","koaza":"","lat":43.120713,"lng":144.116855,"zip":"0850000"},{"town":"阿寒町上舌辛十八線","koaza":"","lat":43.125444,"lng":144.11769,"zip":"0850000"},{"town":"阿寒町上舌辛十九線","koaza":"","lat":43.130291,"lng":144.118653,"zip":"0850000"},{"town":"阿寒町上舌辛二十一線","koaza":"","lat":43.145816,"lng":144.115675,"zip":"0850000"},{"town":"阿寒町上舌辛二十二線","koaza":"","lat":43.155807,"lng":144.115074,"zip":"0850000"},{"town":"阿寒町上舌辛北","koaza":"","lat":43.135439,"lng":144.10765,"zip":"0850000"},{"town":"阿寒町上徹別","koaza":"","lat":43.254284,"lng":144.143532,"zip":"0850235"},{"town":"阿寒町上徹別四十一線","koaza":"","lat":43.235157,"lng":144.134272,"zip":"0850000"},{"town":"阿寒町上徹別四十二線","koaza":"","lat":43.238844,"lng":144.139031,"zip":"0850000"},{"town":"阿寒町上徹別四十三線","koaza":"","lat":43.243487,"lng":144.131421,"zip":"0850000"},{"town":"阿寒町上徹別四十四線","koaza":"","lat":43.248407,"lng":144.131448,"zip":"0850000"},{"town":"阿寒町上徹別四十五線","koaza":"","lat":43.252725,"lng":144.125987,"zip":"0850000"},{"town":"阿寒町上徹別四十六線","koaza":"","lat":43.257332,"lng":144.121839,"zip":"0850000"},{"town":"阿寒町上徹別四十七線","koaza":"","lat":43.261635,"lng":144.110467,"zip":"0850000"},{"town":"阿寒町上徹別四十八線","koaza":"","lat":43.266954,"lng":144.113203,"zip":"0850000"},{"town":"阿寒町上徹別四十九線","koaza":"","lat":43.271802,"lng":144.114599,"zip":"0850000"},{"town":"阿寒町上仁々志別","koaza":"","lat":43.193267,"lng":144.194817,"zip":"0850202"},{"town":"阿寒町上仁々志別三十一線","koaza":"","lat":43.171599,"lng":144.216247,"zip":"0850000"},{"town":"阿寒町上仁々志別三十二線","koaza":"","lat":43.176388,"lng":144.211544,"zip":"0850000"},{"town":"阿寒町上仁々志別三十三線","koaza":"","lat":43.18252,"lng":144.204961,"zip":"0850000"},{"town":"阿寒町上仁々志別三十四線","koaza":"","lat":43.188167,"lng":144.205819,"zip":"0850000"},{"town":"阿寒町上仁々志別三十五線","koaza":"","lat":43.193587,"lng":144.206023,"zip":"0850000"},{"town":"阿寒町上仁々志別三十六線","koaza":"","lat":43.19844,"lng":144.203475,"zip":"0850000"},{"town":"阿寒町上仁々志別三十七線","koaza":"","lat":43.201966,"lng":144.199928,"zip":"0850000"},{"town":"阿寒町北新町十八線","koaza":"","lat":43.124536,"lng":144.125362,"zip":"0850000"},{"town":"阿寒町北新町十九線","koaza":"","lat":43.127258,"lng":144.125206,"zip":"0850000"},{"town":"阿寒町北新町一丁目","koaza":"","lat":43.116846,"lng":144.126272,"zip":"0850216"},{"town":"阿寒町北新町二丁目","koaza":"","lat":43.119521,"lng":144.1243,"zip":"0850216"},{"town":"阿寒町北新町三丁目","koaza":"","lat":43.122321,"lng":144.125461,"zip":"0850216"},{"town":"阿寒町北町一丁目","koaza":"","lat":43.112826,"lng":144.132433,"zip":"0850217"},{"town":"阿寒町北町二丁目","koaza":"","lat":43.11519,"lng":144.133506,"zip":"0850217"},{"town":"阿寒町北町三丁目","koaza":"","lat":43.11759,"lng":144.132576,"zip":"0850217"},{"town":"阿寒町紀ノ丘","koaza":"","lat":43.163799,"lng":144.127729,"zip":"0850244"},{"town":"阿寒町紀ノ丘二十四線","koaza":"","lat":43.153076,"lng":144.133767,"zip":"0850000"},{"town":"阿寒町紀ノ丘二十五線","koaza":"","lat":43.158359,"lng":144.132225,"zip":"0850000"},{"town":"阿寒町紀ノ丘二十六線","koaza":"","lat":43.159265,"lng":144.150092,"zip":"0850000"},{"town":"阿寒町紀ノ丘二十七線","koaza":"","lat":43.164361,"lng":144.151169,"zip":"0850000"},{"town":"阿寒町紀ノ丘二十八線","koaza":"","lat":43.169327,"lng":144.149903,"zip":"0850000"},{"town":"阿寒町紀ノ丘二十九線","koaza":"","lat":43.173849,"lng":144.14338,"zip":"0850000"},{"town":"阿寒町紀ノ丘新","koaza":"","lat":43.168518,"lng":144.144135,"zip":"0850000"},{"town":"阿寒町共和","koaza":"","lat":43.234689,"lng":144.171159,"zip":"0850206"},{"town":"阿寒町共和三十三線","koaza":"","lat":43.209705,"lng":144.176495,"zip":"0850000"},{"town":"阿寒町共和三十四線","koaza":"","lat":43.211717,"lng":144.176832,"zip":"0850000"},{"town":"阿寒町共和三十七線","koaza":"","lat":43.203918,"lng":144.198421,"zip":"0850000"},{"town":"阿寒町共和三十八線","koaza":"","lat":43.207577,"lng":144.196163,"zip":"0850000"},{"town":"阿寒町共和三十九線","koaza":"","lat":43.212257,"lng":144.194997,"zip":"0850000"},{"town":"阿寒町共和四十線","koaza":"","lat":43.217375,"lng":144.192838,"zip":"0850000"},{"town":"阿寒町共和四十一線","koaza":"","lat":43.222979,"lng":144.193893,"zip":"0850000"},{"town":"阿寒町共和四十二線","koaza":"","lat":43.227692,"lng":144.191635,"zip":"0850000"},{"town":"阿寒町共和四十三線","koaza":"","lat":43.232107,"lng":144.190428,"zip":"0850000"},{"town":"阿寒町共和四十四線","koaza":"","lat":43.23557,"lng":144.185537,"zip":"0850000"},{"town":"阿寒町共和四十六線","koaza":"","lat":43.245012,"lng":144.175495,"zip":"0850000"},{"town":"阿寒町共和四十七線","koaza":"","lat":43.25001,"lng":144.17324,"zip":"0850000"},{"town":"阿寒町共和北","koaza":"","lat":43.29052,"lng":144.138938,"zip":"0850000"},{"town":"阿寒町共和新","koaza":"","lat":43.246745,"lng":144.175744,"zip":"0850000"},{"town":"阿寒町共和東","koaza":"","lat":43.216187,"lng":144.204594,"zip":"0850000"},{"town":"阿寒町舌辛","koaza":"","lat":43.111407,"lng":144.10285,"zip":"0850220"},{"town":"阿寒町下舌辛","koaza":"","lat":43.085145,"lng":144.124044,"zip":"0850211"},{"town":"阿寒町下舌辛十線","koaza":"","lat":43.079014,"lng":144.139518,"zip":"0850000"},{"town":"阿寒町下舌辛十一線","koaza":"","lat":43.083618,"lng":144.141235,"zip":"0850000"},{"town":"阿寒町下舌辛十二線","koaza":"","lat":43.089756,"lng":144.138664,"zip":"0850000"},{"town":"阿寒町下舌辛十三線","koaza":"","lat":43.093517,"lng":144.135859,"zip":"0850000"},{"town":"阿寒町下徹別二十六線","koaza":"","lat":43.160368,"lng":144.156772,"zip":"0850000"},{"town":"阿寒町下徹別二十七線","koaza":"","lat":43.165245,"lng":144.155183,"zip":"0850000"},{"town":"阿寒町下徹別二十八線","koaza":"","lat":43.170301,"lng":144.155552,"zip":"0850000"},{"town":"阿寒町下徹別二十九線","koaza":"","lat":43.175374,"lng":144.154657,"zip":"0850000"},{"town":"阿寒町下徹別三十線","koaza":"","lat":43.180122,"lng":144.155945,"zip":"0850000"},{"town":"阿寒町下徹別三十一線","koaza":"","lat":43.185181,"lng":144.153198,"zip":"0850000"},{"town":"阿寒町下徹別三十二線","koaza":"","lat":43.189978,"lng":144.153673,"zip":"0850000"},{"town":"阿寒町下仁々志別","koaza":"","lat":43.111845,"lng":144.208585,"zip":"0850204"},{"town":"阿寒町下仁々志別十六線","koaza":"","lat":43.08517,"lng":144.244784,"zip":"0850000"},{"town":"阿寒町下仁々志別十七線","koaza":"","lat":43.085444,"lng":144.257651,"zip":"0850000"},{"town":"阿寒町下仁々志別十八線","koaza":"","lat":43.09278,"lng":144.244199,"zip":"0850000"},{"town":"阿寒町下仁々志別十九線","koaza":"","lat":43.102034,"lng":144.234912,"zip":"0850000"},{"town":"阿寒町下仁々志別二十一線","koaza":"","lat":43.116019,"lng":144.226156,"zip":"0850000"},{"town":"阿寒町下仁々志別二十二線","koaza":"","lat":43.120619,"lng":144.219183,"zip":"0850000"},{"town":"阿寒町下仁々志別二十三線","koaza":"","lat":43.126606,"lng":144.221822,"zip":"0850000"},{"town":"阿寒町下仁々志別二十四線","koaza":"","lat":43.130689,"lng":144.226008,"zip":"0850000"},{"town":"阿寒町下仁々志別二十五線","koaza":"","lat":43.135886,"lng":144.228037,"zip":"0850000"},{"town":"阿寒町下仁々志別二十六線","koaza":"","lat":43.140642,"lng":144.227209,"zip":"0850000"},{"town":"阿寒町下仁々志別新","koaza":"","lat":43.098618,"lng":144.245917,"zip":"0850000"},{"town":"阿寒町新町一丁目","koaza":"","lat":43.11063,"lng":144.126111,"zip":"0850218"},{"town":"阿寒町新町二丁目","koaza":"","lat":43.113835,"lng":144.127939,"zip":"0850218"},{"town":"阿寒町蘇牛","koaza":"","lat":43.247135,"lng":144.096731,"zip":"0850234"},{"town":"阿寒町蘇牛四十三線","koaza":"","lat":43.240879,"lng":144.110466,"zip":"0850000"},{"town":"阿寒町蘇牛四十四線","koaza":"","lat":43.245661,"lng":144.111002,"zip":"0850000"},{"town":"阿寒町蘇牛四十五線","koaza":"","lat":43.251306,"lng":144.109483,"zip":"0850000"},{"town":"阿寒町蘇牛四十六線","koaza":"","lat":43.255974,"lng":144.109945,"zip":"0850000"},{"town":"阿寒町蘇牛四十七線","koaza":"","lat":43.2598,"lng":144.107269,"zip":"0850000"},{"town":"阿寒町大正","koaza":"","lat":43.186146,"lng":144.120242,"zip":"0850232"},{"town":"阿寒町大正三十線","koaza":"","lat":43.178717,"lng":144.140976,"zip":"0850000"},{"town":"阿寒町大正三十一線","koaza":"","lat":43.183431,"lng":144.137667,"zip":"0850000"},{"town":"阿寒町大正三十二線","koaza":"","lat":43.188187,"lng":144.136324,"zip":"0850000"},{"town":"阿寒町大正三十三線","koaza":"","lat":43.19299,"lng":144.134165,"zip":"0850000"},{"town":"阿寒町大正三十四線","koaza":"","lat":43.197729,"lng":144.130893,"zip":"0850000"},{"town":"阿寒町知茶布","koaza":"","lat":43.152077,"lng":144.067942,"zip":"0850225"},{"town":"阿寒町知茶布十七線","koaza":"","lat":43.146115,"lng":144.063912,"zip":"0850000"},{"town":"阿寒町知茶布十八線","koaza":"","lat":43.149356,"lng":144.066102,"zip":"0850000"},{"town":"阿寒町知茶布十九線","koaza":"","lat":43.15397,"lng":144.060867,"zip":"0850000"},{"town":"阿寒町知茶布二十線","koaza":"","lat":43.154743,"lng":144.098984,"zip":"0850000"},{"town":"阿寒町知茶布二十一線","koaza":"","lat":43.156569,"lng":144.103745,"zip":"0850000"},{"town":"阿寒町中央一丁目","koaza":"","lat":43.112265,"lng":144.122033,"zip":"0850215"},{"town":"阿寒町中央二丁目","koaza":"","lat":43.115393,"lng":144.122379,"zip":"0850215"},{"town":"阿寒町中央三丁目","koaza":"","lat":43.117375,"lng":144.121896,"zip":"0850215"},{"town":"阿寒町中央四丁目","koaza":"","lat":43.114229,"lng":144.12596,"zip":"0850215"},{"town":"阿寒町徹別中央三十三線","koaza":"","lat":43.194819,"lng":144.15016,"zip":"0850000"},{"town":"阿寒町徹別中央三十四線","koaza":"","lat":43.199472,"lng":144.147189,"zip":"0850000"},{"town":"阿寒町徹別中央三十五線","koaza":"","lat":43.204296,"lng":144.145758,"zip":"0850000"},{"town":"阿寒町東栄","koaza":"","lat":43.193862,"lng":144.172401,"zip":"0850205"},{"town":"阿寒町東栄三十三線","koaza":"","lat":43.191884,"lng":144.188609,"zip":"0850000"},{"town":"阿寒町東栄三十四線","koaza":"","lat":43.199562,"lng":144.187441,"zip":"0850000"},{"town":"阿寒町東栄南","koaza":"","lat":43.159474,"lng":144.183727,"zip":"0850000"},{"town":"阿寒町中阿寒十八線","koaza":"","lat":43.120255,"lng":144.140426,"zip":"0850000"},{"town":"阿寒町中阿寒十九線","koaza":"","lat":43.124253,"lng":144.142174,"zip":"0850000"},{"town":"阿寒町中阿寒二十線","koaza":"","lat":43.128516,"lng":144.149336,"zip":"0850000"},{"town":"阿寒町中阿寒二十一線","koaza":"","lat":43.132834,"lng":144.151359,"zip":"0850000"},{"town":"阿寒町中徹別","koaza":"","lat":43.216527,"lng":144.145691,"zip":"0850236"},{"town":"阿寒町中徹別三十六線","koaza":"","lat":43.20886,"lng":144.143971,"zip":"0850000"},{"town":"阿寒町中徹別三十七線","koaza":"","lat":43.213764,"lng":144.136958,"zip":"0850000"},{"town":"阿寒町中徹別三十八線","koaza":"","lat":43.218701,"lng":144.136754,"zip":"0850000"},{"town":"阿寒町中徹別三十九線","koaza":"","lat":43.223834,"lng":144.137251,"zip":"0850000"},{"town":"阿寒町中徹別四十線","koaza":"","lat":43.228796,"lng":144.135836,"zip":"0850000"},{"town":"阿寒町中徹別四十一線","koaza":"","lat":43.232518,"lng":144.135925,"zip":"0850000"},{"town":"阿寒町中仁々志別","koaza":"","lat":43.156658,"lng":144.211198,"zip":"0850203"},{"town":"阿寒町中仁々志別二十六線","koaza":"","lat":43.144215,"lng":144.22001,"zip":"0850000"},{"town":"阿寒町中仁々志別二十七線","koaza":"","lat":43.145344,"lng":144.230035,"zip":"0850000"},{"town":"阿寒町中仁々志別二十八線","koaza":"","lat":43.150882,"lng":144.227818,"zip":"0850000"},{"town":"阿寒町中仁々志別二十九線","koaza":"","lat":43.156004,"lng":144.22984,"zip":"0850000"},{"town":"阿寒町中仁々志別三十線","koaza":"","lat":43.161055,"lng":144.229323,"zip":"0850000"},{"town":"阿寒町中仁々志別三十一線","koaza":"","lat":43.166644,"lng":144.22748,"zip":"0850000"},{"town":"阿寒町中仁々志別三十二線","koaza":"","lat":43.170475,"lng":144.229792,"zip":"0850000"},{"town":"阿寒町中仁々志別北","koaza":"","lat":43.169381,"lng":144.195992,"zip":"0850000"},{"town":"阿寒町中仁々志別新","koaza":"","lat":43.165075,"lng":144.21983,"zip":"0850000"},{"town":"阿寒町仲町一丁目","koaza":"","lat":43.100387,"lng":144.122981,"zip":"0850213"},{"town":"阿寒町仲町二丁目","koaza":"","lat":43.101936,"lng":144.117719,"zip":"0850213"},{"town":"阿寒町西阿寒","koaza":"","lat":43.147018,"lng":144.123284,"zip":"0850243"},{"town":"阿寒町西阿寒十七線","koaza":"","lat":43.118832,"lng":144.12928,"zip":"0850000"},{"town":"阿寒町西阿寒十八線","koaza":"","lat":43.122445,"lng":144.131278,"zip":"0850000"},{"town":"阿寒町西阿寒十九線","koaza":"","lat":43.127665,"lng":144.131602,"zip":"0850000"},{"town":"阿寒町西阿寒二十線","koaza":"","lat":43.132931,"lng":144.131618,"zip":"0850000"},{"town":"阿寒町西阿寒二十一線","koaza":"","lat":43.137035,"lng":144.132825,"zip":"0850000"},{"town":"阿寒町西阿寒二十二線","koaza":"","lat":43.143411,"lng":144.12766,"zip":"0850000"},{"town":"阿寒町西阿寒二十三線","koaza":"","lat":43.149208,"lng":144.13026,"zip":"0850000"},{"town":"阿寒町西徹別","koaza":"","lat":43.205306,"lng":144.099241,"zip":"0850233"},{"town":"阿寒町西徹別三十五線","koaza":"","lat":43.202459,"lng":144.125277,"zip":"0850000"},{"town":"阿寒町西徹別三十六線","koaza":"","lat":43.207428,"lng":144.125231,"zip":"0850000"},{"town":"阿寒町西徹別三十七線","koaza":"","lat":43.212236,"lng":144.123537,"zip":"0850000"},{"town":"阿寒町西徹別三十八線","koaza":"","lat":43.217178,"lng":144.121337,"zip":"0850000"},{"town":"阿寒町西徹別三十九線","koaza":"","lat":43.22194,"lng":144.117047,"zip":"0850000"},{"town":"阿寒町西徹別四十線","koaza":"","lat":43.226442,"lng":144.112354,"zip":"0850000"},{"town":"阿寒町西徹別四十一線","koaza":"","lat":43.231006,"lng":144.112243,"zip":"0850000"},{"town":"阿寒町西徹別四十二線","koaza":"","lat":43.236754,"lng":144.115947,"zip":"0850000"},{"town":"阿寒町西徹別北","koaza":"","lat":43.231793,"lng":144.091067,"zip":"0850000"},{"town":"阿寒町仁々志別","koaza":"","lat":43.192254,"lng":144.216144,"zip":"0850201"},{"town":"阿寒町仁々志別三十二線","koaza":"","lat":43.173296,"lng":144.225902,"zip":"0850000"},{"town":"阿寒町仁々志別三十三線","koaza":"","lat":43.179831,"lng":144.217413,"zip":"0850000"},{"town":"阿寒町仁々志別三十四線","koaza":"","lat":43.185091,"lng":144.218745,"zip":"0850000"},{"town":"阿寒町仁々志別三十五線","koaza":"","lat":43.191012,"lng":144.211503,"zip":"0850000"},{"town":"阿寒町東舌辛","koaza":"","lat":43.112508,"lng":144.151904,"zip":"0850242"},{"town":"阿寒町東舌辛十一線","koaza":"","lat":43.0835,"lng":144.146556,"zip":"0850000"},{"town":"阿寒町東舌辛十二線","koaza":"","lat":43.086726,"lng":144.146376,"zip":"0850000"},{"town":"阿寒町東舌辛十三線","koaza":"","lat":43.096321,"lng":144.128167,"zip":"0850000"},{"town":"阿寒町東舌辛十四線","koaza":"","lat":43.098531,"lng":144.137081,"zip":"0850000"},{"town":"阿寒町東舌辛十五線","koaza":"","lat":43.105914,"lng":144.13095,"zip":"0850000"},{"town":"阿寒町東舌辛十六線","koaza":"","lat":43.110562,"lng":144.13312,"zip":"0850000"},{"town":"阿寒町東舌辛十七線","koaza":"","lat":43.115397,"lng":144.140425,"zip":"0850000"},{"town":"阿寒町東舌辛十八線","koaza":"","lat":43.117881,"lng":144.14407,"zip":"0850000"},{"town":"阿寒町東舌辛北","koaza":"","lat":43.14123,"lng":144.184438,"zip":"0850000"},{"town":"阿寒町東舌辛東","koaza":"","lat":43.098606,"lng":144.187463,"zip":"0850000"},{"town":"阿寒町東舌辛南","koaza":"","lat":43.085765,"lng":144.19171,"zip":"0850000"},{"town":"阿寒町富士見十四線","koaza":"","lat":43.106361,"lng":144.112462,"zip":"0850000"},{"town":"阿寒町富士見十五線","koaza":"","lat":43.108834,"lng":144.111639,"zip":"0850000"},{"town":"阿寒町富士見一丁目","koaza":"","lat":43.105651,"lng":144.125307,"zip":"0850214"},{"town":"阿寒町富士見二丁目","koaza":"","lat":43.10799,"lng":144.119933,"zip":"0850214"},{"town":"阿寒町富士見三丁目","koaza":"","lat":43.108753,"lng":144.114906,"zip":"0850214"},{"town":"阿寒町布伏内","koaza":"","lat":43.166215,"lng":144.081548,"zip":"0850222"},{"town":"阿寒町布伏内二十線北","koaza":"","lat":43.17897,"lng":144.068323,"zip":"0850000"},{"town":"阿寒町布伏内二十線新","koaza":"","lat":43.179898,"lng":144.054859,"zip":"0850000"},{"town":"阿寒町布伏内二十一線","koaza":"","lat":43.177083,"lng":144.048258,"zip":"0850000"},{"town":"阿寒町布伏内二十一線北","koaza":"","lat":43.176272,"lng":144.086353,"zip":"0850000"},{"town":"阿寒町布伏内二十二線","koaza":"","lat":43.186924,"lng":144.08134,"zip":"0850000"},{"town":"阿寒町布伏内二十二線北","koaza":"","lat":43.188515,"lng":144.082739,"zip":"0850000"},{"town":"阿寒町布伏内二十三線","koaza":"","lat":43.176282,"lng":144.062743,"zip":"0850000"},{"town":"阿寒町布伏内二十三線北","koaza":"","lat":43.190363,"lng":144.08691,"zip":"0850000"},{"town":"阿寒町布伏内甲二十二線","koaza":"","lat":43.171573,"lng":144.072694,"zip":"0850000"},{"town":"阿寒町布伏内甲二十三線","koaza":"","lat":43.176015,"lng":144.073052,"zip":"0850000"},{"town":"阿寒町布伏内新","koaza":"","lat":43.183625,"lng":144.071669,"zip":"0850000"},{"town":"阿寒町布伏内南","koaza":"","lat":43.167772,"lng":144.105364,"zip":"0850000"},{"town":"阿寒町雄別","koaza":"","lat":43.215754,"lng":144.075689,"zip":"0850224"},{"town":"阿寒町雄別二十二線","koaza":"","lat":43.217431,"lng":144.075186,"zip":"0850000"},{"town":"旭町","koaza":"","lat":42.986008,"lng":144.392255,"zip":"0850011"},{"town":"芦野一丁目","koaza":"","lat":43.012097,"lng":144.399733,"zip":"0850061"},{"town":"芦野二丁目","koaza":"","lat":43.013507,"lng":144.396005,"zip":"0850061"},{"town":"芦野三丁目","koaza":"","lat":43.016091,"lng":144.400231,"zip":"0850061"},{"town":"芦野四丁目","koaza":"","lat":43.018438,"lng":144.396358,"zip":"0850061"},{"town":"芦野五丁目","koaza":"","lat":43.014631,"lng":144.392443,"zip":"0850061"},{"town":"入江町","koaza":"","lat":42.999708,"lng":144.395976,"zip":"0850008"},{"town":"入舟三丁目","koaza":"","lat":42.979738,"lng":144.381782,"zip":"0850846"},{"town":"入舟四丁目","koaza":"","lat":42.979719,"lng":144.380724,"zip":"0850846"},{"town":"入舟五丁目","koaza":"","lat":42.979483,"lng":144.37888,"zip":"0850846"},{"town":"入舟六丁目","koaza":"","lat":42.979148,"lng":144.376645,"zip":"0850846"},{"town":"入舟七丁目","koaza":"","lat":42.976819,"lng":144.374677,"zip":"0850846"},{"town":"浦見一丁目","koaza":"","lat":42.977494,"lng":144.385468,"zip":"0850835"},{"town":"浦見二丁目","koaza":"","lat":42.975931,"lng":144.383959,"zip":"0850835"},{"town":"浦見三丁目","koaza":"","lat":42.97566,"lng":144.382265,"zip":"0850835"},{"town":"浦見四丁目","koaza":"","lat":42.975,"lng":144.381693,"zip":"0850835"},{"town":"浦見五丁目","koaza":"","lat":42.974839,"lng":144.380727,"zip":"0850835"},{"town":"浦見六丁目","koaza":"","lat":42.974779,"lng":144.379709,"zip":"0850835"},{"town":"浦見七丁目","koaza":"","lat":42.974571,"lng":144.37876,"zip":"0850835"},{"town":"浦見八丁目","koaza":"","lat":42.974436,"lng":144.377331,"zip":"0850835"},{"town":"大川町","koaza":"","lat":42.981416,"lng":144.390874,"zip":"0850837"},{"town":"大町一丁目","koaza":"","lat":42.980285,"lng":144.384481,"zip":"0850847"},{"town":"大町二丁目","koaza":"","lat":42.979807,"lng":144.382653,"zip":"0850847"},{"town":"大町三丁目","koaza":"","lat":42.978626,"lng":144.382016,"zip":"0850847"},{"town":"大町四丁目","koaza":"","lat":42.978248,"lng":144.3806,"zip":"0850847"},{"town":"大町五丁目","koaza":"","lat":42.977749,"lng":144.378613,"zip":"0850847"},{"town":"大町六丁目","koaza":"","lat":42.977184,"lng":144.377085,"zip":"0850847"},{"town":"大町七丁目","koaza":"","lat":42.976193,"lng":144.375362,"zip":"0850847"},{"town":"大町八丁目","koaza":"","lat":42.97484,"lng":144.374062,"zip":"0850847"},{"town":"興津一丁目","koaza":"","lat":42.961192,"lng":144.404621,"zip":"0850811"},{"town":"興津二丁目","koaza":"","lat":42.963488,"lng":144.411389,"zip":"0850811"},{"town":"興津三丁目","koaza":"","lat":42.958741,"lng":144.41202,"zip":"0850811"},{"town":"興津四丁目","koaza":"","lat":42.962572,"lng":144.416575,"zip":"0850811"},{"town":"興津五丁目","koaza":"","lat":42.961714,"lng":144.421437,"zip":"0850811"},{"town":"大楽毛","koaza":"","lat":43.016294,"lng":144.252766,"zip":"0840917"},{"town":"大楽毛一丁目","koaza":"","lat":43.011392,"lng":144.297784,"zip":"0840917"},{"town":"大楽毛二丁目","koaza":"","lat":43.011199,"lng":144.290596,"zip":"0840917"},{"town":"大楽毛三丁目","koaza":"","lat":43.015753,"lng":144.280112,"zip":"0840917"},{"town":"大楽毛四丁目","koaza":"","lat":43.011664,"lng":144.274951,"zip":"0840917"},{"town":"大楽毛五丁目","koaza":"","lat":43.010133,"lng":144.270639,"zip":"0840917"},{"town":"大楽毛北一丁目","koaza":"","lat":43.014991,"lng":144.298316,"zip":"0840918"},{"town":"大楽毛北二丁目","koaza":"","lat":43.016494,"lng":144.291588,"zip":"0840918"},{"town":"大楽毛西一丁目","koaza":"","lat":43.014807,"lng":144.267028,"zip":"0840916"},{"town":"大楽毛西二丁目","koaza":"","lat":43.014736,"lng":144.262829,"zip":"0840916"},{"town":"大楽毛南一丁目","koaza":"","lat":43.007623,"lng":144.296312,"zip":"0840915"},{"town":"大楽毛南二丁目","koaza":"","lat":43.00754,"lng":144.290582,"zip":"0840915"},{"town":"大楽毛南三丁目","koaza":"","lat":43.00738,"lng":144.282386,"zip":"0840915"},{"town":"大楽毛南四丁目","koaza":"","lat":43.007517,"lng":144.275274,"zip":"0840915"},{"town":"大楽毛南五丁目","koaza":"","lat":43.007677,"lng":144.270467,"zip":"0840915"},{"town":"音羽","koaza":"","lat":43.039091,"lng":144.281478,"zip":"0850000"},{"town":"音別町あけぼの一丁目","koaza":"","lat":42.897113,"lng":143.939741,"zip":"0880122"},{"town":"音別町あけぼの二丁目","koaza":"","lat":42.895967,"lng":143.944192,"zip":"0880122"},{"town":"音別町朝日一丁目","koaza":"","lat":42.892474,"lng":143.939585,"zip":"0880117"},{"town":"音別町朝日二丁目","koaza":"","lat":42.89139,"lng":143.936002,"zip":"0880117"},{"town":"音別町朝日三丁目","koaza":"","lat":42.893941,"lng":143.935507,"zip":"0880117"},{"town":"音別町海光一丁目","koaza":"","lat":42.887463,"lng":143.937348,"zip":"0880114"},{"town":"音別町海光二丁目","koaza":"","lat":42.886032,"lng":143.932993,"zip":"0880114"},{"town":"音別町海光三丁目","koaza":"","lat":42.885741,"lng":143.928498,"zip":"0880114"},{"town":"音別町川東一丁目","koaza":"","lat":42.898508,"lng":143.932282,"zip":"0880123"},{"town":"音別町川東二丁目","koaza":"","lat":42.899433,"lng":143.927809,"zip":"0880123"},{"town":"音別町共栄一丁目","koaza":"","lat":42.908258,"lng":143.937508,"zip":"0880125"},{"town":"音別町共栄二丁目","koaza":"","lat":42.908519,"lng":143.93427,"zip":"0880125"},{"town":"音別町中園一丁目","koaza":"","lat":42.893385,"lng":143.932605,"zip":"0880116"},{"town":"音別町中園二丁目","koaza":"","lat":42.894155,"lng":143.927503,"zip":"0880116"},{"town":"音別町馬主来","koaza":"","lat":42.952186,"lng":143.973309,"zip":"0880101"},{"town":"音別町風連一丁目","koaza":"","lat":42.889998,"lng":143.942141,"zip":"0880113"},{"town":"音別町緑町一丁目","koaza":"","lat":42.903607,"lng":143.935691,"zip":"0880124"},{"town":"音別町緑町二丁目","koaza":"","lat":42.90348,"lng":143.932126,"zip":"0880124"},{"town":"音別町本町一丁目","koaza":"","lat":42.889885,"lng":143.933248,"zip":"0880115"},{"town":"音別町本町二丁目","koaza":"","lat":42.889906,"lng":143.929105,"zip":"0880115"},{"town":"音別町本町三丁目","koaza":"","lat":42.889326,"lng":143.925737,"zip":"0880115"},{"town":"音別町若草一丁目","koaza":"","lat":42.901999,"lng":143.939392,"zip":"0880121"},{"town":"海運一丁目","koaza":"","lat":42.987273,"lng":144.371044,"zip":"0850023"},{"town":"海運二丁目","koaza":"","lat":42.985991,"lng":144.368704,"zip":"0850023"},{"town":"海運三丁目","koaza":"","lat":42.989627,"lng":144.36859,"zip":"0850023"},{"town":"貝塚一丁目","koaza":"","lat":42.993378,"lng":144.408955,"zip":"0850816"},{"town":"貝塚二丁目","koaza":"","lat":42.992742,"lng":144.41606,"zip":"0850816"},{"town":"貝塚三丁目","koaza":"","lat":42.99835,"lng":144.414307,"zip":"0850816"},{"town":"貝塚四丁目","koaza":"","lat":42.993987,"lng":144.430081,"zip":"0850816"},{"town":"柏木町","koaza":"","lat":42.972016,"lng":144.392831,"zip":"0850824"},{"town":"春日町","koaza":"","lat":42.996603,"lng":144.377221,"zip":"0850041"},{"town":"桂恋","koaza":"","lat":42.950471,"lng":144.451623,"zip":"0850802"},{"town":"川上町十丁目","koaza":"","lat":42.988095,"lng":144.389381,"zip":"0850012"},{"town":"川上町十一丁目","koaza":"","lat":42.98851,"lng":144.387839,"zip":"0850012"},{"town":"川上町二丁目","koaza":"","lat":42.983244,"lng":144.390132,"zip":"0850012"},{"town":"川上町三丁目","koaza":"","lat":42.983762,"lng":144.389559,"zip":"0850012"},{"town":"川上町四丁目","koaza":"","lat":42.984364,"lng":144.38953,"zip":"0850012"},{"town":"川上町五丁目","koaza":"","lat":42.984913,"lng":144.389359,"zip":"0850012"},{"town":"川上町六丁目","koaza":"","lat":42.985617,"lng":144.389133,"zip":"0850012"},{"town":"川上町七丁目","koaza":"","lat":42.986212,"lng":144.38893,"zip":"0850012"},{"town":"川上町八丁目","koaza":"","lat":42.986885,"lng":144.389513,"zip":"0850012"},{"town":"川上町九丁目","koaza":"","lat":42.987419,"lng":144.389337,"zip":"0850012"},{"town":"川北町","koaza":"","lat":42.99288,"lng":144.394205,"zip":"0850003"},{"town":"川端町","koaza":"","lat":43.002216,"lng":144.364988,"zip":"0850044"},{"town":"北大通十丁目","koaza":"","lat":42.987169,"lng":144.383539,"zip":"0850015"},{"town":"北大通十一丁目","koaza":"","lat":42.987762,"lng":144.383343,"zip":"0850015"},{"town":"北大通十二丁目","koaza":"","lat":42.988341,"lng":144.383165,"zip":"0850015"},{"town":"北大通十三丁目","koaza":"","lat":42.989104,"lng":144.382907,"zip":"0850015"},{"town":"北大通十四丁目","koaza":"","lat":42.990206,"lng":144.382176,"zip":"0850015"},{"town":"北大通一丁目","koaza":"","lat":42.981566,"lng":144.385344,"zip":"0850015"},{"town":"北大通二丁目","koaza":"","lat":42.982389,"lng":144.3851,"zip":"0850015"},{"town":"北大通三丁目","koaza":"","lat":42.982975,"lng":144.384892,"zip":"0850015"},{"town":"北大通四丁目","koaza":"","lat":42.983564,"lng":144.384695,"zip":"0850015"},{"town":"北大通五丁目","koaza":"","lat":42.984166,"lng":144.384504,"zip":"0850015"},{"town":"北大通六丁目","koaza":"","lat":42.984785,"lng":144.384309,"zip":"0850015"},{"town":"北大通七丁目","koaza":"","lat":42.985383,"lng":144.384129,"zip":"0850015"},{"town":"北大通八丁目","koaza":"","lat":42.986046,"lng":144.383919,"zip":"0850015"},{"town":"北大通九丁目","koaza":"","lat":42.986513,"lng":144.383761,"zip":"0850015"},{"town":"北園","koaza":"","lat":43.044411,"lng":144.340176,"zip":"0840908"},{"town":"北園一丁目","koaza":"","lat":43.023355,"lng":144.342579,"zip":"0840908"},{"town":"喜多町","koaza":"","lat":42.997057,"lng":144.367544,"zip":"0850043"},{"town":"共栄大通一丁目","koaza":"","lat":42.992886,"lng":144.381595,"zip":"0850035"},{"town":"共栄大通二丁目","koaza":"","lat":42.99414,"lng":144.381192,"zip":"0850035"},{"town":"共栄大通三丁目","koaza":"","lat":42.995143,"lng":144.380907,"zip":"0850035"},{"town":"共栄大通四丁目","koaza":"","lat":42.996146,"lng":144.380629,"zip":"0850035"},{"town":"共栄大通五丁目","koaza":"","lat":42.997172,"lng":144.380327,"zip":"0850035"},{"town":"共栄大通六丁目","koaza":"","lat":42.998132,"lng":144.38003,"zip":"0850035"},{"town":"共栄大通七丁目","koaza":"","lat":42.999176,"lng":144.379694,"zip":"0850035"},{"town":"共栄大通八丁目","koaza":"","lat":43.000315,"lng":144.379325,"zip":"0850035"},{"town":"共栄大通九丁目","koaza":"","lat":43.001411,"lng":144.378973,"zip":"0850035"},{"town":"黒金町十丁目","koaza":"","lat":42.986827,"lng":144.381557,"zip":"0850018"},{"town":"黒金町十一丁目","koaza":"","lat":42.987425,"lng":144.381365,"zip":"0850018"},{"town":"黒金町十二丁目","koaza":"","lat":42.988002,"lng":144.381182,"zip":"0850018"},{"town":"黒金町十三丁目","koaza":"","lat":42.989141,"lng":144.380821,"zip":"0850018"},{"town":"黒金町十四丁目","koaza":"","lat":42.990543,"lng":144.379974,"zip":"0850018"},{"town":"黒金町六丁目","koaza":"","lat":42.98445,"lng":144.382313,"zip":"0850018"},{"town":"黒金町七丁目","koaza":"","lat":42.985038,"lng":144.382129,"zip":"0850018"},{"town":"黒金町八丁目","koaza":"","lat":42.985588,"lng":144.38196,"zip":"0850018"},{"town":"黒金町九丁目","koaza":"","lat":42.986185,"lng":144.381769,"zip":"0850018"},{"town":"光陽町","koaza":"","lat":43.003259,"lng":144.390489,"zip":"0850051"},{"town":"寿一丁目","koaza":"","lat":42.991069,"lng":144.376986,"zip":"0850026"},{"town":"寿二丁目","koaza":"","lat":42.989866,"lng":144.37362,"zip":"0850026"},{"town":"寿三丁目","koaza":"","lat":42.991808,"lng":144.371124,"zip":"0850026"},{"town":"寿四丁目","koaza":"","lat":42.992766,"lng":144.3727,"zip":"0850026"},{"town":"駒場町","koaza":"","lat":43.000838,"lng":144.369018,"zip":"0850048"},{"town":"駒牧","koaza":"","lat":43.056308,"lng":144.175387,"zip":"0840927"},{"town":"材木町","koaza":"","lat":42.990406,"lng":144.400023,"zip":"0850815"},{"town":"幸町十丁目","koaza":"","lat":42.986324,"lng":144.378721,"zip":"0850017"},{"town":"幸町十一丁目","koaza":"","lat":42.986916,"lng":144.378532,"zip":"0850017"},{"town":"幸町十二丁目","koaza":"","lat":42.987811,"lng":144.378637,"zip":"0850017"},{"town":"幸町十三丁目","koaza":"","lat":42.988923,"lng":144.37828,"zip":"0850017"},{"town":"幸町十四丁目","koaza":"","lat":42.990005,"lng":144.377931,"zip":"0850017"},{"town":"幸町三丁目","koaza":"","lat":42.98211,"lng":144.380282,"zip":"0850017"},{"town":"幸町四丁目","koaza":"","lat":42.982709,"lng":144.379768,"zip":"0850017"},{"town":"幸町五丁目","koaza":"","lat":42.983427,"lng":144.380076,"zip":"0850017"},{"town":"幸町六丁目","koaza":"","lat":42.984024,"lng":144.379895,"zip":"0850017"},{"town":"幸町七丁目","koaza":"","lat":42.984618,"lng":144.379715,"zip":"0850017"},{"town":"幸町八丁目","koaza":"","lat":42.985097,"lng":144.379001,"zip":"0850017"},{"town":"幸町九丁目","koaza":"","lat":42.985709,"lng":144.378913,"zip":"0850017"},{"town":"栄町十丁目","koaza":"","lat":42.987694,"lng":144.386763,"zip":"0850013"},{"town":"栄町十一丁目","koaza":"","lat":42.988319,"lng":144.386559,"zip":"0850013"},{"town":"栄町十二丁目","koaza":"","lat":42.989012,"lng":144.38631,"zip":"0850013"},{"town":"栄町一丁目","koaza":"","lat":42.982274,"lng":144.388659,"zip":"0850013"},{"town":"栄町二丁目","koaza":"","lat":42.982862,"lng":144.38827,"zip":"0850013"},{"town":"栄町三丁目","koaza":"","lat":42.983579,"lng":144.388097,"zip":"0850013"},{"town":"栄町四丁目","koaza":"","lat":42.984101,"lng":144.387923,"zip":"0850013"},{"town":"栄町五丁目","koaza":"","lat":42.984704,"lng":144.387718,"zip":"0850013"},{"town":"栄町六丁目","koaza":"","lat":42.985337,"lng":144.387506,"zip":"0850013"},{"town":"栄町七丁目","koaza":"","lat":42.98593,"lng":144.387313,"zip":"0850013"},{"town":"栄町八丁目","koaza":"","lat":42.986494,"lng":144.387132,"zip":"0850013"},{"town":"栄町九丁目","koaza":"","lat":42.987094,"lng":144.386942,"zip":"0850013"},{"town":"桜ケ岡一丁目","koaza":"","lat":42.969735,"lng":144.422072,"zip":"0850805"},{"town":"桜ケ岡二丁目","koaza":"","lat":42.967471,"lng":144.419294,"zip":"0850805"},{"town":"桜ケ岡三丁目","koaza":"","lat":42.968425,"lng":144.431599,"zip":"0850805"},{"town":"桜ケ岡四丁目","koaza":"","lat":42.962926,"lng":144.42633,"zip":"0850805"},{"town":"桜ケ岡五丁目","koaza":"","lat":42.962326,"lng":144.430538,"zip":"0850805"},{"town":"桜ケ岡六丁目","koaza":"","lat":42.962885,"lng":144.434941,"zip":"0850805"},{"town":"桜ケ岡七丁目","koaza":"","lat":42.962451,"lng":144.440665,"zip":"0850805"},{"town":"桜ケ岡八丁目","koaza":"","lat":42.969526,"lng":144.440665,"zip":"0850805"},{"town":"桜田","koaza":"","lat":43.080372,"lng":144.174852,"zip":"0850251"},{"town":"紫雲台","koaza":"","lat":42.963206,"lng":144.398125,"zip":"0850812"},{"town":"治水町","koaza":"","lat":43.009239,"lng":144.370376,"zip":"0850055"},{"town":"春湖台","koaza":"","lat":42.975463,"lng":144.404277,"zip":"0850822"},{"town":"昭和","koaza":"","lat":43.028848,"lng":144.373094,"zip":"0840902"},{"town":"昭和北一丁目","koaza":"","lat":43.025006,"lng":144.369491,"zip":"0840901"},{"town":"昭和北二丁目","koaza":"","lat":43.028374,"lng":144.364372,"zip":"0840901"},{"town":"昭和北三丁目","koaza":"","lat":43.030804,"lng":144.35974,"zip":"0840901"},{"town":"昭和中央一丁目","koaza":"","lat":43.019625,"lng":144.368837,"zip":"0840910"},{"town":"昭和中央二丁目","koaza":"","lat":43.021293,"lng":144.366326,"zip":"0840910"},{"town":"昭和中央三丁目","koaza":"","lat":43.0231,"lng":144.36298,"zip":"0840910"},{"town":"昭和中央四丁目","koaza":"","lat":43.025381,"lng":144.358945,"zip":"0840910"},{"town":"昭和中央五丁目","koaza":"","lat":43.0274,"lng":144.355252,"zip":"0840910"},{"town":"昭和中央六丁目","koaza":"","lat":43.029154,"lng":144.352114,"zip":"0840910"},{"town":"昭和町一丁目","koaza":"","lat":43.012285,"lng":144.367579,"zip":"0840903"},{"town":"昭和町二丁目","koaza":"","lat":43.014135,"lng":144.365371,"zip":"0840903"},{"town":"昭和町三丁目","koaza":"","lat":43.015704,"lng":144.363027,"zip":"0840903"},{"town":"昭和町四丁目","koaza":"","lat":43.017078,"lng":144.360468,"zip":"0840903"},{"town":"昭和南三丁目","koaza":"","lat":43.019801,"lng":144.358567,"zip":"0840909"},{"town":"昭和南四丁目","koaza":"","lat":43.021206,"lng":144.354624,"zip":"0840909"},{"town":"昭和南五丁目","koaza":"","lat":43.022383,"lng":144.350045,"zip":"0840909"},{"town":"昭和南六丁目","koaza":"","lat":43.023741,"lng":144.346469,"zip":"0840909"},{"town":"白樺台一丁目","koaza":"","lat":42.962372,"lng":144.445364,"zip":"0850804"},{"town":"白樺台二丁目","koaza":"","lat":42.959246,"lng":144.443756,"zip":"0850804"},{"town":"白樺台三丁目","koaza":"","lat":42.96181,"lng":144.448357,"zip":"0850804"},{"town":"白樺台四丁目","koaza":"","lat":42.958256,"lng":144.448909,"zip":"0850804"},{"town":"白樺台五丁目","koaza":"","lat":42.961738,"lng":144.452059,"zip":"0850804"},{"town":"白樺台六丁目","koaza":"","lat":42.958158,"lng":144.453634,"zip":"0850804"},{"town":"白樺台七丁目","koaza":"","lat":42.96197,"lng":144.4538,"zip":"0850804"},{"town":"知人町","koaza":"","lat":42.971611,"lng":144.367863,"zip":"0850844"},{"town":"白金町","koaza":"","lat":42.993114,"lng":144.377524,"zip":"0850034"},{"town":"城山一丁目","koaza":"","lat":42.982965,"lng":144.394908,"zip":"0850826"},{"town":"城山二丁目","koaza":"","lat":42.981938,"lng":144.401665,"zip":"0850826"},{"town":"新栄町","koaza":"","lat":42.999064,"lng":144.38199,"zip":"0850032"},{"town":"新川町","koaza":"","lat":43.002796,"lng":144.374397,"zip":"0850047"},{"town":"新釧路町","koaza":"","lat":42.992039,"lng":144.396392,"zip":"0850002"},{"town":"新富町","koaza":"","lat":42.991161,"lng":144.388235,"zip":"0850004"},{"town":"新橋大通一丁目","koaza":"","lat":43.002543,"lng":144.378605,"zip":"0850046"},{"town":"新橋大通二丁目","koaza":"","lat":43.003859,"lng":144.377779,"zip":"0850046"},{"town":"新橋大通三丁目","koaza":"","lat":43.004365,"lng":144.376321,"zip":"0850046"},{"town":"新橋大通四丁目","koaza":"","lat":43.0048,"lng":144.374893,"zip":"0850046"},{"town":"新橋大通五丁目","koaza":"","lat":43.005232,"lng":144.373475,"zip":"0850046"},{"town":"新橋大通六丁目","koaza":"","lat":43.005663,"lng":144.372066,"zip":"0850046"},{"town":"新橋大通七丁目","koaza":"","lat":43.00606,"lng":144.370736,"zip":"0850046"},{"town":"新橋大通八丁目","koaza":"","lat":43.006524,"lng":144.369121,"zip":"0850046"},{"town":"新橋大通九丁目","koaza":"","lat":43.007168,"lng":144.367162,"zip":"0850046"},{"town":"新富士町一丁目","koaza":"","lat":43.001091,"lng":144.358958,"zip":"0840904"},{"town":"新富士町二丁目","koaza":"","lat":43.002212,"lng":144.354979,"zip":"0840904"},{"town":"新富士町三丁目","koaza":"","lat":43.003233,"lng":144.351896,"zip":"0840904"},{"town":"新富士町四丁目","koaza":"","lat":43.004254,"lng":144.347618,"zip":"0840904"},{"town":"新富士町五丁目","koaza":"","lat":43.005638,"lng":144.342691,"zip":"0840904"},{"town":"新富士町六丁目","koaza":"","lat":43.006259,"lng":144.338044,"zip":"0840904"},{"town":"末広町十丁目","koaza":"","lat":42.987454,"lng":144.385134,"zip":"0850014"},{"town":"末広町十一丁目","koaza":"","lat":42.988034,"lng":144.384956,"zip":"0850014"},{"town":"末広町十二丁目","koaza":"","lat":42.9886,"lng":144.384762,"zip":"0850014"},{"town":"末広町十三丁目","koaza":"","lat":42.989067,"lng":144.384618,"zip":"0850014"},{"town":"末広町十四丁目","koaza":"","lat":42.989662,"lng":144.384595,"zip":"0850014"},{"town":"末広町一丁目","koaza":"","lat":42.981761,"lng":144.386985,"zip":"0850014"},{"town":"末広町二丁目","koaza":"","lat":42.982589,"lng":144.386717,"zip":"0850014"},{"town":"末広町三丁目","koaza":"","lat":42.983242,"lng":144.386492,"zip":"0850014"},{"town":"末広町四丁目","koaza":"","lat":42.983777,"lng":144.386331,"zip":"0850014"},{"town":"末広町五丁目","koaza":"","lat":42.98443,"lng":144.386108,"zip":"0850014"},{"town":"末広町六丁目","koaza":"","lat":42.985057,"lng":144.385907,"zip":"0850014"},{"town":"末広町七丁目","koaza":"","lat":42.985714,"lng":144.385702,"zip":"0850014"},{"town":"末広町八丁目","koaza":"","lat":42.986351,"lng":144.385498,"zip":"0850014"},{"town":"末広町九丁目","koaza":"","lat":42.986844,"lng":144.38574,"zip":"0850014"},{"town":"住之江町","koaza":"","lat":43.005018,"lng":144.368196,"zip":"0850045"},{"town":"住吉一丁目","koaza":"","lat":42.978299,"lng":144.392178,"zip":"0850831"},{"town":"住吉二丁目","koaza":"","lat":42.978957,"lng":144.395039,"zip":"0850831"},{"town":"高山","koaza":"","lat":42.9655,"lng":144.463982,"zip":"0850807"},{"town":"宝町","koaza":"","lat":42.99562,"lng":144.366207,"zip":"0850025"},{"town":"千歳町","koaza":"","lat":42.974292,"lng":144.396191,"zip":"0850825"},{"town":"千代ノ浦","koaza":"","lat":42.967676,"lng":144.393542,"zip":"0850823"},{"town":"鶴丘","koaza":"","lat":43.047344,"lng":144.210174,"zip":"0840926"},{"town":"鶴ケ岱一丁目","koaza":"","lat":42.978721,"lng":144.398323,"zip":"0850821"},{"town":"鶴ケ岱二丁目","koaza":"","lat":42.978499,"lng":144.401734,"zip":"0850821"},{"town":"鶴ケ岱三丁目","koaza":"","lat":42.980543,"lng":144.408629,"zip":"0850821"},{"town":"鶴野","koaza":"","lat":43.036767,"lng":144.308063,"zip":"0840924"},{"town":"鶴野東一丁目","koaza":"","lat":43.020789,"lng":144.325516,"zip":"0840923"},{"town":"鶴野東二丁目","koaza":"","lat":43.019892,"lng":144.319186,"zip":"0840923"},{"town":"鶴野東三丁目","koaza":"","lat":43.021787,"lng":144.320109,"zip":"0840923"},{"town":"鶴野東四丁目","koaza":"","lat":43.024816,"lng":144.322959,"zip":"0840923"},{"town":"鶴野東五丁目","koaza":"","lat":43.023938,"lng":144.326209,"zip":"0840923"},{"town":"鳥取大通一丁目","koaza":"","lat":43.007964,"lng":144.364104,"zip":"0840906"},{"town":"鳥取大通二丁目","koaza":"","lat":43.010057,"lng":144.361551,"zip":"0840906"},{"town":"鳥取大通三丁目","koaza":"","lat":43.012689,"lng":144.357263,"zip":"0840906"},{"town":"鳥取大通四丁目","koaza":"","lat":43.013727,"lng":144.35117,"zip":"0840906"},{"town":"鳥取大通五丁目","koaza":"","lat":43.014759,"lng":144.346118,"zip":"0840906"},{"town":"鳥取大通六丁目","koaza":"","lat":43.015532,"lng":144.342351,"zip":"0840906"},{"town":"鳥取大通七丁目","koaza":"","lat":43.016161,"lng":144.33915,"zip":"0840906"},{"town":"鳥取大通八丁目","koaza":"","lat":43.01679,"lng":144.33601,"zip":"0840906"},{"town":"鳥取大通九丁目","koaza":"","lat":43.017455,"lng":144.332351,"zip":"0840906"},{"town":"鳥取北十丁目","koaza":"","lat":43.02266,"lng":144.328835,"zip":"0840907"},{"town":"鳥取北三丁目","koaza":"","lat":43.016029,"lng":144.357068,"zip":"0840907"},{"town":"鳥取北四丁目","koaza":"","lat":43.016837,"lng":144.352355,"zip":"0840907"},{"town":"鳥取北五丁目","koaza":"","lat":43.017922,"lng":144.347343,"zip":"0840907"},{"town":"鳥取北六丁目","koaza":"","lat":43.018805,"lng":144.343598,"zip":"0840907"},{"town":"鳥取北七丁目","koaza":"","lat":43.019457,"lng":144.340774,"zip":"0840907"},{"town":"鳥取北八丁目","koaza":"","lat":43.020276,"lng":144.337676,"zip":"0840907"},{"town":"鳥取北九丁目","koaza":"","lat":43.021719,"lng":144.333061,"zip":"0840907"},{"town":"鳥取南二丁目","koaza":"","lat":43.005928,"lng":144.356608,"zip":"0840905"},{"town":"鳥取南三丁目","koaza":"","lat":43.009788,"lng":144.354552,"zip":"0840905"},{"town":"鳥取南四丁目","koaza":"","lat":43.009215,"lng":144.349463,"zip":"0840905"},{"town":"鳥取南五丁目","koaza":"","lat":43.010688,"lng":144.344572,"zip":"0840905"},{"town":"鳥取南六丁目","koaza":"","lat":43.011461,"lng":144.340811,"zip":"0840905"},{"town":"鳥取南七丁目","koaza":"","lat":43.012046,"lng":144.337589,"zip":"0840905"},{"town":"鳥取南八丁目","koaza":"","lat":43.01369,"lng":144.334394,"zip":"0840905"},{"town":"豊川町","koaza":"","lat":43.008931,"lng":144.379471,"zip":"0850053"},{"town":"中島町","koaza":"","lat":42.999137,"lng":144.387296,"zip":"0850031"},{"town":"中園町","koaza":"","lat":43.006279,"lng":144.384364,"zip":"0850052"},{"town":"中鶴野","koaza":"","lat":43.030133,"lng":144.312474,"zip":"0840929"},{"town":"仲浜町","koaza":"","lat":42.991022,"lng":144.370027,"zip":"0850027"},{"town":"浪花町十丁目","koaza":"","lat":42.985887,"lng":144.376272,"zip":"0850021"},{"town":"浪花町十一丁目","koaza":"","lat":42.986474,"lng":144.376079,"zip":"0850021"},{"town":"浪花町十二丁目","koaza":"","lat":42.98741,"lng":144.375984,"zip":"0850021"},{"town":"浪花町十三丁目","koaza":"","lat":42.98839,"lng":144.375445,"zip":"0850021"},{"town":"浪花町三丁目","koaza":"","lat":42.981731,"lng":144.377605,"zip":"0850021"},{"town":"浪花町四丁目","koaza":"","lat":42.982304,"lng":144.377405,"zip":"0850021"},{"town":"浪花町五丁目","koaza":"","lat":42.983018,"lng":144.377607,"zip":"0850021"},{"town":"浪花町六丁目","koaza":"","lat":42.983604,"lng":144.377446,"zip":"0850021"},{"town":"浪花町七丁目","koaza":"","lat":42.984202,"lng":144.377249,"zip":"0850021"},{"town":"浪花町八丁目","koaza":"","lat":42.984714,"lng":144.376634,"zip":"0850021"},{"town":"浪花町九丁目","koaza":"","lat":42.985298,"lng":144.376451,"zip":"0850021"},{"town":"新野","koaza":"","lat":43.027138,"lng":144.237267,"zip":"0840925"},{"town":"錦町二丁目","koaza":"","lat":42.981911,"lng":144.383256,"zip":"0850016"},{"town":"錦町三丁目","koaza":"","lat":42.982633,"lng":144.382897,"zip":"0850016"},{"town":"錦町四丁目","koaza":"","lat":42.983233,"lng":144.3827,"zip":"0850016"},{"town":"錦町五丁目","koaza":"","lat":42.983841,"lng":144.382511,"zip":"0850016"},{"town":"西港一丁目","koaza":"","lat":42.998985,"lng":144.349233,"zip":"0840914"},{"town":"西港二丁目","koaza":"","lat":42.999896,"lng":144.333323,"zip":"0840914"},{"town":"西港三丁目","koaza":"","lat":43.000934,"lng":144.325603,"zip":"0840914"},{"town":"西港四丁目","koaza":"","lat":43.001118,"lng":144.317207,"zip":"0840914"},{"town":"幣舞町","koaza":"","lat":42.978763,"lng":144.387029,"zip":"0850836"},{"town":"花園町","koaza":"","lat":43.001284,"lng":144.386151,"zip":"0850038"},{"town":"浜町","koaza":"","lat":42.994072,"lng":144.364395,"zip":"0850024"},{"town":"春採一丁目","koaza":"","lat":42.970158,"lng":144.400351,"zip":"0850813"},{"town":"春採二丁目","koaza":"","lat":42.966173,"lng":144.401793,"zip":"0850813"},{"town":"春採三丁目","koaza":"","lat":42.973538,"lng":144.408306,"zip":"0850813"},{"town":"春採四丁目","koaza":"","lat":42.966212,"lng":144.409259,"zip":"0850813"},{"town":"春採五丁目","koaza":"","lat":42.972792,"lng":144.415269,"zip":"0850813"},{"town":"春採六丁目","koaza":"","lat":42.968078,"lng":144.414018,"zip":"0850813"},{"town":"春採七丁目","koaza":"","lat":42.978059,"lng":144.41655,"zip":"0850813"},{"town":"春採八丁目","koaza":"","lat":42.972858,"lng":144.426703,"zip":"0850813"},{"town":"東川町","koaza":"","lat":43.011837,"lng":144.373578,"zip":"0850056"},{"town":"広里","koaza":"","lat":43.045086,"lng":144.404249,"zip":"0850064"},{"town":"富士見一丁目","koaza":"","lat":42.977939,"lng":144.388759,"zip":"0850832"},{"town":"富士見二丁目","koaza":"","lat":42.975588,"lng":144.389099,"zip":"0850832"},{"town":"富士見三丁目","koaza":"","lat":42.974854,"lng":144.392054,"zip":"0850832"},{"town":"双葉町","koaza":"","lat":42.996628,"lng":144.387831,"zip":"0850006"},{"town":"文苑一丁目","koaza":"","lat":43.017593,"lng":144.38767,"zip":"0850063"},{"town":"文苑二丁目","koaza":"","lat":43.020359,"lng":144.38159,"zip":"0850063"},{"town":"文苑三丁目","koaza":"","lat":43.024388,"lng":144.384709,"zip":"0850063"},{"town":"文苑四丁目","koaza":"","lat":43.02184,"lng":144.391551,"zip":"0850063"},{"town":"古川町","koaza":"","lat":42.998514,"lng":144.401651,"zip":"0850001"},{"town":"弁天ケ浜","koaza":"","lat":42.968539,"lng":144.379772,"zip":"0850843"},{"town":"北斗","koaza":"","lat":43.065691,"lng":144.302885,"zip":"0840922"},{"town":"星が浦大通一丁目","koaza":"","lat":43.016073,"lng":144.327825,"zip":"0840912"},{"town":"星が浦大通二丁目","koaza":"","lat":43.015047,"lng":144.322208,"zip":"0840912"},{"town":"星が浦大通三丁目","koaza":"","lat":43.014177,"lng":144.316214,"zip":"0840912"},{"town":"星が浦大通四丁目","koaza":"","lat":43.013685,"lng":144.310277,"zip":"0840912"},{"town":"星が浦大通五丁目","koaza":"","lat":43.01279,"lng":144.304302,"zip":"0840912"},{"town":"星が浦北一丁目","koaza":"","lat":43.018911,"lng":144.326248,"zip":"0840911"},{"town":"星が浦北二丁目","koaza":"","lat":43.018205,"lng":144.321144,"zip":"0840911"},{"town":"星が浦北三丁目","koaza":"","lat":43.017659,"lng":144.315215,"zip":"0840911"},{"town":"星が浦北四丁目","koaza":"","lat":43.016927,"lng":144.309359,"zip":"0840911"},{"town":"星が浦北五丁目","koaza":"","lat":43.01632,"lng":144.304517,"zip":"0840911"},{"town":"星が浦南一丁目","koaza":"","lat":43.009794,"lng":144.332936,"zip":"0840913"},{"town":"星が浦南二丁目","koaza":"","lat":43.009579,"lng":144.325988,"zip":"0840913"},{"town":"星が浦南三丁目","koaza":"","lat":43.00998,"lng":144.317438,"zip":"0840913"},{"town":"星が浦南四丁目","koaza":"","lat":43.005116,"lng":144.328915,"zip":"0840913"},{"town":"星が浦南五丁目","koaza":"","lat":43.00746,"lng":144.313812,"zip":"0840913"},{"town":"星が浦南六丁目","koaza":"","lat":43.00776,"lng":144.304392,"zip":"0840913"},{"town":"堀川町","koaza":"","lat":42.996367,"lng":144.394461,"zip":"0850007"},{"town":"益浦一丁目","koaza":"","lat":42.956723,"lng":144.428314,"zip":"0850803"},{"town":"益浦二丁目","koaza":"","lat":42.955094,"lng":144.421976,"zip":"0850803"},{"town":"益浦三丁目","koaza":"","lat":42.954057,"lng":144.429228,"zip":"0850803"},{"town":"益浦四丁目","koaza":"","lat":42.954486,"lng":144.437835,"zip":"0850803"},{"town":"松浦町","koaza":"","lat":42.994064,"lng":144.38868,"zip":"0850005"},{"town":"三津浦","koaza":"","lat":42.947643,"lng":144.472958,"zip":"0850801"},{"town":"緑ケ岡一丁目","koaza":"","lat":42.98528,"lng":144.403931,"zip":"0850814"},{"town":"緑ケ岡二丁目","koaza":"","lat":42.99015,"lng":144.40645,"zip":"0850814"},{"town":"緑ケ岡三丁目","koaza":"","lat":42.983061,"lng":144.40917,"zip":"0850814"},{"town":"緑ケ岡四丁目","koaza":"","lat":42.988862,"lng":144.411851,"zip":"0850814"},{"town":"緑ケ岡五丁目","koaza":"","lat":42.982234,"lng":144.415784,"zip":"0850814"},{"town":"緑ケ岡六丁目","koaza":"","lat":42.987601,"lng":144.416516,"zip":"0850814"},{"town":"港町","koaza":"","lat":42.977231,"lng":144.373409,"zip":"0850845"},{"town":"南大通一丁目","koaza":"","lat":42.979243,"lng":144.384713,"zip":"0850841"},{"town":"南大通二丁目","koaza":"","lat":42.978499,"lng":144.383809,"zip":"0850841"},{"town":"南大通三丁目","koaza":"","lat":42.977842,"lng":144.382536,"zip":"0850841"},{"town":"南大通四丁目","koaza":"","lat":42.97736,"lng":144.38106,"zip":"0850841"},{"town":"南大通五丁目","koaza":"","lat":42.976842,"lng":144.37954,"zip":"0850841"},{"town":"南大通六丁目","koaza":"","lat":42.9761,"lng":144.37771,"zip":"0850841"},{"town":"南大通七丁目","koaza":"","lat":42.975285,"lng":144.376131,"zip":"0850841"},{"town":"南大通八丁目","koaza":"","lat":42.974468,"lng":144.374774,"zip":"0850841"},{"town":"南浜町","koaza":"","lat":42.984025,"lng":144.373584,"zip":"0850022"},{"town":"美濃","koaza":"","lat":43.081936,"lng":144.276659,"zip":"0840921"},{"town":"美原一丁目","koaza":"","lat":43.017729,"lng":144.406434,"zip":"0850065"},{"town":"美原二丁目","koaza":"","lat":43.021247,"lng":144.400959,"zip":"0850065"},{"town":"美原三丁目","koaza":"","lat":43.026278,"lng":144.405049,"zip":"0850065"},{"town":"美原四丁目","koaza":"","lat":43.022679,"lng":144.405463,"zip":"0850065"},{"town":"美原五丁目","koaza":"","lat":43.02199,"lng":144.413148,"zip":"0850065"},{"town":"宮本一丁目","koaza":"","lat":42.975116,"lng":144.386115,"zip":"0850833"},{"town":"宮本二丁目","koaza":"","lat":42.972234,"lng":144.386819,"zip":"0850833"},{"town":"武佐一丁目","koaza":"","lat":42.977718,"lng":144.428508,"zip":"0850806"},{"town":"武佐二丁目","koaza":"","lat":42.981062,"lng":144.425715,"zip":"0850806"},{"town":"武佐三丁目","koaza":"","lat":42.985337,"lng":144.424349,"zip":"0850806"},{"town":"武佐四丁目","koaza":"","lat":42.988989,"lng":144.428926,"zip":"0850806"},{"town":"武佐五丁目","koaza":"","lat":42.979456,"lng":144.442711,"zip":"0850806"},{"town":"安原","koaza":"","lat":43.060789,"lng":144.367638,"zip":"0850000"},{"town":"柳町","koaza":"","lat":43.004135,"lng":144.381295,"zip":"0850037"},{"town":"山花","koaza":"","lat":43.070434,"lng":144.22077,"zip":"0840928"},{"town":"弥生一丁目","koaza":"","lat":42.971308,"lng":144.383142,"zip":"0850834"},{"town":"弥生二丁目","koaza":"","lat":42.97155,"lng":144.378456,"zip":"0850834"},{"town":"米町一丁目","koaza":"","lat":42.972745,"lng":144.374003,"zip":"0850842"},{"town":"米町二丁目","koaza":"","lat":42.970598,"lng":144.373471,"zip":"0850842"},{"town":"米町三丁目","koaza":"","lat":42.969455,"lng":144.3758,"zip":"0850842"},{"town":"米町四丁目","koaza":"","lat":42.968999,"lng":144.37856,"zip":"0850842"},{"town":"若草町","koaza":"","lat":42.997894,"lng":144.371725,"zip":"0850042"},{"town":"若竹町","koaza":"","lat":42.999461,"lng":144.376338,"zip":"0850036"},{"town":"若松町","koaza":"","lat":42.992903,"lng":144.383909,"zip":"0850033"},{"town":"阿寒町チクショベツ","koaza":"","lat":43.500339,"lng":144.098796,"zip":"0850000"},{"town":"阿寒町オクルシュベ","koaza":"","lat":43.427388,"lng":144.163393,"zip":"0850468"},{"town":"阿寒町シアンヌ","koaza":"","lat":43.428398,"lng":144.138113,"zip":"0850000"},{"town":"阿寒町上舌辛","koaza":"","lat":43.135862,"lng":144.11371,"zip":"0850221"},{"town":"阿寒町上舌辛二十線","koaza":"","lat":43.139904,"lng":144.116077,"zip":"0850000"},{"town":"音別町中音別","koaza":"","lat":42.943491,"lng":143.933951,"zip":"0880102"},{"town":"音別町馬主来原野","koaza":"","lat":42.943918,"lng":143.970656,"zip":"0850000"},{"town":"音別町音別","koaza":"","lat":42.937629,"lng":143.886981,"zip":"0880104"},{"town":"音別町音別原野西五線","koaza":"","lat":42.916643,"lng":143.910843,"zip":"0850000"},{"town":"音別町音別原野西四線","koaza":"","lat":42.916038,"lng":143.913518,"zip":"0850000"},{"town":"音別町尺別原野東二線","koaza":"","lat":42.874096,"lng":143.909832,"zip":"0850000"},{"town":"音別町尺別原野東一線","koaza":"","lat":42.877302,"lng":143.896393,"zip":"0850000"},{"town":"音別町尺別原野基線","koaza":"","lat":42.876576,"lng":143.889266,"zip":"0850000"},{"town":"音別町尺別原野西一線","koaza":"","lat":42.878411,"lng":143.879281,"zip":"0850000"},{"town":"音別町直別原野東四線","koaza":"","lat":42.867386,"lng":143.870633,"zip":"0850000"},{"town":"音別町直別原野西一線","koaza":"","lat":42.853098,"lng":143.850086,"zip":"0850000"},{"town":"音別町直別","koaza":"","lat":42.865006,"lng":143.851052,"zip":"0880135"},{"town":"音別町直別原野基線","koaza":"","lat":42.855522,"lng":143.852459,"zip":"0850000"},{"town":"音別町直別原野東一線","koaza":"","lat":42.857869,"lng":143.853893,"zip":"0850000"},{"town":"音別町直別裏通","koaza":"","lat":42.853697,"lng":143.863541,"zip":"0850000"},{"town":"音別町直別停車場通","koaza":"","lat":42.852576,"lng":143.86255,"zip":"0850000"},{"town":"音別町直別仲通","koaza":"","lat":42.853124,"lng":143.862915,"zip":"0850000"},{"town":"音別町音別原野第二基線","koaza":"","lat":42.969342,"lng":143.850542,"zip":"0850000"},{"town":"音別町ムリ原野第二基線","koaza":"","lat":42.973621,"lng":143.778549,"zip":"0850000"},{"town":"音別町ムリ原野西一線","koaza":"","lat":42.974549,"lng":143.786505,"zip":"0850000"},{"town":"音別町ムリ原野基線","koaza":"","lat":42.969447,"lng":143.792571,"zip":"0850000"},{"town":"音別町シベツ川右岸","koaza":"","lat":42.947063,"lng":143.803603,"zip":"0850000"},{"town":"音別町ムリ","koaza":"","lat":42.951693,"lng":143.815713,"zip":"0880105"},{"town":"音別町尺別","koaza":"","lat":42.895213,"lng":143.854373,"zip":"0880133"},{"town":"音別町尺別原野","koaza":"","lat":42.885452,"lng":143.875781,"zip":"0850000"},{"town":"音別町チャンベツ","koaza":"","lat":43.014294,"lng":143.823877,"zip":"0850000"},{"town":"音別町ヌプキベツ原野西二線","koaza":"","lat":43.023486,"lng":143.82952,"zip":"0850000"},{"town":"音別町ヌプキベツ原野基線","koaza":"","lat":43.016494,"lng":143.842439,"zip":"0850000"},{"town":"音別町ヌプキベツ原野西一線","koaza":"","lat":43.020682,"lng":143.833282,"zip":"0850000"},{"town":"音別町ダンネナイ","koaza":"","lat":43.019298,"lng":143.852908,"zip":"0850000"},{"town":"音別町カラマンベツ","koaza":"","lat":43.052147,"lng":143.91428,"zip":"0850000"},{"town":"音別町音別原野東三線","koaza":"","lat":43.056674,"lng":143.900585,"zip":"0850000"},{"town":"音別町音別原野東二線","koaza":"","lat":43.052403,"lng":143.899845,"zip":"0850000"},{"town":"音別町音別原野西二線","koaza":"","lat":43.003435,"lng":143.86926,"zip":"0850000"},{"town":"音別町音別原野西一線","koaza":"","lat":43.022109,"lng":143.865227,"zip":"0850000"},{"town":"音別町音別原野基線","koaza":"","lat":43.012674,"lng":143.880033,"zip":"0880104"},{"town":"音別町チャンベツ右岸","koaza":"","lat":43.002629,"lng":143.879439,"zip":"0850000"},{"town":"阿寒町シュリコマベツ","koaza":"","lat":43.423547,"lng":144.088424,"zip":"0850000"},{"town":"阿寒町ルベシベ","koaza":"","lat":43.329351,"lng":144.136311,"zip":"0850000"},{"town":"阿寒町ワツカタンネナイ","koaza":"","lat":43.373647,"lng":144.132056,"zip":"0850000"},{"town":"音別町音別原野東一線","koaza":"","lat":43.048987,"lng":143.897539,"zip":"0850000"},{"town":"音別町音別原野北一線","koaza":"","lat":43.028973,"lng":143.870652,"zip":"0850000"},{"town":"音別町直別原野東三線","koaza":"","lat":42.863267,"lng":143.869277,"zip":"0850000"},{"town":"音別町直別原野東二線","koaza":"","lat":42.860868,"lng":143.866644,"zip":"0850000"}]