[{"town":"字アトコシヤラカ","koaza":"","lat":43.092401,"lng":144.306244,"zip":"0851200"},{"town":"字温根内","koaza":"","lat":43.115181,"lng":144.313039,"zip":"0851200"},{"town":"字上久著呂","koaza":"","lat":43.404834,"lng":144.27787,"zip":"0851200"},{"town":"字久著呂原野","koaza":"","lat":43.243671,"lng":144.364645,"zip":"0851200"},{"town":"字久著呂太","koaza":"","lat":43.122712,"lng":144.408363,"zip":"0851200"},{"town":"字支雪裡","koaza":"","lat":43.353394,"lng":144.273266,"zip":"0851200"},{"town":"字下久著呂","koaza":"","lat":43.190173,"lng":144.411972,"zip":"0851200"},{"town":"字下雪裡","koaza":"","lat":43.177142,"lng":144.343605,"zip":"0851200"},{"town":"字新幌呂","koaza":"","lat":43.290372,"lng":144.19774,"zip":"0851200"},{"town":"字雪裡原野","koaza":"","lat":43.376214,"lng":144.204143,"zip":"0851200"},{"town":"字中久著呂","koaza":"","lat":43.308748,"lng":144.352436,"zip":"0851200"},{"town":"字中雪裡","koaza":"","lat":43.139921,"lng":144.317695,"zip":"0851200"},{"town":"字幌呂","koaza":"","lat":43.257986,"lng":144.225395,"zip":"0851200"},{"town":"字幌呂原野","koaza":"","lat":43.321418,"lng":144.176472,"zip":"0851200"},{"town":"字茂雪裡","koaza":"","lat":43.296631,"lng":144.260847,"zip":"0851200"},{"town":"鶴居北一丁目","koaza":"","lat":43.240254,"lng":144.322853,"zip":"0851201"},{"town":"鶴居北二丁目","koaza":"","lat":43.239291,"lng":144.316015,"zip":"0851201"},{"town":"鶴居北三丁目","koaza":"","lat":43.240814,"lng":144.317748,"zip":"0851201"},{"town":"鶴居西十丁目","koaza":"","lat":43.234433,"lng":144.315864,"zip":"0851203"},{"town":"鶴居西十一丁目","koaza":"","lat":43.236521,"lng":144.316783,"zip":"0851203"},{"town":"鶴居西一丁目","koaza":"","lat":43.230517,"lng":144.32144,"zip":"0851203"},{"town":"鶴居西二丁目","koaza":"","lat":43.232881,"lng":144.32246,"zip":"0851203"},{"town":"鶴居西三丁目","koaza":"","lat":43.23486,"lng":144.323338,"zip":"0851203"},{"town":"鶴居西四丁目","koaza":"","lat":43.237982,"lng":144.32452,"zip":"0851203"},{"town":"鶴居西五丁目","koaza":"","lat":43.231272,"lng":144.318182,"zip":"0851203"},{"town":"鶴居西六丁目","koaza":"","lat":43.233639,"lng":144.319196,"zip":"0851203"},{"town":"鶴居西七丁目","koaza":"","lat":43.236322,"lng":144.319918,"zip":"0851203"},{"town":"鶴居西八丁目","koaza":"","lat":43.237694,"lng":144.321616,"zip":"0851203"},{"town":"鶴居西九丁目","koaza":"","lat":43.232065,"lng":144.314833,"zip":"0851203"},{"town":"鶴居東一丁目","koaza":"","lat":43.230049,"lng":144.323502,"zip":"0851206"},{"town":"鶴居東二丁目","koaza":"","lat":43.232412,"lng":144.324553,"zip":"0851206"},{"town":"鶴居東三丁目","koaza":"","lat":43.234083,"lng":144.326623,"zip":"0851206"},{"town":"鶴居東四丁目","koaza":"","lat":43.236765,"lng":144.326571,"zip":"0851206"},{"town":"鶴居東五丁目","koaza":"","lat":43.229281,"lng":144.32678,"zip":"0851206"},{"town":"鶴居東六丁目","koaza":"","lat":43.231643,"lng":144.327829,"zip":"0851206"},{"town":"鶴居東七丁目","koaza":"","lat":43.234251,"lng":144.330239,"zip":"0851206"},{"town":"鶴居東八丁目","koaza":"","lat":43.236449,"lng":144.330168,"zip":"0851206"},{"town":"鶴居南一丁目","koaza":"","lat":43.228666,"lng":144.318159,"zip":"0851204"},{"town":"鶴居南二丁目","koaza":"","lat":43.226278,"lng":144.317104,"zip":"0851204"},{"town":"鶴居南三丁目","koaza":"","lat":43.226115,"lng":144.321759,"zip":"0851204"},{"town":"鶴居南四丁目","koaza":"","lat":43.226904,"lng":144.325729,"zip":"0851204"},{"town":"鶴居南五丁目","koaza":"","lat":43.224503,"lng":144.32467,"zip":"0851204"},{"town":"幌呂西一丁目","koaza":"","lat":43.190095,"lng":144.262413,"zip":"0851141"},{"town":"幌呂西二丁目","koaza":"","lat":43.194745,"lng":144.260372,"zip":"0851141"},{"town":"幌呂西三丁目","koaza":"","lat":43.196817,"lng":144.262149,"zip":"0851141"},{"town":"幌呂西四丁目","koaza":"","lat":43.198657,"lng":144.261478,"zip":"0851141"},{"town":"幌呂西五丁目","koaza":"","lat":43.197796,"lng":144.259362,"zip":"0851141"},{"town":"幌呂西六丁目","koaza":"","lat":43.200179,"lng":144.261047,"zip":"0851141"},{"town":"幌呂西七丁目","koaza":"","lat":43.202511,"lng":144.263761,"zip":"0851141"},{"town":"幌呂東一丁目","koaza":"","lat":43.188176,"lng":144.266053,"zip":"0851142"},{"town":"幌呂東二丁目","koaza":"","lat":43.192631,"lng":144.263959,"zip":"0851142"},{"town":"幌呂東三丁目","koaza":"","lat":43.196407,"lng":144.264592,"zip":"0851142"},{"town":"幌呂東四丁目","koaza":"","lat":43.19956,"lng":144.264164,"zip":"0851142"}]