[{"town":"第十町内","koaza":"","lat":43.651347,"lng":141.885971,"zip":"0782600"},{"town":"字満寿","koaza":"","lat":43.661463,"lng":141.892928,"zip":"0782600"},{"town":"第一町内","koaza":"","lat":43.635826,"lng":141.880639,"zip":"0782600"},{"town":"字尾白利加","koaza":"","lat":43.62724,"lng":141.877733,"zip":"0782600"},{"town":"第七町内","koaza":"","lat":43.652105,"lng":141.894443,"zip":"0782600"},{"town":"第九町内","koaza":"","lat":43.648407,"lng":141.889049,"zip":"0782600"},{"town":"第八町内","koaza":"","lat":43.644744,"lng":141.888333,"zip":"0782600"},{"town":"字フシコウリウ","koaza":"","lat":43.644087,"lng":141.889432,"zip":"0782600"},{"town":"字伏古","koaza":"","lat":43.649256,"lng":141.904008,"zip":"0782600"},{"town":"字中島","koaza":"","lat":43.668897,"lng":141.905893,"zip":"0782600"},{"town":"第二町内","koaza":"","lat":43.657876,"lng":141.903515,"zip":"0782600"},{"town":"第六町内","koaza":"","lat":43.701329,"lng":141.90204,"zip":"0782600"},{"town":"第十一町内","koaza":"","lat":43.677938,"lng":141.892071,"zip":"0782600"},{"town":"字面白内","koaza":"","lat":43.696294,"lng":141.902886,"zip":"0782600"},{"town":"字渭の津","koaza":"","lat":43.7079,"lng":141.900074,"zip":"0782600"},{"town":"第四町内","koaza":"","lat":43.668937,"lng":141.876113,"zip":"0782600"},{"town":"字洲本","koaza":"","lat":43.684952,"lng":141.873418,"zip":"0782600"},{"town":"第五町内","koaza":"","lat":43.695181,"lng":141.867109,"zip":"0782600"},{"town":"字桂の沢","koaza":"","lat":43.707278,"lng":141.824339,"zip":"0782600"},{"town":"字恵岱別","koaza":"","lat":43.710961,"lng":141.811293,"zip":"0782600"},{"town":"字鴨居沢","koaza":"","lat":43.715422,"lng":141.797252,"zip":"0782600"},{"town":"字十六万坪","koaza":"","lat":43.671882,"lng":141.791,"zip":"0782600"},{"town":"第三町内","koaza":"","lat":43.668934,"lng":141.848474,"zip":"0782600"},{"town":"字国領","koaza":"","lat":43.688352,"lng":141.693795,"zip":"0782600"},{"town":"字上尾白利加","koaza":"","lat":43.700141,"lng":141.721467,"zip":"0782600"},{"town":"字上オシラリカ原野","koaza":"","lat":43.694233,"lng":141.703472,"zip":"0782600"}]