[{"town":"字浅野","koaza":"","lat":43.932879,"lng":141.918184,"zip":"0782200"},{"town":"字旭町","koaza":"","lat":43.802218,"lng":141.941431,"zip":"0782200"},{"town":"字恵比島","koaza":"","lat":43.849272,"lng":141.882057,"zip":"0782200"},{"town":"字共成","koaza":"","lat":43.819272,"lng":142.001247,"zip":"0782200"},{"town":"字更新","koaza":"","lat":43.871462,"lng":142.010706,"zip":"0782200"},{"town":"字昭和","koaza":"","lat":43.970292,"lng":141.98092,"zip":"0782200"},{"town":"字高穂","koaza":"","lat":43.81371,"lng":141.970969,"zip":"0782200"},{"town":"字東予","koaza":"","lat":43.853595,"lng":142.05613,"zip":"0782200"},{"town":"字沼田","koaza":"","lat":43.815709,"lng":141.940075,"zip":"0782200"},{"town":"旭町一丁目","koaza":"","lat":43.810745,"lng":141.937924,"zip":"0782201"},{"town":"旭町二丁目","koaza":"","lat":43.807202,"lng":141.94087,"zip":"0782201"},{"town":"旭町三丁目","koaza":"","lat":43.808106,"lng":141.944249,"zip":"0782201"},{"town":"旭町四丁目","koaza":"","lat":43.809252,"lng":141.947784,"zip":"0782201"},{"town":"字北竜","koaza":"","lat":43.800015,"lng":141.892326,"zip":"0782200"},{"town":"字幌新","koaza":"","lat":43.897717,"lng":141.928816,"zip":"0782200"},{"town":"字真布","koaza":"","lat":43.886988,"lng":141.963143,"zip":"0782200"},{"town":"北一条三丁目","koaza":"","lat":43.810332,"lng":141.933651,"zip":"0782205"},{"town":"北一条四丁目","koaza":"","lat":43.81061,"lng":141.931359,"zip":"0782205"},{"town":"北一条五丁目","koaza":"","lat":43.811155,"lng":141.928917,"zip":"0782205"},{"town":"北一条六丁目","koaza":"","lat":43.80922,"lng":141.927391,"zip":"0782205"},{"town":"西町","koaza":"","lat":43.807242,"lng":141.922426,"zip":"0782204"},{"town":"本通一丁目","koaza":"","lat":43.808992,"lng":141.936416,"zip":"0782203"},{"town":"本通二丁目","koaza":"","lat":43.809185,"lng":141.935225,"zip":"0782203"},{"town":"本通三丁目","koaza":"","lat":43.808629,"lng":141.933614,"zip":"0782203"},{"town":"本通四丁目","koaza":"","lat":43.808446,"lng":141.931769,"zip":"0782203"},{"town":"本通五丁目","koaza":"","lat":43.808276,"lng":141.930146,"zip":"0782203"},{"town":"本通六丁目","koaza":"","lat":43.808265,"lng":141.92756,"zip":"0782203"},{"town":"緑町","koaza":"","lat":43.812754,"lng":141.932721,"zip":"0782206"},{"town":"南一条一丁目","koaza":"","lat":43.806232,"lng":141.938198,"zip":"0782202"},{"town":"南一条二丁目","koaza":"","lat":43.806014,"lng":141.935825,"zip":"0782202"},{"town":"南一条三丁目","koaza":"","lat":43.805725,"lng":141.933937,"zip":"0782202"},{"town":"南一条四丁目","koaza":"","lat":43.805625,"lng":141.93171,"zip":"0782202"},{"town":"南一条五丁目","koaza":"","lat":43.807022,"lng":141.930449,"zip":"0782202"},{"town":"南一条六丁目","koaza":"","lat":43.806036,"lng":141.928197,"zip":"0782202"},{"town":"南一条七丁目","koaza":"","lat":43.806023,"lng":141.924926,"zip":"0782202"}]