[{"town":"一条","koaza":"","lat":43.76061,"lng":141.948756,"zip":"0782100"},{"town":"二条","koaza":"","lat":43.76497,"lng":141.939128,"zip":"0782100"},{"town":"三条","koaza":"","lat":43.770224,"lng":141.940187,"zip":"0782100"},{"town":"四条","koaza":"","lat":43.775324,"lng":141.943655,"zip":"0782100"},{"town":"五条","koaza":"","lat":43.780732,"lng":141.957656,"zip":"0782100"},{"town":"六条","koaza":"","lat":43.786491,"lng":141.954026,"zip":"0782100"},{"town":"七条","koaza":"","lat":43.792056,"lng":141.956614,"zip":"0782100"},{"town":"八条","koaza":"","lat":43.798088,"lng":141.955229,"zip":"0782100"},{"town":"九条","koaza":"","lat":43.804614,"lng":141.965231,"zip":"0782100"},{"town":"字一已","koaza":"","lat":43.756417,"lng":141.996152,"zip":"0782100"},{"town":"字オーホ","koaza":"","lat":43.748866,"lng":141.960313,"zip":"0782100"},{"town":"字滝の上","koaza":"","lat":43.804953,"lng":141.995203,"zip":"0782100"},{"town":"字中山","koaza":"","lat":43.783932,"lng":141.998768,"zip":"0782100"},{"town":"字東山","koaza":"","lat":43.796198,"lng":141.9831,"zip":"0782100"},{"town":"字南山","koaza":"","lat":43.773792,"lng":141.980638,"zip":"0782100"},{"town":"南一条","koaza":"","lat":43.754784,"lng":141.941289,"zip":"0782100"},{"town":"南二条","koaza":"","lat":43.749823,"lng":141.945655,"zip":"0782100"}]