[{"town":"青葉台","koaza":"","lat":34.380439,"lng":133.040829,"zip":"7230047"},{"town":"旭町一丁目","koaza":"","lat":34.399487,"lng":133.09041,"zip":"7230012"},{"town":"旭町二丁目","koaza":"","lat":34.3993,"lng":133.092719,"zip":"7230012"},{"town":"糸崎一丁目","koaza":"","lat":34.398355,"lng":133.098415,"zip":"7290324"},{"town":"糸崎二丁目","koaza":"","lat":34.395919,"lng":133.097628,"zip":"7290324"},{"town":"糸崎三丁目","koaza":"","lat":34.397242,"lng":133.101248,"zip":"7290324"},{"town":"糸崎四丁目","koaza":"","lat":34.393992,"lng":133.10409,"zip":"7290324"},{"town":"糸崎五丁目","koaza":"","lat":34.393444,"lng":133.109363,"zip":"7290324"},{"town":"糸崎六丁目","koaza":"","lat":34.390463,"lng":133.111934,"zip":"7290324"},{"town":"糸崎七丁目","koaza":"","lat":34.388396,"lng":133.110798,"zip":"7290324"},{"town":"糸崎八丁目","koaza":"","lat":34.385099,"lng":133.128638,"zip":"7290324"},{"town":"糸崎九丁目","koaza":"","lat":34.383369,"lng":133.115909,"zip":"7290324"},{"town":"糸崎町","koaza":"","lat":34.397927,"lng":133.112674,"zip":"7230000"},{"town":"糸崎南一丁目","koaza":"","lat":34.394269,"lng":133.096018,"zip":"7290329"},{"town":"糸崎南二丁目","koaza":"","lat":34.389634,"lng":133.106046,"zip":"7290329"},{"town":"円一町一丁目","koaza":"","lat":34.390836,"lng":133.084832,"zip":"7230015"},{"town":"円一町二丁目","koaza":"","lat":34.394631,"lng":133.077425,"zip":"7230015"},{"town":"円一町三丁目","koaza":"","lat":34.39501,"lng":133.07613,"zip":"7230015"},{"town":"円一町四丁目","koaza":"","lat":34.390331,"lng":133.076612,"zip":"7230015"},{"town":"円一町五丁目","koaza":"","lat":34.390044,"lng":133.078255,"zip":"7230015"},{"town":"大畑町","koaza":"","lat":34.422237,"lng":133.060617,"zip":"7230066"},{"town":"沖浦町","koaza":"","lat":34.368927,"lng":133.073377,"zip":"7230033"},{"town":"奥野山町","koaza":"","lat":34.398167,"lng":133.142515,"zip":"7290322"},{"town":"小坂町","koaza":"","lat":34.425327,"lng":133.019301,"zip":"7230131"},{"town":"貝野町","koaza":"","lat":34.378946,"lng":133.081836,"zip":"7230043"},{"town":"学園町","koaza":"","lat":34.39136,"lng":133.056513,"zip":"7230053"},{"town":"木原一丁目","koaza":"","lat":34.389013,"lng":133.138659,"zip":"7290321"},{"town":"木原二丁目","koaza":"","lat":34.390631,"lng":133.139823,"zip":"7290321"},{"town":"木原三丁目","koaza":"","lat":34.393686,"lng":133.146084,"zip":"7290321"},{"town":"木原四丁目","koaza":"","lat":34.392272,"lng":133.145288,"zip":"7290321"},{"town":"木原五丁目","koaza":"","lat":34.39594,"lng":133.150237,"zip":"7290321"},{"town":"木原六丁目","koaza":"","lat":34.400798,"lng":133.156967,"zip":"7290321"},{"town":"木原町","koaza":"","lat":34.403262,"lng":133.154334,"zip":"7290321"},{"town":"久井町莇原","koaza":"","lat":34.554443,"lng":133.044922,"zip":"7221301"},{"town":"久井町泉","koaza":"","lat":34.538966,"lng":133.009137,"zip":"7221411"},{"town":"久井町江木","koaza":"","lat":34.542275,"lng":133.038807,"zip":"7221304"},{"town":"久井町小林","koaza":"","lat":34.495122,"lng":133.000365,"zip":"7221417"},{"town":"久井町坂井原","koaza":"","lat":34.483367,"lng":133.037865,"zip":"7221414"},{"town":"久井町下津","koaza":"","lat":34.521516,"lng":133.046961,"zip":"7221303"},{"town":"久井町土取","koaza":"","lat":34.475529,"lng":133.022376,"zip":"7221415"},{"town":"久井町羽倉","koaza":"","lat":34.5064,"lng":133.010042,"zip":"7221413"},{"town":"久井町山中野","koaza":"","lat":34.480821,"lng":133.008415,"zip":"7221416"},{"town":"久井町吉田","koaza":"","lat":34.537893,"lng":133.069391,"zip":"7221302"},{"town":"久井町和草","koaza":"","lat":34.522433,"lng":133.020522,"zip":"7221412"},{"town":"小泉町","koaza":"","lat":34.363082,"lng":132.974855,"zip":"7292361"},{"town":"古浜一丁目","koaza":"","lat":34.398415,"lng":133.091294,"zip":"7230013"},{"town":"古浜二丁目","koaza":"","lat":34.3955,"lng":133.08965,"zip":"7230013"},{"town":"古浜三丁目","koaza":"","lat":34.395411,"lng":133.092076,"zip":"7230013"},{"town":"駒ケ原町","koaza":"","lat":34.411573,"lng":133.082451,"zip":"7230006"},{"town":"幸崎久和喜","koaza":"","lat":34.348481,"lng":133.067756,"zip":"7292251"},{"town":"幸崎町久和喜","koaza":"","lat":34.352656,"lng":133.055612,"zip":"7292251"},{"town":"幸崎町能地","koaza":"","lat":34.349787,"lng":133.048366,"zip":"7292252"},{"town":"幸崎町渡瀬","koaza":"","lat":34.353664,"lng":133.012201,"zip":"7292253"},{"town":"幸崎能地一丁目","koaza":"","lat":34.344442,"lng":133.054139,"zip":"7292252"},{"town":"幸崎能地二丁目","koaza":"","lat":34.33696,"lng":133.041209,"zip":"7292252"},{"town":"幸崎能地三丁目","koaza":"","lat":34.339844,"lng":133.036803,"zip":"7292252"},{"town":"幸崎能地四丁目","koaza":"","lat":34.334018,"lng":133.033082,"zip":"7292252"},{"town":"幸崎能地五丁目","koaza":"","lat":34.33521,"lng":133.030232,"zip":"7292252"},{"town":"幸崎能地六丁目","koaza":"","lat":34.333895,"lng":133.018579,"zip":"7292252"},{"town":"幸崎能地七丁目","koaza":"","lat":34.349146,"lng":133.034914,"zip":"7292252"},{"town":"幸崎渡瀬","koaza":"","lat":34.348242,"lng":133.0176,"zip":"7292253"},{"town":"鷺浦町須波","koaza":"","lat":34.348806,"lng":133.113839,"zip":"7230021"},{"town":"鷺浦町向田野浦","koaza":"","lat":34.331097,"lng":133.112273,"zip":"7230022"},{"town":"桜山町","koaza":"","lat":34.407001,"lng":133.084874,"zip":"7230005"},{"town":"下北方一丁目","koaza":"","lat":34.406395,"lng":132.978195,"zip":"7290414"},{"town":"下北方二丁目","koaza":"","lat":34.4086,"lng":132.975071,"zip":"7290414"},{"town":"城町一丁目","koaza":"","lat":34.399171,"lng":133.083413,"zip":"7230014"},{"town":"城町二丁目","koaza":"","lat":34.399034,"lng":133.087385,"zip":"7230014"},{"town":"城町三丁目","koaza":"","lat":34.396496,"lng":133.085381,"zip":"7230014"},{"town":"新倉一丁目","koaza":"","lat":34.393144,"lng":133.055496,"zip":"7230134"},{"town":"新倉二丁目","koaza":"","lat":34.393246,"lng":133.046073,"zip":"7230134"},{"town":"新倉三丁目","koaza":"","lat":34.396169,"lng":133.045789,"zip":"7230134"},{"town":"新倉町","koaza":"","lat":34.396563,"lng":133.050744,"zip":"7230134"},{"town":"須波一丁目","koaza":"","lat":34.367705,"lng":133.083518,"zip":"7230031"},{"town":"須波二丁目","koaza":"","lat":34.367647,"lng":133.081994,"zip":"7230031"},{"town":"須波町","koaza":"","lat":34.369665,"lng":133.079263,"zip":"7230031"},{"town":"須波西一丁目","koaza":"","lat":34.354883,"lng":133.082185,"zip":"7230032"},{"town":"須波西二丁目","koaza":"","lat":34.357819,"lng":133.078371,"zip":"7230032"},{"town":"須波西町","koaza":"","lat":34.357497,"lng":133.07249,"zip":"7230032"},{"town":"須波ハイツ一丁目","koaza":"","lat":34.347483,"lng":133.07882,"zip":"7230035"},{"town":"須波ハイツ二丁目","koaza":"","lat":34.352185,"lng":133.079005,"zip":"7230035"},{"town":"須波ハイツ三丁目","koaza":"","lat":34.347478,"lng":133.076174,"zip":"7230035"},{"town":"須波ハイツ四丁目","koaza":"","lat":34.351505,"lng":133.075439,"zip":"7230035"},{"town":"宗郷一丁目","koaza":"","lat":34.387142,"lng":133.06469,"zip":"7230044"},{"town":"宗郷二丁目","koaza":"","lat":34.384277,"lng":133.064468,"zip":"7230044"},{"town":"宗郷三丁目","koaza":"","lat":34.386773,"lng":133.059689,"zip":"7230044"},{"town":"宗郷四丁目","koaza":"","lat":34.383404,"lng":133.061556,"zip":"7230044"},{"town":"宗郷五丁目","koaza":"","lat":34.377423,"lng":133.060617,"zip":"7230044"},{"town":"宗郷町","koaza":"","lat":34.374174,"lng":133.066602,"zip":"7230000"},{"town":"大和町姥ケ原","koaza":"","lat":34.470572,"lng":132.961699,"zip":"7291212"},{"town":"大和町大具","koaza":"","lat":34.537177,"lng":132.910926,"zip":"7291323"},{"town":"大和町大草","koaza":"","lat":34.499502,"lng":132.967643,"zip":"7291211"},{"town":"大和町上草井","koaza":"","lat":34.542718,"lng":132.861701,"zip":"7291332"},{"town":"大和町上徳良","koaza":"","lat":34.533006,"lng":132.974952,"zip":"7291405"},{"town":"大和町蔵宗","koaza":"","lat":34.567162,"lng":132.899226,"zip":"7291401"},{"town":"大和町篠","koaza":"","lat":34.577598,"lng":132.923181,"zip":"7291402"},{"town":"大和町下草井","koaza":"","lat":34.54716,"lng":132.890101,"zip":"7291333"},{"town":"大和町下徳良","koaza":"","lat":34.542646,"lng":132.939475,"zip":"7291406"},{"town":"大和町萩原","koaza":"","lat":34.566439,"lng":132.948128,"zip":"7291403"},{"town":"大和町箱川","koaza":"","lat":34.499949,"lng":132.9022,"zip":"7291322"},{"town":"大和町平坂","koaza":"","lat":34.477955,"lng":132.941913,"zip":"7291213"},{"town":"大和町福田","koaza":"","lat":34.560269,"lng":132.970363,"zip":"7291404"},{"town":"大和町椋梨","koaza":"","lat":34.527096,"lng":132.882404,"zip":"7291331"},{"town":"大和町和木","koaza":"","lat":34.500309,"lng":132.916759,"zip":"7291321"},{"town":"高坂町真良","koaza":"","lat":34.441338,"lng":132.998571,"zip":"7290472"},{"town":"高坂町許山","koaza":"","lat":34.455145,"lng":133.030633,"zip":"7290471"},{"town":"田野浦一丁目","koaza":"","lat":34.381381,"lng":133.04675,"zip":"7230045"},{"town":"田野浦二丁目","koaza":"","lat":34.381514,"lng":133.044792,"zip":"7230045"},{"town":"田野浦三丁目","koaza":"","lat":34.375975,"lng":133.040856,"zip":"7230045"},{"town":"田野浦町","koaza":"","lat":34.371668,"lng":133.046788,"zip":"7230000"},{"town":"長谷一丁目","koaza":"","lat":34.397713,"lng":133.033212,"zip":"7230132"},{"town":"長谷二丁目","koaza":"","lat":34.405085,"lng":133.026978,"zip":"7230132"},{"town":"長谷三丁目","koaza":"","lat":34.399335,"lng":133.027732,"zip":"7230132"},{"town":"長谷四丁目","koaza":"","lat":34.403497,"lng":133.019365,"zip":"7230132"},{"town":"長谷五丁目","koaza":"","lat":34.401533,"lng":133.017889,"zip":"7230132"},{"town":"長谷町","koaza":"","lat":34.406042,"lng":133.034347,"zip":"7230132"},{"town":"中之町一丁目","koaza":"","lat":34.408633,"lng":133.091204,"zip":"7230003"},{"town":"中之町二丁目","koaza":"","lat":34.411513,"lng":133.093588,"zip":"7230003"},{"town":"中之町三丁目","koaza":"","lat":34.416581,"lng":133.100488,"zip":"7230003"},{"town":"中之町四丁目","koaza":"","lat":34.410167,"lng":133.101188,"zip":"7230003"},{"town":"中之町五丁目","koaza":"","lat":34.418936,"lng":133.104531,"zip":"7230003"},{"town":"中之町六丁目","koaza":"","lat":34.422592,"lng":133.111091,"zip":"7230003"},{"town":"中之町七丁目","koaza":"","lat":34.416989,"lng":133.10735,"zip":"7230003"},{"town":"中之町八丁目","koaza":"","lat":34.411844,"lng":133.123961,"zip":"7230003"},{"town":"中之町九丁目","koaza":"","lat":34.429317,"lng":133.12,"zip":"7230003"},{"town":"中之町北","koaza":"","lat":34.435874,"lng":133.093221,"zip":"7230007"},{"town":"中之町南","koaza":"","lat":34.410884,"lng":133.13309,"zip":"7230002"},{"town":"西野一丁目","koaza":"","lat":34.402352,"lng":133.061907,"zip":"7230065"},{"town":"西野二丁目","koaza":"","lat":34.403121,"lng":133.058891,"zip":"7230065"},{"town":"西野三丁目","koaza":"","lat":34.410561,"lng":133.05285,"zip":"7230065"},{"town":"西野四丁目","koaza":"","lat":34.4061,"lng":133.060245,"zip":"7230065"},{"town":"西野五丁目","koaza":"","lat":34.414146,"lng":133.060084,"zip":"7230065"},{"town":"西町一丁目","koaza":"","lat":34.401437,"lng":133.074162,"zip":"7230063"},{"town":"西町二丁目","koaza":"","lat":34.404836,"lng":133.075392,"zip":"7230063"},{"town":"西宮一丁目","koaza":"","lat":34.404156,"lng":133.069296,"zip":"7230064"},{"town":"西宮二丁目","koaza":"","lat":34.407715,"lng":133.067961,"zip":"7230064"},{"town":"沼田一丁目","koaza":"","lat":34.398928,"lng":133.040628,"zip":"7230133"},{"town":"沼田二丁目","koaza":"","lat":34.409642,"lng":133.041579,"zip":"7230133"},{"town":"沼田三丁目","koaza":"","lat":34.419747,"lng":133.045138,"zip":"7230133"},{"town":"沼田町","koaza":"","lat":34.423322,"lng":133.035962,"zip":"7230133"},{"town":"沼田西町小原","koaza":"","lat":34.396868,"lng":132.993185,"zip":"7290473"},{"town":"沼田西町惣定","koaza":"","lat":34.383901,"lng":132.990476,"zip":"7290474"},{"town":"沼田西町松江","koaza":"","lat":34.393452,"lng":132.981112,"zip":"7290475"},{"town":"沼田東町片島","koaza":"","lat":34.387079,"lng":133.020508,"zip":"7230145"},{"town":"沼田東町釜山","koaza":"","lat":34.369266,"lng":133.017898,"zip":"7230143"},{"town":"沼田東町七宝","koaza":"","lat":34.390453,"lng":133.032571,"zip":"7230148"},{"town":"沼田東町末広","koaza":"","lat":34.387177,"lng":133.00644,"zip":"7230144"},{"town":"沼田東町末光","koaza":"","lat":34.371294,"lng":133.031261,"zip":"7230142"},{"town":"沼田東町納所","koaza":"","lat":34.397616,"lng":133.009137,"zip":"7230146"},{"town":"沼田東町本市","koaza":"","lat":34.394917,"lng":133.022931,"zip":"7230147"},{"town":"沼田東町両名","koaza":"","lat":34.382582,"lng":133.03264,"zip":"7230141"},{"town":"登町","koaza":"","lat":34.366797,"lng":133.066642,"zip":"7230034"},{"town":"鉢ケ峰町","koaza":"","lat":34.393339,"lng":133.134241,"zip":"7290323"},{"town":"東町一丁目","koaza":"","lat":34.400185,"lng":133.091974,"zip":"7230011"},{"town":"東町二丁目","koaza":"","lat":34.403605,"lng":133.089085,"zip":"7230011"},{"town":"東町三丁目","koaza":"","lat":34.402283,"lng":133.091988,"zip":"7230011"},{"town":"深町","koaza":"","lat":34.43854,"lng":133.135129,"zip":"7230001"},{"town":"本郷北一丁目","koaza":"","lat":34.409397,"lng":133.004159,"zip":"7290418"},{"town":"本郷北二丁目","koaza":"","lat":34.417147,"lng":132.997592,"zip":"7290418"},{"town":"本郷北三丁目","koaza":"","lat":34.411282,"lng":132.988423,"zip":"7290418"},{"town":"本郷北四丁目","koaza":"","lat":34.41438,"lng":132.984837,"zip":"7290418"},{"town":"本郷町上北方","koaza":"","lat":34.426427,"lng":132.937324,"zip":"7290415"},{"town":"本郷町下北方","koaza":"","lat":34.409834,"lng":132.968729,"zip":"7290414"},{"town":"本郷町善入寺","koaza":"","lat":34.436868,"lng":132.909136,"zip":"7290416"},{"town":"本郷町船木","koaza":"","lat":34.450962,"lng":132.969022,"zip":"7221401"},{"town":"本郷町本郷","koaza":"","lat":34.417393,"lng":132.96928,"zip":"7290412"},{"town":"本郷町南方","koaza":"","lat":34.38601,"lng":132.94924,"zip":"7290413"},{"town":"本郷南一丁目","koaza":"","lat":34.406531,"lng":133.01014,"zip":"7290417"},{"town":"本郷南二丁目","koaza":"","lat":34.406341,"lng":133.002902,"zip":"7290417"},{"town":"本郷南三丁目","koaza":"","lat":34.407278,"lng":132.995516,"zip":"7290417"},{"town":"本郷南四丁目","koaza":"","lat":34.403671,"lng":132.995115,"zip":"7290417"},{"town":"本郷南五丁目","koaza":"","lat":34.40645,"lng":132.989357,"zip":"7290417"},{"town":"本郷南六丁目","koaza":"","lat":34.411384,"lng":132.981554,"zip":"7290417"},{"town":"本郷南七丁目","koaza":"","lat":34.416028,"lng":132.97658,"zip":"7290417"},{"town":"本町一丁目","koaza":"","lat":34.401548,"lng":133.079234,"zip":"7230062"},{"town":"本町二丁目","koaza":"","lat":34.404658,"lng":133.082185,"zip":"7230062"},{"town":"本町三丁目","koaza":"","lat":34.405237,"lng":133.077059,"zip":"7230062"},{"town":"港町一丁目","koaza":"","lat":34.39964,"lng":133.078927,"zip":"7230017"},{"town":"港町二丁目","koaza":"","lat":34.399696,"lng":133.075601,"zip":"7230017"},{"town":"港町三丁目","koaza":"","lat":34.397934,"lng":133.078607,"zip":"7230017"},{"town":"皆実一丁目","koaza":"","lat":34.396874,"lng":133.070328,"zip":"7230052"},{"town":"皆実二丁目","koaza":"","lat":34.392105,"lng":133.062598,"zip":"7230052"},{"town":"皆実三丁目","koaza":"","lat":34.392022,"lng":133.065529,"zip":"7230052"},{"town":"皆実四丁目","koaza":"","lat":34.393575,"lng":133.06948,"zip":"7230052"},{"town":"皆実五丁目","koaza":"","lat":34.39014,"lng":133.069702,"zip":"7230052"},{"town":"皆実六丁目","koaza":"","lat":34.389914,"lng":133.063254,"zip":"7230052"},{"town":"南方一丁目","koaza":"","lat":34.403588,"lng":132.979251,"zip":"7290419"},{"town":"南方二丁目","koaza":"","lat":34.400729,"lng":132.971552,"zip":"7290419"},{"town":"南方三丁目","koaza":"","lat":34.404583,"lng":132.969581,"zip":"7290419"},{"town":"宮浦一丁目","koaza":"","lat":34.401127,"lng":133.064797,"zip":"7230051"},{"town":"宮浦二丁目","koaza":"","lat":34.401017,"lng":133.070088,"zip":"7230051"},{"town":"宮浦三丁目","koaza":"","lat":34.397604,"lng":133.067611,"zip":"7230051"},{"town":"宮浦四丁目","koaza":"","lat":34.398174,"lng":133.063428,"zip":"7230051"},{"town":"宮浦五丁目","koaza":"","lat":34.395399,"lng":133.059996,"zip":"7230051"},{"town":"宮浦六丁目","koaza":"","lat":34.393128,"lng":133.060816,"zip":"7230051"},{"town":"宮沖一丁目","koaza":"","lat":34.398416,"lng":133.074256,"zip":"7230016"},{"town":"宮沖二丁目","koaza":"","lat":34.396939,"lng":133.073731,"zip":"7230016"},{"town":"宮沖三丁目","koaza":"","lat":34.394958,"lng":133.07383,"zip":"7230016"},{"town":"宮沖四丁目","koaza":"","lat":34.392927,"lng":133.073539,"zip":"7230016"},{"town":"宮沖五丁目","koaza":"","lat":34.390358,"lng":133.074024,"zip":"7230016"},{"town":"明神一丁目","koaza":"","lat":34.3851,"lng":133.054692,"zip":"7230046"},{"town":"明神二丁目","koaza":"","lat":34.385719,"lng":133.051202,"zip":"7230046"},{"town":"明神三丁目","koaza":"","lat":34.388166,"lng":133.05659,"zip":"7230046"},{"town":"明神四丁目","koaza":"","lat":34.389954,"lng":133.050488,"zip":"7230046"},{"town":"明神五丁目","koaza":"","lat":34.390826,"lng":133.043418,"zip":"7230046"},{"town":"明神町","koaza":"","lat":34.38776,"lng":133.045024,"zip":"7230000"},{"town":"館町一丁目","koaza":"","lat":34.40144,"lng":133.08435,"zip":"7230004"},{"town":"館町二丁目","koaza":"","lat":34.403794,"lng":133.085141,"zip":"7230004"},{"town":"八坂町","koaza":"","lat":34.426356,"lng":133.075031,"zip":"7230061"},{"town":"八幡町垣内","koaza":"","lat":34.46396,"lng":133.061708,"zip":"7221501"},{"town":"八幡町篝","koaza":"","lat":34.48681,"lng":133.06453,"zip":"7221511"},{"town":"八幡町野串","koaza":"","lat":34.477628,"lng":133.07869,"zip":"7221512"},{"town":"八幡町本庄","koaza":"","lat":34.476732,"lng":133.113233,"zip":"7221516"},{"town":"八幡町美生","koaza":"","lat":34.472185,"lng":133.101254,"zip":"7221515"},{"town":"八幡町宮内","koaza":"","lat":34.464608,"lng":133.084127,"zip":"7221513"},{"town":"八幡町屋中","koaza":"","lat":34.483184,"lng":133.086027,"zip":"7221514"},{"town":"頼兼一丁目","koaza":"","lat":34.400328,"lng":133.058687,"zip":"7230054"},{"town":"頼兼二丁目","koaza":"","lat":34.396388,"lng":133.057351,"zip":"7230054"},{"town":"和田一丁目","koaza":"","lat":34.386976,"lng":133.070322,"zip":"7230042"},{"town":"和田二丁目","koaza":"","lat":34.383481,"lng":133.074687,"zip":"7230042"},{"town":"和田三丁目","koaza":"","lat":34.384008,"lng":133.069641,"zip":"7230042"},{"town":"和田沖町","koaza":"","lat":34.383509,"lng":133.083358,"zip":"7230042"},{"town":"和田町","koaza":"","lat":34.378908,"lng":133.071732,"zip":"7230000"},{"town":"本郷町善入寺","koaza":"平岩","lat":34.443449,"lng":132.918082,"zip":"7290416"},{"town":"本郷町善入寺","koaza":"北雑木谷","lat":34.440563,"lng":132.911323,"zip":"7290416"}]