[{"town":"青河町","koaza":"","lat":34.754748,"lng":132.82285,"zip":"7280024"},{"town":"秋町","koaza":"","lat":34.7482,"lng":132.794462,"zip":"7296335"},{"town":"穴笠町","koaza":"","lat":34.839631,"lng":132.878756,"zip":"7280004"},{"town":"有原町","koaza":"","lat":34.696865,"lng":132.870972,"zip":"7280625"},{"town":"粟屋町","koaza":"","lat":34.783424,"lng":132.803928,"zip":"7280025"},{"town":"石原町","koaza":"","lat":34.723477,"lng":132.909372,"zip":"7280623"},{"town":"糸井町","koaza":"","lat":34.743268,"lng":132.891045,"zip":"7296212"},{"town":"上田町","koaza":"","lat":34.698043,"lng":132.919886,"zip":"7280624"},{"town":"後山町","koaza":"","lat":34.834745,"lng":132.89722,"zip":"7280005"},{"town":"海渡町","koaza":"","lat":34.732301,"lng":132.893051,"zip":"7280622"},{"town":"江田川之内町","koaza":"","lat":34.780806,"lng":132.907763,"zip":"7296215"},{"town":"大田幸町","koaza":"","lat":34.746474,"lng":132.929555,"zip":"7296211"},{"town":"小文町","koaza":"","lat":34.833757,"lng":132.84869,"zip":"7280007"},{"town":"上川立町","koaza":"","lat":34.711713,"lng":132.786871,"zip":"7296334"},{"town":"上志和地町","koaza":"","lat":34.731485,"lng":132.796235,"zip":"7296332"},{"town":"吉舎町雲通","koaza":"","lat":34.688371,"lng":133.002479,"zip":"7294223"},{"town":"吉舎町海田原","koaza":"","lat":34.737719,"lng":132.977859,"zip":"7294205"},{"town":"吉舎町上安田","koaza":"","lat":34.73903,"lng":133.05231,"zip":"7294202"},{"town":"吉舎町吉舎","koaza":"","lat":34.710719,"lng":133.012109,"zip":"7294211"},{"town":"吉舎町吉舎川之内","koaza":"","lat":34.697426,"lng":132.976206,"zip":"7294226"},{"town":"吉舎町清綱","koaza":"","lat":34.704243,"lng":132.993503,"zip":"7294221"},{"town":"吉舎町敷地","koaza":"","lat":34.739441,"lng":132.958459,"zip":"7294207"},{"town":"吉舎町知和","koaza":"","lat":34.754151,"lng":133.025062,"zip":"7294201"},{"town":"吉舎町辻","koaza":"","lat":34.68132,"lng":132.96965,"zip":"7294224"},{"town":"吉舎町徳市","koaza":"","lat":34.664341,"lng":132.954988,"zip":"7294225"},{"town":"吉舎町檜","koaza":"","lat":34.704647,"lng":132.96099,"zip":"7294227"},{"town":"吉舎町丸田","koaza":"","lat":34.6961,"lng":132.990443,"zip":"7294222"},{"town":"吉舎町三玉","koaza":"","lat":34.728218,"lng":133.003244,"zip":"7294204"},{"town":"吉舎町矢井","koaza":"","lat":34.725126,"lng":132.974814,"zip":"7294206"},{"town":"吉舎町安田","koaza":"","lat":34.733364,"lng":133.030936,"zip":"7294203"},{"town":"吉舎町矢野地","koaza":"","lat":34.742949,"lng":132.992934,"zip":"7294208"},{"town":"木乗町","koaza":"","lat":34.738525,"lng":132.916173,"zip":"7296204"},{"town":"君田町石原","koaza":"","lat":34.888997,"lng":132.825803,"zip":"7280404"},{"town":"君田町泉吉田","koaza":"","lat":34.905889,"lng":132.863738,"zip":"7280405"},{"town":"君田町西入君","koaza":"","lat":34.892204,"lng":132.845833,"zip":"7280402"},{"town":"君田町東入君","koaza":"","lat":34.873379,"lng":132.860963,"zip":"7280401"},{"town":"君田町櫃田","koaza":"","lat":34.952118,"lng":132.810544,"zip":"7280406"},{"town":"君田町藤兼","koaza":"","lat":34.864105,"lng":132.83077,"zip":"7280403"},{"town":"君田町茂田","koaza":"","lat":34.912669,"lng":132.811107,"zip":"7280407"},{"town":"甲奴町有田","koaza":"","lat":34.738988,"lng":133.080392,"zip":"7294106"},{"town":"甲奴町宇賀","koaza":"","lat":34.695321,"lng":133.038616,"zip":"7294104"},{"town":"甲奴町梶田","koaza":"","lat":34.710204,"lng":133.065523,"zip":"7294105"},{"town":"甲奴町太郎丸","koaza":"","lat":34.763086,"lng":133.08368,"zip":"7294113"},{"town":"甲奴町西野","koaza":"","lat":34.699012,"lng":133.072555,"zip":"7294102"},{"town":"甲奴町抜湯","koaza":"","lat":34.751176,"lng":133.073906,"zip":"7294112"},{"town":"甲奴町小童","koaza":"","lat":34.676342,"lng":133.063502,"zip":"7294103"},{"town":"甲奴町福田","koaza":"","lat":34.730864,"lng":133.093433,"zip":"7294111"},{"town":"甲奴町本郷","koaza":"","lat":34.70497,"lng":133.088026,"zip":"7294101"},{"town":"小田幸町","koaza":"","lat":34.762432,"lng":132.902557,"zip":"7296216"},{"town":"作木町伊賀和志","koaza":"","lat":34.906405,"lng":132.65699,"zip":"7280111"},{"town":"作木町大津","koaza":"","lat":34.894169,"lng":132.686321,"zip":"7280115"},{"town":"作木町大畠","koaza":"","lat":34.917911,"lng":132.73157,"zip":"7280121"},{"town":"作木町大山","koaza":"","lat":34.832151,"lng":132.761162,"zip":"7280132"},{"town":"作木町岡三渕","koaza":"","lat":34.940065,"lng":132.704454,"zip":"7280101"},{"town":"作木町上作木","koaza":"","lat":34.893142,"lng":132.75226,"zip":"7280123"},{"town":"作木町香淀","koaza":"","lat":34.833052,"lng":132.731706,"zip":"7280131"},{"town":"作木町下作木","koaza":"","lat":34.872925,"lng":132.725211,"zip":"7280124"},{"town":"作木町西野","koaza":"","lat":34.898792,"lng":132.737542,"zip":"7280122"},{"town":"作木町光守","koaza":"","lat":34.902254,"lng":132.723909,"zip":"7280125"},{"town":"作木町森山中","koaza":"","lat":34.917177,"lng":132.692711,"zip":"7280114"},{"town":"作木町森山西","koaza":"","lat":34.919575,"lng":132.672961,"zip":"7280112"},{"town":"作木町森山東","koaza":"","lat":34.902025,"lng":132.70448,"zip":"7280113"},{"town":"作木町門田","koaza":"","lat":34.822559,"lng":132.70712,"zip":"7280133"},{"town":"塩町","koaza":"","lat":34.775264,"lng":132.912891,"zip":"7296205"},{"town":"志幸町","koaza":"","lat":34.764566,"lng":132.925233,"zip":"7296203"},{"town":"四拾貫町","koaza":"","lat":34.803745,"lng":132.901895,"zip":"7280016"},{"town":"下川立町","koaza":"","lat":34.730095,"lng":132.786618,"zip":"7296333"},{"town":"下志和地町","koaza":"","lat":34.728872,"lng":132.832195,"zip":"7296331"},{"town":"高杉町","koaza":"","lat":34.769757,"lng":132.89802,"zip":"7296214"},{"town":"十日市中一丁目","koaza":"","lat":34.805141,"lng":132.84808,"zip":"7280012"},{"town":"十日市中二丁目","koaza":"","lat":34.805087,"lng":132.852956,"zip":"7280012"},{"town":"十日市中三丁目","koaza":"","lat":34.806593,"lng":132.853411,"zip":"7280012"},{"town":"十日市中四丁目","koaza":"","lat":34.808647,"lng":132.854042,"zip":"7280012"},{"town":"十日市西一丁目","koaza":"","lat":34.802572,"lng":132.849466,"zip":"7280011"},{"town":"十日市西二丁目","koaza":"","lat":34.800518,"lng":132.84848,"zip":"7280011"},{"town":"十日市西三丁目","koaza":"","lat":34.797786,"lng":132.846607,"zip":"7280011"},{"town":"十日市西四丁目","koaza":"","lat":34.798446,"lng":132.841133,"zip":"7280011"},{"town":"十日市西五丁目","koaza":"","lat":34.800403,"lng":132.844094,"zip":"7280011"},{"town":"十日市西六丁目","koaza":"","lat":34.803539,"lng":132.843549,"zip":"7280011"},{"town":"十日市東一丁目","koaza":"","lat":34.805189,"lng":132.857424,"zip":"7280013"},{"town":"十日市東二丁目","koaza":"","lat":34.808752,"lng":132.858604,"zip":"7280013"},{"town":"十日市東三丁目","koaza":"","lat":34.808612,"lng":132.86125,"zip":"7280013"},{"town":"十日市東四丁目","koaza":"","lat":34.805096,"lng":132.861007,"zip":"7280013"},{"town":"十日市東五丁目","koaza":"","lat":34.807107,"lng":132.864813,"zip":"7280013"},{"town":"十日市東六丁目","koaza":"","lat":34.801726,"lng":132.864493,"zip":"7280013"},{"town":"十日市町","koaza":"","lat":34.790699,"lng":132.840624,"zip":"7280015"},{"town":"十日市南一丁目","koaza":"","lat":34.803104,"lng":132.857183,"zip":"7280014"},{"town":"十日市南二丁目","koaza":"","lat":34.801227,"lng":132.861512,"zip":"7280014"},{"town":"十日市南三丁目","koaza":"","lat":34.797678,"lng":132.862057,"zip":"7280014"},{"town":"十日市南四丁目","koaza":"","lat":34.799956,"lng":132.858123,"zip":"7280014"},{"town":"十日市南五丁目","koaza":"","lat":34.800931,"lng":132.855327,"zip":"7280014"},{"town":"十日市南六丁目","koaza":"","lat":34.798103,"lng":132.851307,"zip":"7280014"},{"town":"十日市南七丁目","koaza":"","lat":34.801014,"lng":132.852192,"zip":"7280014"},{"town":"西河内町","koaza":"","lat":34.849989,"lng":132.859379,"zip":"7280002"},{"town":"西酒屋町","koaza":"","lat":34.779082,"lng":132.845635,"zip":"7280022"},{"town":"畠敷町","koaza":"","lat":34.813664,"lng":132.884291,"zip":"7280006"},{"town":"東河内町","koaza":"","lat":34.835091,"lng":132.863543,"zip":"7280003"},{"town":"東酒屋町","koaza":"","lat":34.774928,"lng":132.866747,"zip":"7280023"},{"town":"日下町","koaza":"","lat":34.815952,"lng":132.799763,"zip":"7280026"},{"town":"布野町上布野","koaza":"","lat":34.902148,"lng":132.782056,"zip":"7280201"},{"town":"布野町下布野","koaza":"","lat":34.852341,"lng":132.777347,"zip":"7280202"},{"town":"布野町戸河内","koaza":"","lat":34.874338,"lng":132.807914,"zip":"7280203"},{"town":"布野町横谷","koaza":"","lat":34.949914,"lng":132.755261,"zip":"7280211"},{"town":"南畑敷町","koaza":"","lat":34.79682,"lng":132.882916,"zip":"7280017"},{"town":"三原町","koaza":"","lat":34.832438,"lng":132.809077,"zip":"7280027"},{"town":"三次町","koaza":"","lat":34.819317,"lng":132.850383,"zip":"7280021"},{"town":"三良坂町大谷","koaza":"","lat":34.77434,"lng":133.020423,"zip":"7280000"},{"town":"三良坂町岡田","koaza":"","lat":34.767126,"lng":132.935258,"zip":"7294306"},{"town":"三良坂町皆瀬","koaza":"","lat":34.779724,"lng":132.958957,"zip":"7294307"},{"town":"三良坂町田利","koaza":"","lat":34.790104,"lng":132.958153,"zip":"7294308"},{"town":"三良坂町長田","koaza":"","lat":34.740332,"lng":132.938802,"zip":"7294305"},{"town":"三良坂町棗原","koaza":"","lat":34.767283,"lng":133.008849,"zip":"7280000"},{"town":"三良坂町仁賀","koaza":"","lat":34.798278,"lng":132.977095,"zip":"7294302"},{"town":"三良坂町灰塚","koaza":"","lat":34.770974,"lng":132.985961,"zip":"7294303"},{"town":"三良坂町光清","koaza":"","lat":34.801721,"lng":132.990359,"zip":"7294301"},{"town":"三良坂町三良坂","koaza":"","lat":34.763681,"lng":132.967268,"zip":"7294304"},{"town":"三若町","koaza":"","lat":34.708932,"lng":132.890775,"zip":"7280621"},{"town":"三和町有原","koaza":"","lat":34.684406,"lng":132.869887,"zip":"7296613"},{"town":"三和町飯田","koaza":"","lat":34.613743,"lng":132.84364,"zip":"7296701"},{"town":"三和町上板木","koaza":"","lat":34.642028,"lng":132.831331,"zip":"7296615"},{"town":"三和町上壱","koaza":"","lat":34.633745,"lng":132.852626,"zip":"7296701"},{"town":"三和町敷名","koaza":"","lat":34.666151,"lng":132.863566,"zip":"7296612"},{"town":"三和町下板木","koaza":"","lat":34.692574,"lng":132.844879,"zip":"7296612"},{"town":"三和町大力谷","koaza":"","lat":34.64469,"lng":132.814671,"zip":"7296616"},{"town":"三和町羽出庭","koaza":"","lat":34.662879,"lng":132.806602,"zip":"7296614"},{"town":"三和町福田","koaza":"","lat":34.698925,"lng":132.814944,"zip":"7296611"},{"town":"向江田町","koaza":"","lat":34.785346,"lng":132.93011,"zip":"7296202"},{"town":"廻神町","koaza":"","lat":34.759319,"lng":132.873971,"zip":"7296213"},{"town":"山家町","koaza":"","lat":34.844803,"lng":132.825915,"zip":"7280001"},{"town":"和知町","koaza":"","lat":34.805804,"lng":132.930527,"zip":"7296201"}]