[{"town":"青山町","koaza":"","lat":34.238082,"lng":132.565904,"zip":"7370023"},{"town":"阿賀北一丁目","koaza":"","lat":34.254133,"lng":132.591782,"zip":"7370001"},{"town":"阿賀北二丁目","koaza":"","lat":34.251911,"lng":132.595358,"zip":"7370001"},{"town":"阿賀北三丁目","koaza":"","lat":34.249792,"lng":132.590888,"zip":"7370001"},{"town":"阿賀北四丁目","koaza":"","lat":34.248844,"lng":132.593141,"zip":"7370001"},{"town":"阿賀北五丁目","koaza":"","lat":34.249708,"lng":132.598056,"zip":"7370001"},{"town":"阿賀北六丁目","koaza":"","lat":34.247484,"lng":132.600954,"zip":"7370001"},{"town":"阿賀北七丁目","koaza":"","lat":34.246323,"lng":132.594926,"zip":"7370001"},{"town":"阿賀北八丁目","koaza":"","lat":34.243219,"lng":132.595505,"zip":"7370001"},{"town":"阿賀北九丁目","koaza":"","lat":34.241894,"lng":132.599959,"zip":"7370001"},{"town":"阿賀中央一丁目","koaza":"","lat":34.241361,"lng":132.593166,"zip":"7370003"},{"town":"阿賀中央二丁目","koaza":"","lat":34.239838,"lng":132.59687,"zip":"7370003"},{"town":"阿賀中央三丁目","koaza":"","lat":34.238459,"lng":132.599896,"zip":"7370003"},{"town":"阿賀中央四丁目","koaza":"","lat":34.237483,"lng":132.604428,"zip":"7370003"},{"town":"阿賀中央五丁目","koaza":"","lat":34.234526,"lng":132.603979,"zip":"7370003"},{"town":"阿賀中央六丁目","koaza":"","lat":34.236978,"lng":132.59867,"zip":"7370003"},{"town":"阿賀中央七丁目","koaza":"","lat":34.235272,"lng":132.59882,"zip":"7370003"},{"town":"阿賀中央八丁目","koaza":"","lat":34.238034,"lng":132.593421,"zip":"7370003"},{"town":"阿賀中央九丁目","koaza":"","lat":34.235484,"lng":132.594245,"zip":"7370003"},{"town":"阿賀町","koaza":"","lat":34.224618,"lng":132.581356,"zip":"7370005"},{"town":"阿賀南一丁目","koaza":"","lat":34.230024,"lng":132.604295,"zip":"7370004"},{"town":"阿賀南二丁目","koaza":"","lat":34.231122,"lng":132.600612,"zip":"7370004"},{"town":"阿賀南三丁目","koaza":"","lat":34.2326,"lng":132.597224,"zip":"7370004"},{"town":"阿賀南四丁目","koaza":"","lat":34.233202,"lng":132.594464,"zip":"7370004"},{"town":"阿賀南五丁目","koaza":"","lat":34.230771,"lng":132.590261,"zip":"7370004"},{"town":"阿賀南六丁目","koaza":"","lat":34.227914,"lng":132.591906,"zip":"7370004"},{"town":"阿賀南七丁目","koaza":"","lat":34.220057,"lng":132.58898,"zip":"7370004"},{"town":"阿賀南八丁目","koaza":"","lat":34.208256,"lng":132.576332,"zip":"7370004"},{"town":"阿賀南九丁目","koaza":"","lat":34.202295,"lng":132.564992,"zip":"7370004"},{"town":"朝日町","koaza":"","lat":34.251673,"lng":132.573892,"zip":"7370056"},{"town":"吾妻一丁目","koaza":"","lat":34.253046,"lng":132.578493,"zip":"7370076"},{"town":"吾妻二丁目","koaza":"","lat":34.252303,"lng":132.580678,"zip":"7370076"},{"town":"内神町","koaza":"","lat":34.256788,"lng":132.568063,"zip":"7370804"},{"town":"畝原町","koaza":"","lat":34.258807,"lng":132.575376,"zip":"7370061"},{"town":"梅木町","koaza":"","lat":34.277326,"lng":132.519187,"zip":"7370872"},{"town":"江原町","koaza":"","lat":34.256388,"lng":132.565878,"zip":"7370807"},{"town":"大山町","koaza":"","lat":34.27671,"lng":132.523979,"zip":"7370878"},{"town":"押込一丁目","koaza":"","lat":34.311026,"lng":132.560083,"zip":"7370915"},{"town":"押込二丁目","koaza":"","lat":34.313661,"lng":132.561719,"zip":"7370915"},{"town":"押込三丁目","koaza":"","lat":34.317271,"lng":132.563959,"zip":"7370915"},{"town":"押込四丁目","koaza":"","lat":34.321379,"lng":132.564426,"zip":"7370915"},{"town":"押込五丁目","koaza":"","lat":34.316627,"lng":132.570554,"zip":"7370915"},{"town":"押込六丁目","koaza":"","lat":34.30951,"lng":132.57412,"zip":"7370915"},{"town":"押込町","koaza":"","lat":34.310688,"lng":132.566751,"zip":"7370000"},{"town":"押込西平町","koaza":"","lat":34.31576,"lng":132.558056,"zip":"7370914"},{"town":"音戸町有清一丁目","koaza":"","lat":34.160902,"lng":132.520771,"zip":"7371212"},{"town":"音戸町有清二丁目","koaza":"","lat":34.162698,"lng":132.519864,"zip":"7371212"},{"town":"音戸町鰯浜一丁目","koaza":"","lat":34.194761,"lng":132.536014,"zip":"7371203"},{"town":"音戸町鰯浜二丁目","koaza":"","lat":34.193842,"lng":132.534369,"zip":"7371203"},{"town":"音戸町鰯浜三丁目","koaza":"","lat":34.194932,"lng":132.5323,"zip":"7371203"},{"town":"音戸町大字渡子","koaza":"","lat":34.17335,"lng":132.519075,"zip":"7370000"},{"town":"音戸町北隠渡一丁目","koaza":"","lat":34.192714,"lng":132.532171,"zip":"7371204"},{"town":"音戸町北隠渡二丁目","koaza":"","lat":34.19036,"lng":132.531412,"zip":"7371204"},{"town":"音戸町先奥一丁目","koaza":"","lat":34.159758,"lng":132.51845,"zip":"7371213"},{"town":"音戸町先奥二丁目","koaza":"","lat":34.15793,"lng":132.519046,"zip":"7371213"},{"town":"音戸町先奥三丁目","koaza":"","lat":34.154838,"lng":132.518895,"zip":"7371213"},{"town":"音戸町高須一丁目","koaza":"","lat":34.184178,"lng":132.534511,"zip":"7371206"},{"town":"音戸町高須二丁目","koaza":"","lat":34.185684,"lng":132.537818,"zip":"7371206"},{"town":"音戸町高須三丁目","koaza":"","lat":34.187646,"lng":132.540595,"zip":"7371206"},{"town":"音戸町田原一丁目","koaza":"","lat":34.182508,"lng":132.502662,"zip":"7371216"},{"town":"音戸町田原二丁目","koaza":"","lat":34.175282,"lng":132.500231,"zip":"7371216"},{"town":"音戸町田原三丁目","koaza":"","lat":34.16926,"lng":132.498286,"zip":"7371216"},{"town":"音戸町坪井一丁目","koaza":"","lat":34.198362,"lng":132.536015,"zip":"7371201"},{"town":"音戸町坪井二丁目","koaza":"","lat":34.198116,"lng":132.533426,"zip":"7371201"},{"town":"音戸町坪井三丁目","koaza":"","lat":34.197624,"lng":132.529277,"zip":"7371201"},{"town":"音戸町渡子一丁目","koaza":"","lat":34.194427,"lng":132.522143,"zip":"7371217"},{"town":"音戸町渡子二丁目","koaza":"","lat":34.188953,"lng":132.51634,"zip":"7371217"},{"town":"音戸町渡子三丁目","koaza":"","lat":34.187392,"lng":132.509978,"zip":"7371217"},{"town":"音戸町畑一丁目","koaza":"","lat":34.165672,"lng":132.530095,"zip":"7371211"},{"town":"音戸町畑二丁目","koaza":"","lat":34.168921,"lng":132.523695,"zip":"7371211"},{"town":"音戸町畑三丁目","koaza":"","lat":34.162441,"lng":132.525048,"zip":"7371211"},{"town":"音戸町波多見十丁目","koaza":"","lat":34.171065,"lng":132.537475,"zip":"7371207"},{"town":"音戸町波多見十一丁目","koaza":"","lat":34.167974,"lng":132.539148,"zip":"7371207"},{"town":"音戸町波多見一丁目","koaza":"","lat":34.185568,"lng":132.548412,"zip":"7371207"},{"town":"音戸町波多見二丁目","koaza":"","lat":34.182432,"lng":132.550816,"zip":"7371207"},{"town":"音戸町波多見三丁目","koaza":"","lat":34.180076,"lng":132.548716,"zip":"7371207"},{"town":"音戸町波多見四丁目","koaza":"","lat":34.178067,"lng":132.551288,"zip":"7371207"},{"town":"音戸町波多見五丁目","koaza":"","lat":34.179426,"lng":132.553997,"zip":"7371207"},{"town":"音戸町波多見六丁目","koaza":"","lat":34.174605,"lng":132.554331,"zip":"7371207"},{"town":"音戸町波多見七丁目","koaza":"","lat":34.176356,"lng":132.551537,"zip":"7371207"},{"town":"音戸町波多見八丁目","koaza":"","lat":34.177656,"lng":132.546788,"zip":"7371207"},{"town":"音戸町波多見九丁目","koaza":"","lat":34.175314,"lng":132.542749,"zip":"7371207"},{"town":"音戸町早瀬二丁目","koaza":"","lat":34.153349,"lng":132.495567,"zip":"7371215"},{"town":"音戸町早瀬三丁目","koaza":"","lat":34.149378,"lng":132.497383,"zip":"7371215"},{"town":"音戸町引地一丁目","koaza":"","lat":34.195869,"lng":132.536216,"zip":"7371202"},{"town":"音戸町引地二丁目","koaza":"","lat":34.196633,"lng":132.534436,"zip":"7371202"},{"town":"音戸町藤脇一丁目","koaza":"","lat":34.15005,"lng":132.511041,"zip":"7371214"},{"town":"音戸町藤脇二丁目","koaza":"","lat":34.148497,"lng":132.506174,"zip":"7371214"},{"town":"音戸町藤脇三丁目","koaza":"","lat":34.148349,"lng":132.502593,"zip":"7371214"},{"town":"音戸町南隠渡一丁目","koaza":"","lat":34.18777,"lng":132.533429,"zip":"7371205"},{"town":"音戸町南隠渡二丁目","koaza":"","lat":34.187556,"lng":132.530281,"zip":"7371205"},{"town":"音戸町南隠渡三丁目","koaza":"","lat":34.185655,"lng":132.532122,"zip":"7371205"},{"town":"音戸町南隠渡四丁目","koaza":"","lat":34.183414,"lng":132.529479,"zip":"7371205"},{"town":"海岸一丁目","koaza":"","lat":34.244749,"lng":132.548198,"zip":"7370823"},{"town":"海岸二丁目","koaza":"","lat":34.246582,"lng":132.545499,"zip":"7370823"},{"town":"海岸三丁目","koaza":"","lat":34.247467,"lng":132.542063,"zip":"7370823"},{"town":"海岸四丁目","koaza":"","lat":34.247626,"lng":132.538551,"zip":"7370823"},{"town":"蒲刈町大浦","koaza":"","lat":34.175978,"lng":132.743062,"zip":"7370402"},{"town":"蒲刈町田戸","koaza":"","lat":34.18824,"lng":132.717321,"zip":"7370403"},{"town":"蒲刈町宮盛","koaza":"","lat":34.18896,"lng":132.738208,"zip":"7370401"},{"town":"蒲刈町向","koaza":"","lat":34.191549,"lng":132.699005,"zip":"7370311"},{"town":"上内神町","koaza":"","lat":34.2602,"lng":132.565867,"zip":"7370808"},{"town":"上長迫町","koaza":"","lat":34.244416,"lng":132.579141,"zip":"7370031"},{"town":"上二河町","koaza":"","lat":34.260331,"lng":132.561623,"zip":"7370817"},{"town":"上畑町","koaza":"","lat":34.258203,"lng":132.587774,"zip":"7370071"},{"town":"上平原町","koaza":"","lat":34.257489,"lng":132.583781,"zip":"7370079"},{"town":"上山田町","koaza":"","lat":34.256566,"lng":132.576509,"zip":"7370054"},{"town":"狩留賀町","koaza":"","lat":34.266555,"lng":132.514984,"zip":"7370862"},{"town":"川尻町板休","koaza":"","lat":34.253728,"lng":132.674544,"zip":"7372631"},{"town":"川尻町岩戸","koaza":"","lat":34.224151,"lng":132.683059,"zip":"7372634"},{"town":"川尻町後懸","koaza":"","lat":34.241683,"lng":132.670422,"zip":"7372637"},{"town":"川尻町大原","koaza":"","lat":34.25341,"lng":132.695004,"zip":"7372614"},{"town":"川尻町大見上","koaza":"","lat":34.250625,"lng":132.688751,"zip":"7370000"},{"town":"川尻町沖田","koaza":"","lat":34.230326,"lng":132.687405,"zip":"7372633"},{"town":"川尻町柏","koaza":"","lat":34.220408,"lng":132.696541,"zip":"7370000"},{"town":"川尻町上畑","koaza":"","lat":34.242082,"lng":132.68018,"zip":"7372632"},{"town":"川尻町久筋一丁目","koaza":"","lat":34.241774,"lng":132.699021,"zip":"7372606"},{"town":"川尻町久筋二丁目","koaza":"","lat":34.243278,"lng":132.702453,"zip":"7372606"},{"town":"川尻町久筋三丁目","koaza":"","lat":34.244574,"lng":132.698132,"zip":"7372606"},{"town":"川尻町久俊一丁目","koaza":"","lat":34.239617,"lng":132.694464,"zip":"7372605"},{"town":"川尻町久俊二丁目","koaza":"","lat":34.240214,"lng":132.697317,"zip":"7372605"},{"town":"川尻町久俊三丁目","koaza":"","lat":34.244025,"lng":132.694984,"zip":"7372605"},{"town":"川尻町小仁方","koaza":"","lat":34.2192,"lng":132.677144,"zip":"7372604"},{"town":"川尻町小仁方一丁目","koaza":"","lat":34.213984,"lng":132.680785,"zip":"7372604"},{"town":"川尻町小仁方二丁目","koaza":"","lat":34.217354,"lng":132.678555,"zip":"7372604"},{"town":"川尻町小畑","koaza":"","lat":34.24962,"lng":132.698553,"zip":"7372617"},{"town":"川尻町小用","koaza":"","lat":34.241969,"lng":132.716947,"zip":"7372608"},{"town":"川尻町小用一丁目","koaza":"","lat":34.241201,"lng":132.718779,"zip":"7372608"},{"town":"川尻町小用二丁目","koaza":"","lat":34.24164,"lng":132.721228,"zip":"7372608"},{"town":"川尻町才野谷","koaza":"","lat":34.229302,"lng":132.672905,"zip":"7372636"},{"town":"川尻町寒風","koaza":"","lat":34.241742,"lng":132.713775,"zip":"7370000"},{"town":"川尻町真光地","koaza":"","lat":34.249588,"lng":132.704072,"zip":"7372615"},{"town":"川尻町寺田","koaza":"","lat":34.241923,"lng":132.686676,"zip":"7370000"},{"town":"川尻町西一丁目","koaza":"","lat":34.231627,"lng":132.694239,"zip":"7372603"},{"town":"川尻町西二丁目","koaza":"","lat":34.233675,"lng":132.692507,"zip":"7372603"},{"town":"川尻町西三丁目","koaza":"","lat":34.231497,"lng":132.689211,"zip":"7372603"},{"town":"川尻町西四丁目","koaza":"","lat":34.226982,"lng":132.688624,"zip":"7372603"},{"town":"川尻町西五丁目","koaza":"","lat":34.225461,"lng":132.689977,"zip":"7372603"},{"town":"川尻町西六丁目","koaza":"","lat":34.217941,"lng":132.684021,"zip":"7372603"},{"town":"川尻町縄繰","koaza":"","lat":34.245296,"lng":132.705245,"zip":"7370000"},{"town":"川尻町原山","koaza":"","lat":34.243013,"lng":132.68432,"zip":"7372601"},{"town":"川尻町原山一丁目","koaza":"","lat":34.239255,"lng":132.686435,"zip":"7372601"},{"town":"川尻町原山二丁目","koaza":"","lat":34.23833,"lng":132.683648,"zip":"7372601"},{"town":"川尻町原山三丁目","koaza":"","lat":34.237882,"lng":132.681052,"zip":"7372601"},{"town":"川尻町東一丁目","koaza":"","lat":34.23592,"lng":132.698148,"zip":"7372607"},{"town":"川尻町東二丁目","koaza":"","lat":34.238225,"lng":132.704746,"zip":"7372607"},{"town":"川尻町東三丁目","koaza":"","lat":34.237196,"lng":132.696913,"zip":"7372607"},{"town":"川尻町東四丁目","koaza":"","lat":34.238824,"lng":132.70082,"zip":"7372607"},{"town":"川尻町水落","koaza":"","lat":34.240222,"lng":132.712965,"zip":"7372616"},{"town":"川尻町向田","koaza":"","lat":34.241011,"lng":132.709218,"zip":"7370000"},{"town":"川尻町森一丁目","koaza":"","lat":34.239259,"lng":132.691078,"zip":"7372602"},{"town":"川尻町森二丁目","koaza":"","lat":34.235169,"lng":132.690566,"zip":"7372602"},{"town":"川尻町森三丁目","koaza":"","lat":34.234493,"lng":132.688252,"zip":"7372602"},{"town":"川尻町森四丁目","koaza":"","lat":34.231764,"lng":132.685869,"zip":"7372602"},{"town":"川尻町柳迫","koaza":"","lat":34.230242,"lng":132.677637,"zip":"7372635"},{"town":"川尻町要垣内","koaza":"","lat":34.253623,"lng":132.690141,"zip":"7370000"},{"town":"川尻町竜王山","koaza":"","lat":34.242128,"lng":132.725111,"zip":"7370000"},{"town":"神原町","koaza":"","lat":34.229563,"lng":132.566827,"zip":"7370026"},{"town":"北塩屋町","koaza":"","lat":34.255234,"lng":132.54375,"zip":"7370836"},{"town":"倉橋町","koaza":"","lat":34.117711,"lng":132.502464,"zip":"7371377"},{"town":"警固屋一丁目","koaza":"","lat":34.218669,"lng":132.547326,"zip":"7370012"},{"town":"警固屋二丁目","koaza":"","lat":34.214504,"lng":132.544484,"zip":"7370012"},{"town":"警固屋三丁目","koaza":"","lat":34.213763,"lng":132.547736,"zip":"7370012"},{"town":"警固屋四丁目","koaza":"","lat":34.211038,"lng":132.545443,"zip":"7370012"},{"town":"警固屋五丁目","koaza":"","lat":34.207793,"lng":132.544771,"zip":"7370012"},{"town":"警固屋六丁目","koaza":"","lat":34.203689,"lng":132.544193,"zip":"7370012"},{"town":"警固屋七丁目","koaza":"","lat":34.199575,"lng":132.543042,"zip":"7370012"},{"town":"警固屋八丁目","koaza":"","lat":34.196782,"lng":132.540734,"zip":"7370012"},{"town":"警固屋九丁目","koaza":"","lat":34.197178,"lng":132.55456,"zip":"7370012"},{"town":"警固屋町","koaza":"","lat":34.207154,"lng":132.553673,"zip":"7370000"},{"town":"郷原町","koaza":"","lat":34.291423,"lng":132.616542,"zip":"7370161"},{"town":"郷原野路の里一丁目","koaza":"","lat":34.298929,"lng":132.647894,"zip":"7370163"},{"town":"郷原野路の里二丁目","koaza":"","lat":34.300546,"lng":132.652097,"zip":"7370163"},{"town":"郷原学びの丘一丁目","koaza":"","lat":34.287859,"lng":132.63926,"zip":"7370162"},{"town":"郷原学びの丘二丁目","koaza":"","lat":34.291148,"lng":132.639492,"zip":"7370162"},{"town":"郷町","koaza":"","lat":34.254812,"lng":132.569309,"zip":"7370803"},{"town":"幸町","koaza":"","lat":34.238452,"lng":132.560891,"zip":"7370028"},{"town":"三条一丁目","koaza":"","lat":34.24522,"lng":132.551413,"zip":"7370821"},{"town":"三条二丁目","koaza":"","lat":34.246969,"lng":132.552992,"zip":"7370821"},{"town":"三条三丁目","koaza":"","lat":34.248549,"lng":132.554428,"zip":"7370821"},{"town":"三条四丁目","koaza":"","lat":34.249937,"lng":132.55585,"zip":"7370821"},{"town":"三和町","koaza":"","lat":34.240496,"lng":132.572214,"zip":"7370021"},{"town":"汐見町","koaza":"","lat":34.279208,"lng":132.519569,"zip":"7370873"},{"town":"清水一丁目","koaza":"","lat":34.241603,"lng":132.568318,"zip":"7370022"},{"town":"清水二丁目","koaza":"","lat":34.237835,"lng":132.570455,"zip":"7370022"},{"town":"清水三丁目","koaza":"","lat":34.237309,"lng":132.576177,"zip":"7370022"},{"town":"下蒲刈町大地蔵","koaza":"","lat":34.175287,"lng":132.664227,"zip":"7370302"},{"town":"下蒲刈町三之瀬","koaza":"","lat":34.188266,"lng":132.681835,"zip":"7370301"},{"town":"下蒲刈町下島","koaza":"","lat":34.186751,"lng":132.664186,"zip":"7370303"},{"town":"下山田町","koaza":"","lat":34.253526,"lng":132.573894,"zip":"7370055"},{"town":"昭和町","koaza":"","lat":34.225568,"lng":132.541273,"zip":"7370027"},{"town":"新宮町","koaza":"","lat":34.250662,"lng":132.537614,"zip":"7370835"},{"town":"神山一丁目","koaza":"","lat":34.278881,"lng":132.571793,"zip":"7370923"},{"town":"神山二丁目","koaza":"","lat":34.282323,"lng":132.573999,"zip":"7370923"},{"town":"神山三丁目","koaza":"","lat":34.284516,"lng":132.569346,"zip":"7370923"},{"town":"瀬戸見町","koaza":"","lat":34.249252,"lng":132.534372,"zip":"7370834"},{"town":"荘山田村","koaza":"","lat":34.265338,"lng":132.560511,"zip":"7370815"},{"town":"宝町","koaza":"","lat":34.243471,"lng":132.555839,"zip":"7370029"},{"town":"中央一丁目","koaza":"","lat":34.244975,"lng":132.560053,"zip":"7370051"},{"town":"中央二丁目","koaza":"","lat":34.246284,"lng":132.561247,"zip":"7370051"},{"town":"中央三丁目","koaza":"","lat":34.24791,"lng":132.563047,"zip":"7370051"},{"town":"中央四丁目","koaza":"","lat":34.24935,"lng":132.564796,"zip":"7370051"},{"town":"中央五丁目","koaza":"","lat":34.251278,"lng":132.565606,"zip":"7370051"},{"town":"中央六丁目","koaza":"","lat":34.250564,"lng":132.567716,"zip":"7370051"},{"town":"中央七丁目","koaza":"","lat":34.253025,"lng":132.568756,"zip":"7370051"},{"town":"築地町","koaza":"","lat":34.243116,"lng":132.548294,"zip":"7370822"},{"town":"坪ノ内町","koaza":"","lat":34.222761,"lng":132.553221,"zip":"7370014"},{"town":"寺本町","koaza":"","lat":34.247368,"lng":132.573403,"zip":"7370033"},{"town":"天応大浜一丁目","koaza":"","lat":34.286191,"lng":132.514936,"zip":"7370875"},{"town":"天応大浜二丁目","koaza":"","lat":34.288051,"lng":132.515663,"zip":"7370875"},{"town":"天応大浜三丁目","koaza":"","lat":34.291615,"lng":132.511364,"zip":"7370875"},{"town":"天応大浜四丁目","koaza":"","lat":34.29413,"lng":132.50815,"zip":"7370875"},{"town":"天応塩谷町","koaza":"","lat":34.282767,"lng":132.520235,"zip":"7370881"},{"town":"天応町","koaza":"","lat":34.291988,"lng":132.531656,"zip":"7370000"},{"town":"天応伝十原町","koaza":"","lat":34.2918,"lng":132.514642,"zip":"7370884"},{"town":"天応西条一丁目","koaza":"","lat":34.28789,"lng":132.519755,"zip":"7370883"},{"town":"天応西条二丁目","koaza":"","lat":34.289877,"lng":132.518095,"zip":"7370883"},{"town":"天応西条三丁目","koaza":"","lat":34.290961,"lng":132.521794,"zip":"7370883"},{"town":"天応西条四丁目","koaza":"","lat":34.290075,"lng":132.526188,"zip":"7370883"},{"town":"天応東久保一丁目","koaza":"","lat":34.285986,"lng":132.522371,"zip":"7370882"},{"town":"天応東久保二丁目","koaza":"","lat":34.288425,"lng":132.523916,"zip":"7370882"},{"town":"天応福浦町","koaza":"","lat":34.295751,"lng":132.510011,"zip":"7370885"},{"town":"天応南町","koaza":"","lat":34.285341,"lng":132.517057,"zip":"7370874"},{"town":"天応宮町","koaza":"","lat":34.285622,"lng":132.519427,"zip":"7370876"},{"town":"栃原町","koaza":"","lat":34.279815,"lng":132.585652,"zip":"7370922"},{"town":"豊浜町大字斎島","koaza":"","lat":34.118076,"lng":132.793577,"zip":"7370000"},{"town":"豊浜町大字大浜","koaza":"","lat":34.165743,"lng":132.814779,"zip":"7370000"},{"town":"豊浜町大字豊島","koaza":"","lat":34.175031,"lng":132.785169,"zip":"7370000"},{"town":"苗代町","koaza":"","lat":34.300448,"lng":132.583492,"zip":"7370921"},{"town":"長迫町","koaza":"","lat":34.24846,"lng":132.577068,"zip":"7370035"},{"town":"長谷町","koaza":"","lat":34.273915,"lng":132.524308,"zip":"7370871"},{"town":"中通一丁目","koaza":"","lat":34.243034,"lng":132.56183,"zip":"7370046"},{"town":"中通二丁目","koaza":"","lat":34.24464,"lng":132.563604,"zip":"7370046"},{"town":"中通三丁目","koaza":"","lat":34.2459,"lng":132.565014,"zip":"7370046"},{"town":"中通四丁目","koaza":"","lat":34.247323,"lng":132.566506,"zip":"7370046"},{"town":"長ノ木町","koaza":"","lat":34.254362,"lng":132.573143,"zip":"7370053"},{"town":"仁方大歳町","koaza":"","lat":34.224911,"lng":132.660607,"zip":"7370153"},{"town":"仁方桟橋通","koaza":"","lat":34.219316,"lng":132.656072,"zip":"7370154"},{"town":"仁方町","koaza":"","lat":34.234419,"lng":132.661904,"zip":"7372609"},{"town":"仁方中筋町","koaza":"","lat":34.232949,"lng":132.652869,"zip":"7370151"},{"town":"仁方西神町","koaza":"","lat":34.226706,"lng":132.648437,"zip":"7370145"},{"town":"仁方錦町","koaza":"","lat":34.219283,"lng":132.652178,"zip":"7370155"},{"town":"仁方本町一丁目","koaza":"","lat":34.225885,"lng":132.654391,"zip":"7370152"},{"town":"仁方本町二丁目","koaza":"","lat":34.224106,"lng":132.657027,"zip":"7370152"},{"town":"仁方本町三丁目","koaza":"","lat":34.219183,"lng":132.662392,"zip":"7370152"},{"town":"仁方皆実町","koaza":"","lat":34.213073,"lng":132.657244,"zip":"7370156"},{"town":"仁方宮上町","koaza":"","lat":34.233879,"lng":132.648027,"zip":"7370146"},{"town":"二河峡町","koaza":"","lat":34.261389,"lng":132.560404,"zip":"7370816"},{"town":"二河町","koaza":"","lat":34.255288,"lng":132.562303,"zip":"7370818"},{"town":"西愛宕町","koaza":"","lat":34.251215,"lng":132.551571,"zip":"7370827"},{"town":"西片山町","koaza":"","lat":34.254942,"lng":132.565078,"zip":"7370806"},{"town":"西川原石町","koaza":"","lat":34.250733,"lng":132.545353,"zip":"7370825"},{"town":"西塩屋町","koaza":"","lat":34.251349,"lng":132.540319,"zip":"7370838"},{"town":"西鹿田一丁目","koaza":"","lat":34.247726,"lng":132.58004,"zip":"7370074"},{"town":"西鹿田二丁目","koaza":"","lat":34.248381,"lng":132.581095,"zip":"7370074"},{"town":"西惣付町","koaza":"","lat":34.263196,"lng":132.572759,"zip":"7370062"},{"town":"西辰川一丁目","koaza":"","lat":34.256871,"lng":132.570322,"zip":"7370809"},{"town":"西辰川二丁目","koaza":"","lat":34.259803,"lng":132.570609,"zip":"7370809"},{"town":"西谷町","koaza":"","lat":34.260194,"lng":132.579302,"zip":"7370064"},{"town":"西中央一丁目","koaza":"","lat":34.246571,"lng":132.557549,"zip":"7370811"},{"town":"西中央二丁目","koaza":"","lat":34.248149,"lng":132.558571,"zip":"7370811"},{"town":"西中央三丁目","koaza":"","lat":34.249681,"lng":132.560198,"zip":"7370811"},{"town":"西中央四丁目","koaza":"","lat":34.251779,"lng":132.560839,"zip":"7370811"},{"town":"西中央五丁目","koaza":"","lat":34.252752,"lng":132.563658,"zip":"7370811"},{"town":"西畑町","koaza":"","lat":34.253725,"lng":132.584596,"zip":"7370075"},{"town":"西三津田町","koaza":"","lat":34.252691,"lng":132.554273,"zip":"7370812"},{"town":"晴海町","koaza":"","lat":34.246481,"lng":132.531507,"zip":"7370833"},{"town":"東愛宕町","koaza":"","lat":34.252368,"lng":132.552944,"zip":"7370828"},{"town":"東片山町","koaza":"","lat":34.253546,"lng":132.566431,"zip":"7370805"},{"town":"東川原石町","koaza":"","lat":34.247976,"lng":132.546722,"zip":"7370824"},{"town":"東塩屋町","koaza":"","lat":34.251775,"lng":132.542332,"zip":"7370837"},{"town":"東鹿田町","koaza":"","lat":34.249224,"lng":132.583881,"zip":"7370073"},{"town":"東惣付町","koaza":"","lat":34.266923,"lng":132.580381,"zip":"7370063"},{"town":"東辰川町","koaza":"","lat":34.258645,"lng":132.57291,"zip":"7370801"},{"town":"東中央一丁目","koaza":"","lat":34.250062,"lng":132.569793,"zip":"7370052"},{"town":"東中央二丁目","koaza":"","lat":34.251876,"lng":132.570527,"zip":"7370052"},{"town":"東中央三丁目","koaza":"","lat":34.253769,"lng":132.57094,"zip":"7370052"},{"town":"東中央四丁目","koaza":"","lat":34.255324,"lng":132.571422,"zip":"7370052"},{"town":"東畑一丁目","koaza":"","lat":34.250989,"lng":132.587005,"zip":"7370072"},{"town":"東畑二丁目","koaza":"","lat":34.253443,"lng":132.586974,"zip":"7370072"},{"town":"東三津田町","koaza":"","lat":34.253173,"lng":132.555921,"zip":"7370813"},{"town":"光町","koaza":"","lat":34.244311,"lng":132.535367,"zip":"7370831"},{"town":"平原町","koaza":"","lat":34.254977,"lng":132.580661,"zip":"7370078"},{"town":"広石内一丁目","koaza":"","lat":34.262612,"lng":132.631538,"zip":"7370101"},{"town":"広石内二丁目","koaza":"","lat":34.263909,"lng":132.629852,"zip":"7370101"},{"town":"広石内三丁目","koaza":"","lat":34.266977,"lng":132.632575,"zip":"7370101"},{"town":"広石内四丁目","koaza":"","lat":34.271359,"lng":132.634813,"zip":"7370101"},{"town":"広駅前一丁目","koaza":"","lat":34.230991,"lng":132.628326,"zip":"7370142"},{"town":"広駅前二丁目","koaza":"","lat":34.23015,"lng":132.63144,"zip":"7370142"},{"town":"広黄幡町","koaza":"","lat":34.216165,"lng":132.617542,"zip":"7370138"},{"town":"広大新開一丁目","koaza":"","lat":34.232155,"lng":132.624882,"zip":"7370141"},{"town":"広大新開二丁目","koaza":"","lat":34.235586,"lng":132.626358,"zip":"7370141"},{"town":"広大新開三丁目","koaza":"","lat":34.234557,"lng":132.629729,"zip":"7370141"},{"town":"広杭本町","koaza":"","lat":34.238741,"lng":132.627993,"zip":"7370122"},{"town":"広古新開一丁目","koaza":"","lat":34.233759,"lng":132.61788,"zip":"7370112"},{"town":"広古新開二丁目","koaza":"","lat":34.234422,"lng":132.615346,"zip":"7370112"},{"town":"広古新開三丁目","koaza":"","lat":34.236708,"lng":132.612051,"zip":"7370112"},{"town":"広小坪一丁目","koaza":"","lat":34.208095,"lng":132.635998,"zip":"7370137"},{"town":"広小坪二丁目","koaza":"","lat":34.203957,"lng":132.640703,"zip":"7370137"},{"town":"広塩焼一丁目","koaza":"","lat":34.250852,"lng":132.63128,"zip":"7370103"},{"town":"広塩焼二丁目","koaza":"","lat":34.253536,"lng":132.631531,"zip":"7370103"},{"town":"広白石一丁目","koaza":"","lat":34.229335,"lng":132.633974,"zip":"7370143"},{"town":"広白石二丁目","koaza":"","lat":34.22802,"lng":132.636314,"zip":"7370143"},{"town":"広白石三丁目","koaza":"","lat":34.230199,"lng":132.637405,"zip":"7370143"},{"town":"広白石四丁目","koaza":"","lat":34.22602,"lng":132.64167,"zip":"7370143"},{"town":"広白岳一丁目","koaza":"","lat":34.226324,"lng":132.631244,"zip":"7370144"},{"town":"広白岳二丁目","koaza":"","lat":34.224936,"lng":132.636282,"zip":"7370144"},{"town":"広白岳三丁目","koaza":"","lat":34.223679,"lng":132.6332,"zip":"7370144"},{"town":"広白岳四丁目","koaza":"","lat":34.219533,"lng":132.634573,"zip":"7370144"},{"town":"広白岳五丁目","koaza":"","lat":34.223292,"lng":132.637886,"zip":"7370144"},{"town":"広白岳六丁目","koaza":"","lat":34.222804,"lng":132.641585,"zip":"7370144"},{"town":"広末広一丁目","koaza":"","lat":34.229383,"lng":132.620267,"zip":"7370133"},{"town":"広末広二丁目","koaza":"","lat":34.224488,"lng":132.619181,"zip":"7370133"},{"town":"広多賀谷一丁目","koaza":"","lat":34.231028,"lng":132.611873,"zip":"7370134"},{"town":"広多賀谷二丁目","koaza":"","lat":34.228249,"lng":132.610478,"zip":"7370134"},{"town":"広多賀谷三丁目","koaza":"","lat":34.225074,"lng":132.609616,"zip":"7370134"},{"town":"広多賀谷四丁目","koaza":"","lat":34.221,"lng":132.606818,"zip":"7370134"},{"town":"広津久茂町","koaza":"","lat":34.220267,"lng":132.622151,"zip":"7370135"},{"town":"広徳丸町","koaza":"","lat":34.257789,"lng":132.631819,"zip":"7370102"},{"town":"広中迫町","koaza":"","lat":34.247772,"lng":132.630203,"zip":"7370105"},{"town":"広中新開一丁目","koaza":"","lat":34.240842,"lng":132.626915,"zip":"7370124"},{"town":"広中町","koaza":"","lat":34.229161,"lng":132.627431,"zip":"7370131"},{"town":"広長浜一丁目","koaza":"","lat":34.214717,"lng":132.619566,"zip":"7370136"},{"town":"広長浜二丁目","koaza":"","lat":34.215572,"lng":132.621529,"zip":"7370136"},{"town":"広長浜三丁目","koaza":"","lat":34.214698,"lng":132.623486,"zip":"7370136"},{"town":"広長浜四丁目","koaza":"","lat":34.212949,"lng":132.62441,"zip":"7370136"},{"town":"広長浜五丁目","koaza":"","lat":34.209309,"lng":132.627956,"zip":"7370136"},{"town":"広名田一丁目","koaza":"","lat":34.228313,"lng":132.625051,"zip":"7370132"},{"town":"広名田二丁目","koaza":"","lat":34.225451,"lng":132.627511,"zip":"7370132"},{"town":"広文化町","koaza":"","lat":34.234508,"lng":132.610985,"zip":"7370114"},{"town":"広本町一丁目","koaza":"","lat":34.231839,"lng":132.620156,"zip":"7370125"},{"town":"広本町二丁目","koaza":"","lat":34.233862,"lng":132.621379,"zip":"7370125"},{"town":"広町","koaza":"","lat":34.246621,"lng":132.609529,"zip":"7372609"},{"town":"広町田一丁目","koaza":"","lat":34.25206,"lng":132.629236,"zip":"7370104"},{"town":"広町田二丁目","koaza":"","lat":34.257823,"lng":132.629077,"zip":"7370104"},{"town":"広三芦一丁目","koaza":"","lat":34.245428,"lng":132.630674,"zip":"7370106"},{"town":"広三芦二丁目","koaza":"","lat":34.24893,"lng":132.633202,"zip":"7370106"},{"town":"広横路一丁目","koaza":"","lat":34.237637,"lng":132.608601,"zip":"7370113"},{"town":"広横路二丁目","koaza":"","lat":34.242191,"lng":132.609469,"zip":"7370113"},{"town":"広吉松一丁目","koaza":"","lat":34.238443,"lng":132.630697,"zip":"7370121"},{"town":"広吉松二丁目","koaza":"","lat":34.242047,"lng":132.628898,"zip":"7370121"},{"town":"広両谷一丁目","koaza":"","lat":34.232722,"lng":132.63206,"zip":"7370123"},{"town":"広両谷二丁目","koaza":"","lat":34.23395,"lng":132.633838,"zip":"7370123"},{"town":"広両谷三丁目","koaza":"","lat":34.235714,"lng":132.63182,"zip":"7370123"},{"town":"伏原一丁目","koaza":"","lat":34.252885,"lng":132.575358,"zip":"7370077"},{"town":"伏原二丁目","koaza":"","lat":34.254286,"lng":132.576213,"zip":"7370077"},{"town":"伏原三丁目","koaza":"","lat":34.255541,"lng":132.578371,"zip":"7370077"},{"town":"船見町","koaza":"","lat":34.226048,"lng":132.553456,"zip":"7370015"},{"town":"望地町","koaza":"","lat":34.25841,"lng":132.580804,"zip":"7370065"},{"town":"本通一丁目","koaza":"","lat":34.242,"lng":132.564236,"zip":"7370045"},{"town":"本通二丁目","koaza":"","lat":34.243336,"lng":132.565561,"zip":"7370045"},{"town":"本通三丁目","koaza":"","lat":34.244801,"lng":132.566518,"zip":"7370045"},{"town":"本通四丁目","koaza":"","lat":34.246854,"lng":132.568478,"zip":"7370045"},{"town":"本通五丁目","koaza":"","lat":34.249312,"lng":132.571146,"zip":"7370045"},{"town":"本通六丁目","koaza":"","lat":34.249774,"lng":132.57394,"zip":"7370045"},{"town":"本通七丁目","koaza":"","lat":34.251371,"lng":132.576953,"zip":"7370045"},{"town":"本通八丁目","koaza":"","lat":34.250772,"lng":132.58017,"zip":"7370045"},{"town":"本町","koaza":"","lat":34.2453,"lng":132.568979,"zip":"7370032"},{"town":"的場一丁目","koaza":"","lat":34.217676,"lng":132.550476,"zip":"7370013"},{"town":"的場二丁目","koaza":"","lat":34.21489,"lng":132.550036,"zip":"7370013"},{"town":"的場三丁目","koaza":"","lat":34.212182,"lng":132.550072,"zip":"7370013"},{"town":"的場四丁目","koaza":"","lat":34.210198,"lng":132.548258,"zip":"7370013"},{"town":"的場五丁目","koaza":"","lat":34.208361,"lng":132.547463,"zip":"7370013"},{"town":"溝路町","koaza":"","lat":34.247905,"lng":132.575453,"zip":"7370034"},{"town":"南辰川町","koaza":"","lat":34.256552,"lng":132.572102,"zip":"7370802"},{"town":"見晴一丁目","koaza":"","lat":34.199307,"lng":132.547982,"zip":"7370011"},{"town":"見晴二丁目","koaza":"","lat":34.198963,"lng":132.551757,"zip":"7370011"},{"town":"見晴三丁目","koaza":"","lat":34.20072,"lng":132.555677,"zip":"7370011"},{"town":"宮原十丁目","koaza":"","lat":34.225313,"lng":132.559242,"zip":"7370024"},{"town":"宮原十一丁目","koaza":"","lat":34.224765,"lng":132.557596,"zip":"7370024"},{"town":"宮原十二丁目","koaza":"","lat":34.223533,"lng":132.555861,"zip":"7370024"},{"town":"宮原十三丁目","koaza":"","lat":34.220192,"lng":132.554478,"zip":"7370024"},{"town":"宮原一丁目","koaza":"","lat":34.235418,"lng":132.569967,"zip":"7370024"},{"town":"宮原二丁目","koaza":"","lat":34.235575,"lng":132.565812,"zip":"7370024"},{"town":"宮原三丁目","koaza":"","lat":34.234388,"lng":132.565194,"zip":"7370024"},{"town":"宮原四丁目","koaza":"","lat":34.233772,"lng":132.562652,"zip":"7370024"},{"town":"宮原五丁目","koaza":"","lat":34.232192,"lng":132.562445,"zip":"7370024"},{"town":"宮原六丁目","koaza":"","lat":34.23035,"lng":132.563229,"zip":"7370024"},{"town":"宮原七丁目","koaza":"","lat":34.230037,"lng":132.560972,"zip":"7370024"},{"town":"宮原八丁目","koaza":"","lat":34.228405,"lng":132.560171,"zip":"7370024"},{"town":"宮原九丁目","koaza":"","lat":34.228287,"lng":132.557588,"zip":"7370024"},{"town":"宮原村","koaza":"","lat":34.224924,"lng":132.568176,"zip":"7370000"},{"town":"室瀬町","koaza":"","lat":34.232348,"lng":132.568074,"zip":"7370025"},{"town":"焼山泉ヶ丘一丁目","koaza":"","lat":34.308173,"lng":132.559617,"zip":"7370000"},{"town":"焼山泉ヶ丘二丁目","koaza":"","lat":34.311025,"lng":132.556941,"zip":"7370000"},{"town":"焼山北一丁目","koaza":"","lat":34.300462,"lng":132.557867,"zip":"7370911"},{"town":"焼山北二丁目","koaza":"","lat":34.303859,"lng":132.548625,"zip":"7370911"},{"town":"焼山北三丁目","koaza":"","lat":34.30753,"lng":132.555693,"zip":"7370911"},{"town":"焼山此原町","koaza":"","lat":34.281999,"lng":132.547758,"zip":"7370902"},{"town":"焼山桜ヶ丘一丁目","koaza":"","lat":34.284118,"lng":132.551864,"zip":"7370000"},{"town":"焼山桜ヶ丘二丁目","koaza":"","lat":34.2835,"lng":132.55389,"zip":"7370000"},{"town":"焼山桜ヶ丘三丁目","koaza":"","lat":34.285897,"lng":132.553606,"zip":"7370000"},{"town":"焼山中央一丁目","koaza":"","lat":34.292593,"lng":132.557611,"zip":"7370935"},{"town":"焼山中央二丁目","koaza":"","lat":34.296894,"lng":132.55806,"zip":"7370935"},{"town":"焼山中央三丁目","koaza":"","lat":34.294462,"lng":132.562258,"zip":"7370935"},{"town":"焼山中央四丁目","koaza":"","lat":34.291095,"lng":132.561023,"zip":"7370935"},{"town":"焼山中央五丁目","koaza":"","lat":34.290564,"lng":132.562896,"zip":"7370935"},{"town":"焼山中央六丁目","koaza":"","lat":34.28897,"lng":132.566657,"zip":"7370935"},{"town":"焼山町","koaza":"","lat":34.293469,"lng":132.541673,"zip":"7370906"},{"town":"焼山西一丁目","koaza":"","lat":34.286067,"lng":132.548976,"zip":"7370903"},{"town":"焼山西二丁目","koaza":"","lat":34.28984,"lng":132.553154,"zip":"7370903"},{"town":"焼山西三丁目","koaza":"","lat":34.295727,"lng":132.55198,"zip":"7370903"},{"town":"焼山東一丁目","koaza":"","lat":34.298451,"lng":132.56385,"zip":"7370936"},{"town":"焼山東二丁目","koaza":"","lat":34.295555,"lng":132.566068,"zip":"7370936"},{"town":"焼山東三丁目","koaza":"","lat":34.292298,"lng":132.567554,"zip":"7370936"},{"town":"焼山東四丁目","koaza":"","lat":34.29176,"lng":132.570704,"zip":"7370936"},{"town":"焼山ひばりヶ丘町","koaza":"","lat":34.279158,"lng":132.548397,"zip":"7370000"},{"town":"焼山本庄一丁目","koaza":"","lat":34.304168,"lng":132.555886,"zip":"7370912"},{"town":"焼山本庄二丁目","koaza":"","lat":34.305939,"lng":132.552634,"zip":"7370912"},{"town":"焼山本庄三丁目","koaza":"","lat":34.304803,"lng":132.552097,"zip":"7370912"},{"town":"焼山本庄四丁目","koaza":"","lat":34.303686,"lng":132.554144,"zip":"7370912"},{"town":"焼山本庄五丁目","koaza":"","lat":34.302128,"lng":132.554836,"zip":"7370912"},{"town":"焼山政畝一丁目","koaza":"","lat":34.28802,"lng":132.558144,"zip":"7370934"},{"town":"焼山政畝二丁目","koaza":"","lat":34.289098,"lng":132.555687,"zip":"7370934"},{"town":"焼山政畝三丁目","koaza":"","lat":34.29099,"lng":132.558543,"zip":"7370934"},{"town":"焼山松ヶ丘一丁目","koaza":"","lat":34.279077,"lng":132.552696,"zip":"7370000"},{"town":"焼山松ヶ丘二丁目","koaza":"","lat":34.280895,"lng":132.555617,"zip":"7370000"},{"town":"焼山三ツ石町","koaza":"","lat":34.285127,"lng":132.566229,"zip":"7370931"},{"town":"焼山南一丁目","koaza":"","lat":34.287524,"lng":132.570848,"zip":"7370924"},{"town":"焼山南二丁目","koaza":"","lat":34.28571,"lng":132.574734,"zip":"7370924"},{"town":"焼山宮ヶ迫一丁目","koaza":"","lat":34.300086,"lng":132.552414,"zip":"7370000"},{"town":"焼山宮ヶ迫二丁目","koaza":"","lat":34.302523,"lng":132.54673,"zip":"7370000"},{"town":"安浦町安登西十丁目","koaza":"","lat":34.256393,"lng":132.710717,"zip":"7372512"},{"town":"安浦町安登西一丁目","koaza":"","lat":34.261495,"lng":132.725444,"zip":"7372512"},{"town":"安浦町安登西二丁目","koaza":"","lat":34.258888,"lng":132.723998,"zip":"7372512"},{"town":"安浦町安登西三丁目","koaza":"","lat":34.25805,"lng":132.720694,"zip":"7372512"},{"town":"安浦町安登西四丁目","koaza":"","lat":34.25673,"lng":132.717646,"zip":"7372512"},{"town":"安浦町安登西五丁目","koaza":"","lat":34.254991,"lng":132.720826,"zip":"7372512"},{"town":"安浦町安登西六丁目","koaza":"","lat":34.252476,"lng":132.717777,"zip":"7372512"},{"town":"安浦町安登西七丁目","koaza":"","lat":34.246939,"lng":132.717175,"zip":"7372512"},{"town":"安浦町安登西八丁目","koaza":"","lat":34.253318,"lng":132.712951,"zip":"7372512"},{"town":"安浦町安登西九丁目","koaza":"","lat":34.25448,"lng":132.715016,"zip":"7372512"},{"town":"安浦町安登東一丁目","koaza":"","lat":34.260707,"lng":132.72761,"zip":"7372513"},{"town":"安浦町安登東二丁目","koaza":"","lat":34.257487,"lng":132.727518,"zip":"7372513"},{"town":"安浦町安登東三丁目","koaza":"","lat":34.25488,"lng":132.724079,"zip":"7372513"},{"town":"安浦町安登東四丁目","koaza":"","lat":34.250396,"lng":132.725126,"zip":"7372513"},{"town":"安浦町安登東五丁目","koaza":"","lat":34.251018,"lng":132.722318,"zip":"7372513"},{"town":"安浦町安登東六丁目","koaza":"","lat":34.247542,"lng":132.718659,"zip":"7372513"},{"town":"安浦町内海北一丁目","koaza":"","lat":34.284966,"lng":132.736778,"zip":"7372518"},{"town":"安浦町内海北二丁目","koaza":"","lat":34.288208,"lng":132.735891,"zip":"7372518"},{"town":"安浦町内海北三丁目","koaza":"","lat":34.289476,"lng":132.735015,"zip":"7372518"},{"town":"安浦町内海北四丁目","koaza":"","lat":34.294855,"lng":132.731358,"zip":"7372518"},{"town":"安浦町内海北五丁目","koaza":"","lat":34.28781,"lng":132.732601,"zip":"7372518"},{"town":"安浦町内海北六丁目","koaza":"","lat":34.284502,"lng":132.732328,"zip":"7372518"},{"town":"安浦町内海北七丁目","koaza":"","lat":34.282987,"lng":132.727306,"zip":"7372518"},{"town":"安浦町内海南一丁目","koaza":"","lat":34.282506,"lng":132.738798,"zip":"7372519"},{"town":"安浦町内海南二丁目","koaza":"","lat":34.281059,"lng":132.737948,"zip":"7372519"},{"town":"安浦町内海南三丁目","koaza":"","lat":34.278689,"lng":132.734264,"zip":"7372519"},{"town":"安浦町内海南四丁目","koaza":"","lat":34.27723,"lng":132.734886,"zip":"7372519"},{"town":"安浦町内海南五丁目","koaza":"","lat":34.278091,"lng":132.738514,"zip":"7372519"},{"town":"安浦町内海南六丁目","koaza":"","lat":34.273114,"lng":132.730753,"zip":"7372519"},{"town":"安浦町大字赤向坂","koaza":"","lat":34.304799,"lng":132.732934,"zip":"7370000"},{"town":"安浦町大字安登","koaza":"","lat":34.251974,"lng":132.748553,"zip":"7370000"},{"town":"安浦町大字内海","koaza":"","lat":34.293649,"lng":132.723331,"zip":"7370000"},{"town":"安浦町大字内平","koaza":"","lat":34.272182,"lng":132.714129,"zip":"7370000"},{"town":"安浦町大字女子畑","koaza":"","lat":34.314082,"lng":132.741897,"zip":"7370000"},{"town":"安浦町大字下垣内","koaza":"","lat":34.300304,"lng":132.715615,"zip":"7370000"},{"town":"安浦町大字中切","koaza":"","lat":34.269889,"lng":132.724305,"zip":"7370000"},{"town":"安浦町大字中畑","koaza":"","lat":34.286975,"lng":132.688894,"zip":"7370000"},{"town":"安浦町大字原畑","koaza":"","lat":34.280437,"lng":132.719451,"zip":"7370000"},{"town":"安浦町大字三津口","koaza":"","lat":34.287517,"lng":132.752321,"zip":"7370000"},{"town":"安浦町中央一丁目","koaza":"","lat":34.283673,"lng":132.744616,"zip":"7372516"},{"town":"安浦町中央二丁目","koaza":"","lat":34.28371,"lng":132.741067,"zip":"7372516"},{"town":"安浦町中央三丁目","koaza":"","lat":34.281455,"lng":132.741806,"zip":"7372516"},{"town":"安浦町中央四丁目","koaza":"","lat":34.28167,"lng":132.743928,"zip":"7372516"},{"town":"安浦町中央五丁目","koaza":"","lat":34.281465,"lng":132.74573,"zip":"7372516"},{"town":"安浦町中央六丁目","koaza":"","lat":34.281276,"lng":132.747762,"zip":"7372516"},{"town":"安浦町中央七丁目","koaza":"","lat":34.27974,"lng":132.748743,"zip":"7372516"},{"town":"安浦町中央八丁目","koaza":"","lat":34.279875,"lng":132.752119,"zip":"7372516"},{"town":"安浦町中央北一丁目","koaza":"","lat":34.28469,"lng":132.744895,"zip":"7372515"},{"town":"安浦町中央北二丁目","koaza":"","lat":34.286319,"lng":132.740637,"zip":"7372515"},{"town":"安浦町中央ハイツ","koaza":"","lat":34.250253,"lng":132.711348,"zip":"7372514"},{"town":"安浦町水尻一丁目","koaza":"","lat":34.274457,"lng":132.750634,"zip":"7372517"},{"town":"安浦町水尻二丁目","koaza":"","lat":34.272589,"lng":132.754344,"zip":"7372517"},{"town":"安浦町三津口一丁目","koaza":"","lat":34.283914,"lng":132.754255,"zip":"7372502"},{"town":"安浦町三津口二丁目","koaza":"","lat":34.282744,"lng":132.756383,"zip":"7372502"},{"town":"安浦町三津口三丁目","koaza":"","lat":34.282954,"lng":132.75962,"zip":"7372502"},{"town":"安浦町三津口四丁目","koaza":"","lat":34.283232,"lng":132.763311,"zip":"7372502"},{"town":"安浦町三津口五丁目","koaza":"","lat":34.2861,"lng":132.761847,"zip":"7372502"},{"town":"安浦町三津口六丁目","koaza":"","lat":34.281325,"lng":132.775111,"zip":"7372502"},{"town":"八幡町","koaza":"","lat":34.242834,"lng":132.568459,"zip":"7370044"},{"town":"山手一丁目","koaza":"","lat":34.253009,"lng":132.558089,"zip":"7370814"},{"town":"山手二丁目","koaza":"","lat":34.257384,"lng":132.558757,"zip":"7370814"},{"town":"弥生町","koaza":"","lat":34.278841,"lng":132.521978,"zip":"7370877"},{"town":"豊町大長","koaza":"","lat":34.181974,"lng":132.851346,"zip":"7340301"},{"town":"豊町沖友","koaza":"","lat":34.163686,"lng":132.837356,"zip":"7340303"},{"town":"豊町久比","koaza":"","lat":34.177624,"lng":132.827424,"zip":"7340304"},{"town":"豊町御手洗","koaza":"","lat":34.177431,"lng":132.866063,"zip":"7340302"},{"town":"吉浦池ノ浦町","koaza":"","lat":34.250826,"lng":132.532021,"zip":"7370844"},{"town":"吉浦岩神町","koaza":"","lat":34.264905,"lng":132.527697,"zip":"7370865"},{"town":"吉浦上城町","koaza":"","lat":34.268258,"lng":132.526305,"zip":"7370867"},{"town":"吉浦神賀町","koaza":"","lat":34.25919,"lng":132.532455,"zip":"7370841"},{"town":"吉浦新出町","koaza":"","lat":34.260008,"lng":132.534777,"zip":"7370851"},{"town":"吉浦新町一丁目","koaza":"","lat":34.256639,"lng":132.528097,"zip":"7370845"},{"town":"吉浦新町二丁目","koaza":"","lat":34.252157,"lng":132.530683,"zip":"7370845"},{"town":"吉浦潭鼓町","koaza":"","lat":34.255248,"lng":132.532733,"zip":"7370843"},{"town":"吉浦町","koaza":"","lat":34.26858,"lng":132.544232,"zip":"7370846"},{"town":"吉浦中町一丁目","koaza":"","lat":34.258361,"lng":132.528347,"zip":"7370853"},{"town":"吉浦中町二丁目","koaza":"","lat":34.261209,"lng":132.530256,"zip":"7370853"},{"town":"吉浦中町三丁目","koaza":"","lat":34.264126,"lng":132.531173,"zip":"7370853"},{"town":"吉浦西城町","koaza":"","lat":34.262296,"lng":132.526294,"zip":"7370864"},{"town":"吉浦東本町一丁目","koaza":"","lat":34.257811,"lng":132.529745,"zip":"7370852"},{"town":"吉浦東本町二丁目","koaza":"","lat":34.260983,"lng":132.531735,"zip":"7370852"},{"town":"吉浦東本町三丁目","koaza":"","lat":34.263101,"lng":132.532758,"zip":"7370852"},{"town":"吉浦東本町四丁目","koaza":"","lat":34.266127,"lng":132.534868,"zip":"7370852"},{"town":"吉浦東町","koaza":"","lat":34.257277,"lng":132.532279,"zip":"7370842"},{"town":"吉浦本町一丁目","koaza":"","lat":34.258824,"lng":132.52684,"zip":"7370861"},{"town":"吉浦本町二丁目","koaza":"","lat":34.260841,"lng":132.52858,"zip":"7370861"},{"town":"吉浦本町三丁目","koaza":"","lat":34.263107,"lng":132.529345,"zip":"7370861"},{"town":"吉浦松葉町","koaza":"","lat":34.265564,"lng":132.529668,"zip":"7370866"},{"town":"吉浦宮花町","koaza":"","lat":34.261329,"lng":132.523335,"zip":"7370863"},{"town":"両城一丁目","koaza":"","lat":34.246705,"lng":132.549501,"zip":"7370826"},{"town":"両城二丁目","koaza":"","lat":34.25108,"lng":132.548726,"zip":"7370826"},{"town":"若葉町","koaza":"","lat":34.246281,"lng":132.527172,"zip":"7370832"},{"town":"和庄一丁目","koaza":"","lat":34.246029,"lng":132.572488,"zip":"7370041"},{"town":"和庄二丁目","koaza":"","lat":34.243756,"lng":132.575029,"zip":"7370041"},{"town":"和庄町","koaza":"","lat":34.24004,"lng":132.579238,"zip":"7370000"},{"town":"和庄登町","koaza":"","lat":34.244184,"lng":132.571104,"zip":"7370043"},{"town":"和庄本町","koaza":"","lat":34.242306,"lng":132.573059,"zip":"7370042"},{"town":"広大広二丁目","koaza":"","lat":34.248306,"lng":132.627547,"zip":"7370111"},{"town":"広弁天橋町","koaza":"","lat":34.246195,"lng":132.627171,"zip":"7370107"},{"town":"広中新開三丁目","koaza":"","lat":34.242054,"lng":132.625997,"zip":"7370124"},{"town":"広古新開六丁目","koaza":"","lat":34.237556,"lng":132.619805,"zip":"7370112"},{"town":"広本町三丁目","koaza":"","lat":34.236679,"lng":132.622816,"zip":"7370125"},{"town":"広古新開五丁目","koaza":"","lat":34.23832,"lng":132.617235,"zip":"7370112"},{"town":"広横路三丁目","koaza":"","lat":34.242403,"lng":132.612139,"zip":"7370113"},{"town":"広古新開四丁目","koaza":"","lat":34.239081,"lng":132.61358,"zip":"7370112"},{"town":"広中新開二丁目","koaza":"","lat":34.239631,"lng":132.624089,"zip":"7370124"},{"town":"広古新開七丁目","koaza":"","lat":34.241215,"lng":132.618024,"zip":"7370112"},{"town":"広横路四丁目","koaza":"","lat":34.243323,"lng":132.615758,"zip":"7370113"},{"town":"広大広一丁目","koaza":"","lat":34.246156,"lng":132.619891,"zip":"7370111"},{"town":"広古新開八丁目","koaza":"","lat":34.242518,"lng":132.622093,"zip":"7370112"},{"town":"広古新開九丁目","koaza":"","lat":34.243737,"lng":132.624906,"zip":"7370112"},{"town":"音戸町早瀬一丁目","koaza":"","lat":34.161118,"lng":132.495779,"zip":"7371215"},{"town":"郷原町","koaza":"一ノ松光山","lat":34.303997,"lng":132.617133,"zip":"7370161"}]