[{"town":"阿多田","koaza":"","lat":34.192656,"lng":132.305406,"zip":"7390607"},{"town":"安条","koaza":"","lat":34.228969,"lng":132.174209,"zip":"7390634"},{"town":"後飯谷","koaza":"","lat":34.255873,"lng":132.152026,"zip":"7390637"},{"town":"大竹町大竹","koaza":"","lat":34.214066,"lng":132.207784,"zip":"7390600"},{"town":"大竹町木野","koaza":"","lat":34.217809,"lng":132.204176,"zip":"7390600"},{"town":"大竹町油見","koaza":"","lat":34.222206,"lng":132.213498,"zip":"7390600"},{"town":"小方一丁目","koaza":"","lat":34.237517,"lng":132.220837,"zip":"7390623"},{"town":"小方二丁目","koaza":"","lat":34.240789,"lng":132.21696,"zip":"7390623"},{"town":"小方ケ丘","koaza":"","lat":34.238464,"lng":132.21212,"zip":"7390628"},{"town":"小方町小方","koaza":"","lat":34.243584,"lng":132.200468,"zip":"7390627"},{"town":"小方町黒川","koaza":"","lat":34.258662,"lng":132.202584,"zip":"7390654"},{"town":"穂仁原","koaza":"","lat":34.230629,"lng":132.190332,"zip":"7390632"},{"town":"北栄","koaza":"","lat":34.223164,"lng":132.22566,"zip":"7390604"},{"town":"玖波一丁目","koaza":"","lat":34.252822,"lng":132.22832,"zip":"7390651"},{"town":"玖波二丁目","koaza":"","lat":34.255255,"lng":132.229296,"zip":"7390651"},{"town":"玖波三丁目","koaza":"","lat":34.259654,"lng":132.233886,"zip":"7390651"},{"town":"玖波四丁目","koaza":"","lat":34.253323,"lng":132.224176,"zip":"7390651"},{"town":"玖波五丁目","koaza":"","lat":34.260055,"lng":132.224,"zip":"7390651"},{"town":"玖波六丁目","koaza":"","lat":34.258593,"lng":132.227481,"zip":"7390651"},{"town":"玖波七丁目","koaza":"","lat":34.26053,"lng":132.231682,"zip":"7390651"},{"town":"玖波八丁目","koaza":"","lat":34.263043,"lng":132.235076,"zip":"7390651"},{"town":"玖波町","koaza":"","lat":34.272795,"lng":132.211134,"zip":"7390656"},{"town":"栗谷町後原","koaza":"","lat":34.296698,"lng":132.169836,"zip":"7390644"},{"town":"栗谷町大栗林","koaza":"","lat":34.289438,"lng":132.145924,"zip":"7390646"},{"town":"栗谷町奥谷尻","koaza":"","lat":34.299137,"lng":132.190728,"zip":"7390642"},{"town":"栗谷町小栗林","koaza":"","lat":34.304552,"lng":132.160508,"zip":"7390645"},{"town":"栗谷町谷和","koaza":"","lat":34.2729,"lng":132.182444,"zip":"7390643"},{"town":"栗谷町広原","koaza":"","lat":34.326315,"lng":132.194149,"zip":"7390641"},{"town":"黒川一丁目","koaza":"","lat":34.246912,"lng":132.223673,"zip":"7390653"},{"town":"黒川二丁目","koaza":"","lat":34.245758,"lng":132.219292,"zip":"7390653"},{"town":"黒川三丁目","koaza":"","lat":34.249356,"lng":132.221956,"zip":"7390653"},{"town":"木野一丁目","koaza":"","lat":34.207651,"lng":132.195362,"zip":"7390616"},{"town":"木野二丁目","koaza":"","lat":34.218753,"lng":132.200622,"zip":"7390616"},{"town":"白石一丁目","koaza":"","lat":34.214224,"lng":132.215201,"zip":"7390614"},{"town":"白石二丁目","koaza":"","lat":34.209969,"lng":132.215083,"zip":"7390614"},{"town":"新町一丁目","koaza":"","lat":34.217115,"lng":132.222599,"zip":"7390611"},{"town":"新町二丁目","koaza":"","lat":34.212007,"lng":132.223866,"zip":"7390611"},{"town":"新町三丁目","koaza":"","lat":34.210948,"lng":132.22218,"zip":"7390611"},{"town":"立戸一丁目","koaza":"","lat":34.222763,"lng":132.218589,"zip":"7390605"},{"town":"立戸二丁目","koaza":"","lat":34.225944,"lng":132.219458,"zip":"7390605"},{"town":"立戸三丁目","koaza":"","lat":34.230279,"lng":132.218345,"zip":"7390605"},{"town":"立戸四丁目","koaza":"","lat":34.224069,"lng":132.222927,"zip":"7390605"},{"town":"西栄一丁目","koaza":"","lat":34.217187,"lng":132.224498,"zip":"7390603"},{"town":"西栄二丁目","koaza":"","lat":34.219233,"lng":132.226292,"zip":"7390603"},{"town":"西栄三丁目","koaza":"","lat":34.216168,"lng":132.228033,"zip":"7390603"},{"town":"八丁","koaza":"","lat":34.249351,"lng":132.180829,"zip":"7390600"},{"town":"晴海一丁目","koaza":"","lat":34.239603,"lng":132.223814,"zip":"7390622"},{"town":"晴海二丁目","koaza":"","lat":34.240766,"lng":132.22661,"zip":"7390622"},{"town":"東栄一丁目","koaza":"","lat":34.220528,"lng":132.231297,"zip":"7390601"},{"town":"東栄二丁目","koaza":"","lat":34.216654,"lng":132.235333,"zip":"7390601"},{"town":"東栄三丁目","koaza":"","lat":34.215326,"lng":132.24444,"zip":"7390601"},{"town":"比作","koaza":"","lat":34.234826,"lng":132.186035,"zip":"7390633"},{"town":"防鹿","koaza":"","lat":34.229996,"lng":132.203424,"zip":"7390631"},{"town":"本町一丁目","koaza":"","lat":34.212763,"lng":132.219073,"zip":"7390613"},{"town":"本町二丁目","koaza":"","lat":34.20863,"lng":132.217579,"zip":"7390613"},{"town":"前飯谷","koaza":"","lat":34.250077,"lng":132.166296,"zip":"7390636"},{"town":"松ケ原町","koaza":"","lat":34.296789,"lng":132.220225,"zip":"7390657"},{"town":"御園一丁目","koaza":"","lat":34.235359,"lng":132.217708,"zip":"7390624"},{"town":"御園二丁目","koaza":"","lat":34.235398,"lng":132.213127,"zip":"7390624"},{"town":"御園台","koaza":"","lat":34.23344,"lng":132.216177,"zip":"7390625"},{"town":"三ツ石町","koaza":"","lat":34.238929,"lng":132.209121,"zip":"7390626"},{"town":"港町一丁目","koaza":"","lat":34.243772,"lng":132.223628,"zip":"7390621"},{"town":"港町二丁目","koaza":"","lat":34.245595,"lng":132.224637,"zip":"7390621"},{"town":"南栄一丁目","koaza":"","lat":34.211309,"lng":132.226066,"zip":"7390602"},{"town":"南栄二丁目","koaza":"","lat":34.211682,"lng":132.228928,"zip":"7390602"},{"town":"南栄三丁目","koaza":"","lat":34.212487,"lng":132.232055,"zip":"7390602"},{"town":"御幸町","koaza":"","lat":34.227236,"lng":132.227554,"zip":"7390606"},{"town":"明治新開","koaza":"","lat":34.249456,"lng":132.227699,"zip":"7390652"},{"town":"元町一丁目","koaza":"","lat":34.207526,"lng":132.214465,"zip":"7390615"},{"town":"元町二丁目","koaza":"","lat":34.205028,"lng":132.214441,"zip":"7390615"},{"town":"元町三丁目","koaza":"","lat":34.205457,"lng":132.211197,"zip":"7390615"},{"town":"元町四丁目","koaza":"","lat":34.205414,"lng":132.205887,"zip":"7390615"},{"town":"油見一丁目","koaza":"","lat":34.216622,"lng":132.218822,"zip":"7390612"},{"town":"油見二丁目","koaza":"","lat":34.219187,"lng":132.216809,"zip":"7390612"},{"town":"油見三丁目","koaza":"","lat":34.219087,"lng":132.220942,"zip":"7390612"},{"town":"湯舟町","koaza":"","lat":34.251892,"lng":132.219771,"zip":"7390655"}]