[{"town":"曙町","koaza":"","lat":34.367164,"lng":132.539873,"zip":"7360031"},{"town":"石原","koaza":"","lat":34.37587,"lng":132.544818,"zip":"7360004"},{"town":"稲葉","koaza":"","lat":34.367966,"lng":132.55368,"zip":"7360012"},{"town":"稲荷町","koaza":"","lat":34.373467,"lng":132.532656,"zip":"7360067"},{"town":"畝一丁目","koaza":"","lat":34.377814,"lng":132.548411,"zip":"7360005"},{"town":"畝二丁目","koaza":"","lat":34.380539,"lng":132.552421,"zip":"7360005"},{"town":"大立町","koaza":"","lat":34.365666,"lng":132.545487,"zip":"7360025"},{"town":"海田市","koaza":"","lat":34.379874,"lng":132.54159,"zip":"7360000"},{"town":"蟹原一丁目","koaza":"","lat":34.372132,"lng":132.541586,"zip":"7360022"},{"town":"蟹原二丁目","koaza":"","lat":34.372781,"lng":132.545534,"zip":"7360022"},{"town":"上市","koaza":"","lat":34.373162,"lng":132.537524,"zip":"7360061"},{"town":"国信一丁目","koaza":"","lat":34.37844,"lng":132.553659,"zip":"7360002"},{"town":"国信二丁目","koaza":"","lat":34.380823,"lng":132.55677,"zip":"7360002"},{"town":"窪町","koaza":"","lat":34.370426,"lng":132.530177,"zip":"7360046"},{"town":"寿町","koaza":"","lat":34.361435,"lng":132.530435,"zip":"7360053"},{"town":"幸町","koaza":"","lat":34.368947,"lng":132.542924,"zip":"7360026"},{"town":"栄町","koaza":"","lat":34.362142,"lng":132.534297,"zip":"7360043"},{"town":"昭和中町","koaza":"","lat":34.369086,"lng":132.537733,"zip":"7360064"},{"town":"昭和町","koaza":"","lat":34.370355,"lng":132.536135,"zip":"7360062"},{"town":"新町","koaza":"","lat":34.373932,"lng":132.530966,"zip":"7360068"},{"town":"砂走","koaza":"","lat":34.38298,"lng":132.556347,"zip":"7360001"},{"town":"曽田","koaza":"","lat":34.375294,"lng":132.549686,"zip":"7360003"},{"town":"大正町","koaza":"","lat":34.369427,"lng":132.533019,"zip":"7360041"},{"town":"月見町","koaza":"","lat":34.361069,"lng":132.536668,"zip":"7360034"},{"town":"つくも町","koaza":"","lat":34.367334,"lng":132.528868,"zip":"7360051"},{"town":"寺迫一丁目","koaza":"","lat":34.371466,"lng":132.550718,"zip":"7360011"},{"town":"寺迫二丁目","koaza":"","lat":34.372451,"lng":132.552591,"zip":"7360011"},{"town":"中店","koaza":"","lat":34.372958,"lng":132.534349,"zip":"7360066"},{"town":"成本","koaza":"","lat":34.37452,"lng":132.540852,"zip":"7360021"},{"town":"西浜","koaza":"","lat":34.369287,"lng":132.545604,"zip":"7360024"},{"town":"西明神町","koaza":"","lat":34.357939,"lng":132.52098,"zip":"7360054"},{"town":"浜角","koaza":"","lat":34.369739,"lng":132.54794,"zip":"7360023"},{"town":"東一丁目","koaza":"","lat":34.365275,"lng":132.555325,"zip":"7360013"},{"town":"東二丁目","koaza":"","lat":34.366424,"lng":132.559813,"zip":"7360013"},{"town":"東海田","koaza":"","lat":34.363427,"lng":132.566567,"zip":"7360071"},{"town":"東昭和町","koaza":"","lat":34.369567,"lng":132.54037,"zip":"7360063"},{"town":"日の出町","koaza":"","lat":34.364881,"lng":132.537089,"zip":"7360035"},{"town":"堀川町","koaza":"","lat":34.368086,"lng":132.531387,"zip":"7360045"},{"town":"三迫一丁目","koaza":"","lat":34.36633,"lng":132.549317,"zip":"7360014"},{"town":"三迫二丁目","koaza":"","lat":34.363371,"lng":132.552559,"zip":"7360014"},{"town":"三迫三丁目","koaza":"","lat":34.357824,"lng":132.556705,"zip":"7360014"},{"town":"南幸町","koaza":"","lat":34.364934,"lng":132.541896,"zip":"7360032"},{"town":"南昭和町","koaza":"","lat":34.367414,"lng":132.536366,"zip":"7360065"},{"town":"南大正町","koaza":"","lat":34.366791,"lng":132.534289,"zip":"7360042"},{"town":"南つくも町","koaza":"","lat":34.36473,"lng":132.530458,"zip":"7360052"},{"town":"南堀川町","koaza":"","lat":34.365889,"lng":132.532413,"zip":"7360044"},{"town":"南本町","koaza":"","lat":34.362537,"lng":132.538727,"zip":"7360033"},{"town":"南明神町","koaza":"","lat":34.362714,"lng":132.526524,"zip":"7360055"},{"town":"明神町","koaza":"","lat":34.364524,"lng":132.524049,"zip":"7360056"}]