[{"town":"石神","koaza":"","lat":34.324961,"lng":132.567412,"zip":"7314225"},{"town":"大字川角","koaza":"","lat":34.319396,"lng":132.58005,"zip":"7314200"},{"town":"大字平谷","koaza":"","lat":34.338363,"lng":132.559548,"zip":"7314200"},{"town":"柿迫","koaza":"","lat":34.330334,"lng":132.565783,"zip":"7314228"},{"town":"川角一丁目","koaza":"","lat":34.331611,"lng":132.570891,"zip":"7314223"},{"town":"川角二丁目","koaza":"","lat":34.328457,"lng":132.573159,"zip":"7314223"},{"town":"川角三丁目","koaza":"","lat":34.325746,"lng":132.574306,"zip":"7314223"},{"town":"川角四丁目","koaza":"","lat":34.322357,"lng":132.570604,"zip":"7314223"},{"town":"川角五丁目","koaza":"","lat":34.321731,"lng":132.575922,"zip":"7314223"},{"town":"神田","koaza":"","lat":34.326411,"lng":132.570324,"zip":"7314224"},{"town":"貴船","koaza":"","lat":34.330591,"lng":132.569243,"zip":"7314227"},{"town":"呉地一丁目","koaza":"","lat":34.331194,"lng":132.585334,"zip":"7314222"},{"town":"呉地二丁目","koaza":"","lat":34.330882,"lng":132.581501,"zip":"7314222"},{"town":"呉地三丁目","koaza":"","lat":34.32744,"lng":132.580824,"zip":"7314222"},{"town":"呉地四丁目","koaza":"","lat":34.325928,"lng":132.586064,"zip":"7314222"},{"town":"呉地五丁目","koaza":"","lat":34.324572,"lng":132.581606,"zip":"7314222"},{"town":"城之堀十丁目","koaza":"","lat":34.351302,"lng":132.591152,"zip":"7314215"},{"town":"城之堀一丁目","koaza":"","lat":34.342546,"lng":132.583558,"zip":"7314215"},{"town":"城之堀二丁目","koaza":"","lat":34.344375,"lng":132.580972,"zip":"7314215"},{"town":"城之堀三丁目","koaza":"","lat":34.34816,"lng":132.583708,"zip":"7314215"},{"town":"城之堀四丁目","koaza":"","lat":34.34413,"lng":132.586036,"zip":"7314215"},{"town":"城之堀五丁目","koaza":"","lat":34.345669,"lng":132.588073,"zip":"7314215"},{"town":"城之堀六丁目","koaza":"","lat":34.348259,"lng":132.589156,"zip":"7314215"},{"town":"城之堀七丁目","koaza":"","lat":34.349655,"lng":132.58697,"zip":"7314215"},{"town":"城之堀八丁目","koaza":"","lat":34.353855,"lng":132.586201,"zip":"7314215"},{"town":"城之堀九丁目","koaza":"","lat":34.354466,"lng":132.588924,"zip":"7314215"},{"town":"新宮一丁目","koaza":"","lat":34.362556,"lng":132.60639,"zip":"7314211"},{"town":"新宮二丁目","koaza":"","lat":34.360254,"lng":132.604749,"zip":"7314211"},{"town":"新宮三丁目","koaza":"","lat":34.355625,"lng":132.608087,"zip":"7314211"},{"town":"新宮四丁目","koaza":"","lat":34.360758,"lng":132.611225,"zip":"7314211"},{"town":"新宮五丁目","koaza":"","lat":34.364853,"lng":132.614043,"zip":"7314211"},{"town":"新宮六丁目","koaza":"","lat":34.369933,"lng":132.621206,"zip":"7314211"},{"town":"新宮七丁目","koaza":"","lat":34.36816,"lng":132.616569,"zip":"7314211"},{"town":"新宮八丁目","koaza":"","lat":34.3705,"lng":132.618538,"zip":"7314211"},{"town":"出来庭十丁目","koaza":"","lat":34.334492,"lng":132.566565,"zip":"7314221"},{"town":"出来庭一丁目","koaza":"","lat":34.333818,"lng":132.580357,"zip":"7314221"},{"town":"出来庭二丁目","koaza":"","lat":34.332498,"lng":132.576887,"zip":"7314221"},{"town":"出来庭三丁目","koaza":"","lat":34.330882,"lng":132.575479,"zip":"7314221"},{"town":"出来庭四丁目","koaza":"","lat":34.334381,"lng":132.574928,"zip":"7314221"},{"town":"出来庭五丁目","koaza":"","lat":34.336209,"lng":132.578386,"zip":"7314221"},{"town":"出来庭六丁目","koaza":"","lat":34.337335,"lng":132.576452,"zip":"7314221"},{"town":"出来庭七丁目","koaza":"","lat":34.338714,"lng":132.573809,"zip":"7314221"},{"town":"出来庭八丁目","koaza":"","lat":34.338977,"lng":132.57208,"zip":"7314221"},{"town":"出来庭九丁目","koaza":"","lat":34.335667,"lng":132.567435,"zip":"7314221"},{"town":"中溝一丁目","koaza":"","lat":34.335772,"lng":132.585854,"zip":"7314214"},{"town":"中溝二丁目","koaza":"","lat":34.335027,"lng":132.583038,"zip":"7314214"},{"town":"中溝三丁目","koaza":"","lat":34.337632,"lng":132.582496,"zip":"7314214"},{"town":"中溝四丁目","koaza":"","lat":34.339842,"lng":132.582493,"zip":"7314214"},{"town":"中溝五丁目","koaza":"","lat":34.342025,"lng":132.577508,"zip":"7314214"},{"town":"中溝六丁目","koaza":"","lat":34.339746,"lng":132.575966,"zip":"7314214"},{"town":"萩原十丁目","koaza":"","lat":34.350041,"lng":132.594256,"zip":"7314213"},{"town":"萩原一丁目","koaza":"","lat":34.333711,"lng":132.591351,"zip":"7314213"},{"town":"萩原二丁目","koaza":"","lat":34.335618,"lng":132.593542,"zip":"7314213"},{"town":"萩原三丁目","koaza":"","lat":34.33758,"lng":132.594061,"zip":"7314213"},{"town":"萩原四丁目","koaza":"","lat":34.338805,"lng":132.597573,"zip":"7314213"},{"town":"萩原五丁目","koaza":"","lat":34.340956,"lng":132.595293,"zip":"7314213"},{"town":"萩原六丁目","koaza":"","lat":34.341015,"lng":132.588511,"zip":"7314213"},{"town":"萩原七丁目","koaza":"","lat":34.343256,"lng":132.590932,"zip":"7314213"},{"town":"萩原八丁目","koaza":"","lat":34.346189,"lng":132.590276,"zip":"7314213"},{"town":"萩原九丁目","koaza":"","lat":34.346407,"lng":132.592405,"zip":"7314213"},{"town":"初神一丁目","koaza":"","lat":34.355903,"lng":132.59711,"zip":"7314212"},{"town":"初神二丁目","koaza":"","lat":34.357053,"lng":132.593105,"zip":"7314212"},{"town":"初神三丁目","koaza":"","lat":34.358177,"lng":132.596523,"zip":"7314212"},{"town":"初神四丁目","koaza":"","lat":34.362011,"lng":132.589221,"zip":"7314212"},{"town":"東山","koaza":"","lat":34.327904,"lng":132.566744,"zip":"7314226"},{"town":"平谷一丁目","koaza":"","lat":34.328198,"lng":132.563594,"zip":"7314229"},{"town":"平谷二丁目","koaza":"","lat":34.329473,"lng":132.556548,"zip":"7314229"},{"town":"平谷三丁目","koaza":"","lat":34.33192,"lng":132.557914,"zip":"7314229"},{"town":"平谷四丁目","koaza":"","lat":34.334005,"lng":132.559534,"zip":"7314229"},{"town":"平谷五丁目","koaza":"","lat":34.337697,"lng":132.556417,"zip":"7314229"},{"town":"（大字なし）","koaza":"","lat":34.326109,"lng":132.586871,"zip":"7314200"},{"town":"（大字なし）","koaza":"城之堀","lat":34.350179,"lng":132.581845,"zip":"7314200"},{"town":"（大字なし）","koaza":"萩原","lat":34.346605,"lng":132.606486,"zip":"7314200"}]