[{"town":"植田一丁目","koaza":"","lat":34.329055,"lng":132.504683,"zip":"7314321"},{"town":"植田二丁目","koaza":"","lat":34.328805,"lng":132.505888,"zip":"7314321"},{"town":"植田三丁目","koaza":"","lat":34.330016,"lng":132.508855,"zip":"7314321"},{"town":"植田四丁目","koaza":"","lat":34.326651,"lng":132.506968,"zip":"7314321"},{"town":"北新地一丁目","koaza":"","lat":34.347805,"lng":132.515295,"zip":"7314311"},{"town":"北新地二丁目","koaza":"","lat":34.34883,"lng":132.519353,"zip":"7314311"},{"town":"北新地三丁目","koaza":"","lat":34.351449,"lng":132.512768,"zip":"7314311"},{"town":"北新地四丁目","koaza":"","lat":34.35364,"lng":132.516416,"zip":"7314311"},{"town":"小屋浦一丁目","koaza":"","lat":34.300664,"lng":132.506553,"zip":"7314331"},{"town":"小屋浦二丁目","koaza":"","lat":34.303652,"lng":132.507747,"zip":"7314331"},{"town":"小屋浦三丁目","koaza":"","lat":34.300686,"lng":132.508652,"zip":"7314331"},{"town":"小屋浦四丁目","koaza":"","lat":34.305833,"lng":132.510335,"zip":"7314331"},{"town":"坂西一丁目","koaza":"","lat":34.337978,"lng":132.512496,"zip":"7314314"},{"town":"坂西二丁目","koaza":"","lat":34.334343,"lng":132.515214,"zip":"7314314"},{"town":"坂西三丁目","koaza":"","lat":34.330036,"lng":132.516794,"zip":"7314314"},{"town":"坂西四丁目","koaza":"","lat":34.326172,"lng":132.516848,"zip":"7314314"},{"town":"坂東一丁目","koaza":"","lat":34.343831,"lng":132.517387,"zip":"7314313"},{"town":"坂東二丁目","koaza":"","lat":34.339372,"lng":132.517069,"zip":"7314313"},{"town":"坂東三丁目","koaza":"","lat":34.337123,"lng":132.518202,"zip":"7314313"},{"town":"坂東四丁目","koaza":"","lat":34.331295,"lng":132.51854,"zip":"7314313"},{"town":"鯛尾一丁目","koaza":"","lat":34.343518,"lng":132.495351,"zip":"7314325"},{"town":"鯛尾二丁目","koaza":"","lat":34.338295,"lng":132.494032,"zip":"7314325"},{"town":"平成ヶ浜一丁目","koaza":"","lat":34.34293,"lng":132.514976,"zip":"7314300"},{"town":"平成ヶ浜二丁目","koaza":"","lat":34.341449,"lng":132.511675,"zip":"7314300"},{"town":"平成ヶ浜三丁目","koaza":"","lat":34.340265,"lng":132.509009,"zip":"7314300"},{"town":"平成ヶ浜四丁目","koaza":"","lat":34.346059,"lng":132.507037,"zip":"7314300"},{"town":"平成ヶ浜五丁目","koaza":"","lat":34.345071,"lng":132.509299,"zip":"7314300"},{"town":"横浜中央一丁目","koaza":"","lat":34.33999,"lng":132.505878,"zip":"7314323"},{"town":"横浜中央二丁目","koaza":"","lat":34.343258,"lng":132.505,"zip":"7314323"},{"town":"横浜中央三丁目","koaza":"","lat":34.338219,"lng":132.50344,"zip":"7314323"},{"town":"横浜西一丁目","koaza":"","lat":34.338774,"lng":132.499541,"zip":"7314324"},{"town":"横浜西二丁目","koaza":"","lat":34.336147,"lng":132.496964,"zip":"7314324"},{"town":"横浜東一丁目","koaza":"","lat":34.335486,"lng":132.50556,"zip":"7314322"},{"town":"横浜東二丁目","koaza":"","lat":34.334252,"lng":132.507389,"zip":"7314322"},{"town":"（大字なし）","koaza":"","lat":34.308013,"lng":132.500018,"zip":"7314300"},{"town":"（大字なし）","koaza":"水尻","lat":34.319886,"lng":132.502659,"zip":"7314300"}]