[{"town":"甲田町浅塚","koaza":"","lat":34.712147,"lng":132.722066,"zip":"7391106"},{"town":"甲田町上小原","koaza":"","lat":34.659081,"lng":132.759953,"zip":"7391102"},{"town":"甲田町上甲立","koaza":"","lat":34.705814,"lng":132.745088,"zip":"7391104"},{"town":"甲田町下小原","koaza":"","lat":34.675242,"lng":132.749169,"zip":"7391103"},{"town":"甲田町下甲立","koaza":"","lat":34.717397,"lng":132.760581,"zip":"7391105"},{"town":"甲田町糘地","koaza":"","lat":34.734995,"lng":132.742436,"zip":"7391107"},{"town":"甲田町高田原","koaza":"","lat":34.679728,"lng":132.794865,"zip":"7391101"},{"town":"甲田町深瀬","koaza":"","lat":34.739892,"lng":132.766284,"zip":"7391108"},{"town":"高宮町川根","koaza":"","lat":34.820373,"lng":132.663066,"zip":"7391801"},{"town":"高宮町来女木","koaza":"","lat":34.75756,"lng":132.671612,"zip":"7391806"},{"town":"高宮町佐々部","koaza":"","lat":34.785996,"lng":132.715687,"zip":"7391802"},{"town":"高宮町羽佐竹","koaza":"","lat":34.776887,"lng":132.692339,"zip":"7391807"},{"town":"高宮町原田","koaza":"","lat":34.733866,"lng":132.699672,"zip":"7391805"},{"town":"高宮町船木","koaza":"","lat":34.781099,"lng":132.754066,"zip":"7391803"},{"town":"高宮町房後","koaza":"","lat":34.75364,"lng":132.733208,"zip":"7391804"},{"town":"美土里町生田","koaza":"","lat":34.804141,"lng":132.588063,"zip":"7310703"},{"town":"美土里町北","koaza":"","lat":34.766966,"lng":132.641337,"zip":"7310701"},{"town":"美土里町桑田","koaza":"","lat":34.757006,"lng":132.58675,"zip":"7310702"},{"town":"美土里町本郷","koaza":"","lat":34.715157,"lng":132.612542,"zip":"7310612"},{"town":"美土里町横田","koaza":"","lat":34.721343,"lng":132.661363,"zip":"7310611"},{"town":"向原町有留","koaza":"","lat":34.564727,"lng":132.69846,"zip":"7391204"},{"town":"向原町坂","koaza":"","lat":34.606417,"lng":132.755413,"zip":"7391201"},{"town":"向原町戸島","koaza":"","lat":34.632243,"lng":132.722124,"zip":"7391202"},{"town":"向原町長田","koaza":"","lat":34.604231,"lng":132.698984,"zip":"7391203"},{"town":"向原町保垣","koaza":"","lat":34.572037,"lng":132.727197,"zip":"7391205"},{"town":"八千代町勝田","koaza":"","lat":34.618559,"lng":132.627566,"zip":"7310302"},{"town":"八千代町上根","koaza":"","lat":34.586579,"lng":132.592034,"zip":"7310305"},{"town":"八千代町佐々井","koaza":"","lat":34.623628,"lng":132.595609,"zip":"7310303"},{"town":"八千代町下根","koaza":"","lat":34.606629,"lng":132.587194,"zip":"7310304"},{"town":"八千代町土師","koaza":"","lat":34.656683,"lng":132.608064,"zip":"7310301"},{"town":"八千代町向山","koaza":"","lat":34.582345,"lng":132.56084,"zip":"7310306"},{"town":"吉田町相合","koaza":"","lat":34.688799,"lng":132.687605,"zip":"7310542"},{"town":"吉田町小山","koaza":"","lat":34.629234,"lng":132.681618,"zip":"7310512"},{"town":"吉田町桂","koaza":"","lat":34.633924,"lng":132.655076,"zip":"7310534"},{"town":"吉田町上入江","koaza":"","lat":34.613857,"lng":132.641321,"zip":"7310532"},{"town":"吉田町川本","koaza":"","lat":34.644104,"lng":132.664229,"zip":"7310524"},{"town":"吉田町国司","koaza":"","lat":34.653359,"lng":132.702965,"zip":"7310502"},{"town":"吉田町高野","koaza":"","lat":34.641185,"lng":132.649473,"zip":"7310535"},{"town":"吉田町下入江","koaza":"","lat":34.614814,"lng":132.658869,"zip":"7310531"},{"town":"吉田町常楽寺","koaza":"","lat":34.660214,"lng":132.676855,"zip":"7310522"},{"town":"吉田町竹原","koaza":"","lat":34.64769,"lng":132.68528,"zip":"7310511"},{"town":"吉田町多治比","koaza":"","lat":34.688445,"lng":132.647011,"zip":"7310544"},{"town":"吉田町中馬","koaza":"","lat":34.660264,"lng":132.642833,"zip":"7310525"},{"town":"吉田町常友","koaza":"","lat":34.656631,"lng":132.690035,"zip":"7310521"},{"town":"吉田町長屋","koaza":"","lat":34.640823,"lng":132.635757,"zip":"7310533"},{"town":"吉田町西浦","koaza":"","lat":34.668139,"lng":132.667684,"zip":"7310543"},{"town":"吉田町福原","koaza":"","lat":34.638552,"lng":132.671209,"zip":"7310513"},{"town":"吉田町山手","koaza":"","lat":34.655483,"lng":132.669367,"zip":"7310523"},{"town":"吉田町山部","koaza":"","lat":34.684256,"lng":132.705032,"zip":"7310541"},{"town":"吉田町吉田","koaza":"","lat":34.676745,"lng":132.719367,"zip":"7310501"}]