[{"town":"青崎中","koaza":"","lat":34.376702,"lng":132.508131,"zip":"7350016"},{"town":"青崎東","koaza":"","lat":34.377691,"lng":132.512807,"zip":"7350015"},{"town":"青崎南","koaza":"","lat":34.377749,"lng":132.50478,"zip":"7350017"},{"town":"石井城一丁目","koaza":"","lat":34.399372,"lng":132.509903,"zip":"7350007"},{"town":"石井城二丁目","koaza":"","lat":34.401565,"lng":132.509907,"zip":"7350007"},{"town":"大須一丁目","koaza":"","lat":34.39306,"lng":132.501976,"zip":"7350021"},{"town":"大須二丁目","koaza":"","lat":34.394471,"lng":132.49922,"zip":"7350021"},{"town":"大須三丁目","koaza":"","lat":34.396331,"lng":132.500776,"zip":"7350021"},{"town":"大須四丁目","koaza":"","lat":34.399464,"lng":132.500969,"zip":"7350021"},{"town":"大通一丁目","koaza":"","lat":34.389511,"lng":132.505494,"zip":"7350022"},{"town":"大通二丁目","koaza":"","lat":34.391103,"lng":132.504381,"zip":"7350022"},{"town":"大通三丁目","koaza":"","lat":34.392832,"lng":132.505392,"zip":"7350022"},{"town":"鹿籠一丁目","koaza":"","lat":34.382019,"lng":132.504214,"zip":"7350025"},{"town":"鹿籠二丁目","koaza":"","lat":34.382227,"lng":132.507916,"zip":"7350025"},{"town":"桜ヶ丘","koaza":"","lat":34.405157,"lng":132.519497,"zip":"7350000"},{"town":"清水ヶ丘","koaza":"","lat":34.402311,"lng":132.517147,"zip":"7350000"},{"town":"城ヶ丘","koaza":"","lat":34.403808,"lng":132.510798,"zip":"7350000"},{"town":"新地","koaza":"","lat":34.380837,"lng":132.501585,"zip":"7350028"},{"town":"瀬戸ハイム一丁目","koaza":"","lat":34.392864,"lng":132.516848,"zip":"7350011"},{"town":"瀬戸ハイム二丁目","koaza":"","lat":34.391131,"lng":132.519454,"zip":"7350011"},{"town":"瀬戸ハイム三丁目","koaza":"","lat":34.389585,"lng":132.518869,"zip":"7350011"},{"town":"瀬戸ハイム四丁目","koaza":"","lat":34.390023,"lng":132.524528,"zip":"7350011"},{"town":"千代","koaza":"","lat":34.382351,"lng":132.502424,"zip":"7350027"},{"town":"鶴江一丁目","koaza":"","lat":34.400384,"lng":132.503433,"zip":"7350008"},{"town":"鶴江二丁目","koaza":"","lat":34.401653,"lng":132.505642,"zip":"7350008"},{"town":"浜田一丁目","koaza":"","lat":34.387899,"lng":132.505431,"zip":"7350013"},{"town":"浜田二丁目","koaza":"","lat":34.385822,"lng":132.508469,"zip":"7350013"},{"town":"浜田三丁目","koaza":"","lat":34.385449,"lng":132.510814,"zip":"7350013"},{"town":"浜田四丁目","koaza":"","lat":34.385179,"lng":132.512811,"zip":"7350013"},{"town":"浜田本町","koaza":"","lat":34.38954,"lng":132.508909,"zip":"7350023"},{"town":"本町一丁目","koaza":"","lat":34.394237,"lng":132.504591,"zip":"7350006"},{"town":"本町二丁目","koaza":"","lat":34.395901,"lng":132.507031,"zip":"7350006"},{"town":"本町三丁目","koaza":"","lat":34.397897,"lng":132.510123,"zip":"7350006"},{"town":"本町四丁目","koaza":"","lat":34.398645,"lng":132.506347,"zip":"7350006"},{"town":"本町五丁目","koaza":"","lat":34.397079,"lng":132.503547,"zip":"7350006"},{"town":"みくまり一丁目","koaza":"","lat":34.399882,"lng":132.514357,"zip":"7350003"},{"town":"みくまり二丁目","koaza":"","lat":34.401299,"lng":132.513604,"zip":"7350003"},{"town":"みくまり三丁目","koaza":"","lat":34.405156,"lng":132.514579,"zip":"7350003"},{"town":"緑ヶ丘","koaza":"","lat":34.385,"lng":132.504684,"zip":"7350000"},{"town":"宮の町一丁目","koaza":"","lat":34.394199,"lng":132.508041,"zip":"7350005"},{"town":"宮の町二丁目","koaza":"","lat":34.391767,"lng":132.508395,"zip":"7350005"},{"town":"宮の町三丁目","koaza":"","lat":34.394949,"lng":132.510555,"zip":"7350005"},{"town":"宮の町四丁目","koaza":"","lat":34.392634,"lng":132.511764,"zip":"7350005"},{"town":"宮の町五丁目","koaza":"","lat":34.39143,"lng":132.513306,"zip":"7350005"},{"town":"茂陰一丁目","koaza":"","lat":34.388732,"lng":132.502189,"zip":"7350029"},{"town":"茂陰二丁目","koaza":"","lat":34.386963,"lng":132.500771,"zip":"7350029"},{"town":"桃山一丁目","koaza":"","lat":34.379331,"lng":132.506201,"zip":"7350026"},{"town":"桃山二丁目","koaza":"","lat":34.379267,"lng":132.509578,"zip":"7350026"},{"town":"柳ヶ丘","koaza":"","lat":34.382129,"lng":132.514429,"zip":"7350000"},{"town":"八幡一丁目","koaza":"","lat":34.388444,"lng":132.511903,"zip":"7350012"},{"town":"八幡二丁目","koaza":"","lat":34.390478,"lng":132.5112,"zip":"7350012"},{"town":"八幡三丁目","koaza":"","lat":34.387983,"lng":132.515429,"zip":"7350012"},{"town":"八幡四丁目","koaza":"","lat":34.384956,"lng":132.51734,"zip":"7350012"},{"town":"山田一丁目","koaza":"","lat":34.395401,"lng":132.512453,"zip":"7350004"},{"town":"山田二丁目","koaza":"","lat":34.397151,"lng":132.519663,"zip":"7350004"},{"town":"山田三丁目","koaza":"","lat":34.394228,"lng":132.515398,"zip":"7350004"},{"town":"山田四丁目","koaza":"","lat":34.395166,"lng":132.518542,"zip":"7350004"},{"town":"山田五丁目","koaza":"","lat":34.393825,"lng":132.522352,"zip":"7350004"},{"town":"（大字なし）","koaza":"","lat":34.409356,"lng":132.516727,"zip":"7350000"}]