[{"town":"因島大浜町","koaza":"","lat":34.345926,"lng":133.167003,"zip":"7222101"},{"town":"因島鏡浦町","koaza":"","lat":34.329095,"lng":133.195082,"zip":"7222212"},{"town":"因島洲江町","koaza":"","lat":34.295558,"lng":133.143776,"zip":"7222431"},{"town":"因島田熊町","koaza":"","lat":34.303848,"lng":133.166154,"zip":"7222324"},{"town":"因島外浦町","koaza":"","lat":34.325709,"lng":133.186487,"zip":"7222213"},{"town":"因島中庄町","koaza":"","lat":34.322329,"lng":133.169868,"zip":"7222211"},{"town":"因島原町","koaza":"","lat":34.286137,"lng":133.131166,"zip":"7222432"},{"town":"因島三庄町","koaza":"","lat":34.296787,"lng":133.192078,"zip":"7222322"},{"town":"因島椋浦町","koaza":"","lat":34.31756,"lng":133.20068,"zip":"7222321"},{"town":"浦崎町","koaza":"","lat":34.401394,"lng":133.270062,"zip":"7200551"},{"town":"沖側町","koaza":"","lat":34.402566,"lng":133.166153,"zip":"7220006"},{"town":"尾崎町","koaza":"","lat":34.414923,"lng":133.212465,"zip":"7220053"},{"town":"尾崎本町","koaza":"","lat":34.410585,"lng":133.21662,"zip":"7220054"},{"town":"神田町","koaza":"","lat":34.407211,"lng":133.171465,"zip":"7220016"},{"town":"木ノ庄町市原","koaza":"","lat":34.478308,"lng":133.170092,"zip":"7220233"},{"town":"木ノ庄町木梨","koaza":"","lat":34.479631,"lng":133.18834,"zip":"7220234"},{"town":"木ノ庄町木梨山方","koaza":"","lat":34.464592,"lng":133.19918,"zip":"7220235"},{"town":"木ノ庄町木門田","koaza":"","lat":34.469926,"lng":133.144533,"zip":"7220232"},{"town":"木ノ庄町畑","koaza":"","lat":34.489058,"lng":133.16031,"zip":"7220231"},{"town":"久保一丁目","koaza":"","lat":34.410329,"lng":133.204452,"zip":"7220045"},{"town":"久保二丁目","koaza":"","lat":34.410953,"lng":133.206052,"zip":"7220045"},{"town":"久保三丁目","koaza":"","lat":34.41127,"lng":133.208085,"zip":"7220045"},{"town":"久保町","koaza":"","lat":34.42396,"lng":133.205989,"zip":"7220042"},{"town":"栗原町","koaza":"","lat":34.430158,"lng":133.18164,"zip":"7220022"},{"town":"栗原西一丁目","koaza":"","lat":34.408613,"lng":133.188677,"zip":"7220026"},{"town":"栗原西二丁目","koaza":"","lat":34.412897,"lng":133.188096,"zip":"7220026"},{"town":"栗原東一丁目","koaza":"","lat":34.411075,"lng":133.190992,"zip":"7220025"},{"town":"栗原東二丁目","koaza":"","lat":34.415258,"lng":133.192264,"zip":"7220025"},{"town":"古浜町","koaza":"","lat":34.398859,"lng":133.172959,"zip":"7220002"},{"town":"桜町","koaza":"","lat":34.41371,"lng":133.185285,"zip":"7220011"},{"town":"三軒家町","koaza":"","lat":34.406875,"lng":133.192143,"zip":"7220031"},{"town":"山波町","koaza":"","lat":34.417717,"lng":133.225492,"zip":"7220052"},{"town":"潮見町","koaza":"","lat":34.409118,"lng":133.185833,"zip":"7220012"},{"town":"正徳町","koaza":"","lat":34.396213,"lng":133.163,"zip":"7220004"},{"town":"新高山一丁目","koaza":"","lat":34.415514,"lng":133.217346,"zip":"7220055"},{"town":"新高山二丁目","koaza":"","lat":34.419398,"lng":133.215369,"zip":"7220055"},{"town":"新高山三丁目","koaza":"","lat":34.424493,"lng":133.214781,"zip":"7220055"},{"town":"新浜一丁目","koaza":"","lat":34.401477,"lng":133.183444,"zip":"7220014"},{"town":"新浜二丁目","koaza":"","lat":34.400507,"lng":133.178364,"zip":"7220014"},{"town":"瀬戸田町荻","koaza":"","lat":34.265691,"lng":133.091951,"zip":"7222403"},{"town":"瀬戸田町高根","koaza":"","lat":34.317709,"lng":133.074092,"zip":"7222412"},{"town":"瀬戸田町沢","koaza":"","lat":34.309424,"lng":133.090482,"zip":"7222413"},{"town":"瀬戸田町鹿田原","koaza":"","lat":34.30141,"lng":133.090705,"zip":"7222414"},{"town":"瀬戸田町瀬戸田","koaza":"","lat":34.30497,"lng":133.087732,"zip":"7222411"},{"town":"瀬戸田町垂水","koaza":"","lat":34.27505,"lng":133.078305,"zip":"7222404"},{"town":"瀬戸田町中野","koaza":"","lat":34.292184,"lng":133.097771,"zip":"7222415"},{"town":"瀬戸田町林","koaza":"","lat":34.297758,"lng":133.112135,"zip":"7222416"},{"town":"瀬戸田町福田","koaza":"","lat":34.288444,"lng":133.088773,"zip":"7222405"},{"town":"瀬戸田町御寺","koaza":"","lat":34.283778,"lng":133.113509,"zip":"7222401"},{"town":"瀬戸田町宮原","koaza":"","lat":34.272828,"lng":133.107864,"zip":"7222402"},{"town":"瀬戸田町名荷","koaza":"","lat":34.304025,"lng":133.130519,"zip":"7222417"},{"town":"高須町","koaza":"","lat":34.436861,"lng":133.226535,"zip":"7290141"},{"town":"長者原一丁目","koaza":"","lat":34.43999,"lng":133.210257,"zip":"7220221"},{"town":"長者原二丁目","koaza":"","lat":34.444968,"lng":133.208107,"zip":"7220221"},{"town":"土堂一丁目","koaza":"","lat":34.406625,"lng":133.198499,"zip":"7220035"},{"town":"土堂二丁目","koaza":"","lat":34.408323,"lng":133.20176,"zip":"7220035"},{"town":"手崎町","koaza":"","lat":34.402503,"lng":133.176158,"zip":"7220001"},{"town":"天満町","koaza":"","lat":34.405429,"lng":133.189022,"zip":"7220038"},{"town":"十四日町","koaza":"","lat":34.427092,"lng":133.199551,"zip":"7220047"},{"town":"十四日元町","koaza":"","lat":34.409788,"lng":133.20265,"zip":"7220034"},{"town":"長江一丁目","koaza":"","lat":34.413223,"lng":133.200853,"zip":"7220046"},{"town":"長江二丁目","koaza":"","lat":34.41598,"lng":133.198673,"zip":"7220046"},{"town":"長江三丁目","koaza":"","lat":34.419949,"lng":133.196834,"zip":"7220046"},{"town":"西久保町","koaza":"","lat":34.415107,"lng":133.204189,"zip":"7220044"},{"town":"西御所町","koaza":"","lat":34.402702,"lng":133.18947,"zip":"7220037"},{"town":"西土堂町","koaza":"","lat":34.408606,"lng":133.195494,"zip":"7220032"},{"town":"西則末町","koaza":"","lat":34.419369,"lng":133.187234,"zip":"7220024"},{"town":"西藤町","koaza":"","lat":34.45715,"lng":133.217877,"zip":"7290142"},{"town":"原田町小原","koaza":"","lat":34.499361,"lng":133.22229,"zip":"7220201"},{"town":"原田町梶山田","koaza":"","lat":34.493067,"lng":133.204667,"zip":"7220202"},{"town":"東尾道","koaza":"","lat":34.4225,"lng":133.236749,"zip":"7220051"},{"town":"東久保町","koaza":"","lat":34.414691,"lng":133.208205,"zip":"7220043"},{"town":"東御所町","koaza":"","lat":34.40435,"lng":133.193082,"zip":"7220036"},{"town":"東土堂町","koaza":"","lat":34.409827,"lng":133.198765,"zip":"7220033"},{"town":"東則末町","koaza":"","lat":34.420101,"lng":133.190152,"zip":"7220023"},{"town":"東元町","koaza":"","lat":34.400282,"lng":133.170678,"zip":"7220003"},{"town":"久山田町","koaza":"","lat":34.423266,"lng":133.157369,"zip":"7220021"},{"town":"日比崎町","koaza":"","lat":34.409243,"lng":133.182597,"zip":"7220013"},{"town":"平原一丁目","koaza":"","lat":34.407454,"lng":133.176425,"zip":"7220018"},{"town":"平原二丁目","koaza":"","lat":34.410445,"lng":133.177711,"zip":"7220018"},{"town":"平原三丁目","koaza":"","lat":34.412984,"lng":133.177024,"zip":"7220018"},{"town":"平原四丁目","koaza":"","lat":34.416488,"lng":133.178333,"zip":"7220018"},{"town":"福地町","koaza":"","lat":34.398891,"lng":133.15965,"zip":"7220005"},{"town":"防地町","koaza":"","lat":34.41973,"lng":133.205084,"zip":"7220041"},{"town":"御調町綾目","koaza":"","lat":34.524692,"lng":133.116018,"zip":"7220354"},{"town":"御調町市","koaza":"","lat":34.50288,"lng":133.150595,"zip":"7220311"},{"town":"御調町今田","koaza":"","lat":34.511599,"lng":133.101796,"zip":"7221564"},{"town":"御調町岩根","koaza":"","lat":34.527966,"lng":133.158098,"zip":"7220326"},{"town":"御調町植野","koaza":"","lat":34.49741,"lng":133.097277,"zip":"7221563"},{"town":"御調町江田","koaza":"","lat":34.507934,"lng":133.168607,"zip":"7220336"},{"town":"御調町大田","koaza":"","lat":34.502734,"lng":133.134477,"zip":"7220342"},{"town":"御調町大原","koaza":"","lat":34.533881,"lng":133.102611,"zip":"7220351"},{"town":"御調町大町","koaza":"","lat":34.518519,"lng":133.166778,"zip":"7220314"},{"town":"御調町大山田","koaza":"","lat":34.556522,"lng":133.144,"zip":"7220403"},{"town":"御調町貝ケ原","koaza":"","lat":34.523832,"lng":133.146423,"zip":"7220312"},{"town":"御調町釜窪","koaza":"","lat":34.512422,"lng":133.159659,"zip":"7220315"},{"town":"御調町神","koaza":"","lat":34.513977,"lng":133.141534,"zip":"7220341"},{"town":"御調町国守","koaza":"","lat":34.49801,"lng":133.166919,"zip":"7220335"},{"town":"御調町公文","koaza":"","lat":34.530163,"lng":133.135352,"zip":"7220352"},{"town":"御調町三郎丸","koaza":"","lat":34.542124,"lng":133.175731,"zip":"7220322"},{"town":"御調町下山田","koaza":"","lat":34.540839,"lng":133.139667,"zip":"7220402"},{"town":"御調町菅","koaza":"","lat":34.513223,"lng":133.182827,"zip":"7220334"},{"town":"御調町千堂","koaza":"","lat":34.545361,"lng":133.15729,"zip":"7220401"},{"town":"御調町大蔵","koaza":"","lat":34.533314,"lng":133.182474,"zip":"7220323"},{"town":"御調町大塔","koaza":"","lat":34.521351,"lng":133.201636,"zip":"7220333"},{"town":"御調町高尾","koaza":"","lat":34.517431,"lng":133.139002,"zip":"7220353"},{"town":"御調町津蟹","koaza":"","lat":34.505149,"lng":133.071688,"zip":"7221562"},{"town":"御調町徳永","koaza":"","lat":34.508369,"lng":133.12364,"zip":"7220345"},{"town":"御調町中原","koaza":"","lat":34.523511,"lng":133.167198,"zip":"7220325"},{"town":"御調町仁野","koaza":"","lat":34.530429,"lng":133.215362,"zip":"7220331"},{"town":"御調町野間","koaza":"","lat":34.518727,"lng":133.080243,"zip":"7221565"},{"town":"御調町白太","koaza":"","lat":34.52649,"lng":133.178177,"zip":"7220324"},{"town":"御調町花尻","koaza":"","lat":34.51349,"lng":133.152728,"zip":"7220316"},{"town":"御調町平","koaza":"","lat":34.519931,"lng":133.160482,"zip":"7220313"},{"town":"御調町平木","koaza":"","lat":34.523581,"lng":133.208902,"zip":"7220332"},{"town":"御調町福井","koaza":"","lat":34.49125,"lng":133.079498,"zip":"7221561"},{"town":"御調町本","koaza":"","lat":34.539134,"lng":133.165164,"zip":"7220321"},{"town":"御調町丸河南","koaza":"","lat":34.489617,"lng":133.129687,"zip":"7220343"},{"town":"御調町丸門田","koaza":"","lat":34.490472,"lng":133.11598,"zip":"7220344"},{"town":"御調町山岡","koaza":"","lat":34.531219,"lng":133.087274,"zip":"7220355"},{"town":"美ノ郷町猪子迫","koaza":"","lat":34.458601,"lng":133.20502,"zip":"7220214"},{"town":"美ノ郷町白江","koaza":"","lat":34.455757,"lng":133.184346,"zip":"7220213"},{"town":"美ノ郷町中野","koaza":"","lat":34.450086,"lng":133.146594,"zip":"7220211"},{"town":"美ノ郷町本郷","koaza":"","lat":34.450121,"lng":133.17075,"zip":"7220212"},{"town":"美ノ郷町三成","koaza":"","lat":34.449026,"lng":133.19739,"zip":"7220215"},{"town":"向島町","koaza":"","lat":34.383035,"lng":133.194652,"zip":"7220073"},{"town":"向島町岩子島","koaza":"","lat":34.382343,"lng":133.16119,"zip":"7220072"},{"town":"向島町立花","koaza":"","lat":34.364274,"lng":133.202562,"zip":"7220071"},{"town":"向東町","koaza":"","lat":34.395509,"lng":133.222192,"zip":"7220062"},{"town":"百島町","koaza":"","lat":34.372646,"lng":133.269177,"zip":"7220061"},{"town":"門田町","koaza":"","lat":34.417266,"lng":133.183271,"zip":"7220017"},{"town":"吉浦町","koaza":"","lat":34.406492,"lng":133.180685,"zip":"7220015"},{"town":"吉和町","koaza":"","lat":34.411129,"lng":133.160184,"zip":"7220008"},{"town":"吉和西元町","koaza":"","lat":34.399323,"lng":133.166328,"zip":"7220007"},{"town":"因島重井町","koaza":"","lat":34.338084,"lng":133.151291,"zip":"7222102"},{"town":"因島土生町","koaza":"","lat":34.290317,"lng":133.180279,"zip":"7222323"},{"town":"因島重井町","koaza":"伊浜","lat":34.345665,"lng":133.15266,"zip":"7222102"},{"town":"因島田熊町","koaza":"西浦","lat":34.307844,"lng":133.153039,"zip":"7222324"},{"town":"御調町本","koaza":"柳原","lat":34.531209,"lng":133.172808,"zip":"7220321"},{"town":"栗原町","koaza":"大坪","lat":34.429287,"lng":133.189798,"zip":"7220022"},{"town":"栗原町","koaza":"向山","lat":34.430298,"lng":133.192209,"zip":"7220022"},{"town":"向島町","koaza":"川尻","lat":34.376166,"lng":133.197609,"zip":"7220073"},{"town":"向島町","koaza":"江ノ奥","lat":34.377558,"lng":133.20718,"zip":"7220073"},{"town":"向東町","koaza":"蔵本谷沖","lat":34.400762,"lng":133.206059,"zip":"7220062"},{"town":"高須町","koaza":"砂畑","lat":34.428782,"lng":133.227953,"zip":"7290141"},{"town":"高須町","koaza":"大新","lat":34.431528,"lng":133.228714,"zip":"7290141"},{"town":"高須町","koaza":"西新涯","lat":34.429008,"lng":133.230553,"zip":"7290141"},{"town":"高須町","koaza":"恋ノ水","lat":34.435852,"lng":133.230861,"zip":"7290141"}]