[{"town":"阿坂","koaza":"","lat":34.632963,"lng":132.461534,"zip":"7311222"},{"town":"有田","koaza":"","lat":34.66956,"lng":132.528081,"zip":"7311533"},{"town":"有間","koaza":"","lat":34.688469,"lng":132.514847,"zip":"7311503"},{"town":"筏津","koaza":"","lat":34.762131,"lng":132.420929,"zip":"7312106"},{"town":"石井谷","koaza":"","lat":34.653638,"lng":132.541269,"zip":"7311525"},{"town":"今田","koaza":"","lat":34.670066,"lng":132.504308,"zip":"7311535"},{"town":"今吉田","koaza":"","lat":34.611947,"lng":132.446141,"zip":"7311221"},{"town":"岩戸","koaza":"","lat":34.767418,"lng":132.517742,"zip":"7312102"},{"town":"後有田","koaza":"","lat":34.700262,"lng":132.518206,"zip":"7311534"},{"town":"雲耕","koaza":"","lat":34.727979,"lng":132.219836,"zip":"7312442"},{"town":"移原","koaza":"","lat":34.746988,"lng":132.357735,"zip":"7312206"},{"town":"大朝","koaza":"","lat":34.775841,"lng":132.462439,"zip":"7312104"},{"town":"大暮","koaza":"","lat":34.753767,"lng":132.336738,"zip":"7312204"},{"town":"大塚","koaza":"","lat":34.783309,"lng":132.438857,"zip":"7312107"},{"town":"大利原","koaza":"","lat":34.765776,"lng":132.281834,"zip":"7312315"},{"town":"大元","koaza":"","lat":34.732052,"lng":132.237916,"zip":"7312437"},{"town":"奥中原","koaza":"","lat":34.735954,"lng":132.275068,"zip":"7312324"},{"town":"奥原","koaza":"","lat":34.774765,"lng":132.2633,"zip":"7312312"},{"town":"海応寺","koaza":"","lat":34.719152,"lng":132.46366,"zip":"7311703"},{"town":"上石","koaza":"","lat":34.711057,"lng":132.452552,"zip":"7311702"},{"town":"苅屋形","koaza":"","lat":34.759987,"lng":132.264936,"zip":"7312317"},{"town":"川井","koaza":"","lat":34.680581,"lng":132.574218,"zip":"7311513"},{"town":"川小田","koaza":"","lat":34.731189,"lng":132.286534,"zip":"7312323"},{"town":"川戸","koaza":"","lat":34.740771,"lng":132.53473,"zip":"7311501"},{"town":"川西","koaza":"","lat":34.705759,"lng":132.552269,"zip":"7311516"},{"town":"川東","koaza":"","lat":34.687393,"lng":132.556998,"zip":"7311512"},{"town":"木次","koaza":"","lat":34.630391,"lng":132.561983,"zip":"7311524"},{"town":"草安","koaza":"","lat":34.769353,"lng":132.27484,"zip":"7312313"},{"town":"蔵迫","koaza":"","lat":34.707291,"lng":132.504941,"zip":"7311502"},{"town":"荒神原","koaza":"","lat":34.737439,"lng":132.234327,"zip":"7312431"},{"town":"小原","koaza":"","lat":34.724963,"lng":132.339258,"zip":"7312203"},{"town":"古保利","koaza":"","lat":34.680516,"lng":132.53616,"zip":"7311532"},{"town":"才乙","koaza":"","lat":34.778488,"lng":132.310071,"zip":"7312314"},{"town":"志路原","koaza":"","lat":34.717865,"lng":132.445934,"zip":"7311701"},{"town":"下石","koaza":"","lat":34.707485,"lng":132.471932,"zip":"7311704"},{"town":"新氏神","koaza":"","lat":34.682471,"lng":132.565167,"zip":"7311514"},{"town":"新郷","koaza":"","lat":34.6697,"lng":132.544673,"zip":"7311522"},{"town":"新庄","koaza":"","lat":34.764635,"lng":132.497372,"zip":"7312103"},{"town":"新都","koaza":"","lat":34.65958,"lng":132.510888,"zip":"7311500"},{"town":"惣森","koaza":"","lat":34.717054,"lng":132.563208,"zip":"7311511"},{"town":"高野","koaza":"","lat":34.754056,"lng":132.37093,"zip":"7312201"},{"town":"田原","koaza":"","lat":34.748413,"lng":132.439365,"zip":"7312105"},{"town":"都志見","koaza":"","lat":34.647645,"lng":132.429583,"zip":"7311712"},{"town":"土橋","koaza":"","lat":34.792461,"lng":132.256481,"zip":"7312311"},{"town":"寺原","koaza":"","lat":34.684372,"lng":132.497901,"zip":"7311504"},{"town":"戸谷","koaza":"","lat":34.656804,"lng":132.374978,"zip":"7311711"},{"town":"長笹","koaza":"","lat":34.621218,"lng":132.38494,"zip":"7311713"},{"town":"中祖","koaza":"","lat":34.723732,"lng":132.246063,"zip":"7312432"},{"town":"中原","koaza":"","lat":34.680698,"lng":132.425772,"zip":"7311706"},{"town":"中山","koaza":"","lat":34.739374,"lng":132.503574,"zip":"7311506"},{"town":"南門原","koaza":"","lat":34.753424,"lng":132.280031,"zip":"7312316"},{"town":"西宗","koaza":"","lat":34.670088,"lng":132.457246,"zip":"7311705"},{"town":"西八幡原","koaza":"","lat":34.710255,"lng":132.167744,"zip":"7312552"},{"town":"橋山","koaza":"","lat":34.687687,"lng":132.252659,"zip":"7312434"},{"town":"春木","koaza":"","lat":34.694046,"lng":132.52344,"zip":"7311531"},{"town":"東八幡原","koaza":"","lat":34.709293,"lng":132.178874,"zip":"7312551"},{"town":"細見","koaza":"","lat":34.72944,"lng":132.314095,"zip":"7313561"},{"town":"本地","koaza":"","lat":34.628465,"lng":132.505627,"zip":"7311526"},{"town":"政所","koaza":"","lat":34.719785,"lng":132.238169,"zip":"7312436"},{"town":"溝口","koaza":"","lat":34.700838,"lng":132.381188,"zip":"7312202"},{"town":"南方","koaza":"","lat":34.625862,"lng":132.550415,"zip":"7311523"},{"town":"壬生","koaza":"","lat":34.684657,"lng":132.54904,"zip":"7311515"},{"town":"宮迫","koaza":"","lat":34.780451,"lng":132.504529,"zip":"7312101"},{"town":"宮地","koaza":"","lat":34.733939,"lng":132.23152,"zip":"7312441"},{"town":"舞綱","koaza":"","lat":34.715667,"lng":132.491985,"zip":"7311505"},{"town":"丁保余原","koaza":"","lat":34.670594,"lng":132.556039,"zip":"7311521"},{"town":"吉木","koaza":"","lat":34.617016,"lng":132.415628,"zip":"7311714"},{"town":"米沢","koaza":"","lat":34.740076,"lng":132.354118,"zip":"7312205"}]