[{"town":"阿戸町","koaza":"","lat":34.38342,"lng":132.621187,"zip":"7314231"},{"town":"上瀬野一丁目","koaza":"","lat":34.422343,"lng":132.612958,"zip":"7390301"},{"town":"上瀬野二丁目","koaza":"","lat":34.425941,"lng":132.620422,"zip":"7390301"},{"town":"上瀬野町","koaza":"","lat":34.426612,"lng":132.643657,"zip":"7390302"},{"town":"上瀬野南一丁目","koaza":"","lat":34.420741,"lng":132.620298,"zip":"7390303"},{"town":"上瀬野南二丁目","koaza":"","lat":34.423068,"lng":132.621514,"zip":"7390303"},{"town":"瀬野一丁目","koaza":"","lat":34.4217,"lng":132.598821,"zip":"7390311"},{"town":"瀬野二丁目","koaza":"","lat":34.422875,"lng":132.594198,"zip":"7390311"},{"town":"瀬野三丁目","koaza":"","lat":34.424492,"lng":132.604863,"zip":"7390311"},{"town":"瀬野四丁目","koaza":"","lat":34.428896,"lng":132.6069,"zip":"7390311"},{"town":"瀬野五丁目","koaza":"","lat":34.425231,"lng":132.601476,"zip":"7390311"},{"town":"瀬野町","koaza":"","lat":34.438913,"lng":132.592922,"zip":"7390312"},{"town":"瀬野西一丁目","koaza":"","lat":34.42578,"lng":132.593929,"zip":"7390313"},{"town":"瀬野西二丁目","koaza":"","lat":34.427057,"lng":132.5981,"zip":"7390313"},{"town":"瀬野西三丁目","koaza":"","lat":34.430263,"lng":132.58577,"zip":"7390313"},{"town":"瀬野西四丁目","koaza":"","lat":34.430078,"lng":132.59077,"zip":"7390313"},{"town":"瀬野西五丁目","koaza":"","lat":34.432015,"lng":132.589549,"zip":"7390313"},{"town":"瀬野西六丁目","koaza":"","lat":34.43406,"lng":132.587624,"zip":"7390313"},{"town":"瀬野南一丁目","koaza":"","lat":34.419337,"lng":132.598718,"zip":"7390315"},{"town":"瀬野南町","koaza":"","lat":34.411478,"lng":132.600917,"zip":"7390315"},{"town":"中野一丁目","koaza":"","lat":34.388254,"lng":132.561141,"zip":"7390321"},{"town":"中野二丁目","koaza":"","lat":34.390225,"lng":132.559969,"zip":"7390321"},{"town":"中野三丁目","koaza":"","lat":34.39687,"lng":132.568611,"zip":"7390321"},{"town":"中野四丁目","koaza":"","lat":34.401044,"lng":132.574688,"zip":"7390321"},{"town":"中野五丁目","koaza":"","lat":34.402934,"lng":132.580432,"zip":"7390321"},{"town":"中野六丁目","koaza":"","lat":34.41015,"lng":132.581033,"zip":"7390321"},{"town":"中野七丁目","koaza":"","lat":34.420272,"lng":132.58874,"zip":"7390321"},{"town":"中野町","koaza":"","lat":34.41054,"lng":132.571959,"zip":"7390322"},{"town":"中野東一丁目","koaza":"","lat":34.386363,"lng":132.562375,"zip":"7390324"},{"town":"中野東二丁目","koaza":"","lat":34.389176,"lng":132.569328,"zip":"7390324"},{"town":"中野東三丁目","koaza":"","lat":34.394057,"lng":132.573124,"zip":"7390324"},{"town":"中野東四丁目","koaza":"","lat":34.398207,"lng":132.57872,"zip":"7390324"},{"town":"中野東五丁目","koaza":"","lat":34.400236,"lng":132.583448,"zip":"7390324"},{"town":"中野東六丁目","koaza":"","lat":34.404575,"lng":132.588986,"zip":"7390324"},{"town":"中野東七丁目","koaza":"","lat":34.411559,"lng":132.585283,"zip":"7390324"},{"town":"中野東町","koaza":"","lat":34.390547,"lng":132.584437,"zip":"7390324"},{"town":"畑賀一丁目","koaza":"","lat":34.386863,"lng":132.555604,"zip":"7360088"},{"town":"畑賀二丁目","koaza":"","lat":34.392136,"lng":132.552413,"zip":"7360088"},{"town":"畑賀三丁目","koaza":"","lat":34.396961,"lng":132.549218,"zip":"7360088"},{"town":"畑賀町","koaza":"","lat":34.405844,"lng":132.5476,"zip":"7360089"},{"town":"船越一丁目","koaza":"","lat":34.377342,"lng":132.517652,"zip":"7360081"},{"town":"船越二丁目","koaza":"","lat":34.379573,"lng":132.518897,"zip":"7360081"},{"town":"船越三丁目","koaza":"","lat":34.375575,"lng":132.520718,"zip":"7360081"},{"town":"船越四丁目","koaza":"","lat":34.376551,"lng":132.525811,"zip":"7360081"},{"town":"船越五丁目","koaza":"","lat":34.373935,"lng":132.526797,"zip":"7360081"},{"town":"船越六丁目","koaza":"","lat":34.379249,"lng":132.531652,"zip":"7360081"},{"town":"船越町","koaza":"","lat":34.383,"lng":132.526063,"zip":"7360000"},{"town":"船越南一丁目","koaza":"","lat":34.371512,"lng":132.517843,"zip":"7360082"},{"town":"船越南二丁目","koaza":"","lat":34.371926,"lng":132.522432,"zip":"7360082"},{"town":"船越南三丁目","koaza":"","lat":34.370409,"lng":132.524835,"zip":"7360082"},{"town":"船越南四丁目","koaza":"","lat":34.367654,"lng":132.523547,"zip":"7360082"},{"town":"船越南五丁目","koaza":"","lat":34.365552,"lng":132.519431,"zip":"7360082"},{"town":"矢野新町一丁目","koaza":"","lat":34.352793,"lng":132.525471,"zip":"7360084"},{"town":"矢野新町二丁目","koaza":"","lat":34.355391,"lng":132.522983,"zip":"7360084"},{"town":"矢野町","koaza":"","lat":34.327875,"lng":132.549557,"zip":"7360087"},{"town":"矢野西一丁目","koaza":"","lat":34.353582,"lng":132.531157,"zip":"7360085"},{"town":"矢野西二丁目","koaza":"","lat":34.351221,"lng":132.521713,"zip":"7360085"},{"town":"矢野西三丁目","koaza":"","lat":34.345908,"lng":132.524833,"zip":"7360085"},{"town":"矢野西四丁目","koaza":"","lat":34.349366,"lng":132.527604,"zip":"7360085"},{"town":"矢野西五丁目","koaza":"","lat":34.351438,"lng":132.535546,"zip":"7360085"},{"town":"矢野西六丁目","koaza":"","lat":34.347272,"lng":132.5347,"zip":"7360085"},{"town":"矢野西七丁目","koaza":"","lat":34.342507,"lng":132.53607,"zip":"7360085"},{"town":"矢野東一丁目","koaza":"","lat":34.356703,"lng":132.53402,"zip":"7360083"},{"town":"矢野東二丁目","koaza":"","lat":34.357328,"lng":132.53865,"zip":"7360083"},{"town":"矢野東三丁目","koaza":"","lat":34.356476,"lng":132.541978,"zip":"7360083"},{"town":"矢野東四丁目","koaza":"","lat":34.354098,"lng":132.543014,"zip":"7360083"},{"town":"矢野東五丁目","koaza":"","lat":34.351832,"lng":132.537988,"zip":"7360083"},{"town":"矢野東六丁目","koaza":"","lat":34.345722,"lng":132.540389,"zip":"7360083"},{"town":"矢野東七丁目","koaza":"","lat":34.336988,"lng":132.542007,"zip":"7360083"},{"town":"矢野南一丁目","koaza":"","lat":34.343783,"lng":132.531924,"zip":"7360086"},{"town":"矢野南二丁目","koaza":"","lat":34.341719,"lng":132.530658,"zip":"7360086"},{"town":"矢野南三丁目","koaza":"","lat":34.342124,"lng":132.526767,"zip":"7360086"},{"town":"矢野南四丁目","koaza":"","lat":34.338014,"lng":132.532955,"zip":"7360086"},{"town":"矢野南五丁目","koaza":"","lat":34.338415,"lng":132.53758,"zip":"7360086"}]