[{"town":"旭園","koaza":"","lat":34.364137,"lng":132.367932,"zip":"7315133"},{"town":"石内上一丁目","koaza":"","lat":34.425224,"lng":132.392588,"zip":"7315107"},{"town":"石内北一丁目","koaza":"","lat":34.440274,"lng":132.381125,"zip":"7315109"},{"town":"石内北四丁目","koaza":"","lat":34.435352,"lng":132.384479,"zip":"7315109"},{"town":"石内南一丁目","koaza":"","lat":34.411436,"lng":132.382891,"zip":"7315108"},{"town":"石内南二丁目","koaza":"","lat":34.41785,"lng":132.389643,"zip":"7315108"},{"town":"石内南三丁目","koaza":"","lat":34.41465,"lng":132.392378,"zip":"7315108"},{"town":"石内南四丁目","koaza":"","lat":34.413105,"lng":132.387183,"zip":"7315108"},{"town":"石内南五丁目","koaza":"","lat":34.410734,"lng":132.389722,"zip":"7315108"},{"town":"五日市一丁目","koaza":"","lat":34.366396,"lng":132.359594,"zip":"7315127"},{"town":"五日市二丁目","koaza":"","lat":34.367505,"lng":132.363734,"zip":"7315127"},{"town":"五日市三丁目","koaza":"","lat":34.368898,"lng":132.36044,"zip":"7315127"},{"town":"五日市四丁目","koaza":"","lat":34.368877,"lng":132.357834,"zip":"7315127"},{"town":"五日市五丁目","koaza":"","lat":34.372686,"lng":132.358886,"zip":"7315127"},{"town":"五日市六丁目","koaza":"","lat":34.372673,"lng":132.360953,"zip":"7315127"},{"town":"五日市七丁目","koaza":"","lat":34.377512,"lng":132.3609,"zip":"7315127"},{"town":"五日市駅前一丁目","koaza":"","lat":34.368067,"lng":132.369697,"zip":"7315125"},{"town":"五日市駅前二丁目","koaza":"","lat":34.37123,"lng":132.365055,"zip":"7315125"},{"town":"五日市駅前三丁目","koaza":"","lat":34.370469,"lng":132.367799,"zip":"7315125"},{"town":"五日市港一丁目","koaza":"","lat":34.355719,"lng":132.372196,"zip":"7315161"},{"town":"五日市港二丁目","koaza":"","lat":34.35341,"lng":132.367078,"zip":"7315161"},{"town":"五日市港三丁目","koaza":"","lat":34.35237,"lng":132.363926,"zip":"7315161"},{"town":"五日市港四丁目","koaza":"","lat":34.351647,"lng":132.354442,"zip":"7315161"},{"town":"五日市中央一丁目","koaza":"","lat":34.366348,"lng":132.352613,"zip":"7315128"},{"town":"五日市中央二丁目","koaza":"","lat":34.369341,"lng":132.355071,"zip":"7315128"},{"town":"五日市中央三丁目","koaza":"","lat":34.369662,"lng":132.352171,"zip":"7315128"},{"town":"五日市中央四丁目","koaza":"","lat":34.372219,"lng":132.354481,"zip":"7315128"},{"town":"五日市中央五丁目","koaza":"","lat":34.374723,"lng":132.355423,"zip":"7315128"},{"town":"五日市中央六丁目","koaza":"","lat":34.378745,"lng":132.357004,"zip":"7315128"},{"town":"五日市中央七丁目","koaza":"","lat":34.382863,"lng":132.357451,"zip":"7315128"},{"town":"五日市町","koaza":"","lat":34.361729,"lng":132.375349,"zip":"7315102"},{"town":"五日市町大字上河内","koaza":"","lat":34.424618,"lng":132.337812,"zip":"7315100"},{"town":"五日市町大字上小深川","koaza":"","lat":34.430592,"lng":132.357793,"zip":"7315100"},{"town":"五日市町大字口和田","koaza":"","lat":34.395247,"lng":132.37252,"zip":"7315100"},{"town":"五日市町大字下河内","koaza":"","lat":34.424257,"lng":132.3139,"zip":"7315100"},{"town":"五日市町大字下小深川","koaza":"","lat":34.410434,"lng":132.357808,"zip":"7315100"},{"town":"五日市町大字昭和台","koaza":"","lat":34.377831,"lng":132.368661,"zip":"7315100"},{"town":"五日市町大字高井","koaza":"","lat":34.388617,"lng":132.381973,"zip":"7315100"},{"town":"五日市町大字寺田","koaza":"","lat":34.398504,"lng":132.356998,"zip":"7315100"},{"town":"五日市町大字利松","koaza":"","lat":34.399888,"lng":132.375898,"zip":"7315100"},{"town":"五日市町大字中地","koaza":"","lat":34.386779,"lng":132.372405,"zip":"7315100"},{"town":"五日市町大字藤の木","koaza":"","lat":34.420449,"lng":132.357824,"zip":"7315100"},{"town":"五日市町大字保井田","koaza":"","lat":34.400174,"lng":132.345133,"zip":"7315100"},{"town":"五日市町大字美鈴園","koaza":"","lat":34.380638,"lng":132.365775,"zip":"7315100"},{"town":"五日市町大字皆賀","koaza":"","lat":34.382042,"lng":132.371636,"zip":"7315100"},{"town":"海老園一丁目","koaza":"","lat":34.363415,"lng":132.358852,"zip":"7315135"},{"town":"海老園二丁目","koaza":"","lat":34.363909,"lng":132.36224,"zip":"7315135"},{"town":"海老園三丁目","koaza":"","lat":34.360438,"lng":132.360165,"zip":"7315135"},{"town":"海老園四丁目","koaza":"","lat":34.358885,"lng":132.358612,"zip":"7315135"},{"town":"海老山町","koaza":"","lat":34.36326,"lng":132.365169,"zip":"7315134"},{"town":"海老山南一丁目","koaza":"","lat":34.360906,"lng":132.368569,"zip":"7315138"},{"town":"海老山南二丁目","koaza":"","lat":34.359801,"lng":132.36907,"zip":"7315138"},{"town":"観音台一丁目","koaza":"","lat":34.38313,"lng":132.339088,"zip":"7315157"},{"town":"観音台二丁目","koaza":"","lat":34.384154,"lng":132.342801,"zip":"7315157"},{"town":"観音台三丁目","koaza":"","lat":34.388665,"lng":132.339667,"zip":"7315157"},{"town":"観音台四丁目","koaza":"","lat":34.388638,"lng":132.342646,"zip":"7315157"},{"town":"倉重一丁目","koaza":"","lat":34.385771,"lng":132.349386,"zip":"7315156"},{"town":"倉重二丁目","koaza":"","lat":34.391365,"lng":132.343539,"zip":"7315156"},{"town":"倉重三丁目","koaza":"","lat":34.392052,"lng":132.346808,"zip":"7315156"},{"town":"倉重町","koaza":"","lat":34.395088,"lng":132.333193,"zip":"7315100"},{"town":"河内南一丁目","koaza":"","lat":34.405594,"lng":132.343816,"zip":"7315153"},{"town":"河内南二丁目","koaza":"","lat":34.408392,"lng":132.343657,"zip":"7315153"},{"town":"五月が丘二丁目","koaza":"","lat":34.421482,"lng":132.402577,"zip":"7315101"},{"town":"五月が丘三丁目","koaza":"","lat":34.424917,"lng":132.404415,"zip":"7315101"},{"town":"五月が丘四丁目","koaza":"","lat":34.428706,"lng":132.40518,"zip":"7315101"},{"town":"五月が丘五丁目","koaza":"","lat":34.426078,"lng":132.399871,"zip":"7315101"},{"town":"城山一丁目","koaza":"","lat":34.38466,"lng":132.354737,"zip":"7315155"},{"town":"城山二丁目","koaza":"","lat":34.387864,"lng":132.352869,"zip":"7315155"},{"town":"新宮苑","koaza":"","lat":34.370519,"lng":132.362431,"zip":"7315126"},{"town":"杉並台","koaza":"","lat":34.430932,"lng":132.296848,"zip":"7380514"},{"town":"隅の浜一丁目","koaza":"","lat":34.364312,"lng":132.346402,"zip":"7315145"},{"town":"隅の浜二丁目","koaza":"","lat":34.361645,"lng":132.344915,"zip":"7315145"},{"town":"隅の浜三丁目","koaza":"","lat":34.362045,"lng":132.34768,"zip":"7315145"},{"town":"千同一丁目","koaza":"","lat":34.377474,"lng":132.351737,"zip":"7315141"},{"town":"千同二丁目","koaza":"","lat":34.379995,"lng":132.353215,"zip":"7315141"},{"town":"千同三丁目","koaza":"","lat":34.380866,"lng":132.346167,"zip":"7315141"},{"town":"坪井一丁目","koaza":"","lat":34.375532,"lng":132.347852,"zip":"7315142"},{"town":"坪井二丁目","koaza":"","lat":34.378717,"lng":132.344127,"zip":"7315142"},{"town":"坪井三丁目","koaza":"","lat":34.38058,"lng":132.338272,"zip":"7315142"},{"town":"坪井町","koaza":"","lat":34.388998,"lng":132.325375,"zip":"7315142"},{"town":"藤垂園","koaza":"","lat":34.365078,"lng":132.373791,"zip":"7315131"},{"town":"利松一丁目","koaza":"","lat":34.395254,"lng":132.363402,"zip":"7315106"},{"town":"利松二丁目","koaza":"","lat":34.39945,"lng":132.369473,"zip":"7315106"},{"town":"利松三丁目","koaza":"","lat":34.4011,"lng":132.361772,"zip":"7315106"},{"town":"藤の木一丁目","koaza":"","lat":34.418765,"lng":132.360946,"zip":"7315103"},{"town":"藤の木二丁目","koaza":"","lat":34.424272,"lng":132.362476,"zip":"7315103"},{"town":"藤の木三丁目","koaza":"","lat":34.42329,"lng":132.364717,"zip":"7315103"},{"town":"藤の木四丁目","koaza":"","lat":34.418403,"lng":132.365686,"zip":"7315103"},{"town":"三筋一丁目","koaza":"","lat":34.365436,"lng":132.347154,"zip":"7315144"},{"town":"三筋二丁目","koaza":"","lat":34.367104,"lng":132.347494,"zip":"7315144"},{"town":"三筋三丁目","koaza":"","lat":34.368164,"lng":132.345964,"zip":"7315144"},{"town":"美鈴が丘西一丁目","koaza":"","lat":34.39251,"lng":132.383259,"zip":"7315114"},{"town":"美鈴が丘西二丁目","koaza":"","lat":34.394533,"lng":132.382608,"zip":"7315114"},{"town":"美鈴が丘西三丁目","koaza":"","lat":34.395959,"lng":132.381552,"zip":"7315114"},{"town":"美鈴が丘西四丁目","koaza":"","lat":34.398759,"lng":132.381411,"zip":"7315114"},{"town":"美鈴が丘西五丁目","koaza":"","lat":34.397006,"lng":132.38347,"zip":"7315114"},{"town":"美鈴が丘東一丁目","koaza":"","lat":34.392343,"lng":132.3874,"zip":"7315111"},{"town":"美鈴が丘東二丁目","koaza":"","lat":34.394251,"lng":132.386615,"zip":"7315111"},{"town":"美鈴が丘東三丁目","koaza":"","lat":34.396935,"lng":132.386484,"zip":"7315111"},{"town":"美鈴が丘東四丁目","koaza":"","lat":34.395803,"lng":132.390565,"zip":"7315111"},{"town":"美鈴が丘東五丁目","koaza":"","lat":34.392873,"lng":132.38984,"zip":"7315111"},{"town":"美鈴が丘緑一丁目","koaza":"","lat":34.394783,"lng":132.379482,"zip":"7315113"},{"town":"美鈴が丘緑二丁目","koaza":"","lat":34.394432,"lng":132.377438,"zip":"7315113"},{"town":"美鈴が丘緑三丁目","koaza":"","lat":34.394259,"lng":132.375304,"zip":"7315113"},{"town":"美鈴が丘南一丁目","koaza":"","lat":34.389709,"lng":132.379225,"zip":"7315112"},{"town":"美鈴が丘南二丁目","koaza":"","lat":34.389761,"lng":132.382611,"zip":"7315112"},{"town":"美鈴が丘南三丁目","koaza":"","lat":34.391399,"lng":132.385216,"zip":"7315112"},{"town":"美鈴が丘南四丁目","koaza":"","lat":34.389117,"lng":132.386103,"zip":"7315112"},{"town":"皆賀一丁目","koaza":"","lat":34.373074,"lng":132.370045,"zip":"7315124"},{"town":"皆賀二丁目","koaza":"","lat":34.374014,"lng":132.367769,"zip":"7315124"},{"town":"皆賀三丁目","koaza":"","lat":34.375109,"lng":132.366234,"zip":"7315124"},{"town":"皆賀四丁目","koaza":"","lat":34.376499,"lng":132.363565,"zip":"7315124"},{"town":"美の里一丁目","koaza":"","lat":34.358584,"lng":132.349742,"zip":"7315137"},{"town":"美の里二丁目","koaza":"","lat":34.358363,"lng":132.346812,"zip":"7315137"},{"town":"三宅一丁目","koaza":"","lat":34.370037,"lng":132.34987,"zip":"7315143"},{"town":"三宅二丁目","koaza":"","lat":34.37115,"lng":132.342906,"zip":"7315143"},{"town":"三宅三丁目","koaza":"","lat":34.372332,"lng":132.34514,"zip":"7315143"},{"town":"三宅四丁目","koaza":"","lat":34.373336,"lng":132.348201,"zip":"7315143"},{"town":"三宅五丁目","koaza":"","lat":34.376208,"lng":132.341809,"zip":"7315143"},{"town":"三宅六丁目","koaza":"","lat":34.379594,"lng":132.336447,"zip":"7315143"},{"town":"三宅町","koaza":"","lat":34.38111,"lng":132.327754,"zip":"7315143"},{"town":"薬師が丘一丁目","koaza":"","lat":34.392652,"lng":132.352297,"zip":"7315154"},{"town":"薬師が丘二丁目","koaza":"","lat":34.392952,"lng":132.349661,"zip":"7315154"},{"town":"薬師が丘三丁目","koaza":"","lat":34.396012,"lng":132.350803,"zip":"7315154"},{"town":"薬師が丘四丁目","koaza":"","lat":34.396187,"lng":132.345941,"zip":"7315154"},{"town":"屋代一丁目","koaza":"","lat":34.367653,"lng":132.34161,"zip":"7315146"},{"town":"屋代二丁目","koaza":"","lat":34.36953,"lng":132.336689,"zip":"7315146"},{"town":"屋代三丁目","koaza":"","lat":34.370592,"lng":132.339668,"zip":"7315146"},{"town":"屋代町","koaza":"","lat":34.376559,"lng":132.331113,"zip":"7315147"},{"town":"八幡一丁目","koaza":"","lat":34.387426,"lng":132.358545,"zip":"7315116"},{"town":"八幡二丁目","koaza":"","lat":34.39105,"lng":132.355772,"zip":"7315116"},{"town":"八幡三丁目","koaza":"","lat":34.393586,"lng":132.361088,"zip":"7315116"},{"town":"八幡四丁目","koaza":"","lat":34.394675,"lng":132.358594,"zip":"7315116"},{"town":"八幡五丁目","koaza":"","lat":34.400624,"lng":132.359916,"zip":"7315116"},{"town":"八幡が丘一丁目","koaza":"","lat":34.393644,"lng":132.355786,"zip":"7315117"},{"town":"八幡が丘二丁目","koaza":"","lat":34.397485,"lng":132.354459,"zip":"7315117"},{"town":"八幡東一丁目","koaza":"","lat":34.382564,"lng":132.363406,"zip":"7315115"},{"town":"八幡東二丁目","koaza":"","lat":34.386911,"lng":132.361123,"zip":"7315115"},{"town":"八幡東三丁目","koaza":"","lat":34.387336,"lng":132.36408,"zip":"7315115"},{"town":"八幡東四丁目","koaza":"","lat":34.394275,"lng":132.367688,"zip":"7315115"},{"town":"湯来町大字下","koaza":"","lat":34.544983,"lng":132.33316,"zip":"7315100"},{"town":"湯来町大字白砂","koaza":"","lat":34.429408,"lng":132.265636,"zip":"7315100"},{"town":"湯来町大字菅沢","koaza":"","lat":34.495813,"lng":132.25679,"zip":"7315100"},{"town":"湯来町大字多田","koaza":"","lat":34.463331,"lng":132.219056,"zip":"7315100"},{"town":"湯来町大字葛原","koaza":"","lat":34.420811,"lng":132.301989,"zip":"7315100"},{"town":"湯来町大字伏谷","koaza":"","lat":34.458877,"lng":132.287456,"zip":"7315100"},{"town":"湯来町大字麦谷","koaza":"","lat":34.515696,"lng":132.30993,"zip":"7315100"},{"town":"湯来町大字和田","koaza":"","lat":34.497747,"lng":132.28879,"zip":"7315100"},{"town":"吉見園","koaza":"","lat":34.364605,"lng":132.370611,"zip":"7315132"},{"town":"楽々園一丁目","koaza":"","lat":34.364634,"lng":132.352147,"zip":"7315136"},{"town":"楽々園二丁目","koaza":"","lat":34.364201,"lng":132.352862,"zip":"7315136"},{"town":"楽々園三丁目","koaza":"","lat":34.362991,"lng":132.355451,"zip":"7315136"},{"town":"楽々園四丁目","koaza":"","lat":34.362449,"lng":132.351544,"zip":"7315136"},{"town":"楽々園五丁目","koaza":"","lat":34.360391,"lng":132.353109,"zip":"7315136"},{"town":"楽々園六丁目","koaza":"","lat":34.35843,"lng":132.354117,"zip":"7315136"},{"town":"石内北五丁目","koaza":"","lat":34.435004,"lng":132.381495,"zip":"7315109"},{"town":"五月が丘一丁目","koaza":"","lat":34.418363,"lng":132.402413,"zip":"7315101"},{"town":"石内東一丁目","koaza":"","lat":34.413862,"lng":132.39918,"zip":"7315162"},{"town":"石内東二丁目","koaza":"","lat":34.409271,"lng":132.400848,"zip":"7315162"},{"town":"石内東四丁目","koaza":"","lat":34.410399,"lng":132.397898,"zip":"7315162"},{"town":"石内東三丁目","koaza":"","lat":34.406335,"lng":132.39591,"zip":"7315162"},{"town":"石内北三丁目","koaza":"","lat":34.443712,"lng":132.387299,"zip":"7315109"},{"town":"五日市町大字石内","koaza":"","lat":34.42534,"lng":132.377471,"zip":"7315100"},{"town":"石内北二丁目","koaza":"","lat":34.441468,"lng":132.384173,"zip":"7315109"},{"town":"五日市町","koaza":"下河内","lat":34.418428,"lng":132.319243,"zip":"7315102"},{"town":"五日市町","koaza":"上河内","lat":34.422588,"lng":132.338371,"zip":"7315102"},{"town":"五日市町","koaza":"保井田","lat":34.401212,"lng":132.340724,"zip":"7315102"},{"town":"五日市町","koaza":"上小深川","lat":34.428782,"lng":132.361003,"zip":"7315102"},{"town":"五日市町","koaza":"下小深川","lat":34.408144,"lng":132.355622,"zip":"7315102"},{"town":"五日市町","koaza":"藤の木","lat":34.417825,"lng":132.357908,"zip":"7315102"},{"town":"五日市町","koaza":"美鈴園","lat":34.380826,"lng":132.366127,"zip":"7315102"},{"town":"五日市町","koaza":"中地","lat":34.388255,"lng":132.369022,"zip":"7315102"},{"town":"五日市町","koaza":"皆賀","lat":34.379836,"lng":132.371722,"zip":"7315102"},{"town":"五日市町","koaza":"昭和台","lat":34.377507,"lng":132.369051,"zip":"7315102"},{"town":"五日市町","koaza":"利松","lat":34.397311,"lng":132.370407,"zip":"7315102"}]