[{"town":"安佐町大字飯室","koaza":"","lat":34.556528,"lng":132.440467,"zip":"7391700"},{"town":"安佐町大字後山","koaza":"","lat":34.509263,"lng":132.452704,"zip":"7391700"},{"town":"安佐町大字小河内","koaza":"","lat":34.574488,"lng":132.409331,"zip":"7391700"},{"town":"安佐町大字くすの木台","koaza":"","lat":34.501493,"lng":132.393029,"zip":"7391700"},{"town":"安佐町大字久地","koaza":"","lat":34.522073,"lng":132.384073,"zip":"7391700"},{"town":"安佐町大字毛木","koaza":"","lat":34.516806,"lng":132.432823,"zip":"7391700"},{"town":"安佐町大字鈴張","koaza":"","lat":34.592161,"lng":132.468572,"zip":"7391700"},{"town":"安佐町大字筒瀬","koaza":"","lat":34.499536,"lng":132.468849,"zip":"7391700"},{"town":"安佐町大字動物園","koaza":"","lat":34.497343,"lng":132.442442,"zip":"7391700"},{"town":"安佐町大字宮野","koaza":"","lat":34.515582,"lng":132.459969,"zip":"7391700"},{"town":"あさひが丘一丁目","koaza":"","lat":34.504936,"lng":132.440415,"zip":"7313361"},{"town":"あさひが丘二丁目","koaza":"","lat":34.502002,"lng":132.440324,"zip":"7313361"},{"town":"あさひが丘三丁目","koaza":"","lat":34.505745,"lng":132.435826,"zip":"7313361"},{"town":"あさひが丘四丁目","koaza":"","lat":34.503088,"lng":132.436591,"zip":"7313361"},{"town":"あさひが丘五丁目","koaza":"","lat":34.502602,"lng":132.433922,"zip":"7313361"},{"town":"あさひが丘六丁目","koaza":"","lat":34.506512,"lng":132.43192,"zip":"7313361"},{"town":"あさひが丘七丁目","koaza":"","lat":34.507478,"lng":132.438772,"zip":"7313361"},{"town":"あさひが丘八丁目","koaza":"","lat":34.51175,"lng":132.437983,"zip":"7313361"},{"town":"あさひが丘九丁目","koaza":"","lat":34.51067,"lng":132.433596,"zip":"7313361"},{"town":"大林一丁目","koaza":"","lat":34.551102,"lng":132.538501,"zip":"7310201"},{"town":"大林二丁目","koaza":"","lat":34.549481,"lng":132.540896,"zip":"7310201"},{"town":"大林三丁目","koaza":"","lat":34.555763,"lng":132.545114,"zip":"7310201"},{"town":"大林四丁目","koaza":"","lat":34.556138,"lng":132.548134,"zip":"7310201"},{"town":"大林町","koaza":"","lat":34.553306,"lng":132.562625,"zip":"7310202"},{"town":"小河原町","koaza":"","lat":34.45603,"lng":132.568804,"zip":"7391754"},{"town":"落合一丁目","koaza":"","lat":34.473672,"lng":132.511902,"zip":"7391731"},{"town":"落合二丁目","koaza":"","lat":34.480953,"lng":132.507288,"zip":"7391731"},{"town":"落合三丁目","koaza":"","lat":34.477352,"lng":132.512031,"zip":"7391731"},{"town":"落合四丁目","koaza":"","lat":34.475972,"lng":132.515621,"zip":"7391731"},{"town":"落合五丁目","koaza":"","lat":34.47881,"lng":132.518237,"zip":"7391731"},{"town":"落合町","koaza":"","lat":34.474048,"lng":132.50758,"zip":"7391700"},{"town":"落合南一丁目","koaza":"","lat":34.464363,"lng":132.509723,"zip":"7391732"},{"town":"落合南二丁目","koaza":"","lat":34.466747,"lng":132.513311,"zip":"7391732"},{"town":"落合南三丁目","koaza":"","lat":34.470671,"lng":132.514267,"zip":"7391732"},{"town":"落合南四丁目","koaza":"","lat":34.470331,"lng":132.518146,"zip":"7391732"},{"town":"落合南五丁目","koaza":"","lat":34.465353,"lng":132.51676,"zip":"7391732"},{"town":"落合南六丁目","koaza":"","lat":34.465892,"lng":132.524975,"zip":"7391732"},{"town":"落合南七丁目","koaza":"","lat":34.471551,"lng":132.521362,"zip":"7391732"},{"town":"落合南八丁目","koaza":"","lat":34.472572,"lng":132.523902,"zip":"7391732"},{"town":"落合南九丁目","koaza":"","lat":34.474122,"lng":132.526156,"zip":"7391732"},{"town":"落合南町","koaza":"","lat":34.460123,"lng":132.524313,"zip":"7391732"},{"town":"可部一丁目","koaza":"","lat":34.513457,"lng":132.506099,"zip":"7310221"},{"town":"可部二丁目","koaza":"","lat":34.51337,"lng":132.51135,"zip":"7310221"},{"town":"可部三丁目","koaza":"","lat":34.520777,"lng":132.513591,"zip":"7310221"},{"town":"可部四丁目","koaza":"","lat":34.517352,"lng":132.50811,"zip":"7310221"},{"town":"可部五丁目","koaza":"","lat":34.521393,"lng":132.508909,"zip":"7310221"},{"town":"可部六丁目","koaza":"","lat":34.52693,"lng":132.504278,"zip":"7310221"},{"town":"可部七丁目","koaza":"","lat":34.524678,"lng":132.510647,"zip":"7310221"},{"town":"可部八丁目","koaza":"","lat":34.528395,"lng":132.515464,"zip":"7310221"},{"town":"可部九丁目","koaza":"","lat":34.535558,"lng":132.512083,"zip":"7310221"},{"town":"可部町大字綾ケ谷","koaza":"","lat":34.55673,"lng":132.486666,"zip":"7391700"},{"town":"可部町大字今井田","koaza":"","lat":34.513742,"lng":132.478072,"zip":"7391700"},{"town":"可部町大字上原","koaza":"","lat":34.513836,"lng":132.530891,"zip":"7391700"},{"town":"可部町大字大毛寺","koaza":"","lat":34.535242,"lng":132.496373,"zip":"7391700"},{"town":"可部町大字勝木","koaza":"","lat":34.538288,"lng":132.462028,"zip":"7391700"},{"town":"可部町大字上町屋","koaza":"","lat":34.557739,"lng":132.524642,"zip":"7391700"},{"town":"可部町大字下町屋","koaza":"","lat":34.526148,"lng":132.519512,"zip":"7391700"},{"town":"可部町大字城","koaza":"","lat":34.532949,"lng":132.508231,"zip":"7391700"},{"town":"可部町大字桐原","koaza":"","lat":34.525866,"lng":132.548457,"zip":"7391700"},{"town":"可部町大字中島","koaza":"","lat":34.499196,"lng":132.520962,"zip":"7391700"},{"town":"可部町大字中野","koaza":"","lat":34.532877,"lng":132.504897,"zip":"7391700"},{"town":"可部町大字南原","koaza":"","lat":34.574055,"lng":132.51526,"zip":"7391700"},{"town":"可部東一丁目","koaza":"","lat":34.506537,"lng":132.519503,"zip":"7310222"},{"town":"可部東二丁目","koaza":"","lat":34.510021,"lng":132.516512,"zip":"7310222"},{"town":"可部東三丁目","koaza":"","lat":34.510059,"lng":132.522232,"zip":"7310222"},{"town":"可部東四丁目","koaza":"","lat":34.514384,"lng":132.5197,"zip":"7310222"},{"town":"可部東五丁目","koaza":"","lat":34.522465,"lng":132.515314,"zip":"7310222"},{"town":"可部東六丁目","koaza":"","lat":34.519075,"lng":132.523681,"zip":"7310222"},{"town":"可部南一丁目","koaza":"","lat":34.494385,"lng":132.512914,"zip":"7310223"},{"town":"可部南二丁目","koaza":"","lat":34.501878,"lng":132.518519,"zip":"7310223"},{"town":"可部南三丁目","koaza":"","lat":34.501387,"lng":132.514876,"zip":"7310223"},{"town":"可部南四丁目","koaza":"","lat":34.505721,"lng":132.511221,"zip":"7310223"},{"town":"可部南五丁目","koaza":"","lat":34.507934,"lng":132.514094,"zip":"7310223"},{"town":"上深川町","koaza":"","lat":34.486946,"lng":132.559785,"zip":"7391752"},{"town":"亀崎一丁目","koaza":"","lat":34.479954,"lng":132.523879,"zip":"7391742"},{"town":"亀崎二丁目","koaza":"","lat":34.485072,"lng":132.521691,"zip":"7391742"},{"town":"亀崎三丁目","koaza":"","lat":34.486159,"lng":132.524731,"zip":"7391742"},{"town":"亀崎四丁目","koaza":"","lat":34.482141,"lng":132.525523,"zip":"7391742"},{"town":"亀山一丁目","koaza":"","lat":34.51533,"lng":132.501749,"zip":"7310231"},{"town":"亀山二丁目","koaza":"","lat":34.519099,"lng":132.50216,"zip":"7310231"},{"town":"亀山三丁目","koaza":"","lat":34.522366,"lng":132.501716,"zip":"7310231"},{"town":"亀山四丁目","koaza":"","lat":34.524031,"lng":132.496177,"zip":"7310231"},{"town":"亀山五丁目","koaza":"","lat":34.527063,"lng":132.498439,"zip":"7310231"},{"town":"亀山六丁目","koaza":"","lat":34.530386,"lng":132.492412,"zip":"7310231"},{"town":"亀山七丁目","koaza":"","lat":34.528798,"lng":132.488905,"zip":"7310231"},{"town":"亀山八丁目","koaza":"","lat":34.53273,"lng":132.485295,"zip":"7310231"},{"town":"亀山九丁目","koaza":"","lat":34.537359,"lng":132.479402,"zip":"7310231"},{"town":"亀山西一丁目","koaza":"","lat":34.531975,"lng":132.476896,"zip":"7310233"},{"town":"亀山西二丁目","koaza":"","lat":34.532544,"lng":132.472946,"zip":"7310233"},{"town":"亀山南一丁目","koaza":"","lat":34.515309,"lng":132.495049,"zip":"7310232"},{"town":"亀山南二丁目","koaza":"","lat":34.517549,"lng":132.491418,"zip":"7310232"},{"town":"亀山南三丁目","koaza":"","lat":34.521186,"lng":132.494385,"zip":"7310232"},{"town":"亀山南四丁目","koaza":"","lat":34.521512,"lng":132.489095,"zip":"7310232"},{"town":"亀山南五丁目","koaza":"","lat":34.527217,"lng":132.486963,"zip":"7310232"},{"town":"狩留家町","koaza":"","lat":34.474992,"lng":132.584573,"zip":"7391753"},{"town":"口田一丁目","koaza":"","lat":34.463059,"lng":132.496464,"zip":"7391734"},{"town":"口田二丁目","koaza":"","lat":34.468408,"lng":132.497504,"zip":"7391734"},{"town":"口田三丁目","koaza":"","lat":34.466879,"lng":132.502377,"zip":"7391734"},{"town":"口田四丁目","koaza":"","lat":34.469101,"lng":132.505736,"zip":"7391734"},{"town":"口田五丁目","koaza":"","lat":34.471668,"lng":132.502062,"zip":"7391734"},{"town":"口田町","koaza":"","lat":34.472691,"lng":132.498662,"zip":"7391734"},{"town":"口田南一丁目","koaza":"","lat":34.453462,"lng":132.491206,"zip":"7391733"},{"town":"口田南二丁目","koaza":"","lat":34.453593,"lng":132.493748,"zip":"7391733"},{"town":"口田南三丁目","koaza":"","lat":34.451979,"lng":132.496384,"zip":"7391733"},{"town":"口田南四丁目","koaza":"","lat":34.456463,"lng":132.499092,"zip":"7391733"},{"town":"口田南五丁目","koaza":"","lat":34.450987,"lng":132.503735,"zip":"7391733"},{"town":"口田南六丁目","koaza":"","lat":34.456969,"lng":132.503469,"zip":"7391733"},{"town":"口田南七丁目","koaza":"","lat":34.462232,"lng":132.501452,"zip":"7391733"},{"town":"口田南八丁目","koaza":"","lat":34.46253,"lng":132.506219,"zip":"7391733"},{"town":"口田南九丁目","koaza":"","lat":34.458541,"lng":132.508072,"zip":"7391733"},{"town":"口田南町","koaza":"","lat":34.450061,"lng":132.511107,"zip":"7391733"},{"town":"倉掛一丁目","koaza":"","lat":34.474205,"lng":132.528187,"zip":"7391743"},{"town":"倉掛二丁目","koaza":"","lat":34.471296,"lng":132.531079,"zip":"7391743"},{"town":"倉掛三丁目","koaza":"","lat":34.475779,"lng":132.530834,"zip":"7391743"},{"town":"白木町大字秋山","koaza":"","lat":34.537109,"lng":132.65896,"zip":"7391700"},{"town":"白木町大字市川","koaza":"","lat":34.547765,"lng":132.60392,"zip":"7391700"},{"town":"白木町大字井原","koaza":"","lat":34.587144,"lng":132.67549,"zip":"7391700"},{"town":"白木町大字古屋","koaza":"","lat":34.586113,"lng":132.651004,"zip":"7391700"},{"town":"白木町大字志路","koaza":"","lat":34.576841,"lng":132.617953,"zip":"7391700"},{"town":"白木町大字三田","koaza":"","lat":34.514844,"lng":132.608959,"zip":"7391700"},{"town":"深川一丁目","koaza":"","lat":34.489577,"lng":132.519521,"zip":"7391751"},{"town":"深川二丁目","koaza":"","lat":34.493239,"lng":132.519929,"zip":"7391751"},{"town":"深川三丁目","koaza":"","lat":34.487901,"lng":132.527938,"zip":"7391751"},{"town":"深川四丁目","koaza":"","lat":34.485045,"lng":132.533037,"zip":"7391751"},{"town":"深川五丁目","koaza":"","lat":34.482389,"lng":132.530757,"zip":"7391751"},{"town":"深川六丁目","koaza":"","lat":34.477459,"lng":132.536895,"zip":"7391751"},{"town":"深川七丁目","koaza":"","lat":34.479475,"lng":132.544,"zip":"7391751"},{"town":"深川八丁目","koaza":"","lat":34.473366,"lng":132.540985,"zip":"7391751"},{"town":"深川町","koaza":"","lat":34.493901,"lng":132.538995,"zip":"7391751"},{"town":"真亀一丁目","koaza":"","lat":34.479606,"lng":132.519757,"zip":"7391741"},{"town":"真亀二丁目","koaza":"","lat":34.480665,"lng":132.516447,"zip":"7391741"},{"town":"真亀三丁目","koaza":"","lat":34.482857,"lng":132.513421,"zip":"7391741"},{"town":"真亀四丁目","koaza":"","lat":34.487057,"lng":132.5146,"zip":"7391741"},{"town":"真亀五丁目","koaza":"","lat":34.484417,"lng":132.518251,"zip":"7391741"},{"town":"三入一丁目","koaza":"","lat":34.533821,"lng":132.518594,"zip":"7310211"},{"town":"三入二丁目","koaza":"","lat":34.542362,"lng":132.526807,"zip":"7310211"},{"town":"三入三丁目","koaza":"","lat":34.539569,"lng":132.52832,"zip":"7310211"},{"town":"三入四丁目","koaza":"","lat":34.542735,"lng":132.534497,"zip":"7310211"},{"town":"三入五丁目","koaza":"","lat":34.543714,"lng":132.532934,"zip":"7310211"},{"town":"三入六丁目","koaza":"","lat":34.547141,"lng":132.532803,"zip":"7310211"},{"town":"三入七丁目","koaza":"","lat":34.549681,"lng":132.524715,"zip":"7310211"},{"town":"三入東一丁目","koaza":"","lat":34.534533,"lng":132.541162,"zip":"7310212"},{"town":"三入東二丁目","koaza":"","lat":34.537243,"lng":132.549236,"zip":"7310212"},{"town":"三入南一丁目","koaza":"","lat":34.532639,"lng":132.520747,"zip":"7310213"},{"town":"三入南二丁目","koaza":"","lat":34.535196,"lng":132.52797,"zip":"7310213"},{"town":"白木町大字有留","koaza":"","lat":34.558173,"lng":132.676116,"zip":"7391700"},{"town":"白木町大字小越","koaza":"","lat":34.55326,"lng":132.670552,"zip":"7391700"}]