[{"town":"曙一丁目","koaza":"","lat":34.396257,"lng":132.487153,"zip":"7320045"},{"town":"曙二丁目","koaza":"","lat":34.395944,"lng":132.489773,"zip":"7320045"},{"town":"曙三丁目","koaza":"","lat":34.394845,"lng":132.487614,"zip":"7320045"},{"town":"曙四丁目","koaza":"","lat":34.394402,"lng":132.489849,"zip":"7320045"},{"town":"曙五丁目","koaza":"","lat":34.394439,"lng":132.491888,"zip":"7320045"},{"town":"愛宕町","koaza":"","lat":34.396734,"lng":132.482778,"zip":"7320054"},{"town":"牛田旭一丁目","koaza":"","lat":34.41401,"lng":132.469929,"zip":"7320067"},{"town":"牛田旭二丁目","koaza":"","lat":34.416295,"lng":132.473797,"zip":"7320067"},{"town":"牛田新町一丁目","koaza":"","lat":34.41979,"lng":132.469605,"zip":"7320068"},{"town":"牛田新町二丁目","koaza":"","lat":34.422731,"lng":132.465163,"zip":"7320068"},{"town":"牛田新町三丁目","koaza":"","lat":34.426376,"lng":132.472477,"zip":"7320068"},{"town":"牛田新町四丁目","koaza":"","lat":34.430523,"lng":132.473846,"zip":"7320068"},{"town":"牛田中一丁目","koaza":"","lat":34.410263,"lng":132.472681,"zip":"7320065"},{"town":"牛田中二丁目","koaza":"","lat":34.410573,"lng":132.473933,"zip":"7320065"},{"town":"牛田東一丁目","koaza":"","lat":34.408194,"lng":132.478886,"zip":"7320063"},{"town":"牛田東二丁目","koaza":"","lat":34.412422,"lng":132.481512,"zip":"7320063"},{"town":"牛田東三丁目","koaza":"","lat":34.408702,"lng":132.483222,"zip":"7320063"},{"town":"牛田東四丁目","koaza":"","lat":34.414146,"lng":132.486158,"zip":"7320063"},{"town":"牛田本町一丁目","koaza":"","lat":34.408874,"lng":132.470349,"zip":"7320066"},{"town":"牛田本町二丁目","koaza":"","lat":34.409922,"lng":132.471787,"zip":"7320066"},{"town":"牛田本町三丁目","koaza":"","lat":34.410291,"lng":132.469405,"zip":"7320066"},{"town":"牛田本町四丁目","koaza":"","lat":34.411484,"lng":132.468094,"zip":"7320066"},{"town":"牛田本町五丁目","koaza":"","lat":34.412852,"lng":132.46699,"zip":"7320066"},{"town":"牛田本町六丁目","koaza":"","lat":34.415355,"lng":132.464783,"zip":"7320066"},{"town":"牛田南一丁目","koaza":"","lat":34.406593,"lng":132.472494,"zip":"7320064"},{"town":"牛田南二丁目","koaza":"","lat":34.407535,"lng":132.475373,"zip":"7320064"},{"town":"牛田山","koaza":"","lat":34.422591,"lng":132.479385,"zip":"7320061"},{"town":"牛田早稲田一丁目","koaza":"","lat":34.411251,"lng":132.475909,"zip":"7320062"},{"town":"牛田早稲田二丁目","koaza":"","lat":34.415407,"lng":132.478123,"zip":"7320062"},{"town":"牛田早稲田三丁目","koaza":"","lat":34.415387,"lng":132.481092,"zip":"7320062"},{"town":"牛田早稲田四丁目","koaza":"","lat":34.418245,"lng":132.482375,"zip":"7320062"},{"town":"馬木一丁目","koaza":"","lat":34.4307,"lng":132.522009,"zip":"7320031"},{"town":"馬木二丁目","koaza":"","lat":34.435799,"lng":132.526165,"zip":"7320031"},{"town":"馬木三丁目","koaza":"","lat":34.43523,"lng":132.530014,"zip":"7320031"},{"town":"馬木四丁目","koaza":"","lat":34.440198,"lng":132.532678,"zip":"7320031"},{"town":"馬木五丁目","koaza":"","lat":34.440156,"lng":132.528226,"zip":"7320031"},{"town":"馬木六丁目","koaza":"","lat":34.443762,"lng":132.529995,"zip":"7320031"},{"town":"馬木七丁目","koaza":"","lat":34.441786,"lng":132.535344,"zip":"7320031"},{"town":"馬木八丁目","koaza":"","lat":34.438479,"lng":132.538328,"zip":"7320031"},{"town":"馬木九丁目","koaza":"","lat":34.443943,"lng":132.537574,"zip":"7320031"},{"town":"馬木町","koaza":"","lat":34.43164,"lng":132.539117,"zip":"7320035"},{"town":"尾長西一丁目","koaza":"","lat":34.397654,"lng":132.486574,"zip":"7320047"},{"town":"尾長西二丁目","koaza":"","lat":34.400387,"lng":132.48946,"zip":"7320047"},{"town":"尾長東一丁目","koaza":"","lat":34.396735,"lng":132.490809,"zip":"7320046"},{"town":"尾長東二丁目","koaza":"","lat":34.398213,"lng":132.489239,"zip":"7320046"},{"town":"尾長東三丁目","koaza":"","lat":34.401357,"lng":132.493252,"zip":"7320046"},{"town":"尾長町","koaza":"","lat":34.402847,"lng":132.490358,"zip":"7320049"},{"town":"上大須賀町","koaza":"","lat":34.399626,"lng":132.472751,"zip":"7320056"},{"town":"上温品一丁目","koaza":"","lat":34.422259,"lng":132.513171,"zip":"7320032"},{"town":"上温品二丁目","koaza":"","lat":34.424653,"lng":132.511127,"zip":"7320032"},{"town":"上温品三丁目","koaza":"","lat":34.426403,"lng":132.516791,"zip":"7320032"},{"town":"上温品四丁目","koaza":"","lat":34.425086,"lng":132.51746,"zip":"7320032"},{"town":"中山鏡が丘","koaza":"","lat":34.415162,"lng":132.50012,"zip":"7320022"},{"town":"中山上一丁目","koaza":"","lat":34.416891,"lng":132.492022,"zip":"7320027"},{"town":"中山上二丁目","koaza":"","lat":34.418209,"lng":132.499179,"zip":"7320027"},{"town":"中山北町","koaza":"","lat":34.420165,"lng":132.493237,"zip":"7320028"},{"town":"中山新町一丁目","koaza":"","lat":34.421357,"lng":132.496577,"zip":"7320021"},{"town":"中山新町二丁目","koaza":"","lat":34.421829,"lng":132.499877,"zip":"7320021"},{"town":"中山新町三丁目","koaza":"","lat":34.421738,"lng":132.503734,"zip":"7320021"},{"town":"中山中町","koaza":"","lat":34.413428,"lng":132.49408,"zip":"7320026"},{"town":"中山西一丁目","koaza":"","lat":34.407132,"lng":132.490392,"zip":"7320025"},{"town":"中山西二丁目","koaza":"","lat":34.410372,"lng":132.493072,"zip":"7320025"},{"town":"中山東一丁目","koaza":"","lat":34.411199,"lng":132.499559,"zip":"7320023"},{"town":"中山東二丁目","koaza":"","lat":34.409892,"lng":132.503674,"zip":"7320023"},{"town":"中山東三丁目","koaza":"","lat":34.413008,"lng":132.502222,"zip":"7320023"},{"town":"中山南一丁目","koaza":"","lat":34.406393,"lng":132.496279,"zip":"7320024"},{"town":"中山南二丁目","koaza":"","lat":34.406924,"lng":132.499707,"zip":"7320024"},{"town":"温品一丁目","koaza":"","lat":34.407219,"lng":132.505065,"zip":"7320033"},{"town":"温品二丁目","koaza":"","lat":34.40577,"lng":132.50827,"zip":"7320033"},{"town":"温品三丁目","koaza":"","lat":34.409889,"lng":132.510922,"zip":"7320033"},{"town":"温品四丁目","koaza":"","lat":34.410022,"lng":132.508144,"zip":"7320033"},{"town":"温品五丁目","koaza":"","lat":34.413636,"lng":132.507242,"zip":"7320033"},{"town":"温品六丁目","koaza":"","lat":34.417376,"lng":132.508523,"zip":"7320033"},{"town":"温品七丁目","koaza":"","lat":34.415038,"lng":132.509962,"zip":"7320033"},{"town":"温品八丁目","koaza":"","lat":34.416326,"lng":132.511832,"zip":"7320033"},{"town":"温品町","koaza":"","lat":34.430289,"lng":132.511658,"zip":"7320034"},{"town":"東蟹屋町","koaza":"","lat":34.395577,"lng":132.483019,"zip":"7320055"},{"town":"東山町","koaza":"","lat":34.397289,"lng":132.492531,"zip":"7320043"},{"town":"光が丘","koaza":"","lat":34.404044,"lng":132.477906,"zip":"7320051"},{"town":"光町一丁目","koaza":"","lat":34.399041,"lng":132.481084,"zip":"7320052"},{"town":"光町二丁目","koaza":"","lat":34.400728,"lng":132.481665,"zip":"7320052"},{"town":"福田一丁目","koaza":"","lat":34.450549,"lng":132.535872,"zip":"7320029"},{"town":"福田二丁目","koaza":"","lat":34.448565,"lng":132.538154,"zip":"7320029"},{"town":"福田三丁目","koaza":"","lat":34.448001,"lng":132.54379,"zip":"7320029"},{"town":"福田四丁目","koaza":"","lat":34.452738,"lng":132.545461,"zip":"7320029"},{"town":"福田五丁目","koaza":"","lat":34.455798,"lng":132.54355,"zip":"7320029"},{"town":"福田六丁目","koaza":"","lat":34.456591,"lng":132.547749,"zip":"7320029"},{"town":"福田七丁目","koaza":"","lat":34.452489,"lng":132.549384,"zip":"7320029"},{"town":"福田八丁目","koaza":"","lat":34.455031,"lng":132.55417,"zip":"7320029"},{"town":"福田町","koaza":"","lat":34.441442,"lng":132.553953,"zip":"7320036"},{"town":"二葉の里一丁目","koaza":"","lat":34.402035,"lng":132.470696,"zip":"7320057"},{"town":"二葉の里二丁目","koaza":"","lat":34.404054,"lng":132.47191,"zip":"7320057"},{"town":"二葉の里三丁目","koaza":"","lat":34.401284,"lng":132.474598,"zip":"7320057"},{"town":"戸坂出江一丁目","koaza":"","lat":34.430537,"lng":132.487793,"zip":"7320016"},{"town":"戸坂出江二丁目","koaza":"","lat":34.434077,"lng":132.486469,"zip":"7320016"},{"town":"戸坂大上一丁目","koaza":"","lat":34.426775,"lng":132.487773,"zip":"7320014"},{"town":"戸坂大上二丁目","koaza":"","lat":34.429234,"lng":132.493814,"zip":"7320014"},{"town":"戸坂大上三丁目","koaza":"","lat":34.426837,"lng":132.493005,"zip":"7320014"},{"town":"戸坂大上四丁目","koaza":"","lat":34.426005,"lng":132.495989,"zip":"7320014"},{"town":"戸坂数甲一丁目","koaza":"","lat":34.431736,"lng":132.49071,"zip":"7320017"},{"town":"戸坂数甲二丁目","koaza":"","lat":34.431334,"lng":132.493059,"zip":"7320017"},{"town":"戸坂くるめ木一丁目","koaza":"","lat":34.432883,"lng":132.477732,"zip":"7320008"},{"town":"戸坂くるめ木二丁目","koaza":"","lat":34.429757,"lng":132.4814,"zip":"7320008"},{"town":"戸坂桜上町","koaza":"","lat":34.430507,"lng":132.484596,"zip":"7320007"},{"town":"戸坂桜西町","koaza":"","lat":34.432763,"lng":132.483501,"zip":"7320006"},{"town":"戸坂桜東町","koaza":"","lat":34.433434,"lng":132.48498,"zip":"7320005"},{"town":"戸坂城山町","koaza":"","lat":34.428647,"lng":132.488559,"zip":"7320015"},{"town":"戸坂新町一丁目","koaza":"","lat":34.423306,"lng":132.49679,"zip":"7320012"},{"town":"戸坂新町二丁目","koaza":"","lat":34.428936,"lng":132.497615,"zip":"7320012"},{"town":"戸坂新町三丁目","koaza":"","lat":34.424332,"lng":132.501737,"zip":"7320012"},{"town":"戸坂千足一丁目","koaza":"","lat":34.437151,"lng":132.480999,"zip":"7320009"},{"town":"戸坂千足二丁目","koaza":"","lat":34.438757,"lng":132.4865,"zip":"7320009"},{"town":"戸坂惣田一丁目","koaza":"","lat":34.44031,"lng":132.489719,"zip":"7320001"},{"town":"戸坂惣田二丁目","koaza":"","lat":34.439264,"lng":132.491729,"zip":"7320001"},{"town":"戸坂町","koaza":"","lat":34.434084,"lng":132.499782,"zip":"7320011"},{"town":"戸坂長尾台","koaza":"","lat":34.428411,"lng":132.484393,"zip":"7320018"},{"town":"戸坂中町","koaza":"","lat":34.435254,"lng":132.487777,"zip":"7320003"},{"town":"戸坂南一丁目","koaza":"","lat":34.423659,"lng":132.490639,"zip":"7320013"},{"town":"戸坂南二丁目","koaza":"","lat":34.423232,"lng":132.493275,"zip":"7320013"},{"town":"戸坂山崎町","koaza":"","lat":34.435497,"lng":132.483816,"zip":"7320004"},{"town":"戸坂山根一丁目","koaza":"","lat":34.434738,"lng":132.489205,"zip":"7320002"},{"town":"戸坂山根二丁目","koaza":"","lat":34.435265,"lng":132.490638,"zip":"7320002"},{"town":"戸坂山根三丁目","koaza":"","lat":34.435,"lng":132.492738,"zip":"7320002"},{"town":"矢賀一丁目","koaza":"","lat":34.396124,"lng":132.49442,"zip":"7320042"},{"town":"矢賀二丁目","koaza":"","lat":34.399642,"lng":132.495618,"zip":"7320042"},{"town":"矢賀三丁目","koaza":"","lat":34.403706,"lng":132.498056,"zip":"7320042"},{"town":"矢賀四丁目","koaza":"","lat":34.397329,"lng":132.497506,"zip":"7320042"},{"town":"矢賀五丁目","koaza":"","lat":34.403751,"lng":132.500618,"zip":"7320042"},{"town":"矢賀六丁目","koaza":"","lat":34.404848,"lng":132.503094,"zip":"7320042"},{"town":"矢賀新町一丁目","koaza":"","lat":34.392729,"lng":132.494861,"zip":"7320044"},{"town":"矢賀新町二丁目","koaza":"","lat":34.394131,"lng":132.495504,"zip":"7320044"},{"town":"矢賀新町三丁目","koaza":"","lat":34.392923,"lng":132.497352,"zip":"7320044"},{"town":"矢賀新町四丁目","koaza":"","lat":34.391541,"lng":132.497131,"zip":"7320044"},{"town":"矢賀新町五丁目","koaza":"","lat":34.390684,"lng":132.499587,"zip":"7320044"},{"town":"矢賀町","koaza":"","lat":34.40398,"lng":132.494435,"zip":"7320041"},{"town":"山根町","koaza":"","lat":34.402912,"lng":132.485092,"zip":"7320048"},{"town":"若草町","koaza":"","lat":34.397481,"lng":132.480303,"zip":"7320053"}]