[{"town":"榎町","koaza":"","lat":34.396743,"lng":132.444904,"zip":"7300851"},{"town":"江波沖町","koaza":"","lat":34.358645,"lng":132.429887,"zip":"7300837"},{"town":"江波栄町","koaza":"","lat":34.365532,"lng":132.427724,"zip":"7300836"},{"town":"江波西一丁目","koaza":"","lat":34.37246,"lng":132.433139,"zip":"7300831"},{"town":"江波西二丁目","koaza":"","lat":34.369113,"lng":132.429004,"zip":"7300831"},{"town":"江波二本松一丁目","koaza":"","lat":34.36998,"lng":132.432152,"zip":"7300834"},{"town":"江波二本松二丁目","koaza":"","lat":34.366526,"lng":132.432367,"zip":"7300834"},{"town":"江波東一丁目","koaza":"","lat":34.372232,"lng":132.438922,"zip":"7300832"},{"town":"江波東二丁目","koaza":"","lat":34.368652,"lng":132.439305,"zip":"7300832"},{"town":"江波本町","koaza":"","lat":34.36943,"lng":132.435988,"zip":"7300833"},{"town":"江波南一丁目","koaza":"","lat":34.366267,"lng":132.437227,"zip":"7300835"},{"town":"江波南二丁目","koaza":"","lat":34.362738,"lng":132.434257,"zip":"7300835"},{"town":"江波南三丁目","koaza":"","lat":34.364057,"lng":132.430777,"zip":"7300835"},{"town":"胡町","koaza":"","lat":34.393038,"lng":132.46497,"zip":"7300021"},{"town":"大手町一丁目","koaza":"","lat":34.394917,"lng":132.454684,"zip":"7300051"},{"town":"大手町二丁目","koaza":"","lat":34.391937,"lng":132.455349,"zip":"7300051"},{"town":"大手町三丁目","koaza":"","lat":34.388386,"lng":132.453281,"zip":"7300051"},{"town":"大手町四丁目","koaza":"","lat":34.386059,"lng":132.452314,"zip":"7300051"},{"town":"大手町五丁目","koaza":"","lat":34.3821,"lng":132.452002,"zip":"7300051"},{"town":"加古町","koaza":"","lat":34.387479,"lng":132.448643,"zip":"7300812"},{"town":"銀山町","koaza":"","lat":34.391744,"lng":132.467519,"zip":"7300022"},{"town":"上幟町","koaza":"","lat":34.399344,"lng":132.467644,"zip":"7300014"},{"town":"上八丁堀","koaza":"","lat":34.400487,"lng":132.4634,"zip":"7300012"},{"town":"紙屋町一丁目","koaza":"","lat":34.394381,"lng":132.458594,"zip":"7300031"},{"town":"紙屋町二丁目","koaza":"","lat":34.394393,"lng":132.456673,"zip":"7300031"},{"town":"河原町","koaza":"","lat":34.389963,"lng":132.44675,"zip":"7300856"},{"town":"小網町","koaza":"","lat":34.393582,"lng":132.444858,"zip":"7300855"},{"town":"光南一丁目","koaza":"","lat":34.367916,"lng":132.447803,"zip":"7300825"},{"town":"光南二丁目","koaza":"","lat":34.368577,"lng":132.443677,"zip":"7300825"},{"town":"光南三丁目","koaza":"","lat":34.366486,"lng":132.442952,"zip":"7300825"},{"town":"光南四丁目","koaza":"","lat":34.365521,"lng":132.446863,"zip":"7300825"},{"town":"光南五丁目","koaza":"","lat":34.362868,"lng":132.445453,"zip":"7300825"},{"town":"光南六丁目","koaza":"","lat":34.363719,"lng":132.442736,"zip":"7300825"},{"town":"国泰寺町一丁目","koaza":"","lat":34.385795,"lng":132.457012,"zip":"7300042"},{"town":"国泰寺町二丁目","koaza":"","lat":34.383702,"lng":132.456004,"zip":"7300042"},{"town":"小町","koaza":"","lat":34.388026,"lng":132.45771,"zip":"7300041"},{"town":"堺町一丁目","koaza":"","lat":34.394182,"lng":132.448274,"zip":"7300853"},{"town":"堺町二丁目","koaza":"","lat":34.394997,"lng":132.444973,"zip":"7300853"},{"town":"昭和町","koaza":"","lat":34.382723,"lng":132.464945,"zip":"7300046"},{"town":"新天地","koaza":"","lat":34.391544,"lng":132.462462,"zip":"7300034"},{"town":"住吉町","koaza":"","lat":34.383577,"lng":132.448483,"zip":"7300813"},{"town":"千田町一丁目","koaza":"","lat":34.381648,"lng":132.454451,"zip":"7300052"},{"town":"千田町二丁目","koaza":"","lat":34.379209,"lng":132.454483,"zip":"7300052"},{"town":"千田町三丁目","koaza":"","lat":34.376146,"lng":132.456653,"zip":"7300052"},{"town":"宝町","koaza":"","lat":34.385852,"lng":132.463474,"zip":"7300044"},{"town":"竹屋町","koaza":"","lat":34.383408,"lng":132.461039,"zip":"7300048"},{"town":"立町","koaza":"","lat":34.393824,"lng":132.461003,"zip":"7300032"},{"town":"田中町","koaza":"","lat":34.388564,"lng":132.464276,"zip":"7300026"},{"town":"鶴見町","koaza":"","lat":34.385492,"lng":132.467019,"zip":"7300045"},{"town":"鉄砲町","koaza":"","lat":34.395631,"lng":132.464813,"zip":"7300017"},{"town":"寺町","koaza":"","lat":34.403133,"lng":132.449947,"zip":"7300801"},{"town":"十日市町一丁目","koaza":"","lat":34.396893,"lng":132.448097,"zip":"7300805"},{"town":"十日市町二丁目","koaza":"","lat":34.399489,"lng":132.448883,"zip":"7300805"},{"town":"土橋町","koaza":"","lat":34.392944,"lng":132.448116,"zip":"7300854"},{"town":"中島町","koaza":"","lat":34.392485,"lng":132.452029,"zip":"7300811"},{"town":"中町","koaza":"","lat":34.390175,"lng":132.458443,"zip":"7300037"},{"town":"流川町","koaza":"","lat":34.390463,"lng":132.463755,"zip":"7300028"},{"town":"西川口町","koaza":"","lat":34.382201,"lng":132.438313,"zip":"7300846"},{"town":"西十日市町","koaza":"","lat":34.398493,"lng":132.445149,"zip":"7300806"},{"town":"西白島町","koaza":"","lat":34.406239,"lng":132.459959,"zip":"7300005"},{"town":"西平塚町","koaza":"","lat":34.389382,"lng":132.467035,"zip":"7300024"},{"town":"猫屋町","koaza":"","lat":34.395084,"lng":132.448257,"zip":"7300852"},{"town":"幟町","koaza":"","lat":34.395303,"lng":132.466912,"zip":"7300016"},{"town":"白島北町","koaza":"","lat":34.411486,"lng":132.463279,"zip":"7300001"},{"town":"白島九軒町","koaza":"","lat":34.407214,"lng":132.467877,"zip":"7300003"},{"town":"白島中町","koaza":"","lat":34.408974,"lng":132.464825,"zip":"7300002"},{"town":"羽衣町","koaza":"","lat":34.379425,"lng":132.45027,"zip":"7300814"},{"town":"橋本町","koaza":"","lat":34.394851,"lng":132.469117,"zip":"7300015"},{"town":"八丁堀","koaza":"","lat":34.396106,"lng":132.463036,"zip":"7300013"},{"town":"東千田町一丁目","koaza":"","lat":34.381236,"lng":132.458189,"zip":"7300053"},{"town":"東千田町二丁目","koaza":"","lat":34.377561,"lng":132.459287,"zip":"7300053"},{"town":"東白島町","koaza":"","lat":34.404893,"lng":132.465139,"zip":"7300004"},{"town":"東平塚町","koaza":"","lat":34.388178,"lng":132.468319,"zip":"7300025"},{"town":"平野町","koaza":"","lat":34.379715,"lng":132.462464,"zip":"7300047"},{"town":"広瀬北町","koaza":"","lat":34.403406,"lng":132.44758,"zip":"7300803"},{"town":"広瀬町","koaza":"","lat":34.400264,"lng":132.446104,"zip":"7300804"},{"town":"袋町","koaza":"","lat":34.391872,"lng":132.458972,"zip":"7300036"},{"town":"富士見町","koaza":"","lat":34.386592,"lng":132.461636,"zip":"7300043"},{"town":"舟入川口町","koaza":"","lat":34.380823,"lng":132.44276,"zip":"7300845"},{"town":"舟入幸町","koaza":"","lat":34.384009,"lng":132.441287,"zip":"7300844"},{"town":"舟入中町","koaza":"","lat":34.387172,"lng":132.443498,"zip":"7300842"},{"town":"舟入本町","koaza":"","lat":34.385244,"lng":132.443702,"zip":"7300843"},{"town":"舟入町","koaza":"","lat":34.390644,"lng":132.444314,"zip":"7300841"},{"town":"舟入南一丁目","koaza":"","lat":34.378378,"lng":132.441318,"zip":"7300847"},{"town":"舟入南二丁目","koaza":"","lat":34.379894,"lng":132.436861,"zip":"7300847"},{"town":"舟入南三丁目","koaza":"","lat":34.377558,"lng":132.435463,"zip":"7300847"},{"town":"舟入南四丁目","koaza":"","lat":34.375981,"lng":132.440193,"zip":"7300847"},{"town":"舟入南五丁目","koaza":"","lat":34.374131,"lng":132.439246,"zip":"7300847"},{"town":"舟入南六丁目","koaza":"","lat":34.375567,"lng":132.433902,"zip":"7300847"},{"town":"堀川町","koaza":"","lat":34.392249,"lng":132.464519,"zip":"7300033"},{"town":"本川町一丁目","koaza":"","lat":34.39579,"lng":132.450433,"zip":"7300802"},{"town":"本川町二丁目","koaza":"","lat":34.397761,"lng":132.451043,"zip":"7300802"},{"town":"本川町三丁目","koaza":"","lat":34.399668,"lng":132.451078,"zip":"7300802"},{"town":"本通","koaza":"","lat":34.392916,"lng":132.459891,"zip":"7300035"},{"town":"三川町","koaza":"","lat":34.389794,"lng":132.461888,"zip":"7300029"},{"town":"南千田西町","koaza":"","lat":34.372553,"lng":132.456226,"zip":"7300055"},{"town":"南千田東町","koaza":"","lat":34.371563,"lng":132.458875,"zip":"7300054"},{"town":"南竹屋町","koaza":"","lat":34.381182,"lng":132.461225,"zip":"7300049"},{"town":"南吉島一丁目","koaza":"","lat":34.359546,"lng":132.444776,"zip":"7300826"},{"town":"南吉島二丁目","koaza":"","lat":34.359778,"lng":132.441228,"zip":"7300826"},{"town":"基町","koaza":"","lat":34.401095,"lng":132.456506,"zip":"7300011"},{"town":"薬研堀","koaza":"","lat":34.390386,"lng":132.465225,"zip":"7300027"},{"town":"弥生町","koaza":"","lat":34.390204,"lng":132.466981,"zip":"7300023"},{"town":"吉島新町一丁目","koaza":"","lat":34.366015,"lng":132.451672,"zip":"7300824"},{"town":"吉島新町二丁目","koaza":"","lat":34.366775,"lng":132.449823,"zip":"7300824"},{"town":"吉島町","koaza":"","lat":34.379101,"lng":132.446438,"zip":"7300821"},{"town":"吉島西一丁目","koaza":"","lat":34.374151,"lng":132.447543,"zip":"7300823"},{"town":"吉島西二丁目","koaza":"","lat":34.374499,"lng":132.444445,"zip":"7300823"},{"town":"吉島西三丁目","koaza":"","lat":34.371299,"lng":132.444475,"zip":"7300823"},{"town":"吉島東一丁目","koaza":"","lat":34.374142,"lng":132.451023,"zip":"7300822"},{"town":"吉島東二丁目","koaza":"","lat":34.370721,"lng":132.448864,"zip":"7300822"},{"town":"吉島東三丁目","koaza":"","lat":34.369906,"lng":132.451396,"zip":"7300822"}]