[{"town":"相田一丁目","koaza":"","lat":34.470808,"lng":132.456472,"zip":"7310141"},{"town":"相田二丁目","koaza":"","lat":34.469578,"lng":132.452501,"zip":"7310141"},{"town":"相田三丁目","koaza":"","lat":34.467364,"lng":132.450644,"zip":"7310141"},{"town":"相田四丁目","koaza":"","lat":34.470778,"lng":132.448746,"zip":"7310141"},{"town":"相田五丁目","koaza":"","lat":34.4702,"lng":132.446013,"zip":"7310141"},{"town":"相田六丁目","koaza":"","lat":34.468164,"lng":132.442827,"zip":"7310141"},{"town":"相田七丁目","koaza":"","lat":34.465066,"lng":132.441125,"zip":"7310141"},{"town":"相田町","koaza":"","lat":34.463377,"lng":132.446743,"zip":"7310100"},{"town":"大塚西一丁目","koaza":"","lat":34.447391,"lng":132.407228,"zip":"7313167"},{"town":"大塚西二丁目","koaza":"","lat":34.449283,"lng":132.400839,"zip":"7313167"},{"town":"大塚西三丁目","koaza":"","lat":34.442895,"lng":132.398732,"zip":"7313167"},{"town":"大塚西四丁目","koaza":"","lat":34.435724,"lng":132.398791,"zip":"7313167"},{"town":"大塚西六丁目","koaza":"","lat":34.447768,"lng":132.390234,"zip":"7313167"},{"town":"大塚西七丁目","koaza":"","lat":34.453428,"lng":132.392143,"zip":"7313167"},{"town":"大塚東一丁目","koaza":"","lat":34.433727,"lng":132.40362,"zip":"7313166"},{"town":"大塚東二丁目","koaza":"","lat":34.441474,"lng":132.409997,"zip":"7313166"},{"town":"大塚東三丁目","koaza":"","lat":34.437087,"lng":132.417154,"zip":"7313166"},{"town":"大塚東町","koaza":"","lat":34.436094,"lng":132.422259,"zip":"7313173"},{"town":"大町","koaza":"","lat":34.460539,"lng":132.459987,"zip":"7310126"},{"town":"大町西一丁目","koaza":"","lat":34.456434,"lng":132.464725,"zip":"7310125"},{"town":"大町西二丁目","koaza":"","lat":34.457922,"lng":132.460775,"zip":"7310125"},{"town":"大町西三丁目","koaza":"","lat":34.464648,"lng":132.463431,"zip":"7310125"},{"town":"大町東一丁目","koaza":"","lat":34.455449,"lng":132.467445,"zip":"7310124"},{"town":"大町東二丁目","koaza":"","lat":34.461059,"lng":132.469452,"zip":"7310124"},{"town":"大町東三丁目","koaza":"","lat":34.463604,"lng":132.467226,"zip":"7310124"},{"town":"大町東四丁目","koaza":"","lat":34.468397,"lng":132.464249,"zip":"7310124"},{"town":"上安一丁目","koaza":"","lat":34.475488,"lng":132.449852,"zip":"7310154"},{"town":"上安二丁目","koaza":"","lat":34.476987,"lng":132.444241,"zip":"7310154"},{"town":"上安三丁目","koaza":"","lat":34.478951,"lng":132.448961,"zip":"7310154"},{"town":"上安四丁目","koaza":"","lat":34.482618,"lng":132.44997,"zip":"7310154"},{"town":"上安五丁目","koaza":"","lat":34.485337,"lng":132.448976,"zip":"7310154"},{"town":"上安六丁目","koaza":"","lat":34.480938,"lng":132.445346,"zip":"7310154"},{"town":"上安七丁目","koaza":"","lat":34.488064,"lng":132.439584,"zip":"7310154"},{"town":"上安町","koaza":"","lat":34.489442,"lng":132.449437,"zip":"7310154"},{"town":"川内一丁目","koaza":"","lat":34.458026,"lng":132.484453,"zip":"7310102"},{"town":"川内二丁目","koaza":"","lat":34.463224,"lng":132.482237,"zip":"7310102"},{"town":"川内三丁目","koaza":"","lat":34.460447,"lng":132.488439,"zip":"7310102"},{"town":"川内四丁目","koaza":"","lat":34.465142,"lng":132.490843,"zip":"7310102"},{"town":"川内五丁目","koaza":"","lat":34.467663,"lng":132.485725,"zip":"7310102"},{"town":"川内六丁目","koaza":"","lat":34.471375,"lng":132.490558,"zip":"7310102"},{"town":"祇園一丁目","koaza":"","lat":34.436885,"lng":132.462091,"zip":"7310138"},{"town":"祇園二丁目","koaza":"","lat":34.443748,"lng":132.466459,"zip":"7310138"},{"town":"祇園三丁目","koaza":"","lat":34.440723,"lng":132.460419,"zip":"7310138"},{"town":"祇園四丁目","koaza":"","lat":34.443704,"lng":132.454302,"zip":"7310138"},{"town":"祇園五丁目","koaza":"","lat":34.446925,"lng":132.457395,"zip":"7310138"},{"town":"祇園六丁目","koaza":"","lat":34.445453,"lng":132.464137,"zip":"7310138"},{"town":"祇園七丁目","koaza":"","lat":34.44939,"lng":132.46572,"zip":"7310138"},{"town":"祇園八丁目","koaza":"","lat":34.450081,"lng":132.461524,"zip":"7310138"},{"town":"祇園町","koaza":"","lat":34.450848,"lng":132.453219,"zip":"7310100"},{"town":"高取北一丁目","koaza":"","lat":34.478674,"lng":132.44029,"zip":"7310144"},{"town":"高取北二丁目","koaza":"","lat":34.479691,"lng":132.437555,"zip":"7310144"},{"town":"高取北三丁目","koaza":"","lat":34.477221,"lng":132.435433,"zip":"7310144"},{"town":"高取北四丁目","koaza":"","lat":34.477772,"lng":132.432854,"zip":"7310144"},{"town":"高取北町","koaza":"","lat":34.484774,"lng":132.433013,"zip":"7310100"},{"town":"高取南一丁目","koaza":"","lat":34.467456,"lng":132.437523,"zip":"7310142"},{"town":"高取南二丁目","koaza":"","lat":34.467038,"lng":132.433816,"zip":"7310142"},{"town":"高取南三丁目","koaza":"","lat":34.466497,"lng":132.428716,"zip":"7310142"},{"town":"高取南町","koaza":"","lat":34.459645,"lng":132.435032,"zip":"7310142"},{"town":"長楽寺一丁目","koaza":"","lat":34.474887,"lng":132.430724,"zip":"7310143"},{"town":"長楽寺二丁目","koaza":"","lat":34.469799,"lng":132.429379,"zip":"7310143"},{"town":"長楽寺三丁目","koaza":"","lat":34.474515,"lng":132.425801,"zip":"7310143"},{"town":"長楽寺町","koaza":"","lat":34.482775,"lng":132.425236,"zip":"7310143"},{"town":"伴北四丁目","koaza":"","lat":34.476809,"lng":132.399328,"zip":"7313163"},{"town":"伴北五丁目","koaza":"","lat":34.474374,"lng":132.389704,"zip":"7313163"},{"town":"伴北六丁目","koaza":"","lat":34.482223,"lng":132.396193,"zip":"7313163"},{"town":"伴北七丁目","koaza":"","lat":34.483671,"lng":132.406333,"zip":"7313163"},{"town":"伴北町","koaza":"","lat":34.483482,"lng":132.414711,"zip":"7313171"},{"town":"伴中央一丁目","koaza":"","lat":34.46271,"lng":132.406643,"zip":"7313165"},{"town":"伴中央二丁目","koaza":"","lat":34.462086,"lng":132.401589,"zip":"7313165"},{"town":"伴中央三丁目","koaza":"","lat":34.459116,"lng":132.393547,"zip":"7313165"},{"town":"伴中央四丁目","koaza":"","lat":34.457566,"lng":132.403625,"zip":"7313165"},{"town":"伴中央五丁目","koaza":"","lat":34.456934,"lng":132.410166,"zip":"7313165"},{"town":"伴中央六丁目","koaza":"","lat":34.453674,"lng":132.407032,"zip":"7313165"},{"town":"伴中央七丁目","koaza":"","lat":34.45367,"lng":132.397487,"zip":"7313165"},{"town":"伴西一丁目","koaza":"","lat":34.4679,"lng":132.38914,"zip":"7313169"},{"town":"伴西二丁目","koaza":"","lat":34.471323,"lng":132.387081,"zip":"7313169"},{"town":"伴西三丁目","koaza":"","lat":34.466135,"lng":132.384482,"zip":"7313169"},{"town":"伴西四丁目","koaza":"","lat":34.461273,"lng":132.381106,"zip":"7313169"},{"town":"伴西五丁目","koaza":"","lat":34.460006,"lng":132.3744,"zip":"7313169"},{"town":"伴西六丁目","koaza":"","lat":34.456683,"lng":132.360082,"zip":"7313169"},{"town":"伴西町","koaza":"","lat":34.461334,"lng":132.357343,"zip":"7313175"},{"town":"伴東一丁目","koaza":"","lat":34.472613,"lng":132.420879,"zip":"7313164"},{"town":"伴東二丁目","koaza":"","lat":34.474853,"lng":132.417164,"zip":"7313164"},{"town":"伴東三丁目","koaza":"","lat":34.472458,"lng":132.412936,"zip":"7313164"},{"town":"伴東四丁目","koaza":"","lat":34.468393,"lng":132.410603,"zip":"7313164"},{"town":"伴東五丁目","koaza":"","lat":34.466521,"lng":132.421708,"zip":"7313164"},{"town":"伴東六丁目","koaza":"","lat":34.460553,"lng":132.422694,"zip":"7313164"},{"town":"伴東七丁目","koaza":"","lat":34.463354,"lng":132.416507,"zip":"7313164"},{"town":"伴東八丁目","koaza":"","lat":34.458137,"lng":132.414696,"zip":"7313164"},{"town":"伴東町","koaza":"","lat":34.452845,"lng":132.422945,"zip":"7313172"},{"town":"伴南一丁目","koaza":"","lat":34.449435,"lng":132.384031,"zip":"7313168"},{"town":"伴南二丁目","koaza":"","lat":34.455802,"lng":132.384185,"zip":"7313168"},{"town":"伴南三丁目","koaza":"","lat":34.455452,"lng":132.378185,"zip":"7313168"},{"town":"伴南四丁目","koaza":"","lat":34.44948,"lng":132.379367,"zip":"7313168"},{"town":"伴南五丁目","koaza":"","lat":34.449899,"lng":132.37589,"zip":"7313168"},{"town":"中須一丁目","koaza":"","lat":34.459184,"lng":132.472367,"zip":"7310121"},{"town":"中須二丁目","koaza":"","lat":34.459935,"lng":132.476101,"zip":"7310121"},{"town":"中筋一丁目","koaza":"","lat":34.451008,"lng":132.47507,"zip":"7310122"},{"town":"中筋二丁目","koaza":"","lat":34.449482,"lng":132.478404,"zip":"7310122"},{"town":"中筋三丁目","koaza":"","lat":34.452377,"lng":132.479692,"zip":"7310122"},{"town":"中筋四丁目","koaza":"","lat":34.457398,"lng":132.479256,"zip":"7310122"},{"town":"長束一丁目","koaza":"","lat":34.4283,"lng":132.463553,"zip":"7310135"},{"town":"長束二丁目","koaza":"","lat":34.428615,"lng":132.459164,"zip":"7310135"},{"town":"長束三丁目","koaza":"","lat":34.429404,"lng":132.457588,"zip":"7310135"},{"town":"長束四丁目","koaza":"","lat":34.427647,"lng":132.454208,"zip":"7310135"},{"town":"長束五丁目","koaza":"","lat":34.431766,"lng":132.45529,"zip":"7310135"},{"town":"長束六丁目","koaza":"","lat":34.434348,"lng":132.455844,"zip":"7310135"},{"town":"長束町","koaza":"","lat":34.428087,"lng":132.439989,"zip":"7310100"},{"town":"長束西一丁目","koaza":"","lat":34.427909,"lng":132.450158,"zip":"7310136"},{"town":"長束西二丁目","koaza":"","lat":34.432937,"lng":132.449743,"zip":"7310136"},{"town":"長束西三丁目","koaza":"","lat":34.430583,"lng":132.448787,"zip":"7310136"},{"town":"長束西四丁目","koaza":"","lat":34.428024,"lng":132.443286,"zip":"7310136"},{"town":"長束西五丁目","koaza":"","lat":34.43314,"lng":132.445417,"zip":"7310136"},{"town":"西原一丁目","koaza":"","lat":34.434738,"lng":132.46346,"zip":"7310113"},{"town":"西原二丁目","koaza":"","lat":34.43137,"lng":132.466095,"zip":"7310113"},{"town":"西原三丁目","koaza":"","lat":34.434306,"lng":132.47186,"zip":"7310113"},{"town":"西原四丁目","koaza":"","lat":34.436699,"lng":132.469198,"zip":"7310113"},{"town":"西原五丁目","koaza":"","lat":34.443614,"lng":132.468313,"zip":"7310113"},{"town":"西原六丁目","koaza":"","lat":34.44056,"lng":132.471291,"zip":"7310113"},{"town":"西原七丁目","koaza":"","lat":34.441245,"lng":132.47569,"zip":"7310113"},{"town":"西原八丁目","koaza":"","lat":34.443838,"lng":132.472011,"zip":"7310113"},{"town":"西原九丁目","koaza":"","lat":34.447566,"lng":132.471633,"zip":"7310113"},{"town":"沼田町大字阿戸","koaza":"","lat":34.495542,"lng":132.363522,"zip":"7310100"},{"town":"沼田町大字伴","koaza":"","lat":34.468866,"lng":132.400587,"zip":"7310100"},{"town":"沼田町大字吉山","koaza":"","lat":34.46208,"lng":132.334396,"zip":"7310100"},{"town":"東野一丁目","koaza":"","lat":34.44617,"lng":132.485327,"zip":"7310111"},{"town":"東野二丁目","koaza":"","lat":34.449435,"lng":132.484491,"zip":"7310111"},{"town":"東野三丁目","koaza":"","lat":34.453395,"lng":132.484891,"zip":"7310111"},{"town":"東原一丁目","koaza":"","lat":34.441787,"lng":132.478381,"zip":"7310112"},{"town":"東原二丁目","koaza":"","lat":34.442665,"lng":132.483647,"zip":"7310112"},{"town":"東原三丁目","koaza":"","lat":34.445959,"lng":132.47908,"zip":"7310112"},{"town":"毘沙門台一丁目","koaza":"","lat":34.471181,"lng":132.465606,"zip":"7310152"},{"town":"毘沙門台二丁目","koaza":"","lat":34.475184,"lng":132.462146,"zip":"7310152"},{"town":"毘沙門台三丁目","koaza":"","lat":34.48102,"lng":132.46303,"zip":"7310152"},{"town":"毘沙門台四丁目","koaza":"","lat":34.484282,"lng":132.461592,"zip":"7310152"},{"town":"毘沙門台東一丁目","koaza":"","lat":34.47959,"lng":132.467804,"zip":"7310151"},{"town":"毘沙門台東二丁目","koaza":"","lat":34.478343,"lng":132.469644,"zip":"7310151"},{"town":"古市一丁目","koaza":"","lat":34.453217,"lng":132.473255,"zip":"7310123"},{"town":"古市二丁目","koaza":"","lat":34.454799,"lng":132.472804,"zip":"7310123"},{"town":"古市三丁目","koaza":"","lat":34.453168,"lng":132.469479,"zip":"7310123"},{"town":"古市四丁目","koaza":"","lat":34.451538,"lng":132.467529,"zip":"7310123"},{"town":"緑井一丁目","koaza":"","lat":34.464152,"lng":132.475875,"zip":"7310103"},{"town":"緑井二丁目","koaza":"","lat":34.465797,"lng":132.471802,"zip":"7310103"},{"town":"緑井三丁目","koaza":"","lat":34.471763,"lng":132.467785,"zip":"7310103"},{"town":"緑井四丁目","koaza":"","lat":34.469777,"lng":132.474818,"zip":"7310103"},{"town":"緑井五丁目","koaza":"","lat":34.46856,"lng":132.479763,"zip":"7310103"},{"town":"緑井六丁目","koaza":"","lat":34.473782,"lng":132.485605,"zip":"7310103"},{"town":"緑井七丁目","koaza":"","lat":34.473545,"lng":132.479023,"zip":"7310103"},{"town":"緑井八丁目","koaza":"","lat":34.47756,"lng":132.485682,"zip":"7310103"},{"town":"緑井町","koaza":"","lat":34.479093,"lng":132.476864,"zip":"7310100"},{"town":"八木一丁目","koaza":"","lat":34.476555,"lng":132.494395,"zip":"7310101"},{"town":"八木二丁目","koaza":"","lat":34.479187,"lng":132.495529,"zip":"7310101"},{"town":"八木三丁目","koaza":"","lat":34.482093,"lng":132.492243,"zip":"7310101"},{"town":"八木四丁目","koaza":"","lat":34.485377,"lng":132.498896,"zip":"7310101"},{"town":"八木五丁目","koaza":"","lat":34.481662,"lng":132.500747,"zip":"7310101"},{"town":"八木六丁目","koaza":"","lat":34.488911,"lng":132.501418,"zip":"7310101"},{"town":"八木七丁目","koaza":"","lat":34.489344,"lng":132.504029,"zip":"7310101"},{"town":"八木八丁目","koaza":"","lat":34.492053,"lng":132.506463,"zip":"7310101"},{"town":"八木九丁目","koaza":"","lat":34.488856,"lng":132.508728,"zip":"7310101"},{"town":"八木町","koaza":"","lat":34.4984,"lng":132.495105,"zip":"7310101"},{"town":"安東一丁目","koaza":"","lat":34.472395,"lng":132.459362,"zip":"7310153"},{"town":"安東二丁目","koaza":"","lat":34.474077,"lng":132.454861,"zip":"7310153"},{"town":"安東三丁目","koaza":"","lat":34.479506,"lng":132.459653,"zip":"7310153"},{"town":"安東四丁目","koaza":"","lat":34.479341,"lng":132.456998,"zip":"7310153"},{"town":"安東五丁目","koaza":"","lat":34.485799,"lng":132.454428,"zip":"7310153"},{"town":"安東六丁目","koaza":"","lat":34.481914,"lng":132.453406,"zip":"7310153"},{"town":"安東七丁目","koaza":"","lat":34.48894,"lng":132.461079,"zip":"7310153"},{"town":"山本一丁目","koaza":"","lat":34.436412,"lng":132.453968,"zip":"7310137"},{"town":"山本二丁目","koaza":"","lat":34.437821,"lng":132.456507,"zip":"7310137"},{"town":"山本三丁目","koaza":"","lat":34.438657,"lng":132.453282,"zip":"7310137"},{"town":"山本四丁目","koaza":"","lat":34.4376,"lng":132.44837,"zip":"7310137"},{"town":"山本五丁目","koaza":"","lat":34.435934,"lng":132.445244,"zip":"7310137"},{"town":"山本六丁目","koaza":"","lat":34.436603,"lng":132.43817,"zip":"7310137"},{"town":"山本七丁目","koaza":"","lat":34.440107,"lng":132.443735,"zip":"7310137"},{"town":"山本八丁目","koaza":"","lat":34.442859,"lng":132.44639,"zip":"7310137"},{"town":"山本九丁目","koaza":"","lat":34.443311,"lng":132.450588,"zip":"7310137"},{"town":"山本新町一丁目","koaza":"","lat":34.440443,"lng":132.437748,"zip":"7310139"},{"town":"山本新町二丁目","koaza":"","lat":34.443098,"lng":132.437041,"zip":"7310139"},{"town":"山本新町五丁目","koaza":"","lat":34.44464,"lng":132.434569,"zip":"7310139"},{"town":"山本新町三丁目","koaza":"","lat":34.445598,"lng":132.440568,"zip":"7310139"},{"town":"山本町","koaza":"","lat":34.440734,"lng":132.429592,"zip":"7310137"},{"town":"山本新町四丁目","koaza":"","lat":34.447184,"lng":132.438891,"zip":"7310139"},{"town":"大塚西町","koaza":"","lat":34.438496,"lng":132.389009,"zip":"7313174"},{"town":"大塚西五丁目","koaza":"","lat":34.440734,"lng":132.393871,"zip":"7313167"}]