[{"town":"井口一丁目","koaza":"","lat":34.375638,"lng":132.389317,"zip":"7330845"},{"town":"井口二丁目","koaza":"","lat":34.374299,"lng":132.385068,"zip":"7330845"},{"town":"井口三丁目","koaza":"","lat":34.369972,"lng":132.378611,"zip":"7330845"},{"town":"井口四丁目","koaza":"","lat":34.372153,"lng":132.37326,"zip":"7330845"},{"town":"井口五丁目","koaza":"","lat":34.367053,"lng":132.377812,"zip":"7330845"},{"town":"井口鈴が台一丁目","koaza":"","lat":34.373352,"lng":132.381404,"zip":"7330843"},{"town":"井口鈴が台二丁目","koaza":"","lat":34.371891,"lng":132.377647,"zip":"7330843"},{"town":"井口鈴が台三丁目","koaza":"","lat":34.373825,"lng":132.377549,"zip":"7330843"},{"town":"井口台一丁目","koaza":"","lat":34.377557,"lng":132.382695,"zip":"7330844"},{"town":"井口台二丁目","koaza":"","lat":34.377787,"lng":132.375715,"zip":"7330844"},{"town":"井口台三丁目","koaza":"","lat":34.380663,"lng":132.379559,"zip":"7330844"},{"town":"井口台四丁目","koaza":"","lat":34.37938,"lng":132.386113,"zip":"7330844"},{"town":"井口町","koaza":"","lat":34.382224,"lng":132.387384,"zip":"7330845"},{"town":"井口明神一丁目","koaza":"","lat":34.372861,"lng":132.39119,"zip":"7330841"},{"town":"井口明神二丁目","koaza":"","lat":34.370721,"lng":132.387056,"zip":"7330841"},{"town":"井口明神三丁目","koaza":"","lat":34.368602,"lng":132.3832,"zip":"7330841"},{"town":"打越町","koaza":"","lat":34.411828,"lng":132.447846,"zip":"7330004"},{"town":"扇一丁目","koaza":"","lat":34.374514,"lng":132.411396,"zip":"7330831"},{"town":"扇二丁目","koaza":"","lat":34.372138,"lng":132.406957,"zip":"7330831"},{"town":"大芝一丁目","koaza":"","lat":34.418133,"lng":132.458155,"zip":"7330001"},{"town":"大芝二丁目","koaza":"","lat":34.420554,"lng":132.460617,"zip":"7330001"},{"town":"大芝三丁目","koaza":"","lat":34.423207,"lng":132.461638,"zip":"7330001"},{"town":"大芝公園","koaza":"","lat":34.417138,"lng":132.460336,"zip":"7330000"},{"town":"大宮一丁目","koaza":"","lat":34.421067,"lng":132.455384,"zip":"7330007"},{"town":"大宮二丁目","koaza":"","lat":34.422759,"lng":132.456806,"zip":"7330007"},{"town":"大宮三丁目","koaza":"","lat":34.42395,"lng":132.458401,"zip":"7330007"},{"town":"小河内町一丁目","koaza":"","lat":34.39918,"lng":132.435527,"zip":"7330025"},{"town":"小河内町二丁目","koaza":"","lat":34.401937,"lng":132.437497,"zip":"7330025"},{"town":"上天満町","koaza":"","lat":34.398776,"lng":132.440931,"zip":"7330021"},{"town":"観音新町一丁目","koaza":"","lat":34.376067,"lng":132.428014,"zip":"7330036"},{"town":"観音新町二丁目","koaza":"","lat":34.377385,"lng":132.421735,"zip":"7330036"},{"town":"観音新町三丁目","koaza":"","lat":34.373404,"lng":132.425888,"zip":"7330036"},{"town":"観音新町四丁目","koaza":"","lat":34.36609,"lng":132.416185,"zip":"7330036"},{"town":"観音本町一丁目","koaza":"","lat":34.388236,"lng":132.43817,"zip":"7330033"},{"town":"観音本町二丁目","koaza":"","lat":34.389779,"lng":132.434026,"zip":"7330033"},{"town":"観音町","koaza":"","lat":34.394385,"lng":132.440203,"zip":"7330031"},{"town":"草津梅が台","koaza":"","lat":34.378866,"lng":132.396406,"zip":"7330864"},{"town":"草津港一丁目","koaza":"","lat":34.366009,"lng":132.403451,"zip":"7330832"},{"town":"草津港二丁目","koaza":"","lat":34.365069,"lng":132.394619,"zip":"7330832"},{"town":"草津港三丁目","koaza":"","lat":34.363968,"lng":132.390048,"zip":"7330832"},{"town":"草津新町一丁目","koaza":"","lat":34.375216,"lng":132.403785,"zip":"7330834"},{"town":"草津新町二丁目","koaza":"","lat":34.37432,"lng":132.396815,"zip":"7330834"},{"town":"草津浜町","koaza":"","lat":34.377822,"lng":132.40464,"zip":"7330862"},{"town":"草津東一丁目","koaza":"","lat":34.379411,"lng":132.407153,"zip":"7330861"},{"town":"草津東二丁目","koaza":"","lat":34.381607,"lng":132.406428,"zip":"7330861"},{"town":"草津東三丁目","koaza":"","lat":34.382452,"lng":132.404371,"zip":"7330861"},{"town":"草津本町","koaza":"","lat":34.379989,"lng":132.402423,"zip":"7330865"},{"town":"草津南一丁目","koaza":"","lat":34.377326,"lng":132.401902,"zip":"7330863"},{"town":"草津南二丁目","koaza":"","lat":34.378665,"lng":132.400498,"zip":"7330863"},{"town":"草津南三丁目","koaza":"","lat":34.377123,"lng":132.394736,"zip":"7330863"},{"town":"草津南四丁目","koaza":"","lat":34.376307,"lng":132.395476,"zip":"7330863"},{"town":"楠木町一丁目","koaza":"","lat":34.408102,"lng":132.455735,"zip":"7330002"},{"town":"楠木町二丁目","koaza":"","lat":34.41077,"lng":132.456836,"zip":"7330002"},{"town":"楠木町三丁目","koaza":"","lat":34.412278,"lng":132.458467,"zip":"7330002"},{"town":"楠木町四丁目","koaza":"","lat":34.415228,"lng":132.458459,"zip":"7330002"},{"town":"己斐上一丁目","koaza":"","lat":34.404985,"lng":132.420029,"zip":"7330815"},{"town":"己斐上二丁目","koaza":"","lat":34.404086,"lng":132.411878,"zip":"7330815"},{"town":"己斐上三丁目","koaza":"","lat":34.409593,"lng":132.415048,"zip":"7330815"},{"town":"己斐上四丁目","koaza":"","lat":34.411369,"lng":132.420383,"zip":"7330815"},{"town":"己斐上五丁目","koaza":"","lat":34.420227,"lng":132.418435,"zip":"7330815"},{"town":"己斐上六丁目","koaza":"","lat":34.421849,"lng":132.427699,"zip":"7330815"},{"town":"己斐大迫一丁目","koaza":"","lat":34.410835,"lng":132.423901,"zip":"7330816"},{"town":"己斐大迫二丁目","koaza":"","lat":34.414511,"lng":132.424746,"zip":"7330816"},{"town":"己斐大迫三丁目","koaza":"","lat":34.414232,"lng":132.428952,"zip":"7330816"},{"town":"己斐中一丁目","koaza":"","lat":34.398683,"lng":132.426395,"zip":"7330813"},{"town":"己斐中二丁目","koaza":"","lat":34.402101,"lng":132.426174,"zip":"7330813"},{"town":"己斐中三丁目","koaza":"","lat":34.404011,"lng":132.422995,"zip":"7330813"},{"town":"己斐西町","koaza":"","lat":34.396843,"lng":132.422348,"zip":"7330814"},{"town":"己斐東一丁目","koaza":"","lat":34.404556,"lng":132.432429,"zip":"7330811"},{"town":"己斐東二丁目","koaza":"","lat":34.404523,"lng":132.428026,"zip":"7330811"},{"town":"己斐本町一丁目","koaza":"","lat":34.397474,"lng":132.429252,"zip":"7330812"},{"town":"己斐本町二丁目","koaza":"","lat":34.393167,"lng":132.42623,"zip":"7330812"},{"town":"己斐本町三丁目","koaza":"","lat":34.394127,"lng":132.424164,"zip":"7330812"},{"town":"己斐町","koaza":"","lat":34.428093,"lng":132.42429,"zip":"7330000"},{"town":"庚午北一丁目","koaza":"","lat":34.388439,"lng":132.422476,"zip":"7330821"},{"town":"庚午北二丁目","koaza":"","lat":34.390518,"lng":132.4201,"zip":"7330821"},{"town":"庚午北三丁目","koaza":"","lat":34.387948,"lng":132.416885,"zip":"7330821"},{"town":"庚午北四丁目","koaza":"","lat":34.385844,"lng":132.420228,"zip":"7330821"},{"town":"庚午中一丁目","koaza":"","lat":34.383789,"lng":132.418139,"zip":"7330822"},{"town":"庚午中二丁目","koaza":"","lat":34.38598,"lng":132.414184,"zip":"7330822"},{"town":"庚午中三丁目","koaza":"","lat":34.38309,"lng":132.412586,"zip":"7330822"},{"town":"庚午中四丁目","koaza":"","lat":34.380294,"lng":132.416673,"zip":"7330822"},{"town":"庚午南一丁目","koaza":"","lat":34.378928,"lng":132.413776,"zip":"7330823"},{"town":"庚午南二丁目","koaza":"","lat":34.378385,"lng":132.409703,"zip":"7330823"},{"town":"商工センター一丁目","koaza":"","lat":34.370835,"lng":132.400853,"zip":"7330833"},{"town":"商工センター二丁目","koaza":"","lat":34.372514,"lng":132.398856,"zip":"7330833"},{"town":"商工センター三丁目","koaza":"","lat":34.370044,"lng":132.392812,"zip":"7330833"},{"town":"商工センター四丁目","koaza":"","lat":34.368155,"lng":132.394086,"zip":"7330833"},{"town":"商工センター五丁目","koaza":"","lat":34.366112,"lng":132.389302,"zip":"7330833"},{"town":"商工センター六丁目","koaza":"","lat":34.36812,"lng":132.388293,"zip":"7330833"},{"town":"商工センター七丁目","koaza":"","lat":34.365542,"lng":132.382804,"zip":"7330833"},{"town":"商工センター八丁目","koaza":"","lat":34.363466,"lng":132.38324,"zip":"7330833"},{"town":"新庄町","koaza":"","lat":34.423788,"lng":132.451425,"zip":"7330801"},{"town":"鈴が峰町","koaza":"","lat":34.381154,"lng":132.394455,"zip":"7330852"},{"town":"高須一丁目","koaza":"","lat":34.39178,"lng":132.418022,"zip":"7330871"},{"town":"高須二丁目","koaza":"","lat":34.389077,"lng":132.414248,"zip":"7330871"},{"town":"高須三丁目","koaza":"","lat":34.392996,"lng":132.414978,"zip":"7330871"},{"town":"高須四丁目","koaza":"","lat":34.394887,"lng":132.415692,"zip":"7330871"},{"town":"高須台一丁目","koaza":"","lat":34.398419,"lng":132.418962,"zip":"7330876"},{"town":"高須台二丁目","koaza":"","lat":34.397544,"lng":132.415367,"zip":"7330876"},{"town":"高須台三丁目","koaza":"","lat":34.399758,"lng":132.41536,"zip":"7330876"},{"town":"高須台四丁目","koaza":"","lat":34.401436,"lng":132.41543,"zip":"7330876"},{"town":"高須台五丁目","koaza":"","lat":34.400402,"lng":132.41187,"zip":"7330876"},{"town":"高須台六丁目","koaza":"","lat":34.396973,"lng":132.410745,"zip":"7330876"},{"town":"田方一丁目","koaza":"","lat":34.383784,"lng":132.401213,"zip":"7330851"},{"town":"田方二丁目","koaza":"","lat":34.389166,"lng":132.39661,"zip":"7330851"},{"town":"田方三丁目","koaza":"","lat":34.398531,"lng":132.400591,"zip":"7330851"},{"town":"天満町","koaza":"","lat":34.396264,"lng":132.440514,"zip":"7330022"},{"town":"中広町一丁目","koaza":"","lat":34.401069,"lng":132.442205,"zip":"7330012"},{"town":"中広町二丁目","koaza":"","lat":34.403796,"lng":132.442181,"zip":"7330012"},{"town":"中広町三丁目","koaza":"","lat":34.405651,"lng":132.444142,"zip":"7330012"},{"town":"西観音町","koaza":"","lat":34.392333,"lng":132.436992,"zip":"7330037"},{"town":"東観音町","koaza":"","lat":34.390874,"lng":132.44035,"zip":"7330032"},{"town":"福島町一丁目","koaza":"","lat":34.396734,"lng":132.433946,"zip":"7330024"},{"town":"福島町二丁目","koaza":"","lat":34.393112,"lng":132.432167,"zip":"7330024"},{"town":"古江上一丁目","koaza":"","lat":34.393414,"lng":132.408681,"zip":"7330875"},{"town":"古江上二丁目","koaza":"","lat":34.390221,"lng":132.406991,"zip":"7330875"},{"town":"古江新町","koaza":"","lat":34.384169,"lng":132.410143,"zip":"7330873"},{"town":"古江西町","koaza":"","lat":34.386894,"lng":132.406308,"zip":"7330874"},{"town":"古江東町","koaza":"","lat":34.389437,"lng":132.410991,"zip":"7330872"},{"town":"古田台一丁目","koaza":"","lat":34.391357,"lng":132.402406,"zip":"7330877"},{"town":"古田台二丁目","koaza":"","lat":34.394131,"lng":132.402536,"zip":"7330877"},{"town":"三篠北町","koaza":"","lat":34.418746,"lng":132.454092,"zip":"7330006"},{"town":"三篠町一丁目","koaza":"","lat":34.411713,"lng":132.452567,"zip":"7330003"},{"town":"三篠町二丁目","koaza":"","lat":34.413077,"lng":132.453532,"zip":"7330003"},{"town":"三篠町三丁目","koaza":"","lat":34.415069,"lng":132.454524,"zip":"7330003"},{"town":"三滝本町一丁目","koaza":"","lat":34.416667,"lng":132.440486,"zip":"7330802"},{"town":"三滝本町二丁目","koaza":"","lat":34.419231,"lng":132.446706,"zip":"7330802"},{"town":"三滝町","koaza":"","lat":34.415509,"lng":132.45015,"zip":"7330005"},{"town":"三滝山","koaza":"","lat":34.420317,"lng":132.436578,"zip":"7330805"},{"town":"南観音一丁目","koaza":"","lat":34.383473,"lng":132.434883,"zip":"7330035"},{"town":"南観音二丁目","koaza":"","lat":34.384685,"lng":132.431645,"zip":"7330035"},{"town":"南観音三丁目","koaza":"","lat":34.385682,"lng":132.429097,"zip":"7330035"},{"town":"南観音四丁目","koaza":"","lat":34.386123,"lng":132.426637,"zip":"7330035"},{"town":"南観音五丁目","koaza":"","lat":34.3824,"lng":132.423597,"zip":"7330035"},{"town":"南観音六丁目","koaza":"","lat":34.381331,"lng":132.426873,"zip":"7330035"},{"town":"南観音七丁目","koaza":"","lat":34.380528,"lng":132.429371,"zip":"7330035"},{"town":"南観音八丁目","koaza":"","lat":34.379698,"lng":132.432386,"zip":"7330035"},{"town":"南観音町","koaza":"","lat":34.38768,"lng":132.432533,"zip":"7330034"},{"town":"都町","koaza":"","lat":34.396912,"lng":132.437325,"zip":"7330023"},{"town":"山田新町一丁目","koaza":"","lat":34.399749,"lng":132.392278,"zip":"7330853"},{"town":"山田新町二丁目","koaza":"","lat":34.398432,"lng":132.387766,"zip":"7330853"},{"town":"山田町","koaza":"","lat":34.402839,"lng":132.390261,"zip":"7330854"},{"town":"山手町","koaza":"","lat":34.409673,"lng":132.43493,"zip":"7330804"},{"town":"横川新町","koaza":"","lat":34.408049,"lng":132.445483,"zip":"7330013"},{"town":"横川町一丁目","koaza":"","lat":34.406547,"lng":132.450645,"zip":"7330011"},{"town":"横川町二丁目","koaza":"","lat":34.407949,"lng":132.450879,"zip":"7330011"},{"town":"横川町三丁目","koaza":"","lat":34.409823,"lng":132.451183,"zip":"7330011"},{"town":"竜王町","koaza":"","lat":34.412021,"lng":132.441321,"zip":"7330803"}]