[{"town":"板橋町","koaza":"","lat":34.838688,"lng":133.016478,"zip":"7270014"},{"town":"市町","koaza":"","lat":34.858842,"lng":132.968631,"zip":"7270025"},{"town":"上谷町","koaza":"","lat":34.829932,"lng":133.099007,"zip":"7270624"},{"town":"大久保町","koaza":"","lat":34.847113,"lng":133.057807,"zip":"7270001"},{"town":"尾引町","koaza":"","lat":34.814594,"lng":132.93919,"zip":"7296143"},{"town":"小用町","koaza":"","lat":34.854976,"lng":133.06694,"zip":"7295812"},{"town":"掛田町","koaza":"","lat":34.870539,"lng":132.995226,"zip":"7270026"},{"town":"上原町","koaza":"","lat":34.850239,"lng":132.991867,"zip":"7270022"},{"town":"川北町","koaza":"","lat":34.919241,"lng":133.015738,"zip":"7270203"},{"town":"川手町","koaza":"","lat":34.879126,"lng":133.016196,"zip":"7270005"},{"town":"川西町","koaza":"","lat":34.894188,"lng":133.061452,"zip":"7295813"},{"town":"木戸町","koaza":"","lat":34.809252,"lng":132.956425,"zip":"7296134"},{"town":"口和町大月","koaza":"","lat":34.90728,"lng":132.881802,"zip":"7280503"},{"town":"口和町金田","koaza":"","lat":34.862197,"lng":132.905792,"zip":"7270112"},{"town":"口和町竹地谷","koaza":"","lat":34.961635,"lng":132.857294,"zip":"7280504"},{"town":"口和町常定","koaza":"","lat":34.883869,"lng":132.900449,"zip":"7270113"},{"town":"口和町永田","koaza":"","lat":34.886037,"lng":132.924358,"zip":"7270114"},{"town":"口和町宮内","koaza":"","lat":34.957154,"lng":132.906069,"zip":"7280501"},{"town":"口和町向泉","koaza":"","lat":34.911724,"lng":132.900987,"zip":"7280502"},{"town":"口和町湯木","koaza":"","lat":34.920918,"lng":132.934402,"zip":"7270111"},{"town":"高茂町","koaza":"","lat":34.853683,"lng":132.931264,"zip":"7296142"},{"town":"是松町","koaza":"","lat":34.834627,"lng":133.037281,"zip":"7270003"},{"town":"西城町入江","koaza":"","lat":34.929879,"lng":133.098724,"zip":"7295733"},{"town":"西城町大佐","koaza":"","lat":34.942899,"lng":133.139518,"zip":"7295722"},{"town":"西城町大屋","koaza":"","lat":34.96158,"lng":133.069522,"zip":"7295744"},{"town":"西城町熊野","koaza":"","lat":35.012063,"lng":133.088318,"zip":"7295603"},{"town":"西城町栗","koaza":"","lat":34.920477,"lng":133.086778,"zip":"7295732"},{"town":"西城町高尾","koaza":"","lat":35.006821,"lng":133.178555,"zip":"7295612"},{"town":"西城町西城","koaza":"","lat":34.933676,"lng":133.116011,"zip":"7295731"},{"town":"西城町中迫","koaza":"","lat":34.961781,"lng":133.083947,"zip":"7295743"},{"town":"西城町中野","koaza":"","lat":34.96534,"lng":133.09286,"zip":"7295742"},{"town":"西城町八鳥","koaza":"","lat":34.977855,"lng":133.158136,"zip":"7295613"},{"town":"西城町小鳥原","koaza":"","lat":35.037456,"lng":133.160056,"zip":"7295601"},{"town":"西城町平子","koaza":"","lat":34.905887,"lng":133.121736,"zip":"7295723"},{"town":"西城町福山","koaza":"","lat":34.974693,"lng":133.100934,"zip":"7295745"},{"town":"西城町三坂","koaza":"","lat":35.051164,"lng":133.198403,"zip":"7295611"},{"town":"西城町油木","koaza":"","lat":35.049257,"lng":133.105828,"zip":"7295602"},{"town":"実留町","koaza":"","lat":34.812644,"lng":133.009974,"zip":"7270015"},{"town":"春田町","koaza":"","lat":34.807559,"lng":133.037165,"zip":"7270621"},{"town":"新庄町","koaza":"","lat":34.845581,"lng":133.03405,"zip":"7270004"},{"town":"総領町稲草","koaza":"","lat":34.786071,"lng":133.05233,"zip":"7293721"},{"town":"総領町上領家","koaza":"","lat":34.808152,"lng":133.135692,"zip":"7293712"},{"town":"総領町亀谷","koaza":"","lat":34.766474,"lng":133.110817,"zip":"7293702"},{"town":"総領町木屋","koaza":"","lat":34.76359,"lng":133.038296,"zip":"7293722"},{"town":"総領町黒目","koaza":"","lat":34.761127,"lng":133.14365,"zip":"7293701"},{"town":"総領町五箇","koaza":"","lat":34.813032,"lng":133.115488,"zip":"7293711"},{"town":"総領町下領家","koaza":"","lat":34.797578,"lng":133.085649,"zip":"7293703"},{"town":"総領町中領家","koaza":"","lat":34.790772,"lng":133.102794,"zip":"7293713"},{"town":"高門町","koaza":"","lat":34.837961,"lng":133.055755,"zip":"7270002"},{"town":"高野町上里原","koaza":"","lat":35.055692,"lng":132.847277,"zip":"7270425"},{"town":"高野町岡大内","koaza":"","lat":35.049264,"lng":132.87966,"zip":"7270403"},{"town":"高野町奥門田","koaza":"","lat":35.003078,"lng":132.90155,"zip":"7270422"},{"town":"高野町上湯川","koaza":"","lat":35.064268,"lng":132.979617,"zip":"7270411"},{"town":"高野町高暮","koaza":"","lat":35.017669,"lng":132.82431,"zip":"7270424"},{"town":"高野町下湯川","koaza":"","lat":35.047356,"lng":132.953511,"zip":"7270412"},{"town":"高野町下門田","koaza":"","lat":35.009044,"lng":132.872644,"zip":"7270423"},{"town":"高野町新市","koaza":"","lat":35.054743,"lng":132.933095,"zip":"7270402"},{"town":"高野町中門田","koaza":"","lat":35.020509,"lng":132.888061,"zip":"7270421"},{"town":"高野町南","koaza":"","lat":35.007514,"lng":132.924505,"zip":"7270413"},{"town":"高野町和南原","koaza":"","lat":35.076961,"lng":132.901929,"zip":"7270401"},{"town":"高町","koaza":"","lat":34.883707,"lng":133.092616,"zip":"7295811"},{"town":"田原町","koaza":"","lat":34.843295,"lng":132.971828,"zip":"7270024"},{"town":"東城町粟田","koaza":"","lat":34.947059,"lng":133.281623,"zip":"7295127"},{"town":"東城町受原","koaza":"","lat":34.922856,"lng":133.235814,"zip":"7295128"},{"town":"東城町内堀","koaza":"","lat":35.012525,"lng":133.24961,"zip":"7295502"},{"town":"東城町小串","koaza":"","lat":34.989813,"lng":133.308081,"zip":"7295504"},{"town":"東城町小奴可","koaza":"","lat":35.029333,"lng":133.226207,"zip":"7295501"},{"town":"東城町加谷","koaza":"","lat":34.99068,"lng":133.230151,"zip":"7295506"},{"town":"東城町川鳥","koaza":"","lat":34.931154,"lng":133.195446,"zip":"7295454"},{"town":"東城町川西","koaza":"","lat":34.899233,"lng":133.266033,"zip":"7295125"},{"town":"東城町川東","koaza":"","lat":34.901746,"lng":133.284253,"zip":"7295121"},{"town":"東城町久代","koaza":"","lat":34.868097,"lng":133.284317,"zip":"7295122"},{"town":"東城町塩原","koaza":"","lat":34.976202,"lng":133.248569,"zip":"7295505"},{"town":"東城町新福代","koaza":"","lat":34.905393,"lng":133.293246,"zip":"7295112"},{"town":"東城町新免","koaza":"","lat":34.840816,"lng":133.265182,"zip":"7295131"},{"town":"東城町菅","koaza":"","lat":34.939311,"lng":133.22723,"zip":"7295452"},{"town":"東城町帝釈宇山","koaza":"","lat":34.885236,"lng":133.214684,"zip":"7295241"},{"town":"東城町帝釈始終","koaza":"","lat":34.88834,"lng":133.159514,"zip":"7295243"},{"town":"東城町帝釈未渡","koaza":"","lat":34.862774,"lng":133.179813,"zip":"7295244"},{"town":"東城町帝釈山中","koaza":"","lat":34.910502,"lng":133.197367,"zip":"7295242"},{"town":"東城町田黒","koaza":"","lat":34.96873,"lng":133.220425,"zip":"7295451"},{"town":"東城町竹森","koaza":"","lat":34.952672,"lng":133.246607,"zip":"7295126"},{"town":"東城町千鳥","koaza":"","lat":35.006505,"lng":133.279001,"zip":"7295503"},{"town":"東城町戸宇","koaza":"","lat":34.90051,"lng":133.240897,"zip":"7295123"},{"town":"東城町東城","koaza":"","lat":34.89674,"lng":133.269957,"zip":"7295124"},{"town":"東城町福代","koaza":"","lat":34.915955,"lng":133.292894,"zip":"7295111"},{"town":"東城町三坂","koaza":"","lat":34.838167,"lng":133.243109,"zip":"7295132"},{"town":"東城町森","koaza":"","lat":34.968868,"lng":133.19158,"zip":"7295456"},{"town":"東城町保田","koaza":"","lat":34.937405,"lng":133.163863,"zip":"7295455"},{"town":"戸郷町","koaza":"","lat":34.844295,"lng":133.012783,"zip":"7270017"},{"town":"殿垣内町","koaza":"","lat":34.839311,"lng":132.962421,"zip":"7296133"},{"town":"永末町","koaza":"","lat":34.852708,"lng":133.047428,"zip":"7270008"},{"town":"中本町一丁目","koaza":"","lat":34.856938,"lng":133.017097,"zip":"7270012"},{"town":"中本町二丁目","koaza":"","lat":34.860925,"lng":133.0148,"zip":"7270012"},{"town":"七塚町","koaza":"","lat":34.829972,"lng":132.975614,"zip":"7270023"},{"town":"濁川町","koaza":"","lat":34.900496,"lng":132.967422,"zip":"7270202"},{"town":"西本町一丁目","koaza":"","lat":34.85479,"lng":133.015794,"zip":"7270013"},{"town":"西本町二丁目","koaza":"","lat":34.855182,"lng":133.010861,"zip":"7270013"},{"town":"西本町三丁目","koaza":"","lat":34.860021,"lng":133.010314,"zip":"7270013"},{"town":"西本町四丁目","koaza":"","lat":34.864021,"lng":133.006791,"zip":"7270013"},{"town":"東本町一丁目","koaza":"","lat":34.856709,"lng":133.023369,"zip":"7270011"},{"town":"東本町二丁目","koaza":"","lat":34.860768,"lng":133.02668,"zip":"7270011"},{"town":"東本町三丁目","koaza":"","lat":34.862101,"lng":133.019514,"zip":"7270011"},{"town":"東本町四丁目","koaza":"","lat":34.86385,"lng":133.019637,"zip":"7270011"},{"town":"一木町","koaza":"","lat":34.822567,"lng":132.999382,"zip":"7270016"},{"town":"比和町古頃","koaza":"","lat":34.968699,"lng":132.944096,"zip":"7270302"},{"town":"比和町木屋原","koaza":"","lat":34.966389,"lng":132.985801,"zip":"7270312"},{"town":"比和町比和","koaza":"","lat":35.003176,"lng":132.957591,"zip":"7270301"},{"town":"比和町三河内","koaza":"","lat":35.003799,"lng":133.03587,"zip":"7270311"},{"town":"比和町森脇","koaza":"","lat":35.035244,"lng":133.003182,"zip":"7270321"},{"town":"平和町","koaza":"","lat":34.827948,"lng":132.934724,"zip":"7296144"},{"town":"本郷町","koaza":"","lat":34.854697,"lng":132.952978,"zip":"7296132"},{"town":"本町","koaza":"","lat":34.871579,"lng":133.02862,"zip":"7270006"},{"town":"本村町","koaza":"","lat":34.854338,"lng":133.103614,"zip":"7270623"},{"town":"水越町","koaza":"","lat":34.842855,"lng":132.910648,"zip":"7296141"},{"town":"三日市町","koaza":"","lat":34.854589,"lng":133.006019,"zip":"7270021"},{"town":"峰田町","koaza":"","lat":34.811201,"lng":133.063419,"zip":"7270622"},{"town":"宮内町","koaza":"","lat":34.86469,"lng":133.04035,"zip":"7270007"},{"town":"門田町","koaza":"","lat":34.883312,"lng":132.987482,"zip":"7270201"},{"town":"山内町","koaza":"","lat":34.830694,"lng":132.955148,"zip":"7296131"}]