[{"town":"浅原","koaza":"","lat":34.338533,"lng":132.133677,"zip":"7380223"},{"town":"阿品一丁目","koaza":"","lat":34.328688,"lng":132.31751,"zip":"7380054"},{"town":"阿品二丁目","koaza":"","lat":34.325033,"lng":132.313225,"zip":"7380054"},{"town":"阿品三丁目","koaza":"","lat":34.320901,"lng":132.314922,"zip":"7380054"},{"town":"阿品四丁目","koaza":"","lat":34.320988,"lng":132.309324,"zip":"7380054"},{"town":"阿品台一丁目","koaza":"","lat":34.331343,"lng":132.315681,"zip":"7380053"},{"town":"阿品台二丁目","koaza":"","lat":34.330077,"lng":132.31243,"zip":"7380053"},{"town":"阿品台三丁目","koaza":"","lat":34.327298,"lng":132.30896,"zip":"7380053"},{"town":"阿品台四丁目","koaza":"","lat":34.327786,"lng":132.306893,"zip":"7380053"},{"town":"阿品台五丁目","koaza":"","lat":34.329369,"lng":132.305586,"zip":"7380053"},{"town":"阿品台北","koaza":"","lat":34.332697,"lng":132.305041,"zip":"7380051"},{"town":"阿品台西","koaza":"","lat":34.325584,"lng":132.303949,"zip":"7380055"},{"town":"阿品台東","koaza":"","lat":34.333124,"lng":132.310158,"zip":"7380052"},{"town":"阿品台山の手","koaza":"","lat":34.322595,"lng":132.301446,"zip":"7380056"},{"town":"飯山","koaza":"","lat":34.41487,"lng":132.099674,"zip":"7380226"},{"town":"梅原一丁目","koaza":"","lat":34.283946,"lng":132.275132,"zip":"7390442"},{"town":"梅原二丁目","koaza":"","lat":34.283265,"lng":132.272691,"zip":"7390442"},{"town":"駅前","koaza":"","lat":34.357639,"lng":132.336232,"zip":"7380011"},{"town":"大野","koaza":"","lat":34.302474,"lng":132.201304,"zip":"7390664"},{"town":"大野一丁目","koaza":"","lat":34.286812,"lng":132.275945,"zip":"7390664"},{"town":"大野二丁目","koaza":"","lat":34.285513,"lng":132.279164,"zip":"7390664"},{"town":"大野中央一丁目","koaza":"","lat":34.288047,"lng":132.275476,"zip":"7390437"},{"town":"大野中央二丁目","koaza":"","lat":34.29003,"lng":132.27552,"zip":"7390437"},{"town":"大野中央三丁目","koaza":"","lat":34.289397,"lng":132.272625,"zip":"7390437"},{"town":"大野中央四丁目","koaza":"","lat":34.292288,"lng":132.272104,"zip":"7390437"},{"town":"大野中央五丁目","koaza":"","lat":34.293292,"lng":132.273953,"zip":"7390437"},{"town":"大野原一丁目","koaza":"","lat":34.286583,"lng":132.270235,"zip":"7390441"},{"town":"大野原二丁目","koaza":"","lat":34.28857,"lng":132.270161,"zip":"7390441"},{"town":"大野原三丁目","koaza":"","lat":34.288411,"lng":132.26716,"zip":"7390441"},{"town":"大野原四丁目","koaza":"","lat":34.292865,"lng":132.269825,"zip":"7390441"},{"town":"大東","koaza":"","lat":34.359135,"lng":132.341072,"zip":"7380006"},{"town":"沖塩屋一丁目","koaza":"","lat":34.284207,"lng":132.266819,"zip":"7390443"},{"town":"沖塩屋二丁目","koaza":"","lat":34.283497,"lng":132.268817,"zip":"7390443"},{"town":"沖塩屋三丁目","koaza":"","lat":34.280379,"lng":132.26828,"zip":"7390443"},{"town":"沖塩屋四丁目","koaza":"","lat":34.280364,"lng":132.27104,"zip":"7390443"},{"town":"可愛","koaza":"","lat":34.353306,"lng":132.332475,"zip":"7380016"},{"town":"上の浜一丁目","koaza":"","lat":34.292005,"lng":132.28148,"zip":"7390432"},{"town":"上の浜二丁目","koaza":"","lat":34.294294,"lng":132.286127,"zip":"7390432"},{"town":"上平良","koaza":"","lat":34.367464,"lng":132.315007,"zip":"7380026"},{"town":"河津原","koaza":"","lat":34.368797,"lng":132.208309,"zip":"7380204"},{"town":"串戸一丁目","koaza":"","lat":34.345655,"lng":132.329068,"zip":"7380033"},{"town":"串戸二丁目","koaza":"","lat":34.347748,"lng":132.326905,"zip":"7380033"},{"town":"串戸三丁目","koaza":"","lat":34.349085,"lng":132.325258,"zip":"7380033"},{"town":"串戸四丁目","koaza":"","lat":34.349395,"lng":132.322645,"zip":"7380033"},{"town":"串戸五丁目","koaza":"","lat":34.348421,"lng":132.31983,"zip":"7380033"},{"town":"串戸六丁目","koaza":"","lat":34.352213,"lng":132.322595,"zip":"7380033"},{"town":"玖島","koaza":"","lat":34.403534,"lng":132.237901,"zip":"7380205"},{"town":"栗栖","koaza":"","lat":34.384679,"lng":132.122817,"zip":"7380224"},{"town":"佐方","koaza":"","lat":34.370067,"lng":132.328247,"zip":"7380001"},{"town":"佐方一丁目","koaza":"","lat":34.363832,"lng":132.339948,"zip":"7380001"},{"town":"佐方二丁目","koaza":"","lat":34.365555,"lng":132.336825,"zip":"7380001"},{"town":"佐方三丁目","koaza":"","lat":34.366392,"lng":132.339918,"zip":"7380001"},{"town":"佐方四丁目","koaza":"","lat":34.365863,"lng":132.343248,"zip":"7380001"},{"town":"佐方本町","koaza":"","lat":34.360716,"lng":132.343009,"zip":"7380003"},{"town":"桜尾一丁目","koaza":"","lat":34.354573,"lng":132.341319,"zip":"7380004"},{"town":"桜尾二丁目","koaza":"","lat":34.355103,"lng":132.344236,"zip":"7380004"},{"town":"桜尾三丁目","koaza":"","lat":34.356369,"lng":132.345833,"zip":"7380004"},{"town":"桜尾本町","koaza":"","lat":34.35739,"lng":132.342296,"zip":"7380005"},{"town":"山陽園","koaza":"","lat":34.363052,"lng":132.341467,"zip":"7380002"},{"town":"塩屋一丁目","koaza":"","lat":34.285296,"lng":132.264803,"zip":"7390445"},{"town":"塩屋二丁目","koaza":"","lat":34.282722,"lng":132.262614,"zip":"7390445"},{"town":"四季が丘十丁目","koaza":"","lat":34.343145,"lng":132.294318,"zip":"7380036"},{"town":"四季が丘十一丁目","koaza":"","lat":34.343964,"lng":132.29764,"zip":"7380036"},{"town":"四季が丘一丁目","koaza":"","lat":34.350835,"lng":132.296369,"zip":"7380036"},{"town":"四季が丘二丁目","koaza":"","lat":34.351959,"lng":132.293465,"zip":"7380036"},{"town":"四季が丘三丁目","koaza":"","lat":34.35005,"lng":132.290108,"zip":"7380036"},{"town":"四季が丘四丁目","koaza":"","lat":34.34932,"lng":132.292955,"zip":"7380036"},{"town":"四季が丘五丁目","koaza":"","lat":34.348918,"lng":132.295621,"zip":"7380036"},{"town":"四季が丘六丁目","koaza":"","lat":34.346594,"lng":132.294772,"zip":"7380036"},{"town":"四季が丘七丁目","koaza":"","lat":34.347047,"lng":132.292228,"zip":"7380036"},{"town":"四季が丘八丁目","koaza":"","lat":34.347029,"lng":132.289557,"zip":"7380036"},{"town":"四季が丘九丁目","koaza":"","lat":34.345226,"lng":132.292897,"zip":"7380036"},{"town":"四季が丘上","koaza":"","lat":34.347501,"lng":132.286374,"zip":"7380038"},{"town":"地御前","koaza":"","lat":34.332174,"lng":132.301332,"zip":"7380042"},{"town":"地御前一丁目","koaza":"","lat":34.343113,"lng":132.323773,"zip":"7380042"},{"town":"地御前二丁目","koaza":"","lat":34.344466,"lng":132.31977,"zip":"7380042"},{"town":"地御前三丁目","koaza":"","lat":34.341097,"lng":132.317891,"zip":"7380042"},{"town":"地御前四丁目","koaza":"","lat":34.336001,"lng":132.317102,"zip":"7380042"},{"town":"地御前五丁目","koaza":"","lat":34.332718,"lng":132.319859,"zip":"7380042"},{"town":"地御前北一丁目","koaza":"","lat":34.344008,"lng":132.314293,"zip":"7380043"},{"town":"地御前北二丁目","koaza":"","lat":34.342495,"lng":132.311152,"zip":"7380043"},{"town":"地御前北三丁目","koaza":"","lat":34.339713,"lng":132.312567,"zip":"7380043"},{"town":"下の浜","koaza":"","lat":34.290639,"lng":132.278098,"zip":"7390433"},{"town":"下平良","koaza":"","lat":34.362835,"lng":132.325424,"zip":"7380023"},{"town":"下平良一丁目","koaza":"","lat":34.349061,"lng":132.332563,"zip":"7380023"},{"town":"下平良二丁目","koaza":"","lat":34.345974,"lng":132.334506,"zip":"7380023"},{"town":"城内一丁目","koaza":"","lat":34.359875,"lng":132.338797,"zip":"7380007"},{"town":"城内二丁目","koaza":"","lat":34.361078,"lng":132.338091,"zip":"7380007"},{"town":"城内三丁目","koaza":"","lat":34.362099,"lng":132.336909,"zip":"7380007"},{"town":"新宮一丁目","koaza":"","lat":34.351412,"lng":132.330874,"zip":"7380024"},{"town":"新宮二丁目","koaza":"","lat":34.352425,"lng":132.327327,"zip":"7380024"},{"town":"須賀","koaza":"","lat":34.354117,"lng":132.333942,"zip":"7380017"},{"town":"住吉一丁目","koaza":"","lat":34.352701,"lng":132.338872,"zip":"7380014"},{"town":"住吉二丁目","koaza":"","lat":34.348888,"lng":132.3382,"zip":"7380014"},{"town":"対厳山一丁目","koaza":"","lat":34.31292,"lng":132.294752,"zip":"7390402"},{"town":"対厳山二丁目","koaza":"","lat":34.315344,"lng":132.297414,"zip":"7390402"},{"town":"対厳山三丁目","koaza":"","lat":34.315218,"lng":132.294645,"zip":"7390402"},{"town":"津田","koaza":"","lat":34.370487,"lng":132.175845,"zip":"7380222"},{"town":"天神","koaza":"","lat":34.356313,"lng":132.338576,"zip":"7380012"},{"town":"峠","koaza":"","lat":34.353172,"lng":132.236154,"zip":"7380202"},{"town":"友田","koaza":"","lat":34.352216,"lng":132.211916,"zip":"7380203"},{"town":"永原","koaza":"","lat":34.37478,"lng":132.238353,"zip":"7380201"},{"town":"中道","koaza":"","lat":34.375129,"lng":132.089202,"zip":"7380225"},{"town":"廿日市一丁目","koaza":"","lat":34.354876,"lng":132.335166,"zip":"7380013"},{"town":"廿日市二丁目","koaza":"","lat":34.3556,"lng":132.336678,"zip":"7380013"},{"town":"八坂一丁目","koaza":"","lat":34.269595,"lng":132.246435,"zip":"7390455"},{"town":"八坂二丁目","koaza":"","lat":34.267751,"lng":132.243842,"zip":"7390455"},{"town":"林が原一丁目","koaza":"","lat":34.278412,"lng":132.263054,"zip":"7390444"},{"town":"林が原二丁目","koaza":"","lat":34.279318,"lng":132.261281,"zip":"7390444"},{"town":"原","koaza":"","lat":34.390712,"lng":132.309866,"zip":"7380031"},{"town":"深江一丁目","koaza":"","lat":34.306429,"lng":132.296212,"zip":"7390421"},{"town":"深江二丁目","koaza":"","lat":34.308847,"lng":132.294325,"zip":"7390421"},{"town":"深江三丁目","koaza":"","lat":34.309543,"lng":132.296699,"zip":"7390421"},{"town":"福面一丁目","koaza":"","lat":34.317582,"lng":132.296192,"zip":"7390401"},{"town":"福面二丁目","koaza":"","lat":34.32043,"lng":132.298953,"zip":"7390401"},{"town":"福面三丁目","koaza":"","lat":34.323063,"lng":132.299513,"zip":"7390401"},{"town":"平良一丁目","koaza":"","lat":34.357584,"lng":132.327544,"zip":"7380025"},{"town":"平良二丁目","koaza":"","lat":34.354382,"lng":132.326189,"zip":"7380025"},{"town":"平良山手","koaza":"","lat":34.358156,"lng":132.333639,"zip":"7380027"},{"town":"本町","koaza":"","lat":34.351013,"lng":132.334963,"zip":"7380015"},{"town":"前空一丁目","koaza":"","lat":34.300157,"lng":132.286337,"zip":"7390424"},{"town":"前空二丁目","koaza":"","lat":34.300758,"lng":132.287332,"zip":"7390424"},{"town":"前空三丁目","koaza":"","lat":34.302476,"lng":132.283396,"zip":"7390424"},{"town":"前空四丁目","koaza":"","lat":34.303895,"lng":132.2854,"zip":"7390424"},{"town":"前空五丁目","koaza":"","lat":34.302102,"lng":132.289292,"zip":"7390424"},{"town":"前空六丁目","koaza":"","lat":34.305189,"lng":132.287625,"zip":"7390424"},{"town":"丸石一丁目","koaza":"","lat":34.276498,"lng":132.262712,"zip":"7390452"},{"town":"丸石二丁目","koaza":"","lat":34.274483,"lng":132.263208,"zip":"7390452"},{"town":"丸石三丁目","koaza":"","lat":34.274893,"lng":132.259513,"zip":"7390452"},{"town":"丸石四丁目","koaza":"","lat":34.276255,"lng":132.258136,"zip":"7390452"},{"town":"丸石五丁目","koaza":"","lat":34.278099,"lng":132.257919,"zip":"7390452"},{"town":"峰高一丁目","koaza":"","lat":34.352459,"lng":132.318649,"zip":"7380032"},{"town":"峰高二丁目","koaza":"","lat":34.352168,"lng":132.316052,"zip":"7380032"},{"town":"宮内","koaza":"","lat":34.352864,"lng":132.273663,"zip":"7380034"},{"town":"宮内一丁目","koaza":"","lat":34.350849,"lng":132.318619,"zip":"7380034"},{"town":"宮内四丁目","koaza":"","lat":34.350894,"lng":132.312992,"zip":"7380034"},{"town":"宮内工業団地","koaza":"","lat":34.335621,"lng":132.298013,"zip":"7380039"},{"town":"宮島口二丁目","koaza":"","lat":34.312816,"lng":132.301368,"zip":"7390411"},{"town":"宮島口三丁目","koaza":"","lat":34.315188,"lng":132.303547,"zip":"7390411"},{"town":"宮島口四丁目","koaza":"","lat":34.317357,"lng":132.30737,"zip":"7390411"},{"town":"宮島口上一丁目","koaza":"","lat":34.316059,"lng":132.2995,"zip":"7390413"},{"town":"宮島口上二丁目","koaza":"","lat":34.317514,"lng":132.301299,"zip":"7390413"},{"town":"宮島口西一丁目","koaza":"","lat":34.306479,"lng":132.299416,"zip":"7390412"},{"town":"宮島口西二丁目","koaza":"","lat":34.309446,"lng":132.299078,"zip":"7390412"},{"town":"宮島口西三丁目","koaza":"","lat":34.312639,"lng":132.298743,"zip":"7390412"},{"town":"宮島口東一丁目","koaza":"","lat":34.318591,"lng":132.305619,"zip":"7390414"},{"town":"宮島口東二丁目","koaza":"","lat":34.319789,"lng":132.302844,"zip":"7390414"},{"town":"宮島口東三丁目","koaza":"","lat":34.320992,"lng":132.304094,"zip":"7390414"},{"town":"宮島町","koaza":"","lat":34.272605,"lng":132.309988,"zip":"7390541"},{"town":"宮園一丁目","koaza":"","lat":34.354905,"lng":132.304863,"zip":"7380035"},{"town":"宮園二丁目","koaza":"","lat":34.351595,"lng":132.307844,"zip":"7380035"},{"town":"宮園三丁目","koaza":"","lat":34.353966,"lng":132.30297,"zip":"7380035"},{"town":"宮園四丁目","koaza":"","lat":34.352458,"lng":132.300138,"zip":"7380035"},{"town":"宮園五丁目","koaza":"","lat":34.351937,"lng":132.302971,"zip":"7380035"},{"town":"宮園六丁目","koaza":"","lat":34.35004,"lng":132.305719,"zip":"7380035"},{"town":"宮園七丁目","koaza":"","lat":34.348732,"lng":132.303757,"zip":"7380035"},{"town":"宮園八丁目","koaza":"","lat":34.350466,"lng":132.301857,"zip":"7380035"},{"town":"宮園九丁目","koaza":"","lat":34.349489,"lng":132.300244,"zip":"7380035"},{"town":"宮園上一丁目","koaza":"","lat":34.35571,"lng":132.299752,"zip":"7380037"},{"town":"宮園上二丁目","koaza":"","lat":34.354209,"lng":132.298308,"zip":"7380037"},{"town":"宮園上三丁目","koaza":"","lat":34.353601,"lng":132.29495,"zip":"7380037"},{"town":"宮園上四丁目","koaza":"","lat":34.352747,"lng":132.297413,"zip":"7380037"},{"town":"宮園上五丁目","koaza":"","lat":34.35172,"lng":132.29692,"zip":"7380037"},{"town":"宮浜温泉一丁目","koaza":"","lat":34.273236,"lng":132.255858,"zip":"7390454"},{"town":"宮浜温泉二丁目","koaza":"","lat":34.270475,"lng":132.253123,"zip":"7390454"},{"town":"宮浜温泉三丁目","koaza":"","lat":34.273824,"lng":132.252445,"zip":"7390454"},{"town":"虫所山","koaza":"","lat":34.421171,"lng":132.163186,"zip":"7380221"},{"town":"木材港北","koaza":"","lat":34.349885,"lng":132.344103,"zip":"7380021"},{"town":"木材港南","koaza":"","lat":34.341524,"lng":132.341163,"zip":"7380022"},{"town":"物見西一丁目","koaza":"","lat":34.295322,"lng":132.284757,"zip":"7390425"},{"town":"物見西二丁目","koaza":"","lat":34.295918,"lng":132.282007,"zip":"7390425"},{"town":"物見西三丁目","koaza":"","lat":34.296175,"lng":132.279583,"zip":"7390425"},{"town":"物見東一丁目","koaza":"","lat":34.29849,"lng":132.285371,"zip":"7390426"},{"town":"物見東二丁目","koaza":"","lat":34.299572,"lng":132.281618,"zip":"7390426"},{"town":"陽光台一丁目","koaza":"","lat":34.353421,"lng":132.313342,"zip":"7380060"},{"town":"陽光台二丁目","koaza":"","lat":34.353032,"lng":132.310495,"zip":"7380060"},{"town":"陽光台三丁目","koaza":"","lat":34.355323,"lng":132.311633,"zip":"7380060"},{"town":"陽光台四丁目","koaza":"","lat":34.355032,"lng":132.308402,"zip":"7380060"},{"town":"陽光台五丁目","koaza":"","lat":34.357341,"lng":132.305639,"zip":"7380060"},{"town":"吉和","koaza":"","lat":34.505102,"lng":132.111692,"zip":"7380301"},{"town":"六本松一丁目","koaza":"","lat":34.343409,"lng":132.3084,"zip":"7380041"},{"town":"六本松二丁目","koaza":"","lat":34.342508,"lng":132.305302,"zip":"7380041"},{"town":"宮島口一丁目","koaza":"","lat":34.312626,"lng":132.304244,"zip":"7390411"},{"town":"峠","koaza":"下ヶ原","lat":34.348062,"lng":132.225303,"zip":"7380202"},{"town":"大野","koaza":"滝ノ下","lat":34.295834,"lng":132.271026,"zip":"7390664"},{"town":"大野","koaza":"中山","lat":34.326834,"lng":132.28858,"zip":"7390664"},{"town":"大野","koaza":"下更地","lat":34.310614,"lng":132.287081,"zip":"7390664"},{"town":"宮内","koaza":"佐原田","lat":34.340005,"lng":132.298319,"zip":"7380034"},{"town":"宮島町","koaza":"大砂利","lat":34.274459,"lng":132.323973,"zip":"7390541"},{"town":"宮内","koaza":"国広","lat":34.345313,"lng":132.307609,"zip":"7380034"},{"town":"宮内","koaza":"北山","lat":34.34919,"lng":132.310552,"zip":"7380034"},{"town":"宮島町","koaza":"南大西町","lat":34.294684,"lng":132.31764,"zip":"7390541"},{"town":"宮島町","koaza":"中江町","lat":34.294455,"lng":132.320896,"zip":"7390541"},{"town":"宮島町","koaza":"下中西町","lat":34.294808,"lng":132.318755,"zip":"7390541"},{"town":"宮島町","koaza":"上中西町","lat":34.293788,"lng":132.318951,"zip":"7390541"},{"town":"宮島町","koaza":"滝町","lat":34.294453,"lng":132.319575,"zip":"7390541"},{"town":"宮島町","koaza":"大町","lat":34.297196,"lng":132.320151,"zip":"7390541"},{"town":"宮島町","koaza":"幸町西浜","lat":34.297992,"lng":132.320738,"zip":"7390541"},{"town":"宮島町","koaza":"北之町浜","lat":34.299559,"lng":132.32239,"zip":"7390541"},{"town":"宮島町","koaza":"南町","lat":34.295822,"lng":132.32214,"zip":"7390541"}]