[{"town":"安芸津町大田","koaza":"","lat":34.322132,"lng":132.765619,"zip":"7392404"},{"town":"安芸津町風早","koaza":"","lat":34.320045,"lng":132.793349,"zip":"7392403"},{"town":"安芸津町木谷","koaza":"","lat":34.325347,"lng":132.839331,"zip":"7392401"},{"town":"安芸津町小松原","koaza":"","lat":34.290461,"lng":132.779025,"zip":"7392405"},{"town":"安芸津町三津","koaza":"","lat":34.343687,"lng":132.800733,"zip":"7392402"},{"town":"鏡山一丁目","koaza":"","lat":34.399164,"lng":132.712403,"zip":"7390046"},{"town":"鏡山二丁目","koaza":"","lat":34.401143,"lng":132.724312,"zip":"7390046"},{"town":"鏡山三丁目","koaza":"","lat":34.397508,"lng":132.734346,"zip":"7390046"},{"town":"鏡山北","koaza":"","lat":34.408828,"lng":132.724632,"zip":"7390045"},{"town":"黒瀬学園台","koaza":"","lat":34.313551,"lng":132.687593,"zip":"7392631"},{"town":"黒瀬春日野一丁目","koaza":"","lat":34.331108,"lng":132.656475,"zip":"7392615"},{"town":"黒瀬春日野二丁目","koaza":"","lat":34.333928,"lng":132.654742,"zip":"7392615"},{"town":"黒瀬切田が丘一丁目","koaza":"","lat":34.323635,"lng":132.653608,"zip":"7392619"},{"town":"黒瀬切田が丘二丁目","koaza":"","lat":34.326131,"lng":132.650475,"zip":"7392619"},{"town":"黒瀬切田が丘三丁目","koaza":"","lat":34.328456,"lng":132.654716,"zip":"7392619"},{"town":"黒瀬桜が丘一丁目","koaza":"","lat":34.33107,"lng":132.651329,"zip":"7392618"},{"town":"黒瀬町市飯田","koaza":"","lat":34.307003,"lng":132.659827,"zip":"7392626"},{"town":"黒瀬町大多田","koaza":"","lat":34.348396,"lng":132.667732,"zip":"7392611"},{"town":"黒瀬町小多田","koaza":"","lat":34.347312,"lng":132.714486,"zip":"7392501"},{"town":"黒瀬町兼沢","koaza":"","lat":34.316691,"lng":132.649663,"zip":"7392731"},{"town":"黒瀬町兼広","koaza":"","lat":34.333484,"lng":132.65027,"zip":"7392616"},{"town":"黒瀬町上保田","koaza":"","lat":34.311548,"lng":132.66911,"zip":"7392625"},{"town":"黒瀬町川角","koaza":"","lat":34.314129,"lng":132.681437,"zip":"7392623"},{"town":"黒瀬町切田","koaza":"","lat":34.322047,"lng":132.657216,"zip":"7392617"},{"town":"黒瀬町国近","koaza":"","lat":34.339356,"lng":132.734999,"zip":"7392502"},{"town":"黒瀬町菅田","koaza":"","lat":34.3125,"lng":132.674835,"zip":"7392624"},{"town":"黒瀬町津江","koaza":"","lat":34.334253,"lng":132.629657,"zip":"7392732"},{"town":"黒瀬町楢原","koaza":"","lat":34.326049,"lng":132.66702,"zip":"7392613"},{"town":"黒瀬町乃美尾","koaza":"","lat":34.331835,"lng":132.693214,"zip":"7392622"},{"town":"黒瀬町丸山","koaza":"","lat":34.332736,"lng":132.676378,"zip":"7392612"},{"town":"黒瀬町南方","koaza":"","lat":34.329045,"lng":132.702819,"zip":"7392503"},{"town":"黒瀬町宗近柳国","koaza":"","lat":34.339781,"lng":132.71301,"zip":"7392504"},{"town":"黒瀬楢原北一丁目","koaza":"","lat":34.338778,"lng":132.664173,"zip":"7392627"},{"town":"黒瀬楢原北二丁目","koaza":"","lat":34.339499,"lng":132.660241,"zip":"7392627"},{"town":"黒瀬楢原北三丁目","koaza":"","lat":34.338778,"lng":132.656075,"zip":"7392627"},{"town":"黒瀬楢原西一丁目","koaza":"","lat":34.331842,"lng":132.663917,"zip":"7392629"},{"town":"黒瀬楢原西二丁目","koaza":"","lat":34.335495,"lng":132.66128,"zip":"7392629"},{"town":"黒瀬楢原東一丁目","koaza":"","lat":34.332197,"lng":132.666996,"zip":"7392628"},{"town":"黒瀬楢原東二丁目","koaza":"","lat":34.335281,"lng":132.664175,"zip":"7392628"},{"town":"黒瀬楢原東三丁目","koaza":"","lat":34.336309,"lng":132.667418,"zip":"7392628"},{"town":"黒瀬松ケ丘","koaza":"","lat":34.334833,"lng":132.658374,"zip":"7392614"},{"town":"河内町宇山","koaza":"","lat":34.520925,"lng":132.827706,"zip":"7392206"},{"town":"河内町小田","koaza":"","lat":34.504403,"lng":132.872904,"zip":"7392207"},{"town":"河内町上河内","koaza":"","lat":34.481759,"lng":132.862791,"zip":"7392203"},{"town":"河内町河戸","koaza":"","lat":34.49357,"lng":132.837104,"zip":"7392204"},{"town":"河内町下河内","koaza":"","lat":34.47269,"lng":132.90389,"zip":"7392202"},{"town":"河内町戸野","koaza":"","lat":34.504151,"lng":132.808654,"zip":"7392205"},{"town":"河内町中河内","koaza":"","lat":34.475599,"lng":132.88201,"zip":"7392201"},{"town":"河内町入野","koaza":"","lat":34.44237,"lng":132.878122,"zip":"7392208"},{"town":"河内臨空団地","koaza":"","lat":34.447636,"lng":132.867147,"zip":"7392211"},{"town":"西条朝日町","koaza":"","lat":34.427037,"lng":132.746118,"zip":"7390012"},{"town":"西条大坪町","koaza":"","lat":34.422061,"lng":132.747158,"zip":"7390005"},{"town":"西条岡町","koaza":"","lat":34.428555,"lng":132.741119,"zip":"7390016"},{"town":"西条上市町","koaza":"","lat":34.427825,"lng":132.748859,"zip":"7390006"},{"town":"西条御条町","koaza":"","lat":34.422651,"lng":132.745178,"zip":"7390013"},{"town":"西条栄町","koaza":"","lat":34.427709,"lng":132.742937,"zip":"7390015"},{"town":"西条下見五丁目","koaza":"","lat":34.409116,"lng":132.716182,"zip":"7390047"},{"town":"西条下見六丁目","koaza":"","lat":34.407923,"lng":132.712861,"zip":"7390047"},{"town":"西条下見七丁目","koaza":"","lat":34.406234,"lng":132.708461,"zip":"7390047"},{"town":"西条昭和町","koaza":"","lat":34.42424,"lng":132.741965,"zip":"7390014"},{"town":"西条末広町","koaza":"","lat":34.431479,"lng":132.749708,"zip":"7390004"},{"town":"西条中央一丁目","koaza":"","lat":34.420854,"lng":132.737393,"zip":"7390025"},{"town":"西条中央二丁目","koaza":"","lat":34.421252,"lng":132.741454,"zip":"7390025"},{"town":"西条中央三丁目","koaza":"","lat":34.418388,"lng":132.742232,"zip":"7390025"},{"town":"西条中央四丁目","koaza":"","lat":34.411639,"lng":132.743451,"zip":"7390025"},{"town":"西条中央五丁目","koaza":"","lat":34.413259,"lng":132.741112,"zip":"7390025"},{"town":"西条中央六丁目","koaza":"","lat":34.415937,"lng":132.739357,"zip":"7390025"},{"town":"西条中央七丁目","koaza":"","lat":34.417645,"lng":132.7353,"zip":"7390025"},{"town":"西条中央八丁目","koaza":"","lat":34.417861,"lng":132.729638,"zip":"7390025"},{"town":"西条町馬木","koaza":"","lat":34.362651,"lng":132.724798,"zip":"7390033"},{"town":"西条町大沢","koaza":"","lat":34.376958,"lng":132.731625,"zip":"7390034"},{"town":"西条町上三永","koaza":"","lat":34.396444,"lng":132.797279,"zip":"7390022"},{"town":"西条町郷曽","koaza":"","lat":34.369996,"lng":132.691186,"zip":"7390035"},{"town":"西条町西条","koaza":"","lat":34.438718,"lng":132.744101,"zip":"7390001"},{"town":"西条町西条東","koaza":"","lat":34.425563,"lng":132.735684,"zip":"7390042"},{"town":"西条町下見","koaza":"","lat":34.40899,"lng":132.706533,"zip":"7390044"},{"town":"西条町下三永","koaza":"","lat":34.392245,"lng":132.765958,"zip":"7390023"},{"town":"西条町助実","koaza":"","lat":34.415847,"lng":132.770949,"zip":"7390021"},{"town":"西条町土与丸","koaza":"","lat":34.424022,"lng":132.778825,"zip":"7390003"},{"town":"西条町福本","koaza":"","lat":34.358791,"lng":132.762791,"zip":"7390031"},{"town":"西条町御薗宇","koaza":"","lat":34.408063,"lng":132.755798,"zip":"7390024"},{"town":"西条町森近","koaza":"","lat":34.361171,"lng":132.743794,"zip":"7390032"},{"town":"西条町吉行","koaza":"","lat":34.445141,"lng":132.748966,"zip":"7390002"},{"town":"西条土与丸一丁目","koaza":"","lat":34.427445,"lng":132.750726,"zip":"7390007"},{"town":"西条土与丸二丁目","koaza":"","lat":34.431665,"lng":132.752584,"zip":"7390007"},{"town":"西条土与丸三丁目","koaza":"","lat":34.434329,"lng":132.755969,"zip":"7390007"},{"town":"西条土与丸四丁目","koaza":"","lat":34.431881,"lng":132.75585,"zip":"7390007"},{"town":"西条土与丸五丁目","koaza":"","lat":34.429952,"lng":132.754492,"zip":"7390007"},{"town":"西条土与丸六丁目","koaza":"","lat":34.425738,"lng":132.75172,"zip":"7390007"},{"town":"西条西本町","koaza":"","lat":34.428809,"lng":132.737005,"zip":"7390043"},{"town":"西条東北町","koaza":"","lat":34.432706,"lng":132.737282,"zip":"7390048"},{"town":"西条本町","koaza":"","lat":34.430494,"lng":132.745706,"zip":"7390011"},{"town":"西条吉行東一丁目","koaza":"","lat":34.43331,"lng":132.760594,"zip":"7390008"},{"town":"西条吉行東二丁目","koaza":"","lat":34.437061,"lng":132.765298,"zip":"7390008"},{"town":"志和町内","koaza":"","lat":34.498882,"lng":132.706693,"zip":"7390261"},{"town":"志和町奥屋","koaza":"","lat":34.459637,"lng":132.615404,"zip":"7390266"},{"town":"志和町冠","koaza":"","lat":34.45352,"lng":132.642918,"zip":"7390265"},{"town":"志和町七条椛坂","koaza":"","lat":34.461168,"lng":132.662814,"zip":"7390264"},{"town":"志和町志和西","koaza":"","lat":34.488663,"lng":132.647365,"zip":"7390268"},{"town":"志和町志和東","koaza":"","lat":34.482263,"lng":132.685881,"zip":"7390262"},{"town":"志和町志和堀","koaza":"","lat":34.513519,"lng":132.674235,"zip":"7390269"},{"town":"志和町別府","koaza":"","lat":34.479983,"lng":132.624562,"zip":"7390267"},{"town":"志和流通","koaza":"","lat":34.46716,"lng":132.654358,"zip":"7390263"},{"town":"高屋うめの辺","koaza":"","lat":34.460178,"lng":132.78224,"zip":"7392116"},{"town":"高屋台一丁目","koaza":"","lat":34.466563,"lng":132.83277,"zip":"7392117"},{"town":"高屋台二丁目","koaza":"","lat":34.466093,"lng":132.837415,"zip":"7392117"},{"town":"高屋高美が丘一丁目","koaza":"","lat":34.457421,"lng":132.788698,"zip":"7392115"},{"town":"高屋高美が丘二丁目","koaza":"","lat":34.455734,"lng":132.790747,"zip":"7392115"},{"town":"高屋高美が丘三丁目","koaza":"","lat":34.457176,"lng":132.796208,"zip":"7392115"},{"town":"高屋高美が丘四丁目","koaza":"","lat":34.459891,"lng":132.793818,"zip":"7392115"},{"town":"高屋高美が丘五丁目","koaza":"","lat":34.460736,"lng":132.790091,"zip":"7392115"},{"town":"高屋高美が丘六丁目","koaza":"","lat":34.464022,"lng":132.788204,"zip":"7392115"},{"town":"高屋高美が丘七丁目","koaza":"","lat":34.463573,"lng":132.79082,"zip":"7392115"},{"town":"高屋高美が丘八丁目","koaza":"","lat":34.462959,"lng":132.79396,"zip":"7392115"},{"town":"高屋高美が丘九丁目","koaza":"","lat":34.467839,"lng":132.789095,"zip":"7392115"},{"town":"高屋町稲木","koaza":"","lat":34.456182,"lng":132.759295,"zip":"7392106"},{"town":"高屋町大畠","koaza":"","lat":34.446443,"lng":132.775654,"zip":"7392104"},{"town":"高屋町杵原","koaza":"","lat":34.460142,"lng":132.775217,"zip":"7392102"},{"town":"高屋町郷","koaza":"","lat":34.436301,"lng":132.794944,"zip":"7392124"},{"town":"高屋町小谷","koaza":"","lat":34.434522,"lng":132.838525,"zip":"7392121"},{"town":"高屋町貞重","koaza":"","lat":34.477115,"lng":132.814715,"zip":"7392112"},{"town":"高屋町重兼","koaza":"","lat":34.432579,"lng":132.816658,"zip":"7392122"},{"town":"高屋町白市","koaza":"","lat":34.455094,"lng":132.824215,"zip":"7392114"},{"town":"高屋町造賀","koaza":"","lat":34.487429,"lng":132.763147,"zip":"7392101"},{"town":"高屋町高屋東","koaza":"","lat":34.462555,"lng":132.820468,"zip":"7392113"},{"town":"高屋町高屋堀","koaza":"","lat":34.469969,"lng":132.799976,"zip":"7392111"},{"town":"高屋町中島","koaza":"","lat":34.447028,"lng":132.789281,"zip":"7392125"},{"town":"高屋町桧山","koaza":"","lat":34.439188,"lng":132.764357,"zip":"7390000"},{"town":"高屋町溝口","koaza":"","lat":34.430128,"lng":132.80569,"zip":"7392123"},{"town":"高屋町宮領","koaza":"","lat":34.435963,"lng":132.781153,"zip":"7392103"},{"town":"田口研究団地","koaza":"","lat":34.387389,"lng":132.695007,"zip":"7390038"},{"town":"豊栄町安宿","koaza":"","lat":34.565535,"lng":132.856725,"zip":"7392316"},{"town":"豊栄町飯田","koaza":"","lat":34.608319,"lng":132.82733,"zip":"7392314"},{"town":"豊栄町鍛冶屋","koaza":"","lat":34.56486,"lng":132.826875,"zip":"7392317"},{"town":"豊栄町清武","koaza":"","lat":34.597764,"lng":132.810724,"zip":"7392313"},{"town":"豊栄町能良","koaza":"","lat":34.537192,"lng":132.830049,"zip":"7392318"},{"town":"豊栄町乃美","koaza":"","lat":34.560116,"lng":132.810013,"zip":"7392311"},{"town":"豊栄町別府","koaza":"","lat":34.575888,"lng":132.795515,"zip":"7392312"},{"town":"豊栄町吉原","koaza":"","lat":34.594534,"lng":132.867677,"zip":"7392315"},{"town":"西大沢一丁目","koaza":"","lat":34.374654,"lng":132.726691,"zip":"7390037"},{"town":"西大沢二丁目","koaza":"","lat":34.373362,"lng":132.722086,"zip":"7390037"},{"town":"入野中山台一丁目","koaza":"","lat":34.460706,"lng":132.857742,"zip":"7392209"},{"town":"入野中山台二丁目","koaza":"","lat":34.456536,"lng":132.856009,"zip":"7392209"},{"town":"入野中山台三丁目","koaza":"","lat":34.455927,"lng":132.85896,"zip":"7392209"},{"town":"入野中山台四丁目","koaza":"","lat":34.452718,"lng":132.862357,"zip":"7392209"},{"town":"入野中山台五丁目","koaza":"","lat":34.451617,"lng":132.860343,"zip":"7392209"},{"town":"八本松飯田一丁目","koaza":"","lat":34.448912,"lng":132.708515,"zip":"7390146"},{"town":"八本松飯田二丁目","koaza":"","lat":34.452762,"lng":132.710292,"zip":"7390146"},{"town":"八本松飯田三丁目","koaza":"","lat":34.458097,"lng":132.708631,"zip":"7390146"},{"town":"八本松飯田四丁目","koaza":"","lat":34.458193,"lng":132.704511,"zip":"7390146"},{"town":"八本松飯田五丁目","koaza":"","lat":34.457321,"lng":132.701819,"zip":"7390146"},{"town":"八本松飯田六丁目","koaza":"","lat":34.452812,"lng":132.704939,"zip":"7390146"},{"town":"八本松飯田七丁目","koaza":"","lat":34.450548,"lng":132.701434,"zip":"7390146"},{"town":"八本松飯田八丁目","koaza":"","lat":34.455166,"lng":132.700245,"zip":"7390146"},{"town":"八本松飯田九丁目","koaza":"","lat":34.458185,"lng":132.697822,"zip":"7390146"},{"town":"八本松町飯田","koaza":"","lat":34.439552,"lng":132.679593,"zip":"7390141"},{"town":"八本松町篠","koaza":"","lat":34.472739,"lng":132.727039,"zip":"7390131"},{"town":"八本松町正力","koaza":"","lat":34.463235,"lng":132.719842,"zip":"7390132"},{"town":"八本松町原","koaza":"","lat":34.417467,"lng":132.683606,"zip":"7390151"},{"town":"八本松町宗吉","koaza":"","lat":34.453875,"lng":132.681748,"zip":"7390145"},{"town":"八本松町米満","koaza":"","lat":34.451781,"lng":132.719673,"zip":"7390133"},{"town":"八本松西一丁目","koaza":"","lat":34.445446,"lng":132.681405,"zip":"7390147"},{"town":"八本松西二丁目","koaza":"","lat":34.442926,"lng":132.683805,"zip":"7390147"},{"town":"八本松西三丁目","koaza":"","lat":34.443494,"lng":132.68094,"zip":"7390147"},{"town":"八本松西四丁目","koaza":"","lat":34.444238,"lng":132.677843,"zip":"7390147"},{"town":"八本松西五丁目","koaza":"","lat":34.444816,"lng":132.674968,"zip":"7390147"},{"town":"八本松西六丁目","koaza":"","lat":34.448592,"lng":132.67499,"zip":"7390147"},{"town":"八本松西七丁目","koaza":"","lat":34.447184,"lng":132.671332,"zip":"7390147"},{"town":"八本松東一丁目","koaza":"","lat":34.443517,"lng":132.716863,"zip":"7390142"},{"town":"八本松東二丁目","koaza":"","lat":34.443021,"lng":132.711924,"zip":"7390142"},{"town":"八本松東三丁目","koaza":"","lat":34.44508,"lng":132.708714,"zip":"7390142"},{"town":"八本松東四丁目","koaza":"","lat":34.441077,"lng":132.705724,"zip":"7390142"},{"town":"八本松東五丁目","koaza":"","lat":34.443525,"lng":132.702027,"zip":"7390142"},{"town":"八本松東六丁目","koaza":"","lat":34.446545,"lng":132.703071,"zip":"7390142"},{"town":"八本松東七丁目","koaza":"","lat":34.446632,"lng":132.695321,"zip":"7390142"},{"town":"八本松南一丁目","koaza":"","lat":34.443756,"lng":132.699253,"zip":"7390144"},{"town":"八本松南二丁目","koaza":"","lat":34.440719,"lng":132.69558,"zip":"7390144"},{"town":"八本松南三丁目","koaza":"","lat":34.440033,"lng":132.700353,"zip":"7390144"},{"town":"八本松南四丁目","koaza":"","lat":34.436706,"lng":132.698821,"zip":"7390144"},{"town":"八本松南五丁目","koaza":"","lat":34.438243,"lng":132.695768,"zip":"7390144"},{"town":"八本松南六丁目","koaza":"","lat":34.434346,"lng":132.696301,"zip":"7390144"},{"town":"八本松南七丁目","koaza":"","lat":34.429492,"lng":132.696419,"zip":"7390144"},{"town":"八本松南八丁目","koaza":"","lat":34.432042,"lng":132.699909,"zip":"7390144"},{"town":"福富町上竹仁","koaza":"","lat":34.529455,"lng":132.714514,"zip":"7392301"},{"town":"福富町上戸野","koaza":"","lat":34.511174,"lng":132.772945,"zip":"7392304"},{"town":"福富町久芳","koaza":"","lat":34.550281,"lng":132.78119,"zip":"7392303"},{"town":"福富町下竹仁","koaza":"","lat":34.532496,"lng":132.748433,"zip":"7392302"},{"town":"三永一丁目","koaza":"","lat":34.389371,"lng":132.761422,"zip":"7390026"},{"town":"三永二丁目","koaza":"","lat":34.38563,"lng":132.760513,"zip":"7390026"},{"town":"三永三丁目","koaza":"","lat":34.389427,"lng":132.765292,"zip":"7390026"},{"town":"西条町田口","koaza":"","lat":34.389345,"lng":132.719283,"zip":"7390036"},{"town":"八本松町吉川","koaza":"","lat":34.385688,"lng":132.663212,"zip":"7390152"},{"town":"吉川工業団地","koaza":"","lat":34.38606,"lng":132.682944,"zip":"7390153"},{"town":"寺家産業団地","koaza":"","lat":34.434496,"lng":132.708333,"zip":"7390049"},{"town":"西条町寺家","koaza":"","lat":34.434825,"lng":132.728246,"zip":"7390041"},{"town":"寺家駅前","koaza":"","lat":34.4391,"lng":132.723449,"zip":"7390040"},{"town":"西条町寺家","koaza":"釜之河内","lat":34.441557,"lng":132.720455,"zip":"7390041"},{"town":"西条町寺家","koaza":"友松","lat":34.436466,"lng":132.72413,"zip":"7390041"},{"town":"西条町寺家","koaza":"久保之谷","lat":34.4271,"lng":132.730615,"zip":"7390041"},{"town":"西条町御薗宇","koaza":"勝谷","lat":34.41084,"lng":132.750066,"zip":"7390024"},{"town":"西条町御薗宇","koaza":"坪内","lat":34.412445,"lng":132.751124,"zip":"7390024"},{"town":"西条町土与丸","koaza":"城野橋","lat":34.427105,"lng":132.757579,"zip":"7390003"},{"town":"河内町中河内","koaza":"立石","lat":34.474001,"lng":132.890231,"zip":"7392201"}]