[{"town":"江田島町","koaza":"","lat":34.267325,"lng":132.475607,"zip":"7372131"},{"town":"江田島町秋月一丁目","koaza":"","lat":34.2379,"lng":132.493517,"zip":"7372131"},{"town":"江田島町秋月二丁目","koaza":"","lat":34.229955,"lng":132.490562,"zip":"7372131"},{"town":"江田島町秋月三丁目","koaza":"","lat":34.21915,"lng":132.489137,"zip":"7372131"},{"town":"江田島町秋月四丁目","koaza":"","lat":34.206816,"lng":132.489553,"zip":"7372131"},{"town":"江田島町大須一丁目","koaza":"","lat":34.28645,"lng":132.439996,"zip":"7372113"},{"town":"江田島町大須二丁目","koaza":"","lat":34.283531,"lng":132.435687,"zip":"7372113"},{"town":"江田島町切串一丁目","koaza":"","lat":34.288269,"lng":132.481606,"zip":"7372111"},{"town":"江田島町切串二丁目","koaza":"","lat":34.277471,"lng":132.479807,"zip":"7372111"},{"town":"江田島町切串三丁目","koaza":"","lat":34.280553,"lng":132.476258,"zip":"7372111"},{"town":"江田島町切串四丁目","koaza":"","lat":34.285219,"lng":132.468209,"zip":"7372111"},{"town":"江田島町切串五丁目","koaza":"","lat":34.283421,"lng":132.461229,"zip":"7372111"},{"town":"江田島町江南一丁目","koaza":"","lat":34.205944,"lng":132.475324,"zip":"7372132"},{"town":"江田島町江南二丁目","koaza":"","lat":34.198245,"lng":132.475839,"zip":"7372132"},{"town":"江田島町江南三丁目","koaza":"","lat":34.199794,"lng":132.481248,"zip":"7372132"},{"town":"江田島町幸ノ浦一丁目","koaza":"","lat":34.282581,"lng":132.455953,"zip":"7372112"},{"town":"江田島町幸ノ浦二丁目","koaza":"","lat":34.282988,"lng":132.449803,"zip":"7372112"},{"town":"江田島町国有無番地","koaza":"","lat":34.243778,"lng":132.474195,"zip":"7372123"},{"town":"江田島町小用一丁目","koaza":"","lat":34.246386,"lng":132.488866,"zip":"7372121"},{"town":"江田島町小用二丁目","koaza":"","lat":34.25146,"lng":132.488009,"zip":"7372121"},{"town":"江田島町小用四丁目","koaza":"","lat":34.264223,"lng":132.496235,"zip":"7372121"},{"town":"江田島町小用五丁目","koaza":"","lat":34.273466,"lng":132.494887,"zip":"7372121"},{"town":"江田島町中央一丁目","koaza":"","lat":34.245733,"lng":132.47775,"zip":"7372122"},{"town":"江田島町中央二丁目","koaza":"","lat":34.248584,"lng":132.479185,"zip":"7372122"},{"town":"江田島町中央三丁目","koaza":"","lat":34.244785,"lng":132.479678,"zip":"7372122"},{"town":"江田島町中央四丁目","koaza":"","lat":34.239389,"lng":132.477672,"zip":"7372122"},{"town":"江田島町中央五丁目","koaza":"","lat":34.238587,"lng":132.482519,"zip":"7372122"},{"town":"江田島町津久茂一丁目","koaza":"","lat":34.257734,"lng":132.448021,"zip":"7372126"},{"town":"江田島町津久茂二丁目","koaza":"","lat":34.249657,"lng":132.446753,"zip":"7372126"},{"town":"江田島町津久茂三丁目","koaza":"","lat":34.247436,"lng":132.446614,"zip":"7372126"},{"town":"江田島町宮ノ原一丁目","koaza":"","lat":34.24947,"lng":132.465574,"zip":"7372124"},{"town":"江田島町宮ノ原二丁目","koaza":"","lat":34.253349,"lng":132.460826,"zip":"7372124"},{"town":"江田島町宮ノ原三丁目","koaza":"","lat":34.262885,"lng":132.452882,"zip":"7372124"},{"town":"江田島町鷲部一丁目","koaza":"","lat":34.230293,"lng":132.481686,"zip":"7372133"},{"town":"江田島町鷲部二丁目","koaza":"","lat":34.229524,"lng":132.479684,"zip":"7372133"},{"town":"江田島町鷲部三丁目","koaza":"","lat":34.220241,"lng":132.476765,"zip":"7372133"},{"town":"江田島町鷲部四丁目","koaza":"","lat":34.213066,"lng":132.475119,"zip":"7372133"},{"town":"大柿町大君","koaza":"","lat":34.158571,"lng":132.480513,"zip":"7372212"},{"town":"大柿町大原","koaza":"","lat":34.156691,"lng":132.464341,"zip":"7372213"},{"town":"大柿町小古江","koaza":"","lat":34.186528,"lng":132.45622,"zip":"7372215"},{"town":"大柿町柿浦","koaza":"","lat":34.184591,"lng":132.467937,"zip":"7372211"},{"town":"大柿町飛渡瀬","koaza":"","lat":34.208104,"lng":132.463295,"zip":"7372101"},{"town":"大柿町深江","koaza":"","lat":34.154792,"lng":132.450377,"zip":"7372214"},{"town":"沖美町岡大王","koaza":"","lat":34.162104,"lng":132.398866,"zip":"7372311"},{"town":"沖美町高祖","koaza":"","lat":34.254828,"lng":132.394765,"zip":"7372315"},{"town":"沖美町是長","koaza":"","lat":34.232061,"lng":132.39507,"zip":"7372313"},{"town":"沖美町畑","koaza":"","lat":34.21092,"lng":132.40669,"zip":"7372312"},{"town":"沖美町美能","koaza":"","lat":34.25812,"lng":132.376281,"zip":"7372314"},{"town":"沖美町三吉","koaza":"","lat":34.238181,"lng":132.410107,"zip":"7372316"},{"town":"能美町鹿川","koaza":"","lat":34.193391,"lng":132.448108,"zip":"7372302"},{"town":"能美町高田","koaza":"","lat":34.240114,"lng":132.426136,"zip":"7372303"},{"town":"能美町中町","koaza":"","lat":34.219331,"lng":132.436147,"zip":"7372301"},{"town":"江田島町小用三丁目","koaza":"","lat":34.255464,"lng":132.495465,"zip":"7372121"},{"town":"大柿町大原","koaza":"鳥井元","lat":34.172045,"lng":132.465437,"zip":"7372213"},{"town":"大柿町大君","koaza":"塩形","lat":34.168374,"lng":132.478277,"zip":"7372212"}]