[{"town":"相渡","koaza":"","lat":34.841032,"lng":133.187456,"zip":"7293601"},{"town":"阿下","koaza":"","lat":34.733307,"lng":133.226369,"zip":"7201521"},{"town":"有木","koaza":"","lat":34.800072,"lng":133.355674,"zip":"7201701"},{"town":"井関","koaza":"","lat":34.692154,"lng":133.286487,"zip":"7201602"},{"town":"上野","koaza":"","lat":34.719544,"lng":133.344759,"zip":"7201624"},{"town":"大矢","koaza":"","lat":34.716094,"lng":133.289706,"zip":"7201601"},{"town":"小野","koaza":"","lat":34.835285,"lng":133.312667,"zip":"7201901"},{"town":"上","koaza":"","lat":34.696094,"lng":133.23332,"zip":"7201624"},{"town":"上豊松","koaza":"","lat":34.761622,"lng":133.3259,"zip":"7201702"},{"town":"亀石","koaza":"","lat":34.687723,"lng":133.263787,"zip":"7201523"},{"town":"木津和","koaza":"","lat":34.719499,"lng":133.193572,"zip":"7201416"},{"town":"草木","koaza":"","lat":34.774048,"lng":133.216,"zip":"7293512"},{"town":"桑木","koaza":"","lat":34.659562,"lng":133.210704,"zip":"7201414"},{"town":"小畠","koaza":"","lat":34.710162,"lng":133.256844,"zip":"7201522"},{"town":"坂瀬川","koaza":"","lat":34.659054,"lng":133.309573,"zip":"7201604"},{"town":"笹尾","koaza":"","lat":34.8018,"lng":133.315629,"zip":"7201703"},{"town":"階見","koaza":"","lat":34.673743,"lng":133.195014,"zip":"7201415"},{"town":"下豊松","koaza":"","lat":34.772845,"lng":133.347157,"zip":"7201704"},{"town":"新免","koaza":"","lat":34.832104,"lng":133.279923,"zip":"7201902"},{"town":"李","koaza":"","lat":34.74454,"lng":133.292973,"zip":"7201621"},{"town":"高蓋","koaza":"","lat":34.69441,"lng":133.206004,"zip":"7201410"},{"town":"高光","koaza":"","lat":34.804649,"lng":133.19817,"zip":"7293511"},{"town":"田頭","koaza":"","lat":34.733744,"lng":133.177433,"zip":"7293514"},{"town":"近田","koaza":"","lat":34.732186,"lng":133.325982,"zip":"7201622"},{"town":"父木野","koaza":"","lat":34.66267,"lng":133.243521,"zip":"7201413"},{"town":"常光","koaza":"","lat":34.687489,"lng":133.248939,"zip":"7201524"},{"town":"時安","koaza":"","lat":34.689671,"lng":133.332717,"zip":"7201603"},{"town":"中平","koaza":"","lat":34.789267,"lng":133.341978,"zip":"7201705"},{"town":"永野","koaza":"","lat":34.816813,"lng":133.221187,"zip":"7293602"},{"town":"花済","koaza":"","lat":34.748798,"lng":133.360985,"zip":"7201623"},{"town":"福永","koaza":"","lat":34.787779,"lng":133.158731,"zip":"7293515"},{"town":"古川","koaza":"","lat":34.822961,"lng":133.158246,"zip":"7293516"},{"town":"牧","koaza":"","lat":34.757257,"lng":133.185066,"zip":"7293513"},{"town":"光末","koaza":"","lat":34.683436,"lng":133.232898,"zip":"7201412"},{"town":"光信","koaza":"","lat":34.69343,"lng":133.2169,"zip":"7201411"},{"town":"安田","koaza":"","lat":34.750544,"lng":133.260776,"zip":"7201811"},{"town":"油木","koaza":"","lat":34.791387,"lng":133.277678,"zip":"7201812"}]