[{"town":"青葉台一丁目","koaza":"","lat":34.513455,"lng":133.428088,"zip":"7210911"},{"town":"青葉台二丁目","koaza":"","lat":34.517007,"lng":133.426456,"zip":"7210911"},{"town":"青葉台三丁目","koaza":"","lat":34.519052,"lng":133.426425,"zip":"7210911"},{"town":"青葉台四丁目","koaza":"","lat":34.51883,"lng":133.430537,"zip":"7210911"},{"town":"赤坂町大字赤坂","koaza":"","lat":34.482456,"lng":133.287339,"zip":"7210000"},{"town":"赤坂町大字早戸","koaza":"","lat":34.458476,"lng":133.306938,"zip":"7210000"},{"town":"曙町一丁目","koaza":"","lat":34.475324,"lng":133.397803,"zip":"7210952"},{"town":"曙町二丁目","koaza":"","lat":34.474649,"lng":133.404964,"zip":"7210952"},{"town":"曙町三丁目","koaza":"","lat":34.472437,"lng":133.396094,"zip":"7210952"},{"town":"曙町四丁目","koaza":"","lat":34.470447,"lng":133.403344,"zip":"7210952"},{"town":"曙町五丁目","koaza":"","lat":34.468809,"lng":133.394412,"zip":"7210952"},{"town":"曙町六丁目","koaza":"","lat":34.466504,"lng":133.401712,"zip":"7210952"},{"town":"旭町","koaza":"","lat":34.490819,"lng":133.374174,"zip":"7200033"},{"town":"芦田町大字上有地","koaza":"","lat":34.519997,"lng":133.255837,"zip":"7210000"},{"town":"芦田町大字向陽台","koaza":"","lat":34.524113,"lng":133.289906,"zip":"7210000"},{"town":"芦田町大字下有地","koaza":"","lat":34.521829,"lng":133.271769,"zip":"7210000"},{"town":"芦田町大字柞磨","koaza":"","lat":34.521767,"lng":133.231921,"zip":"7210000"},{"town":"芦田町大字福田","koaza":"","lat":34.521673,"lng":133.284186,"zip":"7210000"},{"town":"伊勢丘一丁目","koaza":"","lat":34.501369,"lng":133.42345,"zip":"7210915"},{"town":"伊勢丘二丁目","koaza":"","lat":34.503099,"lng":133.425095,"zip":"7210915"},{"town":"伊勢丘三丁目","koaza":"","lat":34.504863,"lng":133.418987,"zip":"7210915"},{"town":"伊勢丘四丁目","koaza":"","lat":34.504311,"lng":133.425671,"zip":"7210915"},{"town":"伊勢丘五丁目","koaza":"","lat":34.506093,"lng":133.422164,"zip":"7210915"},{"town":"伊勢丘六丁目","koaza":"","lat":34.506532,"lng":133.427568,"zip":"7210915"},{"town":"伊勢丘七丁目","koaza":"","lat":34.508984,"lng":133.430445,"zip":"7210915"},{"town":"伊勢丘八丁目","koaza":"","lat":34.505742,"lng":133.431133,"zip":"7210915"},{"town":"一文字町","koaza":"","lat":34.469654,"lng":133.408804,"zip":"7210953"},{"town":"今津町","koaza":"","lat":34.456189,"lng":133.25106,"zip":"7290111"},{"town":"今津町二丁目","koaza":"","lat":34.451396,"lng":133.256016,"zip":"7290111"},{"town":"今津町三丁目","koaza":"","lat":34.453112,"lng":133.255769,"zip":"7290111"},{"town":"今津町四丁目","koaza":"","lat":34.44978,"lng":133.252843,"zip":"7290111"},{"town":"今津町五丁目","koaza":"","lat":34.452041,"lng":133.252352,"zip":"7290111"},{"town":"今津町六丁目","koaza":"","lat":34.448678,"lng":133.243268,"zip":"7290111"},{"town":"今津町七丁目","koaza":"","lat":34.446145,"lng":133.244336,"zip":"7290111"},{"town":"今町","koaza":"","lat":34.489777,"lng":133.36773,"zip":"7200046"},{"town":"入船町一丁目","koaza":"","lat":34.488578,"lng":133.374131,"zip":"7200801"},{"town":"入船町二丁目","koaza":"","lat":34.486479,"lng":133.374173,"zip":"7200801"},{"town":"入船町三丁目","koaza":"","lat":34.485792,"lng":133.377728,"zip":"7200801"},{"town":"内海町","koaza":"","lat":34.357783,"lng":133.314323,"zip":"7222641"},{"town":"駅家町大字雨木","koaza":"","lat":34.608088,"lng":133.297774,"zip":"7210000"},{"town":"駅家町大字今岡","koaza":"","lat":34.521028,"lng":133.316764,"zip":"7210000"},{"town":"駅家町大字江良","koaza":"","lat":34.539221,"lng":133.321193,"zip":"7210000"},{"town":"駅家町大字大橋","koaza":"","lat":34.528246,"lng":133.307281,"zip":"7210000"},{"town":"駅家町大字上山守","koaza":"","lat":34.531145,"lng":133.330622,"zip":"7210000"},{"town":"駅家町大字倉光","koaza":"","lat":34.544371,"lng":133.324477,"zip":"7210000"},{"town":"駅家町大字下山守","koaza":"","lat":34.52855,"lng":133.341535,"zip":"7210000"},{"town":"駅家町大字助元","koaza":"","lat":34.582148,"lng":133.304607,"zip":"7210000"},{"town":"駅家町大字近田","koaza":"","lat":34.543765,"lng":133.312606,"zip":"7210000"},{"town":"駅家町大字中島","koaza":"","lat":34.552126,"lng":133.316196,"zip":"7210000"},{"town":"駅家町大字新山","koaza":"","lat":34.560591,"lng":133.307822,"zip":"7210000"},{"town":"駅家町大字服部永谷","koaza":"","lat":34.595299,"lng":133.322901,"zip":"7210000"},{"town":"駅家町大字服部本郷","koaza":"","lat":34.617175,"lng":133.307066,"zip":"7210000"},{"town":"駅家町大字坊寺","koaza":"","lat":34.535593,"lng":133.320737,"zip":"7210000"},{"town":"駅家町大字法成寺","koaza":"","lat":34.565178,"lng":133.325076,"zip":"7210000"},{"town":"駅家町大字万能倉","koaza":"","lat":34.549963,"lng":133.332748,"zip":"7210000"},{"town":"駅家町大字向永谷","koaza":"","lat":34.520354,"lng":133.29801,"zip":"7210000"},{"town":"駅家町大字弥生ケ丘","koaza":"","lat":34.550151,"lng":133.302451,"zip":"7210000"},{"town":"胡町","koaza":"","lat":34.493492,"lng":133.366633,"zip":"7200055"},{"town":"王子町一丁目","koaza":"","lat":34.486784,"lng":133.38406,"zip":"7210965"},{"town":"王子町二丁目","koaza":"","lat":34.489204,"lng":133.381605,"zip":"7210965"},{"town":"大谷台一丁目","koaza":"","lat":34.516823,"lng":133.441666,"zip":"7210914"},{"town":"大谷台二丁目","koaza":"","lat":34.513681,"lng":133.447341,"zip":"7210914"},{"town":"大谷台三丁目","koaza":"","lat":34.514379,"lng":133.44241,"zip":"7210914"},{"town":"沖野上町一丁目","koaza":"","lat":34.475358,"lng":133.377888,"zip":"7200825"},{"town":"沖野上町二丁目","koaza":"","lat":34.473585,"lng":133.376321,"zip":"7200825"},{"town":"沖野上町三丁目","koaza":"","lat":34.472111,"lng":133.373999,"zip":"7200825"},{"town":"沖野上町四丁目","koaza":"","lat":34.471802,"lng":133.370432,"zip":"7200825"},{"town":"沖野上町五丁目","koaza":"","lat":34.471373,"lng":133.367193,"zip":"7200825"},{"town":"沖野上町六丁目","koaza":"","lat":34.471879,"lng":133.364265,"zip":"7200825"},{"town":"卸町","koaza":"","lat":34.463127,"lng":133.402039,"zip":"7210954"},{"town":"笠岡町","koaza":"","lat":34.488413,"lng":133.36811,"zip":"7200044"},{"town":"神島町","koaza":"","lat":34.485571,"lng":133.340885,"zip":"7200091"},{"town":"春日池","koaza":"","lat":34.516971,"lng":133.421841,"zip":"7210917"},{"town":"春日台","koaza":"","lat":34.510135,"lng":133.426805,"zip":"7210916"},{"town":"春日町一丁目","koaza":"","lat":34.50732,"lng":133.404568,"zip":"7210907"},{"town":"春日町二丁目","koaza":"","lat":34.508959,"lng":133.409057,"zip":"7210907"},{"town":"春日町三丁目","koaza":"","lat":34.511792,"lng":133.414841,"zip":"7210907"},{"town":"春日町四丁目","koaza":"","lat":34.514111,"lng":133.41992,"zip":"7210907"},{"town":"春日町五丁目","koaza":"","lat":34.504206,"lng":133.407942,"zip":"7210907"},{"town":"春日町六丁目","koaza":"","lat":34.506231,"lng":133.412267,"zip":"7210907"},{"town":"春日町七丁目","koaza":"","lat":34.50892,"lng":133.415618,"zip":"7210907"},{"town":"春日町宇山","koaza":"","lat":34.526843,"lng":133.405918,"zip":"7210901"},{"town":"春日町浦上","koaza":"","lat":34.5227,"lng":133.421686,"zip":"7210902"},{"town":"春日町吉田","koaza":"","lat":34.509498,"lng":133.40563,"zip":"7210908"},{"town":"霞町一丁目","koaza":"","lat":34.484067,"lng":133.365557,"zip":"7200812"},{"town":"霞町二丁目","koaza":"","lat":34.483566,"lng":133.363662,"zip":"7200812"},{"town":"霞町三丁目","koaza":"","lat":34.483228,"lng":133.361757,"zip":"7200812"},{"town":"霞町四丁目","koaza":"","lat":34.483058,"lng":133.359858,"zip":"7200812"},{"town":"金江町金見","koaza":"","lat":34.429166,"lng":133.289505,"zip":"7200541"},{"town":"金江町藁江","koaza":"","lat":34.44255,"lng":133.295763,"zip":"7200542"},{"town":"神村町","koaza":"","lat":34.47282,"lng":133.271844,"zip":"7290112"},{"town":"加茂町","koaza":"","lat":34.598498,"lng":133.342732,"zip":"7202417"},{"town":"加茂町大字下加茂","koaza":"","lat":34.572507,"lng":133.337902,"zip":"7210000"},{"town":"川口町一丁目","koaza":"","lat":34.471008,"lng":133.387619,"zip":"7200822"},{"town":"川口町二丁目","koaza":"","lat":34.468385,"lng":133.38612,"zip":"7200822"},{"town":"川口町三丁目","koaza":"","lat":34.466245,"lng":133.384883,"zip":"7200822"},{"town":"川口町四丁目","koaza":"","lat":34.464183,"lng":133.383894,"zip":"7200822"},{"town":"川口町五丁目","koaza":"","lat":34.46246,"lng":133.381886,"zip":"7200822"},{"town":"神辺町","koaza":"","lat":34.580601,"lng":133.391262,"zip":"7202113"},{"town":"神辺町旭丘","koaza":"","lat":34.55868,"lng":133.432547,"zip":"7202113"},{"town":"神辺町大字上竹田","koaza":"","lat":34.544325,"lng":133.439285,"zip":"7210000"},{"town":"神辺町大字川北","koaza":"","lat":34.545661,"lng":133.37897,"zip":"7210000"},{"town":"神辺町大字川南","koaza":"","lat":34.531943,"lng":133.381121,"zip":"7210000"},{"town":"神辺町大字下竹田","koaza":"","lat":34.546007,"lng":133.418964,"zip":"7210000"},{"town":"神辺町大字新十九","koaza":"","lat":34.545496,"lng":133.360013,"zip":"7210000"},{"town":"神辺町大字新徳田","koaza":"","lat":34.547375,"lng":133.369449,"zip":"7210000"},{"town":"神辺町大字新道上","koaza":"","lat":34.543962,"lng":133.358553,"zip":"7210000"},{"town":"神辺町大字新湯野","koaza":"","lat":34.556822,"lng":133.389635,"zip":"7210000"},{"town":"神辺町大字八尋","koaza":"","lat":34.564325,"lng":133.423437,"zip":"7210000"},{"town":"北本庄一丁目","koaza":"","lat":34.493848,"lng":133.351159,"zip":"7200074"},{"town":"北本庄二丁目","koaza":"","lat":34.496506,"lng":133.347832,"zip":"7200074"},{"town":"北本庄三丁目","koaza":"","lat":34.495966,"lng":133.343622,"zip":"7200074"},{"town":"北本庄四丁目","koaza":"","lat":34.505111,"lng":133.349605,"zip":"7200074"},{"town":"北本庄五丁目","koaza":"","lat":34.505481,"lng":133.345456,"zip":"7200074"},{"town":"北美台","koaza":"","lat":34.501468,"lng":133.36466,"zip":"7200023"},{"town":"北吉津町一丁目","koaza":"","lat":34.494954,"lng":133.361086,"zip":"7200073"},{"town":"北吉津町二丁目","koaza":"","lat":34.496734,"lng":133.36443,"zip":"7200073"},{"town":"北吉津町三丁目","koaza":"","lat":34.499418,"lng":133.364203,"zip":"7200073"},{"town":"北吉津町四丁目","koaza":"","lat":34.497585,"lng":133.370767,"zip":"7200073"},{"town":"北吉津町五丁目","koaza":"","lat":34.498692,"lng":133.369068,"zip":"7200073"},{"town":"木之庄町一丁目","koaza":"","lat":34.494793,"lng":133.354788,"zip":"7200082"},{"town":"木之庄町二丁目","koaza":"","lat":34.498621,"lng":133.352982,"zip":"7200082"},{"town":"木之庄町三丁目","koaza":"","lat":34.49945,"lng":133.355795,"zip":"7200082"},{"town":"木之庄町四丁目","koaza":"","lat":34.495887,"lng":133.358899,"zip":"7200082"},{"town":"木之庄町五丁目","koaza":"","lat":34.498077,"lng":133.359655,"zip":"7200082"},{"town":"木之庄町六丁目","koaza":"","lat":34.502433,"lng":133.361458,"zip":"7200082"},{"town":"草戸町","koaza":"","lat":34.474221,"lng":133.350499,"zip":"7200831"},{"town":"草戸町一丁目","koaza":"","lat":34.479749,"lng":133.352791,"zip":"7200831"},{"town":"草戸町二丁目","koaza":"","lat":34.476968,"lng":133.355054,"zip":"7200831"},{"town":"草戸町三丁目","koaza":"","lat":34.476931,"lng":133.359999,"zip":"7200831"},{"town":"草戸町四丁目","koaza":"","lat":34.472648,"lng":133.359578,"zip":"7200831"},{"town":"草戸町五丁目","koaza":"","lat":34.468,"lng":133.364159,"zip":"7200831"},{"town":"熊野町","koaza":"","lat":34.423595,"lng":133.35686,"zip":"7200411"},{"town":"鋼管町","koaza":"","lat":34.466416,"lng":133.429895,"zip":"7210931"},{"town":"光南町一丁目","koaza":"","lat":34.48113,"lng":133.366457,"zip":"7200814"},{"town":"光南町二丁目","koaza":"","lat":34.478908,"lng":133.367143,"zip":"7200814"},{"town":"光南町三丁目","koaza":"","lat":34.476171,"lng":133.368384,"zip":"7200814"},{"town":"郷分町","koaza":"","lat":34.513588,"lng":133.334476,"zip":"7200093"},{"town":"向陽町一丁目","koaza":"","lat":34.505989,"lng":133.361285,"zip":"7200081"},{"town":"向陽町二丁目","koaza":"","lat":34.509671,"lng":133.361093,"zip":"7200081"},{"town":"蔵王町","koaza":"","lat":34.514378,"lng":133.389584,"zip":"7210971"},{"town":"蔵王町一丁目","koaza":"","lat":34.50585,"lng":133.387888,"zip":"7210971"},{"town":"蔵王町二丁目","koaza":"","lat":34.506216,"lng":133.394576,"zip":"7210971"},{"town":"蔵王町三丁目","koaza":"","lat":34.50867,"lng":133.392421,"zip":"7210971"},{"town":"蔵王町四丁目","koaza":"","lat":34.509872,"lng":133.389678,"zip":"7210971"},{"town":"蔵王町五丁目","koaza":"","lat":34.510735,"lng":133.398256,"zip":"7210971"},{"town":"蔵王町六丁目","koaza":"","lat":34.51136,"lng":133.39328,"zip":"7210971"},{"town":"桜馬場町","koaza":"","lat":34.495403,"lng":133.369474,"zip":"7200051"},{"town":"佐波町","koaza":"","lat":34.481213,"lng":133.339057,"zip":"7200835"},{"town":"三之丸町","koaza":"","lat":34.488492,"lng":133.360685,"zip":"7200066"},{"town":"地吹町","koaza":"","lat":34.480117,"lng":133.360095,"zip":"7200816"},{"town":"清水ケ丘","koaza":"","lat":34.507274,"lng":133.366439,"zip":"7200025"},{"town":"城興ケ丘","koaza":"","lat":34.492761,"lng":133.431521,"zip":"7210929"},{"town":"昭和町","koaza":"","lat":34.485324,"lng":133.368248,"zip":"7200808"},{"town":"城見町一丁目","koaza":"","lat":34.491162,"lng":133.365336,"zip":"7200054"},{"town":"城見町二丁目","koaza":"","lat":34.492192,"lng":133.365033,"zip":"7200054"},{"town":"新市町大字金丸","koaza":"","lat":34.622244,"lng":133.246049,"zip":"7210000"},{"town":"新市町大字上安井","koaza":"","lat":34.59064,"lng":133.276653,"zip":"7210000"},{"town":"新市町大字相方","koaza":"","lat":34.545144,"lng":133.275864,"zip":"7210000"},{"town":"新市町大字下安井","koaza":"","lat":34.5729,"lng":133.285664,"zip":"7210000"},{"town":"新市町大字新市","koaza":"","lat":34.55529,"lng":133.276232,"zip":"7210000"},{"town":"新市町大字常","koaza":"","lat":34.601987,"lng":133.278453,"zip":"7210000"},{"town":"新市町大字戸手","koaza":"","lat":34.556489,"lng":133.293417,"zip":"7210000"},{"town":"新市町大字藤尾","koaza":"","lat":34.639877,"lng":133.270543,"zip":"7210000"},{"town":"新市町大字宮内","koaza":"","lat":34.57621,"lng":133.272241,"zip":"7210000"},{"town":"新涯町一丁目","koaza":"","lat":34.464021,"lng":133.39142,"zip":"7210955"},{"town":"新涯町二丁目","koaza":"","lat":34.460391,"lng":133.402234,"zip":"7210955"},{"town":"新涯町三丁目","koaza":"","lat":34.460423,"lng":133.391311,"zip":"7210955"},{"town":"新涯町四丁目","koaza":"","lat":34.45809,"lng":133.39797,"zip":"7210955"},{"town":"新涯町五丁目","koaza":"","lat":34.456924,"lng":133.389876,"zip":"7210955"},{"town":"新涯町六丁目","koaza":"","lat":34.455009,"lng":133.397198,"zip":"7210955"},{"town":"新浜町一丁目","koaza":"","lat":34.477736,"lng":133.397247,"zip":"7210951"},{"town":"新浜町二丁目","koaza":"","lat":34.47809,"lng":133.40478,"zip":"7210951"},{"town":"住吉町","koaza":"","lat":34.485676,"lng":133.370971,"zip":"7200809"},{"town":"瀬戸町大字山北","koaza":"","lat":34.473252,"lng":133.314363,"zip":"7210000"},{"town":"瀬戸町大字地頭分","koaza":"","lat":34.461071,"lng":133.323045,"zip":"7210000"},{"town":"瀬戸町大字長和","koaza":"","lat":34.463231,"lng":133.3416,"zip":"7210000"},{"town":"千田町","koaza":"","lat":34.515964,"lng":133.360449,"zip":"7200017"},{"town":"千田町一丁目","koaza":"","lat":34.512218,"lng":133.366076,"zip":"7200017"},{"town":"千田町二丁目","koaza":"","lat":34.517797,"lng":133.368109,"zip":"7200017"},{"town":"千田町三丁目","koaza":"","lat":34.520547,"lng":133.376859,"zip":"7200017"},{"town":"千田町四丁目","koaza":"","lat":34.52444,"lng":133.373686,"zip":"7200017"},{"town":"千田町大字坂田","koaza":"","lat":34.511695,"lng":133.357751,"zip":"7210000"},{"town":"千田町大字千田","koaza":"","lat":34.518573,"lng":133.385867,"zip":"7210000"},{"town":"千田町大字藪路","koaza":"","lat":34.511108,"lng":133.363873,"zip":"7210000"},{"town":"大黒町","koaza":"","lat":34.491307,"lng":133.367307,"zip":"7200053"},{"town":"大門町一丁目","koaza":"","lat":34.498342,"lng":133.4359,"zip":"7210926"},{"town":"大門町二丁目","koaza":"","lat":34.495373,"lng":133.438412,"zip":"7210926"},{"town":"大門町三丁目","koaza":"","lat":34.493452,"lng":133.439249,"zip":"7210926"},{"town":"大門町四丁目","koaza":"","lat":34.491107,"lng":133.440862,"zip":"7210926"},{"town":"大門町五丁目","koaza":"","lat":34.487126,"lng":133.441721,"zip":"7210926"},{"town":"大門町六丁目","koaza":"","lat":34.490017,"lng":133.448771,"zip":"7210926"},{"town":"大門町七丁目","koaza":"","lat":34.494219,"lng":133.450543,"zip":"7210926"},{"town":"大門町八丁目","koaza":"","lat":34.495255,"lng":133.445678,"zip":"7210926"},{"town":"大門町旭","koaza":"","lat":34.497518,"lng":133.453995,"zip":"7210924"},{"town":"大門町大字日之出丘","koaza":"","lat":34.501655,"lng":133.443493,"zip":"7210000"},{"town":"大門町大門","koaza":"","lat":34.503246,"lng":133.43684,"zip":"7210921"},{"town":"大門町津之下","koaza":"","lat":34.490334,"lng":133.434475,"zip":"7210927"},{"town":"大門町野々浜","koaza":"","lat":34.501516,"lng":133.448651,"zip":"7210923"},{"town":"高西町一丁目","koaza":"","lat":34.447283,"lng":133.240001,"zip":"7290106"},{"town":"高西町二丁目","koaza":"","lat":34.444403,"lng":133.242142,"zip":"7290106"},{"town":"高西町三丁目","koaza":"","lat":34.443275,"lng":133.238351,"zip":"7290106"},{"town":"高西町四丁目","koaza":"","lat":34.445068,"lng":133.238092,"zip":"7290106"},{"town":"高西町川尻","koaza":"","lat":34.447789,"lng":133.228952,"zip":"7290101"},{"town":"高西町真田","koaza":"","lat":34.448586,"lng":133.238982,"zip":"7290102"},{"town":"高西町南","koaza":"","lat":34.42974,"lng":133.242942,"zip":"7290103"},{"town":"高美台","koaza":"","lat":34.503336,"lng":133.36547,"zip":"7200024"},{"town":"宝町","koaza":"","lat":34.489131,"lng":133.36615,"zip":"7200045"},{"town":"多治米町一丁目","koaza":"","lat":34.47349,"lng":133.381765,"zip":"7200824"},{"town":"多治米町二丁目","koaza":"","lat":34.471177,"lng":133.380352,"zip":"7200824"},{"town":"多治米町三丁目","koaza":"","lat":34.46923,"lng":133.378736,"zip":"7200824"},{"town":"多治米町四丁目","koaza":"","lat":34.467505,"lng":133.376958,"zip":"7200824"},{"town":"多治米町五丁目","koaza":"","lat":34.466372,"lng":133.37466,"zip":"7200824"},{"town":"多治米町六丁目","koaza":"","lat":34.465177,"lng":133.372873,"zip":"7200824"},{"town":"田尻町","koaza":"","lat":34.420539,"lng":133.380667,"zip":"7200203"},{"town":"長者町","koaza":"","lat":34.491318,"lng":133.352553,"zip":"7200075"},{"town":"千代田町一丁目","koaza":"","lat":34.463742,"lng":133.369279,"zip":"7200823"},{"town":"千代田町二丁目","koaza":"","lat":34.460026,"lng":133.374537,"zip":"7200823"},{"town":"津之郷町大字加屋","koaza":"","lat":34.482521,"lng":133.301858,"zip":"7210000"},{"town":"津之郷町大字津之郷","koaza":"","lat":34.495132,"lng":133.302843,"zip":"7210000"},{"town":"坪生町","koaza":"","lat":34.528326,"lng":133.433326,"zip":"7210903"},{"town":"坪生町一丁目","koaza":"","lat":34.522463,"lng":133.435043,"zip":"7210903"},{"town":"坪生町二丁目","koaza":"","lat":34.525404,"lng":133.434996,"zip":"7210903"},{"town":"坪生町三丁目","koaza":"","lat":34.524075,"lng":133.447294,"zip":"7210903"},{"town":"坪生町四丁目","koaza":"","lat":34.528177,"lng":133.442645,"zip":"7210903"},{"town":"坪生町五丁目","koaza":"","lat":34.530067,"lng":133.441682,"zip":"7210903"},{"town":"坪生町六丁目","koaza":"","lat":34.531231,"lng":133.448334,"zip":"7210903"},{"town":"坪生町南一丁目","koaza":"","lat":34.519389,"lng":133.43546,"zip":"7210904"},{"town":"坪生町南二丁目","koaza":"","lat":34.518829,"lng":133.437582,"zip":"7210904"},{"town":"坪生町南三丁目","koaza":"","lat":34.519489,"lng":133.441744,"zip":"7210904"},{"town":"手城町一丁目","koaza":"","lat":34.48569,"lng":133.386365,"zip":"7210966"},{"town":"手城町二丁目","koaza":"","lat":34.486124,"lng":133.389968,"zip":"7210966"},{"town":"手城町三丁目","koaza":"","lat":34.486564,"lng":133.394012,"zip":"7210966"},{"town":"手城町四丁目","koaza":"","lat":34.487114,"lng":133.398364,"zip":"7210966"},{"town":"寺町","koaza":"","lat":34.490558,"lng":133.371521,"zip":"7200041"},{"town":"道三町","koaza":"","lat":34.481909,"lng":133.363089,"zip":"7200813"},{"town":"東陽台一丁目","koaza":"","lat":34.516419,"lng":133.429459,"zip":"7210912"},{"town":"東陽台二丁目","koaza":"","lat":34.516152,"lng":133.433104,"zip":"7210912"},{"town":"鞆町後地","koaza":"","lat":34.386922,"lng":133.376993,"zip":"7200202"},{"town":"奈良津町","koaza":"","lat":34.50602,"lng":133.378709,"zip":"7200022"},{"town":"奈良津町一丁目","koaza":"","lat":34.502482,"lng":133.369161,"zip":"7200022"},{"town":"奈良津町二丁目","koaza":"","lat":34.503966,"lng":133.371472,"zip":"7200022"},{"town":"奈良津町三丁目","koaza":"","lat":34.503683,"lng":133.375267,"zip":"7200022"},{"town":"西桜町一丁目","koaza":"","lat":34.484459,"lng":133.357347,"zip":"7200818"},{"town":"西桜町二丁目","koaza":"","lat":34.4847,"lng":133.355175,"zip":"7200818"},{"town":"西新涯町一丁目","koaza":"","lat":34.459811,"lng":133.383976,"zip":"7210958"},{"town":"西新涯町二丁目","koaza":"","lat":34.457522,"lng":133.381953,"zip":"7210958"},{"town":"西深津町一丁目","koaza":"","lat":34.493441,"lng":133.381183,"zip":"7210975"},{"town":"西深津町二丁目","koaza":"","lat":34.495543,"lng":133.38049,"zip":"7210975"},{"town":"西深津町三丁目","koaza":"","lat":34.495545,"lng":133.383255,"zip":"7210975"},{"town":"西深津町四丁目","koaza":"","lat":34.497763,"lng":133.381386,"zip":"7210975"},{"town":"西深津町五丁目","koaza":"","lat":34.499751,"lng":133.377736,"zip":"7210975"},{"town":"西深津町六丁目","koaza":"","lat":34.500619,"lng":133.383605,"zip":"7210975"},{"town":"西深津町七丁目","koaza":"","lat":34.503764,"lng":133.381854,"zip":"7210975"},{"town":"西町一丁目","koaza":"","lat":34.487173,"lng":133.356539,"zip":"7200067"},{"town":"西町二丁目","koaza":"","lat":34.490113,"lng":133.357065,"zip":"7200067"},{"town":"西町三丁目","koaza":"","lat":34.491913,"lng":133.355846,"zip":"7200067"},{"town":"沼隈町大字上山南","koaza":"","lat":34.429932,"lng":133.314714,"zip":"7210000"},{"town":"沼隈町大字草深","koaza":"","lat":34.390349,"lng":133.327045,"zip":"7210000"},{"town":"沼隈町大字下山南","koaza":"","lat":34.405036,"lng":133.307828,"zip":"7210000"},{"town":"沼隈町大字常石","koaza":"","lat":34.389211,"lng":133.30212,"zip":"7210000"},{"town":"沼隈町大字中山南","koaza":"","lat":34.409191,"lng":133.340179,"zip":"7210000"},{"town":"沼隈町大字能登原","koaza":"","lat":34.380628,"lng":133.352322,"zip":"7210000"},{"town":"能島一丁目","koaza":"","lat":34.509017,"lng":133.419125,"zip":"7210906"},{"town":"能島二丁目","koaza":"","lat":34.510302,"lng":133.421952,"zip":"7210906"},{"town":"能島三丁目","koaza":"","lat":34.512657,"lng":133.424389,"zip":"7210906"},{"town":"野上町一丁目","koaza":"","lat":34.480328,"lng":133.363804,"zip":"7200815"},{"town":"野上町二丁目","koaza":"","lat":34.478585,"lng":133.363552,"zip":"7200815"},{"town":"野上町三丁目","koaza":"","lat":34.475768,"lng":133.36485,"zip":"7200815"},{"town":"延広町","koaza":"","lat":34.486442,"lng":133.365185,"zip":"7200064"},{"town":"走島町","koaza":"","lat":34.343495,"lng":133.437178,"zip":"7200204"},{"town":"花園町一丁目","koaza":"","lat":34.481116,"lng":133.372088,"zip":"7200803"},{"town":"花園町二丁目","koaza":"","lat":34.480405,"lng":133.373733,"zip":"7200803"},{"town":"東川口町一丁目","koaza":"","lat":34.479051,"lng":133.385696,"zip":"7200821"},{"town":"東川口町二丁目","koaza":"","lat":34.478296,"lng":133.382267,"zip":"7200821"},{"town":"東川口町三丁目","koaza":"","lat":34.476014,"lng":133.384913,"zip":"7200821"},{"town":"東川口町四丁目","koaza":"","lat":34.475096,"lng":133.388367,"zip":"7200821"},{"town":"東川口町五丁目","koaza":"","lat":34.474181,"lng":133.39085,"zip":"7200821"},{"town":"東桜町","koaza":"","lat":34.486372,"lng":133.361286,"zip":"7200065"},{"town":"東手城町一丁目","koaza":"","lat":34.48613,"lng":133.403982,"zip":"7210962"},{"town":"東手城町二丁目","koaza":"","lat":34.481512,"lng":133.404763,"zip":"7210962"},{"town":"東手城町三丁目","koaza":"","lat":34.485901,"lng":133.408127,"zip":"7210962"},{"town":"東手城町四丁目","koaza":"","lat":34.484815,"lng":133.409288,"zip":"7210962"},{"town":"東深津町一丁目","koaza":"","lat":34.49894,"lng":133.387563,"zip":"7210974"},{"town":"東深津町二丁目","koaza":"","lat":34.494504,"lng":133.390256,"zip":"7210974"},{"town":"東深津町三丁目","koaza":"","lat":34.495325,"lng":133.39594,"zip":"7210974"},{"town":"東深津町四丁目","koaza":"","lat":34.490094,"lng":133.388419,"zip":"7210974"},{"town":"東深津町五丁目","koaza":"","lat":34.490511,"lng":133.384369,"zip":"7210974"},{"town":"東深津町六丁目","koaza":"","lat":34.494587,"lng":133.385908,"zip":"7210974"},{"town":"東深津町七丁目","koaza":"","lat":34.497221,"lng":133.386279,"zip":"7210974"},{"town":"東町一丁目","koaza":"","lat":34.490162,"lng":133.36912,"zip":"7200052"},{"town":"東町二丁目","koaza":"","lat":34.491674,"lng":133.369226,"zip":"7200052"},{"town":"東町三丁目","koaza":"","lat":34.493525,"lng":133.369431,"zip":"7200052"},{"town":"東明王台","koaza":"","lat":34.472281,"lng":133.345881,"zip":"7200839"},{"town":"東村町","koaza":"","lat":34.466708,"lng":133.224002,"zip":"7290251"},{"town":"東吉津町","koaza":"","lat":34.498358,"lng":133.375354,"zip":"7200071"},{"town":"引野町","koaza":"","lat":34.485865,"lng":133.41514,"zip":"7210942"},{"town":"引野町一丁目","koaza":"","lat":34.496811,"lng":133.40567,"zip":"7210942"},{"town":"引野町二丁目","koaza":"","lat":34.499045,"lng":133.415811,"zip":"7210942"},{"town":"引野町三丁目","koaza":"","lat":34.493325,"lng":133.414687,"zip":"7210942"},{"town":"引野町四丁目","koaza":"","lat":34.493399,"lng":133.410009,"zip":"7210942"},{"town":"引野町五丁目","koaza":"","lat":34.49213,"lng":133.404486,"zip":"7210942"},{"town":"引野町北一丁目","koaza":"","lat":34.498431,"lng":133.407685,"zip":"7210941"},{"town":"引野町北二丁目","koaza":"","lat":34.501234,"lng":133.410634,"zip":"7210941"},{"town":"引野町北三丁目","koaza":"","lat":34.501186,"lng":133.415974,"zip":"7210941"},{"town":"引野町北四丁目","koaza":"","lat":34.503762,"lng":133.416785,"zip":"7210941"},{"town":"引野町北五丁目","koaza":"","lat":34.500772,"lng":133.420419,"zip":"7210941"},{"town":"引野町東","koaza":"","lat":34.496861,"lng":133.427611,"zip":"7210944"},{"town":"引野町南一丁目","koaza":"","lat":34.490894,"lng":133.42044,"zip":"7210945"},{"town":"引野町南二丁目","koaza":"","lat":34.49149,"lng":133.426361,"zip":"7210945"},{"town":"引野町南三丁目","koaza":"","lat":34.487532,"lng":133.422051,"zip":"7210945"},{"town":"久松台一丁目","koaza":"","lat":34.502765,"lng":133.358033,"zip":"7200083"},{"town":"久松台二丁目","koaza":"","lat":34.505891,"lng":133.356528,"zip":"7200083"},{"town":"久松台三丁目","koaza":"","lat":34.500121,"lng":133.349964,"zip":"7200083"},{"town":"日吉台一丁目","koaza":"","lat":34.510429,"lng":133.403519,"zip":"7210972"},{"town":"日吉台二丁目","koaza":"","lat":34.515019,"lng":133.405543,"zip":"7210972"},{"town":"日吉台三丁目","koaza":"","lat":34.511402,"lng":133.408823,"zip":"7210972"},{"town":"藤江町","koaza":"","lat":34.415022,"lng":133.290434,"zip":"7200543"},{"town":"伏見町","koaza":"","lat":34.488811,"lng":133.364073,"zip":"7200062"},{"town":"船町","koaza":"","lat":34.486919,"lng":133.367973,"zip":"7200043"},{"town":"古野上町","koaza":"","lat":34.482399,"lng":133.357124,"zip":"7200817"},{"town":"平成台","koaza":"","lat":34.488444,"lng":133.42574,"zip":"7210943"},{"town":"本郷町","koaza":"","lat":34.484203,"lng":133.241607,"zip":"7290252"},{"town":"本庄町中一丁目","koaza":"","lat":34.490937,"lng":133.350514,"zip":"7200076"},{"town":"本庄町中二丁目","koaza":"","lat":34.489541,"lng":133.349128,"zip":"7200076"},{"town":"本庄町中三丁目","koaza":"","lat":34.491348,"lng":133.344684,"zip":"7200076"},{"town":"本庄町中四丁目","koaza":"","lat":34.492383,"lng":133.347661,"zip":"7200076"},{"town":"本町","koaza":"","lat":34.49346,"lng":133.364566,"zip":"7200056"},{"town":"幕山台一丁目","koaza":"","lat":34.512677,"lng":133.431056,"zip":"7210913"},{"town":"幕山台二丁目","koaza":"","lat":34.510424,"lng":133.433319,"zip":"7210913"},{"town":"幕山台三丁目","koaza":"","lat":34.508567,"lng":133.437855,"zip":"7210913"},{"town":"幕山台四丁目","koaza":"","lat":34.509136,"lng":133.442939,"zip":"7210913"},{"town":"幕山台五丁目","koaza":"","lat":34.512224,"lng":133.443921,"zip":"7210913"},{"town":"幕山台六丁目","koaza":"","lat":34.51107,"lng":133.440239,"zip":"7210913"},{"town":"幕山台七丁目","koaza":"","lat":34.513916,"lng":133.437678,"zip":"7210913"},{"town":"幕山台八丁目","koaza":"","lat":34.515699,"lng":133.436043,"zip":"7210913"},{"town":"松永町","koaza":"","lat":34.451309,"lng":133.259182,"zip":"7290104"},{"town":"松永町一丁目","koaza":"","lat":34.450044,"lng":133.255435,"zip":"7290104"},{"town":"松永町二丁目","koaza":"","lat":34.446982,"lng":133.24932,"zip":"7290104"},{"town":"松永町三丁目","koaza":"","lat":34.447742,"lng":133.255816,"zip":"7290104"},{"town":"松永町四丁目","koaza":"","lat":34.449835,"lng":133.261369,"zip":"7290104"},{"town":"松永町五丁目","koaza":"","lat":34.445269,"lng":133.260981,"zip":"7290104"},{"town":"松永町六丁目","koaza":"","lat":34.443523,"lng":133.255119,"zip":"7290104"},{"town":"松永町七丁目","koaza":"","lat":34.440259,"lng":133.256651,"zip":"7290104"},{"town":"松浜町一丁目","koaza":"","lat":34.484317,"lng":133.37383,"zip":"7200802"},{"town":"松浜町二丁目","koaza":"","lat":34.482928,"lng":133.375473,"zip":"7200802"},{"town":"松浜町三丁目","koaza":"","lat":34.481022,"lng":133.377159,"zip":"7200802"},{"town":"松浜町四丁目","koaza":"","lat":34.478041,"lng":133.378604,"zip":"7200802"},{"town":"丸之内一丁目","koaza":"","lat":34.491277,"lng":133.361872,"zip":"7200061"},{"town":"丸之内二丁目","koaza":"","lat":34.493176,"lng":133.362161,"zip":"7200061"},{"town":"御門町一丁目","koaza":"","lat":34.481172,"lng":133.369348,"zip":"7200805"},{"town":"御門町二丁目","koaza":"","lat":34.479511,"lng":133.369887,"zip":"7200805"},{"town":"御門町三丁目","koaza":"","lat":34.477744,"lng":133.370178,"zip":"7200805"},{"town":"緑町","koaza":"","lat":34.476033,"lng":133.372927,"zip":"7200804"},{"town":"港町一丁目","koaza":"","lat":34.484441,"lng":133.38016,"zip":"7210964"},{"town":"港町二丁目","koaza":"","lat":34.483794,"lng":133.382239,"zip":"7210964"},{"town":"南今津町","koaza":"","lat":34.440192,"lng":133.244049,"zip":"7290115"},{"town":"南蔵王町一丁目","koaza":"","lat":34.502277,"lng":133.388141,"zip":"7210973"},{"town":"南蔵王町二丁目","koaza":"","lat":34.504045,"lng":133.394445,"zip":"7210973"},{"town":"南蔵王町三丁目","koaza":"","lat":34.500713,"lng":133.394939,"zip":"7210973"},{"town":"南蔵王町四丁目","koaza":"","lat":34.498477,"lng":133.395197,"zip":"7210973"},{"town":"南蔵王町五丁目","koaza":"","lat":34.503795,"lng":133.401283,"zip":"7210973"},{"town":"南蔵王町六丁目","koaza":"","lat":34.500803,"lng":133.404299,"zip":"7210973"},{"town":"南手城町一丁目","koaza":"","lat":34.481835,"lng":133.385816,"zip":"7210963"},{"town":"南手城町二丁目","koaza":"","lat":34.481344,"lng":133.390434,"zip":"7210963"},{"town":"南手城町三丁目","koaza":"","lat":34.481622,"lng":133.394631,"zip":"7210963"},{"town":"南手城町四丁目","koaza":"","lat":34.482167,"lng":133.39908,"zip":"7210963"},{"town":"南本庄一丁目","koaza":"","lat":34.487257,"lng":133.352181,"zip":"7200077"},{"town":"南本庄二丁目","koaza":"","lat":34.48638,"lng":133.347288,"zip":"7200077"},{"town":"南本庄三丁目","koaza":"","lat":34.483865,"lng":133.352951,"zip":"7200077"},{"town":"南本庄四丁目","koaza":"","lat":34.483858,"lng":133.348661,"zip":"7200077"},{"town":"南本庄五丁目","koaza":"","lat":34.481443,"lng":133.350078,"zip":"7200077"},{"town":"南町","koaza":"","lat":34.483486,"lng":133.371047,"zip":"7200806"},{"town":"南松永町一丁目","koaza":"","lat":34.443648,"lng":133.248833,"zip":"7290105"},{"town":"南松永町二丁目","koaza":"","lat":34.438465,"lng":133.249559,"zip":"7290105"},{"town":"南松永町三丁目","koaza":"","lat":34.43264,"lng":133.250597,"zip":"7290105"},{"town":"南松永町四丁目","koaza":"","lat":34.426951,"lng":133.252574,"zip":"7290105"},{"town":"箕沖町","koaza":"","lat":34.44017,"lng":133.425218,"zip":"7210956"},{"town":"箕島町","koaza":"","lat":34.446871,"lng":133.406734,"zip":"7210957"},{"town":"水呑町","koaza":"","lat":34.449414,"lng":133.382535,"zip":"7200832"},{"town":"水呑向丘","koaza":"","lat":34.43957,"lng":133.382766,"zip":"7200833"},{"town":"御船町一丁目","koaza":"","lat":34.488156,"lng":133.370002,"zip":"7200042"},{"town":"御船町二丁目","koaza":"","lat":34.488206,"lng":133.371869,"zip":"7200042"},{"town":"宮前町一丁目","koaza":"","lat":34.453061,"lng":133.259514,"zip":"7290113"},{"town":"宮前町二丁目","koaza":"","lat":34.454087,"lng":133.261156,"zip":"7290113"},{"town":"御幸町大字上岩成","koaza":"","lat":34.548079,"lng":133.346589,"zip":"7210000"},{"town":"御幸町大字下岩成","koaza":"","lat":34.541157,"lng":133.348024,"zip":"7210000"},{"town":"御幸町大字中津原","koaza":"","lat":34.524082,"lng":133.359144,"zip":"7210000"},{"town":"御幸町大字森脇","koaza":"","lat":34.532542,"lng":133.350854,"zip":"7210000"},{"town":"明王台一丁目","koaza":"","lat":34.477019,"lng":133.342549,"zip":"7200834"},{"town":"明王台二丁目","koaza":"","lat":34.472826,"lng":133.341629,"zip":"7200834"},{"town":"明王台三丁目","koaza":"","lat":34.476791,"lng":133.34002,"zip":"7200834"},{"town":"明王台四丁目","koaza":"","lat":34.47948,"lng":133.336519,"zip":"7200834"},{"town":"明王台五丁目","koaza":"","lat":34.477251,"lng":133.334907,"zip":"7200834"},{"town":"明神町一丁目","koaza":"","lat":34.490855,"lng":133.393571,"zip":"7210961"},{"town":"明神町二丁目","koaza":"","lat":34.491733,"lng":133.398226,"zip":"7210961"},{"town":"三吉町一丁目","koaza":"","lat":34.494078,"lng":133.37294,"zip":"7200031"},{"town":"三吉町二丁目","koaza":"","lat":34.496207,"lng":133.372555,"zip":"7200031"},{"town":"三吉町三丁目","koaza":"","lat":34.493027,"lng":133.377208,"zip":"7200031"},{"town":"三吉町四丁目","koaza":"","lat":34.494898,"lng":133.376878,"zip":"7200031"},{"town":"三吉町五丁目","koaza":"","lat":34.496617,"lng":133.376481,"zip":"7200031"},{"town":"三吉町南一丁目","koaza":"","lat":34.49122,"lng":133.377633,"zip":"7200032"},{"town":"三吉町南二丁目","koaza":"","lat":34.48921,"lng":133.378065,"zip":"7200032"},{"town":"明治町","koaza":"","lat":34.483143,"lng":133.36828,"zip":"7200807"},{"town":"元町","koaza":"","lat":34.487578,"lng":133.364964,"zip":"7200063"},{"town":"紅葉町","koaza":"","lat":34.484751,"lng":133.361576,"zip":"7200811"},{"town":"柳津町","koaza":"","lat":34.442642,"lng":133.273154,"zip":"7290114"},{"town":"柳津町一丁目","koaza":"","lat":34.439351,"lng":133.259738,"zip":"7290114"},{"town":"柳津町二丁目","koaza":"","lat":34.440274,"lng":133.264571,"zip":"7290114"},{"town":"柳津町三丁目","koaza":"","lat":34.43778,"lng":133.262969,"zip":"7290114"},{"town":"柳津町四丁目","koaza":"","lat":34.43648,"lng":133.265703,"zip":"7290114"},{"town":"柳津町五丁目","koaza":"","lat":34.438141,"lng":133.267988,"zip":"7290114"},{"town":"山手町","koaza":"","lat":34.49865,"lng":133.322587,"zip":"7200092"},{"town":"山手町一丁目","koaza":"","lat":34.489529,"lng":133.33135,"zip":"7200092"},{"town":"山手町二丁目","koaza":"","lat":34.489842,"lng":133.334326,"zip":"7200092"},{"town":"山手町三丁目","koaza":"","lat":34.494199,"lng":133.331064,"zip":"7200092"},{"town":"山手町四丁目","koaza":"","lat":34.495446,"lng":133.333578,"zip":"7200092"},{"town":"山手町五丁目","koaza":"","lat":34.490698,"lng":133.338656,"zip":"7200092"},{"town":"山手町六丁目","koaza":"","lat":34.496812,"lng":133.338844,"zip":"7200092"},{"town":"山手町七丁目","koaza":"","lat":34.499526,"lng":133.335595,"zip":"7200092"},{"town":"山野町大字矢川","koaza":"","lat":34.651411,"lng":133.333325,"zip":"7210000"},{"town":"山野町大字山野","koaza":"","lat":34.665002,"lng":133.370502,"zip":"7210000"},{"town":"横尾町","koaza":"","lat":34.524524,"lng":133.366154,"zip":"7200011"},{"town":"横尾町一丁目","koaza":"","lat":34.523225,"lng":133.364077,"zip":"7200011"},{"town":"横尾町二丁目","koaza":"","lat":34.520262,"lng":133.3625,"zip":"7200011"},{"town":"吉津町","koaza":"","lat":34.495553,"lng":133.366068,"zip":"7200072"},{"town":"緑陽町一丁目","koaza":"","lat":34.507141,"lng":133.369337,"zip":"7200021"},{"town":"緑陽町二丁目","koaza":"","lat":34.508577,"lng":133.371136,"zip":"7200021"},{"town":"若松町","koaza":"","lat":34.492288,"lng":133.372649,"zip":"7200034"},{"town":"佐波町","koaza":"小橋","lat":34.485545,"lng":133.335715,"zip":"7200835"},{"town":"鞆町鞆","koaza":"","lat":34.385482,"lng":133.381099,"zip":"7200201"},{"town":"水呑町","koaza":"大谷","lat":34.436851,"lng":133.386013,"zip":"7200832"},{"town":"加茂町","koaza":"百谷","lat":34.594549,"lng":133.329009,"zip":"7202417"},{"town":"加茂町","koaza":"下加茂","lat":34.56914,"lng":133.339874,"zip":"7202417"},{"town":"加茂町","koaza":"中野","lat":34.57459,"lng":133.349629,"zip":"7202417"},{"town":"加茂町","koaza":"上加茂","lat":34.565203,"lng":133.348689,"zip":"7202417"},{"town":"加茂町","koaza":"八軒屋","lat":34.556388,"lng":133.348791,"zip":"7202417"},{"town":"加茂町","koaza":"中野一丁目","lat":34.57311,"lng":133.348296,"zip":"7202417"},{"town":"加茂町","koaza":"中野三丁目","lat":34.570822,"lng":133.348148,"zip":"7202417"},{"town":"加茂町","koaza":"芦原","lat":34.584725,"lng":133.352333,"zip":"7202417"},{"town":"加茂町","koaza":"中野二丁目","lat":34.571629,"lng":133.350021,"zip":"7202417"},{"town":"神辺町","koaza":"道上","lat":34.55603,"lng":133.356665,"zip":"7202113"},{"town":"神辺町","koaza":"十三軒屋","lat":34.549323,"lng":133.354857,"zip":"7202113"},{"town":"千田町","koaza":"坂田","lat":34.510879,"lng":133.360259,"zip":"7200017"},{"town":"神辺町","koaza":"新道上","lat":34.543432,"lng":133.35822,"zip":"7202113"},{"town":"神辺町","koaza":"西中条","lat":34.568438,"lng":133.372764,"zip":"7202113"},{"town":"加茂町","koaza":"粟根","lat":34.590417,"lng":133.357006,"zip":"7202417"},{"town":"神辺町","koaza":"十九軒屋","lat":34.545495,"lng":133.361481,"zip":"7202113"},{"town":"千田町","koaza":"坂田北","lat":34.516277,"lng":133.360204,"zip":"7200017"},{"town":"神辺町","koaza":"川南","lat":34.533942,"lng":133.377271,"zip":"7202113"},{"town":"神辺町","koaza":"川北","lat":34.546773,"lng":133.376006,"zip":"7202113"},{"town":"神辺町","koaza":"徳田","lat":34.554452,"lng":133.369483,"zip":"7202113"},{"town":"神辺町","koaza":"新徳田","lat":34.546906,"lng":133.369239,"zip":"7202113"},{"town":"千田町","koaza":"藪路","lat":34.510039,"lng":133.363681,"zip":"7200017"},{"town":"神辺町","koaza":"箱田","lat":34.559074,"lng":133.373625,"zip":"7202113"},{"town":"神辺町","koaza":"東中条","lat":34.575502,"lng":133.371492,"zip":"7202113"},{"town":"千田町","koaza":"千田","lat":34.518198,"lng":133.378127,"zip":"7200017"},{"town":"神辺町","koaza":"湯野","lat":34.555274,"lng":133.385434,"zip":"7202113"},{"town":"神辺町","koaza":"新湯野","lat":34.5574,"lng":133.389381,"zip":"7202113"},{"town":"神辺町","koaza":"平野","lat":34.551441,"lng":133.398969,"zip":"7202113"},{"town":"神辺町","koaza":"下御領","lat":34.562853,"lng":133.399722,"zip":"7202113"},{"town":"神辺町","koaza":"上御領","lat":34.574539,"lng":133.413581,"zip":"7202113"},{"town":"神辺町","koaza":"下竹田","lat":34.548573,"lng":133.416771,"zip":"7202113"},{"town":"神辺町","koaza":"八尋","lat":34.564752,"lng":133.426201,"zip":"7202113"},{"town":"神辺町","koaza":"上竹田","lat":34.544983,"lng":133.436246,"zip":"7202113"},{"town":"神辺町","koaza":"新十九","lat":34.545582,"lng":133.360126,"zip":"7202113"}]