[{"town":"小梨町","koaza":"","lat":34.365902,"lng":132.928533,"zip":"7250011"},{"town":"塩町一丁目","koaza":"","lat":34.334763,"lng":132.910791,"zip":"7250025"},{"town":"塩町二丁目","koaza":"","lat":34.336882,"lng":132.904448,"zip":"7250025"},{"town":"塩町三丁目","koaza":"","lat":34.335175,"lng":132.905391,"zip":"7250025"},{"town":"塩町四丁目","koaza":"","lat":34.333431,"lng":132.907231,"zip":"7250025"},{"town":"下野町","koaza":"","lat":34.348071,"lng":132.88425,"zip":"7250012"},{"town":"新庄町","koaza":"","lat":34.398567,"lng":132.897976,"zip":"7250003"},{"town":"高崎町","koaza":"","lat":34.337013,"lng":132.935335,"zip":"7292313"},{"town":"竹原町","koaza":"","lat":34.337971,"lng":132.897068,"zip":"7250021"},{"town":"忠海町","koaza":"","lat":34.3438,"lng":132.974142,"zip":"7292311"},{"town":"忠海床浦一丁目","koaza":"","lat":34.333654,"lng":132.986627,"zip":"7292314"},{"town":"忠海床浦二丁目","koaza":"","lat":34.340551,"lng":132.986351,"zip":"7292314"},{"town":"忠海床浦三丁目","koaza":"","lat":34.335115,"lng":132.979173,"zip":"7292314"},{"town":"忠海床浦四丁目","koaza":"","lat":34.333456,"lng":132.980944,"zip":"7292314"},{"town":"忠海長浜一丁目","koaza":"","lat":34.338431,"lng":132.964316,"zip":"7292315"},{"town":"忠海長浜二丁目","koaza":"","lat":34.336354,"lng":132.960419,"zip":"7292315"},{"town":"忠海長浜三丁目","koaza":"","lat":34.336591,"lng":132.970935,"zip":"7292315"},{"town":"忠海中町一丁目","koaza":"","lat":34.335556,"lng":132.990253,"zip":"7292316"},{"town":"忠海中町二丁目","koaza":"","lat":34.33813,"lng":132.990535,"zip":"7292316"},{"town":"忠海中町三丁目","koaza":"","lat":34.342613,"lng":132.986545,"zip":"7292316"},{"town":"忠海中町四丁目","koaza":"","lat":34.341073,"lng":132.992982,"zip":"7292316"},{"town":"忠海東町一丁目","koaza":"","lat":34.33661,"lng":132.99739,"zip":"7292317"},{"town":"忠海東町二丁目","koaza":"","lat":34.338406,"lng":132.996777,"zip":"7292317"},{"town":"忠海東町三丁目","koaza":"","lat":34.340711,"lng":132.997512,"zip":"7292317"},{"town":"忠海東町四丁目","koaza":"","lat":34.340474,"lng":133.002777,"zip":"7292317"},{"town":"忠海東町五丁目","koaza":"","lat":34.335332,"lng":133.001711,"zip":"7292317"},{"town":"田ノ浦一丁目","koaza":"","lat":34.342125,"lng":132.913294,"zip":"7250023"},{"town":"田ノ浦二丁目","koaza":"","lat":34.345425,"lng":132.915299,"zip":"7250023"},{"town":"田ノ浦三丁目","koaza":"","lat":34.351335,"lng":132.916928,"zip":"7250023"},{"town":"田万里町","koaza":"","lat":34.408753,"lng":132.829209,"zip":"7250001"},{"town":"中央一丁目","koaza":"","lat":34.340737,"lng":132.911866,"zip":"7250026"},{"town":"中央二丁目","koaza":"","lat":34.341768,"lng":132.910127,"zip":"7250026"},{"town":"中央三丁目","koaza":"","lat":34.343287,"lng":132.908639,"zip":"7250026"},{"town":"中央四丁目","koaza":"","lat":34.339655,"lng":132.905882,"zip":"7250026"},{"town":"中央五丁目","koaza":"","lat":34.341385,"lng":132.905811,"zip":"7250026"},{"town":"仁賀町","koaza":"","lat":34.375553,"lng":132.827885,"zip":"7250005"},{"town":"西野町","koaza":"","lat":34.395853,"lng":132.861151,"zip":"7250002"},{"town":"東野町","koaza":"","lat":34.368472,"lng":132.871548,"zip":"7250004"},{"town":"福田町","koaza":"","lat":34.348066,"lng":132.952165,"zip":"7292312"},{"town":"本町一丁目","koaza":"","lat":34.345156,"lng":132.912637,"zip":"7250022"},{"town":"本町二丁目","koaza":"","lat":34.348469,"lng":132.914786,"zip":"7250022"},{"town":"本町三丁目","koaza":"","lat":34.346948,"lng":132.90985,"zip":"7250022"},{"town":"本町四丁目","koaza":"","lat":34.349213,"lng":132.907501,"zip":"7250022"},{"town":"港町一丁目","koaza":"","lat":34.338189,"lng":132.91561,"zip":"7250024"},{"town":"港町二丁目","koaza":"","lat":34.335682,"lng":132.916302,"zip":"7250024"},{"town":"港町三丁目","koaza":"","lat":34.331943,"lng":132.919706,"zip":"7250024"},{"town":"港町四丁目","koaza":"","lat":34.332224,"lng":132.917604,"zip":"7250024"},{"town":"港町五丁目","koaza":"","lat":34.328007,"lng":132.921866,"zip":"7250024"},{"town":"吉名町","koaza":"","lat":34.321734,"lng":132.869175,"zip":"7250013"},{"town":"下野町","koaza":"上中通","lat":34.354971,"lng":132.900015,"zip":"7250012"},{"town":"下野町","koaza":"西中通","lat":34.35251,"lng":132.90045,"zip":"7250012"},{"town":"下野町","koaza":"秋井","lat":34.350533,"lng":132.9028,"zip":"7250012"}]