[{"town":"東町","koaza":"","lat":37.170515,"lng":138.243006,"zip":"9420003"},{"town":"石橋","koaza":"","lat":37.158568,"lng":138.236817,"zip":"9420074"},{"town":"石橋一丁目","koaza":"","lat":37.164518,"lng":138.238298,"zip":"9420074"},{"town":"石橋二丁目","koaza":"","lat":37.163787,"lng":138.234515,"zip":"9420074"},{"town":"板倉区青葉","koaza":"","lat":37.073913,"lng":138.287936,"zip":"9440150"},{"town":"板倉区稲増","koaza":"","lat":37.07972,"lng":138.284161,"zip":"9440101"},{"town":"板倉区大池新田","koaza":"","lat":37.002373,"lng":138.306043,"zip":"9430000"},{"town":"板倉区大野新田","koaza":"","lat":37.020689,"lng":138.324537,"zip":"9440119"},{"town":"板倉区釜塚","koaza":"","lat":37.026232,"lng":138.316173,"zip":"9440123"},{"town":"板倉区上中島新田","koaza":"","lat":37.058571,"lng":138.280337,"zip":"9440147"},{"town":"板倉区上福田新田","koaza":"","lat":37.07667,"lng":138.301762,"zip":"9440102"},{"town":"板倉区久々野","koaza":"","lat":36.994344,"lng":138.343741,"zip":"9440124"},{"town":"板倉区熊川","koaza":"","lat":37.042811,"lng":138.292763,"zip":"9440139"},{"town":"板倉区熊川新田","koaza":"","lat":37.038993,"lng":138.289332,"zip":"9440138"},{"town":"板倉区栗澤","koaza":"","lat":37.031572,"lng":138.33015,"zip":"9430000"},{"town":"板倉区玄藤寺新田","koaza":"","lat":37.040072,"lng":138.352884,"zip":"9440115"},{"town":"板倉区小石原","koaza":"","lat":37.047417,"lng":138.271454,"zip":"9440146"},{"town":"板倉区国川","koaza":"","lat":37.042635,"lng":138.312817,"zip":"9440133"},{"town":"板倉区菰立","koaza":"","lat":37.011386,"lng":138.296655,"zip":"9440129"},{"town":"板倉区坂井","koaza":"","lat":37.058488,"lng":138.302943,"zip":"9440107"},{"town":"板倉区猿供養寺","koaza":"","lat":37.013075,"lng":138.3285,"zip":"9440125"},{"town":"板倉区沢田","koaza":"","lat":37.057196,"lng":138.310076,"zip":"9440106"},{"town":"板倉区下田屋","koaza":"","lat":37.058714,"lng":138.285346,"zip":"9440149"},{"town":"板倉区下米沢","koaza":"","lat":37.0475,"lng":138.2845,"zip":"9440144"},{"town":"板倉区関田","koaza":"","lat":37.007956,"lng":138.373524,"zip":"9440116"},{"town":"板倉区関根","koaza":"","lat":37.058446,"lng":138.292063,"zip":"9440143"},{"town":"板倉区曽根田","koaza":"","lat":37.045925,"lng":138.306656,"zip":"9440132"},{"town":"板倉区田井","koaza":"","lat":37.067997,"lng":138.286042,"zip":"9440141"},{"town":"板倉区高野","koaza":"","lat":37.063548,"lng":138.295725,"zip":"9440142"},{"town":"板倉区達野","koaza":"","lat":37.03774,"lng":138.34108,"zip":"9440114"},{"town":"板倉区田屋","koaza":"","lat":37.053736,"lng":138.313988,"zip":"9440105"},{"town":"板倉区筒方","koaza":"","lat":37.020508,"lng":138.34502,"zip":"9440117"},{"town":"板倉区戸狩","koaza":"","lat":37.073641,"lng":138.296485,"zip":"9440109"},{"town":"板倉区長塚","koaza":"","lat":37.064107,"lng":138.309706,"zip":"9440104"},{"town":"板倉区中之宮","koaza":"","lat":37.031312,"lng":138.296501,"zip":"9440122"},{"town":"板倉区長嶺","koaza":"","lat":37.065604,"lng":138.301571,"zip":"9440108"},{"town":"板倉区中四ツ屋","koaza":"","lat":37.049645,"lng":138.315885,"zip":"9440112"},{"town":"板倉区機織","koaza":"","lat":37.011604,"lng":138.311063,"zip":"9440128"},{"town":"板倉区針","koaza":"","lat":37.049944,"lng":138.296546,"zip":"9440131"},{"town":"板倉区東山寺","koaza":"","lat":37.00773,"lng":138.345304,"zip":"9440126"},{"town":"板倉区福王寺","koaza":"","lat":37.039177,"lng":138.308023,"zip":"9440134"},{"town":"板倉区不動新田","koaza":"","lat":37.022328,"lng":138.308391,"zip":"9440127"},{"town":"板倉区別所","koaza":"","lat":37.044713,"lng":138.326574,"zip":"9440113"},{"town":"板倉区緑ケ丘","koaza":"","lat":37.07057,"lng":138.288613,"zip":"9440151"},{"town":"板倉区南中島","koaza":"","lat":37.051849,"lng":138.28126,"zip":"9440145"},{"town":"板倉区南四ツ屋新田","koaza":"","lat":37.075343,"lng":138.305216,"zip":"9440103"},{"town":"板倉区宮島","koaza":"","lat":37.048451,"lng":138.311125,"zip":"9440111"},{"town":"板倉区山越","koaza":"","lat":37.033317,"lng":138.286587,"zip":"9440136"},{"town":"板倉区山部","koaza":"","lat":37.037031,"lng":138.300051,"zip":"9440121"},{"town":"板倉区横町","koaza":"","lat":37.052167,"lng":138.288307,"zip":"9440148"},{"town":"板倉区吉増","koaza":"","lat":37.037585,"lng":138.283755,"zip":"9440137"},{"town":"板倉区米増","koaza":"","lat":37.035731,"lng":138.293078,"zip":"9440135"},{"town":"稲田一丁目","koaza":"","lat":37.117118,"lng":138.268746,"zip":"9430154"},{"town":"稲田二丁目","koaza":"","lat":37.120182,"lng":138.26639,"zip":"9430154"},{"town":"稲田三丁目","koaza":"","lat":37.121548,"lng":138.267624,"zip":"9430154"},{"town":"稲田四丁目","koaza":"","lat":37.11964,"lng":138.27095,"zip":"9430154"},{"town":"浦川原区有島","koaza":"","lat":37.151725,"lng":138.427831,"zip":"9420306"},{"town":"浦川原区飯室","koaza":"","lat":37.165443,"lng":138.380094,"zip":"9420336"},{"town":"浦川原区飯室新田","koaza":"","lat":37.159538,"lng":138.380523,"zip":"9430000"},{"town":"浦川原区今熊","koaza":"","lat":37.152788,"lng":138.379666,"zip":"9420335"},{"town":"浦川原区岩室","koaza":"","lat":37.137774,"lng":138.40409,"zip":"9420332"},{"town":"浦川原区印内","koaza":"","lat":37.16164,"lng":138.395934,"zip":"9420338"},{"town":"浦川原区大栃山","koaza":"","lat":37.170977,"lng":138.438033,"zip":"9420312"},{"town":"浦川原区釜淵","koaza":"","lat":37.161409,"lng":138.434595,"zip":"9420307"},{"town":"浦川原区上猪子田","koaza":"","lat":37.175539,"lng":138.480096,"zip":"9420301"},{"town":"浦川原区上岡","koaza":"","lat":37.171874,"lng":138.393559,"zip":"9420318"},{"town":"浦川原区上柿野","koaza":"","lat":37.174193,"lng":138.428788,"zip":"9420311"},{"town":"浦川原区熊沢","koaza":"","lat":37.141561,"lng":138.423375,"zip":"9420321"},{"town":"浦川原区顕聖寺","koaza":"","lat":37.15937,"lng":138.421883,"zip":"9420314"},{"town":"浦川原区小蒲生田","koaza":"","lat":37.169835,"lng":138.455505,"zip":"9420308"},{"town":"浦川原区小谷島","koaza":"","lat":37.149514,"lng":138.482335,"zip":"9420302"},{"town":"浦川原区桜島","koaza":"","lat":37.150583,"lng":138.396648,"zip":"9420333"},{"town":"浦川原区下猪子田","koaza":"","lat":37.154381,"lng":138.466358,"zip":"9420303"},{"town":"浦川原区下柿野","koaza":"","lat":37.165423,"lng":138.424072,"zip":"9420313"},{"town":"浦川原区真光寺","koaza":"","lat":37.115058,"lng":138.426181,"zip":"9420323"},{"town":"浦川原区杉坪","koaza":"","lat":37.169281,"lng":138.415416,"zip":"9420317"},{"town":"浦川原区谷","koaza":"","lat":37.101392,"lng":138.44006,"zip":"9420324"},{"town":"浦川原区坪野","koaza":"","lat":37.11386,"lng":138.412301,"zip":"9420325"},{"town":"浦川原区中猪子田","koaza":"","lat":37.154948,"lng":138.455908,"zip":"9420304"},{"town":"浦川原区長走","koaza":"","lat":37.151799,"lng":138.405523,"zip":"9420331"},{"town":"浦川原区東俣","koaza":"","lat":37.175419,"lng":138.418301,"zip":"9420319"},{"town":"浦川原区菱田","koaza":"","lat":37.151494,"lng":138.415056,"zip":"9420327"},{"town":"浦川原区日向","koaza":"","lat":37.16139,"lng":138.402671,"zip":"9420339"},{"town":"浦川原区法定寺","koaza":"","lat":37.131393,"lng":138.407554,"zip":"9420326"},{"town":"浦川原区六日町","koaza":"","lat":37.165606,"lng":138.406831,"zip":"9420316"},{"town":"浦川原区虫川","koaza":"","lat":37.159504,"lng":138.446033,"zip":"9420305"},{"town":"浦川原区山印内","koaza":"","lat":37.163497,"lng":138.389134,"zip":"9420337"},{"town":"浦川原区山本","koaza":"","lat":37.149876,"lng":138.388043,"zip":"9420334"},{"town":"浦川原区横川","koaza":"","lat":37.162261,"lng":138.413174,"zip":"9420315"},{"town":"浦川原区横住","koaza":"","lat":37.125776,"lng":138.419436,"zip":"9420322"},{"town":"大字青木","koaza":"","lat":37.082565,"lng":138.238654,"zip":"9430000"},{"town":"大字青野","koaza":"","lat":37.164162,"lng":138.349539,"zip":"9430000"},{"town":"大字赤塚新田","koaza":"","lat":37.131295,"lng":138.26824,"zip":"9430000"},{"town":"大字朝日","koaza":"","lat":37.078164,"lng":138.220242,"zip":"9430000"},{"town":"大字愛宕国分","koaza":"","lat":37.157124,"lng":138.230334,"zip":"9430000"},{"town":"大字天野原新田","koaza":"","lat":37.092471,"lng":138.288905,"zip":"9430000"},{"town":"大字荒町","koaza":"","lat":37.088406,"lng":138.244989,"zip":"9430000"},{"town":"大字荒屋","koaza":"","lat":37.143524,"lng":138.279146,"zip":"9430000"},{"town":"大字有間川","koaza":"","lat":37.15987,"lng":138.147704,"zip":"9430000"},{"town":"大字飯","koaza":"","lat":37.126103,"lng":138.233008,"zip":"9430000"},{"town":"大字飯田","koaza":"","lat":37.097827,"lng":138.334942,"zip":"9430000"},{"town":"大字飯塚","koaza":"","lat":37.150221,"lng":138.302925,"zip":"9430000"},{"town":"大字池","koaza":"","lat":37.099663,"lng":138.293177,"zip":"9430000"},{"town":"大字石川","koaza":"","lat":37.16279,"lng":138.335124,"zip":"9430000"},{"town":"大字石沢","koaza":"","lat":37.072199,"lng":138.254638,"zip":"9430000"},{"town":"大字石橋新田","koaza":"","lat":37.191335,"lng":138.2836,"zip":"9430000"},{"town":"大字市野江","koaza":"","lat":37.136758,"lng":138.278277,"zip":"9430000"},{"town":"大字稲","koaza":"","lat":37.099669,"lng":138.307195,"zip":"9430000"},{"town":"大字稲谷","koaza":"","lat":37.087351,"lng":138.31947,"zip":"9430000"},{"town":"大字稲荷","koaza":"","lat":37.069019,"lng":138.245241,"zip":"9430000"},{"town":"大字茨沢","koaza":"","lat":37.113079,"lng":138.279812,"zip":"9430000"},{"town":"大字今池","koaza":"","lat":37.096699,"lng":138.272343,"zip":"9430000"},{"town":"大字今泉","koaza":"","lat":37.075615,"lng":138.245849,"zip":"9430000"},{"town":"大字岩木","koaza":"","lat":37.133022,"lng":138.215841,"zip":"9430000"},{"town":"大字牛池新田","koaza":"","lat":37.153137,"lng":138.195221,"zip":"9430000"},{"town":"大字後谷","koaza":"","lat":37.083574,"lng":138.192258,"zip":"9430000"},{"town":"大字宇津尾","koaza":"","lat":37.125045,"lng":138.197316,"zip":"9430000"},{"town":"大字夷浜","koaza":"","lat":37.203722,"lng":138.29008,"zip":"9430000"},{"town":"大字夷浜新田","koaza":"","lat":37.197409,"lng":138.287814,"zip":"9430000"},{"town":"大字小池","koaza":"","lat":37.134798,"lng":138.12562,"zip":"9430000"},{"town":"大字大口","koaza":"","lat":37.079902,"lng":138.346719,"zip":"9430000"},{"town":"大字大貫","koaza":"","lat":37.108009,"lng":138.224893,"zip":"9430000"},{"town":"大字大場","koaza":"","lat":37.161593,"lng":138.215114,"zip":"9430000"},{"town":"大字大渕","koaza":"","lat":37.109295,"lng":138.126781,"zip":"9430000"},{"town":"大字岡崎新田","koaza":"","lat":37.177694,"lng":138.337995,"zip":"9430000"},{"town":"大字岡原","koaza":"","lat":37.082795,"lng":138.262343,"zip":"9430000"},{"town":"大字鍛冶免分","koaza":"","lat":37.155917,"lng":138.145521,"zip":"9430000"},{"town":"大字春日","koaza":"","lat":37.152115,"lng":138.219557,"zip":"9430000"},{"town":"大字春日新田","koaza":"","lat":37.169716,"lng":138.257201,"zip":"9430000"},{"town":"大字上荒浜","koaza":"","lat":37.196053,"lng":138.274672,"zip":"9430000"},{"town":"大字上池部","koaza":"","lat":37.115277,"lng":138.302172,"zip":"9430000"},{"town":"大字上稲田","koaza":"","lat":37.122362,"lng":138.263602,"zip":"9430000"},{"town":"大字上源入","koaza":"","lat":37.159807,"lng":138.259588,"zip":"9430000"},{"town":"大字上五貫野","koaza":"","lat":37.171402,"lng":138.303213,"zip":"9430000"},{"town":"大字上島","koaza":"","lat":37.131552,"lng":138.258265,"zip":"9430000"},{"town":"大字上正善寺","koaza":"","lat":37.133326,"lng":138.180559,"zip":"9430000"},{"town":"大字上新町","koaza":"","lat":37.099286,"lng":138.28732,"zip":"9430000"},{"town":"大字上曽根","koaza":"","lat":37.091305,"lng":138.320008,"zip":"9430000"},{"town":"大字上千原","koaza":"","lat":37.165313,"lng":138.288317,"zip":"9430000"},{"town":"大字上綱子","koaza":"","lat":37.106824,"lng":138.17553,"zip":"9430000"},{"town":"大字上富川","koaza":"","lat":37.091644,"lng":138.301288,"zip":"9430000"},{"town":"大字上中田","koaza":"","lat":37.089908,"lng":138.237725,"zip":"9430000"},{"town":"大字上名柄","koaza":"","lat":37.166926,"lng":138.317463,"zip":"9430000"},{"town":"大字上野田","koaza":"","lat":37.122171,"lng":138.297332,"zip":"9430000"},{"town":"大字上箱井","koaza":"","lat":37.075658,"lng":138.261459,"zip":"9430000"},{"town":"大字上真砂","koaza":"","lat":37.142143,"lng":138.304733,"zip":"9430000"},{"town":"大字上門前","koaza":"","lat":37.068083,"lng":138.217245,"zip":"9430000"},{"town":"大字上湯谷","koaza":"","lat":37.109269,"lng":138.186446,"zip":"9430000"},{"town":"大字上吉野","koaza":"","lat":37.172842,"lng":138.332675,"zip":"9430000"},{"town":"大字鴨島","koaza":"","lat":37.116229,"lng":138.274285,"zip":"9430000"},{"town":"大字川端","koaza":"","lat":37.154322,"lng":138.303121,"zip":"9430000"},{"town":"大字木島","koaza":"","lat":37.068942,"lng":138.271014,"zip":"9430000"},{"town":"大字木田","koaza":"","lat":37.148987,"lng":138.244809,"zip":"9430000"},{"town":"大字北方","koaza":"","lat":37.084602,"lng":138.357567,"zip":"9430000"},{"town":"大字北新保","koaza":"","lat":37.147793,"lng":138.295631,"zip":"9430000"},{"town":"大字北田中","koaza":"","lat":37.134312,"lng":138.307681,"zip":"9430000"},{"town":"大字北谷","koaza":"","lat":37.098674,"lng":138.135561,"zip":"9430000"},{"town":"大字北田屋新田","koaza":"","lat":37.143192,"lng":138.248743,"zip":"9430000"},{"town":"大字儀明","koaza":"","lat":37.114629,"lng":138.193566,"zip":"9430000"},{"town":"大字京田","koaza":"","lat":37.097358,"lng":138.231352,"zip":"9430000"},{"town":"大字桐原","koaza":"","lat":37.136738,"lng":138.287436,"zip":"9430000"},{"town":"大字熊塚","koaza":"","lat":37.093357,"lng":138.303173,"zip":"9430000"},{"town":"大字黒井","koaza":"","lat":37.189972,"lng":138.269526,"zip":"9430000"},{"town":"大字黒田","koaza":"","lat":37.081302,"lng":138.225512,"zip":"9430000"},{"town":"大字小泉","koaza":"","lat":37.157773,"lng":138.31442,"zip":"9430000"},{"town":"大字高和町","koaza":"","lat":37.106206,"lng":138.324783,"zip":"9430000"},{"town":"大字五ケ所新田","koaza":"","lat":37.091349,"lng":138.267225,"zip":"9430000"},{"town":"大字小猿屋","koaza":"","lat":37.148532,"lng":138.273177,"zip":"9430000"},{"town":"大字小猿屋新田","koaza":"","lat":37.141607,"lng":138.27271,"zip":"9430000"},{"town":"大字居多","koaza":"","lat":37.166456,"lng":138.213427,"zip":"9430000"},{"town":"大字小滝","koaza":"","lat":37.070663,"lng":138.22061,"zip":"9430000"},{"town":"大字五智国分","koaza":"","lat":37.161309,"lng":138.208818,"zip":"9430000"},{"town":"大字五野井","koaza":"","lat":37.159954,"lng":138.332544,"zip":"9430000"},{"town":"大字駒林","koaza":"","lat":37.146167,"lng":138.321662,"zip":"9430000"},{"town":"大字子安","koaza":"","lat":37.104732,"lng":138.279368,"zip":"9430000"},{"town":"大字三交","koaza":"","lat":37.15728,"lng":138.242291,"zip":"9430000"},{"town":"大字三田","koaza":"","lat":37.151174,"lng":138.266435,"zip":"9430000"},{"town":"大字三田新田","koaza":"","lat":37.156688,"lng":138.267201,"zip":"9430000"},{"town":"大字塩荷谷","koaza":"","lat":37.106403,"lng":138.203462,"zip":"9430000"},{"town":"大字塩屋","koaza":"","lat":37.158961,"lng":138.243275,"zip":"9430000"},{"town":"大字塩屋新田","koaza":"","lat":37.161577,"lng":138.249241,"zip":"9430000"},{"town":"大字四ケ所","koaza":"","lat":37.120987,"lng":138.274497,"zip":"9430000"},{"town":"大字七ケ所新田","koaza":"","lat":37.084741,"lng":138.259014,"zip":"9430000"},{"town":"大字島田","koaza":"","lat":37.082014,"lng":138.275624,"zip":"9430000"},{"town":"大字島田上新田","koaza":"","lat":37.073448,"lng":138.27693,"zip":"9430000"},{"town":"大字島田下新田","koaza":"","lat":37.091969,"lng":138.27021,"zip":"9430000"},{"town":"大字下荒浜","koaza":"","lat":37.195,"lng":138.281484,"zip":"9430000"},{"town":"大字下池部","koaza":"","lat":37.115836,"lng":138.293337,"zip":"9430000"},{"town":"大字下稲田","koaza":"","lat":37.124601,"lng":138.268881,"zip":"9430000"},{"town":"大字下稲塚","koaza":"","lat":37.084775,"lng":138.312998,"zip":"9430000"},{"town":"大字下源入","koaza":"","lat":37.16438,"lng":138.257979,"zip":"9430000"},{"town":"大字下五貫野","koaza":"","lat":37.174373,"lng":138.293292,"zip":"9430000"},{"town":"大字下正善寺","koaza":"","lat":37.129585,"lng":138.206427,"zip":"9430000"},{"town":"大字下新田","koaza":"","lat":37.089471,"lng":138.260652,"zip":"9430000"},{"town":"大字下新町","koaza":"","lat":37.101419,"lng":138.281517,"zip":"9430000"},{"town":"大字下曽根","koaza":"","lat":37.091531,"lng":138.312453,"zip":"9430000"},{"town":"大字下綱子","koaza":"","lat":37.122445,"lng":138.151009,"zip":"9430000"},{"town":"大字下百々","koaza":"","lat":37.147325,"lng":138.314316,"zip":"9430000"},{"town":"大字下富川","koaza":"","lat":37.099008,"lng":138.29816,"zip":"9430000"},{"town":"大字下中田","koaza":"","lat":37.092793,"lng":138.243548,"zip":"9430000"},{"town":"大字下名柄","koaza":"","lat":37.166186,"lng":138.308368,"zip":"9430000"},{"town":"大字下野田","koaza":"","lat":37.130091,"lng":138.294705,"zip":"9430000"},{"town":"大字下箱井","koaza":"","lat":37.093037,"lng":138.263141,"zip":"9430000"},{"town":"大字下馬場","koaza":"","lat":37.075169,"lng":138.220368,"zip":"9430000"},{"town":"大字下真砂","koaza":"","lat":37.176035,"lng":138.287132,"zip":"9430000"},{"town":"大字下門前","koaza":"","lat":37.159204,"lng":138.253922,"zip":"9430000"},{"town":"大字下吉新田","koaza":"","lat":37.176724,"lng":138.282843,"zip":"9430000"},{"town":"大字下吉野","koaza":"","lat":37.173569,"lng":138.320832,"zip":"9430000"},{"town":"大字下四ツ屋","koaza":"","lat":37.079655,"lng":138.304346,"zip":"9430000"},{"town":"大字十二ノ木","koaza":"","lat":37.089945,"lng":138.341432,"zip":"9430000"},{"town":"大字上雲寺","koaza":"","lat":37.102876,"lng":138.297163,"zip":"9430000"},{"town":"大字新長者原","koaza":"","lat":37.082739,"lng":138.287545,"zip":"9430000"},{"town":"大字新保古新田","koaza":"","lat":37.108021,"lng":138.292896,"zip":"9430000"},{"town":"大字杉野袋","koaza":"","lat":37.146896,"lng":138.305516,"zip":"9430000"},{"town":"大字薄袋","koaza":"","lat":37.143626,"lng":138.245236,"zip":"9430000"},{"town":"大字諏訪","koaza":"","lat":37.135867,"lng":138.298621,"zip":"9430000"},{"town":"大字大豆","koaza":"","lat":37.148361,"lng":138.210279,"zip":"9430000"},{"town":"大字大道新田","koaza":"","lat":37.137192,"lng":138.247271,"zip":"9430000"},{"town":"大字大道福田","koaza":"","lat":37.14743,"lng":138.250149,"zip":"9430000"},{"town":"大字大日","koaza":"","lat":37.134595,"lng":138.265161,"zip":"9430000"},{"town":"大字高崎新田","koaza":"","lat":37.187562,"lng":138.259529,"zip":"9430000"},{"town":"大字高住","koaza":"","lat":37.144658,"lng":138.13935,"zip":"9430000"},{"town":"大字高田新田","koaza":"","lat":37.092909,"lng":138.245303,"zip":"9430000"},{"town":"大字高津","koaza":"","lat":37.094476,"lng":138.327272,"zip":"9430000"},{"town":"大字高森","koaza":"","lat":37.138198,"lng":138.294438,"zip":"9430000"},{"town":"大字滝寺","koaza":"","lat":37.120893,"lng":138.215086,"zip":"9430000"},{"town":"大字田沢新田","koaza":"","lat":37.174587,"lng":138.342123,"zip":"9430000"},{"town":"大字辰尾新田","koaza":"","lat":37.087369,"lng":138.298062,"zip":"9430000"},{"town":"大字丹原","koaza":"","lat":37.151944,"lng":138.129416,"zip":"9430000"},{"town":"大字地頭方","koaza":"","lat":37.073213,"lng":138.239283,"zip":"9430000"},{"town":"大字茶屋ケ原","koaza":"","lat":37.164101,"lng":138.110558,"zip":"9430000"},{"town":"大字長者町","koaza":"","lat":37.088256,"lng":138.28517,"zip":"9430000"},{"town":"大字塚田新田","koaza":"","lat":37.127235,"lng":138.228013,"zip":"9430000"},{"town":"大字劔","koaza":"","lat":37.109759,"lng":138.311501,"zip":"9430000"},{"town":"大字鶴町","koaza":"","lat":37.129153,"lng":138.306215,"zip":"9430000"},{"town":"大字寺","koaza":"","lat":37.128394,"lng":138.26528,"zip":"9430000"},{"town":"大字寺分","koaza":"","lat":37.140263,"lng":138.223617,"zip":"9430000"},{"town":"大字寺町","koaza":"","lat":37.065935,"lng":138.259614,"zip":"9430000"},{"town":"大字土口","koaza":"","lat":37.084739,"lng":138.115593,"zip":"9430000"},{"town":"大字轟木","koaza":"","lat":37.16165,"lng":138.242803,"zip":"9430000"},{"town":"大字戸野目","koaza":"","lat":37.122709,"lng":138.278782,"zip":"9430000"},{"town":"大字戸野目古新田","koaza":"","lat":37.129906,"lng":138.272485,"zip":"9430000"},{"town":"大字富岡","koaza":"","lat":37.145,"lng":138.26065,"zip":"9430000"},{"town":"大字樋場","koaza":"","lat":37.104394,"lng":138.273353,"zip":"9430000"},{"town":"大字直江津","koaza":"","lat":37.18757,"lng":138.253313,"zip":"9430000"},{"town":"大字長岡","koaza":"","lat":37.154959,"lng":138.32572,"zip":"9430000"},{"town":"大字長岡新田","koaza":"","lat":37.162243,"lng":138.324538,"zip":"9430000"},{"town":"大字長面","koaza":"","lat":37.121959,"lng":138.287812,"zip":"9430000"},{"town":"大字中桑取","koaza":"","lat":37.138701,"lng":138.157607,"zip":"9430000"},{"town":"大字中正善寺","koaza":"","lat":37.133509,"lng":138.192688,"zip":"9430000"},{"town":"大字中田新田","koaza":"","lat":37.1364,"lng":138.269035,"zip":"9430000"},{"town":"大字中田原","koaza":"","lat":37.095329,"lng":138.235693,"zip":"9430000"},{"town":"大字中々村新田","koaza":"","lat":37.135977,"lng":138.250814,"zip":"9430000"},{"town":"大字中ノ俣","koaza":"","lat":37.090073,"lng":138.158837,"zip":"9430000"},{"town":"大字中箱井","koaza":"","lat":37.080318,"lng":138.259981,"zip":"9430000"},{"town":"大字長浜","koaza":"","lat":37.153763,"lng":138.168261,"zip":"9430000"},{"town":"大字中真砂","koaza":"","lat":37.154008,"lng":138.294933,"zip":"9430000"},{"town":"大字中門前","koaza":"","lat":37.15314,"lng":138.209786,"zip":"9430000"},{"town":"大字中屋敷","koaza":"","lat":37.14455,"lng":138.208226,"zip":"9430000"},{"town":"大字鍋ケ浦","koaza":"","lat":37.153506,"lng":138.121345,"zip":"9430000"},{"town":"大字西市野口","koaza":"","lat":37.116964,"lng":138.279133,"zip":"9430000"},{"town":"大字西ケ窪浜","koaza":"","lat":37.207063,"lng":138.297123,"zip":"9430000"},{"town":"大字西田中","koaza":"","lat":37.063123,"lng":138.254823,"zip":"9430000"},{"town":"大字西戸野","koaza":"","lat":37.151807,"lng":138.139114,"zip":"9430000"},{"town":"大字西松野木","koaza":"","lat":37.081622,"lng":138.295631,"zip":"9430000"},{"town":"大字西谷内","koaza":"","lat":37.093538,"lng":138.135661,"zip":"9430000"},{"town":"大字西山寺","koaza":"","lat":37.138995,"lng":138.13473,"zip":"9430000"},{"town":"大字西横山","koaza":"","lat":37.123766,"lng":138.135376,"zip":"9430000"},{"town":"大字西吉尾","koaza":"","lat":37.120367,"lng":138.126991,"zip":"9430000"},{"town":"大字野尻","koaza":"","lat":37.099678,"lng":138.315864,"zip":"9430000"},{"town":"大字灰塚","koaza":"","lat":37.082001,"lng":138.210908,"zip":"9430000"},{"town":"大字花立","koaza":"","lat":37.152391,"lng":138.149673,"zip":"9430000"},{"town":"大字東市野口","koaza":"","lat":37.110827,"lng":138.298596,"zip":"9430000"},{"town":"大字東稲塚新田","koaza":"","lat":37.085831,"lng":138.305473,"zip":"9430000"},{"town":"大字東京田","koaza":"","lat":37.089123,"lng":138.334089,"zip":"9430000"},{"town":"大字東中島","koaza":"","lat":37.164249,"lng":138.30015,"zip":"9430000"},{"town":"大字東原","koaza":"","lat":37.133753,"lng":138.302911,"zip":"9430000"},{"town":"大字東吉尾","koaza":"","lat":37.115442,"lng":138.133598,"zip":"9430000"},{"town":"大字平岡","koaza":"","lat":37.139712,"lng":138.256088,"zip":"9430000"},{"town":"大字福岡新田","koaza":"","lat":37.178773,"lng":138.332709,"zip":"9430000"},{"town":"大字福田","koaza":"","lat":37.169903,"lng":138.27376,"zip":"9430000"},{"town":"大字福橋","koaza":"","lat":37.169016,"lng":138.280339,"zip":"9430000"},{"town":"大字藤新田","koaza":"","lat":37.137529,"lng":138.232899,"zip":"9430000"},{"town":"大字藤塚","koaza":"","lat":37.113205,"lng":138.285487,"zip":"9430000"},{"town":"大字藤野新田","koaza":"","lat":37.154009,"lng":138.247922,"zip":"9430000"},{"town":"大字藤巻","koaza":"","lat":37.135086,"lng":138.234998,"zip":"9430000"},{"town":"大字本新保","koaza":"","lat":37.105772,"lng":138.300416,"zip":"9430000"},{"town":"大字本道","koaza":"","lat":37.130721,"lng":138.283781,"zip":"9430000"},{"town":"大字増沢","koaza":"","lat":37.102734,"lng":138.118618,"zip":"9430000"},{"town":"大字松村新田","koaza":"","lat":37.168417,"lng":138.258498,"zip":"9430000"},{"town":"大字丸山新田","koaza":"","lat":37.096499,"lng":138.254785,"zip":"9430000"},{"town":"大字三ツ橋","koaza":"","lat":37.164171,"lng":138.271632,"zip":"9430000"},{"town":"大字三ツ橋新田","koaza":"","lat":37.158189,"lng":138.273537,"zip":"9430000"},{"town":"大字三ツ屋","koaza":"","lat":37.172462,"lng":138.267622,"zip":"9430000"},{"town":"大字皆口","koaza":"","lat":37.088342,"lng":138.139423,"zip":"9430000"},{"town":"大字南方","koaza":"","lat":37.085033,"lng":138.34521,"zip":"9430000"},{"town":"大字南新保","koaza":"","lat":37.1435,"lng":138.29441,"zip":"9430000"},{"town":"大字南田屋新田","koaza":"","lat":37.140662,"lng":138.2515,"zip":"9430000"},{"town":"大字宮野尾","koaza":"","lat":37.155166,"lng":138.20214,"zip":"9430000"},{"town":"大字妙油","koaza":"","lat":37.095901,"lng":138.340312,"zip":"9430000"},{"town":"大字向橋","koaza":"","lat":37.097611,"lng":138.218339,"zip":"9430000"},{"town":"大字虫川","koaza":"","lat":37.142551,"lng":138.286939,"zip":"9430000"},{"town":"大字虫生岩戸","koaza":"","lat":37.164975,"lng":138.19519,"zip":"9430000"},{"town":"大字本長者原","koaza":"","lat":37.092865,"lng":138.283935,"zip":"9430000"},{"town":"大字元屋敷","koaza":"","lat":37.100862,"lng":138.320107,"zip":"9430000"},{"town":"大字森田","koaza":"","lat":37.09301,"lng":138.343174,"zip":"9430000"},{"town":"大字門田新田","koaza":"","lat":37.128552,"lng":138.279098,"zip":"9430000"},{"town":"大字安江","koaza":"","lat":37.164497,"lng":138.265143,"zip":"9430000"},{"town":"大字八幡","koaza":"","lat":37.158687,"lng":138.233417,"zip":"9430000"},{"town":"大字藪野","koaza":"","lat":37.093633,"lng":138.29316,"zip":"9430000"},{"town":"大字遊光寺浜","koaza":"","lat":37.200119,"lng":138.282964,"zip":"9430000"},{"town":"大字横曽根","koaza":"","lat":37.151821,"lng":138.285923,"zip":"9430000"},{"town":"大字横畑","koaza":"","lat":37.060805,"lng":138.148623,"zip":"9430000"},{"town":"大字吉浦","koaza":"","lat":37.16104,"lng":138.120414,"zip":"9430000"},{"town":"大字吉岡","koaza":"","lat":37.110413,"lng":138.302268,"zip":"9430000"},{"town":"大字四辻町","koaza":"","lat":37.118662,"lng":138.311555,"zip":"9430000"},{"town":"大字米岡","koaza":"","lat":37.131254,"lng":138.31599,"zip":"9430000"},{"town":"大字脇野田","koaza":"","lat":37.08958,"lng":138.242872,"zip":"9430000"},{"town":"大潟区和泉新田","koaza":"","lat":37.211761,"lng":138.363996,"zip":"9493134"},{"town":"大潟区岩野","koaza":"","lat":37.219025,"lng":138.347309,"zip":"9493122"},{"town":"大潟区岩野古新田","koaza":"","lat":37.224672,"lng":138.3412,"zip":"9493122"},{"town":"大潟区内雁子","koaza":"","lat":37.233775,"lng":138.372368,"zip":"9493135"},{"town":"大潟区内雁子新田","koaza":"","lat":37.235564,"lng":138.365959,"zip":"9493136"},{"town":"大潟区潟田","koaza":"","lat":37.214384,"lng":138.341204,"zip":"9493121"},{"town":"大潟区潟町","koaza":"","lat":37.230891,"lng":138.344973,"zip":"9493103"},{"town":"大潟区潟守新田","koaza":"","lat":37.201674,"lng":138.298194,"zip":"9420181"},{"town":"大潟区上潟","koaza":"","lat":37.22057,"lng":138.360249,"zip":"9430000"},{"town":"大潟区上小船津浜","koaza":"","lat":37.217818,"lng":138.314542,"zip":"9493114"},{"town":"大潟区川北","koaza":"","lat":37.206341,"lng":138.320242,"zip":"9430000"},{"town":"大潟区雁子浜","koaza":"","lat":37.242099,"lng":138.344569,"zip":"9493101"},{"town":"大潟区九戸浜","koaza":"","lat":37.237593,"lng":138.337588,"zip":"9493102"},{"town":"大潟区蜘ケ池","koaza":"","lat":37.212936,"lng":138.324807,"zip":"9493117"},{"town":"大潟区犀潟","koaza":"","lat":37.211616,"lng":138.303436,"zip":"9493116"},{"town":"大潟区里鵜島新田","koaza":"","lat":37.222381,"lng":138.361341,"zip":"9493131"},{"town":"大潟区渋柿浜","koaza":"","lat":37.212635,"lng":138.314126,"zip":"9493115"},{"town":"大潟区下小船津浜","koaza":"","lat":37.219599,"lng":138.318737,"zip":"9493113"},{"town":"大潟区高橋新田","koaza":"","lat":37.215838,"lng":138.363542,"zip":"9493133"},{"town":"大潟区土底浜","koaza":"","lat":37.225245,"lng":138.327942,"zip":"9493112"},{"town":"大潟区長崎","koaza":"","lat":37.224964,"lng":138.350057,"zip":"9493123"},{"town":"大潟区浜雁子新田","koaza":"","lat":37.224335,"lng":138.3618,"zip":"9430000"},{"town":"大潟区東潟","koaza":"","lat":37.214327,"lng":138.357225,"zip":"9430000"},{"town":"大潟区山鵜島新田","koaza":"","lat":37.227614,"lng":138.359836,"zip":"9493125"},{"town":"大潟区吉崎新田","koaza":"","lat":37.219106,"lng":138.354249,"zip":"9493124"},{"town":"大潟区四ツ屋浜","koaza":"","lat":37.231052,"lng":138.329949,"zip":"9493111"},{"town":"大潟区米倉新田","koaza":"","lat":37.2212,"lng":138.363906,"zip":"9493132"},{"town":"大島区板山","koaza":"","lat":37.179243,"lng":138.513666,"zip":"9421107"},{"town":"大島区牛ケ鼻","koaza":"","lat":37.088517,"lng":138.531085,"zip":"9421215"},{"town":"大島区大島","koaza":"","lat":37.123451,"lng":138.500087,"zip":"9421211"},{"town":"大島区大平","koaza":"","lat":37.15198,"lng":138.510508,"zip":"9421103"},{"town":"大島区岡","koaza":"","lat":37.165044,"lng":138.505617,"zip":"9421106"},{"town":"大島区上達","koaza":"","lat":37.136827,"lng":138.501644,"zip":"9421105"},{"town":"大島区下達","koaza":"","lat":37.144859,"lng":138.5361,"zip":"9421104"},{"town":"大島区菖蒲","koaza":"","lat":37.061837,"lng":138.520737,"zip":"9421216"},{"town":"大島区棚岡","koaza":"","lat":37.119574,"lng":138.506034,"zip":"9421213"},{"town":"大島区田麦","koaza":"","lat":37.169295,"lng":138.539309,"zip":"9421102"},{"town":"大島区中野","koaza":"","lat":37.124487,"lng":138.517862,"zip":"9421212"},{"town":"大島区仁上","koaza":"","lat":37.099118,"lng":138.506105,"zip":"9421214"},{"town":"大島区嶺","koaza":"","lat":37.175341,"lng":138.556972,"zip":"9421101"},{"town":"大手町","koaza":"","lat":37.108012,"lng":138.248559,"zip":"9430838"},{"town":"大貫一丁目","koaza":"","lat":37.101816,"lng":138.233121,"zip":"9430893"},{"town":"大貫二丁目","koaza":"","lat":37.105907,"lng":138.232681,"zip":"9430893"},{"town":"大貫三丁目","koaza":"","lat":37.110512,"lng":138.235218,"zip":"9430893"},{"town":"大貫四丁目","koaza":"","lat":37.112029,"lng":138.230482,"zip":"9430893"},{"town":"大町一丁目","koaza":"","lat":37.104,"lng":138.245173,"zip":"9430833"},{"town":"大町二丁目","koaza":"","lat":37.107314,"lng":138.245498,"zip":"9430833"},{"town":"大町三丁目","koaza":"","lat":37.111247,"lng":138.245763,"zip":"9430833"},{"town":"大町四丁目","koaza":"","lat":37.114293,"lng":138.246092,"zip":"9430833"},{"town":"大町五丁目","koaza":"","lat":37.117132,"lng":138.246956,"zip":"9430833"},{"town":"加賀町","koaza":"","lat":37.157456,"lng":138.226857,"zip":"9420086"},{"town":"柿崎区旭平","koaza":"","lat":37.231142,"lng":138.490083,"zip":"9493363"},{"town":"柿崎区阿弥陀瀬","koaza":"","lat":37.26843,"lng":138.40518,"zip":"9493236"},{"town":"柿崎区芋島","koaza":"","lat":37.243291,"lng":138.45661,"zip":"9493374"},{"town":"柿崎区芋島新田","koaza":"","lat":37.240488,"lng":138.449444,"zip":"9430000"},{"town":"柿崎区岩手","koaza":"","lat":37.247735,"lng":138.440751,"zip":"9493376"},{"town":"柿崎区岩野","koaza":"","lat":37.261497,"lng":138.442948,"zip":"9493378"},{"town":"柿崎区江島新田","koaza":"","lat":37.247465,"lng":138.379628,"zip":"9493253"},{"town":"柿崎区小萱","koaza":"","lat":37.288294,"lng":138.460314,"zip":"9493221"},{"town":"柿崎区荻谷","koaza":"","lat":37.264376,"lng":138.405612,"zip":"9493235"},{"town":"柿崎区落合","koaza":"","lat":37.25391,"lng":138.397351,"zip":"9493246"},{"town":"柿崎区柿崎","koaza":"","lat":37.279008,"lng":138.394283,"zip":"9493216"},{"town":"柿崎区金谷","koaza":"","lat":37.284861,"lng":138.409945,"zip":"9493225"},{"town":"柿崎区上小野","koaza":"","lat":37.25339,"lng":138.421557,"zip":"9493231"},{"town":"柿崎区上金原","koaza":"","lat":37.244469,"lng":138.397351,"zip":"9493243"},{"town":"柿崎区上中山","koaza":"","lat":37.244016,"lng":138.47312,"zip":"9493366"},{"town":"柿崎区上直海","koaza":"","lat":37.241914,"lng":138.389218,"zip":"9493252"},{"town":"柿崎区川井","koaza":"","lat":37.265304,"lng":138.391542,"zip":"9493213"},{"town":"柿崎区川田","koaza":"","lat":37.265705,"lng":138.423613,"zip":"9493237"},{"town":"柿崎区雁海","koaza":"","lat":37.277696,"lng":138.424932,"zip":"9493223"},{"town":"柿崎区行法","koaza":"","lat":37.259687,"lng":138.393932,"zip":"9493245"},{"town":"柿崎区黒岩","koaza":"","lat":37.255031,"lng":138.510007,"zip":"9493362"},{"town":"柿崎区下条","koaza":"","lat":37.253323,"lng":138.388682,"zip":"9493251"},{"town":"柿崎区犀ケ池新田","koaza":"","lat":37.239537,"lng":138.368253,"zip":"9430000"},{"town":"柿崎区坂田新田","koaza":"","lat":37.250144,"lng":138.368509,"zip":"9493254"},{"town":"柿崎区桜町新田","koaza":"","lat":37.239089,"lng":138.398847,"zip":"9493242"},{"town":"柿崎区猿毛","koaza":"","lat":37.26095,"lng":138.476416,"zip":"9493367"},{"town":"柿崎区猿毛新田","koaza":"","lat":37.254563,"lng":138.471966,"zip":"9430000"},{"town":"柿崎区下小野","koaza":"","lat":37.252448,"lng":138.409984,"zip":"9493232"},{"town":"柿崎区下金原","koaza":"","lat":37.252201,"lng":138.393668,"zip":"9493244"},{"town":"柿崎区下中山","koaza":"","lat":37.288159,"lng":138.426565,"zip":"9493226"},{"town":"柿崎区下灰庭新田","koaza":"","lat":37.244371,"lng":138.440529,"zip":"9493375"},{"town":"柿崎区下牧","koaza":"","lat":37.276473,"lng":138.461089,"zip":"9493371"},{"town":"柿崎区上下浜","koaza":"","lat":37.245629,"lng":138.355666,"zip":"9493255"},{"town":"柿崎区上下浜新田","koaza":"","lat":37.250961,"lng":138.374179,"zip":"9430000"},{"town":"柿崎区城腰","koaza":"","lat":37.256594,"lng":138.489802,"zip":"9493361"},{"town":"柿崎区高寺","koaza":"","lat":37.26264,"lng":138.401009,"zip":"9493234"},{"town":"柿崎区高畑","koaza":"","lat":37.249594,"lng":138.428238,"zip":"9493377"},{"town":"柿崎区竹鼻","koaza":"","lat":37.298185,"lng":138.413915,"zip":"9493201"},{"town":"柿崎区角取","koaza":"","lat":37.253936,"lng":138.401387,"zip":"9493247"},{"town":"柿崎区角取新田","koaza":"","lat":37.256513,"lng":138.400606,"zip":"9430000"},{"town":"柿崎区栃窪","koaza":"","lat":37.277085,"lng":138.437876,"zip":"9493222"},{"town":"柿崎区直海浜","koaza":"","lat":37.265046,"lng":138.373259,"zip":"9493215"},{"town":"柿崎区馬正面","koaza":"","lat":37.25938,"lng":138.381242,"zip":"9493214"},{"town":"柿崎区東谷内","koaza":"","lat":37.280245,"lng":138.418817,"zip":"9493224"},{"town":"柿崎区東横山","koaza":"","lat":37.223942,"lng":138.482477,"zip":"9493364"},{"town":"柿崎区平沢","koaza":"","lat":37.273707,"lng":138.44731,"zip":"9493379"},{"town":"柿崎区米山寺","koaza":"","lat":37.258137,"lng":138.45368,"zip":"9493373"},{"town":"柿崎区法音寺","koaza":"","lat":37.283338,"lng":138.402511,"zip":"9493211"},{"town":"柿崎区松留","koaza":"","lat":37.236706,"lng":138.47092,"zip":"9493365"},{"town":"柿崎区水野","koaza":"","lat":37.274133,"lng":138.486408,"zip":"9493372"},{"town":"柿崎区三ツ屋浜","koaza":"","lat":37.25714,"lng":138.362339,"zip":"9493256"},{"town":"柿崎区百木","koaza":"","lat":37.244189,"lng":138.413122,"zip":"9493241"},{"town":"柿崎区柳ケ崎","koaza":"","lat":37.259486,"lng":138.40619,"zip":"9493233"},{"town":"柿崎区山谷","koaza":"","lat":37.275828,"lng":138.409382,"zip":"9493212"},{"town":"春日新田一丁目","koaza":"","lat":37.171229,"lng":138.252357,"zip":"9420061"},{"town":"春日新田二丁目","koaza":"","lat":37.173928,"lng":138.259904,"zip":"9420061"},{"town":"春日新田三丁目","koaza":"","lat":37.176039,"lng":138.251451,"zip":"9420061"},{"town":"春日新田四丁目","koaza":"","lat":37.17755,"lng":138.259006,"zip":"9420061"},{"town":"春日新田五丁目","koaza":"","lat":37.166756,"lng":138.25127,"zip":"9420061"},{"town":"春日野一丁目","koaza":"","lat":37.150449,"lng":138.231504,"zip":"9430803"},{"town":"春日野二丁目","koaza":"","lat":37.156114,"lng":138.231606,"zip":"9430803"},{"town":"春日山町一丁目","koaza":"","lat":37.143646,"lng":138.222283,"zip":"9430807"},{"town":"春日山町二丁目","koaza":"","lat":37.144457,"lng":138.227419,"zip":"9430807"},{"town":"春日山町三丁目","koaza":"","lat":37.144146,"lng":138.231884,"zip":"9430807"},{"town":"上昭和町","koaza":"","lat":37.120669,"lng":138.227803,"zip":"9430894"},{"town":"鴨島一丁目","koaza":"","lat":37.113178,"lng":138.272626,"zip":"9430153"},{"town":"鴨島二丁目","koaza":"","lat":37.111379,"lng":138.268292,"zip":"9430153"},{"town":"鴨島三丁目","koaza":"","lat":37.109245,"lng":138.269443,"zip":"9430153"},{"town":"川原町","koaza":"","lat":37.177195,"lng":138.252674,"zip":"9420065"},{"town":"木田一丁目","koaza":"","lat":37.144769,"lng":138.237519,"zip":"9430805"},{"town":"木田二丁目","koaza":"","lat":37.144895,"lng":138.243364,"zip":"9430805"},{"town":"木田三丁目","koaza":"","lat":37.139833,"lng":138.241071,"zip":"9430805"},{"town":"北城町一丁目","koaza":"","lat":37.116187,"lng":138.262884,"zip":"9430824"},{"town":"北城町二丁目","koaza":"","lat":37.115705,"lng":138.257551,"zip":"9430824"},{"town":"北城町三丁目","koaza":"","lat":37.117701,"lng":138.253398,"zip":"9430824"},{"town":"北城町四丁目","koaza":"","lat":37.118431,"lng":138.257782,"zip":"9430824"},{"town":"木田新田一丁目","koaza":"","lat":37.138657,"lng":138.23855,"zip":"9430806"},{"town":"木田新田二丁目","koaza":"","lat":37.139506,"lng":138.236098,"zip":"9430806"},{"town":"北本町一丁目","koaza":"","lat":37.120498,"lng":138.242089,"zip":"9430828"},{"town":"北本町二丁目","koaza":"","lat":37.121978,"lng":138.243716,"zip":"9430828"},{"town":"北本町四丁目","koaza":"","lat":37.127583,"lng":138.24102,"zip":"9430828"},{"town":"清里区","koaza":"","lat":37.01155,"lng":138.410317,"zip":"9430531"},{"town":"清里区青柳","koaza":"","lat":37.021956,"lng":138.381914,"zip":"9430531"},{"town":"清里区赤池","koaza":"","lat":37.030503,"lng":138.388488,"zip":"9430527"},{"town":"清里区荒牧","koaza":"","lat":37.077094,"lng":138.34196,"zip":"9430502"},{"town":"清里区今曽根","koaza":"","lat":37.071704,"lng":138.313233,"zip":"9430513"},{"town":"清里区鶯澤","koaza":"","lat":37.051419,"lng":138.362484,"zip":"9430000"},{"town":"清里区岡野町","koaza":"","lat":37.08494,"lng":138.329801,"zip":"9430501"},{"town":"清里区岡嶺新田","koaza":"","lat":37.07661,"lng":138.328779,"zip":"9430507"},{"town":"清里区上稲塚","koaza":"","lat":37.082698,"lng":138.321934,"zip":"9430516"},{"town":"清里区上田島","koaza":"","lat":37.062466,"lng":138.341378,"zip":"9430504"},{"town":"清里区上中條","koaza":"","lat":37.058861,"lng":138.366565,"zip":"9430000"},{"town":"清里区上深澤","koaza":"","lat":37.069435,"lng":138.337693,"zip":"9430000"},{"town":"清里区北野","koaza":"","lat":37.055028,"lng":138.381231,"zip":"9430525"},{"town":"清里区塩曽根","koaza":"","lat":37.057151,"lng":138.331313,"zip":"9430511"},{"town":"清里区菅原","koaza":"","lat":37.07308,"lng":138.326873,"zip":"9430506"},{"town":"清里区鈴倉","koaza":"","lat":37.072448,"lng":138.351586,"zip":"9430535"},{"town":"清里区棚田","koaza":"","lat":37.061163,"lng":138.378499,"zip":"9430523"},{"town":"清里区寺脇","koaza":"","lat":37.075178,"lng":138.360472,"zip":"9430521"},{"town":"清里区梨窪","koaza":"","lat":37.050396,"lng":138.374516,"zip":"9430532"},{"town":"清里区梨平","koaza":"","lat":37.037272,"lng":138.394422,"zip":"9430526"},{"town":"清里区東戸野","koaza":"","lat":37.066482,"lng":138.363596,"zip":"9430522"},{"town":"清里区東福島","koaza":"","lat":37.06338,"lng":138.33067,"zip":"9430505"},{"town":"清里区平成","koaza":"","lat":37.077755,"lng":138.326445,"zip":"9430508"},{"town":"清里区馬屋","koaza":"","lat":37.060778,"lng":138.318272,"zip":"9430512"},{"town":"清里区水草","koaza":"","lat":37.05772,"lng":138.379299,"zip":"9430524"},{"town":"清里区南田中","koaza":"","lat":37.073287,"lng":138.320608,"zip":"9430514"},{"town":"清里区みらい","koaza":"","lat":37.076721,"lng":138.311755,"zip":"9430510"},{"town":"清里区武士","koaza":"","lat":37.07901,"lng":138.316814,"zip":"9430515"},{"town":"清里区弥生","koaza":"","lat":37.080847,"lng":138.325766,"zip":"9430509"},{"town":"頸城区青野","koaza":"","lat":37.190461,"lng":138.32631,"zip":"9420165"},{"town":"頸城区天ケ崎","koaza":"","lat":37.190747,"lng":138.351917,"zip":"9420225"},{"town":"頸城区飯田","koaza":"","lat":37.189095,"lng":138.332836,"zip":"9420125"},{"town":"頸城区五十嵐","koaza":"","lat":37.188378,"lng":138.317885,"zip":"9420135"},{"town":"頸城区石神","koaza":"","lat":37.171046,"lng":138.369937,"zip":"9420221"},{"town":"頸城区市村","koaza":"","lat":37.175418,"lng":138.305174,"zip":"9420141"},{"town":"頸城区浮島","koaza":"","lat":37.1873,"lng":138.294325,"zip":"9420152"},{"town":"頸城区美しが丘","koaza":"","lat":37.172895,"lng":138.30545,"zip":"9420139"},{"town":"頸城区鵜ノ木","koaza":"","lat":37.180237,"lng":138.341026,"zip":"9420121"},{"town":"頸城区榎井","koaza":"","lat":37.19652,"lng":138.302597,"zip":"9420154"},{"town":"頸城区大潟","koaza":"","lat":37.195697,"lng":138.353031,"zip":"9420201"},{"town":"頸城区大蒲生田","koaza":"","lat":37.183693,"lng":138.377723,"zip":"9420214"},{"town":"頸城区大坂井","koaza":"","lat":37.193582,"lng":138.338761,"zip":"9420116"},{"town":"頸城区大谷内","koaza":"","lat":37.202654,"lng":138.329321,"zip":"9420163"},{"town":"頸城区岡田","koaza":"","lat":37.203581,"lng":138.34441,"zip":"9420102"},{"town":"頸城区柿野","koaza":"","lat":37.181948,"lng":138.334011,"zip":"9420114"},{"town":"頸城区潟口","koaza":"","lat":37.190782,"lng":138.328973,"zip":"9420164"},{"town":"頸城区片津","koaza":"","lat":37.19319,"lng":138.34412,"zip":"9420111"},{"town":"頸城区上池田","koaza":"","lat":37.193266,"lng":138.353952,"zip":"9420202"},{"town":"頸城区上神原","koaza":"","lat":37.180364,"lng":138.320009,"zip":"9420133"},{"town":"頸城区上三分一","koaza":"","lat":37.177276,"lng":138.289195,"zip":"9420142"},{"town":"頸城区上増田","koaza":"","lat":37.193401,"lng":138.358006,"zip":"9420203"},{"town":"頸城区上柳町","koaza":"","lat":37.206158,"lng":138.339071,"zip":"9420106"},{"town":"頸城区上吉","koaza":"","lat":37.183001,"lng":138.286578,"zip":"9420145"},{"town":"頸城区川袋","koaza":"","lat":37.184226,"lng":138.338271,"zip":"9420122"},{"town":"頸城区北方","koaza":"","lat":37.191232,"lng":138.323216,"zip":"9420171"},{"town":"頸城区北福崎","koaza":"","lat":37.180634,"lng":138.324897,"zip":"9420132"},{"town":"頸城区北四ツ屋","koaza":"","lat":37.186045,"lng":138.304092,"zip":"9420151"},{"town":"頸城区島田","koaza":"","lat":37.193176,"lng":138.311222,"zip":"9420136"},{"town":"頸城区下池田","koaza":"","lat":37.201512,"lng":138.349158,"zip":"9420104"},{"town":"頸城区下神原","koaza":"","lat":37.178639,"lng":138.316249,"zip":"9420134"},{"town":"頸城区下三分一","koaza":"","lat":37.179715,"lng":138.294006,"zip":"9420143"},{"town":"頸城区下千原","koaza":"","lat":37.187584,"lng":138.322335,"zip":"9420137"},{"town":"頸城区下中島","koaza":"","lat":37.201346,"lng":138.301058,"zip":"9420155"},{"town":"頸城区下中村","koaza":"","lat":37.186335,"lng":138.336556,"zip":"9420123"},{"town":"頸城区下増田","koaza":"","lat":37.208725,"lng":138.356848,"zip":"9420206"},{"town":"頸城区下柳町","koaza":"","lat":37.208778,"lng":138.328005,"zip":"9420108"},{"town":"頸城区下吉","koaza":"","lat":37.184559,"lng":138.280735,"zip":"9420146"},{"town":"頸城区下米岡","koaza":"","lat":37.197023,"lng":138.292993,"zip":"9420153"},{"town":"頸城区城野腰","koaza":"","lat":37.206722,"lng":138.309074,"zip":"9420157"},{"town":"頸城区諏訪","koaza":"","lat":37.186236,"lng":138.325104,"zip":"9420128"},{"town":"頸城区立崎","koaza":"","lat":37.178219,"lng":138.344513,"zip":"9420129"},{"town":"頸城区田中","koaza":"","lat":37.189771,"lng":138.340753,"zip":"9420115"},{"town":"頸城区千原","koaza":"","lat":37.186477,"lng":138.323536,"zip":"9420131"},{"town":"頸城区手島","koaza":"","lat":37.200498,"lng":138.369293,"zip":"9420207"},{"town":"頸城区手宮","koaza":"","lat":37.201623,"lng":138.313272,"zip":"9420161"},{"town":"頸城区寺田","koaza":"","lat":37.20319,"lng":138.33658,"zip":"9420109"},{"town":"頸城区塔ケ崎","koaza":"","lat":37.176878,"lng":138.372981,"zip":"9420226"},{"town":"頸城区戸口野","koaza":"","lat":37.190972,"lng":138.332153,"zip":"9420105"},{"town":"頸城区富田","koaza":"","lat":37.201653,"lng":138.336551,"zip":"9420103"},{"town":"頸城区中城","koaza":"","lat":37.185947,"lng":138.343231,"zip":"9420113"},{"town":"頸城区中増田","koaza":"","lat":37.203207,"lng":138.359691,"zip":"9420205"},{"town":"頸城区中柳町","koaza":"","lat":37.201837,"lng":138.338374,"zip":"9420107"},{"town":"頸城区西福島","koaza":"","lat":37.181915,"lng":138.275597,"zip":"9420091"},{"town":"頸城区西湊","koaza":"","lat":37.19435,"lng":138.341022,"zip":"9420117"},{"town":"頸城区仁野分","koaza":"","lat":37.18277,"lng":138.352688,"zip":"9420224"},{"town":"頸城区望ケ丘","koaza":"","lat":37.172005,"lng":138.308798,"zip":"9420138"},{"town":"頸城区花ケ崎","koaza":"","lat":37.174311,"lng":138.362288,"zip":"9420222"},{"town":"頸城区姥谷内","koaza":"","lat":37.192602,"lng":138.347434,"zip":"9420112"},{"town":"頸城区東俣","koaza":"","lat":37.189249,"lng":138.33501,"zip":"9420124"},{"town":"頸城区日根津","koaza":"","lat":37.185306,"lng":138.36508,"zip":"9420216"},{"town":"頸城区百間町","koaza":"","lat":37.184536,"lng":138.329679,"zip":"9420127"},{"town":"頸城区舟津","koaza":"","lat":37.199949,"lng":138.31772,"zip":"9420173"},{"town":"頸城区松橋","koaza":"","lat":37.202027,"lng":138.307803,"zip":"9420156"},{"town":"頸城区松橋新田","koaza":"","lat":37.203717,"lng":138.303348,"zip":"9420158"},{"town":"頸城区松本","koaza":"","lat":37.181431,"lng":138.289843,"zip":"9420144"},{"town":"頸城区宮原","koaza":"","lat":37.194879,"lng":138.329328,"zip":"9420126"},{"town":"頸城区宮本","koaza":"","lat":37.192925,"lng":138.318676,"zip":"9420172"},{"town":"頸城区森下","koaza":"","lat":37.199333,"lng":138.321234,"zip":"9420162"},{"town":"頸城区森本","koaza":"","lat":37.175658,"lng":138.3503,"zip":"9420223"},{"town":"頸城区矢住","koaza":"","lat":37.195789,"lng":138.381697,"zip":"9420212"},{"town":"頸城区柳町新田","koaza":"","lat":37.203004,"lng":138.336892,"zip":"9420101"},{"town":"高土町一丁目","koaza":"","lat":37.123334,"lng":138.25271,"zip":"9430823"},{"town":"高土町二丁目","koaza":"","lat":37.123572,"lng":138.258189,"zip":"9430823"},{"town":"高土町三丁目","koaza":"","lat":37.126036,"lng":138.254302,"zip":"9430823"},{"town":"高土町受地","koaza":"","lat":37.125874,"lng":138.257507,"zip":"9430000"},{"town":"国府一丁目","koaza":"","lat":37.163891,"lng":138.225799,"zip":"9420082"},{"town":"国府二丁目","koaza":"","lat":37.159494,"lng":138.218819,"zip":"9420082"},{"town":"国府三丁目","koaza":"","lat":37.158457,"lng":138.223274,"zip":"9420082"},{"town":"国府四丁目","koaza":"","lat":37.16247,"lng":138.229757,"zip":"9420082"},{"town":"五智一丁目","koaza":"","lat":37.168441,"lng":138.234682,"zip":"9420081"},{"town":"五智二丁目","koaza":"","lat":37.172078,"lng":138.231503,"zip":"9420081"},{"town":"五智三丁目","koaza":"","lat":37.167473,"lng":138.228442,"zip":"9420081"},{"town":"五智四丁目","koaza":"","lat":37.170974,"lng":138.226698,"zip":"9420081"},{"town":"五智五丁目","koaza":"","lat":37.169036,"lng":138.223484,"zip":"9420081"},{"town":"五智六丁目","koaza":"","lat":37.165678,"lng":138.218044,"zip":"9420081"},{"town":"五智新町","koaza":"","lat":37.165759,"lng":138.231221,"zip":"9420084"},{"town":"御殿山町","koaza":"","lat":37.116999,"lng":138.229077,"zip":"9430895"},{"town":"子安新田","koaza":"","lat":37.10962,"lng":138.272642,"zip":"9430148"},{"town":"幸町","koaza":"","lat":37.122035,"lng":138.246881,"zip":"9430826"},{"town":"栄町一丁目","koaza":"","lat":37.163897,"lng":138.244089,"zip":"9420072"},{"town":"栄町二丁目","koaza":"","lat":37.163575,"lng":138.240571,"zip":"9420072"},{"town":"栄町","koaza":"","lat":37.124917,"lng":138.248159,"zip":"9420072"},{"town":"桜町","koaza":"","lat":37.097032,"lng":138.279926,"zip":"9430144"},{"town":"佐内町","koaza":"","lat":37.177426,"lng":138.266426,"zip":"9420031"},{"town":"三和区今保","koaza":"","lat":37.121064,"lng":138.365755,"zip":"9430313"},{"town":"三和区大","koaza":"","lat":37.113313,"lng":138.37097,"zip":"9430314"},{"town":"三和区岡田","koaza":"","lat":37.125788,"lng":138.380468,"zip":"9430305"},{"town":"三和区沖柳","koaza":"","lat":37.159257,"lng":138.339597,"zip":"9420267"},{"town":"三和区鴨井","koaza":"","lat":37.108489,"lng":138.345925,"zip":"9430231"},{"town":"三和区川浦","koaza":"","lat":37.112994,"lng":138.329866,"zip":"9430224"},{"town":"三和区神田","koaza":"","lat":37.1479,"lng":138.3644,"zip":"9420265"},{"town":"三和区北代","koaza":"","lat":37.139052,"lng":138.3732,"zip":"9430301"},{"town":"三和区窪","koaza":"","lat":37.101849,"lng":138.33969,"zip":"9430235"},{"town":"三和区桑曽根","koaza":"","lat":37.124928,"lng":138.392846,"zip":"9430304"},{"town":"三和区越柳","koaza":"","lat":37.157024,"lng":138.349379,"zip":"9420266"},{"town":"三和区米子","koaza":"","lat":37.144782,"lng":138.328902,"zip":"9420276"},{"town":"三和区下新保","koaza":"","lat":37.130483,"lng":138.369299,"zip":"9430307"},{"town":"三和区下田島","koaza":"","lat":37.126576,"lng":138.368211,"zip":"9430312"},{"town":"三和区所山田","koaza":"","lat":37.119947,"lng":138.378871,"zip":"9430306"},{"town":"三和区神明町","koaza":"","lat":37.115355,"lng":138.321737,"zip":"9430228"},{"town":"三和区末野","koaza":"","lat":37.160217,"lng":138.370229,"zip":"9420262"},{"town":"三和区末野新田","koaza":"","lat":37.163356,"lng":138.364588,"zip":"9420261"},{"town":"三和区塔ノ輪","koaza":"","lat":37.140677,"lng":138.361005,"zip":"9420264"},{"town":"三和区中野","koaza":"","lat":37.10496,"lng":138.338699,"zip":"9430236"},{"town":"三和区払沢","koaza":"","lat":37.140795,"lng":138.389188,"zip":"9430302"},{"town":"三和区番町","koaza":"","lat":37.117129,"lng":138.319665,"zip":"9430227"},{"town":"三和区日和町","koaza":"","lat":37.119484,"lng":138.320624,"zip":"9430226"},{"town":"三和区広井","koaza":"","lat":37.15258,"lng":138.330293,"zip":"9420277"},{"town":"三和区法花寺","koaza":"","lat":37.102861,"lng":138.344545,"zip":"9430234"},{"town":"三和区水科","koaza":"","lat":37.096865,"lng":138.34945,"zip":"9430233"},{"town":"三和区水吉","koaza":"","lat":37.102604,"lng":138.357859,"zip":"9430232"},{"town":"三和区三村新田","koaza":"","lat":37.123922,"lng":138.359974,"zip":"9430315"},{"town":"三和区宮崎新田","koaza":"","lat":37.100702,"lng":138.372374,"zip":"9430318"},{"town":"三和区山高津","koaza":"","lat":37.132607,"lng":138.384635,"zip":"9430303"},{"town":"三和区山腰新田","koaza":"","lat":37.153582,"lng":138.371843,"zip":"9420263"},{"town":"昭和町一丁目","koaza":"","lat":37.118288,"lng":138.235387,"zip":"9430891"},{"town":"昭和町二丁目","koaza":"","lat":37.122492,"lng":138.235842,"zip":"9430891"},{"town":"新光町一丁目","koaza":"","lat":37.152448,"lng":138.236959,"zip":"9430804"},{"town":"新光町二丁目","koaza":"","lat":37.151591,"lng":138.240464,"zip":"9430804"},{"town":"新光町三丁目","koaza":"","lat":37.157963,"lng":138.239896,"zip":"9430804"},{"town":"新南町","koaza":"","lat":37.104926,"lng":138.269228,"zip":"9430147"},{"town":"新町","koaza":"","lat":37.129992,"lng":138.250224,"zip":"9430822"},{"town":"住吉町","koaza":"","lat":37.176306,"lng":138.246182,"zip":"9420002"},{"town":"大学前","koaza":"","lat":37.134779,"lng":138.229856,"zip":"9430810"},{"town":"大豆一丁目","koaza":"","lat":37.149963,"lng":138.225054,"zip":"9420083"},{"town":"大豆二丁目","koaza":"","lat":37.153265,"lng":138.224829,"zip":"9420083"},{"town":"中央一丁目","koaza":"","lat":37.173652,"lng":138.244527,"zip":"9420001"},{"town":"中央二丁目","koaza":"","lat":37.176636,"lng":138.243008,"zip":"9420001"},{"town":"中央三丁目","koaza":"","lat":37.18017,"lng":138.245619,"zip":"9420001"},{"town":"中央四丁目","koaza":"","lat":37.178512,"lng":138.240973,"zip":"9420001"},{"town":"中央五丁目","koaza":"","lat":37.176611,"lng":138.238462,"zip":"9420001"},{"town":"寺町一丁目","koaza":"","lat":37.101327,"lng":138.238064,"zip":"9430892"},{"town":"寺町二丁目","koaza":"","lat":37.108951,"lng":138.239135,"zip":"9430892"},{"town":"寺町三丁目","koaza":"","lat":37.116337,"lng":138.23921,"zip":"9430892"},{"town":"田園","koaza":"","lat":37.150357,"lng":138.279913,"zip":"9420046"},{"town":"東雲町一丁目","koaza":"","lat":37.169266,"lng":138.247385,"zip":"9420071"},{"town":"東雲町二丁目","koaza":"","lat":37.168097,"lng":138.24219,"zip":"9420071"},{"town":"中郷区板橋","koaza":"","lat":37.004216,"lng":138.240324,"zip":"9492301"},{"town":"中郷区市屋","koaza":"","lat":36.962778,"lng":138.22642,"zip":"9492317"},{"town":"中郷区稲荷山","koaza":"","lat":36.9461,"lng":138.22032,"zip":"9492315"},{"town":"中郷区江口","koaza":"","lat":36.952804,"lng":138.216055,"zip":"9492316"},{"town":"中郷区岡川","koaza":"","lat":36.958666,"lng":138.206379,"zip":"9492318"},{"town":"中郷区岡沢","koaza":"","lat":36.976591,"lng":138.192487,"zip":"9492322"},{"town":"中郷区片貝","koaza":"","lat":36.964808,"lng":138.233425,"zip":"9492312"},{"town":"中郷区坂本","koaza":"","lat":36.988393,"lng":138.234257,"zip":"9492303"},{"town":"中郷区二本木","koaza":"","lat":36.978297,"lng":138.236264,"zip":"9492304"},{"town":"中郷区八斗蒔","koaza":"","lat":36.976293,"lng":138.217529,"zip":"9492306"},{"town":"中郷区福崎","koaza":"","lat":36.95216,"lng":138.225448,"zip":"9492313"},{"town":"中郷区福田","koaza":"","lat":36.993926,"lng":138.213762,"zip":"9492321"},{"town":"中郷区藤沢","koaza":"","lat":36.996207,"lng":138.237488,"zip":"9492302"},{"town":"中郷区松崎","koaza":"","lat":36.969961,"lng":138.225318,"zip":"9492311"},{"town":"中郷区宮野原","koaza":"","lat":36.956168,"lng":138.233814,"zip":"9492314"},{"town":"中郷区四ツ屋","koaza":"","lat":36.96606,"lng":138.137412,"zip":"9492305"},{"town":"中通町","koaza":"","lat":37.096654,"lng":138.241745,"zip":"9430883"},{"town":"仲町一丁目","koaza":"","lat":37.102776,"lng":138.241206,"zip":"9430831"},{"town":"仲町二丁目","koaza":"","lat":37.107442,"lng":138.242074,"zip":"9430831"},{"town":"仲町三丁目","koaza":"","lat":37.111315,"lng":138.242624,"zip":"9430831"},{"town":"仲町四丁目","koaza":"","lat":37.114598,"lng":138.242957,"zip":"9430831"},{"town":"仲町五丁目","koaza":"","lat":37.116518,"lng":138.242795,"zip":"9430831"},{"town":"仲町六丁目","koaza":"","lat":37.118256,"lng":138.243533,"zip":"9430831"},{"town":"中門前一丁目","koaza":"","lat":37.15023,"lng":138.213442,"zip":"9430801"},{"town":"中門前二丁目","koaza":"","lat":37.153321,"lng":138.216791,"zip":"9430801"},{"town":"中門前三丁目","koaza":"","lat":37.156165,"lng":138.218732,"zip":"9430801"},{"town":"名立区赤野俣","koaza":"","lat":37.147916,"lng":138.092101,"zip":"9491604"},{"town":"名立区池田","koaza":"","lat":37.115781,"lng":138.110574,"zip":"9491616"},{"town":"名立区大菅","koaza":"","lat":37.14915,"lng":138.105045,"zip":"9491605"},{"town":"名立区小田島","koaza":"","lat":37.087857,"lng":138.091843,"zip":"9491622"},{"town":"名立区折居","koaza":"","lat":37.119696,"lng":138.094757,"zip":"9491614"},{"town":"名立区折戸","koaza":"","lat":37.103587,"lng":138.102535,"zip":"9491621"},{"town":"名立区桂谷","koaza":"","lat":37.108945,"lng":138.097486,"zip":"9491618"},{"town":"名立区車路","koaza":"","lat":37.142474,"lng":138.110505,"zip":"9491607"},{"town":"名立区杉野瀬","koaza":"","lat":37.13195,"lng":138.114393,"zip":"9491611"},{"town":"名立区瀬戸","koaza":"","lat":37.053657,"lng":138.10226,"zip":"9491625"},{"town":"名立区躰畑","koaza":"","lat":37.13458,"lng":138.095554,"zip":"9491608"},{"town":"名立区谷口","koaza":"","lat":37.140799,"lng":138.093827,"zip":"9491606"},{"town":"名立区田野上","koaza":"","lat":37.133035,"lng":138.103451,"zip":"9491609"},{"town":"名立区坪山","koaza":"","lat":37.152264,"lng":138.087222,"zip":"9491603"},{"town":"名立区峠","koaza":"","lat":37.120485,"lng":138.111872,"zip":"9491615"},{"town":"名立区名立大町","koaza":"","lat":37.144787,"lng":138.080359,"zip":"9491602"},{"town":"名立区名立小泊","koaza":"","lat":37.164451,"lng":138.09239,"zip":"9491601"},{"town":"名立区濁沢","koaza":"","lat":37.124907,"lng":138.11457,"zip":"9491613"},{"town":"名立区西蒲生田","koaza":"","lat":37.075827,"lng":138.093377,"zip":"9491624"},{"town":"名立区東蒲生田","koaza":"","lat":37.087923,"lng":138.104392,"zip":"9491623"},{"town":"名立区東飛山","koaza":"","lat":37.023767,"lng":138.112558,"zip":"9491626"},{"town":"名立区平谷","koaza":"","lat":37.099467,"lng":138.086964,"zip":"9491619"},{"town":"名立区丸田","koaza":"","lat":37.126588,"lng":138.094005,"zip":"9491612"},{"town":"名立区森","koaza":"","lat":37.111915,"lng":138.097516,"zip":"9491617"},{"town":"西城町一丁目","koaza":"","lat":37.112512,"lng":138.252677,"zip":"9430834"},{"town":"西城町二丁目","koaza":"","lat":37.112147,"lng":138.250405,"zip":"9430834"},{"town":"西城町三丁目","koaza":"","lat":37.113248,"lng":138.248386,"zip":"9430834"},{"town":"西城町四丁目","koaza":"","lat":37.117088,"lng":138.249678,"zip":"9430834"},{"town":"西本町一丁目","koaza":"","lat":37.170718,"lng":138.240333,"zip":"9420004"},{"town":"西本町二丁目","koaza":"","lat":37.168575,"lng":138.237961,"zip":"9420004"},{"town":"西本町三丁目","koaza":"","lat":37.171516,"lng":138.236516,"zip":"9420004"},{"town":"西本町四丁目","koaza":"","lat":37.173909,"lng":138.237702,"zip":"9420004"},{"town":"東城町一丁目","koaza":"","lat":37.101678,"lng":138.259828,"zip":"9430836"},{"town":"東城町二丁目","koaza":"","lat":37.105069,"lng":138.263493,"zip":"9430836"},{"town":"東城町三丁目","koaza":"","lat":37.111151,"lng":138.263902,"zip":"9430836"},{"town":"東本町一丁目","koaza":"","lat":37.119868,"lng":138.247302,"zip":"9430825"},{"town":"東本町二丁目","koaza":"","lat":37.120426,"lng":138.250574,"zip":"9430825"},{"town":"東本町三丁目","koaza":"","lat":37.120921,"lng":138.253757,"zip":"9430825"},{"town":"東本町四丁目","koaza":"","lat":37.120708,"lng":138.258623,"zip":"9430825"},{"town":"東本町五丁目","koaza":"","lat":37.119513,"lng":138.262585,"zip":"9430825"},{"town":"日之出町","koaza":"","lat":37.181016,"lng":138.270935,"zip":"9420014"},{"town":"福田町","koaza":"","lat":37.174388,"lng":138.2721,"zip":"9430000"},{"town":"藤新田一丁目","koaza":"","lat":37.139254,"lng":138.232276,"zip":"9430816"},{"town":"藤新田二丁目","koaza":"","lat":37.13883,"lng":138.226984,"zip":"9430816"},{"town":"平成町","koaza":"","lat":37.120829,"lng":138.28249,"zip":"9430151"},{"town":"本町一丁目","koaza":"","lat":37.103421,"lng":138.243406,"zip":"9430832"},{"town":"本町二丁目","koaza":"","lat":37.106819,"lng":138.243789,"zip":"9430832"},{"town":"本町三丁目","koaza":"","lat":37.109971,"lng":138.244291,"zip":"9430832"},{"town":"本町四丁目","koaza":"","lat":37.112065,"lng":138.244601,"zip":"9430832"},{"town":"本町五丁目","koaza":"","lat":37.114369,"lng":138.244914,"zip":"9430832"},{"town":"本町六丁目","koaza":"","lat":37.116836,"lng":138.245255,"zip":"9430832"},{"town":"本町七丁目","koaza":"","lat":37.119442,"lng":138.245663,"zip":"9430832"},{"town":"牧区荒井","koaza":"","lat":37.077777,"lng":138.374308,"zip":"9430642"},{"town":"牧区池舟","koaza":"","lat":37.09802,"lng":138.379751,"zip":"9430645"},{"town":"牧区泉","koaza":"","lat":37.09125,"lng":138.407324,"zip":"9430617"},{"town":"牧区今清水","koaza":"","lat":37.084492,"lng":138.413416,"zip":"9430615"},{"town":"牧区岩神","koaza":"","lat":37.07036,"lng":138.403291,"zip":"9430635"},{"town":"牧区宇津俣","koaza":"","lat":37.027649,"lng":138.449199,"zip":"9430623"},{"town":"牧区大月","koaza":"","lat":37.104881,"lng":138.399446,"zip":"9430606"},{"town":"牧区小川","koaza":"","lat":37.079821,"lng":138.40304,"zip":"9430648"},{"town":"牧区落田","koaza":"","lat":37.085984,"lng":138.386,"zip":"9430646"},{"town":"牧区樫谷","koaza":"","lat":37.089339,"lng":138.395787,"zip":"9430616"},{"town":"牧区片町","koaza":"","lat":37.104365,"lng":138.426204,"zip":"9430611"},{"town":"牧区上昆子","koaza":"","lat":37.06164,"lng":138.388514,"zip":"9430632"},{"town":"牧区上牧","koaza":"","lat":37.029397,"lng":138.409226,"zip":"9430625"},{"town":"牧区神谷","koaza":"","lat":37.102648,"lng":138.408853,"zip":"9430605"},{"town":"牧区川井沢","koaza":"","lat":37.102611,"lng":138.388882,"zip":"9430607"},{"town":"牧区倉下","koaza":"","lat":37.047698,"lng":138.397141,"zip":"9430626"},{"town":"牧区国川","koaza":"","lat":37.079491,"lng":138.389465,"zip":"9430636"},{"town":"牧区桜滝","koaza":"","lat":37.060658,"lng":138.399672,"zip":"9430637"},{"town":"牧区下昆子","koaza":"","lat":37.066938,"lng":138.385099,"zip":"9430633"},{"town":"牧区下湯谷","koaza":"","lat":37.055107,"lng":138.389818,"zip":"9430631"},{"town":"牧区切光","koaza":"","lat":37.082844,"lng":138.422096,"zip":"9430614"},{"town":"牧区平山","koaza":"","lat":37.10713,"lng":138.41869,"zip":"9430603"},{"town":"牧区高尾","koaza":"","lat":37.065628,"lng":138.422321,"zip":"9430621"},{"town":"牧区高谷","koaza":"","lat":37.083302,"lng":138.435124,"zip":"9430613"},{"town":"牧区田島","koaza":"","lat":37.069076,"lng":138.391349,"zip":"9430634"},{"town":"牧区棚広","koaza":"","lat":37.050269,"lng":138.410916,"zip":"9430628"},{"town":"牧区棚広新田","koaza":"","lat":37.052798,"lng":138.425903,"zip":"9430622"},{"town":"牧区坪山","koaza":"","lat":37.120259,"lng":138.398437,"zip":"9430601"},{"town":"牧区七森","koaza":"","lat":37.097195,"lng":138.417811,"zip":"9430604"},{"town":"牧区原","koaza":"","lat":37.053512,"lng":138.396466,"zip":"9430627"},{"town":"牧区東松ノ木","koaza":"","lat":37.072593,"lng":138.380626,"zip":"9430641"},{"town":"牧区平方","koaza":"","lat":37.116143,"lng":138.406523,"zip":"9430602"},{"town":"牧区府殿","koaza":"","lat":37.036157,"lng":138.416516,"zip":"9430624"},{"town":"牧区宮口","koaza":"","lat":37.09113,"lng":138.360692,"zip":"9430644"},{"town":"牧区柳島","koaza":"","lat":37.078066,"lng":138.384335,"zip":"9430647"},{"town":"牧区山口","koaza":"","lat":37.087051,"lng":138.374972,"zip":"9430643"},{"town":"牧区吉坪","koaza":"","lat":37.09575,"lng":138.429954,"zip":"9430612"},{"town":"三ツ屋町","koaza":"","lat":37.17277,"lng":138.265821,"zip":"9420042"},{"town":"港町一丁目","koaza":"","lat":37.183406,"lng":138.247986,"zip":"9420011"},{"town":"港町二丁目","koaza":"","lat":37.184521,"lng":138.258593,"zip":"9420011"},{"town":"南城町一丁目","koaza":"","lat":37.103794,"lng":138.248782,"zip":"9430837"},{"town":"南城町二丁目","koaza":"","lat":37.102818,"lng":138.254589,"zip":"9430837"},{"town":"南城町三丁目","koaza":"","lat":37.105485,"lng":138.256553,"zip":"9430837"},{"town":"南城町四丁目","koaza":"","lat":37.106945,"lng":138.260456,"zip":"9430837"},{"town":"南新町","koaza":"","lat":37.098918,"lng":138.246377,"zip":"9430847"},{"town":"南高田町","koaza":"","lat":37.095405,"lng":138.246223,"zip":"9430846"},{"town":"南本町一丁目","koaza":"","lat":37.095138,"lng":138.252364,"zip":"9430841"},{"town":"南本町二丁目","koaza":"","lat":37.099233,"lng":138.252913,"zip":"9430841"},{"town":"南本町三丁目","koaza":"","lat":37.099836,"lng":138.242474,"zip":"9430841"},{"town":"本城町","koaza":"","lat":37.110108,"lng":138.256478,"zip":"9430835"},{"town":"安江一丁目","koaza":"","lat":37.172078,"lng":138.262564,"zip":"9420041"},{"town":"安江二丁目","koaza":"","lat":37.168933,"lng":138.26281,"zip":"9420041"},{"town":"安江三丁目","koaza":"","lat":37.166715,"lng":138.263255,"zip":"9420041"},{"town":"安塚区石橋","koaza":"","lat":37.117725,"lng":138.443464,"zip":"9420404"},{"town":"安塚区板尾","koaza":"","lat":37.140918,"lng":138.436167,"zip":"9420413"},{"town":"安塚区円平坊","koaza":"","lat":37.080959,"lng":138.469363,"zip":"9420539"},{"town":"安塚区大原","koaza":"","lat":37.10139,"lng":138.464843,"zip":"9420522"},{"town":"安塚区上方","koaza":"","lat":37.123974,"lng":138.452324,"zip":"9420405"},{"town":"安塚区上船倉","koaza":"","lat":37.084262,"lng":138.496474,"zip":"9420533"},{"town":"安塚区切越","koaza":"","lat":37.089221,"lng":138.448816,"zip":"9420542"},{"town":"安塚区小黒","koaza":"","lat":37.097927,"lng":138.452926,"zip":"9420541"},{"town":"安塚区信濃坂","koaza":"","lat":37.069742,"lng":138.481057,"zip":"9420536"},{"town":"安塚区下船倉","koaza":"","lat":37.077511,"lng":138.489299,"zip":"9420532"},{"town":"安塚区菅沼","koaza":"","lat":37.076535,"lng":138.451379,"zip":"9420543"},{"town":"安塚区須川","koaza":"","lat":37.048077,"lng":138.489387,"zip":"9420534"},{"town":"安塚区芹田","koaza":"","lat":37.109083,"lng":138.449974,"zip":"9420524"},{"town":"安塚区袖山","koaza":"","lat":37.148586,"lng":138.436491,"zip":"9420414"},{"town":"安塚区高沢","koaza":"","lat":37.087777,"lng":138.480597,"zip":"9420538"},{"town":"安塚区樽田","koaza":"","lat":37.099204,"lng":138.479681,"zip":"9420531"},{"town":"安塚区戸沢","koaza":"","lat":37.090038,"lng":138.462132,"zip":"9420523"},{"town":"安塚区二本木","koaza":"","lat":37.080278,"lng":138.479197,"zip":"9420537"},{"town":"安塚区坊金","koaza":"","lat":37.132989,"lng":138.46857,"zip":"9420402"},{"town":"安塚区朴の木","koaza":"","lat":37.061008,"lng":138.44106,"zip":"9430000"},{"town":"安塚区細野","koaza":"","lat":37.123135,"lng":138.48223,"zip":"9420401"},{"town":"安塚区本郷","koaza":"","lat":37.117581,"lng":138.456232,"zip":"9420403"},{"town":"安塚区牧野","koaza":"","lat":37.133214,"lng":138.437672,"zip":"9420412"},{"town":"安塚区松崎","koaza":"","lat":37.146199,"lng":138.445741,"zip":"9420415"},{"town":"安塚区真荻平","koaza":"","lat":37.046579,"lng":138.458879,"zip":"9420535"},{"town":"安塚区安塚","koaza":"","lat":37.137479,"lng":138.448995,"zip":"9420411"},{"town":"安塚区行野","koaza":"","lat":37.108345,"lng":138.480316,"zip":"9420521"},{"town":"安塚区和田","koaza":"","lat":37.111776,"lng":138.461719,"zip":"9420525"},{"town":"八千浦","koaza":"","lat":37.205301,"lng":138.276478,"zip":"9420027"},{"town":"大和一丁目","koaza":"","lat":37.081536,"lng":138.253483,"zip":"9430861"},{"town":"大和二丁目","koaza":"","lat":37.083532,"lng":138.250613,"zip":"9430861"},{"town":"大和三丁目","koaza":"","lat":37.090178,"lng":138.250071,"zip":"9430861"},{"town":"大和四丁目","koaza":"","lat":37.08943,"lng":138.25557,"zip":"9430861"},{"town":"大和五丁目","koaza":"","lat":37.080237,"lng":138.245701,"zip":"9430861"},{"town":"大和六丁目","koaza":"","lat":37.084723,"lng":138.242446,"zip":"9430861"},{"town":"山屋敷町","koaza":"","lat":37.135447,"lng":138.223875,"zip":"9430815"},{"town":"吉川区赤沢","koaza":"","lat":37.236216,"lng":138.437362,"zip":"9493408"},{"town":"吉川区石谷","koaza":"","lat":37.197841,"lng":138.503059,"zip":"9493554"},{"town":"吉川区泉","koaza":"","lat":37.227334,"lng":138.445373,"zip":"9493409"},{"town":"吉川区泉谷","koaza":"","lat":37.212681,"lng":138.436067,"zip":"9493412"},{"town":"吉川区入河沢","koaza":"","lat":37.199831,"lng":138.436597,"zip":"9493421"},{"town":"吉川区岩沢","koaza":"","lat":37.193286,"lng":138.45174,"zip":"9493564"},{"town":"吉川区大賀","koaza":"","lat":37.183752,"lng":138.471892,"zip":"9493563"},{"town":"吉川区大滝","koaza":"","lat":37.219953,"lng":138.378852,"zip":"9430000"},{"town":"吉川区尾神","koaza":"","lat":37.207202,"lng":138.495855,"zip":"9493552"},{"town":"吉川区小苗代","koaza":"","lat":37.228209,"lng":138.416737,"zip":"9493442"},{"town":"吉川区伯母ケ沢","koaza":"","lat":37.22418,"lng":138.464613,"zip":"9493402"},{"town":"吉川区梶","koaza":"","lat":37.223979,"lng":138.371855,"zip":"9493437"},{"town":"吉川区片田","koaza":"","lat":37.216326,"lng":138.412519,"zip":"9493418"},{"town":"吉川区上名木","koaza":"","lat":37.190184,"lng":138.499543,"zip":"9493555"},{"town":"吉川区川崎","koaza":"","lat":37.220768,"lng":138.428886,"zip":"9493411"},{"town":"吉川区川谷","koaza":"","lat":37.203206,"lng":138.521662,"zip":"9493553"},{"town":"吉川区神田町","koaza":"","lat":37.226589,"lng":138.383875,"zip":"9493438"},{"town":"吉川区顕法寺","koaza":"","lat":37.204668,"lng":138.406342,"zip":"9493427"},{"town":"吉川区河沢","koaza":"","lat":37.204376,"lng":138.418125,"zip":"9493429"},{"town":"吉川区国田","koaza":"","lat":37.185087,"lng":138.436953,"zip":"9493422"},{"town":"吉川区後生寺","koaza":"","lat":37.225543,"lng":138.455242,"zip":"9493401"},{"town":"吉川区米山","koaza":"","lat":37.19963,"lng":138.447992,"zip":"9493565"},{"town":"吉川区下町","koaza":"","lat":37.222401,"lng":138.408313,"zip":"9493443"},{"town":"吉川区十町歩","koaza":"","lat":37.203227,"lng":138.412984,"zip":"9493428"},{"town":"吉川区下小沢","koaza":"","lat":37.215192,"lng":138.445081,"zip":"9493406"},{"town":"吉川区下中条","koaza":"","lat":37.236967,"lng":138.420145,"zip":"9493407"},{"town":"吉川区下八幡","koaza":"","lat":37.221107,"lng":138.3727,"zip":"9493435"},{"town":"吉川区下深沢","koaza":"","lat":37.214171,"lng":138.408703,"zip":"9493417"},{"town":"吉川区代石","koaza":"","lat":37.237022,"lng":138.406761,"zip":"9493441"},{"town":"吉川区大乗寺","koaza":"","lat":37.231251,"lng":138.399462,"zip":"9493444"},{"town":"吉川区高沢入","koaza":"","lat":37.201652,"lng":138.471193,"zip":"9493557"},{"town":"吉川区竹直","koaza":"","lat":37.236471,"lng":138.384827,"zip":"9493447"},{"town":"吉川区田尻","koaza":"","lat":37.216307,"lng":138.387877,"zip":"9493431"},{"town":"吉川区坪野","koaza":"","lat":37.212462,"lng":138.480477,"zip":"9493551"},{"town":"吉川区坪野内","koaza":"","lat":37.217591,"lng":138.367212,"zip":"9493436"},{"town":"吉川区天林寺","koaza":"","lat":37.209417,"lng":138.424311,"zip":"9493414"},{"town":"吉川区東寺","koaza":"","lat":37.216517,"lng":138.462053,"zip":"9493404"},{"town":"吉川区杜氏の郷","koaza":"","lat":37.241567,"lng":138.37674,"zip":"9493449"},{"town":"吉川区土尻","koaza":"","lat":37.214785,"lng":138.42818,"zip":"9493413"},{"town":"吉川区長沢","koaza":"","lat":37.229849,"lng":138.377942,"zip":"9493439"},{"town":"吉川区長峰","koaza":"","lat":37.244596,"lng":138.369313,"zip":"9493448"},{"town":"吉川区中谷内","koaza":"","lat":37.209279,"lng":138.409318,"zip":"9493416"},{"town":"吉川区名木山","koaza":"","lat":37.187815,"lng":138.491076,"zip":"9493556"},{"town":"吉川区西野島","koaza":"","lat":37.212955,"lng":138.374958,"zip":"9493434"},{"town":"吉川区原之町","koaza":"","lat":37.228286,"lng":138.393839,"zip":"9493445"},{"town":"吉川区東田中","koaza":"","lat":37.196152,"lng":138.423762,"zip":"9493423"},{"town":"吉川区東鳥越","koaza":"","lat":37.21943,"lng":138.417261,"zip":"9493419"},{"town":"吉川区平等寺","koaza":"","lat":37.213155,"lng":138.473401,"zip":"9493403"},{"town":"吉川区町田","koaza":"","lat":37.20116,"lng":138.389919,"zip":"9493433"},{"town":"吉川区山方","koaza":"","lat":37.214526,"lng":138.398555,"zip":"9493446"},{"town":"吉川区山口","koaza":"","lat":37.205674,"lng":138.413245,"zip":"9493415"},{"town":"吉川区山直海","koaza":"","lat":37.189208,"lng":138.45685,"zip":"9493562"},{"town":"吉川区山中","koaza":"","lat":37.201476,"lng":138.459302,"zip":"9493561"},{"town":"吉川区吉井","koaza":"","lat":37.206603,"lng":138.449426,"zip":"9493405"},{"town":"吉川区六万部","koaza":"","lat":37.209323,"lng":138.388813,"zip":"9493432"},{"town":"米町","koaza":"","lat":37.138285,"lng":138.315374,"zip":"9430202"},{"town":"三和区浮島","koaza":"","lat":37.131909,"lng":138.351628,"zip":"9430317"},{"town":"三和区島倉","koaza":"","lat":37.135236,"lng":138.354034,"zip":"9430311"},{"town":"三和区井ノ口","koaza":"","lat":37.124868,"lng":138.351139,"zip":"9430316"},{"town":"三和区田","koaza":"","lat":37.115739,"lng":138.342406,"zip":"9430223"},{"town":"三和区野","koaza":"","lat":37.123962,"lng":138.326563,"zip":"9430225"},{"town":"三和区下中","koaza":"","lat":37.126804,"lng":138.33647,"zip":"9430222"},{"town":"三和区稲原","koaza":"","lat":37.132031,"lng":138.329568,"zip":"9430221"},{"town":"三和区岡木","koaza":"","lat":37.137035,"lng":138.326527,"zip":"9420275"},{"town":"三和区下広田","koaza":"","lat":37.150513,"lng":138.334353,"zip":"9420274"},{"town":"三和区本郷","koaza":"","lat":37.147656,"lng":138.347548,"zip":"9420268"},{"town":"三和区錦","koaza":"","lat":37.139638,"lng":138.342779,"zip":"9420271"},{"town":"三和区柳林","koaza":"","lat":37.133853,"lng":138.339603,"zip":"9420272"},{"town":"三和区上広田","koaza":"","lat":37.143325,"lng":138.33603,"zip":"9420273"},{"town":"大字土橋","koaza":"","lat":37.12925,"lng":138.244162,"zip":"9430000"},{"town":"北本町三丁目","koaza":"","lat":37.125298,"lng":138.243083,"zip":"9430828"},{"town":"吉川区長坂","koaza":"","lat":37.182988,"lng":138.418822,"zip":"9493425"},{"town":"頸城区玄僧","koaza":"","lat":37.185673,"lng":138.398392,"zip":"9420215"},{"town":"吉川区福平","koaza":"","lat":37.190691,"lng":138.420759,"zip":"9493424"},{"town":"吉川区道之下","koaza":"","lat":37.194537,"lng":138.408578,"zip":"9493426"},{"town":"下門前","koaza":"外川原","lat":37.160354,"lng":138.248039,"zip":"9420063"},{"town":"大字塩屋新田","koaza":"下之曲り","lat":37.162261,"lng":138.249244,"zip":"9430000"},{"town":"大字大道福田","koaza":"中小割","lat":37.150857,"lng":138.24961,"zip":"9430000"},{"town":"藤野新田","koaza":"屋敷付","lat":37.151461,"lng":138.251418,"zip":"9430171"},{"town":"大字西田中","koaza":"久ノ田","lat":37.060107,"lng":138.258044,"zip":"9430000"},{"town":"大字下源入","koaza":"新田々","lat":37.166613,"lng":138.258506,"zip":"9430000"},{"town":"富岡","koaza":"宮下","lat":37.144209,"lng":138.260769,"zip":"9430173"},{"town":"富岡","koaza":"五田所","lat":37.143333,"lng":138.261929,"zip":"9430173"},{"town":"大潟区上小船津浜","koaza":"上小","lat":37.218045,"lng":138.315597,"zip":"9493114"}]