[{"town":"青橋","koaza":"","lat":37.685349,"lng":139.15247,"zip":"9591755"},{"town":"赤羽","koaza":"","lat":37.730039,"lng":139.207349,"zip":"9591641"},{"town":"曙町","koaza":"","lat":37.735399,"lng":139.198604,"zip":"9591831"},{"town":"赤海","koaza":"","lat":37.741668,"lng":139.193078,"zip":"9591821"},{"town":"赤海一丁目","koaza":"","lat":37.735402,"lng":139.18789,"zip":"9591821"},{"town":"赤海二丁目","koaza":"","lat":37.735871,"lng":139.192396,"zip":"9591821"},{"town":"赤海三丁目","koaza":"","lat":37.739387,"lng":139.19004,"zip":"9591821"},{"town":"旭町","koaza":"","lat":37.745875,"lng":139.180611,"zip":"9591862"},{"town":"愛宕","koaza":"","lat":37.692021,"lng":139.191332,"zip":"9591765"},{"town":"阿弥陀瀬","koaza":"","lat":37.665079,"lng":139.199218,"zip":"9591717"},{"town":"新屋","koaza":"","lat":37.6606,"lng":139.172843,"zip":"9591737"},{"town":"粟島","koaza":"","lat":37.748011,"lng":139.179203,"zip":"9591861"},{"town":"五十嵐新田","koaza":"","lat":37.720524,"lng":139.201913,"zip":"9591833"},{"town":"石倉","koaza":"","lat":37.740764,"lng":139.154981,"zip":"9591857"},{"town":"石曽根","koaza":"","lat":37.694507,"lng":139.197514,"zip":"9591701"},{"town":"泉町一丁目","koaza":"","lat":37.742679,"lng":139.171947,"zip":"9591876"},{"town":"泉町二丁目","koaza":"","lat":37.742139,"lng":139.168825,"zip":"9591876"},{"town":"伊勢の川","koaza":"","lat":37.747615,"lng":139.173886,"zip":"9591813"},{"town":"今泉","koaza":"","lat":37.727817,"lng":139.171151,"zip":"9591835"},{"town":"上野","koaza":"","lat":37.668549,"lng":139.146679,"zip":"9591749"},{"town":"駅前一丁目","koaza":"","lat":37.735402,"lng":139.178994,"zip":"9591823"},{"town":"駅前二丁目","koaza":"","lat":37.7351,"lng":139.182355,"zip":"9591823"},{"town":"大川前","koaza":"","lat":37.746908,"lng":139.17679,"zip":"9591867"},{"town":"大口","koaza":"","lat":37.679109,"lng":139.17497,"zip":"9591731"},{"town":"大蔵","koaza":"","lat":37.690917,"lng":139.252319,"zip":"9591636"},{"town":"大沢","koaza":"","lat":37.716014,"lng":139.146688,"zip":"9591845"},{"town":"大須郷","koaza":"","lat":37.716944,"lng":139.239236,"zip":"9591633"},{"town":"太田","koaza":"","lat":37.746192,"lng":139.186761,"zip":"9591825"},{"town":"太田一丁目","koaza":"","lat":37.741072,"lng":139.18455,"zip":"9591825"},{"town":"太田二丁目","koaza":"","lat":37.74178,"lng":139.187681,"zip":"9591825"},{"town":"大谷","koaza":"","lat":37.72656,"lng":139.258705,"zip":"9591623"},{"town":"大原","koaza":"","lat":37.661044,"lng":139.181992,"zip":"9591734"},{"town":"荻曽根","koaza":"","lat":37.740765,"lng":139.16611,"zip":"9591852"},{"town":"小熊","koaza":"","lat":37.750032,"lng":139.149893,"zip":"9591855"},{"town":"尾白","koaza":"","lat":37.734721,"lng":139.231908,"zip":"9591621"},{"town":"小山田","koaza":"","lat":37.716929,"lng":139.258337,"zip":"9591624"},{"town":"学校町","koaza":"","lat":37.744084,"lng":139.177678,"zip":"9591866"},{"town":"上大蒲原","koaza":"","lat":37.645494,"lng":139.151035,"zip":"9591744"},{"town":"上木越","koaza":"","lat":37.708398,"lng":139.205681,"zip":"9591708"},{"town":"上杉川","koaza":"","lat":37.593099,"lng":139.255364,"zip":"9591726"},{"town":"上戸倉","koaza":"","lat":37.620123,"lng":139.163937,"zip":"9591746"},{"town":"柄沢","koaza":"","lat":37.691383,"lng":139.226572,"zip":"9591635"},{"town":"刈羽","koaza":"","lat":37.683535,"lng":139.122,"zip":"9591756"},{"town":"川瀬","koaza":"","lat":37.726278,"lng":139.194081,"zip":"9591832"},{"town":"川内","koaza":"","lat":37.677925,"lng":139.213795,"zip":"9591711"},{"town":"木越","koaza":"","lat":37.717277,"lng":139.183201,"zip":"9591834"},{"town":"木越荒屋","koaza":"","lat":37.711999,"lng":139.197581,"zip":"9591709"},{"town":"北五泉駅前","koaza":"","lat":37.747426,"lng":139.170493,"zip":"9591814"},{"town":"清瀬","koaza":"","lat":37.750898,"lng":139.220127,"zip":"9591600"},{"town":"切畑","koaza":"","lat":37.722033,"lng":139.237188,"zip":"9591625"},{"town":"熊沢","koaza":"","lat":37.67275,"lng":139.210525,"zip":"9591716"},{"town":"熊野堂","koaza":"","lat":37.702352,"lng":139.198494,"zip":"9591763"},{"town":"暮坪","koaza":"","lat":37.664476,"lng":139.233501,"zip":"9591721"},{"town":"郷屋川一丁目","koaza":"","lat":37.740383,"lng":139.178281,"zip":"9591864"},{"town":"郷屋川二丁目","koaza":"","lat":37.739776,"lng":139.181328,"zip":"9591864"},{"town":"小搦","koaza":"","lat":37.740941,"lng":139.248703,"zip":"9591612"},{"town":"小栗山","koaza":"","lat":37.732348,"lng":139.240453,"zip":"9591622"},{"town":"五泉","koaza":"","lat":37.750753,"lng":139.166953,"zip":"9591851"},{"town":"小面谷","koaza":"","lat":37.605032,"lng":139.312685,"zip":"9591725"},{"town":"小流","koaza":"","lat":37.743105,"lng":139.253957,"zip":"9591613"},{"town":"笹野町","koaza":"","lat":37.69804,"lng":139.155554,"zip":"9591753"},{"town":"笹堀","koaza":"","lat":37.739018,"lng":139.237831,"zip":"9591611"},{"town":"笹目","koaza":"","lat":37.661103,"lng":139.253823,"zip":"9591724"},{"town":"佐取","koaza":"","lat":37.72504,"lng":139.286712,"zip":"9591615"},{"town":"猿橋","koaza":"","lat":37.764318,"lng":139.159436,"zip":"9591806"},{"town":"猿和田","koaza":"","lat":37.73191,"lng":139.226428,"zip":"9591631"},{"town":"三本木","koaza":"","lat":37.754308,"lng":139.184171,"zip":"9591811"},{"town":"三本木一丁目","koaza":"","lat":37.750869,"lng":139.174503,"zip":"9591811"},{"town":"三本木二丁目","koaza":"","lat":37.754815,"lng":139.174521,"zip":"9591811"},{"town":"三本木三丁目","koaza":"","lat":37.757958,"lng":139.175979,"zip":"9591811"},{"town":"下阿弥陀瀬","koaza":"","lat":37.67683,"lng":139.200165,"zip":"9591718"},{"town":"下大蒲原","koaza":"","lat":37.658112,"lng":139.154215,"zip":"9591743"},{"town":"下新","koaza":"","lat":37.776212,"lng":139.175823,"zip":"9591802"},{"town":"下杉川","koaza":"","lat":37.654578,"lng":139.246362,"zip":"9591727"},{"town":"下戸倉","koaza":"","lat":37.627855,"lng":139.183213,"zip":"9591745"},{"town":"尻上","koaza":"","lat":37.711274,"lng":139.132684,"zip":"9591846"},{"town":"城下一丁目","koaza":"","lat":37.696699,"lng":139.16563,"zip":"9591758"},{"town":"城下二丁目","koaza":"","lat":37.691747,"lng":139.163971,"zip":"9591758"},{"town":"新田町","koaza":"","lat":37.695732,"lng":139.180137,"zip":"9591767"},{"town":"菅出","koaza":"","lat":37.707396,"lng":139.228394,"zip":"9591637"},{"town":"菅沢","koaza":"","lat":37.711131,"lng":139.101278,"zip":"9591847"},{"town":"仙見谷","koaza":"","lat":37.608723,"lng":139.219764,"zip":"9591714"},{"town":"高松","koaza":"","lat":37.642195,"lng":139.139474,"zip":"9591747"},{"town":"高山","koaza":"","lat":37.762482,"lng":139.209482,"zip":"9591602"},{"town":"田屋","koaza":"","lat":37.76718,"lng":139.170614,"zip":"9591804"},{"town":"中名沢","koaza":"","lat":37.70721,"lng":139.14764,"zip":"9591751"},{"town":"千原","koaza":"","lat":37.70679,"lng":139.159831,"zip":"9591752"},{"town":"次屋","koaza":"","lat":37.770434,"lng":139.171604,"zip":"9591807"},{"town":"土堀","koaza":"","lat":37.731857,"lng":139.218395,"zip":"9591643"},{"town":"寺沢一丁目","koaza":"","lat":37.733069,"lng":139.182121,"zip":"9591837"},{"town":"寺沢二丁目","koaza":"","lat":37.730547,"lng":139.180194,"zip":"9591837"},{"town":"寺沢三丁目","koaza":"","lat":37.730661,"lng":139.18355,"zip":"9591837"},{"town":"寺沢四丁目","koaza":"","lat":37.731051,"lng":139.188067,"zip":"9591837"},{"town":"寺沢五丁目","koaza":"","lat":37.728719,"lng":139.187123,"zip":"9591837"},{"town":"寺田","koaza":"","lat":37.669438,"lng":139.159576,"zip":"9591742"},{"town":"土深","koaza":"","lat":37.746264,"lng":139.15988,"zip":"9591853"},{"town":"土渕","koaza":"","lat":37.677154,"lng":139.225362,"zip":"9591600"},{"town":"中川新","koaza":"","lat":37.71232,"lng":139.234431,"zip":"9591632"},{"town":"中島","koaza":"","lat":37.676491,"lng":139.180349,"zip":"9591732"},{"town":"中野橋","koaza":"","lat":37.689155,"lng":139.148225,"zip":"9591754"},{"town":"長橋","koaza":"","lat":37.698422,"lng":139.141576,"zip":"9591757"},{"town":"夏針","koaza":"","lat":37.656325,"lng":139.212531,"zip":"9591715"},{"town":"錦町","koaza":"","lat":37.739401,"lng":139.173716,"zip":"9591873"},{"town":"西四ツ屋","koaza":"","lat":37.719808,"lng":139.146429,"zip":"9591844"},{"town":"能代","koaza":"","lat":37.733822,"lng":139.158403,"zip":"9591842"},{"town":"白山","koaza":"","lat":37.745101,"lng":139.171286,"zip":"9591871"},{"town":"橋田","koaza":"","lat":37.716451,"lng":139.128043,"zip":"9591848"},{"town":"馬場町一丁目","koaza":"","lat":37.74045,"lng":139.173409,"zip":"9591875"},{"town":"馬場町二丁目","koaza":"","lat":37.739584,"lng":139.170442,"zip":"9591875"},{"town":"番坂","koaza":"","lat":37.6831,"lng":139.193957,"zip":"9591766"},{"town":"東石曽根","koaza":"","lat":37.706751,"lng":139.191006,"zip":"9591762"},{"town":"東本町一丁目","koaza":"","lat":37.742644,"lng":139.17807,"zip":"9591863"},{"town":"東本町二丁目","koaza":"","lat":37.742405,"lng":139.181069,"zip":"9591863"},{"town":"東四ツ屋","koaza":"","lat":37.724684,"lng":139.217765,"zip":"9591644"},{"town":"蛭野","koaza":"","lat":37.635195,"lng":139.199514,"zip":"9591735"},{"town":"二ツ柳","koaza":"","lat":37.735321,"lng":139.164795,"zip":"9591841"},{"town":"不動堂","koaza":"","lat":37.68969,"lng":139.217099,"zip":"9591634"},{"town":"船越","koaza":"","lat":37.761879,"lng":139.164609,"zip":"9591805"},{"town":"別所","koaza":"","lat":37.674086,"lng":139.170494,"zip":"9591738"},{"town":"本町一丁目","koaza":"","lat":37.736928,"lng":139.176093,"zip":"9591865"},{"town":"本町二丁目","koaza":"","lat":37.73957,"lng":139.176082,"zip":"9591865"},{"town":"本町三丁目","koaza":"","lat":37.741291,"lng":139.176044,"zip":"9591865"},{"town":"本町四丁目","koaza":"","lat":37.742616,"lng":139.175716,"zip":"9591865"},{"town":"本町五丁目","koaza":"","lat":37.74445,"lng":139.174291,"zip":"9591865"},{"town":"本町六丁目","koaza":"","lat":37.74542,"lng":139.175618,"zip":"9591865"},{"town":"馬下","koaza":"","lat":37.728031,"lng":139.27029,"zip":"9591614"},{"town":"牧","koaza":"","lat":37.664959,"lng":139.124655,"zip":"9591748"},{"town":"町屋","koaza":"","lat":37.720047,"lng":139.156684,"zip":"9591843"},{"town":"松野","koaza":"","lat":37.677382,"lng":139.255829,"zip":"9591722"},{"town":"丸田","koaza":"","lat":37.744691,"lng":139.145051,"zip":"9591854"},{"town":"美郷","koaza":"","lat":37.684962,"lng":139.161902,"zip":"9591759"},{"town":"水島町","koaza":"","lat":37.751216,"lng":139.17698,"zip":"9591812"},{"town":"水戸野","koaza":"","lat":37.668863,"lng":139.226009,"zip":"9591713"},{"town":"緑町","koaza":"","lat":37.734389,"lng":139.185824,"zip":"9591822"},{"town":"南田中","koaza":"","lat":37.677024,"lng":139.149471,"zip":"9591741"},{"town":"南本町一丁目","koaza":"","lat":37.7349,"lng":139.175745,"zip":"9591836"},{"town":"南本町二丁目","koaza":"","lat":37.732322,"lng":139.175955,"zip":"9591836"},{"town":"南本町三丁目","koaza":"","lat":37.72968,"lng":139.175589,"zip":"9591836"},{"town":"宮町","koaza":"","lat":37.74269,"lng":139.173798,"zip":"9591872"},{"town":"宮野下","koaza":"","lat":37.702086,"lng":139.19181,"zip":"9591764"},{"town":"村松","koaza":"","lat":37.687382,"lng":139.178981,"zip":"9591707"},{"town":"村松工業団地一丁目","koaza":"","lat":37.679667,"lng":139.158876,"zip":"9591739"},{"town":"村松工業団地二丁目","koaza":"","lat":37.678791,"lng":139.163164,"zip":"9591739"},{"town":"村松工業団地三丁目","koaza":"","lat":37.675407,"lng":139.15932,"zip":"9591739"},{"town":"本田屋","koaza":"","lat":37.709383,"lng":139.175287,"zip":"9591761"},{"town":"安出","koaza":"","lat":37.6606,"lng":139.191624,"zip":"9591733"},{"town":"矢津","koaza":"","lat":37.689752,"lng":139.20518,"zip":"9591703"},{"town":"山崎","koaza":"","lat":37.753956,"lng":139.151927,"zip":"9591856"},{"town":"山谷","koaza":"","lat":37.647653,"lng":139.172231,"zip":"9591736"},{"town":"横町一丁目","koaza":"","lat":37.737469,"lng":139.173954,"zip":"9591874"},{"town":"横町二丁目","koaza":"","lat":37.736022,"lng":139.172316,"zip":"9591874"},{"town":"横町三丁目","koaza":"","lat":37.736756,"lng":139.169531,"zip":"9591874"},{"town":"横渡","koaza":"","lat":37.665085,"lng":139.243165,"zip":"9591723"},{"town":"吉沢","koaza":"","lat":37.726792,"lng":139.183207,"zip":"9591824"},{"town":"吉沢一丁目","koaza":"","lat":37.737798,"lng":139.178738,"zip":"9591824"},{"town":"吉沢二丁目","koaza":"","lat":37.737995,"lng":139.181782,"zip":"9591824"},{"town":"吉沢三丁目","koaza":"","lat":37.737852,"lng":139.184344,"zip":"9591824"},{"town":"四ツ屋新","koaza":"","lat":37.734307,"lng":139.21632,"zip":"9591642"},{"town":"羽下","koaza":"","lat":37.773075,"lng":139.177264,"zip":"9591801"},{"town":"一本杉","koaza":"","lat":37.76259,"lng":139.190797,"zip":"9591601"},{"town":"下条","koaza":"","lat":37.76452,"lng":139.174476,"zip":"9591803"},{"town":"下条川向","koaza":"","lat":37.767441,"lng":139.179613,"zip":"9591600"},{"town":"論瀬","koaza":"","lat":37.745371,"lng":139.211683,"zip":"9591604"},{"town":"荻野島","koaza":"","lat":37.742313,"lng":139.226757,"zip":"9591603"},{"town":"村松","koaza":"乙","lat":37.692232,"lng":139.174379,"zip":"9591707"},{"town":"村松","koaza":"甲","lat":37.693379,"lng":139.183368,"zip":"9591707"},{"town":"三本木","koaza":"早出","lat":37.751306,"lng":139.183634,"zip":"9591811"},{"town":"太田","koaza":"獅子淵","lat":37.743444,"lng":139.184331,"zip":"9591825"},{"town":"太田","koaza":"柳仲","lat":37.744367,"lng":139.187003,"zip":"9591825"},{"town":"船越","koaza":"江中瀬","lat":37.760068,"lng":139.170599,"zip":"9591805"},{"town":"木越","koaza":"石道","lat":37.724784,"lng":139.175674,"zip":"9591834"}]