[{"town":"相川会津町","koaza":"","lat":38.034294,"lng":138.242337,"zip":"9521537"},{"town":"相川四十物町","koaza":"","lat":38.03566,"lng":138.242806,"zip":"9521538"},{"town":"相川海士町","koaza":"","lat":38.025186,"lng":138.238815,"zip":"9521574"},{"town":"相川石扣町","koaza":"","lat":38.034756,"lng":138.238544,"zip":"9521517"},{"town":"相川板町","koaza":"","lat":38.036501,"lng":138.237325,"zip":"9521512"},{"town":"相川市町","koaza":"","lat":38.028909,"lng":138.240248,"zip":"9521566"},{"town":"相川一町目","koaza":"","lat":38.031807,"lng":138.241368,"zip":"9521557"},{"town":"相川一町目裏町","koaza":"","lat":38.031586,"lng":138.242534,"zip":"9521552"},{"town":"相川一町目浜町","koaza":"","lat":38.031674,"lng":138.24059,"zip":"9521556"},{"town":"相川馬町","koaza":"","lat":38.027639,"lng":138.24099,"zip":"9521565"},{"town":"相川江戸沢町","koaza":"","lat":38.032886,"lng":138.242508,"zip":"9521547"},{"town":"相川大浦","koaza":"","lat":38.009837,"lng":138.238665,"zip":"9521646"},{"town":"相川大床屋町","koaza":"","lat":38.034028,"lng":138.244954,"zip":"9521534"},{"town":"相川大間町","koaza":"","lat":38.037454,"lng":138.236829,"zip":"9521508"},{"town":"相川下戸炭屋裏町","koaza":"","lat":38.025797,"lng":138.238762,"zip":"9521573"},{"town":"相川下戸炭屋浜町","koaza":"","lat":38.025893,"lng":138.237146,"zip":"9521584"},{"town":"相川下戸炭屋町","koaza":"","lat":38.026064,"lng":138.238436,"zip":"9521581"},{"town":"相川下戸浜町","koaza":"","lat":38.027832,"lng":138.239316,"zip":"9521571"},{"town":"相川下戸町","koaza":"","lat":38.02737,"lng":138.2397,"zip":"9521575"},{"town":"相川下戸村","koaza":"","lat":38.025219,"lng":138.251431,"zip":"9521582"},{"town":"相川嘉左衛門町","koaza":"","lat":38.038403,"lng":138.253501,"zip":"9520000"},{"town":"相川鹿伏","koaza":"","lat":38.018642,"lng":138.233613,"zip":"9521583"},{"town":"相川上京町","koaza":"","lat":38.035149,"lng":138.245081,"zip":"9521522"},{"town":"相川上寺町","koaza":"","lat":38.034379,"lng":138.252675,"zip":"9520000"},{"town":"相川紙屋町","koaza":"","lat":38.037743,"lng":138.237568,"zip":"9521507"},{"town":"相川勘四郎町","koaza":"","lat":38.036328,"lng":138.247665,"zip":"9520000"},{"town":"相川北沢町","koaza":"","lat":38.036715,"lng":138.241098,"zip":"9521539"},{"town":"相川銀山町","koaza":"","lat":38.046159,"lng":138.270563,"zip":"9520000"},{"town":"相川小右衛門町","koaza":"","lat":38.039623,"lng":138.257243,"zip":"9520000"},{"town":"相川米屋町","koaza":"","lat":38.035308,"lng":138.242397,"zip":"9521533"},{"town":"相川五郎右衛門町","koaza":"","lat":38.038298,"lng":138.252012,"zip":"9520000"},{"town":"相川五郎左衛門町","koaza":"","lat":38.029848,"lng":138.241935,"zip":"9521553"},{"town":"相川小六町","koaza":"","lat":38.036018,"lng":138.237964,"zip":"9521514"},{"town":"相川材木町","koaza":"","lat":38.034807,"lng":138.238072,"zip":"9521518"},{"town":"相川栄町","koaza":"","lat":38.03388,"lng":138.237528,"zip":"9521511"},{"town":"相川坂下町","koaza":"","lat":38.037518,"lng":138.239964,"zip":"9521505"},{"town":"相川左門町","koaza":"","lat":38.034548,"lng":138.244791,"zip":"9521527"},{"town":"相川三町目","koaza":"","lat":38.029647,"lng":138.241649,"zip":"9521563"},{"town":"相川三町目新浜町","koaza":"","lat":38.029733,"lng":138.239955,"zip":"9521561"},{"town":"相川三町目浜町","koaza":"","lat":38.029691,"lng":138.240798,"zip":"9521562"},{"town":"相川塩屋町","koaza":"","lat":38.033943,"lng":138.239407,"zip":"9521542"},{"town":"相川次助町","koaza":"","lat":38.034307,"lng":138.258996,"zip":"9520000"},{"town":"相川柴町","koaza":"","lat":38.04008,"lng":138.236182,"zip":"9521503"},{"town":"相川下京町","koaza":"","lat":38.034903,"lng":138.242246,"zip":"9521536"},{"town":"相川下寺町","koaza":"","lat":38.031185,"lng":138.244811,"zip":"9521551"},{"town":"相川下山之神町","koaza":"","lat":38.039114,"lng":138.241874,"zip":"9521504"},{"town":"相川庄右衛門町","koaza":"","lat":38.036134,"lng":138.256482,"zip":"9520000"},{"town":"相川新五郎町","koaza":"","lat":38.035268,"lng":138.246536,"zip":"9521523"},{"town":"相川新材木町","koaza":"","lat":38.033546,"lng":138.23912,"zip":"9521541"},{"town":"相川新西坂町","koaza":"","lat":38.034847,"lng":138.239306,"zip":"9521515"},{"town":"相川新浜町","koaza":"","lat":38.028972,"lng":138.23958,"zip":"9521568"},{"town":"相川炭屋町","koaza":"","lat":38.037986,"lng":138.238122,"zip":"9521506"},{"town":"相川諏訪町","koaza":"","lat":38.036302,"lng":138.251342,"zip":"9521525"},{"town":"相川清右衛門町","koaza":"","lat":38.037782,"lng":138.253194,"zip":"9520000"},{"town":"相川宗徳町","koaza":"","lat":38.041401,"lng":138.256322,"zip":"9520000"},{"town":"相川大工町","koaza":"","lat":38.035209,"lng":138.248977,"zip":"9521524"},{"town":"相川中京町","koaza":"","lat":38.034722,"lng":138.243424,"zip":"9521535"},{"town":"相川長坂町","koaza":"","lat":38.034422,"lng":138.240159,"zip":"9521543"},{"town":"相川中寺町","koaza":"","lat":38.033835,"lng":138.249911,"zip":"9521526"},{"town":"相川奈良町","koaza":"","lat":38.038385,"lng":138.255053,"zip":"9520000"},{"town":"相川濁川町","koaza":"","lat":38.037032,"lng":138.238154,"zip":"9521513"},{"town":"相川西坂町","koaza":"","lat":38.034752,"lng":138.239799,"zip":"9521516"},{"town":"相川二町目","koaza":"","lat":38.030604,"lng":138.241717,"zip":"9521558"},{"town":"相川二町目新浜町","koaza":"","lat":38.030662,"lng":138.240231,"zip":"9521554"},{"town":"相川二町目浜町","koaza":"","lat":38.030605,"lng":138.240902,"zip":"9521555"},{"town":"相川羽田町","koaza":"","lat":38.033033,"lng":138.240863,"zip":"9521548"},{"town":"相川羽田村","koaza":"","lat":38.028039,"lng":138.241684,"zip":"9521572"},{"town":"相川柄杓町","koaza":"","lat":38.037967,"lng":138.257161,"zip":"9520000"},{"town":"相川広間町","koaza":"","lat":38.036045,"lng":138.239534,"zip":"9521531"},{"town":"相川水金町","koaza":"","lat":38.041417,"lng":138.237158,"zip":"9521502"},{"town":"相川味噌屋町","koaza":"","lat":38.034703,"lng":138.240938,"zip":"9521544"},{"town":"相川南沢町","koaza":"","lat":38.033659,"lng":138.247129,"zip":"9521546"},{"town":"相川八百屋町","koaza":"","lat":38.034179,"lng":138.241257,"zip":"9521545"},{"town":"相川弥十郎町","koaza":"","lat":38.036331,"lng":138.242762,"zip":"9521532"},{"town":"相川夕白町","koaza":"","lat":38.035689,"lng":138.244662,"zip":"9521521"},{"town":"相川四町目","koaza":"","lat":38.028517,"lng":138.240998,"zip":"9521564"},{"town":"相川四町目浜町","koaza":"","lat":38.028647,"lng":138.240371,"zip":"9521567"},{"town":"相川六右衛門町","koaza":"","lat":38.03438,"lng":138.246635,"zip":"9521528"},{"town":"青野","koaza":"","lat":38.017703,"lng":138.303041,"zip":"9521326"},{"town":"吾潟","koaza":"","lat":38.053017,"lng":138.451651,"zip":"9523421"},{"town":"赤玉","koaza":"","lat":37.999021,"lng":138.51807,"zip":"9520852"},{"town":"赤泊","koaza":"","lat":37.878562,"lng":138.390512,"zip":"9520711"},{"town":"秋津","koaza":"","lat":38.068897,"lng":138.42133,"zip":"9520021"},{"town":"旭","koaza":"","lat":38.042026,"lng":138.417106,"zip":"9520022"},{"town":"阿佛坊","koaza":"","lat":37.971791,"lng":138.373136,"zip":"9520000"},{"town":"蚫","koaza":"","lat":38.001583,"lng":138.533513,"zip":"9520851"},{"town":"安養寺","koaza":"","lat":38.060426,"lng":138.382568,"zip":"9521201"},{"town":"飯持","koaza":"","lat":37.97624,"lng":138.398404,"zip":"9520213"},{"town":"五十浦","koaza":"","lat":38.241171,"lng":138.436597,"zip":"9522202"},{"town":"石花","koaza":"","lat":38.148722,"lng":138.326098,"zip":"9522224"},{"town":"石田","koaza":"","lat":38.010694,"lng":138.322978,"zip":"9521322"},{"town":"石名","koaza":"","lat":38.202953,"lng":138.393469,"zip":"9522211"},{"town":"泉","koaza":"","lat":38.061475,"lng":138.330969,"zip":"9521212"},{"town":"市野沢","koaza":"","lat":38.018623,"lng":138.332174,"zip":"9521302"},{"town":"井坪","koaza":"","lat":37.83414,"lng":138.260941,"zip":"9520626"},{"town":"稲鯨","koaza":"","lat":37.975466,"lng":138.240232,"zip":"9521643"},{"town":"犬神平","koaza":"","lat":37.814581,"lng":138.221534,"zip":"9520614"},{"town":"岩首","koaza":"","lat":37.946534,"lng":138.48973,"zip":"9520857"},{"town":"岩谷口","koaza":"","lat":38.254354,"lng":138.459369,"zip":"9522201"},{"town":"後尾","koaza":"","lat":38.157579,"lng":138.337117,"zip":"9522223"},{"town":"歌見","koaza":"","lat":38.214847,"lng":138.472089,"zip":"9523113"},{"town":"馬首","koaza":"","lat":38.190774,"lng":138.446144,"zip":"9523117"},{"town":"梅津","koaza":"","lat":38.117062,"lng":138.380239,"zip":"9520005"},{"town":"浦川","koaza":"","lat":38.201031,"lng":138.472085,"zip":"9523114"},{"town":"江積","koaza":"","lat":37.830306,"lng":138.221282,"zip":"9520622"},{"town":"大久保","koaza":"","lat":37.961814,"lng":138.402915,"zip":"9520214"},{"town":"大倉","koaza":"","lat":38.223325,"lng":138.409997,"zip":"9522205"},{"town":"大倉谷","koaza":"","lat":37.92034,"lng":138.299953,"zip":"9520432"},{"town":"大須","koaza":"","lat":37.934514,"lng":138.32611,"zip":"9520315"},{"town":"大杉","koaza":"","lat":37.839692,"lng":138.361117,"zip":"9520716"},{"town":"多田","koaza":"","lat":37.90703,"lng":138.475104,"zip":"9520822"},{"town":"小川","koaza":"","lat":38.061631,"lng":138.249165,"zip":"9522136"},{"town":"小木","koaza":"","lat":37.815219,"lng":138.256388,"zip":"9520605"},{"town":"小木大浦","koaza":"","lat":37.830748,"lng":138.250325,"zip":"9520625"},{"town":"小木金田新田","koaza":"","lat":37.821102,"lng":138.245685,"zip":"9520611"},{"town":"小木木野浦","koaza":"","lat":37.827992,"lng":138.281625,"zip":"9520603"},{"town":"小木強清水","koaza":"","lat":37.813151,"lng":138.230343,"zip":"9520613"},{"town":"小木堂釜","koaza":"","lat":37.838584,"lng":138.271752,"zip":"9520601"},{"town":"小木町","koaza":"","lat":37.819813,"lng":138.269629,"zip":"9520604"},{"town":"小倉","koaza":"","lat":37.954451,"lng":138.451022,"zip":"9520205"},{"town":"小野見","koaza":"","lat":38.202031,"lng":138.371286,"zip":"9522212"},{"town":"貝塚","koaza":"","lat":38.033563,"lng":138.381323,"zip":"9521207"},{"town":"柿野浦","koaza":"","lat":37.965582,"lng":138.504276,"zip":"9520855"},{"town":"鍛冶町","koaza":"","lat":38.005259,"lng":138.32627,"zip":"9521323"},{"town":"春日","koaza":"","lat":38.090963,"lng":138.432816,"zip":"9520006"},{"town":"片野尾","koaza":"","lat":38.054238,"lng":138.554478,"zip":"9523542"},{"town":"潟端","koaza":"","lat":38.052423,"lng":138.427821,"zip":"9520023"},{"town":"金井新保","koaza":"","lat":38.073846,"lng":138.346154,"zip":"9521208"},{"town":"金丸","koaza":"","lat":37.994774,"lng":138.360419,"zip":"9520307"},{"town":"上相川町","koaza":"","lat":38.039151,"lng":138.259062,"zip":"9520000"},{"town":"上川茂","koaza":"","lat":37.906535,"lng":138.403444,"zip":"9520702"},{"town":"上長木","koaza":"","lat":38.007964,"lng":138.333669,"zip":"9521305"},{"town":"上新穂","koaza":"","lat":37.994032,"lng":138.475779,"zip":"9520108"},{"town":"上矢馳","koaza":"","lat":38.011466,"lng":138.332141,"zip":"9521303"},{"town":"上横山","koaza":"","lat":38.066083,"lng":138.398778,"zip":"9520024"},{"town":"加茂歌代","koaza":"","lat":38.091534,"lng":138.405171,"zip":"9520028"},{"town":"河崎","koaza":"","lat":38.047303,"lng":138.488167,"zip":"9523425"},{"town":"河原田諏訪町","koaza":"","lat":38.002526,"lng":138.315575,"zip":"9521315"},{"town":"河原田本町","koaza":"","lat":37.999098,"lng":138.32187,"zip":"9521314"},{"town":"北五十里","koaza":"","lat":38.136508,"lng":138.434055,"zip":"9520002"},{"town":"北鵜島","koaza":"","lat":38.297753,"lng":138.473799,"zip":"9523202"},{"town":"北狄","koaza":"","lat":38.087136,"lng":138.277607,"zip":"9522133"},{"town":"北片辺","koaza":"","lat":38.130975,"lng":138.343883,"zip":"9522225"},{"town":"北川内","koaza":"","lat":38.168307,"lng":138.322097,"zip":"9522222"},{"town":"北小浦","koaza":"","lat":38.273428,"lng":138.497738,"zip":"9523207"},{"town":"北立島","koaza":"","lat":38.172996,"lng":138.332732,"zip":"9522221"},{"town":"北田野浦","koaza":"","lat":38.183743,"lng":138.382573,"zip":"9522213"},{"town":"北松ケ崎","koaza":"","lat":38.185482,"lng":138.469772,"zip":"9523116"},{"town":"久知河内","koaza":"","lat":38.027571,"lng":138.505406,"zip":"9523423"},{"town":"窪田","koaza":"","lat":38.009788,"lng":138.302379,"zip":"9521325"},{"town":"栗野江","koaza":"","lat":37.993491,"lng":138.416971,"zip":"9520202"},{"town":"黒姫","koaza":"","lat":38.233621,"lng":138.477917,"zip":"9523112"},{"town":"国分寺","koaza":"","lat":37.961961,"lng":138.371878,"zip":"9520304"},{"town":"小田","koaza":"","lat":38.209491,"lng":138.416891,"zip":"9522206"},{"town":"琴浦","koaza":"","lat":37.810518,"lng":138.255528,"zip":"9520606"},{"town":"木流","koaza":"","lat":37.83147,"lng":138.241195,"zip":"9520624"},{"town":"小比叡","koaza":"","lat":37.838115,"lng":138.284638,"zip":"9520602"},{"town":"猿八","koaza":"","lat":37.937897,"lng":138.418087,"zip":"9520215"},{"town":"沢崎","koaza":"","lat":37.824626,"lng":138.214736,"zip":"9520621"},{"town":"沢根","koaza":"","lat":38.006958,"lng":138.263506,"zip":"9521432"},{"town":"三宮","koaza":"","lat":37.985177,"lng":138.362618,"zip":"9520216"},{"town":"三瀬川","koaza":"","lat":38.051464,"lng":138.398547,"zip":"9521204"},{"town":"椎泊","koaza":"","lat":38.052272,"lng":138.503406,"zip":"9523432"},{"town":"静平","koaza":"","lat":37.91979,"lng":138.353836,"zip":"9520321"},{"town":"下相川","koaza":"","lat":38.045214,"lng":138.247838,"zip":"9521501"},{"town":"下川茂","koaza":"","lat":37.901088,"lng":138.372932,"zip":"9520701"},{"town":"下久知","koaza":"","lat":38.056944,"lng":138.469817,"zip":"9523424"},{"town":"下黒山","koaza":"","lat":37.904605,"lng":138.337573,"zip":"9520322"},{"town":"下長木","koaza":"","lat":38.008739,"lng":138.336091,"zip":"9521304"},{"town":"下新穂","koaza":"","lat":38.016226,"lng":138.395809,"zip":"9520114"},{"town":"下横山","koaza":"","lat":38.05927,"lng":138.406181,"zip":"9520025"},{"town":"宿根木","koaza":"","lat":37.810919,"lng":138.24501,"zip":"9520612"},{"town":"城腰","koaza":"","lat":38.056448,"lng":138.462977,"zip":"9523422"},{"town":"白瀬","koaza":"","lat":38.155339,"lng":138.41636,"zip":"9520001"},{"town":"真光寺","koaza":"","lat":38.052138,"lng":138.314917,"zip":"9521301"},{"town":"水津","koaza":"","lat":38.070327,"lng":138.565415,"zip":"9523541"},{"town":"杉野浦","koaza":"","lat":37.847696,"lng":138.37299,"zip":"9520715"},{"town":"住吉","koaza":"","lat":38.064029,"lng":138.454099,"zip":"9520015"},{"town":"関","koaza":"","lat":38.231132,"lng":138.4327,"zip":"9522203"},{"town":"背合","koaza":"","lat":37.941006,"lng":138.322628,"zip":"9520316"},{"town":"大小","koaza":"","lat":37.930241,"lng":138.31125,"zip":"9520431"},{"town":"高千","koaza":"","lat":38.176817,"lng":138.360674,"zip":"9522214"},{"town":"田切須","koaza":"","lat":37.908952,"lng":138.287737,"zip":"9520433"},{"town":"滝脇","koaza":"","lat":37.942476,"lng":138.332509,"zip":"9520314"},{"town":"竹田","koaza":"","lat":37.955653,"lng":138.387334,"zip":"9520302"},{"town":"高瀬","koaza":"","lat":37.996126,"lng":138.242984,"zip":"9521645"},{"town":"橘","koaza":"","lat":37.983262,"lng":138.242236,"zip":"9521644"},{"town":"達者","koaza":"","lat":38.073813,"lng":138.263302,"zip":"9522135"},{"town":"立間","koaza":"","lat":37.988708,"lng":138.515302,"zip":"9520853"},{"town":"立野","koaza":"","lat":38.066202,"lng":138.387769,"zip":"9520026"},{"town":"田野浦","koaza":"","lat":37.830968,"lng":138.232279,"zip":"9520623"},{"town":"玉崎","koaza":"","lat":38.161014,"lng":138.445733,"zip":"9523119"},{"town":"千種","koaza":"","lat":38.041521,"lng":138.3643,"zip":"9521209"},{"town":"月布施","koaza":"","lat":38.036181,"lng":138.543851,"zip":"9523543"},{"town":"椿","koaza":"","lat":38.137369,"lng":138.408495,"zip":"9520003"},{"town":"椿尾","koaza":"","lat":37.89297,"lng":138.316216,"zip":"9520435"},{"town":"寺田","koaza":"","lat":37.994424,"lng":138.392744,"zip":"9520207"},{"town":"徳和","koaza":"","lat":37.886596,"lng":138.41185,"zip":"9520706"},{"town":"戸地","koaza":"","lat":38.096825,"lng":138.312412,"zip":"9522132"},{"town":"戸中","koaza":"","lat":38.126842,"lng":138.30136,"zip":"9522131"},{"town":"外山","koaza":"","lat":37.92068,"lng":138.409875,"zip":"9520703"},{"town":"豊岡","koaza":"","lat":37.97525,"lng":138.511469,"zip":"9520854"},{"town":"豊田","koaza":"","lat":37.941965,"lng":138.342983,"zip":"9520317"},{"town":"長石","koaza":"","lat":37.973123,"lng":138.346802,"zip":"9520305"},{"town":"長江","koaza":"","lat":38.086679,"lng":138.374582,"zip":"9520027"},{"town":"中興","koaza":"","lat":38.045485,"lng":138.351287,"zip":"9521211"},{"town":"長木","koaza":"","lat":38.003302,"lng":138.340252,"zip":"9521306"},{"town":"中原","koaza":"","lat":38.007546,"lng":138.317324,"zip":"9521324"},{"town":"名古屋","koaza":"","lat":37.971628,"lng":138.350979,"zip":"9520311"},{"town":"新穂","koaza":"","lat":38.014637,"lng":138.422643,"zip":"9520116"},{"town":"新穂青木","koaza":"","lat":38.005573,"lng":138.47523,"zip":"9520102"},{"town":"新穂井内","koaza":"","lat":38.010786,"lng":138.430854,"zip":"9520107"},{"town":"新穂瓜生屋","koaza":"","lat":38.013241,"lng":138.445451,"zip":"9520106"},{"town":"新穂大野","koaza":"","lat":37.986648,"lng":138.436486,"zip":"9520109"},{"town":"新穂潟上","koaza":"","lat":38.041557,"lng":138.436075,"zip":"9520103"},{"town":"新穂北方","koaza":"","lat":38.017646,"lng":138.414932,"zip":"9520115"},{"town":"新穂正明寺","koaza":"","lat":38.021752,"lng":138.448633,"zip":"9520105"},{"town":"新穂武井","koaza":"","lat":38.006307,"lng":138.404438,"zip":"9520111"},{"town":"新穂田野沢","koaza":"","lat":38.022199,"lng":138.48026,"zip":"9520104"},{"town":"新穂長畝","koaza":"","lat":38.034656,"lng":138.412007,"zip":"9520101"},{"town":"新穂舟下","koaza":"","lat":38.009796,"lng":138.397739,"zip":"9520112"},{"town":"新穂皆川","koaza":"","lat":38.013511,"lng":138.384681,"zip":"9520113"},{"town":"二宮","koaza":"","lat":38.054691,"lng":138.304851,"zip":"9521308"},{"town":"西三川","koaza":"","lat":37.910598,"lng":138.323062,"zip":"9520434"},{"town":"入川","koaza":"","lat":38.16578,"lng":138.356307,"zip":"9522215"},{"town":"願","koaza":"","lat":38.316057,"lng":138.476248,"zip":"9523203"},{"town":"野浦","koaza":"","lat":38.025762,"lng":138.537808,"zip":"9523544"},{"town":"長谷","koaza":"","lat":37.975764,"lng":138.417811,"zip":"9520204"},{"town":"畑野","koaza":"","lat":38.00155,"lng":138.376552,"zip":"9520206"},{"town":"羽二生","koaza":"","lat":38.065897,"lng":138.532334,"zip":"9523434"},{"town":"浜河内","koaza":"","lat":37.926037,"lng":138.453728,"zip":"9520823"},{"town":"浜田","koaza":"","lat":38.08771,"lng":138.430409,"zip":"9520007"},{"town":"羽茂飯岡","koaza":"","lat":37.856201,"lng":138.326852,"zip":"9520503"},{"town":"羽茂大石","koaza":"","lat":37.831287,"lng":138.321681,"zip":"9520511"},{"town":"羽茂大崎","koaza":"","lat":37.879215,"lng":138.332855,"zip":"9520502"},{"town":"羽茂大橋","koaza":"","lat":37.836155,"lng":138.301544,"zip":"9520512"},{"town":"羽茂上山田","koaza":"","lat":37.864623,"lng":138.316592,"zip":"9520515"},{"town":"羽茂亀脇","koaza":"","lat":37.870929,"lng":138.290121,"zip":"9520422"},{"town":"羽茂小泊","koaza":"","lat":37.879646,"lng":138.300493,"zip":"9520421"},{"town":"羽茂三瀬","koaza":"","lat":37.832172,"lng":138.34531,"zip":"9520505"},{"town":"羽茂滝平","koaza":"","lat":37.889544,"lng":138.349713,"zip":"9520501"},{"town":"羽茂本郷","koaza":"","lat":37.858579,"lng":138.351632,"zip":"9520504"},{"town":"羽茂村山","koaza":"","lat":37.85776,"lng":138.291241,"zip":"9520513"},{"town":"羽吉","koaza":"","lat":38.117859,"lng":138.418254,"zip":"9520004"},{"town":"原黒","koaza":"","lat":38.069745,"lng":138.44193,"zip":"9520016"},{"town":"東鵜島","koaza":"","lat":37.95388,"lng":138.502354,"zip":"9520856"},{"town":"東大通","koaza":"","lat":38.003714,"lng":138.33098,"zip":"9521307"},{"town":"東強清水","koaza":"","lat":38.01243,"lng":138.544114,"zip":"9523545"},{"town":"東立島","koaza":"","lat":38.012462,"lng":138.530818,"zip":"9523546"},{"town":"姫津","koaza":"","lat":38.08364,"lng":138.242782,"zip":"9522134"},{"town":"平清水","koaza":"","lat":38.041084,"lng":138.336363,"zip":"9521213"},{"town":"平松","koaza":"","lat":38.191354,"lng":138.477329,"zip":"9523115"},{"town":"深浦","koaza":"","lat":37.816589,"lng":138.220306,"zip":"9520615"},{"town":"畉田","koaza":"","lat":37.985999,"lng":138.371865,"zip":"9520211"},{"town":"二見","koaza":"","lat":37.978449,"lng":138.253939,"zip":"9521641"},{"town":"坊ケ浦","koaza":"","lat":37.985779,"lng":138.407296,"zip":"9520203"},{"town":"真浦","koaza":"","lat":37.866865,"lng":138.393609,"zip":"9520712"},{"town":"真木","koaza":"","lat":38.063658,"lng":138.489106,"zip":"9523431"},{"town":"真更川","koaza":"","lat":38.28279,"lng":138.461945,"zip":"9523201"},{"town":"真野","koaza":"","lat":37.946428,"lng":138.363602,"zip":"9520313"},{"town":"真野大川","koaza":"","lat":37.973738,"lng":138.378765,"zip":"9520301"},{"town":"真野新町","koaza":"","lat":37.965037,"lng":138.346807,"zip":"9520318"},{"town":"丸山","koaza":"","lat":37.910576,"lng":138.460269,"zip":"9520824"},{"town":"三川","koaza":"","lat":37.904604,"lng":138.435172,"zip":"9520705"},{"town":"見立","koaza":"","lat":38.294495,"lng":138.502878,"zip":"9523206"},{"town":"水渡田","koaza":"","lat":38.044721,"lng":138.404862,"zip":"9521205"},{"town":"南片辺","koaza":"","lat":38.139231,"lng":138.309326,"zip":"9522226"},{"town":"南新保","koaza":"","lat":37.856628,"lng":138.384091,"zip":"9520714"},{"town":"宮川","koaza":"","lat":37.987498,"lng":138.380429,"zip":"9520212"},{"town":"虫崎","koaza":"","lat":38.252299,"lng":138.492942,"zip":"9523111"},{"town":"莚場","koaza":"","lat":37.894099,"lng":138.451697,"zip":"9520704"},{"town":"目黒町","koaza":"","lat":38.002929,"lng":138.38991,"zip":"9520201"},{"town":"両尾","koaza":"","lat":38.055704,"lng":138.517306,"zip":"9523433"},{"town":"矢柄","koaza":"","lat":38.229366,"lng":138.417072,"zip":"9522204"},{"town":"柳沢","koaza":"","lat":37.862864,"lng":138.385581,"zip":"9520713"},{"town":"八幡","koaza":"","lat":37.990633,"lng":138.33922,"zip":"9521311"},{"town":"八幡新町","koaza":"","lat":37.994208,"lng":138.329611,"zip":"9521312"},{"town":"八幡町","koaza":"","lat":37.996399,"lng":138.326847,"zip":"9521313"},{"town":"山田","koaza":"","lat":38.043473,"lng":138.290969,"zip":"9521321"},{"town":"大和","koaza":"","lat":38.037314,"lng":138.394752,"zip":"9521206"},{"town":"吉井","koaza":"","lat":38.047799,"lng":138.395416,"zip":"9521203"},{"town":"吉井本郷","koaza":"","lat":38.062969,"lng":138.373377,"zip":"9521202"},{"town":"吉岡","koaza":"","lat":37.963013,"lng":138.360305,"zip":"9520312"},{"town":"四日町","koaza":"","lat":37.98237,"lng":138.350153,"zip":"9520306"},{"town":"米郷","koaza":"","lat":37.970559,"lng":138.24966,"zip":"9521642"},{"town":"両津夷","koaza":"","lat":38.084823,"lng":138.43225,"zip":"9520011"},{"town":"両津夷新","koaza":"","lat":38.086785,"lng":138.431305,"zip":"9520012"},{"town":"両津大川","koaza":"","lat":38.068127,"lng":138.550245,"zip":"9523435"},{"town":"両津福浦一丁目","koaza":"","lat":38.086157,"lng":138.428222,"zip":"9520013"},{"town":"両津福浦二丁目","koaza":"","lat":38.085976,"lng":138.426688,"zip":"9520013"},{"town":"両津福浦三丁目","koaza":"","lat":38.086793,"lng":138.424466,"zip":"9520013"},{"town":"両津湊","koaza":"","lat":38.07807,"lng":138.438464,"zip":"9520014"},{"town":"和木","koaza":"","lat":38.172547,"lng":138.437656,"zip":"9523118"},{"town":"鷲崎","koaza":"","lat":38.317516,"lng":138.502213,"zip":"9523205"},{"town":"沢根炭屋町","koaza":"","lat":38.007476,"lng":138.290553,"zip":"9521431"},{"town":"沢根五十里","koaza":"","lat":38.024351,"lng":138.280653,"zip":"9521432"},{"town":"沢根篭町","koaza":"","lat":38.006496,"lng":138.280079,"zip":"9521433"},{"town":"沢根町","koaza":"","lat":38.004292,"lng":138.275595,"zip":"9521434"},{"town":"松ケ崎","koaza":"","lat":37.929665,"lng":138.48462,"zip":"9520821"},{"town":"八幡町","koaza":"鴨摺","lat":37.998446,"lng":138.326091,"zip":"9521313"},{"town":"市野沢","koaza":"嶋の腰","lat":38.009805,"lng":138.339173,"zip":"9521302"},{"town":"泉","koaza":"嶋の前","lat":38.009905,"lng":138.343267,"zip":"9521212"},{"town":"泉","koaza":"小又","lat":38.011371,"lng":138.346607,"zip":"9521212"},{"town":"両津夷","koaza":"川方","lat":38.083049,"lng":138.434124,"zip":"9520011"}]