[{"town":"位守町","koaza":"","lat":37.993366,"lng":139.245219,"zip":"9570102"},{"town":"大字網代浜","koaza":"","lat":38.001786,"lng":139.261641,"zip":"9570100"},{"town":"大字上大谷内","koaza":"","lat":37.978037,"lng":139.304062,"zip":"9570100"},{"town":"大字亀塚","koaza":"","lat":38.009111,"lng":139.264793,"zip":"9570100"},{"town":"大字三賀","koaza":"","lat":37.959363,"lng":139.283714,"zip":"9570100"},{"town":"大字次第浜","koaza":"","lat":38.01524,"lng":139.279384,"zip":"9570100"},{"town":"大字諏訪山","koaza":"","lat":37.974322,"lng":139.275316,"zip":"9570100"},{"town":"大字大夫","koaza":"","lat":37.965277,"lng":139.282623,"zip":"9570100"},{"town":"大字大夫興野","koaza":"","lat":37.960373,"lng":139.246913,"zip":"9570100"},{"town":"大字道賀新田","koaza":"","lat":37.983652,"lng":139.305692,"zip":"9570100"},{"town":"大字二本松","koaza":"","lat":37.958904,"lng":139.263053,"zip":"9570100"},{"town":"大字蓮潟","koaza":"","lat":37.985158,"lng":139.269491,"zip":"9570100"},{"town":"大字蓮野","koaza":"","lat":37.969267,"lng":139.256002,"zip":"9570100"},{"town":"大字藤寄","koaza":"","lat":37.952556,"lng":139.241005,"zip":"9570100"},{"town":"大字別條","koaza":"","lat":37.96999,"lng":139.26913,"zip":"9570100"},{"town":"大字真野","koaza":"","lat":37.983469,"lng":139.290352,"zip":"9570100"},{"town":"大字丸潟","koaza":"","lat":37.974279,"lng":139.299469,"zip":"9570100"},{"town":"大字桃山","koaza":"","lat":37.97791,"lng":139.292131,"zip":"9570100"},{"town":"大字山倉","koaza":"","lat":37.974653,"lng":139.285863,"zip":"9570100"},{"town":"東港一丁目","koaza":"","lat":37.998689,"lng":139.239572,"zip":"9570101"},{"town":"東港二丁目","koaza":"","lat":37.986766,"lng":139.236817,"zip":"9570101"},{"town":"東港三丁目","koaza":"","lat":37.97704,"lng":139.24263,"zip":"9570101"},{"town":"東港四丁目","koaza":"","lat":37.969552,"lng":139.243258,"zip":"9570101"},{"town":"東港五丁目","koaza":"","lat":37.991263,"lng":139.251095,"zip":"9570101"},{"town":"東港六丁目","koaza":"","lat":37.98471,"lng":139.249912,"zip":"9570101"},{"town":"東港七丁目","koaza":"","lat":37.979681,"lng":139.253758,"zip":"9570101"},{"town":"大字蓮野","koaza":"西山","lat":37.97011,"lng":139.255941,"zip":"9570100"}]