[{"town":"会沢","koaza":"","lat":37.157891,"lng":138.626825,"zip":"9421543"},{"town":"明石町","koaza":"","lat":37.118863,"lng":138.739777,"zip":"9480046"},{"town":"赤谷癸","koaza":"","lat":37.210272,"lng":138.681025,"zip":"9480000"},{"town":"莇平","koaza":"","lat":37.16287,"lng":138.584778,"zip":"9421531"},{"town":"新里","koaza":"","lat":37.016356,"lng":138.688279,"zip":"9498445"},{"town":"新町新田","koaza":"","lat":37.195036,"lng":138.733337,"zip":"9480121"},{"town":"荒屋","koaza":"","lat":37.048215,"lng":138.690136,"zip":"9498414"},{"town":"新屋敷","koaza":"","lat":37.082378,"lng":138.707316,"zip":"9498502"},{"town":"安養寺","koaza":"","lat":37.089703,"lng":138.697689,"zip":"9498562"},{"town":"亥乙","koaza":"","lat":37.127673,"lng":138.816499,"zip":"9480000"},{"town":"池尻","koaza":"","lat":37.125658,"lng":138.587767,"zip":"9421525"},{"town":"池之畑","koaza":"","lat":37.121024,"lng":138.630296,"zip":"9421515"},{"town":"伊勢平治","koaza":"","lat":37.168952,"lng":138.756501,"zip":"9480131"},{"town":"市之越","koaza":"","lat":37.026057,"lng":138.722982,"zip":"9498422"},{"town":"稲葉","koaza":"","lat":37.156056,"lng":138.709082,"zip":"9480101"},{"town":"戌","koaza":"","lat":37.107617,"lng":138.826904,"zip":"9480000"},{"town":"犬伏","koaza":"","lat":37.138375,"lng":138.651309,"zip":"9421504"},{"town":"芋川","koaza":"","lat":37.026469,"lng":138.697439,"zip":"9498441"},{"town":"芋川新田","koaza":"","lat":37.038342,"lng":138.692328,"zip":"9498421"},{"town":"芋沢","koaza":"","lat":37.06579,"lng":138.716368,"zip":"9498405"},{"town":"岩瀬子","koaza":"","lat":37.209545,"lng":138.697297,"zip":"9480000"},{"town":"卯","koaza":"","lat":37.121267,"lng":138.790122,"zip":"9480000"},{"town":"上野","koaza":"","lat":37.176014,"lng":138.74545,"zip":"9480122"},{"town":"上野甲","koaza":"","lat":37.185257,"lng":138.731438,"zip":"9480000"},{"town":"午","koaza":"","lat":37.131408,"lng":138.790723,"zip":"9480000"},{"town":"浦田","koaza":"","lat":37.059323,"lng":138.554537,"zip":"9421342"},{"town":"上山","koaza":"","lat":37.05267,"lng":138.699793,"zip":"9498401"},{"town":"大倉丑","koaza":"","lat":37.209742,"lng":138.711136,"zip":"9480000"},{"town":"大黒沢","koaza":"","lat":37.107727,"lng":138.745742,"zip":"9498521"},{"town":"大白倉寅","koaza":"","lat":37.222134,"lng":138.702028,"zip":"9480000"},{"town":"沖立","koaza":"","lat":37.163327,"lng":138.746833,"zip":"9480133"},{"town":"尾崎","koaza":"","lat":37.14939,"lng":138.771875,"zip":"9480008"},{"town":"乙","koaza":"","lat":37.097589,"lng":138.759053,"zip":"9480000"},{"town":"苧島","koaza":"","lat":37.156274,"lng":138.656471,"zip":"9421505"},{"town":"海老","koaza":"","lat":37.110667,"lng":138.654845,"zip":"9421511"},{"town":"角間","koaza":"","lat":36.996904,"lng":138.746832,"zip":"9498435"},{"town":"春日","koaza":"","lat":37.131445,"lng":138.748604,"zip":"9480057"},{"town":"片桐山","koaza":"","lat":37.141166,"lng":138.67397,"zip":"9421502"},{"town":"桂","koaza":"","lat":37.06034,"lng":138.701263,"zip":"9498402"},{"town":"庚","koaza":"","lat":37.045477,"lng":138.792077,"zip":"9480000"},{"town":"上新井","koaza":"","lat":37.153285,"lng":138.745854,"zip":"9480134"},{"town":"上組","koaza":"","lat":37.188617,"lng":138.799079,"zip":"9498602"},{"town":"上新田","koaza":"","lat":37.184259,"lng":138.774509,"zip":"9480000"},{"town":"蒲生","koaza":"","lat":37.132097,"lng":138.581529,"zip":"9421534"},{"town":"河内町","koaza":"","lat":37.124474,"lng":138.752547,"zip":"9480038"},{"town":"川治","koaza":"","lat":37.106317,"lng":138.764946,"zip":"9480036"},{"town":"己","koaza":"","lat":37.068982,"lng":138.775333,"zip":"9480000"},{"town":"木落","koaza":"","lat":37.189335,"lng":138.76627,"zip":"9480304"},{"town":"桔梗原","koaza":"","lat":37.037314,"lng":138.696821,"zip":"9498419"},{"town":"北鐙坂","koaza":"","lat":37.130416,"lng":138.69556,"zip":"9480105"},{"town":"北新田","koaza":"","lat":37.123232,"lng":138.743125,"zip":"9480041"},{"town":"儀明","koaza":"","lat":37.140702,"lng":138.55631,"zip":"9421536"},{"town":"桐山","koaza":"","lat":37.175846,"lng":138.654155,"zip":"9421541"},{"town":"木和田原","koaza":"","lat":37.135231,"lng":138.540801,"zip":"9421352"},{"town":"倉下","koaza":"","lat":36.992716,"lng":138.762816,"zip":"9498432"},{"town":"倉俣","koaza":"","lat":37.011722,"lng":138.698322,"zip":"9498412"},{"town":"下条一丁目","koaza":"","lat":37.183256,"lng":138.784469,"zip":"9498603"},{"town":"下条二丁目","koaza":"","lat":37.191092,"lng":138.778192,"zip":"9498603"},{"town":"下条三丁目","koaza":"","lat":37.195945,"lng":138.776197,"zip":"9498603"},{"town":"下条四丁目","koaza":"","lat":37.200993,"lng":138.779199,"zip":"9498603"},{"town":"小荒戸","koaza":"","lat":37.130922,"lng":138.625739,"zip":"9421523"},{"town":"小池","koaza":"","lat":37.160371,"lng":138.5748,"zip":"9421538"},{"town":"小泉","koaza":"","lat":37.142193,"lng":138.728929,"zip":"9480103"},{"town":"小出","koaza":"","lat":36.953155,"lng":138.734933,"zip":"9498433"},{"town":"甲","koaza":"","lat":37.108116,"lng":138.754726,"zip":"9480000"},{"town":"高道山","koaza":"","lat":37.032423,"lng":138.705917,"zip":"9498416"},{"town":"小黒沢","koaza":"","lat":37.09503,"lng":138.756111,"zip":"9498527"},{"town":"越ケ沢壬","koaza":"","lat":37.195926,"lng":138.703234,"zip":"9480000"},{"town":"小白倉卯","koaza":"","lat":37.228358,"lng":138.686542,"zip":"9480000"},{"town":"寿町一丁目","koaza":"","lat":37.126073,"lng":138.752711,"zip":"9480051"},{"town":"寿町二丁目","koaza":"","lat":37.127383,"lng":138.753093,"zip":"9480051"},{"town":"寿町三丁目","koaza":"","lat":37.128208,"lng":138.753977,"zip":"9480051"},{"town":"寿町四丁目","koaza":"","lat":37.129293,"lng":138.754537,"zip":"9480051"},{"town":"小根岸","koaza":"","lat":37.177438,"lng":138.762154,"zip":"9480125"},{"town":"小原","koaza":"","lat":37.062868,"lng":138.695371,"zip":"9498409"},{"town":"小松原","koaza":"","lat":36.909959,"lng":138.694902,"zip":"9480000"},{"town":"小屋丸","koaza":"","lat":37.112175,"lng":138.621521,"zip":"9421514"},{"town":"小脇丁","koaza":"","lat":37.1622,"lng":138.671905,"zip":"9480218"},{"town":"西方","koaza":"","lat":36.988902,"lng":138.728956,"zip":"9498436"},{"town":"栄町","koaza":"","lat":37.130807,"lng":138.755277,"zip":"9480068"},{"town":"真田乙","koaza":"","lat":37.117918,"lng":138.687681,"zip":"9480112"},{"town":"真田甲","koaza":"","lat":37.107427,"lng":138.677933,"zip":"9480111"},{"town":"真田丁","koaza":"","lat":37.114472,"lng":138.678161,"zip":"9480112"},{"town":"真田丙","koaza":"","lat":37.126572,"lng":138.683802,"zip":"9480114"},{"town":"申甲","koaza":"","lat":37.11077,"lng":138.79812,"zip":"9480000"},{"town":"三領","koaza":"","lat":37.18154,"lng":138.763231,"zip":"9480124"},{"town":"下平新田","koaza":"","lat":37.183971,"lng":138.756976,"zip":"9480123"},{"town":"清水","koaza":"","lat":37.167758,"lng":138.632164,"zip":"9421542"},{"town":"下組","koaza":"","lat":37.214988,"lng":138.792418,"zip":"9498604"},{"town":"霜条","koaza":"","lat":37.174421,"lng":138.741218,"zip":"9480141"},{"town":"重地","koaza":"","lat":37.011739,"lng":138.707876,"zip":"9498442"},{"town":"昭和町一丁目","koaza":"","lat":37.130258,"lng":138.756349,"zip":"9480061"},{"town":"白羽毛","koaza":"","lat":37.019809,"lng":138.714341,"zip":"9498427"},{"town":"新座乙","koaza":"","lat":37.132614,"lng":138.82437,"zip":"9498612"},{"town":"新宮乙","koaza":"","lat":37.099498,"lng":138.723295,"zip":"9480000"},{"town":"新宮甲","koaza":"","lat":37.065166,"lng":138.750773,"zip":"9480000"},{"town":"菅刈","koaza":"","lat":37.146453,"lng":138.630559,"zip":"9421521"},{"town":"姿","koaza":"","lat":37.103152,"lng":138.704447,"zip":"9498561"},{"town":"住吉町","koaza":"","lat":37.134658,"lng":138.749616,"zip":"9480076"},{"town":"清田山","koaza":"","lat":36.991755,"lng":138.712816,"zip":"9498444"},{"town":"関口樋口町","koaza":"","lat":37.133052,"lng":138.759941,"zip":"9480087"},{"town":"仙納","koaza":"","lat":37.158129,"lng":138.595188,"zip":"9421532"},{"town":"太平","koaza":"","lat":37.139751,"lng":138.625831,"zip":"9421527"},{"town":"高倉戊","koaza":"","lat":37.159834,"lng":138.691285,"zip":"9480000"},{"town":"高島","koaza":"","lat":37.115966,"lng":138.721726,"zip":"9480107"},{"town":"高田町三丁目","koaza":"","lat":37.132993,"lng":138.754006,"zip":"9480063"},{"town":"鷹羽","koaza":"","lat":37.020483,"lng":138.746137,"zip":"9498423"},{"town":"高原田","koaza":"","lat":37.16921,"lng":138.73892,"zip":"9480136"},{"town":"高山","koaza":"","lat":37.131667,"lng":138.741439,"zip":"9480055"},{"town":"滝沢","koaza":"","lat":37.147371,"lng":138.679889,"zip":"9421501"},{"town":"竹所","koaza":"","lat":37.121467,"lng":138.543847,"zip":"9421356"},{"town":"田沢本村","koaza":"","lat":37.057639,"lng":138.714333,"zip":"9498403"},{"town":"田代","koaza":"","lat":36.975782,"lng":138.71679,"zip":"9498413"},{"town":"伊達乙","koaza":"","lat":37.085353,"lng":138.749896,"zip":"9480000"},{"town":"伊達庚","koaza":"","lat":37.037669,"lng":138.782335,"zip":"9480000"},{"town":"伊達己","koaza":"","lat":37.058474,"lng":138.77009,"zip":"9480000"},{"town":"伊達甲","koaza":"","lat":37.088577,"lng":138.755623,"zip":"9480000"},{"town":"伊達辛","koaza":"","lat":37.031143,"lng":138.761478,"zip":"9480000"},{"town":"伊達丁","koaza":"","lat":37.071833,"lng":138.762086,"zip":"9498522"},{"town":"城之古","koaza":"","lat":37.12302,"lng":138.73723,"zip":"9480047"},{"town":"伊達丙","koaza":"","lat":37.077723,"lng":138.750762,"zip":"9480000"},{"town":"伊達戊","koaza":"","lat":37.061912,"lng":138.760621,"zip":"9480000"},{"town":"田戸辛","koaza":"","lat":37.18515,"lng":138.701247,"zip":"9480000"},{"town":"田中","koaza":"","lat":37.055629,"lng":138.696139,"zip":"9498407"},{"town":"田野倉","koaza":"","lat":37.147594,"lng":138.585459,"zip":"9421533"},{"town":"樽沢","koaza":"","lat":37.142644,"lng":138.701293,"zip":"9480104"},{"town":"千年","koaza":"","lat":37.121301,"lng":138.605694,"zip":"9421524"},{"town":"千歳町一丁目","koaza":"","lat":37.124958,"lng":138.754073,"zip":"9480067"},{"town":"千歳町二丁目","koaza":"","lat":37.126318,"lng":138.755061,"zip":"9480067"},{"town":"千歳町三丁目","koaza":"","lat":37.127783,"lng":138.755795,"zip":"9480067"},{"town":"土倉","koaza":"","lat":37.003491,"lng":138.767426,"zip":"9498431"},{"town":"坪山","koaza":"","lat":37.173965,"lng":138.720462,"zip":"9480145"},{"town":"妻有町西一丁目","koaza":"","lat":37.124568,"lng":138.750794,"zip":"9480000"},{"town":"妻有町西二丁目","koaza":"","lat":37.122971,"lng":138.750285,"zip":"9480000"},{"town":"妻有町西三丁目","koaza":"","lat":37.121588,"lng":138.749398,"zip":"9480000"},{"town":"妻有町東一丁目","koaza":"","lat":37.122665,"lng":138.752257,"zip":"9480000"},{"town":"妻有町東二丁目","koaza":"","lat":37.120988,"lng":138.750856,"zip":"9480000"},{"town":"鶴吉","koaza":"","lat":37.178695,"lng":138.733359,"zip":"9480146"},{"town":"丁","koaza":"","lat":37.078719,"lng":138.78745,"zip":"9480000"},{"town":"寺ケ崎","koaza":"","lat":37.196916,"lng":138.749784,"zip":"9480303"},{"town":"寺田","koaza":"","lat":37.152713,"lng":138.565345,"zip":"9421537"},{"town":"峠","koaza":"","lat":37.118617,"lng":138.530578,"zip":"9421351"},{"town":"東善寺","koaza":"","lat":37.161088,"lng":138.720199,"zip":"9480142"},{"town":"通り山","koaza":"","lat":37.043448,"lng":138.702811,"zip":"9498415"},{"town":"友重乙","koaza":"","lat":37.171556,"lng":138.751617,"zip":"9480000"},{"town":"友重甲","koaza":"","lat":37.171199,"lng":138.754676,"zip":"9480000"},{"town":"寅乙","koaza":"","lat":37.146633,"lng":138.749833,"zip":"9480000"},{"town":"酉甲","koaza":"","lat":37.103663,"lng":138.809393,"zip":"9480000"},{"town":"中子","koaza":"","lat":37.150205,"lng":138.669178,"zip":"9421506"},{"town":"中里下山","koaza":"","lat":37.00068,"lng":138.707143,"zip":"9498443"},{"town":"中条乙","koaza":"","lat":37.164759,"lng":138.786173,"zip":"9498616"},{"town":"中条庚","koaza":"","lat":37.156779,"lng":138.815357,"zip":"9498613"},{"town":"中条己","koaza":"","lat":37.169767,"lng":138.807841,"zip":"9498617"},{"town":"中条甲","koaza":"","lat":37.165507,"lng":138.769297,"zip":"9498615"},{"town":"中条丁","koaza":"","lat":37.139149,"lng":138.85542,"zip":"9498616"},{"town":"中条丙","koaza":"","lat":37.148648,"lng":138.790411,"zip":"9498614"},{"town":"中条戊","koaza":"","lat":37.165097,"lng":138.831864,"zip":"9498618"},{"town":"中仙田甲","koaza":"","lat":37.196664,"lng":138.676776,"zip":"9480000"},{"town":"中屋敷","koaza":"","lat":37.165592,"lng":138.731803,"zip":"9480135"},{"town":"名平","koaza":"","lat":37.145325,"lng":138.576256,"zip":"9421535"},{"town":"奈良立","koaza":"","lat":37.108814,"lng":138.571134,"zip":"9421355"},{"town":"錦町一丁目","koaza":"","lat":37.128605,"lng":138.74981,"zip":"9480053"},{"town":"錦町二丁目","koaza":"","lat":37.129022,"lng":138.748804,"zip":"9480053"},{"town":"西田尻","koaza":"","lat":36.994171,"lng":138.724316,"zip":"9498437"},{"town":"仁田","koaza":"","lat":37.204139,"lng":138.741833,"zip":"9480302"},{"town":"如来寺","koaza":"","lat":37.052265,"lng":138.708652,"zip":"9498404"},{"town":"子","koaza":"","lat":37.137204,"lng":138.740282,"zip":"9480000"},{"town":"野口","koaza":"","lat":37.211874,"lng":138.75134,"zip":"9480301"},{"town":"八箇乙","koaza":"","lat":37.104569,"lng":138.771919,"zip":"9480000"},{"town":"八箇庚","koaza":"","lat":37.081471,"lng":138.800708,"zip":"9480000"},{"town":"八箇己","koaza":"","lat":37.089317,"lng":138.796746,"zip":"9480000"},{"town":"八箇甲","koaza":"","lat":37.109135,"lng":138.774547,"zip":"9480000"},{"town":"八箇辛","koaza":"","lat":37.092081,"lng":138.811738,"zip":"9480000"},{"town":"八箇壬","koaza":"","lat":37.079472,"lng":138.817636,"zip":"9480000"},{"town":"八箇丁","koaza":"","lat":37.089295,"lng":138.785337,"zip":"9480033"},{"town":"八箇丙","koaza":"","lat":37.099868,"lng":138.787401,"zip":"9480000"},{"town":"八箇戊","koaza":"","lat":37.095428,"lng":138.79509,"zip":"9480000"},{"town":"馬場乙","koaza":"","lat":37.0797,"lng":138.717953,"zip":"9480000"},{"town":"馬場庚","koaza":"","lat":37.050599,"lng":138.750117,"zip":"9480000"},{"town":"馬場己","koaza":"","lat":37.065134,"lng":138.74339,"zip":"9480000"},{"town":"馬場癸","koaza":"","lat":37.054419,"lng":138.734815,"zip":"9480000"},{"town":"馬場甲","koaza":"","lat":37.06915,"lng":138.720543,"zip":"9480000"},{"town":"馬場辛","koaza":"","lat":37.0668,"lng":138.73672,"zip":"9480000"},{"town":"馬場壬","koaza":"","lat":37.06908,"lng":138.731342,"zip":"9480000"},{"town":"馬場丁","koaza":"","lat":37.088391,"lng":138.735971,"zip":"9498551"},{"town":"馬場丙","koaza":"","lat":37.086655,"lng":138.724193,"zip":"9480000"},{"town":"馬場戊","koaza":"","lat":37.090083,"lng":138.740025,"zip":"9480000"},{"town":"原町","koaza":"","lat":37.028123,"lng":138.688141,"zip":"9498446"},{"town":"東下組","koaza":"","lat":37.195715,"lng":138.817861,"zip":"9498601"},{"town":"東田沢","koaza":"","lat":37.041165,"lng":138.721246,"zip":"9498424"},{"town":"東田尻","koaza":"","lat":37.003156,"lng":138.735874,"zip":"9498425"},{"town":"未乙","koaza":"","lat":37.122821,"lng":138.806868,"zip":"9480000"},{"town":"干溝","koaza":"","lat":37.055431,"lng":138.689901,"zip":"9498408"},{"town":"福島","koaza":"","lat":37.099151,"lng":138.559854,"zip":"9421354"},{"town":"袋町中","koaza":"","lat":37.130319,"lng":138.758769,"zip":"9480066"},{"town":"袋町西","koaza":"","lat":37.130513,"lng":138.757954,"zip":"9480066"},{"town":"袋町東","koaza":"","lat":37.130268,"lng":138.759533,"zip":"9480066"},{"town":"藤沢庚","koaza":"","lat":37.174939,"lng":138.696747,"zip":"9480000"},{"town":"丙","koaza":"","lat":37.096981,"lng":138.764945,"zip":"9480000"},{"town":"戊","koaza":"","lat":37.071029,"lng":138.785615,"zip":"9480000"},{"town":"朴木沢","koaza":"","lat":37.02685,"lng":138.709045,"zip":"9498417"},{"town":"程島","koaza":"","lat":37.011326,"lng":138.73227,"zip":"9498426"},{"town":"堀之内","koaza":"","lat":37.075573,"lng":138.707904,"zip":"9498504"},{"town":"本町一丁目上","koaza":"","lat":37.127749,"lng":138.759291,"zip":"9480083"},{"town":"本町一丁目下","koaza":"","lat":37.128837,"lng":138.760189,"zip":"9480083"},{"town":"本町二丁目","koaza":"","lat":37.130982,"lng":138.760616,"zip":"9480003"},{"town":"本町三丁目","koaza":"","lat":37.132827,"lng":138.760807,"zip":"9480003"},{"town":"本町西一丁目","koaza":"","lat":37.128891,"lng":138.757686,"zip":"9480083"},{"town":"本町東一丁目","koaza":"","lat":37.128254,"lng":138.760808,"zip":"9480083"},{"town":"牧畑","koaza":"","lat":37.001661,"lng":138.718267,"zip":"9480000"},{"town":"松代","koaza":"","lat":37.133778,"lng":138.607944,"zip":"9421526"},{"town":"松代下山","koaza":"","lat":37.121718,"lng":138.64552,"zip":"9421513"},{"town":"松代田沢","koaza":"","lat":37.13751,"lng":138.638458,"zip":"9421522"},{"town":"松代東山","koaza":"","lat":37.095777,"lng":138.6614,"zip":"9421512"},{"town":"松之山","koaza":"","lat":37.082774,"lng":138.601122,"zip":"9421406"},{"town":"松之山赤倉","koaza":"","lat":37.102413,"lng":138.644455,"zip":"9421423"},{"town":"松之山天水越","koaza":"","lat":37.042457,"lng":138.578586,"zip":"9421435"},{"town":"松之山天水島","koaza":"","lat":37.051702,"lng":138.604926,"zip":"9421434"},{"town":"松之山新山","koaza":"","lat":37.096908,"lng":138.605327,"zip":"9421404"},{"town":"松之山五十子平","koaza":"","lat":37.086432,"lng":138.640279,"zip":"9421421"},{"town":"松之山大荒戸","koaza":"","lat":37.106999,"lng":138.608979,"zip":"9421403"},{"town":"松之山上鰕池","koaza":"","lat":37.073179,"lng":138.654685,"zip":"9421426"},{"town":"松之山観音寺","koaza":"","lat":37.08713,"lng":138.620498,"zip":"9421415"},{"town":"松之山黒倉","koaza":"","lat":37.093729,"lng":138.576522,"zip":"9421341"},{"town":"松之山小谷","koaza":"","lat":37.110794,"lng":138.588881,"zip":"9421402"},{"town":"松之山沢口","koaza":"","lat":37.091761,"lng":138.622612,"zip":"9421413"},{"town":"松之山下鰕池","koaza":"","lat":37.075648,"lng":138.632722,"zip":"9421425"},{"town":"松之山坪野","koaza":"","lat":37.092373,"lng":138.640208,"zip":"9421422"},{"town":"松之山中尾","koaza":"","lat":37.054235,"lng":138.63326,"zip":"9421428"},{"town":"松之山東川","koaza":"","lat":37.066027,"lng":138.642767,"zip":"9421427"},{"town":"松之山東山","koaza":"","lat":37.091392,"lng":138.655135,"zip":"9421424"},{"town":"松之山光間","koaza":"","lat":37.089882,"lng":138.61579,"zip":"9421405"},{"town":"松之山藤倉","koaza":"","lat":37.059567,"lng":138.618818,"zip":"9421429"},{"town":"松之山古戸","koaza":"","lat":37.087802,"lng":138.624226,"zip":"9421414"},{"town":"松之山松口","koaza":"","lat":37.100397,"lng":138.622403,"zip":"9421411"},{"town":"松之山三桶","koaza":"","lat":37.101397,"lng":138.631492,"zip":"9421412"},{"town":"松之山水梨","koaza":"","lat":37.102641,"lng":138.587345,"zip":"9421401"},{"town":"松之山湯本","koaza":"","lat":37.063736,"lng":138.587229,"zip":"9421432"},{"town":"松山新田","koaza":"","lat":37.135029,"lng":138.625022,"zip":"9480000"},{"town":"丸山町","koaza":"","lat":37.134165,"lng":138.754244,"zip":"9480075"},{"town":"巳乙","koaza":"","lat":37.129216,"lng":138.802489,"zip":"9480000"},{"town":"水野町","koaza":"","lat":37.132654,"lng":138.762284,"zip":"9480026"},{"town":"水口沢","koaza":"","lat":37.163498,"lng":138.706746,"zip":"9480144"},{"town":"南鐙坂","koaza":"","lat":37.126298,"lng":138.720873,"zip":"9480106"},{"town":"南新田町二丁目","koaza":"","lat":37.145204,"lng":138.76087,"zip":"9480005"},{"town":"南新田町三丁目","koaza":"","lat":37.146678,"lng":138.761461,"zip":"9480005"},{"town":"宮沢","koaza":"","lat":37.024906,"lng":138.711669,"zip":"9498418"},{"town":"宮下町西","koaza":"","lat":37.130015,"lng":138.76143,"zip":"9480023"},{"town":"宮中","koaza":"","lat":37.069274,"lng":138.690985,"zip":"9498505"},{"town":"美雪町一丁目","koaza":"","lat":37.126965,"lng":138.750452,"zip":"9480052"},{"town":"美雪町二丁目","koaza":"","lat":37.127759,"lng":138.751416,"zip":"9480052"},{"town":"美雪町三丁目","koaza":"","lat":37.128909,"lng":138.751887,"zip":"9480052"},{"town":"葎沢","koaza":"","lat":36.959271,"lng":138.766219,"zip":"9498434"},{"town":"村山新田","koaza":"","lat":37.218523,"lng":138.77663,"zip":"9480000"},{"town":"室島乙","koaza":"","lat":37.179993,"lng":138.675337,"zip":"9480000"},{"town":"室野","koaza":"","lat":37.115176,"lng":138.560879,"zip":"9421353"},{"town":"孟地","koaza":"","lat":37.137412,"lng":138.663972,"zip":"9421503"},{"town":"本屋敷","koaza":"","lat":37.08141,"lng":138.68915,"zip":"9498503"},{"town":"山崎","koaza":"","lat":37.051149,"lng":138.694412,"zip":"9498406"},{"town":"山野田","koaza":"","lat":37.15701,"lng":138.728884,"zip":"9480143"},{"town":"山本","koaza":"","lat":37.119968,"lng":138.760849,"zip":"9480031"},{"town":"山本町一丁目","koaza":"","lat":37.119758,"lng":138.757127,"zip":"9480031"},{"town":"山本町二丁目","koaza":"","lat":37.123303,"lng":138.755925,"zip":"9480031"},{"town":"山本町三丁目","koaza":"","lat":37.124411,"lng":138.755324,"zip":"9480031"},{"town":"山本町四丁目","koaza":"","lat":37.124601,"lng":138.757091,"zip":"9480031"},{"town":"山本町五丁目","koaza":"","lat":37.126264,"lng":138.757546,"zip":"9480031"},{"town":"山谷","koaza":"","lat":37.149877,"lng":138.720412,"zip":"9480102"},{"town":"四日町","koaza":"","lat":37.151383,"lng":138.758835,"zip":"9480006"},{"town":"四日町新田","koaza":"","lat":37.14033,"lng":138.817908,"zip":"9480007"},{"town":"蓬平","koaza":"","lat":37.154248,"lng":138.60837,"zip":"9421544"},{"town":"若宮町","koaza":"","lat":37.133123,"lng":138.76222,"zip":"9480027"},{"town":"田中町西","koaza":"","lat":37.13414,"lng":138.762059,"zip":"9480028"},{"town":"本町四丁目","koaza":"","lat":37.134245,"lng":138.761194,"zip":"9480003"},{"town":"西浦町東","koaza":"","lat":37.134639,"lng":138.760141,"zip":"9480074"},{"town":"昭和町四丁目","koaza":"","lat":37.135205,"lng":138.758761,"zip":"9480061"},{"town":"西浦町西","koaza":"","lat":37.135091,"lng":138.759488,"zip":"9480074"},{"town":"駅通り","koaza":"","lat":37.13419,"lng":138.758797,"zip":"9480088"},{"town":"加賀糸屋町","koaza":"","lat":37.133229,"lng":138.759056,"zip":"9480086"},{"town":"昭和町三丁目","koaza":"","lat":37.133477,"lng":138.757644,"zip":"9480061"},{"town":"西寺町","koaza":"","lat":37.132408,"lng":138.759015,"zip":"9480085"},{"town":"七軒町","koaza":"","lat":37.131831,"lng":138.758914,"zip":"9480084"},{"town":"高田町一丁目","koaza":"","lat":37.131427,"lng":138.758712,"zip":"9480063"},{"town":"高田町二丁目","koaza":"","lat":37.131884,"lng":138.755987,"zip":"9480063"},{"town":"昭和町二丁目","koaza":"","lat":37.132258,"lng":138.757427,"zip":"9480061"},{"town":"泉町","koaza":"","lat":37.132706,"lng":138.756402,"zip":"9480062"},{"town":"松之山湯山","koaza":"","lat":37.0765,"lng":138.60906,"zip":"9421431"},{"town":"松之山猪之名","koaza":"","lat":37.085192,"lng":138.628921,"zip":"9421417"},{"town":"松之山藤内名","koaza":"","lat":37.084059,"lng":138.624011,"zip":"9421418"},{"town":"松之山坂下","koaza":"","lat":37.083874,"lng":138.62104,"zip":"9421416"},{"town":"松之山橋詰","koaza":"","lat":37.081002,"lng":138.622496,"zip":"9421419"},{"town":"巳甲","koaza":"","lat":37.132142,"lng":138.779516,"zip":"9480000"},{"town":"田川町一丁目","koaza":"","lat":37.135364,"lng":138.766026,"zip":"9480021"},{"town":"田川町二丁目","koaza":"","lat":37.133439,"lng":138.769264,"zip":"9480021"},{"town":"神明町","koaza":"","lat":37.132083,"lng":138.761966,"zip":"9480025"},{"town":"諏訪町","koaza":"","lat":37.131033,"lng":138.761851,"zip":"9480024"},{"town":"宮下町東","koaza":"","lat":37.129748,"lng":138.761902,"zip":"9480023"},{"town":"辰甲","koaza":"","lat":37.11685,"lng":138.771729,"zip":"9480000"},{"town":"学校町二丁目","koaza":"","lat":37.128008,"lng":138.765539,"zip":"9480022"},{"town":"学校町一丁目","koaza":"","lat":37.130163,"lng":138.766543,"zip":"9480022"},{"town":"田中町本通り","koaza":"","lat":37.135064,"lng":138.763298,"zip":"9480028"},{"town":"田中町東","koaza":"","lat":37.133825,"lng":138.762852,"zip":"9480028"},{"town":"川原町","koaza":"","lat":37.13218,"lng":138.766232,"zip":"9480013"},{"town":"辰乙","koaza":"","lat":37.1207,"lng":138.776745,"zip":"9480000"},{"town":"田川町三丁目","koaza":"","lat":37.133075,"lng":138.76768,"zip":"9480021"},{"town":"南新田町一丁目","koaza":"","lat":37.143991,"lng":138.760413,"zip":"9480005"},{"town":"新座甲","koaza":"","lat":37.139305,"lng":138.783793,"zip":"9480000"},{"town":"下川原町","koaza":"","lat":37.142117,"lng":138.760221,"zip":"9480004"},{"town":"本町六の三丁目","koaza":"","lat":37.14067,"lng":138.761497,"zip":"9480003"},{"town":"上川町","koaza":"","lat":37.136955,"lng":138.764321,"zip":"9480029"},{"town":"本町五丁目","koaza":"","lat":37.135783,"lng":138.761453,"zip":"9480003"},{"town":"本町六の一丁目","koaza":"","lat":37.138591,"lng":138.761416,"zip":"9480003"},{"town":"稲荷町一丁目","koaza":"","lat":37.136125,"lng":138.759792,"zip":"9480073"},{"town":"本町六の二丁目","koaza":"","lat":37.137033,"lng":138.760878,"zip":"9480003"},{"town":"稲荷町二丁目","koaza":"","lat":37.137608,"lng":138.759346,"zip":"9480073"},{"town":"旭町","koaza":"","lat":37.13515,"lng":138.756367,"zip":"9480079"},{"town":"稲荷町三丁目東","koaza":"","lat":37.136614,"lng":138.758097,"zip":"9480073"},{"town":"八幡田町","koaza":"","lat":37.14002,"lng":138.759157,"zip":"9480071"},{"town":"西本町二丁目","koaza":"","lat":37.141366,"lng":138.758385,"zip":"9480072"},{"town":"稲荷町三丁目北","koaza":"","lat":37.138247,"lng":138.757868,"zip":"9480092"},{"town":"西本町三丁目","koaza":"","lat":37.144192,"lng":138.756409,"zip":"9480072"},{"town":"西本町一丁目","koaza":"","lat":37.140958,"lng":138.75589,"zip":"9480072"},{"town":"稲荷町西","koaza":"","lat":37.139727,"lng":138.75474,"zip":"9480073"},{"town":"稲荷町三丁目","koaza":"","lat":37.13752,"lng":138.75662,"zip":"9480073"},{"town":"稲荷町三丁目本通り","koaza":"","lat":37.138779,"lng":138.754581,"zip":"9480073"},{"town":"稲荷町四丁目","koaza":"","lat":37.137696,"lng":138.753874,"zip":"9480073"},{"town":"丑","koaza":"","lat":37.138789,"lng":138.745884,"zip":"9480000"},{"town":"千代田町","koaza":"","lat":37.136015,"lng":138.752513,"zip":"9480078"},{"town":"稲荷町三丁目南","koaza":"","lat":37.136198,"lng":138.755069,"zip":"9480093"},{"town":"桜木町","koaza":"","lat":37.129899,"lng":138.752152,"zip":"9480058"},{"town":"春日町一丁目","koaza":"","lat":37.13196,"lng":138.75036,"zip":"9480057"},{"town":"春日町二丁目","koaza":"","lat":37.131214,"lng":138.750066,"zip":"9480057"},{"town":"春日町三丁目","koaza":"","lat":37.130357,"lng":138.750034,"zip":"9480057"},{"town":"高田町四丁目","koaza":"","lat":37.132814,"lng":138.750246,"zip":"9480063"},{"town":"高田町五丁目","koaza":"","lat":37.133913,"lng":138.747349,"zip":"9480063"},{"town":"高田町三丁目西","koaza":"","lat":37.13364,"lng":138.75194,"zip":"9480065"},{"town":"高田町三丁目南","koaza":"","lat":37.131542,"lng":138.75296,"zip":"9480065"},{"town":"高山","koaza":"丙","lat":37.134774,"lng":138.743501,"zip":"9480055"},{"town":"川治","koaza":"乙","lat":37.117904,"lng":138.743184,"zip":"9480036"},{"town":"高山","koaza":"乙","lat":37.132603,"lng":138.744595,"zip":"9480055"},{"town":"樽沢","koaza":"乙","lat":37.138059,"lng":138.716951,"zip":"9480104"},{"town":"上野","koaza":"乙","lat":37.182462,"lng":138.749964,"zip":"9480122"},{"town":"南鐙坂","koaza":"甲","lat":37.122814,"lng":138.718357,"zip":"9480106"},{"town":"川治","koaza":"丙","lat":37.112498,"lng":138.748868,"zip":"9480036"},{"town":"高田町三丁目南","koaza":"丙","lat":37.132172,"lng":138.752141,"zip":"9480065"},{"town":"内島","koaza":"","lat":null,"lng":null,"zip":null},{"town":"上島","koaza":"","lat":null,"lng":null,"zip":null},{"town":"下島","koaza":"","lat":null,"lng":null,"zip":null},{"town":"高田町六丁目","koaza":"","lat":null,"lng":null,"zip":null}]