[{"town":"畔地","koaza":"","lat":37.050756,"lng":138.960347,"zip":"9496746"},{"town":"畔地新田","koaza":"","lat":37.050633,"lng":138.950645,"zip":"9496751"},{"town":"穴地","koaza":"","lat":37.136026,"lng":138.961431,"zip":"9497245"},{"town":"穴地新田","koaza":"","lat":37.144306,"lng":138.956436,"zip":"9497246"},{"town":"海士ケ島新田","koaza":"","lat":37.149382,"lng":138.936232,"zip":"9497256"},{"town":"天野沢","koaza":"","lat":37.033156,"lng":138.839319,"zip":"9496434"},{"town":"荒金","koaza":"","lat":37.153098,"lng":138.970701,"zip":"9497235"},{"town":"荒山","koaza":"","lat":37.156308,"lng":139.014333,"zip":"9497234"},{"town":"雷土","koaza":"","lat":37.186496,"lng":138.964921,"zip":"9497228"},{"town":"雷土新田","koaza":"","lat":37.180784,"lng":138.962701,"zip":"9497227"},{"town":"石打","koaza":"","lat":36.969106,"lng":138.803483,"zip":"9496372"},{"town":"泉","koaza":"","lat":37.098884,"lng":138.912551,"zip":"9497114"},{"town":"泉新田","koaza":"","lat":37.097763,"lng":138.90621,"zip":"9497115"},{"town":"市野江","koaza":"","lat":37.167672,"lng":138.872086,"zip":"9497318"},{"town":"一之沢","koaza":"","lat":36.966198,"lng":138.874596,"zip":"9496554"},{"town":"五日町","koaza":"","lat":37.126538,"lng":138.900828,"zip":"9497101"},{"town":"今町","koaza":"","lat":37.130575,"lng":138.913264,"zip":"9497313"},{"town":"今町新田","koaza":"","lat":37.13842,"lng":138.926781,"zip":"9497254"},{"town":"芋赤","koaza":"","lat":37.184564,"lng":138.98988,"zip":"9497222"},{"town":"岩崎","koaza":"","lat":37.063619,"lng":138.90942,"zip":"9496765"},{"town":"姥沢新田","koaza":"","lat":36.997284,"lng":138.901741,"zip":"9496551"},{"town":"姥島新田","koaza":"","lat":36.990824,"lng":138.820601,"zip":"9496425"},{"town":"浦佐","koaza":"","lat":37.167477,"lng":138.922096,"zip":"9497302"},{"town":"上野","koaza":"","lat":36.977622,"lng":138.777168,"zip":"9496373"},{"town":"雲洞","koaza":"","lat":37.031502,"lng":138.899116,"zip":"9496542"},{"town":"枝吉","koaza":"","lat":37.02582,"lng":138.881856,"zip":"9496544"},{"town":"鰕島","koaza":"","lat":37.150013,"lng":138.927917,"zip":"9496600"},{"town":"大木六","koaza":"","lat":37.003052,"lng":138.872154,"zip":"9496416"},{"town":"大木六新田","koaza":"","lat":37.020872,"lng":138.851655,"zip":"9496438"},{"town":"大倉","koaza":"","lat":37.119257,"lng":139.041363,"zip":"9497243"},{"town":"大桑原","koaza":"","lat":37.173452,"lng":139.005745,"zip":"9497224"},{"town":"大崎","koaza":"","lat":37.128226,"lng":138.945361,"zip":"9497251"},{"town":"大里","koaza":"","lat":37.029041,"lng":138.86372,"zip":"9496412"},{"town":"大沢","koaza":"","lat":37.022537,"lng":138.806932,"zip":"9496361"},{"town":"大杉新田","koaza":"","lat":37.11774,"lng":138.873697,"zip":"9497103"},{"town":"大月","koaza":"","lat":37.045677,"lng":138.895067,"zip":"9496682"},{"town":"岡","koaza":"","lat":37.086486,"lng":138.962515,"zip":"9497122"},{"town":"小川","koaza":"","lat":37.065361,"lng":138.972161,"zip":"9496745"},{"town":"奥","koaza":"","lat":37.108639,"lng":138.903718,"zip":"9497102"},{"town":"思川","koaza":"","lat":37.055773,"lng":138.849956,"zip":"9496403"},{"town":"欠之上","koaza":"","lat":37.09627,"lng":138.84463,"zip":"9496602"},{"town":"片田","koaza":"","lat":37.064775,"lng":138.840889,"zip":"9496404"},{"town":"蟹沢新田","koaza":"","lat":36.980506,"lng":138.912727,"zip":"9496552"},{"town":"樺野沢","koaza":"","lat":37.033701,"lng":138.819404,"zip":"9496431"},{"town":"樺野沢新田","koaza":"","lat":37.025106,"lng":138.830385,"zip":"9496432"},{"town":"上出浦","koaza":"","lat":37.100063,"lng":138.952709,"zip":"9497126"},{"town":"上十日町","koaza":"","lat":37.037565,"lng":138.859238,"zip":"9496411"},{"town":"上原","koaza":"","lat":37.093372,"lng":138.927872,"zip":"9497137"},{"town":"上原新田","koaza":"","lat":37.092995,"lng":138.93256,"zip":"9497138"},{"town":"上一日市","koaza":"","lat":36.998033,"lng":138.813275,"zip":"9496364"},{"town":"上薬師堂","koaza":"","lat":37.093014,"lng":138.945622,"zip":"9497124"},{"town":"川窪","koaza":"","lat":37.089265,"lng":138.876444,"zip":"9496603"},{"town":"北田中","koaza":"","lat":37.114649,"lng":138.8649,"zip":"9497143"},{"town":"君帰","koaza":"","lat":37.083695,"lng":138.854415,"zip":"9496601"},{"town":"君沢","koaza":"","lat":37.013368,"lng":138.808265,"zip":"9496366"},{"town":"京岡","koaza":"","lat":37.035149,"lng":138.938885,"zip":"9496756"},{"town":"京岡新田","koaza":"","lat":37.042773,"lng":138.935536,"zip":"9496757"},{"town":"桐沢","koaza":"","lat":37.153746,"lng":138.993553,"zip":"9497233"},{"town":"黒土","koaza":"","lat":37.147552,"lng":138.969905,"zip":"9497242"},{"town":"黒土新田","koaza":"","lat":37.154739,"lng":138.954367,"zip":"9497241"},{"town":"五箇","koaza":"","lat":37.193007,"lng":138.924404,"zip":"9497301"},{"town":"小木六","koaza":"","lat":37.028045,"lng":138.857443,"zip":"9496413"},{"town":"国際町","koaza":"","lat":37.14643,"lng":138.946504,"zip":"9497248"},{"town":"小栗山","koaza":"","lat":37.067918,"lng":138.857576,"zip":"9496636"},{"town":"九日町","koaza":"","lat":37.139645,"lng":138.911706,"zip":"9497312"},{"town":"小杉新田","koaza":"","lat":37.020054,"lng":138.857437,"zip":"9496415"},{"town":"小松沢","koaza":"","lat":36.995236,"lng":138.873358,"zip":"9496556"},{"town":"五郎丸","koaza":"","lat":37.016536,"lng":138.836641,"zip":"9496428"},{"town":"坂戸","koaza":"","lat":37.062948,"lng":138.88967,"zip":"9496611"},{"town":"三郎丸","koaza":"","lat":37.035984,"lng":138.872929,"zip":"9496541"},{"town":"塩沢","koaza":"","lat":37.044683,"lng":138.809517,"zip":"9496408"},{"town":"島新田","koaza":"","lat":37.041466,"lng":138.869878,"zip":"9496407"},{"town":"清水","koaza":"","lat":36.935656,"lng":138.940684,"zip":"9496553"},{"town":"清水瀬","koaza":"","lat":37.075383,"lng":139.037111,"zip":"9496741"},{"town":"下出浦","koaza":"","lat":37.104568,"lng":138.945523,"zip":"9497127"},{"town":"下原","koaza":"","lat":37.102111,"lng":138.914397,"zip":"9497113"},{"town":"下原新田","koaza":"","lat":37.105545,"lng":138.916043,"zip":"9497116"},{"town":"下一日市","koaza":"","lat":37.004412,"lng":138.814719,"zip":"9496363"},{"town":"下薬師堂","koaza":"","lat":37.093711,"lng":138.94077,"zip":"9497125"},{"town":"城山新田","koaza":"","lat":37.131644,"lng":138.902252,"zip":"9497314"},{"town":"関","koaza":"","lat":36.985386,"lng":138.808435,"zip":"9496371"},{"town":"芹田","koaza":"","lat":37.154,"lng":138.922216,"zip":"9497311"},{"town":"仙石","koaza":"","lat":36.99648,"lng":138.850875,"zip":"9496418"},{"town":"泉盛寺","koaza":"","lat":37.040223,"lng":138.830425,"zip":"9496433"},{"town":"台上","koaza":"","lat":36.991239,"lng":138.900775,"zip":"9496557"},{"town":"滝谷","koaza":"","lat":36.967504,"lng":138.903513,"zip":"9496555"},{"town":"竹俣","koaza":"","lat":37.070426,"lng":138.838612,"zip":"9496405"},{"town":"竹俣新田","koaza":"","lat":37.049936,"lng":138.863529,"zip":"9496406"},{"town":"田崎","koaza":"","lat":37.079581,"lng":138.924935,"zip":"9497134"},{"town":"津久野","koaza":"","lat":37.07432,"lng":138.906796,"zip":"9496771"},{"town":"津久野上新田","koaza":"","lat":37.072981,"lng":138.91644,"zip":"9496766"},{"town":"津久野下新田","koaza":"","lat":37.083307,"lng":138.90984,"zip":"9496773"},{"town":"土沢","koaza":"","lat":37.057109,"lng":138.981459,"zip":"9496744"},{"town":"寺尾","koaza":"","lat":37.119041,"lng":138.890052,"zip":"9497104"},{"town":"堂島新田","koaza":"","lat":37.15128,"lng":138.977067,"zip":"9497232"},{"town":"徳田新田","koaza":"","lat":37.009156,"lng":138.848782,"zip":"9496422"},{"town":"栃窪","koaza":"","lat":37.052124,"lng":138.812966,"zip":"9496401"},{"town":"中","koaza":"","lat":37.027351,"lng":138.843094,"zip":"9496436"},{"town":"中川","koaza":"","lat":37.030241,"lng":138.927889,"zip":"9496761"},{"town":"中川新田","koaza":"","lat":37.046148,"lng":138.929541,"zip":"9496762"},{"town":"中子新田乙","koaza":"","lat":37.007616,"lng":138.830012,"zip":"9496427"},{"town":"中子新田甲","koaza":"","lat":37.015575,"lng":138.843891,"zip":"9496421"},{"town":"長崎","koaza":"","lat":37.004134,"lng":138.894138,"zip":"9496545"},{"town":"中野","koaza":"","lat":37.024674,"lng":138.848461,"zip":"9496437"},{"town":"永松","koaza":"","lat":37.014634,"lng":138.949069,"zip":"9496754"},{"town":"長森","koaza":"","lat":37.105322,"lng":138.932834,"zip":"9497112"},{"town":"長森新田","koaza":"","lat":37.108845,"lng":138.922306,"zip":"9497117"},{"town":"名木沢","koaza":"","lat":37.140356,"lng":138.892642,"zip":"9497315"},{"town":"新堀","koaza":"","lat":37.086989,"lng":138.924426,"zip":"9497136"},{"town":"新堀新田","koaza":"","lat":37.087457,"lng":138.913927,"zip":"9497135"},{"town":"西泉田","koaza":"","lat":37.049087,"lng":138.874661,"zip":"9496615"},{"town":"野際","koaza":"","lat":37.097392,"lng":138.938742,"zip":"9497131"},{"town":"野田","koaza":"","lat":37.105411,"lng":138.852276,"zip":"9497144"},{"town":"野中","koaza":"","lat":37.032729,"lng":138.994378,"zip":"9496742"},{"town":"八竜新田","koaza":"","lat":37.02105,"lng":138.86504,"zip":"9496414"},{"town":"早川","koaza":"","lat":37.029056,"lng":138.875049,"zip":"9496543"},{"town":"原","koaza":"","lat":37.051012,"lng":138.944062,"zip":"9496755"},{"town":"東泉田","koaza":"","lat":37.049598,"lng":138.883115,"zip":"9496612"},{"town":"一村尾","koaza":"","lat":37.147931,"lng":138.897721,"zip":"9497316"},{"town":"蛭窪","koaza":"","lat":37.020345,"lng":138.965644,"zip":"9496753"},{"town":"深沢","koaza":"","lat":37.069268,"lng":138.943289,"zip":"9496774"},{"town":"藤原","koaza":"","lat":37.082935,"lng":138.942537,"zip":"9497132"},{"town":"舞台","koaza":"","lat":37.033201,"lng":139.049288,"zip":"9496743"},{"town":"二日町","koaza":"","lat":37.087139,"lng":138.902227,"zip":"9496772"},{"town":"船ケ沢新田","koaza":"","lat":37.13679,"lng":138.974572,"zip":"9497244"},{"town":"麓","koaza":"","lat":37.11448,"lng":138.921329,"zip":"9497111"},{"town":"法音寺","koaza":"","lat":37.080936,"lng":138.932561,"zip":"9497133"},{"town":"舞子","koaza":"","lat":36.979495,"lng":138.833013,"zip":"9496423"},{"town":"前原町","koaza":"","lat":37.175932,"lng":138.97075,"zip":"9497229"},{"town":"丸池新田","koaza":"","lat":37.008081,"lng":138.826396,"zip":"9496426"},{"town":"万条新田","koaza":"","lat":36.99682,"lng":138.825703,"zip":"9496424"},{"town":"美佐島","koaza":"","lat":37.075538,"lng":138.889728,"zip":"9496608"},{"town":"水尾","koaza":"","lat":37.12212,"lng":138.929977,"zip":"9497252"},{"town":"水尾新田","koaza":"","lat":37.126307,"lng":138.923045,"zip":"9497253"},{"town":"南田中","koaza":"","lat":37.018047,"lng":138.829809,"zip":"9496362"},{"town":"宮","koaza":"","lat":37.065432,"lng":138.952817,"zip":"9496775"},{"town":"宮野下","koaza":"","lat":37.002036,"lng":138.791211,"zip":"9496365"},{"town":"宮村下新田","koaza":"","lat":37.063531,"lng":138.924169,"zip":"9496764"},{"town":"妙音寺","koaza":"","lat":37.085817,"lng":138.948335,"zip":"9497123"},{"town":"茗荷沢","koaza":"","lat":37.163506,"lng":138.954237,"zip":"9497231"},{"town":"茗荷沢新田","koaza":"","lat":37.164501,"lng":138.963255,"zip":"9497236"},{"town":"六日町","koaza":"","lat":37.061575,"lng":138.873481,"zip":"9496680"},{"town":"目来田","koaza":"","lat":37.032708,"lng":138.848677,"zip":"9496435"},{"town":"門前","koaza":"","lat":37.180198,"lng":138.998675,"zip":"9497223"},{"town":"八色原","koaza":"","lat":37.151249,"lng":138.951083,"zip":"9497247"},{"town":"山口","koaza":"","lat":37.098854,"lng":138.990663,"zip":"9497121"},{"town":"山崎","koaza":"","lat":37.168787,"lng":138.974798,"zip":"9497225"},{"town":"山崎新田","koaza":"","lat":37.172781,"lng":138.964017,"zip":"9497226"},{"town":"山谷","koaza":"","lat":37.05246,"lng":138.913074,"zip":"9496763"},{"town":"八幡","koaza":"","lat":37.070057,"lng":138.882656,"zip":"9496609"},{"town":"湯谷","koaza":"","lat":37.187652,"lng":138.97882,"zip":"9497221"},{"town":"余川","koaza":"","lat":37.077279,"lng":138.871658,"zip":"9496681"},{"town":"吉里","koaza":"","lat":37.058683,"lng":138.82844,"zip":"9496402"},{"town":"吉山新田","koaza":"","lat":37.006634,"lng":138.862038,"zip":"9496417"},{"town":"柳古新田","koaza":"","lat":37.139266,"lng":138.931625,"zip":"9497255"},{"town":"青木新田","koaza":"","lat":37.101077,"lng":138.899402,"zip":"9496605"},{"town":"四十日","koaza":"","lat":37.098623,"lng":138.88818,"zip":"9497145"},{"town":"宇津野新田","koaza":"","lat":37.09139,"lng":138.895848,"zip":"9496607"},{"town":"市野江","koaza":"乙","lat":37.161422,"lng":138.857544,"zip":"9497318"},{"town":"塩沢","koaza":"樋渡","lat":37.042238,"lng":138.859255,"zip":"9496408"},{"town":"竹俣","koaza":"糠塚","lat":37.049109,"lng":138.867405,"zip":"9496405"},{"town":"市野江","koaza":"丙","lat":37.178933,"lng":138.877366,"zip":"9497318"},{"town":"市野江","koaza":"甲","lat":37.157597,"lng":138.911137,"zip":"9497318"},{"town":"四十日","koaza":"南原","lat":37.088483,"lng":138.887385,"zip":"9497145"},{"town":"大月","koaza":"上大月","lat":37.040475,"lng":138.891919,"zip":"9496682"},{"town":"大杉新田","koaza":"上原","lat":37.104193,"lng":138.894916,"zip":"9497103"},{"town":"目来田","koaza":"納味田","lat":37.031457,"lng":138.845298,"zip":"9496435"},{"town":"上十日町","koaza":"雪旨","lat":37.035321,"lng":138.84974,"zip":"9496411"},{"town":"大月","koaza":"下大月","lat":37.04702,"lng":138.891321,"zip":"9496682"},{"town":"六日町","koaza":"田中町","lat":37.067146,"lng":138.879788,"zip":"9496680"},{"town":"六日町","koaza":"旭町","lat":37.065727,"lng":138.878439,"zip":"9496680"},{"town":"六日町","koaza":"北沖","lat":37.067371,"lng":138.876229,"zip":"9496680"},{"town":"六日町","koaza":"学校町","lat":37.067919,"lng":138.875602,"zip":"9496680"},{"town":"六日町","koaza":"緑町","lat":37.067738,"lng":138.87282,"zip":"9496680"},{"town":"六日町","koaza":"伊勢町","lat":37.064948,"lng":138.876234,"zip":"9496680"},{"town":"六日町","koaza":"栄町","lat":37.062391,"lng":138.871501,"zip":"9496680"},{"town":"六日町","koaza":"大和町","lat":37.062811,"lng":138.875692,"zip":"9496680"},{"town":"六日町","koaza":"仲町","lat":37.063716,"lng":138.879268,"zip":"9496680"},{"town":"吉里","koaza":"角丸田","lat":37.063634,"lng":138.831032,"zip":"9496402"},{"town":"吉里","koaza":"松葉平","lat":37.060109,"lng":138.83721,"zip":"9496402"},{"town":"吉里","koaza":"一ノ坂","lat":37.05625,"lng":138.833532,"zip":"9496402"},{"town":"吉里","koaza":"大峯","lat":37.055235,"lng":138.833162,"zip":"9496402"},{"town":"吉里","koaza":"猫岩","lat":37.056414,"lng":138.836484,"zip":"9496402"}]