[{"town":"朝日町一丁目","koaza":"","lat":37.027329,"lng":138.253429,"zip":"9440043"},{"town":"朝日町二丁目","koaza":"","lat":37.026635,"lng":138.256474,"zip":"9440043"},{"town":"石塚町一丁目","koaza":"","lat":37.032207,"lng":138.251148,"zip":"9440011"},{"town":"石塚町二丁目","koaza":"","lat":37.035885,"lng":138.253587,"zip":"9440011"},{"town":"小出雲一丁目","koaza":"","lat":37.017844,"lng":138.253196,"zip":"9440032"},{"town":"小出雲二丁目","koaza":"","lat":37.013402,"lng":138.251242,"zip":"9440032"},{"town":"小出雲三丁目","koaza":"","lat":37.018533,"lng":138.25609,"zip":"9440032"},{"town":"大字青田","koaza":"","lat":37.061179,"lng":138.208562,"zip":"9440000"},{"town":"大字赤倉","koaza":"","lat":36.892584,"lng":138.178534,"zip":"9440000"},{"town":"大字新井","koaza":"","lat":36.99641,"lng":138.225441,"zip":"9440000"},{"town":"大字五日市","koaza":"","lat":37.035474,"lng":138.244446,"zip":"9440000"},{"town":"大字猪野山","koaza":"","lat":37.027854,"lng":138.210822,"zip":"9440000"},{"town":"大字今府","koaza":"","lat":36.959889,"lng":138.246149,"zip":"9440000"},{"town":"大字小出雲","koaza":"","lat":37.005903,"lng":138.252136,"zip":"9440000"},{"town":"大字大貝","koaza":"","lat":36.965935,"lng":138.283633,"zip":"9440000"},{"town":"大字大沢新田","koaza":"","lat":36.96276,"lng":138.269282,"zip":"9440000"},{"town":"大字大鹿","koaza":"","lat":36.931862,"lng":138.264728,"zip":"9440000"},{"town":"大字大谷","koaza":"","lat":36.899945,"lng":138.22766,"zip":"9440000"},{"town":"大字大濁","koaza":"","lat":36.983896,"lng":138.31404,"zip":"9440000"},{"town":"大字大原新田","koaza":"","lat":36.965405,"lng":138.263694,"zip":"9440000"},{"town":"大字岡崎新田","koaza":"","lat":37.056158,"lng":138.249253,"zip":"9440000"},{"town":"大字岡新田","koaza":"","lat":36.949756,"lng":138.250549,"zip":"9440000"},{"town":"大字桶海","koaza":"","lat":36.8888,"lng":138.249498,"zip":"9440000"},{"town":"大字乙吉","koaza":"","lat":37.049242,"lng":138.24349,"zip":"9440000"},{"town":"大字籠町","koaza":"","lat":37.047071,"lng":138.210428,"zip":"9440000"},{"town":"大字兼俣","koaza":"","lat":36.87114,"lng":138.226802,"zip":"9440000"},{"town":"大字上大塚新田","koaza":"","lat":36.956869,"lng":138.262112,"zip":"9440000"},{"town":"大字上小沢","koaza":"","lat":36.975841,"lng":138.335932,"zip":"9440000"},{"town":"大字上新保","koaza":"","lat":37.015998,"lng":138.269524,"zip":"9440000"},{"town":"大字上百々","koaza":"","lat":37.062516,"lng":138.264474,"zip":"9440000"},{"town":"大字上中","koaza":"","lat":37.014705,"lng":138.230903,"zip":"9440000"},{"town":"大字上中村新田","koaza":"","lat":36.923724,"lng":138.232835,"zip":"9440000"},{"town":"大字上濁川","koaza":"","lat":36.975236,"lng":138.28638,"zip":"9440000"},{"town":"大字上八幡新田","koaza":"","lat":37.039734,"lng":138.24083,"zip":"9440000"},{"town":"大字上馬場","koaza":"","lat":36.97765,"lng":138.298381,"zip":"9440000"},{"town":"大字上平丸","koaza":"","lat":36.94074,"lng":138.338974,"zip":"9440000"},{"town":"大字上堀之内","koaza":"","lat":36.991058,"lng":138.268277,"zip":"9440000"},{"town":"大字上四ツ屋","koaza":"","lat":37.036406,"lng":138.251609,"zip":"9440000"},{"town":"大字川上","koaza":"","lat":37.005656,"lng":138.276281,"zip":"9440000"},{"town":"大字北条","koaza":"","lat":37.038335,"lng":138.272729,"zip":"9440000"},{"town":"大字北田屋新田","koaza":"","lat":36.961754,"lng":138.261924,"zip":"9440000"},{"town":"大字窪田新田","koaza":"","lat":36.956081,"lng":138.251639,"zip":"9440000"},{"town":"大字窪松原","koaza":"","lat":37.009189,"lng":138.207439,"zip":"9440000"},{"town":"大字栗原","koaza":"","lat":37.044481,"lng":138.25566,"zip":"9440000"},{"town":"大字毛祝坂","koaza":"","lat":36.874976,"lng":138.194187,"zip":"9440000"},{"town":"大字国賀","koaza":"","lat":37.044729,"lng":138.266021,"zip":"9440000"},{"town":"大字小局","koaza":"","lat":36.967481,"lng":138.302814,"zip":"9440000"},{"town":"大字木成","koaza":"","lat":36.983786,"lng":138.292371,"zip":"9440000"},{"town":"大字小濁","koaza":"","lat":36.993994,"lng":138.295196,"zip":"9440000"},{"town":"大字小原新田","koaza":"","lat":36.972209,"lng":138.266355,"zip":"9440000"},{"town":"大字小丸山新田","koaza":"","lat":37.026429,"lng":138.236444,"zip":"9440000"},{"town":"大字坂井新田","koaza":"","lat":37.037099,"lng":138.23822,"zip":"9440000"},{"town":"大字坂口新田","koaza":"","lat":36.912048,"lng":138.220323,"zip":"9440000"},{"town":"大字坂下新田","koaza":"","lat":36.963292,"lng":138.258351,"zip":"9440000"},{"town":"大字猿橋","koaza":"","lat":36.952329,"lng":138.273109,"zip":"9440000"},{"town":"大字三本木新田","koaza":"","lat":37.005747,"lng":138.227183,"zip":"9440000"},{"town":"大字志","koaza":"","lat":37.007467,"lng":138.216557,"zip":"9440000"},{"town":"大字下濁川","koaza":"","lat":36.988193,"lng":138.282181,"zip":"9440000"},{"town":"大字下平丸","koaza":"","lat":36.957843,"lng":138.311438,"zip":"9440000"},{"town":"大字神宮寺","koaza":"","lat":37.052366,"lng":138.240685,"zip":"9440000"},{"town":"大字新保新田","koaza":"","lat":37.040182,"lng":138.230572,"zip":"9440000"},{"town":"大字菅沼","koaza":"","lat":36.999665,"lng":138.204662,"zip":"9440000"},{"town":"大字杉野沢","koaza":"","lat":36.858725,"lng":138.153111,"zip":"9440000"},{"town":"大字住吉","koaza":"","lat":36.920139,"lng":138.241699,"zip":"9440000"},{"town":"大字関川","koaza":"","lat":36.865855,"lng":138.190019,"zip":"9440000"},{"town":"大字関山","koaza":"","lat":36.928405,"lng":138.148727,"zip":"9440000"},{"town":"大字蔵々","koaza":"","lat":36.883066,"lng":138.22286,"zip":"9440000"},{"town":"大字祖父竹","koaza":"","lat":36.961748,"lng":138.253991,"zip":"9440000"},{"town":"大字高柳","koaza":"","lat":37.042767,"lng":138.267536,"zip":"9440000"},{"town":"大字田切","koaza":"","lat":36.885692,"lng":138.200502,"zip":"9440000"},{"town":"大字田口","koaza":"","lat":36.879608,"lng":138.198164,"zip":"9440000"},{"town":"大字田中村新田","koaza":"","lat":36.952181,"lng":138.246042,"zip":"9440000"},{"town":"大字樽本","koaza":"","lat":36.878631,"lng":138.273562,"zip":"9440000"},{"town":"大字月岡","koaza":"","lat":37.050036,"lng":138.266875,"zip":"9440000"},{"town":"大字坪山","koaza":"","lat":36.989849,"lng":138.306826,"zip":"9440000"},{"town":"大字寺尾","koaza":"","lat":36.967828,"lng":138.257004,"zip":"9440000"},{"town":"大字十日市","koaza":"","lat":37.04698,"lng":138.252022,"zip":"9440000"},{"town":"大字土田","koaza":"","lat":37.030182,"lng":138.231931,"zip":"9440000"},{"town":"大字土路","koaza":"","lat":36.917141,"lng":138.277745,"zip":"9440000"},{"town":"大字長沢","koaza":"","lat":36.92686,"lng":138.304783,"zip":"9440000"},{"town":"大字長沢原","koaza":"","lat":36.950012,"lng":138.282802,"zip":"9440000"},{"town":"大字中宿","koaza":"","lat":37.003181,"lng":138.263834,"zip":"9440000"},{"town":"大字中島新田","koaza":"","lat":36.950132,"lng":138.260956,"zip":"9440000"},{"town":"大字中原新田","koaza":"","lat":36.959031,"lng":138.258362,"zip":"9440000"},{"town":"大字長森","koaza":"","lat":37.021704,"lng":138.227283,"zip":"9440000"},{"town":"大字中横山","koaza":"","lat":36.970413,"lng":138.275235,"zip":"9440000"},{"town":"大字梨木","koaza":"","lat":37.033997,"lng":138.234702,"zip":"9440000"},{"town":"大字西条","koaza":"","lat":37.018867,"lng":138.278694,"zip":"9440000"},{"town":"大字西菅沼新田","koaza":"","lat":36.984078,"lng":138.181421,"zip":"9440000"},{"town":"大字西田屋新田","koaza":"","lat":36.95408,"lng":138.254669,"zip":"9440000"},{"town":"大字西野谷","koaza":"","lat":37.024424,"lng":138.16364,"zip":"9440000"},{"town":"大字西野谷新田","koaza":"","lat":37.007191,"lng":138.185868,"zip":"9440000"},{"town":"大字楡島","koaza":"","lat":36.960029,"lng":138.271281,"zip":"9440000"},{"town":"大字除戸","koaza":"","lat":36.980277,"lng":138.268654,"zip":"9440000"},{"town":"大字橋本新田","koaza":"","lat":36.947929,"lng":138.255003,"zip":"9440000"},{"town":"大字花房","koaza":"","lat":36.948705,"lng":138.23862,"zip":"9440000"},{"town":"大字原通","koaza":"","lat":36.946093,"lng":138.249176,"zip":"9440000"},{"town":"大字東志","koaza":"","lat":37.00791,"lng":138.223964,"zip":"9440000"},{"town":"大字東菅沼","koaza":"","lat":36.970179,"lng":138.290235,"zip":"9440000"},{"town":"大字東関","koaza":"","lat":36.959796,"lng":138.276905,"zip":"9440000"},{"town":"大字東田屋新田","koaza":"","lat":36.953155,"lng":138.257163,"zip":"9440000"},{"town":"大字東福田新田","koaza":"","lat":36.945475,"lng":138.244587,"zip":"9440000"},{"town":"大字東四ツ屋新田","koaza":"","lat":36.942703,"lng":138.245985,"zip":"9440000"},{"town":"大字飛田","koaza":"","lat":37.060675,"lng":138.243454,"zip":"9440000"},{"town":"大字飛田新田","koaza":"","lat":37.064914,"lng":138.25077,"zip":"9440000"},{"town":"大字美守","koaza":"","lat":37.018648,"lng":138.261909,"zip":"9440000"},{"town":"大字姫川原","koaza":"","lat":36.990659,"lng":138.254757,"zip":"9440000"},{"town":"大字広島","koaza":"","lat":37.058601,"lng":138.275992,"zip":"9440000"},{"town":"大字藤塚新田","koaza":"","lat":37.030735,"lng":138.240148,"zip":"9440000"},{"town":"大字二俣","koaza":"","lat":36.899705,"lng":138.203297,"zip":"9440000"},{"town":"大字巻淵","koaza":"","lat":36.994503,"lng":138.273308,"zip":"9440000"},{"town":"大字三ツ俣","koaza":"","lat":37.020382,"lng":138.201054,"zip":"9440000"},{"town":"大字宮内","koaza":"","lat":37.05464,"lng":138.235911,"zip":"9440000"},{"town":"大字葎生","koaza":"","lat":36.936544,"lng":138.239756,"zip":"9440000"},{"town":"大字谷内林新田","koaza":"","lat":37.039218,"lng":138.243222,"zip":"9440000"},{"town":"大字柳井田","koaza":"","lat":37.054613,"lng":138.252332,"zip":"9440000"},{"town":"大字雪森","koaza":"","lat":37.061216,"lng":138.237069,"zip":"9440000"},{"town":"大字吉木","koaza":"","lat":37.031785,"lng":138.277833,"zip":"9440000"},{"town":"大字米島新田","koaza":"","lat":36.941623,"lng":138.235618,"zip":"9440000"},{"town":"大字両善寺","koaza":"","lat":36.988454,"lng":138.157959,"zip":"9440000"},{"town":"大字和屋","koaza":"","lat":36.975358,"lng":138.280566,"zip":"9440000"},{"town":"大崎町","koaza":"","lat":37.039724,"lng":138.256593,"zip":"9440006"},{"town":"学校町","koaza":"","lat":37.019171,"lng":138.249148,"zip":"9440037"},{"town":"上百々一丁目","koaza":"","lat":37.05731,"lng":138.265526,"zip":"9440001"},{"town":"上百々二丁目","koaza":"","lat":37.061684,"lng":138.267086,"zip":"9440001"},{"town":"上町","koaza":"","lat":37.024313,"lng":138.251181,"zip":"9440046"},{"town":"経塚町","koaza":"","lat":37.016344,"lng":138.254366,"zip":"9440034"},{"town":"栗原一丁目","koaza":"","lat":37.043876,"lng":138.257335,"zip":"9440007"},{"town":"栗原二丁目","koaza":"","lat":37.043296,"lng":138.260329,"zip":"9440007"},{"town":"栗原三丁目","koaza":"","lat":37.047965,"lng":138.260314,"zip":"9440007"},{"town":"栗原四丁目","koaza":"","lat":37.052435,"lng":138.262272,"zip":"9440007"},{"town":"栗原五丁目","koaza":"","lat":37.056763,"lng":138.262299,"zip":"9440007"},{"town":"工団町","koaza":"","lat":37.032367,"lng":138.258162,"zip":"9440020"},{"town":"国賀一丁目","koaza":"","lat":37.042908,"lng":138.26292,"zip":"9440004"},{"town":"国賀二丁目","koaza":"","lat":37.045652,"lng":138.263686,"zip":"9440004"},{"town":"栄町","koaza":"","lat":37.025915,"lng":138.253982,"zip":"9440044"},{"town":"東雲町","koaza":"","lat":37.028754,"lng":138.253018,"zip":"9440042"},{"town":"渋江町","koaza":"","lat":37.015332,"lng":138.248946,"zip":"9440035"},{"town":"下町","koaza":"","lat":37.02824,"lng":138.24779,"zip":"9440048"},{"town":"新工町","koaza":"","lat":37.033415,"lng":138.255158,"zip":"9440019"},{"town":"末広町","koaza":"","lat":37.017274,"lng":138.244829,"zip":"9440036"},{"town":"諏訪町一丁目","koaza":"","lat":37.029411,"lng":138.258292,"zip":"9440018"},{"town":"諏訪町二丁目","koaza":"","lat":37.026981,"lng":138.259137,"zip":"9440018"},{"town":"関川町一丁目","koaza":"","lat":37.029652,"lng":138.262707,"zip":"9440014"},{"town":"関川町二丁目","koaza":"","lat":37.026312,"lng":138.262775,"zip":"9440014"},{"town":"高柳一丁目","koaza":"","lat":37.033994,"lng":138.261776,"zip":"9440013"},{"town":"高柳二丁目","koaza":"","lat":37.033359,"lng":138.264718,"zip":"9440013"},{"town":"田町一丁目","koaza":"","lat":37.022784,"lng":138.253154,"zip":"9440031"},{"town":"田町二丁目","koaza":"","lat":37.02109,"lng":138.252733,"zip":"9440031"},{"town":"中央町","koaza":"","lat":37.022538,"lng":138.255173,"zip":"9440017"},{"town":"月岡一丁目","koaza":"","lat":37.048367,"lng":138.264713,"zip":"9440003"},{"town":"月岡二丁目","koaza":"","lat":37.052754,"lng":138.265285,"zip":"9440003"},{"town":"東陽町","koaza":"","lat":37.037304,"lng":138.265855,"zip":"9440009"},{"town":"中川","koaza":"","lat":37.038923,"lng":138.260571,"zip":"9440005"},{"town":"中町","koaza":"","lat":37.026574,"lng":138.251077,"zip":"9440045"},{"town":"錦町一丁目","koaza":"","lat":37.016382,"lng":138.240687,"zip":"9440051"},{"town":"錦町二丁目","koaza":"","lat":37.017106,"lng":138.236993,"zip":"9440051"},{"town":"白山町一丁目","koaza":"","lat":37.025387,"lng":138.248112,"zip":"9440047"},{"town":"白山町二丁目","koaza":"","lat":37.024529,"lng":138.243746,"zip":"9440047"},{"town":"白山町三丁目","koaza":"","lat":37.022135,"lng":138.239622,"zip":"9440047"},{"town":"白山町四丁目","koaza":"","lat":37.021632,"lng":138.246299,"zip":"9440047"},{"town":"美守一丁目","koaza":"","lat":37.024103,"lng":138.25834,"zip":"9440016"},{"town":"美守二丁目","koaza":"","lat":37.02,"lng":138.258826,"zip":"9440016"},{"town":"美守三丁目","koaza":"","lat":37.023366,"lng":138.261604,"zip":"9440016"},{"town":"広島一丁目","koaza":"","lat":37.057026,"lng":138.269513,"zip":"9440002"},{"town":"広島二丁目","koaza":"","lat":37.059699,"lng":138.272214,"zip":"9440002"},{"town":"広島三丁目","koaza":"","lat":37.052416,"lng":138.273581,"zip":"9440002"},{"town":"広田町","koaza":"","lat":37.014993,"lng":138.25646,"zip":"9440033"},{"town":"柳井田町一丁目","koaza":"","lat":37.050744,"lng":138.257098,"zip":"9440008"},{"town":"柳井田町二丁目","koaza":"","lat":37.050803,"lng":138.258901,"zip":"9440008"},{"town":"柳井田町三丁目","koaza":"","lat":37.055528,"lng":138.255793,"zip":"9440008"},{"town":"柳井田町四丁目","koaza":"","lat":37.056406,"lng":138.258829,"zip":"9440008"},{"town":"柳井田町五丁目","koaza":"","lat":37.058802,"lng":138.255593,"zip":"9440008"}]