[{"town":"旭町","koaza":"","lat":37.305207,"lng":138.812667,"zip":"9470005"},{"town":"稲荷町","koaza":"","lat":37.305399,"lng":138.794693,"zip":"9470025"},{"town":"上ノ山一丁目","koaza":"","lat":37.304124,"lng":138.792794,"zip":"9470026"},{"town":"上ノ山二丁目","koaza":"","lat":37.302921,"lng":138.791577,"zip":"9470026"},{"town":"上ノ山三丁目","koaza":"","lat":37.301762,"lng":138.789635,"zip":"9470026"},{"town":"上ノ山四丁目","koaza":"","lat":37.299558,"lng":138.787407,"zip":"9470026"},{"town":"上ノ山五丁目","koaza":"","lat":37.301388,"lng":138.792759,"zip":"9470026"},{"town":"大字池ケ原","koaza":"","lat":37.26606,"lng":138.792988,"zip":"9470000"},{"town":"大字池中新田","koaza":"","lat":37.261629,"lng":138.798807,"zip":"9470000"},{"town":"大字岩沢","koaza":"","lat":37.227028,"lng":138.798868,"zip":"9470000"},{"town":"大字浦柄","koaza":"","lat":37.327238,"lng":138.838397,"zip":"9470000"},{"town":"大字上片貝","koaza":"","lat":37.287593,"lng":138.825499,"zip":"9470000"},{"town":"大字川井","koaza":"","lat":37.242469,"lng":138.823389,"zip":"9470000"},{"town":"大字川井新田","koaza":"","lat":37.262923,"lng":138.823062,"zip":"9470000"},{"town":"大字小栗山","koaza":"","lat":37.336656,"lng":138.851437,"zip":"9470000"},{"town":"大字小粟田","koaza":"","lat":37.342055,"lng":138.795832,"zip":"9470000"},{"town":"大字桜町","koaza":"","lat":37.314853,"lng":138.769485,"zip":"9470000"},{"town":"大字三仏生","koaza":"","lat":37.33666,"lng":138.815836,"zip":"9470000"},{"town":"大字塩谷","koaza":"","lat":37.302249,"lng":138.88724,"zip":"9470000"},{"town":"大字塩殿","koaza":"","lat":37.267658,"lng":138.824288,"zip":"9470000"},{"town":"大字千谷","koaza":"","lat":37.327469,"lng":138.800913,"zip":"9470000"},{"town":"大字千谷川","koaza":"","lat":37.321979,"lng":138.797112,"zip":"9470000"},{"town":"大字土川","koaza":"","lat":37.304913,"lng":138.785601,"zip":"9470000"},{"town":"大字坪野","koaza":"","lat":37.340213,"lng":138.771535,"zip":"9470000"},{"town":"大字時水","koaza":"","lat":37.301303,"lng":138.763263,"zip":"9470000"},{"town":"大字西中","koaza":"","lat":37.296815,"lng":138.793985,"zip":"9470000"},{"town":"大字西吉谷","koaza":"","lat":37.267405,"lng":138.775018,"zip":"9470000"},{"town":"大字ひ生","koaza":"","lat":37.310365,"lng":138.829736,"zip":"9470000"},{"town":"大字東吉谷","koaza":"","lat":37.277294,"lng":138.763905,"zip":"9470000"},{"town":"大字平沢新田","koaza":"","lat":37.320899,"lng":138.793962,"zip":"9470000"},{"town":"大字豊久新田","koaza":"","lat":37.239367,"lng":138.78365,"zip":"9470000"},{"town":"大字南荷頃","koaza":"","lat":37.324005,"lng":138.854514,"zip":"9470000"},{"town":"大字谷内","koaza":"","lat":37.285136,"lng":138.794188,"zip":"9470000"},{"town":"大字藪川","koaza":"","lat":37.298617,"lng":138.778666,"zip":"9470000"},{"town":"大字山本","koaza":"","lat":37.28867,"lng":138.807065,"zip":"9470000"},{"town":"大字山谷","koaza":"","lat":37.328758,"lng":138.767786,"zip":"9470000"},{"town":"大字横渡","koaza":"","lat":37.325121,"lng":138.824088,"zip":"9470000"},{"town":"大字四ツ子","koaza":"","lat":37.280811,"lng":138.787286,"zip":"9470000"},{"town":"大字両新田","koaza":"","lat":37.30384,"lng":138.775523,"zip":"9470000"},{"town":"片貝町","koaza":"","lat":37.368465,"lng":138.780239,"zip":"9470101"},{"town":"片貝山屋町","koaza":"","lat":37.356968,"lng":138.790574,"zip":"9470103"},{"town":"鴻巣町","koaza":"","lat":37.349215,"lng":138.776388,"zip":"9470045"},{"town":"栄町","koaza":"","lat":37.301438,"lng":138.798951,"zip":"9470011"},{"town":"城内一丁目","koaza":"","lat":37.3121,"lng":138.796677,"zip":"9470028"},{"town":"城内二丁目","koaza":"","lat":37.314953,"lng":138.796046,"zip":"9470028"},{"town":"城内三丁目","koaza":"","lat":37.314103,"lng":138.790743,"zip":"9470028"},{"town":"城内四丁目","koaza":"","lat":37.312272,"lng":138.789257,"zip":"9470028"},{"town":"高梨町","koaza":"","lat":37.356293,"lng":138.807732,"zip":"9470102"},{"town":"千谷川一丁目","koaza":"","lat":37.314055,"lng":138.801912,"zip":"9470053"},{"town":"千谷川二丁目","koaza":"","lat":37.314569,"lng":138.799618,"zip":"9470053"},{"town":"千谷川三丁目","koaza":"","lat":37.317858,"lng":138.802457,"zip":"9470053"},{"town":"千谷川四丁目","koaza":"","lat":37.319426,"lng":138.798234,"zip":"9470053"},{"town":"土川一丁目","koaza":"","lat":37.307838,"lng":138.790271,"zip":"9470031"},{"town":"土川二丁目","koaza":"","lat":37.304148,"lng":138.788512,"zip":"9470031"},{"town":"東栄一丁目","koaza":"","lat":37.309158,"lng":138.811296,"zip":"9470004"},{"town":"東栄二丁目","koaza":"","lat":37.31012,"lng":138.806833,"zip":"9470004"},{"town":"東栄三丁目","koaza":"","lat":37.312477,"lng":138.811179,"zip":"9470004"},{"town":"日吉一丁目","koaza":"","lat":37.30545,"lng":138.797792,"zip":"9470023"},{"town":"日吉二丁目","koaza":"","lat":37.305738,"lng":138.800212,"zip":"9470023"},{"town":"平沢一丁目","koaza":"","lat":37.317043,"lng":138.793595,"zip":"9470042"},{"town":"平沢二丁目","koaza":"","lat":37.319848,"lng":138.790472,"zip":"9470042"},{"town":"船岡一丁目","koaza":"","lat":37.305164,"lng":138.796364,"zip":"9470024"},{"town":"船岡二丁目","koaza":"","lat":37.303463,"lng":138.798064,"zip":"9470024"},{"town":"船岡三丁目","koaza":"","lat":37.300956,"lng":138.795363,"zip":"9470024"},{"town":"平成一丁目","koaza":"","lat":37.30977,"lng":138.793708,"zip":"9470027"},{"town":"平成二丁目","koaza":"","lat":37.307846,"lng":138.794028,"zip":"9470027"},{"town":"本町一丁目","koaza":"","lat":37.309826,"lng":138.799076,"zip":"9470021"},{"town":"本町二丁目","koaza":"","lat":37.309001,"lng":138.796375,"zip":"9470021"},{"town":"真人町","koaza":"","lat":37.24064,"lng":138.755793,"zip":"9498726"},{"town":"元町","koaza":"","lat":37.308863,"lng":138.800625,"zip":"9470022"},{"town":"若葉一丁目","koaza":"","lat":37.30645,"lng":138.784936,"zip":"9470054"},{"town":"若葉二丁目","koaza":"","lat":37.305207,"lng":138.78262,"zip":"9470054"},{"town":"若葉三丁目","koaza":"","lat":37.304171,"lng":138.780702,"zip":"9470054"},{"town":"大字平沢新田","koaza":"荒田","lat":37.319955,"lng":138.795473,"zip":"9470000"}]