[{"town":"大字安角","koaza":"","lat":38.045989,"lng":139.581402,"zip":"9593200"},{"town":"大字幾地","koaza":"","lat":38.048792,"lng":139.539147,"zip":"9593200"},{"town":"大字上野","koaza":"","lat":38.134332,"lng":139.551477,"zip":"9593200"},{"town":"大字上野新","koaza":"","lat":38.125726,"lng":139.535282,"zip":"9593200"},{"town":"大字上野山","koaza":"","lat":38.107885,"lng":139.557018,"zip":"9593200"},{"town":"大字打上","koaza":"","lat":38.096993,"lng":139.54302,"zip":"9593200"},{"town":"大字内須川","koaza":"","lat":38.066977,"lng":139.552274,"zip":"9593200"},{"town":"大字大石","koaza":"","lat":37.98252,"lng":139.602965,"zip":"9593200"},{"town":"大字大内渕","koaza":"","lat":38.066028,"lng":139.599378,"zip":"9593200"},{"town":"大字大島","koaza":"","lat":38.104523,"lng":139.517264,"zip":"9593200"},{"town":"大字小見","koaza":"","lat":38.111776,"lng":139.552017,"zip":"9593200"},{"town":"大字小見前新田","koaza":"","lat":38.103255,"lng":139.542016,"zip":"9593200"},{"town":"大字鮖谷","koaza":"","lat":38.054184,"lng":139.56164,"zip":"9593200"},{"town":"大字片貝","koaza":"","lat":38.071013,"lng":139.628517,"zip":"9593200"},{"town":"大字桂","koaza":"","lat":38.11863,"lng":139.517487,"zip":"9593200"},{"town":"大字金丸","koaza":"","lat":38.060397,"lng":139.669226,"zip":"9593200"},{"town":"大字金俣","koaza":"","lat":38.019293,"lng":139.544306,"zip":"9593200"},{"town":"大字上川口","koaza":"","lat":38.067066,"lng":139.58218,"zip":"9593200"},{"town":"大字上新保","koaza":"","lat":38.138053,"lng":139.551254,"zip":"9593200"},{"town":"大字上関","koaza":"","lat":38.082029,"lng":139.574517,"zip":"9593200"},{"town":"大字聞出","koaza":"","lat":38.079229,"lng":139.622328,"zip":"9593200"},{"town":"大字久保","koaza":"","lat":38.064566,"lng":139.568244,"zip":"9593200"},{"town":"大字鍬江沢","koaza":"","lat":38.089755,"lng":139.506393,"zip":"9593200"},{"town":"大字小和田","koaza":"","lat":38.122294,"lng":139.614903,"zip":"9593200"},{"town":"大字下川口","koaza":"","lat":38.075349,"lng":139.586739,"zip":"9593200"},{"town":"大字下関","koaza":"","lat":38.083346,"lng":139.555484,"zip":"9593200"},{"town":"大字蛇喰","koaza":"","lat":38.140548,"lng":139.546956,"zip":"9593200"},{"town":"大字勝蔵","koaza":"","lat":38.089813,"lng":139.545415,"zip":"9593200"},{"town":"大字蔵田島","koaza":"","lat":38.063876,"lng":139.577475,"zip":"9593200"},{"town":"大字高田","koaza":"","lat":38.11133,"lng":139.534262,"zip":"9593200"},{"town":"大字滝原","koaza":"","lat":38.10445,"lng":139.567071,"zip":"9593200"},{"town":"大字辰田新","koaza":"","lat":38.095435,"lng":139.548651,"zip":"9593200"},{"town":"大字土沢","koaza":"","lat":38.093169,"lng":139.52074,"zip":"9593200"},{"town":"大字中束","koaza":"","lat":38.144309,"lng":139.624842,"zip":"9593200"},{"town":"大字楢木新田","koaza":"","lat":38.076188,"lng":139.594556,"zip":"9593200"},{"town":"大字沼","koaza":"","lat":38.032499,"lng":139.62534,"zip":"9593200"},{"town":"大字畑","koaza":"","lat":38.040208,"lng":139.646274,"zip":"9593200"},{"town":"大字深沢","koaza":"","lat":38.123744,"lng":139.540358,"zip":"9593200"},{"town":"大字平内新","koaza":"","lat":38.106498,"lng":139.536618,"zip":"9593200"},{"town":"大字朴坂","koaza":"","lat":38.130187,"lng":139.522239,"zip":"9593200"},{"town":"大字南赤谷","koaza":"","lat":38.085919,"lng":139.539684,"zip":"9593200"},{"town":"大字南中","koaza":"","lat":38.142,"lng":139.539442,"zip":"9593200"},{"town":"大字宮前","koaza":"","lat":38.13932,"lng":139.522768,"zip":"9593200"},{"town":"大字八ツ口","koaza":"","lat":38.087396,"lng":139.653186,"zip":"9593200"},{"town":"大字山本","koaza":"","lat":38.071333,"lng":139.530815,"zip":"9593200"},{"town":"大字湯沢","koaza":"","lat":38.094424,"lng":139.604804,"zip":"9593200"},{"town":"大字若山","koaza":"","lat":38.126765,"lng":139.552359,"zip":"9593200"}]