[{"town":"あおば通一丁目","koaza":"","lat":37.833554,"lng":139.101512,"zip":"9560017"},{"town":"あおば通二丁目","koaza":"","lat":37.835374,"lng":139.102877,"zip":"9560017"},{"town":"秋葉一丁目","koaza":"","lat":37.789702,"lng":139.131342,"zip":"9560832"},{"town":"秋葉二丁目","koaza":"","lat":37.791721,"lng":139.135182,"zip":"9560832"},{"town":"秋葉三丁目","koaza":"","lat":37.786922,"lng":139.136913,"zip":"9560832"},{"town":"朝日","koaza":"","lat":37.763988,"lng":139.129638,"zip":"9560835"},{"town":"天ヶ沢","koaza":"","lat":37.738296,"lng":139.084539,"zip":"9560114"},{"town":"市新","koaza":"","lat":37.784347,"lng":139.168333,"zip":"9560824"},{"town":"市之瀬","koaza":"","lat":37.831993,"lng":139.081897,"zip":"9560002"},{"town":"飯柳","koaza":"","lat":37.786795,"lng":139.151876,"zip":"9560853"},{"town":"梅ノ木","koaza":"","lat":37.777651,"lng":139.092963,"zip":"9560043"},{"town":"浦興野","koaza":"","lat":37.786128,"lng":139.078321,"zip":"9560044"},{"town":"大秋","koaza":"","lat":37.800119,"lng":139.068669,"zip":"9560054"},{"town":"大鹿","koaza":"","lat":37.799044,"lng":139.100546,"zip":"9560004"},{"town":"大関","koaza":"","lat":37.775725,"lng":139.160172,"zip":"9560827"},{"town":"岡田","koaza":"","lat":37.775923,"lng":139.164394,"zip":"9560826"},{"town":"荻島","koaza":"","lat":37.827397,"lng":139.101141,"zip":"9560804"},{"town":"荻島一丁目","koaza":"","lat":37.832558,"lng":139.121281,"zip":"9560804"},{"town":"荻島二丁目","koaza":"","lat":37.831094,"lng":139.114915,"zip":"9560804"},{"town":"荻島三丁目","koaza":"","lat":37.833363,"lng":139.116059,"zip":"9560804"},{"town":"荻野町","koaza":"","lat":37.830478,"lng":139.107923,"zip":"9560012"},{"town":"覚路津","koaza":"","lat":37.819286,"lng":139.072033,"zip":"9560001"},{"town":"金沢町一丁目","koaza":"","lat":37.798948,"lng":139.133321,"zip":"9560851"},{"town":"金沢町二丁目","koaza":"","lat":37.798334,"lng":139.134904,"zip":"9560851"},{"town":"金沢町三丁目","koaza":"","lat":37.797226,"lng":139.136862,"zip":"9560851"},{"town":"金沢町四丁目","koaza":"","lat":37.796895,"lng":139.140612,"zip":"9560851"},{"town":"金津","koaza":"","lat":37.749825,"lng":139.130982,"zip":"9560845"},{"town":"金屋","koaza":"","lat":37.792712,"lng":139.168485,"zip":"9560823"},{"town":"鎌倉","koaza":"","lat":37.732456,"lng":139.078824,"zip":"9560115"},{"town":"柄目木","koaza":"","lat":37.791641,"lng":139.142398,"zip":"9560852"},{"town":"蒲ヶ沢","koaza":"","lat":37.763909,"lng":139.104021,"zip":"9560846"},{"town":"川口","koaza":"","lat":37.81801,"lng":139.108798,"zip":"9560015"},{"town":"川根","koaza":"","lat":37.7972,"lng":139.075046,"zip":"9560055"},{"town":"北","koaza":"","lat":37.792239,"lng":139.173277,"zip":"9560828"},{"town":"北潟","koaza":"","lat":37.816235,"lng":139.090543,"zip":"9560026"},{"town":"北上","koaza":"","lat":37.812336,"lng":139.104528,"zip":"9560861"},{"town":"北上一丁目","koaza":"","lat":37.811147,"lng":139.119447,"zip":"9560861"},{"town":"北上二丁目","koaza":"","lat":37.812471,"lng":139.121323,"zip":"9560861"},{"town":"北上三丁目","koaza":"","lat":37.812401,"lng":139.124013,"zip":"9560861"},{"town":"北上新田","koaza":"","lat":37.813632,"lng":139.114553,"zip":"9560021"},{"town":"草水町一丁目","koaza":"","lat":37.785156,"lng":139.143432,"zip":"9560833"},{"town":"草水町二丁目","koaza":"","lat":37.782364,"lng":139.146661,"zip":"9560833"},{"town":"草水町三丁目","koaza":"","lat":37.779451,"lng":139.152388,"zip":"9560833"},{"town":"栗宮","koaza":"","lat":37.804593,"lng":139.09036,"zip":"9560005"},{"town":"車場","koaza":"","lat":37.831571,"lng":139.095585,"zip":"9560011"},{"town":"車場一丁目","koaza":"","lat":37.838327,"lng":139.102382,"zip":"9560011"},{"town":"車場二丁目","koaza":"","lat":37.837795,"lng":139.110699,"zip":"9560011"},{"town":"車場三丁目","koaza":"","lat":37.837761,"lng":139.106582,"zip":"9560011"},{"town":"車場四丁目","koaza":"","lat":37.834588,"lng":139.107163,"zip":"9560011"},{"town":"車場五丁目","koaza":"","lat":37.833982,"lng":139.104635,"zip":"9560011"},{"town":"こがね町","koaza":"","lat":37.830659,"lng":139.11094,"zip":"9560016"},{"town":"小口","koaza":"","lat":37.769291,"lng":139.150114,"zip":"9560834"},{"town":"小須戸","koaza":"","lat":37.764104,"lng":139.073185,"zip":"9560101"},{"town":"古田","koaza":"","lat":37.805116,"lng":139.104259,"zip":"9560025"},{"town":"古田一丁目","koaza":"","lat":37.794699,"lng":139.110721,"zip":"9560025"},{"town":"古田二丁目","koaza":"","lat":37.793018,"lng":139.105801,"zip":"9560025"},{"town":"古田三丁目","koaza":"","lat":37.796699,"lng":139.106446,"zip":"9560025"},{"town":"古田四丁目","koaza":"","lat":37.797895,"lng":139.106733,"zip":"9560025"},{"town":"小戸上組","koaza":"","lat":37.796469,"lng":139.091998,"zip":"9560006"},{"town":"小戸下組","koaza":"","lat":37.800261,"lng":139.082236,"zip":"9560007"},{"town":"子成場","koaza":"","lat":37.783911,"lng":139.061524,"zip":"9560045"},{"town":"小向","koaza":"","lat":37.740328,"lng":139.069309,"zip":"9560122"},{"town":"小屋場","koaza":"","lat":37.783975,"lng":139.087728,"zip":"9560041"},{"town":"さつき野一丁目","koaza":"","lat":37.812693,"lng":139.115618,"zip":"9560022"},{"town":"さつき野二丁目","koaza":"","lat":37.810287,"lng":139.117237,"zip":"9560022"},{"town":"さつき野三丁目","koaza":"","lat":37.81078,"lng":139.11413,"zip":"9560022"},{"town":"さつき野四丁目","koaza":"","lat":37.807999,"lng":139.11759,"zip":"9560022"},{"town":"塩谷","koaza":"","lat":37.755335,"lng":139.123216,"zip":"9560844"},{"town":"下興野","koaza":"","lat":37.808075,"lng":139.113374,"zip":"9560867"},{"town":"下興野町","koaza":"","lat":37.807476,"lng":139.12354,"zip":"9560866"},{"town":"下条","koaza":"","lat":37.770155,"lng":139.169578,"zip":"9560000"},{"town":"下新","koaza":"","lat":37.778925,"lng":139.17707,"zip":"9560825"},{"town":"新栄町","koaza":"","lat":37.790829,"lng":139.1202,"zip":"9560033"},{"town":"新金沢町","koaza":"","lat":37.796975,"lng":139.14555,"zip":"9560815"},{"town":"新郷屋","koaza":"","lat":37.790537,"lng":139.171813,"zip":"9560822"},{"town":"新保","koaza":"","lat":37.758462,"lng":139.083748,"zip":"9560112"},{"town":"新町一丁目","koaza":"","lat":37.799349,"lng":139.128788,"zip":"9560862"},{"town":"新町二丁目","koaza":"","lat":37.799844,"lng":139.131707,"zip":"9560862"},{"town":"新町三丁目","koaza":"","lat":37.804795,"lng":139.129192,"zip":"9560862"},{"town":"水田","koaza":"","lat":37.729194,"lng":139.063999,"zip":"9560123"},{"town":"善道","koaza":"","lat":37.806295,"lng":139.113794,"zip":"9560865"},{"town":"善道町一丁目","koaza":"","lat":37.804558,"lng":139.121978,"zip":"9560865"},{"town":"善道町二丁目","koaza":"","lat":37.803119,"lng":139.125061,"zip":"9560865"},{"town":"田家","koaza":"","lat":37.777903,"lng":139.137509,"zip":"9560836"},{"town":"田家一丁目","koaza":"","lat":37.789001,"lng":139.125731,"zip":"9560836"},{"town":"田家二丁目","koaza":"","lat":37.78407,"lng":139.125461,"zip":"9560836"},{"town":"田家三丁目","koaza":"","lat":37.784679,"lng":139.131285,"zip":"9560836"},{"town":"大安寺","koaza":"","lat":37.799922,"lng":139.158997,"zip":"9560813"},{"town":"滝谷町","koaza":"","lat":37.789329,"lng":139.14069,"zip":"9560854"},{"town":"滝谷本町","koaza":"","lat":37.794138,"lng":139.134108,"zip":"9560855"},{"town":"田島","koaza":"","lat":37.828195,"lng":139.109456,"zip":"9560013"},{"town":"次屋","koaza":"","lat":37.771933,"lng":139.169554,"zip":"9560000"},{"town":"出戸","koaza":"","lat":37.784128,"lng":139.071631,"zip":"9560046"},{"town":"中沢町","koaza":"","lat":37.790659,"lng":139.126344,"zip":"9560831"},{"town":"中新田","koaza":"","lat":37.807979,"lng":139.149021,"zip":"9560812"},{"town":"中野","koaza":"","lat":37.828811,"lng":139.100857,"zip":"9560805"},{"town":"中野一丁目","koaza":"","lat":37.837344,"lng":139.116599,"zip":"9560805"},{"town":"中野二丁目","koaza":"","lat":37.838051,"lng":139.114333,"zip":"9560805"},{"town":"中野三丁目","koaza":"","lat":37.834243,"lng":139.112499,"zip":"9560805"},{"town":"中野四丁目","koaza":"","lat":37.833997,"lng":139.109974,"zip":"9560805"},{"town":"中野五丁目","koaza":"","lat":37.832545,"lng":139.107539,"zip":"9560805"},{"town":"中村","koaza":"","lat":37.781576,"lng":139.116565,"zip":"9560036"},{"town":"新津","koaza":"","lat":37.804792,"lng":139.110947,"zip":"9560031"},{"town":"新津東町一丁目","koaza":"","lat":37.803065,"lng":139.139335,"zip":"9560816"},{"town":"新津東町二丁目","koaza":"","lat":37.800692,"lng":139.14277,"zip":"9560816"},{"town":"新津東町三丁目","koaza":"","lat":37.805453,"lng":139.143142,"zip":"9560816"},{"town":"新津本町一丁目","koaza":"","lat":37.799041,"lng":139.121925,"zip":"9560864"},{"town":"新津本町二丁目","koaza":"","lat":37.799389,"lng":139.125504,"zip":"9560864"},{"town":"新津本町三丁目","koaza":"","lat":37.79537,"lng":139.123336,"zip":"9560864"},{"town":"新津本町四丁目","koaza":"","lat":37.794399,"lng":139.127825,"zip":"9560864"},{"town":"新津緑町","koaza":"","lat":37.786914,"lng":139.120459,"zip":"9560034"},{"town":"新津四ツ興野","koaza":"","lat":37.779955,"lng":139.077686,"zip":"9560057"},{"town":"西金沢","koaza":"","lat":37.803864,"lng":139.134309,"zip":"9560818"},{"town":"西島","koaza":"","lat":37.779363,"lng":139.107293,"zip":"9560842"},{"town":"西古津","koaza":"","lat":37.774128,"lng":139.113451,"zip":"9560037"},{"town":"日宝町","koaza":"","lat":37.797116,"lng":139.128126,"zip":"9560863"},{"town":"羽下","koaza":"","lat":37.774271,"lng":139.168619,"zip":"9560000"},{"town":"東金沢","koaza":"","lat":37.796888,"lng":139.152964,"zip":"9560814"},{"town":"東島","koaza":"","lat":37.771644,"lng":139.134321,"zip":"9560841"},{"town":"福島","koaza":"","lat":37.822659,"lng":139.098228,"zip":"9560014"},{"town":"舟戸一丁目","koaza":"","lat":37.749152,"lng":139.092287,"zip":"9560116"},{"town":"舟戸二丁目","koaza":"","lat":37.749731,"lng":139.093819,"zip":"9560116"},{"town":"古津","koaza":"","lat":37.769344,"lng":139.110329,"zip":"9560847"},{"town":"程島","koaza":"","lat":37.784269,"lng":139.10134,"zip":"9560035"},{"town":"松ヶ丘一丁目","koaza":"","lat":37.738015,"lng":139.098893,"zip":"9560117"},{"town":"みそら野一丁目","koaza":"","lat":37.826998,"lng":139.116019,"zip":"9560806"},{"town":"みそら野二丁目","koaza":"","lat":37.827086,"lng":139.113647,"zip":"9560806"},{"town":"みそら野三丁目","koaza":"","lat":37.823799,"lng":139.114514,"zip":"9560806"},{"town":"南町","koaza":"","lat":37.79208,"lng":139.116956,"zip":"9560032"},{"town":"美幸町一丁目","koaza":"","lat":37.801302,"lng":139.118097,"zip":"9560023"},{"town":"美幸町二丁目","koaza":"","lat":37.801706,"lng":139.116143,"zip":"9560023"},{"town":"美幸町三丁目","koaza":"","lat":37.80186,"lng":139.113974,"zip":"9560023"},{"town":"美善一丁目","koaza":"","lat":37.804029,"lng":139.117687,"zip":"9560027"},{"town":"美善二丁目","koaza":"","lat":37.805773,"lng":139.117481,"zip":"9560027"},{"town":"結","koaza":"","lat":37.824405,"lng":139.089035,"zip":"9560803"},{"town":"矢代田","koaza":"","lat":37.743787,"lng":139.101908,"zip":"9560113"},{"town":"山谷町一丁目","koaza":"","lat":37.797107,"lng":139.119319,"zip":"9560024"},{"town":"山谷町二丁目","koaza":"","lat":37.797015,"lng":139.116135,"zip":"9560024"},{"town":"山谷町三丁目","koaza":"","lat":37.798212,"lng":139.112072,"zip":"9560024"},{"town":"横川浜","koaza":"","lat":37.746428,"lng":139.074529,"zip":"9560121"},{"town":"吉岡町","koaza":"","lat":37.791548,"lng":139.122665,"zip":"9560837"},{"town":"竜玄","koaza":"","lat":37.765932,"lng":139.09125,"zip":"9560111"},{"town":"六郷","koaza":"","lat":37.80052,"lng":139.173346,"zip":"9560821"},{"town":"蕨曽根","koaza":"","lat":37.791291,"lng":139.067157,"zip":"9560056"},{"town":"割町","koaza":"","lat":37.763695,"lng":139.119339,"zip":"9560843"},{"town":"大蔵","koaza":"","lat":37.830951,"lng":139.128782,"zip":"9560801"},{"town":"七日町","koaza":"","lat":37.820885,"lng":139.136918,"zip":"9560802"},{"town":"満願寺","koaza":"","lat":37.811395,"lng":139.141211,"zip":"9560811"},{"town":"古田ノ内大野開","koaza":"","lat":37.812248,"lng":139.128114,"zip":"9560817"},{"town":"北上","koaza":"長沼","lat":37.815004,"lng":139.104444,"zip":"9560861"}]