[{"town":"秋葉一丁目","koaza":"","lat":37.939391,"lng":139.08109,"zip":"9500054"},{"town":"秋葉通二丁目","koaza":"","lat":37.941856,"lng":139.081595,"zip":"9500052"},{"town":"秋葉通三丁目","koaza":"","lat":37.944315,"lng":139.085082,"zip":"9500052"},{"town":"粟山","koaza":"","lat":37.892637,"lng":139.105227,"zip":"9500843"},{"town":"粟山一丁目","koaza":"","lat":37.898614,"lng":139.099088,"zip":"9500843"},{"town":"粟山二丁目","koaza":"","lat":37.895836,"lng":139.099998,"zip":"9500843"},{"town":"粟山三丁目","koaza":"","lat":37.896706,"lng":139.101392,"zip":"9500843"},{"town":"粟山四丁目","koaza":"","lat":37.897623,"lng":139.103303,"zip":"9500843"},{"town":"石山","koaza":"","lat":37.90218,"lng":139.090572,"zip":"9500852"},{"town":"石山一丁目","koaza":"","lat":37.896562,"lng":139.090566,"zip":"9500852"},{"town":"石山二丁目","koaza":"","lat":37.896446,"lng":139.0939,"zip":"9500852"},{"town":"石山三丁目","koaza":"","lat":37.894085,"lng":139.095532,"zip":"9500852"},{"town":"石山四丁目","koaza":"","lat":37.895031,"lng":139.098396,"zip":"9500852"},{"town":"石山五丁目","koaza":"","lat":37.897364,"lng":139.095949,"zip":"9500852"},{"town":"石山六丁目","koaza":"","lat":37.899871,"lng":139.09786,"zip":"9500852"},{"town":"石山団地","koaza":"","lat":37.90486,"lng":139.10901,"zip":"9500834"},{"town":"石動","koaza":"","lat":37.918996,"lng":139.128266,"zip":"9500805"},{"town":"江口","koaza":"","lat":37.908315,"lng":139.127263,"zip":"9500101"},{"town":"榎","koaza":"","lat":37.927658,"lng":139.085661,"zip":"9500884"},{"town":"榎町","koaza":"","lat":37.925694,"lng":139.07844,"zip":"9500881"},{"town":"海老ケ瀬","koaza":"","lat":37.929702,"lng":139.12735,"zip":"9500806"},{"town":"海老ケ瀬新町","koaza":"","lat":37.928431,"lng":139.121751,"zip":"9500808"},{"town":"王瀬新町","koaza":"","lat":37.931401,"lng":139.082086,"zip":"9500882"},{"town":"逢谷内","koaza":"","lat":37.917171,"lng":139.117824,"zip":"9500814"},{"town":"逢谷内一丁目","koaza":"","lat":37.918567,"lng":139.114847,"zip":"9500814"},{"town":"逢谷内二丁目","koaza":"","lat":37.919159,"lng":139.116624,"zip":"9500814"},{"town":"逢谷内三丁目","koaza":"","lat":37.919848,"lng":139.118724,"zip":"9500814"},{"town":"逢谷内四丁目","koaza":"","lat":37.922392,"lng":139.116613,"zip":"9500814"},{"town":"逢谷内五丁目","koaza":"","lat":37.921021,"lng":139.114556,"zip":"9500814"},{"town":"逢谷内六丁目","koaza":"","lat":37.923008,"lng":139.114437,"zip":"9500814"},{"town":"大形本町","koaza":"","lat":37.919215,"lng":139.124496,"zip":"9500813"},{"town":"大形本町一丁目","koaza":"","lat":37.927235,"lng":139.118633,"zip":"9500813"},{"town":"大形本町二丁目","koaza":"","lat":37.925141,"lng":139.119648,"zip":"9500813"},{"town":"大形本町三丁目","koaza":"","lat":37.924418,"lng":139.116371,"zip":"9500813"},{"town":"大形本町四丁目","koaza":"","lat":37.922629,"lng":139.119141,"zip":"9500813"},{"town":"大形本町五丁目","koaza":"","lat":37.921764,"lng":139.12512,"zip":"9500813"},{"town":"大形本町六丁目","koaza":"","lat":37.920024,"lng":139.121601,"zip":"9500813"},{"town":"大山一丁目","koaza":"","lat":37.934156,"lng":139.079208,"zip":"9500067"},{"town":"大山二丁目","koaza":"","lat":37.936332,"lng":139.078027,"zip":"9500067"},{"town":"岡山","koaza":"","lat":37.913152,"lng":139.124475,"zip":"9500821"},{"town":"卸新町一丁目","koaza":"","lat":37.908357,"lng":139.091254,"zip":"9500863"},{"town":"卸新町二丁目","koaza":"","lat":37.906701,"lng":139.092249,"zip":"9500863"},{"town":"卸新町三丁目","koaza":"","lat":37.905833,"lng":139.095163,"zip":"9500863"},{"town":"上王瀬町","koaza":"","lat":37.934678,"lng":139.085443,"zip":"9500063"},{"town":"上木戸","koaza":"","lat":37.911914,"lng":139.103488,"zip":"9500891"},{"town":"上木戸一丁目","koaza":"","lat":37.923925,"lng":139.100372,"zip":"9500891"},{"town":"上木戸二丁目","koaza":"","lat":37.9229,"lng":139.106019,"zip":"9500891"},{"town":"上木戸三丁目","koaza":"","lat":37.922221,"lng":139.102641,"zip":"9500891"},{"town":"上木戸四丁目","koaza":"","lat":37.91899,"lng":139.100754,"zip":"9500891"},{"town":"上木戸五丁目","koaza":"","lat":37.91981,"lng":139.104231,"zip":"9500891"},{"town":"亀田中島四丁目","koaza":"","lat":37.890806,"lng":139.099837,"zip":"9500161"},{"town":"鴎島町","koaza":"","lat":37.930723,"lng":139.087416,"zip":"9500883"},{"town":"北葉町","koaza":"","lat":37.938565,"lng":139.076367,"zip":"9500055"},{"town":"北山","koaza":"","lat":37.891037,"lng":139.101334,"zip":"9500116"},{"town":"空港西一丁目","koaza":"","lat":37.948083,"lng":139.094475,"zip":"9500036"},{"town":"空港西二丁目","koaza":"","lat":37.948984,"lng":139.097414,"zip":"9500036"},{"town":"下場","koaza":"","lat":37.907956,"lng":139.102431,"zip":"9500831"},{"town":"下場新町","koaza":"","lat":37.905922,"lng":139.105438,"zip":"9500832"},{"town":"下場本町","koaza":"","lat":37.904396,"lng":139.1059,"zip":"9500833"},{"town":"幸栄一丁目","koaza":"","lat":37.943334,"lng":139.102509,"zip":"9500022"},{"town":"幸栄二丁目","koaza":"","lat":37.945657,"lng":139.102683,"zip":"9500022"},{"town":"幸栄三丁目","koaza":"","lat":37.944398,"lng":139.106026,"zip":"9500022"},{"town":"河渡","koaza":"","lat":37.949872,"lng":139.104998,"zip":"9500024"},{"town":"河渡一丁目","koaza":"","lat":37.935222,"lng":139.096961,"zip":"9500024"},{"town":"河渡二丁目","koaza":"","lat":37.935742,"lng":139.099771,"zip":"9500024"},{"town":"河渡三丁目","koaza":"","lat":37.937188,"lng":139.10301,"zip":"9500024"},{"town":"河渡新町一丁目","koaza":"","lat":37.946909,"lng":139.105592,"zip":"9500033"},{"town":"河渡新町二丁目","koaza":"","lat":37.947384,"lng":139.110069,"zip":"9500033"},{"town":"河渡本町","koaza":"","lat":37.934332,"lng":139.104592,"zip":"9500016"},{"town":"江南一丁目","koaza":"","lat":37.901336,"lng":139.078675,"zip":"9500855"},{"town":"江南二丁目","koaza":"","lat":37.902173,"lng":139.080144,"zip":"9500855"},{"town":"江南三丁目","koaza":"","lat":37.902651,"lng":139.081857,"zip":"9500855"},{"town":"江南四丁目","koaza":"","lat":37.905099,"lng":139.082465,"zip":"9500855"},{"town":"江南五丁目","koaza":"","lat":37.904141,"lng":139.083536,"zip":"9500855"},{"town":"江南六丁目","koaza":"","lat":37.902922,"lng":139.084685,"zip":"9500855"},{"town":"向陽一丁目","koaza":"","lat":37.941237,"lng":139.105711,"zip":"9500011"},{"town":"向陽二丁目","koaza":"","lat":37.941008,"lng":139.11172,"zip":"9500011"},{"town":"向陽三丁目","koaza":"","lat":37.940568,"lng":139.115581,"zip":"9500011"},{"town":"小金台","koaza":"","lat":37.942551,"lng":139.089268,"zip":"9500028"},{"town":"小金町一丁目","koaza":"","lat":37.936781,"lng":139.092166,"zip":"9500026"},{"town":"小金町二丁目","koaza":"","lat":37.938288,"lng":139.097702,"zip":"9500026"},{"town":"小金町三丁目","koaza":"","lat":37.938848,"lng":139.091477,"zip":"9500026"},{"town":"材木町","koaza":"","lat":37.927915,"lng":139.106191,"zip":"9500811"},{"town":"猿ケ馬場","koaza":"","lat":37.905977,"lng":139.12046,"zip":"9500835"},{"town":"猿ケ馬場一丁目","koaza":"","lat":37.906259,"lng":139.113987,"zip":"9500835"},{"town":"猿ケ馬場二丁目","koaza":"","lat":37.907886,"lng":139.116032,"zip":"9500835"},{"town":"下山一丁目","koaza":"","lat":37.944238,"lng":139.120197,"zip":"9500003"},{"town":"下山二丁目","koaza":"","lat":37.947648,"lng":139.127659,"zip":"9500003"},{"town":"下山三丁目","koaza":"","lat":37.951565,"lng":139.126505,"zip":"9500003"},{"town":"紫竹","koaza":"","lat":37.90482,"lng":139.085107,"zip":"9500864"},{"town":"紫竹二丁目","koaza":"","lat":37.908257,"lng":139.076438,"zip":"9500864"},{"town":"紫竹三丁目","koaza":"","lat":37.906386,"lng":139.07562,"zip":"9500864"},{"town":"紫竹四丁目","koaza":"","lat":37.907316,"lng":139.080176,"zip":"9500864"},{"town":"紫竹五丁目","koaza":"","lat":37.904361,"lng":139.077565,"zip":"9500864"},{"town":"紫竹六丁目","koaza":"","lat":37.908874,"lng":139.082996,"zip":"9500864"},{"town":"紫竹七丁目","koaza":"","lat":37.910221,"lng":139.086783,"zip":"9500864"},{"town":"紫竹卸新町","koaza":"","lat":37.905833,"lng":139.08734,"zip":"9500868"},{"town":"紫竹山三丁目","koaza":"","lat":37.903181,"lng":139.075155,"zip":"9500914"},{"town":"下木戸","koaza":"","lat":37.93128,"lng":139.09685,"zip":"9500885"},{"town":"下木戸一丁目","koaza":"","lat":37.925976,"lng":139.092247,"zip":"9500885"},{"town":"下木戸二丁目","koaza":"","lat":37.926702,"lng":139.094857,"zip":"9500885"},{"town":"下木戸三丁目","koaza":"","lat":37.930656,"lng":139.091027,"zip":"9500885"},{"town":"白銀一丁目","koaza":"","lat":37.936179,"lng":139.10756,"zip":"9500013"},{"town":"白銀二丁目","koaza":"","lat":37.936999,"lng":139.110388,"zip":"9500013"},{"town":"新石山一丁目","koaza":"","lat":37.90327,"lng":139.099241,"zip":"9500851"},{"town":"新石山二丁目","koaza":"","lat":37.902617,"lng":139.097644,"zip":"9500851"},{"town":"新石山三丁目","koaza":"","lat":37.901946,"lng":139.096114,"zip":"9500851"},{"town":"新石山四丁目","koaza":"","lat":37.901287,"lng":139.094504,"zip":"9500851"},{"town":"新石山五丁目","koaza":"","lat":37.900189,"lng":139.093445,"zip":"9500851"},{"town":"新岡山二丁目","koaza":"","lat":37.909236,"lng":139.122164,"zip":"9500822"},{"town":"新川町","koaza":"","lat":37.941258,"lng":139.121332,"zip":"9500004"},{"town":"新松崎一丁目","koaza":"","lat":37.930284,"lng":139.116054,"zip":"9500017"},{"town":"新松崎二丁目","koaza":"","lat":37.931546,"lng":139.118098,"zip":"9500017"},{"town":"新松崎三丁目","koaza":"","lat":37.930639,"lng":139.120138,"zip":"9500017"},{"town":"神明町","koaza":"","lat":37.940502,"lng":139.068445,"zip":"9500045"},{"town":"末広町","koaza":"","lat":37.934176,"lng":139.071039,"zip":"9500071"},{"town":"太平一丁目","koaza":"","lat":37.945504,"lng":139.117983,"zip":"9500005"},{"town":"太平二丁目","koaza":"","lat":37.944657,"lng":139.115316,"zip":"9500005"},{"town":"太平三丁目","koaza":"","lat":37.944309,"lng":139.111288,"zip":"9500005"},{"town":"太平四丁目","koaza":"","lat":37.942856,"lng":139.108832,"zip":"9500005"},{"town":"宝町","koaza":"","lat":37.94083,"lng":139.085878,"zip":"9500053"},{"town":"竹尾","koaza":"","lat":37.910515,"lng":139.098311,"zip":"9500862"},{"town":"竹尾一丁目","koaza":"","lat":37.911274,"lng":139.093237,"zip":"9500862"},{"town":"竹尾二丁目","koaza":"","lat":37.912849,"lng":139.090471,"zip":"9500862"},{"town":"竹尾三丁目","koaza":"","lat":37.914507,"lng":139.094599,"zip":"9500862"},{"town":"竹尾四丁目","koaza":"","lat":37.914797,"lng":139.098364,"zip":"9500862"},{"town":"竹尾卸新町","koaza":"","lat":37.908262,"lng":139.095776,"zip":"9500867"},{"town":"児池","koaza":"","lat":37.914205,"lng":139.119001,"zip":"9500825"},{"town":"長者町","koaza":"","lat":37.935159,"lng":139.074574,"zip":"9500066"},{"town":"月見町","koaza":"","lat":37.936903,"lng":139.08248,"zip":"9500061"},{"town":"津島屋一丁目","koaza":"","lat":37.938049,"lng":139.136,"zip":"9500801"},{"town":"津島屋二丁目","koaza":"","lat":37.939822,"lng":139.133238,"zip":"9500801"},{"town":"津島屋三丁目","koaza":"","lat":37.942917,"lng":139.13217,"zip":"9500801"},{"town":"津島屋四丁目","koaza":"","lat":37.945048,"lng":139.130982,"zip":"9500801"},{"town":"津島屋五丁目","koaza":"","lat":37.946532,"lng":139.132321,"zip":"9500801"},{"town":"津島屋六丁目","koaza":"","lat":37.941955,"lng":139.124475,"zip":"9500801"},{"town":"津島屋七丁目","koaza":"","lat":37.93951,"lng":139.126168,"zip":"9500801"},{"town":"津島屋八丁目","koaza":"","lat":37.933413,"lng":139.131771,"zip":"9500801"},{"town":"寺山","koaza":"","lat":37.914098,"lng":139.111163,"zip":"9500892"},{"town":"寺山一丁目","koaza":"","lat":37.918621,"lng":139.108549,"zip":"9500892"},{"town":"寺山二丁目","koaza":"","lat":37.921905,"lng":139.109392,"zip":"9500892"},{"town":"寺山三丁目","koaza":"","lat":37.920137,"lng":139.111737,"zip":"9500892"},{"town":"東新町","koaza":"","lat":37.933325,"lng":139.075167,"zip":"9500065"},{"town":"東明一丁目","koaza":"","lat":37.899488,"lng":139.081894,"zip":"9500853"},{"town":"東明二丁目","koaza":"","lat":37.899978,"lng":139.084378,"zip":"9500853"},{"town":"東明三丁目","koaza":"","lat":37.900866,"lng":139.085976,"zip":"9500853"},{"town":"東明四丁目","koaza":"","lat":37.901673,"lng":139.087524,"zip":"9500853"},{"town":"東明五丁目","koaza":"","lat":37.899809,"lng":139.088278,"zip":"9500853"},{"town":"東明六丁目","koaza":"","lat":37.898614,"lng":139.090158,"zip":"9500853"},{"town":"東明七丁目","koaza":"","lat":37.897728,"lng":139.087203,"zip":"9500853"},{"town":"東明八丁目","koaza":"","lat":37.898256,"lng":139.084339,"zip":"9500853"},{"town":"中木戸","koaza":"","lat":37.928284,"lng":139.099612,"zip":"9500886"},{"town":"中興野","koaza":"","lat":37.921001,"lng":139.140708,"zip":"9500803"},{"town":"中島","koaza":"","lat":37.911001,"lng":139.11214,"zip":"9500824"},{"town":"中島一丁目","koaza":"","lat":37.90708,"lng":139.105387,"zip":"9500824"},{"town":"中島二丁目","koaza":"","lat":37.910404,"lng":139.113706,"zip":"9500824"},{"town":"中野山","koaza":"","lat":37.895996,"lng":139.108431,"zip":"9500841"},{"town":"中野山一丁目","koaza":"","lat":37.903574,"lng":139.101353,"zip":"9500841"},{"town":"中野山二丁目","koaza":"","lat":37.905089,"lng":139.101235,"zip":"9500841"},{"town":"中野山三丁目","koaza":"","lat":37.905194,"lng":139.103456,"zip":"9500841"},{"town":"中野山四丁目","koaza":"","lat":37.902426,"lng":139.102804,"zip":"9500841"},{"town":"中野山五丁目","koaza":"","lat":37.901376,"lng":139.104441,"zip":"9500841"},{"town":"中野山六丁目","koaza":"","lat":37.898628,"lng":139.105723,"zip":"9500841"},{"town":"中野山八丁目","koaza":"","lat":37.904137,"lng":139.110209,"zip":"9500841"},{"town":"中野山七丁目","koaza":"","lat":37.899699,"lng":139.107508,"zip":"9500841"},{"town":"中山一丁目","koaza":"","lat":37.917245,"lng":139.081418,"zip":"9500861"},{"town":"中山二丁目","koaza":"","lat":37.916194,"lng":139.081431,"zip":"9500861"},{"town":"中山三丁目","koaza":"","lat":37.91802,"lng":139.086925,"zip":"9500861"},{"town":"中山四丁目","koaza":"","lat":37.91617,"lng":139.087819,"zip":"9500861"},{"town":"中山五丁目","koaza":"","lat":37.915227,"lng":139.082122,"zip":"9500861"},{"town":"中山六丁目","koaza":"","lat":37.913895,"lng":139.082714,"zip":"9500861"},{"town":"中山七丁目","koaza":"","lat":37.912409,"lng":139.08394,"zip":"9500861"},{"town":"中山八丁目","koaza":"","lat":37.915264,"lng":139.090914,"zip":"9500861"},{"town":"錦町","koaza":"","lat":37.937511,"lng":139.086815,"zip":"9500062"},{"town":"西野","koaza":"","lat":37.902358,"lng":139.118717,"zip":"9500106"},{"town":"根室新町","koaza":"","lat":37.948543,"lng":139.118693,"zip":"9500002"},{"town":"はなみずき一丁目","koaza":"","lat":37.915895,"lng":139.101119,"zip":"9500893"},{"town":"はなみずき二丁目","koaza":"","lat":37.916867,"lng":139.103495,"zip":"9500893"},{"town":"はなみずき三丁目","koaza":"","lat":37.914681,"lng":139.10415,"zip":"9500893"},{"town":"浜町","koaza":"","lat":37.941847,"lng":139.068057,"zip":"9500046"},{"town":"浜谷町一丁目","koaza":"","lat":37.948059,"lng":139.09157,"zip":"9500034"},{"town":"浜谷町二丁目","koaza":"","lat":37.946156,"lng":139.095041,"zip":"9500034"},{"town":"東中島一丁目","koaza":"","lat":37.906642,"lng":139.111403,"zip":"9500823"},{"town":"東中島二丁目","koaza":"","lat":37.907969,"lng":139.110775,"zip":"9500823"},{"town":"東中島三丁目","koaza":"","lat":37.911133,"lng":139.117099,"zip":"9500823"},{"town":"東中島四丁目","koaza":"","lat":37.90981,"lng":139.118511,"zip":"9500823"},{"town":"東中野山一丁目","koaza":"","lat":37.900478,"lng":139.108989,"zip":"9500836"},{"town":"東中野山二丁目","koaza":"","lat":37.901336,"lng":139.110431,"zip":"9500836"},{"town":"東中野山三丁目","koaza":"","lat":37.902077,"lng":139.111968,"zip":"9500836"},{"town":"東中野山四丁目","koaza":"","lat":37.902958,"lng":139.113309,"zip":"9500836"},{"town":"東中野山五丁目","koaza":"","lat":37.903828,"lng":139.114808,"zip":"9500836"},{"town":"東中野山六丁目","koaza":"","lat":37.905068,"lng":139.11649,"zip":"9500836"},{"town":"東中野山七丁目","koaza":"","lat":37.906752,"lng":139.118819,"zip":"9500836"},{"town":"東臨港町","koaza":"","lat":37.947995,"lng":139.083116,"zip":"9500042"},{"town":"一日市","koaza":"","lat":37.929313,"lng":139.138902,"zip":"9500802"},{"town":"藤見町一丁目","koaza":"","lat":37.93463,"lng":139.092077,"zip":"9500025"},{"town":"藤見町二丁目","koaza":"","lat":37.933062,"lng":139.096848,"zip":"9500025"},{"town":"船江町一丁目","koaza":"","lat":37.954361,"lng":139.094767,"zip":"9500031"},{"town":"船江町二丁目","koaza":"","lat":37.954766,"lng":139.101505,"zip":"9500031"},{"town":"船江町三丁目","koaza":"","lat":37.955661,"lng":139.106455,"zip":"9500031"},{"town":"古川町","koaza":"","lat":37.937596,"lng":139.073551,"zip":"9500056"},{"town":"古湊町","koaza":"","lat":37.937467,"lng":139.069513,"zip":"9500044"},{"town":"平和町","koaza":"","lat":37.948701,"lng":139.08675,"zip":"9500035"},{"town":"牡丹山一丁目","koaza":"","lat":37.917666,"lng":139.091665,"zip":"9500872"},{"town":"牡丹山二丁目","koaza":"","lat":37.920962,"lng":139.091456,"zip":"9500872"},{"town":"牡丹山三丁目","koaza":"","lat":37.923291,"lng":139.09535,"zip":"9500872"},{"town":"牡丹山四丁目","koaza":"","lat":37.921145,"lng":139.095519,"zip":"9500872"},{"town":"牡丹山五丁目","koaza":"","lat":37.919708,"lng":139.096656,"zip":"9500872"},{"town":"牡丹山六丁目","koaza":"","lat":37.917618,"lng":139.096827,"zip":"9500872"},{"town":"本所","koaza":"","lat":37.91508,"lng":139.141635,"zip":"9500804"},{"town":"本所一丁目","koaza":"","lat":37.918372,"lng":139.136344,"zip":"9500804"},{"town":"本所二丁目","koaza":"","lat":37.915059,"lng":139.139246,"zip":"9500804"},{"town":"本所三丁目","koaza":"","lat":37.914746,"lng":139.136594,"zip":"9500804"},{"town":"松崎","koaza":"","lat":37.930695,"lng":139.111817,"zip":"9500014"},{"town":"松崎一丁目","koaza":"","lat":37.935606,"lng":139.113966,"zip":"9500014"},{"town":"松崎二丁目","koaza":"","lat":37.936322,"lng":139.118427,"zip":"9500014"},{"town":"松島一丁目","koaza":"","lat":37.932017,"lng":139.072063,"zip":"9500064"},{"town":"松島二丁目","koaza":"","lat":37.931794,"lng":139.075567,"zip":"9500064"},{"town":"松島三丁目","koaza":"","lat":37.932558,"lng":139.080145,"zip":"9500064"},{"town":"松園一丁目","koaza":"","lat":37.938658,"lng":139.10154,"zip":"9500023"},{"town":"松園二丁目","koaza":"","lat":37.941232,"lng":139.101329,"zip":"9500023"},{"town":"松浜町","koaza":"","lat":37.954752,"lng":139.118999,"zip":"9500001"},{"town":"松和町","koaza":"","lat":37.94019,"lng":139.096003,"zip":"9500027"},{"town":"南紫竹一丁目","koaza":"","lat":37.900535,"lng":139.076626,"zip":"9500854"},{"town":"南紫竹二丁目","koaza":"","lat":37.898383,"lng":139.080067,"zip":"9500854"},{"town":"もえぎ野一丁目","koaza":"","lat":37.892634,"lng":139.098981,"zip":"9500842"},{"town":"もえぎ野二丁目","koaza":"","lat":37.893646,"lng":139.101892,"zip":"9500842"},{"town":"もえぎ野三丁目","koaza":"","lat":37.894428,"lng":139.104861,"zip":"9500842"},{"town":"木工新町","koaza":"","lat":37.936272,"lng":139.123156,"zip":"9500807"},{"town":"物見山一丁目","koaza":"","lat":37.942103,"lng":139.094433,"zip":"9500021"},{"town":"物見山二丁目","koaza":"","lat":37.94407,"lng":139.093915,"zip":"9500021"},{"town":"物見山三丁目","koaza":"","lat":37.945357,"lng":139.098367,"zip":"9500021"},{"town":"物見山四丁目","koaza":"","lat":37.942661,"lng":139.0988,"zip":"9500021"},{"town":"桃山町一丁目","koaza":"","lat":37.943397,"lng":139.076651,"zip":"9500051"},{"town":"桃山町二丁目","koaza":"","lat":37.944295,"lng":139.080643,"zip":"9500051"},{"town":"柳ヶ丘","koaza":"","lat":37.920531,"lng":139.133225,"zip":"9500000"},{"town":"山木戸","koaza":"","lat":37.925998,"lng":139.086109,"zip":"9500871"},{"town":"山木戸一丁目","koaza":"","lat":37.918191,"lng":139.077851,"zip":"9500871"},{"town":"山木戸二丁目","koaza":"","lat":37.918038,"lng":139.081261,"zip":"9500871"},{"town":"山木戸三丁目","koaza":"","lat":37.919797,"lng":139.081454,"zip":"9500871"},{"town":"山木戸四丁目","koaza":"","lat":37.921015,"lng":139.085739,"zip":"9500871"},{"town":"山木戸五丁目","koaza":"","lat":37.91974,"lng":139.087915,"zip":"9500871"},{"town":"山木戸六丁目","koaza":"","lat":37.922479,"lng":139.089827,"zip":"9500871"},{"town":"山木戸七丁目","koaza":"","lat":37.924072,"lng":139.087559,"zip":"9500871"},{"town":"山木戸八丁目","koaza":"","lat":37.923592,"lng":139.083224,"zip":"9500871"},{"town":"山の下町","koaza":"","lat":37.940008,"lng":139.074398,"zip":"9500057"},{"town":"有楽一丁目","koaza":"","lat":37.937838,"lng":139.1061,"zip":"9500012"},{"town":"有楽二丁目","koaza":"","lat":37.938892,"lng":139.109072,"zip":"9500012"},{"town":"有楽三丁目","koaza":"","lat":37.939402,"lng":139.1127,"zip":"9500012"},{"town":"豊一丁目","koaza":"","lat":37.925951,"lng":139.105325,"zip":"9500812"},{"town":"豊二丁目","koaza":"","lat":37.925687,"lng":139.111355,"zip":"9500812"},{"town":"豊三丁目","koaza":"","lat":37.926903,"lng":139.112277,"zip":"9500812"},{"town":"臨海町","koaza":"","lat":37.945253,"lng":139.070466,"zip":"9500047"},{"town":"臨港一丁目","koaza":"","lat":37.943,"lng":139.0732,"zip":"9500043"},{"town":"臨港町二丁目","koaza":"","lat":37.947409,"lng":139.074431,"zip":"9500041"},{"town":"臨港町三丁目","koaza":"","lat":37.949917,"lng":139.080133,"zip":"9500041"},{"town":"若葉町一丁目","koaza":"","lat":37.898056,"lng":139.112106,"zip":"9500837"},{"town":"若葉町二丁目","koaza":"","lat":37.899963,"lng":139.115182,"zip":"9500837"}]