[{"town":"朝日町一丁目","koaza":"","lat":37.918613,"lng":139.22574,"zip":"9503315"},{"town":"朝日町二丁目","koaza":"","lat":37.920692,"lng":139.226043,"zip":"9503315"},{"town":"朝日町三丁目","koaza":"","lat":37.919731,"lng":139.227713,"zip":"9503315"},{"town":"朝日町四丁目","koaza":"","lat":37.917624,"lng":139.226844,"zip":"9503315"},{"town":"彩野一丁目","koaza":"","lat":37.920445,"lng":139.186332,"zip":"9503377"},{"town":"彩野二丁目","koaza":"","lat":37.92013,"lng":139.188026,"zip":"9503377"},{"town":"彩野三丁目","koaza":"","lat":37.919818,"lng":139.189602,"zip":"9503377"},{"town":"彩野四丁目","koaza":"","lat":37.919464,"lng":139.191312,"zip":"9503377"},{"town":"石動一丁目","koaza":"","lat":37.922152,"lng":139.214208,"zip":"9503327"},{"town":"石動二丁目","koaza":"","lat":37.923154,"lng":139.21288,"zip":"9503327"},{"town":"内島見","koaza":"","lat":37.941312,"lng":139.208552,"zip":"9503306"},{"town":"内沼","koaza":"","lat":37.889561,"lng":139.231245,"zip":"9503333"},{"town":"浦木","koaza":"","lat":37.895333,"lng":139.213482,"zip":"9503344"},{"town":"浦ノ入","koaza":"","lat":37.953999,"lng":139.223546,"zip":"9503305"},{"town":"大久保","koaza":"","lat":37.891472,"lng":139.177258,"zip":"9503363"},{"town":"大瀬柳","koaza":"","lat":37.891482,"lng":139.188756,"zip":"9503351"},{"town":"太田","koaza":"","lat":37.931828,"lng":139.235482,"zip":"9503313"},{"town":"大月","koaza":"","lat":37.879667,"lng":139.230731,"zip":"9503334"},{"town":"大迎","koaza":"","lat":37.879725,"lng":139.17018,"zip":"9503364"},{"town":"岡新田","koaza":"","lat":37.869571,"lng":139.22055,"zip":"9503336"},{"town":"笠柳","koaza":"","lat":37.941091,"lng":139.228702,"zip":"9503312"},{"town":"かぶとやま一丁目","koaza":"","lat":37.927729,"lng":139.220899,"zip":"9503317"},{"town":"かぶとやま二丁目","koaza":"","lat":37.930092,"lng":139.22002,"zip":"9503317"},{"town":"上大月","koaza":"","lat":37.867683,"lng":139.226884,"zip":"9503335"},{"town":"上土地亀","koaza":"","lat":37.905047,"lng":139.211434,"zip":"9503343"},{"town":"上堀田","koaza":"","lat":37.871752,"lng":139.204642,"zip":"9503355"},{"town":"神谷内","koaza":"","lat":37.953196,"lng":139.159488,"zip":"9503116"},{"town":"嘉山","koaza":"","lat":37.90498,"lng":139.226798,"zip":"9503322"},{"town":"嘉山一丁目","koaza":"","lat":37.91262,"lng":139.218199,"zip":"9503322"},{"town":"嘉山二丁目","koaza":"","lat":37.911673,"lng":139.220501,"zip":"9503322"},{"town":"嘉山三丁目","koaza":"","lat":37.909384,"lng":139.222591,"zip":"9503322"},{"town":"嘉山四丁目","koaza":"","lat":37.906809,"lng":139.22237,"zip":"9503322"},{"town":"嘉山五丁目","koaza":"","lat":37.907091,"lng":139.220343,"zip":"9503322"},{"town":"嘉山六丁目","koaza":"","lat":37.910532,"lng":139.218682,"zip":"9503322"},{"town":"川西一丁目","koaza":"","lat":37.910908,"lng":139.213299,"zip":"9503341"},{"town":"川西二丁目","koaza":"","lat":37.910411,"lng":139.216216,"zip":"9503341"},{"town":"川西三丁目","koaza":"","lat":37.908516,"lng":139.215888,"zip":"9503341"},{"town":"川西四丁目","koaza":"","lat":37.909886,"lng":139.210413,"zip":"9503341"},{"town":"木崎","koaza":"","lat":37.945847,"lng":139.20094,"zip":"9503304"},{"town":"葛塚","koaza":"","lat":37.922471,"lng":139.206253,"zip":"9503321"},{"town":"小杉","koaza":"","lat":37.867285,"lng":139.177703,"zip":"9503360"},{"town":"笹山","koaza":"","lat":37.955174,"lng":139.206476,"zip":"9503301"},{"town":"笹山東","koaza":"","lat":37.957509,"lng":139.214946,"zip":"9500000"},{"town":"里飯野","koaza":"","lat":37.872281,"lng":139.215842,"zip":"9503337"},{"town":"三軒屋町","koaza":"","lat":37.948961,"lng":139.147464,"zip":"9503124"},{"town":"島見町","koaza":"","lat":37.96852,"lng":139.194893,"zip":"9503102"},{"town":"下大谷内","koaza":"","lat":37.944865,"lng":139.179042,"zip":"9503308"},{"town":"下土地亀","koaza":"","lat":37.911728,"lng":139.198588,"zip":"9503346"},{"town":"下早通","koaza":"","lat":37.928869,"lng":139.181947,"zip":"9503371"},{"town":"十二","koaza":"","lat":37.877988,"lng":139.196028,"zip":"9503354"},{"town":"十二前","koaza":"","lat":37.867438,"lng":139.179622,"zip":"9503359"},{"town":"白勢町","koaza":"","lat":37.958989,"lng":139.202177,"zip":"9503103"},{"town":"新富町","koaza":"","lat":37.96448,"lng":139.184845,"zip":"9503105"},{"town":"新鼻","koaza":"","lat":37.900603,"lng":139.246777,"zip":"9503331"},{"town":"新元島町","koaza":"","lat":37.945075,"lng":139.144386,"zip":"9503123"},{"town":"須戸","koaza":"","lat":37.918032,"lng":139.196507,"zip":"9503373"},{"town":"須戸一丁目","koaza":"","lat":37.918902,"lng":139.183875,"zip":"9503373"},{"town":"須戸二丁目","koaza":"","lat":37.918426,"lng":139.185637,"zip":"9503373"},{"town":"須戸三丁目","koaza":"","lat":37.918277,"lng":139.187349,"zip":"9503373"},{"town":"須戸四丁目","koaza":"","lat":37.917863,"lng":139.188984,"zip":"9503373"},{"town":"須戸五丁目","koaza":"","lat":37.917394,"lng":139.190734,"zip":"9503373"},{"town":"すみれ野一丁目","koaza":"","lat":37.920511,"lng":139.158829,"zip":"9503133"},{"town":"すみれ野二丁目","koaza":"","lat":37.920715,"lng":139.161218,"zip":"9503133"},{"town":"すみれ野三丁目","koaza":"","lat":37.917213,"lng":139.161392,"zip":"9503133"},{"town":"すみれ野四丁目","koaza":"","lat":37.919681,"lng":139.162424,"zip":"9503133"},{"town":"太子堂","koaza":"","lat":37.887677,"lng":139.164145,"zip":"9503365"},{"town":"高森","koaza":"","lat":37.905501,"lng":139.154475,"zip":"9503367"},{"town":"高森新田","koaza":"","lat":37.904872,"lng":139.182046,"zip":"9503362"},{"town":"太夫浜","koaza":"","lat":37.959854,"lng":139.169578,"zip":"9503112"},{"town":"太夫浜新町一丁目","koaza":"","lat":37.960085,"lng":139.156987,"zip":"9503111"},{"town":"太夫浜新町二丁目","koaza":"","lat":37.962204,"lng":139.159361,"zip":"9503111"},{"town":"太郎代","koaza":"","lat":37.980551,"lng":139.216246,"zip":"9503101"},{"town":"つくし野一丁目","koaza":"","lat":37.927742,"lng":139.152942,"zip":"9503135"},{"town":"つくし野二丁目","koaza":"","lat":37.928782,"lng":139.157453,"zip":"9503135"},{"town":"東栄町一丁目","koaza":"","lat":37.913076,"lng":139.22262,"zip":"9503323"},{"town":"東栄町二丁目","koaza":"","lat":37.914304,"lng":139.22484,"zip":"9503323"},{"town":"東栄町三丁目","koaza":"","lat":37.91413,"lng":139.22737,"zip":"9503323"},{"town":"樋ノ入","koaza":"","lat":37.93753,"lng":139.17361,"zip":"9503307"},{"town":"鳥屋","koaza":"","lat":37.928699,"lng":139.203249,"zip":"9503316"},{"town":"長戸","koaza":"","lat":37.899456,"lng":139.200396,"zip":"9503345"},{"town":"長戸呂","koaza":"","lat":37.885732,"lng":139.185296,"zip":"9503353"},{"town":"長戸呂新田","koaza":"","lat":37.902862,"lng":139.189856,"zip":"9503352"},{"town":"長場","koaza":"","lat":37.882256,"lng":139.207376,"zip":"9503338"},{"town":"名目所","koaza":"","lat":37.95085,"lng":139.158055,"zip":"9503114"},{"town":"名目所一丁目","koaza":"","lat":37.942476,"lng":139.159436,"zip":"9503114"},{"town":"名目所二丁目","koaza":"","lat":37.946884,"lng":139.159756,"zip":"9503114"},{"town":"名目所三丁目","koaza":"","lat":37.948517,"lng":139.155349,"zip":"9503114"},{"town":"新井郷","koaza":"","lat":37.912241,"lng":139.184558,"zip":"9503361"},{"town":"新崎","koaza":"","lat":37.917977,"lng":139.153241,"zip":"9503134"},{"town":"新崎一丁目","koaza":"","lat":37.922435,"lng":139.152211,"zip":"9503134"},{"town":"新崎二丁目","koaza":"","lat":37.924988,"lng":139.150932,"zip":"9503134"},{"town":"新崎三丁目","koaza":"","lat":37.925182,"lng":139.159914,"zip":"9503134"},{"town":"濁川","koaza":"","lat":37.935423,"lng":139.150139,"zip":"9503131"},{"town":"濁川一丁目","koaza":"","lat":37.929589,"lng":139.150095,"zip":"9503131"},{"town":"西名目所","koaza":"","lat":37.942114,"lng":139.148858,"zip":"9503122"},{"town":"灰塚","koaza":"","lat":37.872986,"lng":139.180674,"zip":"9503358"},{"town":"白新町一丁目","koaza":"","lat":37.918905,"lng":139.217189,"zip":"9503325"},{"town":"白新町二丁目","koaza":"","lat":37.917231,"lng":139.215795,"zip":"9503325"},{"town":"白新町三丁目","koaza":"","lat":37.915497,"lng":139.214236,"zip":"9503325"},{"town":"白新町四丁目","koaza":"","lat":37.914589,"lng":139.211676,"zip":"9503325"},{"town":"浜浦","koaza":"","lat":37.961922,"lng":139.21142,"zip":"9503302"},{"town":"早通","koaza":"","lat":37.926049,"lng":139.190854,"zip":"9503372"},{"town":"早通北一丁目","koaza":"","lat":37.921822,"lng":139.179657,"zip":"9503376"},{"town":"早通北二丁目","koaza":"","lat":37.923334,"lng":139.180536,"zip":"9503376"},{"town":"早通北三丁目","koaza":"","lat":37.921006,"lng":139.183608,"zip":"9503376"},{"town":"早通北四丁目","koaza":"","lat":37.922467,"lng":139.18408,"zip":"9503376"},{"town":"早通北五丁目","koaza":"","lat":37.924163,"lng":139.184543,"zip":"9503376"},{"town":"早通北六丁目","koaza":"","lat":37.923556,"lng":139.186733,"zip":"9503376"},{"town":"早通南一丁目","koaza":"","lat":37.920472,"lng":139.179163,"zip":"9503375"},{"town":"早通南二丁目","koaza":"","lat":37.91929,"lng":139.178873,"zip":"9503375"},{"town":"早通南三丁目","koaza":"","lat":37.918289,"lng":139.178709,"zip":"9503375"},{"town":"早通南四丁目","koaza":"","lat":37.917577,"lng":139.177869,"zip":"9503375"},{"town":"早通南五丁目","koaza":"","lat":37.918589,"lng":139.181945,"zip":"9503375"},{"town":"東栄町","koaza":"","lat":37.952531,"lng":139.183275,"zip":"9503323"},{"town":"平林","koaza":"","lat":37.866693,"lng":139.195178,"zip":"9503357"},{"town":"仏伝","koaza":"","lat":37.917649,"lng":139.174953,"zip":"9503374"},{"town":"北陽一丁目","koaza":"","lat":37.941078,"lng":139.185937,"zip":"9503309"},{"town":"北陽二丁目","koaza":"","lat":37.942597,"lng":139.185694,"zip":"9503309"},{"town":"細山","koaza":"","lat":37.895059,"lng":139.158119,"zip":"9500102"},{"town":"前新田","koaza":"","lat":37.91384,"lng":139.235095,"zip":"9503324"},{"town":"松潟","koaza":"","lat":37.924312,"lng":139.171172,"zip":"9503132"},{"town":"松栄町","koaza":"","lat":37.948087,"lng":139.175147,"zip":"9503113"},{"town":"松浜一丁目","koaza":"","lat":37.952167,"lng":139.145654,"zip":"9503126"},{"town":"松浜二丁目","koaza":"","lat":37.952352,"lng":139.142137,"zip":"9503126"},{"town":"松浜三丁目","koaza":"","lat":37.953999,"lng":139.141311,"zip":"9503126"},{"town":"松浜四丁目","koaza":"","lat":37.95503,"lng":139.145184,"zip":"9503126"},{"town":"松浜五丁目","koaza":"","lat":37.957491,"lng":139.144528,"zip":"9503126"},{"town":"松浜六丁目","koaza":"","lat":37.956994,"lng":139.140682,"zip":"9503126"},{"town":"松浜七丁目","koaza":"","lat":37.955772,"lng":139.137736,"zip":"9503126"},{"town":"松浜八丁目","koaza":"","lat":37.961886,"lng":139.143371,"zip":"9503126"},{"town":"松浜新町","koaza":"","lat":37.949632,"lng":139.150978,"zip":"9503115"},{"town":"松浜町","koaza":"","lat":37.959879,"lng":139.133107,"zip":"9503121"},{"town":"松浜東町一丁目","koaza":"","lat":37.951897,"lng":139.150979,"zip":"9503128"},{"town":"松浜東町二丁目","koaza":"","lat":37.953911,"lng":139.152424,"zip":"9503128"},{"town":"松浜本町一丁目","koaza":"","lat":37.950407,"lng":139.147224,"zip":"9503125"},{"town":"松浜本町二丁目","koaza":"","lat":37.948828,"lng":139.14341,"zip":"9503125"},{"town":"松浜本町三丁目","koaza":"","lat":37.950413,"lng":139.143053,"zip":"9503125"},{"town":"松浜本町四丁目","koaza":"","lat":37.950391,"lng":139.139332,"zip":"9503125"},{"town":"松浜みなと","koaza":"","lat":37.960878,"lng":139.139484,"zip":"9503127"},{"town":"美里一丁目","koaza":"","lat":37.906994,"lng":139.215938,"zip":"9503342"},{"town":"美里二丁目","koaza":"","lat":37.906356,"lng":139.218947,"zip":"9503342"},{"town":"三ツ森川原","koaza":"","lat":37.90671,"lng":139.157102,"zip":"9503369"},{"town":"三ツ屋","koaza":"","lat":37.891048,"lng":139.162174,"zip":"9503366"},{"town":"村新田","koaza":"","lat":37.937082,"lng":139.252158,"zip":"9503314"},{"town":"森下","koaza":"","lat":37.908635,"lng":139.162009,"zip":"9503368"},{"town":"柳原一丁目","koaza":"","lat":37.918818,"lng":139.212721,"zip":"9503326"},{"town":"柳原二丁目","koaza":"","lat":37.91998,"lng":139.210472,"zip":"9503326"},{"town":"柳原三丁目","koaza":"","lat":37.917042,"lng":139.210387,"zip":"9503326"},{"town":"柳原四丁目","koaza":"","lat":37.918069,"lng":139.20812,"zip":"9503326"},{"town":"柳原五丁目","koaza":"","lat":37.919034,"lng":139.20822,"zip":"9503326"},{"town":"柳原六丁目","koaza":"","lat":37.917216,"lng":139.205319,"zip":"9503326"},{"town":"柳原七丁目","koaza":"","lat":37.917835,"lng":139.204702,"zip":"9503326"},{"town":"山飯野","koaza":"","lat":37.873315,"lng":139.194659,"zip":"9503356"},{"town":"横井","koaza":"","lat":37.936424,"lng":139.221428,"zip":"9503311"},{"town":"横越","koaza":"","lat":37.866384,"lng":139.185881,"zip":"9503350"},{"town":"横土居","koaza":"","lat":37.964902,"lng":139.224256,"zip":"9503303"},{"town":"木崎","koaza":"尾山","lat":37.940127,"lng":139.186885,"zip":"9503304"},{"town":"上土地亀","koaza":"大曲","lat":37.910939,"lng":139.208091,"zip":"9503343"}]