[{"town":"赤渋","koaza":"","lat":37.794141,"lng":139.055763,"zip":"9501411"},{"town":"朝捲","koaza":"","lat":37.785444,"lng":139.04374,"zip":"9501413"},{"town":"味方","koaza":"","lat":37.786665,"lng":138.998625,"zip":"9501261"},{"town":"鯵潟","koaza":"","lat":37.776582,"lng":139.02146,"zip":"9501200"},{"town":"鯵潟一丁目","koaza":"","lat":37.776821,"lng":139.013161,"zip":"9501200"},{"town":"天野","koaza":"","lat":37.839572,"lng":139.03197,"zip":"9501134"},{"town":"飯島","koaza":"","lat":37.72357,"lng":139.027769,"zip":"9501447"},{"town":"居宿","koaza":"","lat":37.812293,"lng":138.995842,"zip":"9501251"},{"town":"和泉","koaza":"","lat":37.760124,"lng":139.032868,"zip":"9501471"},{"town":"犬帰新田","koaza":"","lat":37.817238,"lng":139.057243,"zip":"9501403"},{"town":"茨曽根","koaza":"","lat":37.71667,"lng":139.00798,"zip":"9501456"},{"town":"鋳物師興野","koaza":"","lat":37.731035,"lng":139.056031,"zip":"9501442"},{"town":"兎新田","koaza":"","lat":37.697415,"lng":139.029288,"zip":"9501453"},{"town":"牛崎","koaza":"","lat":37.729147,"lng":139.039453,"zip":"9501444"},{"town":"臼井","koaza":"","lat":37.774121,"lng":139.055004,"zip":"9501412"},{"town":"臼井ノ内小平次新田","koaza":"","lat":37.773511,"lng":139.058873,"zip":"9501200"},{"town":"獺ケ通","koaza":"","lat":37.832998,"lng":139.05006,"zip":"9501200"},{"town":"浦梨","koaza":"","lat":37.753324,"lng":139.025486,"zip":"9501472"},{"town":"大倉","koaza":"","lat":37.806187,"lng":139.004044,"zip":"9501252"},{"town":"大倉新田","koaza":"","lat":37.806644,"lng":139.002207,"zip":"9501253"},{"town":"大通一丁目","koaza":"","lat":37.840356,"lng":139.019297,"zip":"9501201"},{"town":"大通二丁目","koaza":"","lat":37.839872,"lng":139.020973,"zip":"9501201"},{"town":"大通黄金一丁目","koaza":"","lat":37.826218,"lng":139.021101,"zip":"9501203"},{"town":"大通黄金二丁目","koaza":"","lat":37.824669,"lng":139.02273,"zip":"9501203"},{"town":"大通黄金三丁目","koaza":"","lat":37.825899,"lng":139.020404,"zip":"9501203"},{"town":"大通黄金四丁目","koaza":"","lat":37.824219,"lng":139.0207,"zip":"9501203"},{"town":"大通黄金五丁目","koaza":"","lat":37.822711,"lng":139.021196,"zip":"9501203"},{"town":"大通黄金六丁目","koaza":"","lat":37.821143,"lng":139.023244,"zip":"9501203"},{"town":"大通黄金七丁目","koaza":"","lat":37.820851,"lng":139.020766,"zip":"9501203"},{"town":"大通南一丁目","koaza":"","lat":37.828519,"lng":139.020507,"zip":"9501202"},{"town":"大通南二丁目","koaza":"","lat":37.82853,"lng":139.023285,"zip":"9501202"},{"town":"大通南三丁目","koaza":"","lat":37.831067,"lng":139.02078,"zip":"9501202"},{"town":"大通南四丁目","koaza":"","lat":37.83118,"lng":139.023137,"zip":"9501202"},{"town":"大別當","koaza":"","lat":37.717764,"lng":138.990537,"zip":"9501305"},{"town":"沖新保","koaza":"","lat":37.723975,"lng":139.019604,"zip":"9501466"},{"town":"上浦","koaza":"","lat":37.75831,"lng":139.059222,"zip":"9501428"},{"town":"上木山","koaza":"","lat":37.745531,"lng":139.030335,"zip":"9501474"},{"town":"上塩俵","koaza":"","lat":37.817405,"lng":139.017124,"zip":"9501244"},{"town":"上新田","koaza":"","lat":37.68157,"lng":138.988167,"zip":"9501454"},{"town":"上道潟","koaza":"","lat":37.729333,"lng":139.01819,"zip":"9501465"},{"town":"上八枚","koaza":"","lat":37.747475,"lng":139.061108,"zip":"9501431"},{"town":"上曲通","koaza":"","lat":37.744586,"lng":138.998513,"zip":"9501302"},{"town":"神屋","koaza":"","lat":37.784312,"lng":139.0239,"zip":"9501221"},{"town":"北田中","koaza":"","lat":37.815041,"lng":139.023657,"zip":"9501237"},{"town":"木滑","koaza":"","lat":37.748966,"lng":138.987642,"zip":"9501311"},{"town":"櫛笥","koaza":"","lat":37.742263,"lng":139.048835,"zip":"9501434"},{"town":"蜘手興野","koaza":"","lat":37.735876,"lng":139.051157,"zip":"9501441"},{"town":"小坂","koaza":"","lat":37.786045,"lng":139.02361,"zip":"9501231"},{"town":"小蔵子","koaza":"","lat":37.778035,"lng":139.044418,"zip":"9501414"},{"town":"山王","koaza":"","lat":37.801954,"lng":139.007374,"zip":"9501255"},{"town":"山王新田","koaza":"","lat":37.800737,"lng":139.007529,"zip":"9501256"},{"town":"七軒","koaza":"","lat":37.77184,"lng":139.022425,"zip":"9501212"},{"town":"七軒町","koaza":"","lat":37.771577,"lng":139.012618,"zip":"9501225"},{"town":"清水","koaza":"","lat":37.709215,"lng":138.995509,"zip":"9501457"},{"town":"下木山","koaza":"","lat":37.751536,"lng":139.032653,"zip":"9501473"},{"town":"下道潟","koaza":"","lat":37.733197,"lng":139.021782,"zip":"9501464"},{"town":"下八枚","koaza":"","lat":37.763103,"lng":139.059874,"zip":"9501424"},{"town":"下八枚ノ内小見新田","koaza":"","lat":37.773156,"lng":139.06176,"zip":"9501200"},{"town":"下曲通","koaza":"","lat":37.750298,"lng":139.002737,"zip":"9501301"},{"town":"下山崎","koaza":"","lat":37.808015,"lng":139.009941,"zip":"9501246"},{"town":"十五間","koaza":"","lat":37.780942,"lng":139.02427,"zip":"9501232"},{"town":"十二道島","koaza":"","lat":37.73895,"lng":139.055949,"zip":"9501432"},{"town":"上下諏訪木","koaza":"","lat":37.760805,"lng":139.022737,"zip":"9501214"},{"town":"庄瀬","koaza":"","lat":37.717723,"lng":139.033969,"zip":"9501446"},{"town":"次郎右エ門興野","koaza":"","lat":37.743235,"lng":139.059274,"zip":"9501433"},{"town":"白根","koaza":"","lat":37.765284,"lng":139.039993,"zip":"9501217"},{"town":"白根東町一丁目","koaza":"","lat":37.768867,"lng":139.023632,"zip":"9501222"},{"town":"白根魚町","koaza":"","lat":37.765626,"lng":139.014019,"zip":"9501218"},{"town":"白根水道町","koaza":"","lat":37.754343,"lng":139.011904,"zip":"9501224"},{"town":"白根ノ内七軒","koaza":"","lat":37.764259,"lng":139.023543,"zip":"9501216"},{"town":"白根日の出町","koaza":"","lat":37.755862,"lng":139.015199,"zip":"9501223"},{"town":"白根古川","koaza":"","lat":37.773996,"lng":139.034512,"zip":"9501211"},{"town":"白根四ツ興野","koaza":"","lat":37.773445,"lng":139.014425,"zip":"9501226"},{"town":"新生町一丁目","koaza":"","lat":37.750519,"lng":139.055929,"zip":"9501426"},{"town":"新生町二丁目","koaza":"","lat":37.750324,"lng":139.057277,"zip":"9501426"},{"town":"新生町三丁目","koaza":"","lat":37.75158,"lng":139.056567,"zip":"9501426"},{"town":"新山崎町一丁目","koaza":"","lat":37.808101,"lng":139.005992,"zip":"9501245"},{"town":"新山崎町二丁目","koaza":"","lat":37.808163,"lng":139.007436,"zip":"9501245"},{"town":"新山崎町三丁目","koaza":"","lat":37.809062,"lng":139.005794,"zip":"9501245"},{"town":"親和町","koaza":"","lat":37.766239,"lng":139.021101,"zip":"9501209"},{"town":"杉菜","koaza":"","lat":37.766139,"lng":139.022898,"zip":"9501208"},{"town":"助次右エ門組","koaza":"","lat":37.748478,"lng":139.02366,"zip":"9501215"},{"town":"蔵主","koaza":"","lat":37.741058,"lng":139.032215,"zip":"9501462"},{"town":"大郷","koaza":"","lat":37.805921,"lng":139.059321,"zip":"9501404"},{"town":"田尾","koaza":"","lat":37.746998,"lng":139.040769,"zip":"9501436"},{"town":"高井興野","koaza":"","lat":37.80007,"lng":139.021729,"zip":"9501235"},{"town":"高井東一丁目","koaza":"","lat":37.796484,"lng":139.016507,"zip":"9501236"},{"town":"高井東二丁目","koaza":"","lat":37.798517,"lng":139.017216,"zip":"9501236"},{"town":"高井東三丁目","koaza":"","lat":37.799286,"lng":139.01974,"zip":"9501236"},{"town":"田中","koaza":"","lat":37.75413,"lng":139.019448,"zip":"9501477"},{"town":"月潟","koaza":"","lat":37.728614,"lng":138.992812,"zip":"9501304"},{"town":"釣寄","koaza":"","lat":37.746004,"lng":138.975638,"zip":"9501313"},{"town":"釣寄新","koaza":"","lat":37.745512,"lng":138.980254,"zip":"9501312"},{"town":"天王新田","koaza":"","lat":37.741429,"lng":139.039147,"zip":"9501200"},{"town":"戸石","koaza":"","lat":37.752399,"lng":139.061396,"zip":"9501425"},{"town":"戸頭","koaza":"","lat":37.743213,"lng":139.014138,"zip":"9501475"},{"town":"中小見","koaza":"","lat":37.773602,"lng":139.06765,"zip":"9501423"},{"town":"中塩俵","koaza":"","lat":37.829458,"lng":139.011651,"zip":"9501242"},{"town":"中山","koaza":"","lat":37.775111,"lng":139.050874,"zip":"9501421"},{"town":"七穂","koaza":"","lat":37.800311,"lng":138.994658,"zip":"9501254"},{"town":"鍋潟","koaza":"","lat":37.758035,"lng":139.040837,"zip":"9501437"},{"town":"新飯田","koaza":"","lat":37.692959,"lng":138.984673,"zip":"9501455"},{"town":"西笠巻","koaza":"","lat":37.797832,"lng":139.044329,"zip":"9501416"},{"town":"西笠巻新田","koaza":"","lat":37.805595,"lng":139.044473,"zip":"9501417"},{"town":"西萱場","koaza":"","lat":37.735573,"lng":138.997709,"zip":"9501303"},{"town":"西酒屋","koaza":"","lat":37.828528,"lng":139.055015,"zip":"9501402"},{"town":"西白根","koaza":"","lat":37.763532,"lng":139.00265,"zip":"9501262"},{"town":"根岸","koaza":"","lat":37.795671,"lng":139.02518,"zip":"9501234"},{"town":"能登","koaza":"","lat":37.768113,"lng":139.029386,"zip":"9501213"},{"town":"能登一丁目","koaza":"","lat":37.768679,"lng":139.013224,"zip":"9501213"},{"town":"能登二丁目","koaza":"","lat":37.768605,"lng":139.016001,"zip":"9501213"},{"town":"東笠巻","koaza":"","lat":37.816702,"lng":139.051176,"zip":"9501405"},{"town":"東笠巻新田","koaza":"","lat":37.816302,"lng":139.041525,"zip":"9501406"},{"town":"東萱場","koaza":"","lat":37.733625,"lng":139.009078,"zip":"9501467"},{"town":"東長嶋","koaza":"","lat":37.735237,"lng":138.984596,"zip":"9501314"},{"town":"菱潟","koaza":"","lat":37.725442,"lng":139.052201,"zip":"9501443"},{"town":"菱潟新田","koaza":"","lat":37.726132,"lng":139.044189,"zip":"9501445"},{"town":"引越","koaza":"","lat":37.78896,"lng":139.0354,"zip":"9501415"},{"town":"平潟","koaza":"","lat":37.736699,"lng":139.034682,"zip":"9501461"},{"town":"平潟新田","koaza":"","lat":37.736527,"lng":139.024555,"zip":"9501463"},{"town":"福島","koaza":"","lat":37.74299,"lng":138.973884,"zip":"9501344"},{"town":"古川新田","koaza":"","lat":37.702902,"lng":139.029161,"zip":"9501452"},{"town":"平成町","koaza":"","lat":37.753061,"lng":139.014461,"zip":"9501476"},{"town":"保坂","koaza":"","lat":37.788739,"lng":139.023189,"zip":"9501233"},{"town":"堀掛","koaza":"","lat":37.779727,"lng":139.059725,"zip":"9501422"},{"town":"真木","koaza":"","lat":37.709022,"lng":139.024449,"zip":"9501451"},{"town":"松橋","koaza":"","lat":37.822871,"lng":139.006605,"zip":"9501243"},{"town":"万年","koaza":"","lat":37.736952,"lng":139.044618,"zip":"9501435"},{"town":"山崎興野","koaza":"","lat":37.809602,"lng":139.020672,"zip":"9501247"},{"town":"吉江","koaza":"","lat":37.794696,"lng":139.008814,"zip":"9501258"},{"town":"吉田新田","koaza":"","lat":37.798072,"lng":139.008273,"zip":"9501257"},{"town":"大通西","koaza":"","lat":37.835543,"lng":139.017606,"zip":"9501204"},{"town":"大通南五丁目","koaza":"","lat":37.831771,"lng":139.019296,"zip":"9501202"},{"town":"鷲ノ木新田","koaza":"","lat":37.834293,"lng":139.029255,"zip":"9501407"},{"town":"下塩俵","koaza":"","lat":37.834803,"lng":139.014643,"zip":"9501241"},{"town":"大通南六丁目","koaza":"","lat":37.834892,"lng":139.019748,"zip":"9501202"},{"town":"十五間","koaza":"堀東","lat":37.779321,"lng":139.018568,"zip":"9501232"},{"town":"保坂","koaza":"岡下","lat":37.788887,"lng":139.019351,"zip":"9501233"},{"town":"鷲ノ木新田","koaza":"諏訪木島","lat":37.836732,"lng":139.019967,"zip":"9501407"},{"town":"上下諏訪木","koaza":"論地","lat":37.759809,"lng":139.022615,"zip":"9501214"},{"town":"北田中","koaza":"堀留","lat":37.817461,"lng":139.025212,"zip":"9501237"}]