[{"town":"相生町","koaza":"","lat":37.925918,"lng":139.052581,"zip":"9518037"},{"town":"赤坂町一丁目","koaza":"","lat":37.930098,"lng":139.051274,"zip":"9518025"},{"town":"赤坂町二丁目","koaza":"","lat":37.930388,"lng":139.052714,"zip":"9518025"},{"town":"赤坂町三丁目","koaza":"","lat":37.931033,"lng":139.054196,"zip":"9518025"},{"town":"明石一丁目","koaza":"","lat":37.916011,"lng":139.065508,"zip":"9500084"},{"town":"明石二丁目","koaza":"","lat":37.917127,"lng":139.068623,"zip":"9500084"},{"town":"曙町","koaza":"","lat":37.930714,"lng":139.049376,"zip":"9518021"},{"town":"旭町通一番町","koaza":"","lat":37.919669,"lng":139.034929,"zip":"9500000"},{"town":"旭町通二番町","koaza":"","lat":37.922068,"lng":139.034938,"zip":"9500000"},{"town":"愛宕一丁目","koaza":"","lat":37.887269,"lng":139.028122,"zip":"9500944"},{"town":"愛宕二丁目","koaza":"","lat":37.887434,"lng":139.025776,"zip":"9500944"},{"town":"愛宕三丁目","koaza":"","lat":37.889189,"lng":139.02729,"zip":"9500944"},{"town":"鐙一丁目","koaza":"","lat":37.905201,"lng":139.067183,"zip":"9500913"},{"town":"鐙二丁目","koaza":"","lat":37.903842,"lng":139.068433,"zip":"9500913"},{"town":"鐙三丁目","koaza":"","lat":37.905766,"lng":139.071963,"zip":"9500913"},{"town":"鐙西一丁目","koaza":"","lat":37.903308,"lng":139.063497,"zip":"9500915"},{"town":"鐙西二丁目","koaza":"","lat":37.901743,"lng":139.060818,"zip":"9500915"},{"town":"網川原","koaza":"","lat":37.897332,"lng":139.020421,"zip":"9500964"},{"town":"網川原一丁目","koaza":"","lat":37.895852,"lng":139.021655,"zip":"9500964"},{"town":"網川原二丁目","koaza":"","lat":37.892522,"lng":139.021697,"zip":"9500964"},{"town":"有明大橋町","koaza":"","lat":37.903361,"lng":139.010435,"zip":"9518146"},{"town":"有明台","koaza":"","lat":37.901194,"lng":139.010381,"zip":"9518145"},{"town":"医学町通一番町","koaza":"","lat":37.917415,"lng":139.038444,"zip":"9500000"},{"town":"医学町通二番町","koaza":"","lat":37.917349,"lng":139.037024,"zip":"9500000"},{"town":"礎町通一ノ町","koaza":"","lat":37.920235,"lng":139.049572,"zip":"9500000"},{"town":"礎町通二ノ町","koaza":"","lat":37.921263,"lng":139.050341,"zip":"9500000"},{"town":"礎町通三ノ町","koaza":"","lat":37.922287,"lng":139.051181,"zip":"9500000"},{"town":"礎町通四ノ町","koaza":"","lat":37.923338,"lng":139.052092,"zip":"9500000"},{"town":"礎町通五ノ町","koaza":"","lat":37.924298,"lng":139.052851,"zip":"9500000"},{"town":"礎町通六ノ町","koaza":"","lat":37.925075,"lng":139.053425,"zip":"9500000"},{"town":"礎町通上一ノ町","koaza":"","lat":37.919276,"lng":139.049157,"zip":"9518054"},{"town":"一番堀通町","koaza":"","lat":37.913048,"lng":139.038882,"zip":"9518132"},{"town":"稲荷町","koaza":"","lat":37.932681,"lng":139.055067,"zip":"9518018"},{"town":"入船町一丁目","koaza":"","lat":37.932383,"lng":139.057046,"zip":"9518011"},{"town":"入船町二丁目","koaza":"","lat":37.933285,"lng":139.056972,"zip":"9518011"},{"town":"入船町三丁目","koaza":"","lat":37.934412,"lng":139.056796,"zip":"9518011"},{"town":"入船町四丁目","koaza":"","lat":37.940148,"lng":139.060974,"zip":"9518011"},{"town":"入船町五丁目","koaza":"","lat":37.93667,"lng":139.056848,"zip":"9518011"},{"town":"入船町六丁目","koaza":"","lat":37.937753,"lng":139.056984,"zip":"9518011"},{"town":"祝町","koaza":"","lat":37.933686,"lng":139.051688,"zip":"9518074"},{"town":"浮洲町","koaza":"","lat":37.934727,"lng":139.052442,"zip":"9518072"},{"town":"鵜ノ子","koaza":"","lat":37.883158,"lng":139.083029,"zip":"9500157"},{"town":"姥ケ山","koaza":"","lat":37.886313,"lng":139.08378,"zip":"9500923"},{"town":"姥ケ山一丁目","koaza":"","lat":37.88798,"lng":139.07464,"zip":"9500923"},{"town":"姥ケ山二丁目","koaza":"","lat":37.885684,"lng":139.076398,"zip":"9500923"},{"town":"姥ケ山三丁目","koaza":"","lat":37.886558,"lng":139.07926,"zip":"9500923"},{"town":"姥ケ山四丁目","koaza":"","lat":37.889502,"lng":139.079583,"zip":"9500923"},{"town":"姥ケ山五丁目","koaza":"","lat":37.891,"lng":139.077407,"zip":"9500923"},{"town":"姥ケ山六丁目","koaza":"","lat":37.892456,"lng":139.080693,"zip":"9500923"},{"town":"海辺町一番町","koaza":"","lat":37.94312,"lng":139.060616,"zip":"9500000"},{"town":"海辺町二番町","koaza":"","lat":37.943051,"lng":139.058928,"zip":"9500000"},{"town":"上沼","koaza":"","lat":37.881916,"lng":139.037858,"zip":"9501148"},{"town":"営所通一番町","koaza":"","lat":37.921085,"lng":139.040442,"zip":"9500000"},{"town":"営所通二番町","koaza":"","lat":37.922834,"lng":139.038105,"zip":"9500000"},{"town":"烏帽子町","koaza":"","lat":37.933161,"lng":139.047297,"zip":"9518077"},{"town":"近江一丁目","koaza":"","lat":37.903903,"lng":139.043969,"zip":"9500971"},{"town":"近江二丁目","koaza":"","lat":37.901784,"lng":139.047492,"zip":"9500971"},{"town":"近江三丁目","koaza":"","lat":37.901244,"lng":139.044752,"zip":"9500971"},{"town":"翁町一丁目","koaza":"","lat":37.933559,"lng":139.047782,"zip":"9518076"},{"town":"翁町二丁目","koaza":"","lat":37.934125,"lng":139.048498,"zip":"9518076"},{"town":"親松","koaza":"","lat":37.878637,"lng":139.027981,"zip":"9500952"},{"town":"鏡が岡","koaza":"","lat":37.91599,"lng":139.073402,"zip":"9500074"},{"town":"春日町","koaza":"","lat":37.912643,"lng":139.054474,"zip":"9500903"},{"town":"学校裏町","koaza":"","lat":37.916926,"lng":139.037978,"zip":"9518125"},{"town":"学校町通一番町","koaza":"","lat":37.916493,"lng":139.037728,"zip":"9500000"},{"town":"学校町通二番町","koaza":"","lat":37.917815,"lng":139.033825,"zip":"9500000"},{"town":"学校町通三番町","koaza":"","lat":37.917759,"lng":139.028206,"zip":"9500000"},{"town":"上近江一丁目","koaza":"","lat":37.900858,"lng":139.033168,"zip":"9500973"},{"town":"上近江二丁目","koaza":"","lat":37.899112,"lng":139.037247,"zip":"9500973"},{"town":"上近江三丁目","koaza":"","lat":37.898251,"lng":139.034216,"zip":"9500973"},{"town":"上近江四丁目","koaza":"","lat":37.897771,"lng":139.030309,"zip":"9500973"},{"town":"上大川前通十番町","koaza":"","lat":37.926489,"lng":139.049137,"zip":"9500000"},{"town":"上大川前通十一番町","koaza":"","lat":37.927874,"lng":139.049152,"zip":"9500000"},{"town":"上大川前通十二番町","koaza":"","lat":37.929364,"lng":139.049268,"zip":"9500000"},{"town":"上大川前通一番町","koaza":"","lat":37.914832,"lng":139.042725,"zip":"9500000"},{"town":"上大川前通二番町","koaza":"","lat":37.91543,"lng":139.043822,"zip":"9500000"},{"town":"上大川前通三番町","koaza":"","lat":37.916169,"lng":139.044958,"zip":"9500000"},{"town":"上大川前通四番町","koaza":"","lat":37.91703,"lng":139.046171,"zip":"9500000"},{"town":"上大川前通五番町","koaza":"","lat":37.918329,"lng":139.047619,"zip":"9500000"},{"town":"上大川前通六番町","koaza":"","lat":37.92035,"lng":139.04778,"zip":"9500000"},{"town":"上大川前通七番町","koaza":"","lat":37.922191,"lng":139.04839,"zip":"9500000"},{"town":"上大川前通八番町","koaza":"","lat":37.923693,"lng":139.048606,"zip":"9500000"},{"town":"上大川前通九番町","koaza":"","lat":37.925085,"lng":139.048951,"zip":"9500000"},{"town":"上所一丁目","koaza":"","lat":37.909486,"lng":139.041234,"zip":"9500994"},{"town":"上所二丁目","koaza":"","lat":37.907117,"lng":139.034488,"zip":"9500994"},{"town":"上所三丁目","koaza":"","lat":37.90549,"lng":139.041661,"zip":"9500994"},{"town":"上所上一丁目","koaza":"","lat":37.904637,"lng":139.03181,"zip":"9500992"},{"town":"上所上二丁目","koaza":"","lat":37.902903,"lng":139.033706,"zip":"9500992"},{"town":"上所上三丁目","koaza":"","lat":37.901982,"lng":139.031417,"zip":"9500992"},{"town":"上所中一丁目","koaza":"","lat":37.905585,"lng":139.036349,"zip":"9500993"},{"town":"上所中二丁目","koaza":"","lat":37.90418,"lng":139.038449,"zip":"9500993"},{"town":"上所中三丁目","koaza":"","lat":37.903208,"lng":139.036238,"zip":"9500993"},{"town":"亀田早通","koaza":"","lat":37.880911,"lng":139.080047,"zip":"9500145"},{"town":"川岸町一丁目","koaza":"","lat":37.911807,"lng":139.035208,"zip":"9518133"},{"town":"川岸町二丁目","koaza":"","lat":37.909917,"lng":139.032623,"zip":"9518133"},{"town":"川岸町三丁目","koaza":"","lat":37.908599,"lng":139.026074,"zip":"9518133"},{"town":"川端町一丁目","koaza":"","lat":37.913599,"lng":139.043827,"zip":"9518053"},{"town":"川端町二丁目","koaza":"","lat":37.91451,"lng":139.045603,"zip":"9518053"},{"town":"川端町三丁目","koaza":"","lat":37.915217,"lng":139.046935,"zip":"9518053"},{"town":"川端町四丁目","koaza":"","lat":37.916019,"lng":139.048118,"zip":"9518053"},{"town":"川端町五丁目","koaza":"","lat":37.916994,"lng":139.049428,"zip":"9518053"},{"town":"川端町六丁目","koaza":"","lat":37.919319,"lng":139.050927,"zip":"9518053"},{"town":"神道寺一丁目","koaza":"","lat":37.899909,"lng":139.056391,"zip":"9500983"},{"town":"神道寺二丁目","koaza":"","lat":37.897108,"lng":139.055833,"zip":"9500983"},{"town":"神道寺三丁目","koaza":"","lat":37.899147,"lng":139.053837,"zip":"9500983"},{"town":"神道寺南一丁目","koaza":"","lat":37.896382,"lng":139.057943,"zip":"9500986"},{"town":"神道寺南二丁目","koaza":"","lat":37.89465,"lng":139.059083,"zip":"9500986"},{"town":"蒲原町","koaza":"","lat":37.918837,"lng":139.067435,"zip":"9500083"},{"town":"北大畑町","koaza":"","lat":37.925937,"lng":139.04139,"zip":"9518105"},{"town":"北多門町","koaza":"","lat":37.924886,"lng":139.049708,"zip":"9518048"},{"town":"北浜通一番町","koaza":"","lat":37.925757,"lng":139.042923,"zip":"9500000"},{"town":"北浜通二番町","koaza":"","lat":37.926394,"lng":139.042567,"zip":"9500000"},{"town":"北毘沙門町","koaza":"","lat":37.926417,"lng":139.0515,"zip":"9518031"},{"town":"寄附町","koaza":"","lat":37.932864,"lng":139.048869,"zip":"9518081"},{"town":"久蔵興野","koaza":"","lat":37.876576,"lng":139.040541,"zip":"9501145"},{"town":"窪田町","koaza":"","lat":37.923451,"lng":139.026494,"zip":"9518008"},{"town":"窪田町一丁目","koaza":"","lat":37.937214,"lng":139.052364,"zip":"9518008"},{"town":"窪田町二丁目","koaza":"","lat":37.939253,"lng":139.054467,"zip":"9518008"},{"town":"窪田町三丁目","koaza":"","lat":37.936715,"lng":139.052863,"zip":"9518008"},{"town":"窪田町四丁目","koaza":"","lat":37.938448,"lng":139.054544,"zip":"9518008"},{"town":"窪田町五丁目","koaza":"","lat":37.937143,"lng":139.054143,"zip":"9518008"},{"town":"窪田町六丁目","koaza":"","lat":37.938765,"lng":139.05569,"zip":"9518008"},{"town":"窪田町七丁目","koaza":"","lat":37.937578,"lng":139.055192,"zip":"9518008"},{"town":"京王一丁目","koaza":"","lat":37.893239,"lng":139.075812,"zip":"9500921"},{"town":"京王二丁目","koaza":"","lat":37.894188,"lng":139.079046,"zip":"9500921"},{"town":"京王三丁目","koaza":"","lat":37.895447,"lng":139.080292,"zip":"9500921"},{"town":"高志一丁目","koaza":"","lat":37.896425,"lng":139.074144,"zip":"9500926"},{"town":"高志二丁目","koaza":"","lat":37.897619,"lng":139.077043,"zip":"9500926"},{"town":"寿町一丁目","koaza":"","lat":37.93424,"lng":139.051391,"zip":"9518073"},{"town":"寿町二丁目","koaza":"","lat":37.934944,"lng":139.050983,"zip":"9518073"},{"town":"湖南","koaza":"","lat":37.87645,"lng":139.039176,"zip":"9501151"},{"town":"小張木一丁目","koaza":"","lat":37.885747,"lng":139.048148,"zip":"9500942"},{"town":"小張木二丁目","koaza":"","lat":37.886794,"lng":139.041529,"zip":"9500942"},{"town":"小張木三丁目","koaza":"","lat":37.884386,"lng":139.04216,"zip":"9500942"},{"town":"幸町","koaza":"","lat":37.909133,"lng":139.049509,"zip":"9500907"},{"town":"幸西一丁目","koaza":"","lat":37.911771,"lng":139.050531,"zip":"9500908"},{"town":"幸西二丁目","koaza":"","lat":37.909887,"lng":139.04714,"zip":"9500908"},{"town":"幸西三丁目","koaza":"","lat":37.911642,"lng":139.045931,"zip":"9500908"},{"town":"幸西四丁目","koaza":"","lat":37.913401,"lng":139.049106,"zip":"9500908"},{"town":"栄町一丁目","koaza":"","lat":37.933826,"lng":139.049945,"zip":"9518071"},{"town":"栄町二丁目","koaza":"","lat":37.934622,"lng":139.050022,"zip":"9518071"},{"town":"栄町三丁目","koaza":"","lat":37.935551,"lng":139.049851,"zip":"9518071"},{"town":"魁町","koaza":"","lat":37.929222,"lng":139.056342,"zip":"9518034"},{"town":"桜木町","koaza":"","lat":37.894044,"lng":139.053251,"zip":"9500949"},{"town":"笹口","koaza":"","lat":37.912409,"lng":139.071438,"zip":"9500911"},{"town":"笹口一丁目","koaza":"","lat":37.911749,"lng":139.06576,"zip":"9500911"},{"town":"笹口二丁目","koaza":"","lat":37.91023,"lng":139.065225,"zip":"9500911"},{"town":"笹口三丁目","koaza":"","lat":37.91232,"lng":139.070034,"zip":"9500911"},{"town":"三和町","koaza":"","lat":37.922438,"lng":139.062152,"zip":"9500081"},{"town":"汐見台","koaza":"","lat":37.913226,"lng":139.010636,"zip":"9518156"},{"town":"紫竹一丁目","koaza":"","lat":37.909774,"lng":139.076587,"zip":"9500864"},{"town":"紫竹山一丁目","koaza":"","lat":37.899759,"lng":139.06391,"zip":"9500914"},{"town":"紫竹山二丁目","koaza":"","lat":37.901371,"lng":139.068043,"zip":"9500914"},{"town":"紫竹山三丁目","koaza":"","lat":37.902942,"lng":139.072172,"zip":"9500914"},{"town":"紫竹山四丁目","koaza":"","lat":37.899307,"lng":139.072848,"zip":"9500914"},{"town":"紫竹山五丁目","koaza":"","lat":37.898379,"lng":139.068946,"zip":"9500914"},{"town":"紫竹山六丁目","koaza":"","lat":37.89722,"lng":139.065941,"zip":"9500914"},{"town":"紫竹山七丁目","koaza":"","lat":37.896102,"lng":139.063124,"zip":"9500914"},{"town":"信濃町","koaza":"","lat":37.908044,"lng":139.01216,"zip":"9518152"},{"town":"下旭町","koaza":"","lat":37.920703,"lng":139.037913,"zip":"9518123"},{"town":"下大川前通一ノ町","koaza":"","lat":37.919906,"lng":139.050238,"zip":"9500000"},{"town":"下大川前通二ノ町","koaza":"","lat":37.920947,"lng":139.051817,"zip":"9500000"},{"town":"下大川前通三ノ町","koaza":"","lat":37.921625,"lng":139.052892,"zip":"9500000"},{"town":"下大川前通四ノ町","koaza":"","lat":37.922417,"lng":139.053678,"zip":"9500000"},{"town":"下大川前通五ノ町","koaza":"","lat":37.923502,"lng":139.054351,"zip":"9500000"},{"town":"下大川前通六ノ町","koaza":"","lat":37.924468,"lng":139.055337,"zip":"9500000"},{"town":"下大川前通七ノ町","koaza":"","lat":37.925439,"lng":139.056032,"zip":"9500000"},{"town":"下所島一丁目","koaza":"","lat":37.907347,"lng":139.044803,"zip":"9500991"},{"town":"下所島二丁目","koaza":"","lat":37.905905,"lng":139.045772,"zip":"9500991"},{"town":"鐘木","koaza":"","lat":37.878728,"lng":139.044122,"zip":"9501141"},{"town":"新光町","koaza":"","lat":37.901591,"lng":139.020995,"zip":"9500965"},{"town":"新島町通一ノ町","koaza":"","lat":37.920611,"lng":139.048861,"zip":"9500000"},{"town":"新島町通二ノ町","koaza":"","lat":37.923471,"lng":139.0501,"zip":"9500000"},{"town":"新島町通三ノ町","koaza":"","lat":37.924479,"lng":139.051838,"zip":"9500000"},{"town":"新島町通四ノ町","koaza":"","lat":37.925498,"lng":139.053976,"zip":"9500000"},{"town":"新島町通五ノ町","koaza":"","lat":37.925773,"lng":139.054767,"zip":"9500000"},{"town":"新和一丁目","koaza":"","lat":37.90203,"lng":139.03925,"zip":"9500972"},{"town":"新和二丁目","koaza":"","lat":37.900333,"lng":139.0428,"zip":"9500972"},{"town":"新和三丁目","koaza":"","lat":37.899879,"lng":139.041133,"zip":"9500972"},{"town":"新和四丁目","koaza":"","lat":37.899342,"lng":139.039491,"zip":"9500972"},{"town":"水道町一丁目","koaza":"","lat":37.920872,"lng":139.026992,"zip":"9518121"},{"town":"水道町二丁目","koaza":"","lat":37.922766,"lng":139.031469,"zip":"9518121"},{"town":"菅根町","koaza":"","lat":37.93164,"lng":139.051789,"zip":"9518088"},{"town":"住吉町","koaza":"","lat":37.92572,"lng":139.050238,"zip":"9518042"},{"town":"清五郎","koaza":"","lat":37.881832,"lng":139.053083,"zip":"9500933"},{"town":"関新一丁目","koaza":"","lat":37.90886,"lng":139.021631,"zip":"9518141"},{"town":"関新二丁目","koaza":"","lat":37.905963,"lng":139.021371,"zip":"9518141"},{"town":"関新三丁目","koaza":"","lat":37.906647,"lng":139.01826,"zip":"9518141"},{"town":"関南町","koaza":"","lat":37.897436,"lng":139.012028,"zip":"9518144"},{"town":"関屋","koaza":"","lat":37.915905,"lng":139.01465,"zip":"9518134"},{"town":"関屋大川前一丁目","koaza":"","lat":37.902904,"lng":139.016812,"zip":"9518142"},{"town":"関屋大川前二丁目","koaza":"","lat":37.905307,"lng":139.015028,"zip":"9518142"},{"town":"関屋御船蔵町","koaza":"","lat":37.909908,"lng":139.020287,"zip":"9518163"},{"town":"関屋金鉢山町","koaza":"","lat":37.909191,"lng":139.016923,"zip":"9518165"},{"town":"関屋金衛町一丁目","koaza":"","lat":37.914124,"lng":139.016644,"zip":"9518167"},{"town":"関屋金衛町二丁目","koaza":"","lat":37.9131,"lng":139.01468,"zip":"9518167"},{"town":"関屋下川原町一丁目","koaza":"","lat":37.916789,"lng":139.025508,"zip":"9518127"},{"town":"関屋下川原町二丁目","koaza":"","lat":37.91522,"lng":139.023714,"zip":"9518127"},{"town":"関屋昭和町一丁目","koaza":"","lat":37.912237,"lng":139.016198,"zip":"9518164"},{"town":"関屋昭和町二丁目","koaza":"","lat":37.910757,"lng":139.016953,"zip":"9518164"},{"town":"関屋昭和町三丁目","koaza":"","lat":37.909358,"lng":139.018684,"zip":"9518164"},{"town":"関屋新町通一丁目","koaza":"","lat":37.911049,"lng":139.024655,"zip":"9518135"},{"town":"関屋新町通二丁目","koaza":"","lat":37.90994,"lng":139.022499,"zip":"9518135"},{"town":"関屋田町一丁目","koaza":"","lat":37.91398,"lng":139.025163,"zip":"9518136"},{"town":"関屋田町二丁目","koaza":"","lat":37.912968,"lng":139.024192,"zip":"9518136"},{"town":"関屋田町三丁目","koaza":"","lat":37.912075,"lng":139.022699,"zip":"9518136"},{"town":"関屋田町四丁目","koaza":"","lat":37.910633,"lng":139.021799,"zip":"9518136"},{"town":"関屋浜松町","koaza":"","lat":37.908002,"lng":139.015437,"zip":"9518166"},{"town":"関屋本村町一丁目","koaza":"","lat":37.913137,"lng":139.020396,"zip":"9518162"},{"town":"関屋本村町二丁目","koaza":"","lat":37.910999,"lng":139.019321,"zip":"9518162"},{"town":"関屋松波町一丁目","koaza":"","lat":37.918255,"lng":139.02467,"zip":"9518161"},{"town":"関屋松波町二丁目","koaza":"","lat":37.917041,"lng":139.022152,"zip":"9518161"},{"town":"関屋松波町三丁目","koaza":"","lat":37.915415,"lng":139.019387,"zip":"9518161"},{"town":"関屋恵町","koaza":"","lat":37.902942,"lng":139.012706,"zip":"9518143"},{"town":"太右エ門新田","koaza":"","lat":37.880298,"lng":139.034376,"zip":"9501146"},{"town":"高美町","koaza":"","lat":37.880809,"lng":139.03686,"zip":"9501147"},{"town":"田中町","koaza":"","lat":37.929237,"lng":139.042166,"zip":"9518103"},{"town":"田町一丁目","koaza":"","lat":37.931693,"lng":139.052675,"zip":"9518016"},{"town":"田町二丁目","koaza":"","lat":37.931851,"lng":139.053534,"zip":"9518016"},{"town":"田町三丁目","koaza":"","lat":37.931482,"lng":139.054371,"zip":"9518016"},{"town":"俵柳","koaza":"","lat":37.87495,"lng":139.041253,"zip":"9501143"},{"town":"忠蔵町","koaza":"","lat":37.936248,"lng":139.053332,"zip":"9518007"},{"town":"月町","koaza":"","lat":37.922673,"lng":139.050141,"zip":"9518057"},{"town":"附船町一丁目","koaza":"","lat":37.935064,"lng":139.05479,"zip":"9518006"},{"town":"附船町二丁目","koaza":"","lat":37.936697,"lng":139.056077,"zip":"9518006"},{"town":"附船町三丁目","koaza":"","lat":37.937913,"lng":139.056226,"zip":"9518006"},{"town":"出来島一丁目","koaza":"","lat":37.900332,"lng":139.024014,"zip":"9500962"},{"town":"出来島二丁目","koaza":"","lat":37.899992,"lng":139.026363,"zip":"9500962"},{"town":"寺裏通一番町","koaza":"","lat":37.918711,"lng":139.039234,"zip":"9500000"},{"town":"寺裏通二番町","koaza":"","lat":37.920291,"lng":139.04036,"zip":"9500000"},{"town":"寺山町","koaza":"","lat":37.932407,"lng":139.051703,"zip":"9518085"},{"town":"天神一丁目","koaza":"","lat":37.910004,"lng":139.060593,"zip":"9500917"},{"town":"天神二丁目","koaza":"","lat":37.909445,"lng":139.057778,"zip":"9500917"},{"town":"天神尾一丁目","koaza":"","lat":37.908787,"lng":139.054648,"zip":"9500905"},{"town":"天神尾二丁目","koaza":"","lat":37.907676,"lng":139.052217,"zip":"9500905"},{"town":"天明町","koaza":"","lat":37.920465,"lng":139.063135,"zip":"9500077"},{"town":"鳥屋野一丁目","koaza":"","lat":37.889229,"lng":139.022899,"zip":"9500951"},{"town":"鳥屋野二丁目","koaza":"","lat":37.888516,"lng":139.019707,"zip":"9500951"},{"town":"鳥屋野三丁目","koaza":"","lat":37.884324,"lng":139.020828,"zip":"9500951"},{"town":"豊照町","koaza":"","lat":37.926989,"lng":139.054129,"zip":"9518033"},{"town":"中大畑町","koaza":"","lat":37.925707,"lng":139.041519,"zip":"9518108"},{"town":"長潟","koaza":"","lat":37.884427,"lng":139.064863,"zip":"9500932"},{"town":"長潟一丁目","koaza":"","lat":37.893078,"lng":139.065008,"zip":"9500932"},{"town":"長潟二丁目","koaza":"","lat":37.890126,"lng":139.067077,"zip":"9500932"},{"town":"長潟三丁目","koaza":"","lat":37.887795,"lng":139.069154,"zip":"9500932"},{"town":"長嶺町","koaza":"","lat":37.915022,"lng":139.069404,"zip":"9500085"},{"town":"鍋潟新田","koaza":"","lat":37.876396,"lng":139.057043,"zip":"9501131"},{"town":"並木町","koaza":"","lat":37.925515,"lng":139.052234,"zip":"9518045"},{"town":"西受地町","koaza":"","lat":37.933251,"lng":139.049783,"zip":"9518082"},{"town":"西馬越","koaza":"","lat":37.913633,"lng":139.072774,"zip":"9500866"},{"town":"西厩島町","koaza":"","lat":37.92488,"lng":139.050307,"zip":"9518043"},{"town":"西大畑町","koaza":"","lat":37.925927,"lng":139.038533,"zip":"9518104"},{"town":"西中町","koaza":"","lat":37.920903,"lng":139.038751,"zip":"9518118"},{"town":"西船見町","koaza":"","lat":37.931018,"lng":139.039451,"zip":"9518101"},{"town":"西堀通十番町","koaza":"","lat":37.928564,"lng":139.04455,"zip":"9500000"},{"town":"西堀通十一番町","koaza":"","lat":37.929482,"lng":139.045009,"zip":"9500000"},{"town":"西堀通一番町","koaza":"","lat":37.917452,"lng":139.039676,"zip":"9500000"},{"town":"西堀通二番町","koaza":"","lat":37.918255,"lng":139.040196,"zip":"9500000"},{"town":"西堀通三番町","koaza":"","lat":37.919173,"lng":139.04112,"zip":"9500000"},{"town":"西堀通四番町","koaza":"","lat":37.920248,"lng":139.041853,"zip":"9500000"},{"town":"西堀通五番町","koaza":"","lat":37.921613,"lng":139.042753,"zip":"9500000"},{"town":"西堀通六番町","koaza":"","lat":37.923107,"lng":139.042976,"zip":"9500000"},{"town":"西堀通七番町","koaza":"","lat":37.924712,"lng":139.043512,"zip":"9500000"},{"town":"西堀通八番町","koaza":"","lat":37.926232,"lng":139.043982,"zip":"9500000"},{"town":"西堀通九番町","koaza":"","lat":37.927515,"lng":139.044269,"zip":"9500000"},{"town":"西堀前通十番町","koaza":"","lat":37.927145,"lng":139.045319,"zip":"9500000"},{"town":"西堀前通十一番町","koaza":"","lat":37.928338,"lng":139.045583,"zip":"9500000"},{"town":"西堀前通一番町","koaza":"","lat":37.916381,"lng":139.039609,"zip":"9500000"},{"town":"西堀前通二番町","koaza":"","lat":37.917122,"lng":139.040501,"zip":"9500000"},{"town":"西堀前通三番町","koaza":"","lat":37.91796,"lng":139.04153,"zip":"9500000"},{"town":"西堀前通四番町","koaza":"","lat":37.918679,"lng":139.042221,"zip":"9500000"},{"town":"西堀前通五番町","koaza":"","lat":37.919801,"lng":139.043208,"zip":"9500000"},{"town":"西堀前通六番町","koaza":"","lat":37.921279,"lng":139.043836,"zip":"9500000"},{"town":"西堀前通七番町","koaza":"","lat":37.922842,"lng":139.044252,"zip":"9500000"},{"town":"西堀前通八番町","koaza":"","lat":37.924415,"lng":139.044651,"zip":"9500000"},{"town":"西堀前通九番町","koaza":"","lat":37.925852,"lng":139.045015,"zip":"9500000"},{"town":"西湊町通一ノ町","koaza":"","lat":37.929079,"lng":139.051355,"zip":"9500000"},{"town":"西湊町通二ノ町","koaza":"","lat":37.929564,"lng":139.052868,"zip":"9500000"},{"town":"西湊町通三ノ町","koaza":"","lat":37.930067,"lng":139.054255,"zip":"9500000"},{"town":"西湊町通四ノ町","koaza":"","lat":37.930556,"lng":139.055644,"zip":"9500000"},{"town":"沼垂西一丁目","koaza":"","lat":37.920636,"lng":139.065951,"zip":"9500076"},{"town":"沼垂西二丁目","koaza":"","lat":37.922327,"lng":139.065157,"zip":"9500076"},{"town":"沼垂西三丁目","koaza":"","lat":37.924331,"lng":139.064418,"zip":"9500076"},{"town":"沼垂東一丁目","koaza":"","lat":37.917745,"lng":139.071182,"zip":"9500075"},{"town":"沼垂東二丁目","koaza":"","lat":37.919937,"lng":139.07121,"zip":"9500075"},{"town":"沼垂東三丁目","koaza":"","lat":37.92108,"lng":139.070547,"zip":"9500075"},{"town":"沼垂東四丁目","koaza":"","lat":37.92218,"lng":139.068399,"zip":"9500075"},{"town":"沼垂東五丁目","koaza":"","lat":37.925024,"lng":139.066983,"zip":"9500075"},{"town":"沼垂東六丁目","koaza":"","lat":37.925845,"lng":139.069288,"zip":"9500075"},{"town":"白山浦一丁目","koaza":"","lat":37.915071,"lng":139.03308,"zip":"9518131"},{"town":"白山浦二丁目","koaza":"","lat":37.913312,"lng":139.028888,"zip":"9518131"},{"town":"白山浦新町通","koaza":"","lat":37.912547,"lng":139.026365,"zip":"9518137"},{"town":"艀川岸町","koaza":"","lat":37.932937,"lng":139.05364,"zip":"9518017"},{"town":"花園一丁目","koaza":"","lat":37.91247,"lng":139.062191,"zip":"9500086"},{"town":"花園二丁目","koaza":"","lat":37.914478,"lng":139.066004,"zip":"9500086"},{"town":"花町","koaza":"","lat":37.921719,"lng":139.049586,"zip":"9518056"},{"town":"浜浦町一丁目","koaza":"","lat":37.911536,"lng":139.012634,"zip":"9518151"},{"town":"浜浦町二丁目","koaza":"","lat":37.909643,"lng":139.006864,"zip":"9518151"},{"town":"早川町一丁目","koaza":"","lat":37.929494,"lng":139.050147,"zip":"9518024"},{"town":"早川町二丁目","koaza":"","lat":37.930373,"lng":139.050649,"zip":"9518024"},{"town":"早川町三丁目","koaza":"","lat":37.931192,"lng":139.052535,"zip":"9518024"},{"town":"万代一丁目","koaza":"","lat":37.916506,"lng":139.056743,"zip":"9500088"},{"town":"万代二丁目","koaza":"","lat":37.917857,"lng":139.053903,"zip":"9500088"},{"town":"万代三丁目","koaza":"","lat":37.921153,"lng":139.056908,"zip":"9500088"},{"town":"万代四丁目","koaza":"","lat":37.919071,"lng":139.057848,"zip":"9500088"},{"town":"万代五丁目","koaza":"","lat":37.918867,"lng":139.059895,"zip":"9500088"},{"town":"万代六丁目","koaza":"","lat":37.918903,"lng":139.061848,"zip":"9500088"},{"town":"万代島","koaza":"","lat":37.928232,"lng":139.061913,"zip":"9500078"},{"town":"東入船町","koaza":"","lat":37.933279,"lng":139.057943,"zip":"9518012"},{"town":"東受地町","koaza":"","lat":37.931852,"lng":139.050761,"zip":"9518087"},{"town":"東厩島町","koaza":"","lat":37.925177,"lng":139.051169,"zip":"9518044"},{"town":"東大通一丁目","koaza":"","lat":37.914694,"lng":139.062022,"zip":"9500087"},{"town":"東大通二丁目","koaza":"","lat":37.916041,"lng":139.060306,"zip":"9500087"},{"town":"東大畑通一番町","koaza":"","lat":37.924476,"lng":139.039722,"zip":"9500000"},{"town":"東大畑通二番町","koaza":"","lat":37.925897,"lng":139.0426,"zip":"9500000"},{"town":"東幸町","koaza":"","lat":37.907078,"lng":139.049142,"zip":"9500906"},{"town":"東出来島","koaza":"","lat":37.901936,"lng":139.028593,"zip":"9500961"},{"town":"東中通一番町","koaza":"","lat":37.918735,"lng":139.038547,"zip":"9500000"},{"town":"東中通二番町","koaza":"","lat":37.920495,"lng":139.039756,"zip":"9500000"},{"town":"東万代町","koaza":"","lat":37.917506,"lng":139.063793,"zip":"9500082"},{"town":"東堀通十番町","koaza":"","lat":37.926837,"lng":139.046748,"zip":"9500000"},{"town":"東堀通十一番町","koaza":"","lat":37.928117,"lng":139.046832,"zip":"9500000"},{"town":"東堀通十二番町","koaza":"","lat":37.929391,"lng":139.047068,"zip":"9500000"},{"town":"東堀通十三番町","koaza":"","lat":37.931184,"lng":139.046975,"zip":"9500000"},{"town":"東堀通一番町","koaza":"","lat":37.915977,"lng":139.041261,"zip":"9500000"},{"town":"東堀通二番町","koaza":"","lat":37.916697,"lng":139.04211,"zip":"9500000"},{"town":"東堀通三番町","koaza":"","lat":37.917453,"lng":139.043037,"zip":"9500000"},{"town":"東堀通四番町","koaza":"","lat":37.918188,"lng":139.0439,"zip":"9500000"},{"town":"東堀通五番町","koaza":"","lat":37.919314,"lng":139.044668,"zip":"9500000"},{"town":"東堀通六番町","koaza":"","lat":37.920921,"lng":139.045328,"zip":"9500000"},{"town":"東堀通七番町","koaza":"","lat":37.922633,"lng":139.045738,"zip":"9500000"},{"town":"東堀通八番町","koaza":"","lat":37.924116,"lng":139.046233,"zip":"9500000"},{"town":"東堀通九番町","koaza":"","lat":37.925653,"lng":139.046741,"zip":"9500000"},{"town":"東堀前通十番町","koaza":"","lat":37.926624,"lng":139.047219,"zip":"9500000"},{"town":"東堀前通十一番町","koaza":"","lat":37.927939,"lng":139.047296,"zip":"9500000"},{"town":"東堀前通一番町","koaza":"","lat":37.915557,"lng":139.041501,"zip":"9500000"},{"town":"東堀前通二番町","koaza":"","lat":37.916301,"lng":139.042414,"zip":"9500000"},{"town":"東堀前通三番町","koaza":"","lat":37.917195,"lng":139.043514,"zip":"9500000"},{"town":"東堀前通四番町","koaza":"","lat":37.91795,"lng":139.044436,"zip":"9500000"},{"town":"東堀前通五番町","koaza":"","lat":37.919184,"lng":139.045239,"zip":"9500000"},{"town":"東堀前通六番町","koaza":"","lat":37.920875,"lng":139.045921,"zip":"9500000"},{"town":"東堀前通七番町","koaza":"","lat":37.92247,"lng":139.04637,"zip":"9500000"},{"town":"東堀前通八番町","koaza":"","lat":37.924015,"lng":139.046806,"zip":"9500000"},{"town":"東堀前通九番町","koaza":"","lat":37.925381,"lng":139.047163,"zip":"9500000"},{"town":"東湊町通一ノ町","koaza":"","lat":37.926737,"lng":139.051046,"zip":"9500000"},{"town":"東湊町通二ノ町","koaza":"","lat":37.927382,"lng":139.052043,"zip":"9500000"},{"town":"東湊町通三ノ町","koaza":"","lat":37.927887,"lng":139.053834,"zip":"9500000"},{"town":"東湊町通四ノ町","koaza":"","lat":37.928191,"lng":139.054909,"zip":"9500000"},{"town":"日の出一丁目","koaza":"","lat":37.918348,"lng":139.073259,"zip":"9500073"},{"town":"日の出二丁目","koaza":"","lat":37.918351,"lng":139.075553,"zip":"9500073"},{"town":"日の出三丁目","koaza":"","lat":37.920818,"lng":139.074613,"zip":"9500073"},{"town":"雲雀町","koaza":"","lat":37.940923,"lng":139.055986,"zip":"9518003"},{"town":"二葉町一丁目","koaza":"","lat":37.927288,"lng":139.036696,"zip":"9518102"},{"town":"二葉町二丁目","koaza":"","lat":37.929606,"lng":139.038316,"zip":"9518102"},{"town":"二葉町三丁目","koaza":"","lat":37.93198,"lng":139.042639,"zip":"9518102"},{"town":"船場町一丁目","koaza":"","lat":37.926498,"lng":139.055042,"zip":"9518035"},{"town":"船場町二丁目","koaza":"","lat":37.927708,"lng":139.055936,"zip":"9518035"},{"town":"船見町一丁目","koaza":"","lat":37.941023,"lng":139.059136,"zip":"9518002"},{"town":"船見町二丁目","koaza":"","lat":37.94173,"lng":139.057939,"zip":"9518002"},{"town":"古町通十番町","koaza":"","lat":37.927002,"lng":139.04603,"zip":"9500000"},{"town":"古町通十一番町","koaza":"","lat":37.928251,"lng":139.04618,"zip":"9500000"},{"town":"古町通十二番町","koaza":"","lat":37.929618,"lng":139.046033,"zip":"9500000"},{"town":"古町通十三番町","koaza":"","lat":37.931121,"lng":139.044534,"zip":"9500000"},{"town":"古町通一番町","koaza":"","lat":37.916109,"lng":139.0401,"zip":"9500000"},{"town":"古町通二番町","koaza":"","lat":37.916722,"lng":139.041022,"zip":"9500000"},{"town":"古町通三番町","koaza":"","lat":37.917596,"lng":139.04211,"zip":"9500000"},{"town":"古町通四番町","koaza":"","lat":37.918292,"lng":139.042901,"zip":"9500000"},{"town":"古町通五番町","koaza":"","lat":37.919557,"lng":139.043892,"zip":"9500000"},{"town":"古町通六番町","koaza":"","lat":37.921126,"lng":139.044556,"zip":"9500000"},{"town":"古町通七番町","koaza":"","lat":37.922687,"lng":139.044966,"zip":"9500000"},{"town":"古町通八番町","koaza":"","lat":37.924218,"lng":139.045399,"zip":"9500000"},{"town":"古町通九番町","koaza":"","lat":37.925698,"lng":139.045806,"zip":"9500000"},{"town":"文京町","koaza":"","lat":37.906983,"lng":139.007972,"zip":"9518153"},{"town":"弁天一丁目","koaza":"","lat":37.913417,"lng":139.059282,"zip":"9500901"},{"town":"弁天二丁目","koaza":"","lat":37.915481,"lng":139.057949,"zip":"9500901"},{"town":"弁天三丁目","koaza":"","lat":37.912705,"lng":139.058105,"zip":"9500901"},{"town":"弁天橋通一丁目","koaza":"","lat":37.894565,"lng":139.070152,"zip":"9500925"},{"town":"弁天橋通二丁目","koaza":"","lat":37.891591,"lng":139.072367,"zip":"9500925"},{"town":"弁天橋通三丁目","koaza":"","lat":37.889479,"lng":139.073528,"zip":"9500925"},{"town":"堀之内","koaza":"","lat":37.905272,"lng":139.048689,"zip":"9500981"},{"town":"堀之内南一丁目","koaza":"","lat":37.903954,"lng":139.051865,"zip":"9500982"},{"town":"堀之内南二丁目","koaza":"","lat":37.901651,"lng":139.052819,"zip":"9500982"},{"town":"堀之内南三丁目","koaza":"","lat":37.902361,"lng":139.04924,"zip":"9500982"},{"town":"堀割町","koaza":"","lat":37.903868,"lng":139.008401,"zip":"9518154"},{"town":"本町通十番町","koaza":"","lat":37.926558,"lng":139.048036,"zip":"9500000"},{"town":"本町通十一番町","koaza":"","lat":37.927909,"lng":139.048075,"zip":"9500000"},{"town":"本町通十二番町","koaza":"","lat":37.929364,"lng":139.048132,"zip":"9500000"},{"town":"本町通十三番町","koaza":"","lat":37.930979,"lng":139.048354,"zip":"9500000"},{"town":"本町通十四番町","koaza":"","lat":37.932204,"lng":139.04738,"zip":"9500000"},{"town":"本町通一番町","koaza":"","lat":37.915151,"lng":139.041927,"zip":"9500000"},{"town":"本町通二番町","koaza":"","lat":37.915919,"lng":139.043041,"zip":"9500000"},{"town":"本町通三番町","koaza":"","lat":37.916762,"lng":139.044017,"zip":"9500000"},{"town":"本町通四番町","koaza":"","lat":37.9176,"lng":139.045022,"zip":"9500000"},{"town":"本町通五番町","koaza":"","lat":37.918943,"lng":139.04592,"zip":"9500000"},{"town":"本町通六番町","koaza":"","lat":37.920665,"lng":139.046622,"zip":"9500000"},{"town":"本町通七番町","koaza":"","lat":37.922373,"lng":139.047107,"zip":"9500000"},{"town":"本町通八番町","koaza":"","lat":37.923893,"lng":139.04751,"zip":"9500000"},{"town":"本町通九番町","koaza":"","lat":37.92524,"lng":139.047842,"zip":"9500000"},{"town":"本間町一丁目","koaza":"","lat":37.926532,"lng":139.049866,"zip":"9518041"},{"town":"本間町二丁目","koaza":"","lat":37.927735,"lng":139.049899,"zip":"9518041"},{"town":"本間町三丁目","koaza":"","lat":37.928851,"lng":139.049979,"zip":"9518041"},{"town":"秣川岸通一丁目","koaza":"","lat":37.923589,"lng":139.049569,"zip":"9518046"},{"town":"秣川岸通二丁目","koaza":"","lat":37.924754,"lng":139.051341,"zip":"9518046"},{"town":"松岡町","koaza":"","lat":37.930147,"lng":139.056097,"zip":"9518015"},{"town":"見方町","koaza":"","lat":37.92685,"lng":139.052989,"zip":"9518032"},{"town":"美咲町一丁目","koaza":"","lat":37.89255,"lng":139.015654,"zip":"9500954"},{"town":"美咲町二丁目","koaza":"","lat":37.884903,"lng":139.016817,"zip":"9500954"},{"town":"水島町","koaza":"","lat":37.911004,"lng":139.053125,"zip":"9500904"},{"town":"緑町","koaza":"","lat":37.929936,"lng":139.056796,"zip":"9518014"},{"town":"湊町通一ノ町","koaza":"","lat":37.927747,"lng":139.050791,"zip":"9500000"},{"town":"湊町通二ノ町","koaza":"","lat":37.928232,"lng":139.052017,"zip":"9500000"},{"town":"湊町通三ノ町","koaza":"","lat":37.928731,"lng":139.05334,"zip":"9500000"},{"town":"湊町通四ノ町","koaza":"","lat":37.929343,"lng":139.054936,"zip":"9500000"},{"town":"南大畑町","koaza":"","lat":37.925032,"lng":139.039633,"zip":"9518107"},{"town":"南笹口一丁目","koaza":"","lat":37.907964,"lng":139.066329,"zip":"9500912"},{"town":"南笹口二丁目","koaza":"","lat":37.909167,"lng":139.070614,"zip":"9500912"},{"town":"南多門町","koaza":"","lat":37.924099,"lng":139.04954,"zip":"9518047"},{"town":"南出来島一丁目","koaza":"","lat":37.897058,"lng":139.027282,"zip":"9500963"},{"town":"南出来島二丁目","koaza":"","lat":37.896477,"lng":139.024258,"zip":"9500963"},{"town":"南長潟","koaza":"","lat":37.884361,"lng":139.072995,"zip":"9500931"},{"town":"南浜通一番町","koaza":"","lat":37.924228,"lng":139.041857,"zip":"9500000"},{"town":"南浜通二番町","koaza":"","lat":37.925348,"lng":139.040137,"zip":"9500000"},{"town":"南万代町","koaza":"","lat":37.913227,"lng":139.056417,"zip":"9500902"},{"town":"南毘沙門町","koaza":"","lat":37.925974,"lng":139.051489,"zip":"9518038"},{"town":"南横堀町","koaza":"","lat":37.920688,"lng":139.03909,"zip":"9518117"},{"town":"美の里","koaza":"","lat":37.883404,"lng":139.078729,"zip":"9500924"},{"town":"室町一丁目","koaza":"","lat":37.939201,"lng":139.056843,"zip":"9518005"},{"town":"室町二丁目","koaza":"","lat":37.940679,"lng":139.057609,"zip":"9518005"},{"town":"女池","koaza":"","lat":37.887257,"lng":139.032005,"zip":"9500941"},{"town":"女池一丁目","koaza":"","lat":37.897072,"lng":139.05039,"zip":"9500941"},{"town":"女池二丁目","koaza":"","lat":37.894939,"lng":139.046022,"zip":"9500941"},{"town":"女池三丁目","koaza":"","lat":37.896772,"lng":139.045206,"zip":"9500941"},{"town":"女池四丁目","koaza":"","lat":37.895746,"lng":139.039576,"zip":"9500941"},{"town":"女池五丁目","koaza":"","lat":37.893265,"lng":139.041165,"zip":"9500941"},{"town":"女池六丁目","koaza":"","lat":37.891838,"lng":139.042091,"zip":"9500941"},{"town":"女池七丁目","koaza":"","lat":37.890039,"lng":139.042782,"zip":"9500941"},{"town":"女池八丁目","koaza":"","lat":37.88831,"lng":139.037089,"zip":"9500941"},{"town":"女池上山一丁目","koaza":"","lat":37.892911,"lng":139.031839,"zip":"9500945"},{"town":"女池上山二丁目","koaza":"","lat":37.891119,"lng":139.029754,"zip":"9500945"},{"town":"女池上山三丁目","koaza":"","lat":37.890524,"lng":139.026258,"zip":"9500945"},{"town":"女池上山四丁目","koaza":"","lat":37.893363,"lng":139.025548,"zip":"9500945"},{"town":"女池上山五丁目","koaza":"","lat":37.894163,"lng":139.028481,"zip":"9500945"},{"town":"女池北一丁目","koaza":"","lat":37.895271,"lng":139.034631,"zip":"9500947"},{"town":"女池神明一丁目","koaza":"","lat":37.89034,"lng":139.03761,"zip":"9500943"},{"town":"女池神明二丁目","koaza":"","lat":37.889461,"lng":139.034227,"zip":"9500943"},{"town":"女池神明三丁目","koaza":"","lat":37.88837,"lng":139.030907,"zip":"9500943"},{"town":"女池西一丁目","koaza":"","lat":37.893494,"lng":139.035361,"zip":"9500946"},{"town":"女池西二丁目","koaza":"","lat":37.891613,"lng":139.03588,"zip":"9500946"},{"town":"女池東一丁目","koaza":"","lat":37.897823,"lng":139.052351,"zip":"9500984"},{"town":"女池南一丁目","koaza":"","lat":37.894316,"lng":139.04857,"zip":"9500948"},{"town":"女池南二丁目","koaza":"","lat":37.892531,"lng":139.048663,"zip":"9500948"},{"town":"女池南三丁目","koaza":"","lat":37.889203,"lng":139.049569,"zip":"9500948"},{"town":"元祝町","koaza":"","lat":37.933495,"lng":139.05078,"zip":"9518075"},{"town":"本馬越一丁目","koaza":"","lat":37.914426,"lng":139.076467,"zip":"9500865"},{"town":"本馬越二丁目","koaza":"","lat":37.911438,"lng":139.075369,"zip":"9500865"},{"town":"元下島町","koaza":"","lat":37.932812,"lng":139.052899,"zip":"9518084"},{"town":"八千代一丁目","koaza":"","lat":37.914213,"lng":139.054214,"zip":"9500909"},{"town":"八千代二丁目","koaza":"","lat":37.915634,"lng":139.051969,"zip":"9500909"},{"town":"柳島町一丁目","koaza":"","lat":37.927435,"lng":139.057067,"zip":"9518013"},{"town":"柳島町二丁目","koaza":"","lat":37.930309,"lng":139.058069,"zip":"9518013"},{"town":"柳島町三丁目","koaza":"","lat":37.93205,"lng":139.058632,"zip":"9518013"},{"town":"柳島町四丁目","koaza":"","lat":37.934268,"lng":139.05926,"zip":"9518013"},{"town":"山田町一丁目","koaza":"","lat":37.93911,"lng":139.057411,"zip":"9518004"},{"town":"山田町二丁目","koaza":"","lat":37.940545,"lng":139.058081,"zip":"9518004"},{"town":"山二ツ","koaza":"","lat":37.889217,"lng":139.089485,"zip":"9500922"},{"town":"山二ツ一丁目","koaza":"","lat":37.894097,"lng":139.083142,"zip":"9500922"},{"town":"山二ツ二丁目","koaza":"","lat":37.896197,"lng":139.085292,"zip":"9500922"},{"town":"山二ツ三丁目","koaza":"","lat":37.894233,"lng":139.086813,"zip":"9500922"},{"town":"山二ツ四丁目","koaza":"","lat":37.891643,"lng":139.086289,"zip":"9500922"},{"town":"山二ツ五丁目","koaza":"","lat":37.893575,"lng":139.091854,"zip":"9500922"},{"town":"弥生町","koaza":"","lat":37.90573,"lng":139.013611,"zip":"9518147"},{"town":"夕栄町","koaza":"","lat":37.930924,"lng":139.050293,"zip":"9518023"},{"town":"雪町","koaza":"","lat":37.9237,"lng":139.051153,"zip":"9518058"},{"town":"横一番町","koaza":"","lat":37.917197,"lng":139.042224,"zip":"9518064"},{"town":"横七番町通一丁目","koaza":"","lat":37.931677,"lng":139.049716,"zip":"9518083"},{"town":"横七番町通二丁目","koaza":"","lat":37.932425,"lng":139.050628,"zip":"9518083"},{"town":"横七番町通三丁目","koaza":"","lat":37.93315,"lng":139.052043,"zip":"9518083"},{"town":"横七番町通四丁目","koaza":"","lat":37.933565,"lng":139.052937,"zip":"9518083"},{"town":"横七番町通五丁目","koaza":"","lat":37.933946,"lng":139.053672,"zip":"9518083"},{"town":"横六番町","koaza":"","lat":37.930298,"lng":139.049474,"zip":"9518022"},{"town":"芳町","koaza":"","lat":37.92618,"lng":139.053431,"zip":"9518036"},{"town":"四ッ屋町一丁目","koaza":"","lat":37.932819,"lng":139.045251,"zip":"9500000"},{"town":"四ッ屋町二丁目","koaza":"","lat":37.93394,"lng":139.046046,"zip":"9500000"},{"town":"四ッ屋町三丁目","koaza":"","lat":37.934451,"lng":139.04757,"zip":"9500000"},{"town":"米山","koaza":"","lat":37.90729,"lng":139.056015,"zip":"9500916"},{"town":"米山一丁目","koaza":"","lat":37.909077,"lng":139.061178,"zip":"9500916"},{"town":"米山二丁目","koaza":"","lat":37.908314,"lng":139.058239,"zip":"9500916"},{"town":"米山三丁目","koaza":"","lat":37.906768,"lng":139.062107,"zip":"9500916"},{"town":"米山四丁目","koaza":"","lat":37.905966,"lng":139.059165,"zip":"9500916"},{"town":"米山五丁目","koaza":"","lat":37.90513,"lng":139.056142,"zip":"9500916"},{"town":"米山六丁目","koaza":"","lat":37.902711,"lng":139.057135,"zip":"9500916"},{"town":"寄合町","koaza":"","lat":37.932021,"lng":139.051261,"zip":"9518086"},{"town":"寄居町","koaza":"","lat":37.922895,"lng":139.040555,"zip":"9518113"},{"town":"竜が島一丁目","koaza":"","lat":37.934171,"lng":139.067312,"zip":"9500072"},{"town":"竜が島二丁目","koaza":"","lat":37.926121,"lng":139.072454,"zip":"9500072"},{"town":"和合町一丁目","koaza":"","lat":37.89983,"lng":139.052156,"zip":"9500985"},{"town":"和合町二丁目","koaza":"","lat":37.899156,"lng":139.049516,"zip":"9500985"},{"town":"和合町三丁目","koaza":"","lat":37.898545,"lng":139.04731,"zip":"9500985"},{"town":"鳥屋野","koaza":"","lat":37.884466,"lng":139.031999,"zip":"9500951"},{"town":"鳥屋野南三丁目","koaza":"","lat":37.884583,"lng":139.028564,"zip":"9500950"},{"town":"鳥屋野四丁目","koaza":"","lat":37.885575,"lng":139.024047,"zip":"9500951"},{"town":"大島","koaza":"","lat":37.879548,"lng":139.023144,"zip":"9500953"},{"town":"鳥屋野南一丁目","koaza":"","lat":37.882451,"lng":139.022378,"zip":"9500950"},{"town":"鳥屋野南二丁目","koaza":"","lat":37.883385,"lng":139.025187,"zip":"9500950"},{"town":"姥ケ山","koaza":"大日南田","lat":37.881217,"lng":139.079716,"zip":"9500923"}]