[{"town":"茜ケ丘","koaza":"","lat":37.857526,"lng":139.139964,"zip":"9500212"},{"town":"阿賀野一丁目","koaza":"","lat":37.831463,"lng":139.167735,"zip":"9500217"},{"town":"阿賀野二丁目","koaza":"","lat":37.827275,"lng":139.166847,"zip":"9500217"},{"town":"曙町一丁目","koaza":"","lat":37.861324,"lng":139.122152,"zip":"9500134"},{"town":"曙町二丁目","koaza":"","lat":37.859572,"lng":139.119565,"zip":"9500134"},{"town":"曙町三丁目","koaza":"","lat":37.858987,"lng":139.124156,"zip":"9500134"},{"town":"曙町四丁目","koaza":"","lat":37.858557,"lng":139.128201,"zip":"9500134"},{"town":"曙町五丁目","koaza":"","lat":37.858872,"lng":139.130853,"zip":"9500134"},{"town":"旭一丁目","koaza":"","lat":37.877843,"lng":139.10468,"zip":"9500166"},{"town":"旭二丁目","koaza":"","lat":37.876325,"lng":139.104401,"zip":"9500166"},{"town":"旭三丁目","koaza":"","lat":37.87523,"lng":139.101744,"zip":"9500166"},{"town":"旭四丁目","koaza":"","lat":37.877135,"lng":139.10273,"zip":"9500166"},{"town":"天野","koaza":"","lat":37.84708,"lng":139.030048,"zip":"9501134"},{"town":"天野一丁目","koaza":"","lat":37.855461,"lng":139.028155,"zip":"9501134"},{"town":"天野二丁目","koaza":"","lat":37.856292,"lng":139.032417,"zip":"9501134"},{"town":"天野三丁目","koaza":"","lat":37.855672,"lng":139.036246,"zip":"9501134"},{"town":"粟山","koaza":"","lat":37.89191,"lng":139.105314,"zip":"9500843"},{"town":"泉町一丁目","koaza":"","lat":37.866781,"lng":139.095821,"zip":"9500155"},{"town":"泉町二丁目","koaza":"","lat":37.863792,"lng":139.096265,"zip":"9500155"},{"town":"泉町三丁目","koaza":"","lat":37.867583,"lng":139.093045,"zip":"9500155"},{"town":"泉町四丁目","koaza":"","lat":37.866405,"lng":139.093774,"zip":"9500155"},{"town":"泉町五丁目","koaza":"","lat":37.864661,"lng":139.094646,"zip":"9500155"},{"town":"稲葉一丁目","koaza":"","lat":37.875003,"lng":139.11412,"zip":"9500122"},{"town":"稲葉二丁目","koaza":"","lat":37.87308,"lng":139.115019,"zip":"9500122"},{"town":"稲葉三丁目","koaza":"","lat":37.872255,"lng":139.116142,"zip":"9500122"},{"town":"いぶき野一丁目","koaza":"","lat":37.857583,"lng":139.143824,"zip":"9500218"},{"town":"いぶき野二丁目","koaza":"","lat":37.859392,"lng":139.142805,"zip":"9500218"},{"town":"うぐいす一丁目","koaza":"","lat":37.8755,"lng":139.133613,"zip":"9500214"},{"town":"うぐいす二丁目","koaza":"","lat":37.876608,"lng":139.135559,"zip":"9500214"},{"town":"鵜ノ子","koaza":"","lat":37.878117,"lng":139.086827,"zip":"9500157"},{"town":"鵜ノ子一丁目","koaza":"","lat":37.872976,"lng":139.093992,"zip":"9500157"},{"town":"鵜ノ子二丁目","koaza":"","lat":37.872461,"lng":139.092038,"zip":"9500157"},{"town":"鵜ノ子三丁目","koaza":"","lat":37.875497,"lng":139.090885,"zip":"9500157"},{"town":"鵜ノ子四丁目","koaza":"","lat":37.871839,"lng":139.089903,"zip":"9500157"},{"town":"鵜ノ子五丁目","koaza":"","lat":37.871073,"lng":139.087896,"zip":"9500157"},{"town":"姥ケ山","koaza":"","lat":37.879279,"lng":139.075794,"zip":"9500923"},{"town":"梅見台一丁目","koaza":"","lat":37.864174,"lng":139.101869,"zip":"9500140"},{"town":"梅見台二丁目","koaza":"","lat":37.862693,"lng":139.103015,"zip":"9500140"},{"town":"梅見台三丁目","koaza":"","lat":37.86023,"lng":139.106412,"zip":"9500140"},{"town":"江口","koaza":"","lat":37.905484,"lng":139.139783,"zip":"9500101"},{"town":"大渕","koaza":"","lat":37.896939,"lng":139.135219,"zip":"9500105"},{"town":"荻曽根","koaza":"","lat":37.878564,"lng":139.093666,"zip":"9500154"},{"town":"荻曽根一丁目","koaza":"","lat":37.867435,"lng":139.100155,"zip":"9500154"},{"town":"荻曽根二丁目","koaza":"","lat":37.866266,"lng":139.100886,"zip":"9500154"},{"town":"荻曽根三丁目","koaza":"","lat":37.867566,"lng":139.097226,"zip":"9500154"},{"town":"荻曽根四丁目","koaza":"","lat":37.866476,"lng":139.09816,"zip":"9500154"},{"town":"荻曽根五丁目","koaza":"","lat":37.864775,"lng":139.09906,"zip":"9500154"},{"town":"祖父興野","koaza":"","lat":37.867713,"lng":139.028909,"zip":"9501144"},{"town":"嘉木","koaza":"","lat":37.852256,"lng":139.050243,"zip":"9501133"},{"town":"嘉瀬","koaza":"","lat":37.846824,"lng":139.074977,"zip":"9500323"},{"town":"上和田","koaza":"","lat":37.843505,"lng":139.059192,"zip":"9500326"},{"town":"亀田","koaza":"","lat":37.883335,"lng":139.097825,"zip":"9500124"},{"town":"亀田東町一丁目","koaza":"","lat":37.869671,"lng":139.11382,"zip":"9500124"},{"town":"亀田東町二丁目","koaza":"","lat":37.867295,"lng":139.113623,"zip":"9500124"},{"town":"亀田東町三丁目","koaza":"","lat":37.868173,"lng":139.114629,"zip":"9500124"},{"town":"亀田東町四丁目","koaza":"","lat":37.868227,"lng":139.115954,"zip":"9500124"},{"town":"亀田大月一丁目","koaza":"","lat":37.87947,"lng":139.102904,"zip":"9500162"},{"town":"亀田大月二丁目","koaza":"","lat":37.8819,"lng":139.101649,"zip":"9500162"},{"town":"亀田大月三丁目","koaza":"","lat":37.885407,"lng":139.099503,"zip":"9500162"},{"town":"亀田工業団地一丁目","koaza":"","lat":37.871258,"lng":139.083949,"zip":"9500141"},{"town":"亀田工業団地二丁目","koaza":"","lat":37.871374,"lng":139.080168,"zip":"9500141"},{"town":"亀田工業団地三丁目","koaza":"","lat":37.873783,"lng":139.082511,"zip":"9500141"},{"town":"亀田向陽一丁目","koaza":"","lat":37.876815,"lng":139.110644,"zip":"9500121"},{"town":"亀田向陽二丁目","koaza":"","lat":37.877993,"lng":139.113115,"zip":"9500121"},{"town":"亀田向陽三丁目","koaza":"","lat":37.879541,"lng":139.108269,"zip":"9500121"},{"town":"亀田向陽四丁目","koaza":"","lat":37.880549,"lng":139.110307,"zip":"9500121"},{"town":"亀田新明町一丁目","koaza":"","lat":37.868482,"lng":139.111583,"zip":"9500125"},{"town":"亀田新明町二丁目","koaza":"","lat":37.867767,"lng":139.109919,"zip":"9500125"},{"town":"亀田新明町三丁目","koaza":"","lat":37.866819,"lng":139.111668,"zip":"9500125"},{"town":"亀田新明町四丁目","koaza":"","lat":37.865594,"lng":139.11174,"zip":"9500125"},{"town":"亀田新明町五丁目","koaza":"","lat":37.865255,"lng":139.110707,"zip":"9500125"},{"town":"亀田水道町一丁目","koaza":"","lat":37.870682,"lng":139.116374,"zip":"9500123"},{"town":"亀田水道町二丁目","koaza":"","lat":37.869927,"lng":139.117861,"zip":"9500123"},{"town":"亀田水道町三丁目","koaza":"","lat":37.868583,"lng":139.118281,"zip":"9500123"},{"town":"亀田水道町四丁目","koaza":"","lat":37.869333,"lng":139.120468,"zip":"9500123"},{"town":"亀田水道町五丁目","koaza":"","lat":37.867089,"lng":139.119131,"zip":"9500123"},{"town":"亀田中島一丁目","koaza":"","lat":37.880888,"lng":139.104856,"zip":"9500161"},{"town":"亀田中島二丁目","koaza":"","lat":37.8837,"lng":139.103144,"zip":"9500161"},{"town":"亀田中島三丁目","koaza":"","lat":37.886271,"lng":139.101572,"zip":"9500161"},{"town":"亀田中島四丁目","koaza":"","lat":37.888781,"lng":139.100446,"zip":"9500161"},{"town":"亀田長潟","koaza":"","lat":37.872814,"lng":139.066571,"zip":"9500169"},{"town":"亀田ノ内高山","koaza":"","lat":37.879682,"lng":139.100705,"zip":"9500000"},{"town":"亀田早通","koaza":"","lat":37.862191,"lng":139.079666,"zip":"9500145"},{"town":"亀田本町一丁目","koaza":"","lat":37.872851,"lng":139.107424,"zip":"9500164"},{"town":"亀田本町二丁目","koaza":"","lat":37.870745,"lng":139.108376,"zip":"9500164"},{"town":"亀田本町三丁目","koaza":"","lat":37.868442,"lng":139.107523,"zip":"9500164"},{"town":"亀田本町四丁目","koaza":"","lat":37.867407,"lng":139.108509,"zip":"9500164"},{"town":"亀田緑町一丁目","koaza":"","lat":37.87264,"lng":139.10134,"zip":"9500152"},{"town":"亀田緑町二丁目","koaza":"","lat":37.870982,"lng":139.102672,"zip":"9500152"},{"town":"亀田緑町三丁目","koaza":"","lat":37.872401,"lng":139.100003,"zip":"9500152"},{"town":"亀田緑町四丁目","koaza":"","lat":37.869949,"lng":139.101383,"zip":"9500152"},{"town":"亀田四ツ興野一丁目","koaza":"","lat":37.87246,"lng":139.09769,"zip":"9500151"},{"town":"亀田四ツ興野二丁目","koaza":"","lat":37.870836,"lng":139.096064,"zip":"9500151"},{"town":"亀田四ツ興野三丁目","koaza":"","lat":37.870998,"lng":139.098453,"zip":"9500151"},{"town":"亀田四ツ興野四丁目","koaza":"","lat":37.869559,"lng":139.099286,"zip":"9500151"},{"town":"亀田四ツ興野五丁目","koaza":"","lat":37.868718,"lng":139.096784,"zip":"9500151"},{"town":"北山","koaza":"","lat":37.880715,"lng":139.114306,"zip":"9500116"},{"town":"木津","koaza":"","lat":37.840163,"lng":139.144519,"zip":"9500206"},{"town":"木津一丁目","koaza":"","lat":37.835427,"lng":139.13714,"zip":"9500206"},{"town":"木津二丁目","koaza":"","lat":37.836589,"lng":139.133096,"zip":"9500206"},{"town":"木津三丁目","koaza":"","lat":37.838078,"lng":139.13061,"zip":"9500206"},{"town":"木津四丁目","koaza":"","lat":37.837876,"lng":139.125822,"zip":"9500206"},{"town":"木津五丁目","koaza":"","lat":37.837026,"lng":139.122078,"zip":"9500206"},{"town":"木津工業団地","koaza":"","lat":37.840303,"lng":139.130754,"zip":"9500213"},{"town":"久蔵興野","koaza":"","lat":37.872491,"lng":139.031251,"zip":"9501145"},{"town":"蔵岡","koaza":"","lat":37.884944,"lng":139.155249,"zip":"9500103"},{"town":"小杉","koaza":"","lat":37.873032,"lng":139.150953,"zip":"9500203"},{"town":"小杉一丁目","koaza":"","lat":37.868411,"lng":139.161256,"zip":"9500203"},{"town":"小杉二丁目","koaza":"","lat":37.870618,"lng":139.161592,"zip":"9500203"},{"town":"小杉三丁目","koaza":"","lat":37.873956,"lng":139.161015,"zip":"9500203"},{"town":"小杉四丁目","koaza":"","lat":37.877058,"lng":139.158342,"zip":"9500203"},{"town":"小杉五丁目","koaza":"","lat":37.880905,"lng":139.156717,"zip":"9500203"},{"town":"駒込","koaza":"","lat":37.869472,"lng":139.135882,"zip":"9500201"},{"town":"駒込一丁目","koaza":"","lat":37.873211,"lng":139.132652,"zip":"9500201"},{"town":"駒込二丁目","koaza":"","lat":37.873615,"lng":139.13514,"zip":"9500201"},{"town":"酒屋町","koaza":"","lat":37.842239,"lng":139.065753,"zip":"9500324"},{"town":"笹山","koaza":"","lat":37.880578,"lng":139.150841,"zip":"9500104"},{"town":"五月町一丁目","koaza":"","lat":37.875381,"lng":139.099422,"zip":"9500167"},{"town":"五月町二丁目","koaza":"","lat":37.87423,"lng":139.097072,"zip":"9500167"},{"town":"五月町三丁目","koaza":"","lat":37.873474,"lng":139.095036,"zip":"9500167"},{"town":"早苗一丁目","koaza":"","lat":37.870465,"lng":139.094743,"zip":"9500156"},{"town":"早苗二丁目","koaza":"","lat":37.870404,"lng":139.092051,"zip":"9500156"},{"town":"早苗三丁目","koaza":"","lat":37.868953,"lng":139.09267,"zip":"9500156"},{"town":"早苗四丁目","koaza":"","lat":37.868591,"lng":139.08966,"zip":"9500156"},{"town":"三條岡一丁目","koaza":"","lat":37.8704,"lng":139.123093,"zip":"9500129"},{"town":"三條岡二丁目","koaza":"","lat":37.869132,"lng":139.123696,"zip":"9500129"},{"town":"三百地","koaza":"","lat":37.898872,"lng":139.145117,"zip":"9500107"},{"town":"下早通一丁目","koaza":"","lat":37.868082,"lng":139.077471,"zip":"9500149"},{"town":"下早通二丁目","koaza":"","lat":37.871634,"lng":139.074445,"zip":"9500149"},{"town":"下早通柳田一丁目","koaza":"","lat":37.876559,"lng":139.080957,"zip":"9500150"},{"town":"下早通柳田二丁目","koaza":"","lat":37.875539,"lng":139.077832,"zip":"9500150"},{"town":"鐘木","koaza":"","lat":37.871464,"lng":139.048146,"zip":"9501141"},{"town":"城所","koaza":"","lat":37.855143,"lng":139.117513,"zip":"9500136"},{"town":"城所一丁目","koaza":"","lat":37.860057,"lng":139.108509,"zip":"9500136"},{"town":"城所二丁目","koaza":"","lat":37.862252,"lng":139.105674,"zip":"9500136"},{"town":"城山一丁目","koaza":"","lat":37.863435,"lng":139.111055,"zip":"9500137"},{"town":"城山二丁目","koaza":"","lat":37.860891,"lng":139.110633,"zip":"9500137"},{"town":"城山三丁目","koaza":"","lat":37.85923,"lng":139.11093,"zip":"9500137"},{"town":"城山四丁目","koaza":"","lat":37.859911,"lng":139.114497,"zip":"9500137"},{"town":"砂岡一丁目","koaza":"","lat":37.866763,"lng":139.121297,"zip":"9500132"},{"town":"砂岡二丁目","koaza":"","lat":37.865815,"lng":139.122855,"zip":"9500132"},{"town":"砂岡三丁目","koaza":"","lat":37.863158,"lng":139.122602,"zip":"9500132"},{"town":"砂岡四丁目","koaza":"","lat":37.864601,"lng":139.124301,"zip":"9500132"},{"town":"砂岡五丁目","koaza":"","lat":37.862249,"lng":139.12596,"zip":"9500132"},{"town":"砂崩","koaza":"","lat":37.867232,"lng":139.131224,"zip":"9500133"},{"town":"砂山一丁目","koaza":"","lat":37.868716,"lng":139.126647,"zip":"9500130"},{"town":"砂山二丁目","koaza":"","lat":37.870505,"lng":139.129599,"zip":"9500130"},{"town":"諏訪一丁目","koaza":"","lat":37.874186,"lng":139.111623,"zip":"9500127"},{"town":"諏訪二丁目","koaza":"","lat":37.872598,"lng":139.112239,"zip":"9500127"},{"town":"諏訪三丁目","koaza":"","lat":37.870795,"lng":139.113308,"zip":"9500127"},{"town":"清五郎","koaza":"","lat":37.875247,"lng":139.062192,"zip":"9500933"},{"town":"沢海","koaza":"","lat":37.829696,"lng":139.160906,"zip":"9500205"},{"town":"沢海一丁目","koaza":"","lat":37.835552,"lng":139.149382,"zip":"9500205"},{"town":"沢海二丁目","koaza":"","lat":37.831215,"lng":139.152866,"zip":"9500205"},{"town":"沢海三丁目","koaza":"","lat":37.826434,"lng":139.153348,"zip":"9500205"},{"town":"楚川","koaza":"","lat":37.860938,"lng":139.03321,"zip":"9501142"},{"town":"曽川","koaza":"","lat":37.862404,"lng":139.048348,"zip":"9501136"},{"town":"曽野木一丁目","koaza":"","lat":37.86567,"lng":139.040962,"zip":"9501135"},{"town":"曽野木二丁目","koaza":"","lat":37.862159,"lng":139.038834,"zip":"9501135"},{"town":"太右エ門新田","koaza":"","lat":37.875507,"lng":139.030437,"zip":"9501146"},{"town":"俵柳","koaza":"","lat":37.862056,"lng":139.026933,"zip":"9501143"},{"town":"茅野山","koaza":"","lat":37.854878,"lng":139.106066,"zip":"9500144"},{"town":"茅野山一丁目","koaza":"","lat":37.854932,"lng":139.101037,"zip":"9500144"},{"town":"茅野山二丁目","koaza":"","lat":37.85364,"lng":139.097207,"zip":"9500144"},{"town":"茅野山三丁目","koaza":"","lat":37.856553,"lng":139.098805,"zip":"9500144"},{"town":"手代山一丁目","koaza":"","lat":37.861942,"lng":139.101762,"zip":"9500139"},{"town":"手代山二丁目","koaza":"","lat":37.862097,"lng":139.10035,"zip":"9500139"},{"town":"所島一丁目","koaza":"","lat":37.862117,"lng":139.113959,"zip":"9500135"},{"town":"所島二丁目","koaza":"","lat":37.861429,"lng":139.117379,"zip":"9500135"},{"town":"泥潟","koaza":"","lat":37.863932,"lng":139.091932,"zip":"9500142"},{"town":"直り山","koaza":"","lat":37.889593,"lng":139.138227,"zip":"9500111"},{"town":"長潟","koaza":"","lat":37.876881,"lng":139.068328,"zip":"9500147"},{"town":"長潟一丁目","koaza":"","lat":37.870534,"lng":139.068795,"zip":"9500147"},{"town":"中野山","koaza":"","lat":37.894065,"lng":139.109288,"zip":"9500841"},{"town":"鍋潟新田","koaza":"","lat":37.869935,"lng":139.060228,"zip":"9501131"},{"town":"西野","koaza":"","lat":37.898053,"lng":139.121441,"zip":"9500106"},{"town":"西町一丁目","koaza":"","lat":37.874998,"lng":139.106672,"zip":"9500165"},{"town":"西町二丁目","koaza":"","lat":37.874972,"lng":139.105115,"zip":"9500165"},{"town":"西町三丁目","koaza":"","lat":37.873871,"lng":139.101743,"zip":"9500165"},{"town":"西町四丁目","koaza":"","lat":37.873748,"lng":139.105494,"zip":"9500165"},{"town":"西町五丁目","koaza":"","lat":37.872993,"lng":139.103298,"zip":"9500165"},{"town":"西町六丁目","koaza":"","lat":37.872174,"lng":139.104982,"zip":"9500165"},{"town":"西山","koaza":"","lat":37.885462,"lng":139.13532,"zip":"9500113"},{"town":"二本木","koaza":"","lat":37.846102,"lng":139.119838,"zip":"9500207"},{"town":"二本木一丁目","koaza":"","lat":37.840426,"lng":139.121284,"zip":"9500207"},{"town":"二本木二丁目","koaza":"","lat":37.843392,"lng":139.11315,"zip":"9500207"},{"town":"二本木三丁目","koaza":"","lat":37.84557,"lng":139.114856,"zip":"9500207"},{"town":"二本木四丁目","koaza":"","lat":37.848243,"lng":139.112615,"zip":"9500207"},{"town":"二本木五丁目","koaza":"","lat":37.844591,"lng":139.108649,"zip":"9500207"},{"town":"花ノ牧","koaza":"","lat":37.839239,"lng":139.062083,"zip":"9500325"},{"town":"早通一丁目","koaza":"","lat":37.862565,"lng":139.089179,"zip":"9500168"},{"town":"早通二丁目","koaza":"","lat":37.86423,"lng":139.08797,"zip":"9500168"},{"town":"早通三丁目","koaza":"","lat":37.853192,"lng":139.086935,"zip":"9500168"},{"town":"早通四丁目","koaza":"","lat":37.858617,"lng":139.086709,"zip":"9500168"},{"town":"早通五丁目","koaza":"","lat":37.861919,"lng":139.08541,"zip":"9500168"},{"town":"早通六丁目","koaza":"","lat":37.864481,"lng":139.080414,"zip":"9500168"},{"town":"東早通一丁目","koaza":"","lat":37.868023,"lng":139.085829,"zip":"9500148"},{"town":"東早通二丁目","koaza":"","lat":37.869327,"lng":139.085167,"zip":"9500148"},{"town":"東早通三丁目","koaza":"","lat":37.866905,"lng":139.082711,"zip":"9500148"},{"town":"東早通四丁目","koaza":"","lat":37.868216,"lng":139.081969,"zip":"9500148"},{"town":"東船場一丁目","koaza":"","lat":37.876058,"lng":139.108216,"zip":"9500163"},{"town":"東船場二丁目","koaza":"","lat":37.87548,"lng":139.107309,"zip":"9500163"},{"town":"東船場三丁目","koaza":"","lat":37.877831,"lng":139.107105,"zip":"9500163"},{"town":"東船場四丁目","koaza":"","lat":37.877905,"lng":139.105579,"zip":"9500163"},{"town":"東船場五丁目","koaza":"","lat":37.879475,"lng":139.106024,"zip":"9500163"},{"town":"東本町一丁目","koaza":"","lat":37.873761,"lng":139.1097,"zip":"9500126"},{"town":"東本町二丁目","koaza":"","lat":37.87349,"lng":139.108773,"zip":"9500126"},{"town":"東本町三丁目","koaza":"","lat":37.871982,"lng":139.109713,"zip":"9500126"},{"town":"東本町四丁目","koaza":"","lat":37.871257,"lng":139.110421,"zip":"9500126"},{"town":"東本町五丁目","koaza":"","lat":37.869691,"lng":139.110721,"zip":"9500126"},{"town":"日水一丁目","koaza":"","lat":37.858533,"lng":139.10725,"zip":"9500138"},{"town":"日水二丁目","koaza":"","lat":37.857573,"lng":139.105178,"zip":"9500138"},{"town":"日水三丁目","koaza":"","lat":37.857044,"lng":139.108264,"zip":"9500138"},{"town":"平賀","koaza":"","lat":37.845478,"lng":139.042237,"zip":"9500329"},{"town":"平山","koaza":"","lat":37.880548,"lng":139.146148,"zip":"9500215"},{"town":"袋津","koaza":"","lat":37.863332,"lng":139.129762,"zip":"9500131"},{"town":"袋津一丁目","koaza":"","lat":37.865566,"lng":139.114077,"zip":"9500131"},{"town":"袋津二丁目","koaza":"","lat":37.866269,"lng":139.116437,"zip":"9500131"},{"town":"袋津三丁目","koaza":"","lat":37.865183,"lng":139.117317,"zip":"9500131"},{"town":"袋津四丁目","koaza":"","lat":37.864079,"lng":139.11429,"zip":"9500131"},{"town":"袋津五丁目","koaza":"","lat":37.86358,"lng":139.117611,"zip":"9500131"},{"town":"袋津六丁目","koaza":"","lat":37.863505,"lng":139.1203,"zip":"9500131"},{"town":"藤山","koaza":"","lat":37.871406,"lng":139.14065,"zip":"9500202"},{"town":"藤山一丁目","koaza":"","lat":37.876366,"lng":139.138836,"zip":"9500202"},{"town":"藤山二丁目","koaza":"","lat":37.876893,"lng":139.141005,"zip":"9500202"},{"town":"船戸山","koaza":"","lat":37.878581,"lng":139.098412,"zip":"9500153"},{"town":"船戸山一丁目","koaza":"","lat":37.870691,"lng":139.105909,"zip":"9500153"},{"town":"船戸山二丁目","koaza":"","lat":37.869727,"lng":139.106667,"zip":"9500153"},{"town":"船戸山三丁目","koaza":"","lat":37.86934,"lng":139.103482,"zip":"9500153"},{"town":"船戸山四丁目","koaza":"","lat":37.867556,"lng":139.105962,"zip":"9500153"},{"town":"船戸山五丁目","koaza":"","lat":37.867734,"lng":139.103194,"zip":"9500153"},{"town":"細山","koaza":"","lat":37.889515,"lng":139.151516,"zip":"9500102"},{"town":"舞潟","koaza":"","lat":37.839803,"lng":139.041623,"zip":"9500328"},{"town":"松山","koaza":"","lat":37.884469,"lng":139.14571,"zip":"9500112"},{"town":"丸潟","koaza":"","lat":37.860505,"lng":139.075071,"zip":"9500146"},{"town":"丸潟一丁目","koaza":"","lat":37.86123,"lng":139.07009,"zip":"9500146"},{"town":"丸潟新田","koaza":"","lat":37.859149,"lng":139.058087,"zip":"9501132"},{"town":"丸山","koaza":"","lat":37.882188,"lng":139.118102,"zip":"9500115"},{"town":"丸山ノ内善之丞組","koaza":"","lat":37.88125,"lng":139.125034,"zip":"9500000"},{"town":"茗荷谷","koaza":"","lat":37.88451,"lng":139.128127,"zip":"9500114"},{"town":"元町一丁目","koaza":"","lat":37.864471,"lng":139.109545,"zip":"9500143"},{"town":"元町二丁目","koaza":"","lat":37.864516,"lng":139.107774,"zip":"9500143"},{"town":"元町三丁目","koaza":"","lat":37.865566,"lng":139.105579,"zip":"9500143"},{"town":"元町四丁目","koaza":"","lat":37.866073,"lng":139.102907,"zip":"9500143"},{"town":"元町五丁目","koaza":"","lat":37.863504,"lng":139.104375,"zip":"9500143"},{"town":"山二ツ","koaza":"","lat":37.886514,"lng":139.094352,"zip":"9500922"},{"town":"横越","koaza":"","lat":37.86221,"lng":139.146517,"zip":"9500204"},{"town":"横越上町一丁目","koaza":"","lat":37.850951,"lng":139.146476,"zip":"9500210"},{"town":"横越上町二丁目","koaza":"","lat":37.848919,"lng":139.148604,"zip":"9500210"},{"town":"横越上町三丁目","koaza":"","lat":37.844672,"lng":139.14659,"zip":"9500210"},{"town":"横越上町四丁目","koaza":"","lat":37.845642,"lng":139.144625,"zip":"9500210"},{"town":"横越上町五丁目","koaza":"","lat":37.848597,"lng":139.144893,"zip":"9500210"},{"town":"横越川根町一丁目","koaza":"","lat":37.854537,"lng":139.142512,"zip":"9500211"},{"town":"横越川根町二丁目","koaza":"","lat":37.854068,"lng":139.13763,"zip":"9500211"},{"town":"横越川根町三丁目","koaza":"","lat":37.85711,"lng":139.137184,"zip":"9500211"},{"town":"横越川根町四丁目","koaza":"","lat":37.857359,"lng":139.134029,"zip":"9500211"},{"town":"横越川根町五丁目","koaza":"","lat":37.860216,"lng":139.134443,"zip":"9500211"},{"town":"横越中央一丁目","koaza":"","lat":37.855805,"lng":139.144064,"zip":"9500208"},{"town":"横越中央二丁目","koaza":"","lat":37.856081,"lng":139.147874,"zip":"9500208"},{"town":"横越中央三丁目","koaza":"","lat":37.85513,"lng":139.150892,"zip":"9500208"},{"town":"横越中央四丁目","koaza":"","lat":37.854353,"lng":139.152996,"zip":"9500208"},{"town":"横越中央五丁目","koaza":"","lat":37.851457,"lng":139.151188,"zip":"9500208"},{"town":"横越中央六丁目","koaza":"","lat":37.852795,"lng":139.148319,"zip":"9500208"},{"town":"横越中央七丁目","koaza":"","lat":37.853406,"lng":139.145139,"zip":"9500208"},{"town":"横越中央八丁目","koaza":"","lat":37.851292,"lng":139.142705,"zip":"9500208"},{"town":"横越東町一丁目","koaza":"","lat":37.855668,"lng":139.156217,"zip":"9500209"},{"town":"横越東町二丁目","koaza":"","lat":37.859707,"lng":139.158892,"zip":"9500209"},{"town":"両川一丁目","koaza":"","lat":37.845985,"lng":139.084154,"zip":"9500322"},{"town":"両川二丁目","koaza":"","lat":37.848473,"lng":139.083615,"zip":"9500322"},{"town":"和田","koaza":"","lat":37.845098,"lng":139.053559,"zip":"9500327"},{"town":"割野","koaza":"","lat":37.84774,"lng":139.094506,"zip":"9500321"}]