[{"town":"青山","koaza":"","lat":37.901984,"lng":138.992411,"zip":"9502002"},{"town":"青山一丁目","koaza":"","lat":37.894505,"lng":139.001105,"zip":"9502002"},{"town":"青山二丁目","koaza":"","lat":37.897927,"lng":139.007013,"zip":"9502002"},{"town":"青山三丁目","koaza":"","lat":37.899333,"lng":139.005411,"zip":"9502002"},{"town":"青山四丁目","koaza":"","lat":37.897357,"lng":138.997688,"zip":"9502002"},{"town":"青山五丁目","koaza":"","lat":37.899889,"lng":138.998497,"zip":"9502002"},{"town":"青山六丁目","koaza":"","lat":37.901418,"lng":138.997393,"zip":"9502002"},{"town":"青山七丁目","koaza":"","lat":37.899067,"lng":138.993579,"zip":"9502002"},{"town":"青山八丁目","koaza":"","lat":37.897731,"lng":138.995228,"zip":"9502002"},{"town":"青山新町","koaza":"","lat":37.8958,"lng":138.998603,"zip":"9502006"},{"town":"青山水道","koaza":"","lat":37.892335,"lng":138.996089,"zip":"9502005"},{"town":"赤塚","koaza":"","lat":37.818513,"lng":138.880132,"zip":"9502261"},{"town":"有明町","koaza":"","lat":37.894864,"lng":138.985286,"zip":"9502073"},{"town":"五十嵐一の町","koaza":"","lat":37.876671,"lng":138.949672,"zip":"9502101"},{"town":"五十嵐二の町","koaza":"","lat":37.869439,"lng":138.936116,"zip":"9502102"},{"town":"五十嵐三の町","koaza":"","lat":37.86051,"lng":138.915256,"zip":"9502171"},{"town":"五十嵐三の町北","koaza":"","lat":37.862519,"lng":138.92496,"zip":"9502176"},{"town":"五十嵐三の町中","koaza":"","lat":37.859566,"lng":138.924853,"zip":"9502177"},{"town":"五十嵐三の町西","koaza":"","lat":37.855961,"lng":138.92461,"zip":"9502174"},{"town":"五十嵐三の町東","koaza":"","lat":37.860584,"lng":138.929497,"zip":"9502173"},{"town":"五十嵐三の町南","koaza":"","lat":37.857892,"lng":138.930926,"zip":"9502175"},{"town":"五十嵐上崎山","koaza":"","lat":37.845061,"lng":138.921986,"zip":"9502155"},{"town":"五十嵐中島一丁目","koaza":"","lat":37.855373,"lng":138.927541,"zip":"9502162"},{"town":"五十嵐中島二丁目","koaza":"","lat":37.852772,"lng":138.92484,"zip":"9502162"},{"town":"五十嵐中島三丁目","koaza":"","lat":37.851237,"lng":138.922366,"zip":"9502162"},{"town":"五十嵐中島四丁目","koaza":"","lat":37.850065,"lng":138.919592,"zip":"9502162"},{"town":"五十嵐中島五丁目","koaza":"","lat":37.848746,"lng":138.916228,"zip":"9502162"},{"town":"五十嵐西","koaza":"","lat":37.852997,"lng":138.917808,"zip":"9502161"},{"town":"五十嵐東一丁目","koaza":"","lat":37.874556,"lng":138.958318,"zip":"9502045"},{"town":"五十嵐東二丁目","koaza":"","lat":37.878369,"lng":138.959053,"zip":"9502045"},{"town":"五十嵐東三丁目","koaza":"","lat":37.877821,"lng":138.956587,"zip":"9502045"},{"town":"板井","koaza":"","lat":37.816883,"lng":138.989456,"zip":"9501121"},{"town":"内野潟端","koaza":"","lat":37.84838,"lng":138.931966,"zip":"9502141"},{"town":"内野潟向","koaza":"","lat":37.839103,"lng":138.923277,"zip":"9502154"},{"town":"内野上新町","koaza":"","lat":37.851861,"lng":138.904392,"zip":"9502172"},{"town":"内野崎山","koaza":"","lat":37.8437,"lng":138.926121,"zip":"9502153"},{"town":"内野関場","koaza":"","lat":37.845271,"lng":138.9182,"zip":"9502156"},{"town":"内野戸中才","koaza":"","lat":37.850724,"lng":138.938568,"zip":"9502142"},{"town":"内野西一丁目","koaza":"","lat":37.854685,"lng":138.930697,"zip":"9502151"},{"town":"内野西二丁目","koaza":"","lat":37.852432,"lng":138.933669,"zip":"9502151"},{"town":"内野西三丁目","koaza":"","lat":37.851219,"lng":138.927573,"zip":"9502151"},{"town":"内野早角","koaza":"","lat":37.84759,"lng":138.941954,"zip":"9502143"},{"town":"内野町","koaza":"","lat":37.858873,"lng":138.940292,"zip":"9502112"},{"town":"内野山手一丁目","koaza":"","lat":37.861077,"lng":138.937985,"zip":"9502113"},{"town":"内野山手二丁目","koaza":"","lat":37.859135,"lng":138.935257,"zip":"9502113"},{"town":"浦山一丁目","koaza":"","lat":37.900292,"lng":139.00511,"zip":"9502001"},{"town":"浦山二丁目","koaza":"","lat":37.902236,"lng":139.004847,"zip":"9502001"},{"town":"浦山三丁目","koaza":"","lat":37.903668,"lng":139.001015,"zip":"9502001"},{"town":"浦山四丁目","koaza":"","lat":37.901305,"lng":139.001257,"zip":"9502001"},{"town":"大潟","koaza":"","lat":37.836651,"lng":138.960953,"zip":"9501127"},{"town":"大友","koaza":"","lat":37.826473,"lng":138.94301,"zip":"9502126"},{"town":"大野","koaza":"","lat":37.863964,"lng":138.952647,"zip":"9502037"},{"town":"大野町","koaza":"","lat":37.84809,"lng":139.016867,"zip":"9501111"},{"town":"緒立流通一丁目","koaza":"","lat":37.860131,"lng":138.988163,"zip":"9501124"},{"town":"緒立流通二丁目","koaza":"","lat":37.858311,"lng":138.986708,"zip":"9501124"},{"town":"小見郷屋","koaza":"","lat":37.81722,"lng":138.913411,"zip":"9502137"},{"town":"笠木","koaza":"","lat":37.838518,"lng":138.947715,"zip":"9502123"},{"town":"金巻","koaza":"","lat":37.840265,"lng":139.001106,"zip":"9501112"},{"town":"金巻新田","koaza":"","lat":37.832246,"lng":138.928091,"zip":"9502146"},{"town":"上新栄町","koaza":"","lat":37.890742,"lng":138.970762,"zip":"9502076"},{"town":"上新栄町一丁目","koaza":"","lat":37.888233,"lng":138.972035,"zip":"9502076"},{"town":"上新栄町二丁目","koaza":"","lat":37.887567,"lng":138.967682,"zip":"9502076"},{"town":"上新栄町三丁目","koaza":"","lat":37.886007,"lng":138.968562,"zip":"9502076"},{"town":"上新栄町四丁目","koaza":"","lat":37.882538,"lng":138.967723,"zip":"9502076"},{"town":"上新栄町五丁目","koaza":"","lat":37.884192,"lng":138.962735,"zip":"9502076"},{"town":"上新栄町六丁目","koaza":"","lat":37.88214,"lng":138.96008,"zip":"9502076"},{"town":"神山","koaza":"","lat":37.826428,"lng":138.883861,"zip":"9502255"},{"town":"亀貝","koaza":"","lat":37.870164,"lng":138.982672,"zip":"9502033"},{"town":"勘助郷屋","koaza":"","lat":37.807778,"lng":138.908778,"zip":"9502136"},{"town":"北場","koaza":"","lat":37.859479,"lng":138.991264,"zip":"9501126"},{"town":"木場","koaza":"","lat":37.827964,"lng":138.9801,"zip":"9501122"},{"town":"木山","koaza":"","lat":37.830232,"lng":138.891463,"zip":"9502253"},{"town":"黒鳥","koaza":"","lat":37.850527,"lng":138.980389,"zip":"9501123"},{"town":"小新","koaza":"","lat":37.873139,"lng":138.999183,"zip":"9502023"},{"town":"小新一丁目","koaza":"","lat":37.888943,"lng":139.009758,"zip":"9502023"},{"town":"小新二丁目","koaza":"","lat":37.886078,"lng":139.008545,"zip":"9502023"},{"town":"小新三丁目","koaza":"","lat":37.88368,"lng":139.006264,"zip":"9502023"},{"town":"小新四丁目","koaza":"","lat":37.882673,"lng":139.003859,"zip":"9502023"},{"town":"小新大通一丁目","koaza":"","lat":37.869109,"lng":138.998738,"zip":"9502027"},{"town":"小新大通二丁目","koaza":"","lat":37.869452,"lng":138.996348,"zip":"9502027"},{"town":"小新五丁目","koaza":"","lat":37.88016,"lng":139.002383,"zip":"9502023"},{"town":"小新西一丁目","koaza":"","lat":37.876576,"lng":138.99575,"zip":"9502024"},{"town":"小新西二丁目","koaza":"","lat":37.874691,"lng":138.994058,"zip":"9502024"},{"town":"小新西三丁目","koaza":"","lat":37.874388,"lng":138.991947,"zip":"9502024"},{"town":"小新南一丁目","koaza":"","lat":37.870618,"lng":138.992614,"zip":"9502028"},{"town":"小新南二丁目","koaza":"","lat":37.868015,"lng":138.992591,"zip":"9502028"},{"town":"小瀬","koaza":"","lat":37.824342,"lng":138.926857,"zip":"9502132"},{"town":"小針一丁目","koaza":"","lat":37.887721,"lng":139.004707,"zip":"9502022"},{"town":"小針二丁目","koaza":"","lat":37.889792,"lng":138.99848,"zip":"9502022"},{"town":"小針三丁目","koaza":"","lat":37.886814,"lng":138.999639,"zip":"9502022"},{"town":"小針四丁目","koaza":"","lat":37.884396,"lng":138.996333,"zip":"9502022"},{"town":"小針五丁目","koaza":"","lat":37.886874,"lng":138.993623,"zip":"9502022"},{"town":"小針六丁目","koaza":"","lat":37.882684,"lng":138.992045,"zip":"9502022"},{"town":"小針七丁目","koaza":"","lat":37.880455,"lng":138.990264,"zip":"9502022"},{"town":"小針八丁目","koaza":"","lat":37.88007,"lng":138.988351,"zip":"9502022"},{"town":"小針が丘","koaza":"","lat":37.889422,"lng":138.98976,"zip":"9502013"},{"town":"小針上山","koaza":"","lat":37.89321,"lng":138.993471,"zip":"9502011"},{"town":"小針台","koaza":"","lat":37.89206,"lng":138.988275,"zip":"9502012"},{"town":"小針西一丁目","koaza":"","lat":37.886782,"lng":138.98649,"zip":"9502014"},{"town":"小針西二丁目","koaza":"","lat":37.88763,"lng":138.984609,"zip":"9502014"},{"town":"小針藤山","koaza":"","lat":37.890453,"lng":138.994205,"zip":"9502021"},{"town":"小針南","koaza":"","lat":37.883562,"lng":138.987879,"zip":"9502025"},{"town":"小針南台","koaza":"","lat":37.888551,"lng":138.992219,"zip":"9502026"},{"town":"小平方","koaza":"","lat":37.845887,"lng":138.994577,"zip":"9501114"},{"town":"坂井","koaza":"","lat":37.865737,"lng":138.955564,"zip":"9502042"},{"town":"坂井一丁目","koaza":"","lat":37.873705,"lng":138.982195,"zip":"9502042"},{"town":"坂井二丁目","koaza":"","lat":37.86775,"lng":138.975336,"zip":"9502042"},{"town":"坂井三丁目","koaza":"","lat":37.867878,"lng":138.968269,"zip":"9502042"},{"town":"坂井砂山一丁目","koaza":"","lat":37.871187,"lng":138.960946,"zip":"9502044"},{"town":"坂井砂山二丁目","koaza":"","lat":37.873245,"lng":138.960303,"zip":"9502044"},{"town":"坂井砂山三丁目","koaza":"","lat":37.870537,"lng":138.955431,"zip":"9502044"},{"town":"坂井砂山四丁目","koaza":"","lat":37.869028,"lng":138.956467,"zip":"9502044"},{"town":"坂井東一丁目","koaza":"","lat":37.879591,"lng":138.985713,"zip":"9502041"},{"town":"坂井東二丁目","koaza":"","lat":37.875791,"lng":138.981108,"zip":"9502041"},{"town":"坂井東三丁目","koaza":"","lat":37.872637,"lng":138.977788,"zip":"9502041"},{"town":"坂井東四丁目","koaza":"","lat":37.869804,"lng":138.974776,"zip":"9502041"},{"town":"坂井東五丁目","koaza":"","lat":37.869185,"lng":138.971136,"zip":"9502041"},{"town":"坂井東六丁目","koaza":"","lat":37.870774,"lng":138.966294,"zip":"9502041"},{"town":"坂田","koaza":"","lat":37.80947,"lng":138.884437,"zip":"9502263"},{"town":"新田","koaza":"","lat":37.845031,"lng":138.960159,"zip":"9502034"},{"town":"新通","koaza":"","lat":37.856334,"lng":138.964217,"zip":"9502035"},{"town":"新通西一丁目","koaza":"","lat":37.863723,"lng":138.950381,"zip":"9502036"},{"town":"新通西二丁目","koaza":"","lat":37.86224,"lng":138.948305,"zip":"9502036"},{"town":"新通南一丁目","koaza":"","lat":37.862809,"lng":138.961631,"zip":"9502038"},{"town":"新通南二丁目","koaza":"","lat":37.860362,"lng":138.960238,"zip":"9502038"},{"town":"新通南三丁目","koaza":"","lat":37.858115,"lng":138.956313,"zip":"9502038"},{"town":"新中浜一丁目","koaza":"","lat":37.846749,"lng":138.913453,"zip":"9502163"},{"town":"新中浜二丁目","koaza":"","lat":37.847966,"lng":138.912518,"zip":"9502163"},{"town":"新中浜三丁目","koaza":"","lat":37.846632,"lng":138.90998,"zip":"9502163"},{"town":"新中浜四丁目","koaza":"","lat":37.845431,"lng":138.910752,"zip":"9502163"},{"town":"新中浜五丁目","koaza":"","lat":37.84435,"lng":138.908383,"zip":"9502163"},{"town":"新中浜六丁目","koaza":"","lat":37.845336,"lng":138.907592,"zip":"9502163"},{"town":"須賀","koaza":"","lat":37.865945,"lng":138.971763,"zip":"9502043"},{"town":"関屋","koaza":"","lat":37.908023,"lng":139.00133,"zip":"9518134"},{"town":"関屋堀割町","koaza":"","lat":37.905614,"lng":139.003959,"zip":"9518155"},{"town":"善久","koaza":"","lat":37.859623,"lng":139.017772,"zip":"9501102"},{"town":"曽和","koaza":"","lat":37.843509,"lng":138.937376,"zip":"9502144"},{"town":"大学南一丁目","koaza":"","lat":37.867659,"lng":138.94962,"zip":"9502111"},{"town":"大学南二丁目","koaza":"","lat":37.864057,"lng":138.942401,"zip":"9502111"},{"town":"田潟","koaza":"","lat":37.829003,"lng":138.955768,"zip":"9502124"},{"town":"高山","koaza":"","lat":37.849705,"lng":138.94551,"zip":"9502122"},{"town":"田島","koaza":"","lat":37.838691,"lng":138.930563,"zip":"9502145"},{"town":"立仏","koaza":"","lat":37.868226,"lng":139.007224,"zip":"9501103"},{"town":"中権寺","koaza":"","lat":37.84151,"lng":138.911301,"zip":"9502251"},{"town":"寺尾","koaza":"","lat":37.88044,"lng":138.978268,"zip":"9502052"},{"town":"寺尾朝日通","koaza":"","lat":37.884853,"lng":138.98646,"zip":"9502051"},{"town":"寺尾上一丁目","koaza":"","lat":37.879513,"lng":138.972699,"zip":"9502055"},{"town":"寺尾上二丁目","koaza":"","lat":37.877421,"lng":138.972679,"zip":"9502055"},{"town":"寺尾上三丁目","koaza":"","lat":37.875216,"lng":138.969931,"zip":"9502055"},{"town":"寺尾上四丁目","koaza":"","lat":37.876852,"lng":138.968385,"zip":"9502055"},{"town":"寺尾上五丁目","koaza":"","lat":37.874836,"lng":138.964634,"zip":"9502055"},{"town":"寺尾上六丁目","koaza":"","lat":37.873104,"lng":138.965545,"zip":"9502055"},{"town":"寺尾北一丁目","koaza":"","lat":37.884801,"lng":138.971234,"zip":"9502061"},{"town":"寺尾北二丁目","koaza":"","lat":37.883271,"lng":138.969756,"zip":"9502061"},{"town":"寺尾台一丁目","koaza":"","lat":37.882307,"lng":138.978077,"zip":"9502063"},{"town":"寺尾台二丁目","koaza":"","lat":37.883987,"lng":138.976828,"zip":"9502063"},{"town":"寺尾台三丁目","koaza":"","lat":37.881983,"lng":138.973927,"zip":"9502063"},{"town":"寺尾中央公園","koaza":"","lat":37.883212,"lng":138.971838,"zip":"9502062"},{"town":"寺尾西一丁目","koaza":"","lat":37.880327,"lng":138.969333,"zip":"9502064"},{"town":"寺尾西二丁目","koaza":"","lat":37.878779,"lng":138.967769,"zip":"9502064"},{"town":"寺尾西三丁目","koaza":"","lat":37.877329,"lng":138.964268,"zip":"9502064"},{"town":"寺尾西四丁目","koaza":"","lat":37.880031,"lng":138.964091,"zip":"9502064"},{"town":"寺尾西五丁目","koaza":"","lat":37.881514,"lng":138.963305,"zip":"9502064"},{"town":"寺尾東一丁目","koaza":"","lat":37.877533,"lng":138.978576,"zip":"9502054"},{"town":"寺尾東二丁目","koaza":"","lat":37.874808,"lng":138.975394,"zip":"9502054"},{"town":"寺尾東三丁目","koaza":"","lat":37.87308,"lng":138.971355,"zip":"9502054"},{"town":"寺尾前通一丁目","koaza":"","lat":37.881804,"lng":138.984984,"zip":"9502053"},{"town":"寺尾前通二丁目","koaza":"","lat":37.880421,"lng":138.982638,"zip":"9502053"},{"town":"寺尾前通三丁目","koaza":"","lat":37.879241,"lng":138.980515,"zip":"9502053"},{"town":"寺地","koaza":"","lat":37.879479,"lng":139.006317,"zip":"9501104"},{"town":"道河原","koaza":"","lat":37.829928,"lng":138.922643,"zip":"9502147"},{"town":"藤蔵新田","koaza":"","lat":37.810769,"lng":138.897919,"zip":"9502262"},{"town":"ときめき西一丁目","koaza":"","lat":37.87411,"lng":139.009047,"zip":"9501106"},{"town":"ときめき西二丁目","koaza":"","lat":37.877431,"lng":139.009745,"zip":"9501106"},{"town":"ときめき西三丁目","koaza":"","lat":37.879423,"lng":139.009783,"zip":"9501106"},{"town":"ときめき西四丁目","koaza":"","lat":37.882215,"lng":139.010645,"zip":"9501106"},{"town":"ときめき東一丁目","koaza":"","lat":37.877306,"lng":139.011555,"zip":"9501105"},{"town":"鳥原","koaza":"","lat":37.857026,"lng":139.007343,"zip":"9501115"},{"town":"鳥原新田","koaza":"","lat":37.845115,"lng":139.002017,"zip":"9501113"},{"town":"中野小屋","koaza":"","lat":37.820727,"lng":138.938248,"zip":"9502125"},{"town":"西有明町","koaza":"","lat":37.895825,"lng":138.988387,"zip":"9502071"},{"town":"西小針台一丁目","koaza":"","lat":37.884278,"lng":138.981763,"zip":"9502015"},{"town":"西小針台二丁目","koaza":"","lat":37.885512,"lng":138.979954,"zip":"9502015"},{"town":"西小針台三丁目","koaza":"","lat":37.88628,"lng":138.97753,"zip":"9502015"},{"town":"早潟","koaza":"","lat":37.828705,"lng":138.914442,"zip":"9502131"},{"town":"東青山一丁目","koaza":"","lat":37.892989,"lng":139.003285,"zip":"9502003"},{"town":"東青山二丁目","koaza":"","lat":37.895357,"lng":139.007397,"zip":"9502003"},{"town":"東山","koaza":"","lat":37.827978,"lng":138.904514,"zip":"9502254"},{"town":"藤野木","koaza":"","lat":37.822644,"lng":138.914031,"zip":"9502138"},{"town":"平島","koaza":"","lat":37.891603,"lng":139.009132,"zip":"9502004"},{"town":"平島一丁目","koaza":"","lat":37.891056,"lng":139.004551,"zip":"9502004"},{"town":"平島二丁目","koaza":"","lat":37.892566,"lng":139.006888,"zip":"9502004"},{"town":"平島三丁目","koaza":"","lat":37.894395,"lng":139.008863,"zip":"9502004"},{"town":"保古野木","koaza":"","lat":37.816828,"lng":138.924544,"zip":"9502134"},{"town":"前野外新田","koaza":"","lat":37.817437,"lng":138.929207,"zip":"9502133"},{"town":"槇尾","koaza":"","lat":37.856746,"lng":138.947233,"zip":"9502121"},{"town":"真砂一丁目","koaza":"","lat":37.890834,"lng":138.98523,"zip":"9502074"},{"town":"真砂二丁目","koaza":"","lat":37.888749,"lng":138.981258,"zip":"9502074"},{"town":"真砂三丁目","koaza":"","lat":37.893067,"lng":138.982456,"zip":"9502074"},{"town":"真砂四丁目","koaza":"","lat":37.891133,"lng":138.978867,"zip":"9502074"},{"town":"松海が丘一丁目","koaza":"","lat":37.887154,"lng":138.975847,"zip":"9502075"},{"town":"松海が丘二丁目","koaza":"","lat":37.888693,"lng":138.975863,"zip":"9502075"},{"town":"松海が丘三丁目","koaza":"","lat":37.890525,"lng":138.974794,"zip":"9502075"},{"town":"松海が丘四丁目","koaza":"","lat":37.892601,"lng":138.974866,"zip":"9502075"},{"town":"松美台","koaza":"","lat":37.894203,"lng":138.990477,"zip":"9502072"},{"town":"的場流通一丁目","koaza":"","lat":37.861077,"lng":138.995756,"zip":"9502032"},{"town":"的場流通二丁目","koaza":"","lat":37.86042,"lng":138.992923,"zip":"9502032"},{"town":"みずき野一丁目","koaza":"","lat":37.817647,"lng":138.906623,"zip":"9502264"},{"town":"みずき野二丁目","koaza":"","lat":37.815331,"lng":138.905282,"zip":"9502264"},{"town":"みずき野三丁目","koaza":"","lat":37.81686,"lng":138.901137,"zip":"9502264"},{"town":"みずき野四丁目","koaza":"","lat":37.819352,"lng":138.903022,"zip":"9502264"},{"town":"みずき野五丁目","koaza":"","lat":37.819435,"lng":138.899406,"zip":"9502264"},{"town":"みずき野六丁目","koaza":"","lat":37.817986,"lng":138.897469,"zip":"9502264"},{"town":"明田","koaza":"","lat":37.813872,"lng":138.917727,"zip":"9502135"},{"town":"谷内","koaza":"","lat":37.833267,"lng":138.899281,"zip":"9502252"},{"town":"山崎","koaza":"","lat":37.82309,"lng":138.883,"zip":"9502256"},{"town":"山田","koaza":"","lat":37.875508,"lng":139.018012,"zip":"9501101"},{"town":"四ツ郷屋","koaza":"","lat":37.841581,"lng":138.885695,"zip":"9502201"},{"town":"與兵衛野新田","koaza":"","lat":37.821818,"lng":138.946527,"zip":"9590401"},{"town":"流通一丁目","koaza":"","lat":37.863058,"lng":138.996105,"zip":"9501125"},{"town":"流通二丁目","koaza":"","lat":37.860955,"lng":138.990797,"zip":"9501125"},{"town":"流通三丁目","koaza":"","lat":37.861823,"lng":138.987978,"zip":"9501125"},{"town":"流通センター一丁目","koaza":"","lat":37.866158,"lng":138.998185,"zip":"9502031"},{"town":"流通センター二丁目","koaza":"","lat":37.865792,"lng":138.995619,"zip":"9502031"},{"town":"流通センター三丁目","koaza":"","lat":37.863933,"lng":138.99477,"zip":"9502031"},{"town":"流通センター四丁目","koaza":"","lat":37.864807,"lng":138.991297,"zip":"9502031"},{"town":"流通センター五丁目","koaza":"","lat":37.862085,"lng":138.990769,"zip":"9502031"},{"town":"流通センター六丁目","koaza":"","lat":37.863154,"lng":138.985701,"zip":"9502031"},{"town":"内野西が丘一丁目","koaza":"","lat":37.847378,"lng":138.928036,"zip":"9502157"},{"town":"内野西が丘二丁目","koaza":"","lat":37.847262,"lng":138.926285,"zip":"9502157"},{"town":"内野西が丘三丁目","koaza":"","lat":37.847345,"lng":138.922363,"zip":"9502157"},{"town":"槇尾","koaza":"中曾根","lat":37.854754,"lng":138.941655,"zip":"9502121"},{"town":"亀貝","koaza":"前田","lat":37.86739,"lng":138.988406,"zip":"9502033"}]