[{"town":"赤鏥","koaza":"","lat":37.744164,"lng":138.884781,"zip":"9530042"},{"town":"味方","koaza":"","lat":37.789169,"lng":138.979074,"zip":"9501261"},{"town":"安尻","koaza":"","lat":37.741638,"lng":138.885445,"zip":"9530066"},{"town":"油島","koaza":"","lat":37.745786,"lng":138.860848,"zip":"9530111"},{"town":"新谷","koaza":"","lat":37.739966,"lng":138.857393,"zip":"9530116"},{"town":"石瀬","koaza":"","lat":37.723547,"lng":138.830594,"zip":"9530141"},{"town":"井随","koaza":"","lat":37.768535,"lng":138.984862,"zip":"9590501"},{"town":"茨島","koaza":"","lat":37.759236,"lng":138.95886,"zip":"9590513"},{"town":"今井","koaza":"","lat":37.759126,"lng":138.946828,"zip":"9590515"},{"town":"岩室温泉","koaza":"","lat":37.736553,"lng":138.833809,"zip":"9530104"},{"town":"植野新田","koaza":"","lat":37.747495,"lng":138.87484,"zip":"9530117"},{"town":"打越","koaza":"","lat":37.730536,"lng":138.941149,"zip":"9501348"},{"town":"姥島","koaza":"","lat":37.713309,"lng":138.951281,"zip":"9501347"},{"town":"卯八郎受","koaza":"","lat":37.791356,"lng":138.957573,"zip":"9590507"},{"town":"浦村","koaza":"","lat":37.80706,"lng":138.950147,"zip":"9590416"},{"town":"漆山","koaza":"","lat":37.750644,"lng":138.928952,"zip":"9530054"},{"town":"越前浜","koaza":"","lat":37.813261,"lng":138.850352,"zip":"9530012"},{"town":"遠藤","koaza":"","lat":37.776337,"lng":138.940695,"zip":"9590506"},{"town":"大潟","koaza":"","lat":37.814132,"lng":138.944699,"zip":"9590415"},{"town":"大関","koaza":"","lat":37.81238,"lng":138.950019,"zip":"9590417"},{"town":"大曽根","koaza":"","lat":37.745724,"lng":138.950727,"zip":"9590517"},{"town":"大原","koaza":"","lat":37.757727,"lng":138.979394,"zip":"9590511"},{"town":"押付","koaza":"","lat":37.782613,"lng":138.921753,"zip":"9590425"},{"town":"貝柄","koaza":"","lat":37.809585,"lng":138.971727,"zip":"9590403"},{"town":"貝柄新田","koaza":"","lat":37.81827,"lng":138.967573,"zip":"9590404"},{"town":"柿島","koaza":"","lat":37.753708,"lng":138.91581,"zip":"9530055"},{"town":"角田浜","koaza":"","lat":37.794284,"lng":138.825678,"zip":"9530011"},{"town":"角海浜","koaza":"","lat":37.755991,"lng":138.81082,"zip":"9530077"},{"town":"潟浦新","koaza":"","lat":37.689388,"lng":138.976861,"zip":"9501333"},{"town":"潟頭","koaza":"","lat":37.74214,"lng":138.89587,"zip":"9530067"},{"town":"潟上","koaza":"","lat":37.731684,"lng":138.863199,"zip":"9530114"},{"town":"金池","koaza":"","lat":37.717194,"lng":138.8357,"zip":"9530144"},{"town":"上木島","koaza":"","lat":37.754262,"lng":138.85396,"zip":"9530073"},{"town":"上小吉","koaza":"","lat":37.69231,"lng":138.970701,"zip":"9501334"},{"town":"河井","koaza":"","lat":37.75303,"lng":138.907971,"zip":"9530051"},{"town":"川崎","koaza":"","lat":37.795949,"lng":138.908408,"zip":"9590432"},{"town":"北野","koaza":"","lat":37.721996,"lng":138.855436,"zip":"9530134"},{"town":"国見","koaza":"","lat":37.747088,"lng":138.943229,"zip":"9590516"},{"town":"久保田","koaza":"","lat":37.722481,"lng":138.845583,"zip":"9530142"},{"town":"熊谷","koaza":"","lat":37.774017,"lng":138.974807,"zip":"9590502"},{"town":"桑山","koaza":"","lat":37.808207,"lng":138.912895,"zip":"9590412"},{"town":"高野宮","koaza":"","lat":37.705484,"lng":138.984326,"zip":"9501324"},{"town":"河間","koaza":"","lat":37.729984,"lng":138.966363,"zip":"9501342"},{"town":"五ケ浜","koaza":"","lat":37.778086,"lng":138.820955,"zip":"9530078"},{"town":"五之上","koaza":"","lat":37.793543,"lng":138.970938,"zip":"9590508"},{"town":"小吉","koaza":"","lat":37.704735,"lng":138.970132,"zip":"9501325"},{"town":"栄","koaza":"","lat":37.740101,"lng":138.849695,"zip":"9530102"},{"town":"栄町","koaza":"","lat":37.721321,"lng":138.907082,"zip":"9530063"},{"town":"桜林","koaza":"","lat":37.732583,"lng":138.899945,"zip":"9530064"},{"town":"真田","koaza":"","lat":37.777387,"lng":138.899111,"zip":"9590435"},{"town":"猿ケ瀬","koaza":"","lat":37.71712,"lng":138.843466,"zip":"9530143"},{"town":"三角野新田","koaza":"","lat":37.826884,"lng":138.963495,"zip":"9590402"},{"town":"三方","koaza":"","lat":37.777183,"lng":138.964422,"zip":"9590505"},{"town":"下木島","koaza":"","lat":37.758227,"lng":138.858062,"zip":"9530071"},{"town":"下山","koaza":"","lat":37.794606,"lng":138.897782,"zip":"9590438"},{"town":"下和納","koaza":"","lat":37.735684,"lng":138.888178,"zip":"9530065"},{"town":"称名","koaza":"","lat":37.753362,"lng":138.957264,"zip":"9590514"},{"town":"白鳥","koaza":"","lat":37.725702,"lng":138.852016,"zip":"9530136"},{"town":"新保","koaza":"","lat":37.801424,"lng":138.880421,"zip":"9530014"},{"town":"鱸","koaza":"","lat":37.796458,"lng":138.913446,"zip":"9590421"},{"town":"善光寺","koaza":"","lat":37.80265,"lng":138.919368,"zip":"9590411"},{"town":"善光寺村受","koaza":"","lat":37.797224,"lng":138.955644,"zip":"9590406"},{"town":"曽根","koaza":"","lat":37.796583,"lng":138.933308,"zip":"9590422"},{"town":"高橋","koaza":"","lat":37.730246,"lng":138.891321,"zip":"9530121"},{"town":"高畑","koaza":"","lat":37.746094,"lng":138.870085,"zip":"9530112"},{"town":"竹野町","koaza":"","lat":37.769,"lng":138.856406,"zip":"9530023"},{"town":"津雲田","koaza":"","lat":37.718383,"lng":138.892887,"zip":"9530123"},{"town":"釣寄","koaza":"","lat":37.742525,"lng":138.970086,"zip":"9501313"},{"town":"釣寄新","koaza":"","lat":37.750501,"lng":138.978528,"zip":"9501312"},{"town":"天竺堂","koaza":"","lat":37.779702,"lng":138.904406,"zip":"9590434"},{"town":"稲島","koaza":"","lat":37.786308,"lng":138.856754,"zip":"9530027"},{"town":"道上","koaza":"","lat":37.740287,"lng":138.958256,"zip":"9501341"},{"town":"富岡","koaza":"","lat":37.721661,"lng":138.899273,"zip":"9530122"},{"town":"中郷屋","koaza":"","lat":37.772811,"lng":138.898926,"zip":"9530033"},{"town":"中島","koaza":"","lat":37.796828,"lng":138.888197,"zip":"9590437"},{"town":"中之口","koaza":"","lat":37.714799,"lng":138.966722,"zip":"9501327"},{"town":"長場","koaza":"","lat":37.698257,"lng":138.982771,"zip":"9501332"},{"town":"夏井","koaza":"","lat":37.713693,"lng":138.861223,"zip":"9530133"},{"town":"並岡","koaza":"","lat":37.735852,"lng":138.925499,"zip":"9530062"},{"town":"新飯田潟","koaza":"","lat":37.766026,"lng":138.948451,"zip":"9500000"},{"town":"仁箇","koaza":"","lat":37.781287,"lng":138.872126,"zip":"9530022"},{"town":"西中","koaza":"","lat":37.72419,"lng":138.866483,"zip":"9530132"},{"town":"西長島","koaza":"","lat":37.729198,"lng":138.855883,"zip":"9530131"},{"town":"西船越","koaza":"","lat":37.736928,"lng":138.866672,"zip":"9530113"},{"town":"西汰上","koaza":"","lat":37.785422,"lng":138.885206,"zip":"9590436"},{"town":"布目","koaza":"","lat":37.788291,"lng":138.868448,"zip":"9530021"},{"town":"葉萱場","koaza":"","lat":37.767755,"lng":138.891721,"zip":"9530034"},{"town":"羽黒","koaza":"","lat":37.71808,"lng":138.956165,"zip":"9501345"},{"town":"橋本","koaza":"","lat":37.734937,"lng":138.842427,"zip":"9530103"},{"town":"旗屋","koaza":"","lat":37.788788,"lng":138.935172,"zip":"9590423"},{"town":"旗屋村受","koaza":"","lat":37.796884,"lng":138.952143,"zip":"9590407"},{"town":"羽田","koaza":"","lat":37.778345,"lng":138.883287,"zip":"9530031"},{"town":"原","koaza":"","lat":37.714007,"lng":138.876174,"zip":"9530124"},{"town":"針ケ曽根","koaza":"","lat":37.724456,"lng":138.981068,"zip":"9501321"},{"town":"番屋","koaza":"","lat":37.759915,"lng":138.966822,"zip":"9590512"},{"town":"東小吉","koaza":"","lat":37.713959,"lng":138.977017,"zip":"9501323"},{"town":"東中","koaza":"","lat":37.701964,"lng":138.972697,"zip":"9501331"},{"town":"東船越","koaza":"","lat":37.714312,"lng":138.971361,"zip":"9501326"},{"town":"東汰上","koaza":"","lat":37.781733,"lng":138.890826,"zip":"9530032"},{"town":"樋曽","koaza":"","lat":37.743779,"lng":138.829208,"zip":"9530101"},{"town":"兵右衛門新田","koaza":"","lat":37.80637,"lng":138.942085,"zip":"9590414"},{"town":"平沢","koaza":"","lat":37.765851,"lng":138.839939,"zip":"9530024"},{"town":"平野","koaza":"","lat":37.803214,"lng":138.903824,"zip":"9590431"},{"town":"福井","koaza":"","lat":37.760937,"lng":138.831578,"zip":"9530076"},{"town":"福島","koaza":"","lat":37.729725,"lng":138.958643,"zip":"9501344"},{"town":"伏部","koaza":"","lat":37.775278,"lng":138.850863,"zip":"9530026"},{"town":"舟戸","koaza":"","lat":37.753911,"lng":138.849959,"zip":"9530074"},{"town":"堀上新田","koaza":"","lat":37.816855,"lng":138.966443,"zip":"9590405"},{"town":"堀山新田","koaza":"","lat":37.754582,"lng":138.879467,"zip":"9530043"},{"town":"前田","koaza":"","lat":37.769698,"lng":138.875521,"zip":"9530036"},{"town":"真木","koaza":"","lat":37.707037,"lng":138.954464,"zip":"9501346"},{"town":"巻","koaza":"","lat":37.761337,"lng":138.896103,"zip":"9530053"},{"town":"巻東町","koaza":"","lat":37.757492,"lng":138.93924,"zip":"9530053"},{"town":"巻大原","koaza":"","lat":37.806504,"lng":138.882739,"zip":"9530013"},{"town":"牧ケ島","koaza":"","lat":37.72365,"lng":138.933082,"zip":"9501349"},{"town":"槇島","koaza":"","lat":37.787556,"lng":138.901836,"zip":"9590433"},{"town":"升岡","koaza":"","lat":37.815142,"lng":138.957759,"zip":"9590418"},{"town":"升潟","koaza":"","lat":37.808979,"lng":138.932814,"zip":"9590413"},{"town":"間瀬","koaza":"","lat":37.728237,"lng":138.805019,"zip":"9530105"},{"town":"松郷屋","koaza":"","lat":37.764037,"lng":138.850558,"zip":"9530025"},{"town":"松崎","koaza":"","lat":37.787004,"lng":138.945879,"zip":"9590424"},{"town":"松野尾","koaza":"","lat":37.79878,"lng":138.872067,"zip":"9530015"},{"town":"松山","koaza":"","lat":37.794816,"lng":138.862339,"zip":"9530016"},{"town":"馬堀","koaza":"","lat":37.736978,"lng":138.909446,"zip":"9530061"},{"town":"美里","koaza":"","lat":37.752659,"lng":138.952442,"zip":"9590519"},{"town":"三ツ門","koaza":"","lat":37.731509,"lng":138.977112,"zip":"9501343"},{"town":"南","koaza":"","lat":37.741426,"lng":138.942757,"zip":"9590518"},{"town":"南谷内","koaza":"","lat":37.715088,"lng":138.850649,"zip":"9530135"},{"town":"峰岡","koaza":"","lat":37.756092,"lng":138.846026,"zip":"9530075"},{"town":"門田","koaza":"","lat":37.712949,"lng":138.981679,"zip":"9501328"},{"town":"矢島","koaza":"","lat":37.777465,"lng":138.923224,"zip":"9590426"},{"town":"山口新田","koaza":"","lat":37.776937,"lng":138.970381,"zip":"9590503"},{"town":"山島","koaza":"","lat":37.753868,"lng":138.923192,"zip":"9530052"},{"town":"横曽根","koaza":"","lat":37.734179,"lng":138.858895,"zip":"9530115"},{"town":"横戸","koaza":"","lat":37.784541,"lng":138.960357,"zip":"9590504"},{"town":"與兵衛野新田","koaza":"","lat":37.817749,"lng":138.964791,"zip":"9590401"},{"town":"鎧潟","koaza":"","lat":37.771954,"lng":138.934704,"zip":"9590521"},{"town":"六分","koaza":"","lat":37.710944,"lng":138.984178,"zip":"9501322"},{"town":"鷲ノ木","koaza":"","lat":37.756,"lng":138.864756,"zip":"9530072"},{"town":"和納","koaza":"","lat":37.723251,"lng":138.88576,"zip":"9530125"},{"town":"和納一丁目","koaza":"","lat":37.721182,"lng":138.878028,"zip":"9530125"},{"town":"和納二丁目","koaza":"","lat":37.725679,"lng":138.877597,"zip":"9530125"},{"town":"和納三丁目","koaza":"","lat":37.730372,"lng":138.878767,"zip":"9530125"},{"town":"割前","koaza":"","lat":37.773844,"lng":138.887237,"zip":"9530035"},{"town":"巻","koaza":"乙","lat":37.758279,"lng":138.879634,"zip":"9530053"},{"town":"巻","koaza":"甲","lat":37.761015,"lng":138.896354,"zip":"9530053"}]