[{"town":"赤橋","koaza":"","lat":37.917364,"lng":139.328876,"zip":"9592314"},{"town":"荒川","koaza":"","lat":37.869591,"lng":139.345138,"zip":"9570045"},{"town":"荒町","koaza":"","lat":37.930663,"lng":139.326141,"zip":"9592311"},{"town":"新屋敷","koaza":"","lat":37.968193,"lng":139.367402,"zip":"9592443"},{"town":"池ノ端","koaza":"","lat":37.926094,"lng":139.305071,"zip":"9592321"},{"town":"石喜","koaza":"","lat":37.936078,"lng":139.38198,"zip":"9570353"},{"town":"五十公野","koaza":"","lat":37.93273,"lng":139.348314,"zip":"9570021"},{"town":"板敷","koaza":"","lat":37.950373,"lng":139.352467,"zip":"9570013"},{"town":"板山","koaza":"","lat":37.89178,"lng":139.431109,"zip":"9570344"},{"town":"稲荷","koaza":"","lat":37.996063,"lng":139.362479,"zip":"9592406"},{"town":"稲荷岡","koaza":"","lat":38.014573,"lng":139.330376,"zip":"9570204"},{"town":"丑首","koaza":"","lat":37.911306,"lng":139.359113,"zip":"9570035"},{"town":"浦","koaza":"","lat":37.903106,"lng":139.341049,"zip":"9570042"},{"town":"浦新田","koaza":"","lat":37.908173,"lng":139.326462,"zip":"9570041"},{"town":"江口","koaza":"","lat":37.901235,"lng":139.378554,"zip":"9570037"},{"town":"大崎","koaza":"","lat":37.899354,"lng":139.35529,"zip":"9570043"},{"town":"大沢","koaza":"","lat":37.904738,"lng":139.299383,"zip":"9570000"},{"town":"大槻","koaza":"","lat":37.885918,"lng":139.387985,"zip":"9570465"},{"town":"大手町一丁目","koaza":"","lat":37.95031,"lng":139.322865,"zip":"9570052"},{"town":"大手町二丁目","koaza":"","lat":37.952025,"lng":139.321334,"zip":"9570052"},{"town":"大手町三丁目","koaza":"","lat":37.953672,"lng":139.32224,"zip":"9570052"},{"town":"大手町四丁目","koaza":"","lat":37.952772,"lng":139.326114,"zip":"9570052"},{"town":"大手町五丁目","koaza":"","lat":37.955356,"lng":139.327615,"zip":"9570052"},{"town":"大手町六丁目","koaza":"","lat":37.955549,"lng":139.323706,"zip":"9570052"},{"town":"大友","koaza":"","lat":37.920658,"lng":139.381427,"zip":"9570347"},{"town":"大中島","koaza":"","lat":38.004957,"lng":139.334304,"zip":"9570217"},{"town":"大野","koaza":"","lat":38.029527,"lng":139.371462,"zip":"9592461"},{"town":"岡島","koaza":"","lat":38.026152,"lng":139.36777,"zip":"9592463"},{"town":"岡田","koaza":"","lat":37.947098,"lng":139.365437,"zip":"9570356"},{"town":"岡屋敷","koaza":"","lat":37.890456,"lng":139.300052,"zip":"9592333"},{"town":"小川","koaza":"","lat":38.002966,"lng":139.315099,"zip":"9570224"},{"town":"小国谷","koaza":"","lat":38.023071,"lng":139.40715,"zip":"9592471"},{"town":"奥山新保","koaza":"","lat":37.957803,"lng":139.296034,"zip":"9570064"},{"town":"小島","koaza":"","lat":38.000735,"lng":139.358531,"zip":"9592402"},{"town":"押廻","koaza":"","lat":37.985095,"lng":139.341245,"zip":"9592434"},{"town":"小戸","koaza":"","lat":37.863837,"lng":139.475639,"zip":"9570345"},{"town":"乙次","koaza":"","lat":37.914013,"lng":139.308443,"zip":"9592323"},{"town":"小友","koaza":"","lat":37.912356,"lng":139.333156,"zip":"9570031"},{"town":"小見","koaza":"","lat":37.91601,"lng":139.356923,"zip":"9570034"},{"town":"貝塚","koaza":"","lat":38.01203,"lng":139.37729,"zip":"9592476"},{"town":"貝屋","koaza":"","lat":38.014592,"lng":139.4102,"zip":"9592472"},{"town":"加治万代","koaza":"","lat":37.902353,"lng":139.289255,"zip":"9592336"},{"town":"片桐","koaza":"","lat":38.005055,"lng":139.346275,"zip":"9570212"},{"town":"金沢","koaza":"","lat":38.030704,"lng":139.381764,"zip":"9592479"},{"town":"金津","koaza":"","lat":37.980635,"lng":139.367045,"zip":"9592441"},{"town":"金塚","koaza":"","lat":38.019348,"lng":139.365373,"zip":"9592464"},{"town":"金谷","koaza":"","lat":37.944836,"lng":139.360226,"zip":"9570014"},{"town":"金山","koaza":"","lat":38.007963,"lng":139.393905,"zip":"9592473"},{"town":"釜杭","koaza":"","lat":37.998289,"lng":139.335148,"zip":"9592431"},{"town":"上赤谷","koaza":"","lat":37.834452,"lng":139.391454,"zip":"9570464"},{"town":"上荒沢","koaza":"","lat":38.01001,"lng":139.446553,"zip":"9592501"},{"town":"上石川","koaza":"","lat":37.938522,"lng":139.486361,"zip":"9592514"},{"town":"上今泉","koaza":"","lat":37.985818,"lng":139.355713,"zip":"9592421"},{"town":"上楠川","koaza":"","lat":37.936625,"lng":139.40924,"zip":"9570334"},{"town":"上小松","koaza":"","lat":37.966528,"lng":139.356058,"zip":"9592455"},{"town":"上三光","koaza":"","lat":37.921774,"lng":139.476009,"zip":"9570331"},{"town":"上寺内","koaza":"","lat":37.970222,"lng":139.4737,"zip":"9592504"},{"town":"上新保","koaza":"","lat":37.916368,"lng":139.371691,"zip":"9570024"},{"town":"上館","koaza":"","lat":37.970777,"lng":139.37732,"zip":"9592452"},{"town":"上内竹","koaza":"","lat":37.908285,"lng":139.370236,"zip":"9570025"},{"town":"上中江","koaza":"","lat":37.947029,"lng":139.391669,"zip":"9592523"},{"town":"上中山","koaza":"","lat":37.868693,"lng":139.317103,"zip":"9570046"},{"town":"上羽津","koaza":"","lat":37.918627,"lng":139.398173,"zip":"9570343"},{"town":"川口","koaza":"","lat":37.991682,"lng":139.364864,"zip":"9592407"},{"town":"川尻","koaza":"","lat":37.985483,"lng":139.334165,"zip":"9592435"},{"town":"北中江","koaza":"","lat":37.952869,"lng":139.388521,"zip":"9592522"},{"town":"北蓑口","koaza":"","lat":37.935757,"lng":139.302882,"zip":"9570074"},{"town":"切梅","koaza":"","lat":37.928608,"lng":139.314948,"zip":"9592303"},{"town":"熊出","koaza":"","lat":37.991465,"lng":139.479237,"zip":"9592502"},{"town":"蔵光","koaza":"","lat":37.956357,"lng":139.383893,"zip":"9592521"},{"town":"黒岩","koaza":"","lat":37.963974,"lng":139.370859,"zip":"9592527"},{"town":"桑ノ口","koaza":"","lat":37.978471,"lng":139.32254,"zip":"9570003"},{"town":"小出","koaza":"","lat":37.964763,"lng":139.458551,"zip":"9592512"},{"town":"高山寺","koaza":"","lat":37.99463,"lng":139.331831,"zip":"9592437"},{"town":"小坂","koaza":"","lat":37.915191,"lng":139.319614,"zip":"9592315"},{"town":"古田","koaza":"","lat":38.022973,"lng":139.344598,"zip":"9570202"},{"town":"湖南","koaza":"","lat":38.008507,"lng":139.353578,"zip":"9592401"},{"town":"小舟渡","koaza":"","lat":37.967379,"lng":139.312003,"zip":"9570000"},{"town":"小舟町一丁目","koaza":"","lat":37.965032,"lng":139.323371,"zip":"9570007"},{"town":"小舟町二丁目","koaza":"","lat":37.969303,"lng":139.323876,"zip":"9570007"},{"town":"小舟町三丁目","koaza":"","lat":37.96719,"lng":139.316708,"zip":"9570007"},{"town":"境","koaza":"","lat":38.005154,"lng":139.381082,"zip":"9592474"},{"town":"佐々木","koaza":"","lat":37.948875,"lng":139.255151,"zip":"9570082"},{"town":"繁山","koaza":"","lat":37.97271,"lng":139.417258,"zip":"9592513"},{"town":"島潟","koaza":"","lat":37.958643,"lng":139.349731,"zip":"9570011"},{"town":"下飯塚","koaza":"","lat":37.911967,"lng":139.302632,"zip":"9592331"},{"town":"下石川","koaza":"","lat":37.96243,"lng":139.422841,"zip":"9592516"},{"town":"下今泉","koaza":"","lat":37.977,"lng":139.354661,"zip":"9592457"},{"town":"下楠川","koaza":"","lat":37.936761,"lng":139.396125,"zip":"9570335"},{"town":"下小中山","koaza":"","lat":38.018881,"lng":139.380834,"zip":"9592477"},{"town":"下小松","koaza":"","lat":37.967023,"lng":139.351566,"zip":"9592456"},{"town":"下坂町","koaza":"","lat":38.026451,"lng":139.38508,"zip":"9592478"},{"town":"下三光","koaza":"","lat":37.944501,"lng":139.403406,"zip":"9570336"},{"town":"下寺内","koaza":"","lat":37.98484,"lng":139.431388,"zip":"9592505"},{"town":"下城","koaza":"","lat":38.00071,"lng":139.364455,"zip":"9592404"},{"town":"下新保","koaza":"","lat":37.932209,"lng":139.364403,"zip":"9570023"},{"town":"下高関","koaza":"","lat":37.933536,"lng":139.374401,"zip":"9570354"},{"town":"下内竹","koaza":"","lat":37.915208,"lng":139.364334,"zip":"9570026"},{"town":"下中","koaza":"","lat":37.97443,"lng":139.358834,"zip":"9592451"},{"town":"下中江","koaza":"","lat":37.950915,"lng":139.383573,"zip":"9592524"},{"town":"下中沢","koaza":"","lat":38.016775,"lng":139.336943,"zip":"9570203"},{"town":"下中山","koaza":"","lat":37.992691,"lng":139.444641,"zip":"9592503"},{"town":"下西山","koaza":"","lat":37.998964,"lng":139.374086,"zip":"9592417"},{"town":"下羽津","koaza":"","lat":37.92717,"lng":139.392265,"zip":"9570341"},{"town":"下山田","koaza":"","lat":37.983572,"lng":139.373969,"zip":"9592414"},{"town":"城北町一丁目","koaza":"","lat":37.958125,"lng":139.323933,"zip":"9570051"},{"town":"城北町二丁目","koaza":"","lat":37.960912,"lng":139.324502,"zip":"9570051"},{"town":"城北町三丁目","koaza":"","lat":37.961747,"lng":139.320454,"zip":"9570051"},{"town":"新栄町一丁目","koaza":"","lat":37.954057,"lng":139.301561,"zip":"9570063"},{"town":"新栄町二丁目","koaza":"","lat":37.954443,"lng":139.297292,"zip":"9570063"},{"town":"新栄町三丁目","koaza":"","lat":37.95314,"lng":139.294433,"zip":"9570063"},{"town":"新富町一丁目","koaza":"","lat":37.954472,"lng":139.337458,"zip":"9570017"},{"town":"新富町二丁目","koaza":"","lat":37.957057,"lng":139.340451,"zip":"9570017"},{"town":"新富町三丁目","koaza":"","lat":37.954503,"lng":139.342023,"zip":"9570017"},{"town":"新保小路","koaza":"","lat":37.969874,"lng":139.370192,"zip":"9592444"},{"town":"菅谷","koaza":"","lat":37.984942,"lng":139.412429,"zip":"9592511"},{"town":"砂山","koaza":"","lat":37.919024,"lng":139.249903,"zip":"9570087"},{"town":"住田","koaza":"","lat":37.991341,"lng":139.369914,"zip":"9592415"},{"town":"住吉","koaza":"","lat":37.998457,"lng":139.342602,"zip":"9570215"},{"town":"住吉町一丁目","koaza":"","lat":37.952039,"lng":139.310835,"zip":"9570061"},{"town":"住吉町二丁目","koaza":"","lat":37.949148,"lng":139.312729,"zip":"9570061"},{"town":"住吉町三丁目","koaza":"","lat":37.948913,"lng":139.308695,"zip":"9570061"},{"town":"住吉町四丁目","koaza":"","lat":37.943934,"lng":139.31338,"zip":"9570061"},{"town":"住吉町五丁目","koaza":"","lat":37.943682,"lng":139.309551,"zip":"9570061"},{"town":"諏訪町一丁目","koaza":"","lat":37.943834,"lng":139.33306,"zip":"9570055"},{"town":"諏訪町二丁目","koaza":"","lat":37.945883,"lng":139.330216,"zip":"9570055"},{"town":"諏訪町三丁目","koaza":"","lat":37.941826,"lng":139.329521,"zip":"9570055"},{"town":"関井","koaza":"","lat":38.011018,"lng":139.333848,"zip":"9570205"},{"town":"関妻","koaza":"","lat":37.983531,"lng":139.362716,"zip":"9592422"},{"town":"草荷","koaza":"","lat":37.988484,"lng":139.316886,"zip":"9592436"},{"town":"相馬","koaza":"","lat":38.008248,"lng":139.369767,"zip":"9592465"},{"town":"曽根","koaza":"","lat":37.952515,"lng":139.277894,"zip":"9570071"},{"town":"大栄町一丁目","koaza":"","lat":37.946682,"lng":139.324921,"zip":"9570056"},{"town":"大栄町二丁目","koaza":"","lat":37.945307,"lng":139.324426,"zip":"9570056"},{"town":"大栄町三丁目","koaza":"","lat":37.941972,"lng":139.32322,"zip":"9570056"},{"town":"大栄町四丁目","koaza":"","lat":37.943844,"lng":139.32107,"zip":"9570056"},{"town":"大栄町五丁目","koaza":"","lat":37.940102,"lng":139.319256,"zip":"9570056"},{"town":"大栄町六丁目","koaza":"","lat":37.939941,"lng":139.326432,"zip":"9570056"},{"town":"大栄町七丁目","koaza":"","lat":37.944017,"lng":139.327475,"zip":"9570056"},{"town":"大伝","koaza":"","lat":37.919158,"lng":139.314401,"zip":"9592304"},{"town":"田貝","koaza":"","lat":37.903096,"lng":139.451501,"zip":"9570333"},{"town":"高島","koaza":"","lat":38.003308,"lng":139.345995,"zip":"9570213"},{"town":"高田","koaza":"","lat":37.976608,"lng":139.34821,"zip":"9592425"},{"town":"滝","koaza":"","lat":37.963502,"lng":139.402985,"zip":"9592518"},{"town":"滝沢","koaza":"","lat":37.86572,"lng":139.29422,"zip":"9592381"},{"town":"滝谷","koaza":"","lat":37.84502,"lng":139.600787,"zip":"9570462"},{"town":"竹ヶ花","koaza":"","lat":37.935739,"lng":139.313263,"zip":"9570000"},{"town":"竹俣万代","koaza":"","lat":37.905037,"lng":139.285204,"zip":"9592337"},{"town":"太斎","koaza":"","lat":37.924869,"lng":139.334649,"zip":"9592312"},{"town":"館野小路","koaza":"","lat":37.977148,"lng":139.363584,"zip":"9592445"},{"town":"中央町一丁目","koaza":"","lat":37.949232,"lng":139.329932,"zip":"9570053"},{"town":"中央町二丁目","koaza":"","lat":37.946098,"lng":139.32856,"zip":"9570053"},{"town":"中央町三丁目","koaza":"","lat":37.948362,"lng":139.325529,"zip":"9570053"},{"town":"中央町四丁目","koaza":"","lat":37.950497,"lng":139.326588,"zip":"9570053"},{"town":"中央町五丁目","koaza":"","lat":37.953136,"lng":139.331177,"zip":"9570053"},{"town":"長者館","koaza":"","lat":38.008755,"lng":139.323068,"zip":"9570221"},{"town":"塚田","koaza":"","lat":37.998125,"lng":139.360622,"zip":"9592403"},{"town":"月岡","koaza":"","lat":37.883798,"lng":139.301694,"zip":"9592334"},{"town":"月岡温泉","koaza":"","lat":37.880409,"lng":139.310462,"zip":"9592338"},{"town":"敦賀","koaza":"","lat":37.942658,"lng":139.374884,"zip":"9570355"},{"town":"寺尾","koaza":"","lat":38.007006,"lng":139.377993,"zip":"9592475"},{"town":"天王","koaza":"","lat":37.899345,"lng":139.27201,"zip":"9592325"},{"town":"戸板沢","koaza":"","lat":37.902676,"lng":139.320253,"zip":"9592305"},{"town":"道賀","koaza":"","lat":37.979229,"lng":139.311829,"zip":"9570001"},{"town":"東新町一丁目","koaza":"","lat":37.945524,"lng":139.344181,"zip":"9570015"},{"town":"東新町二丁目","koaza":"","lat":37.94974,"lng":139.343003,"zip":"9570015"},{"town":"東新町三丁目","koaza":"","lat":37.952807,"lng":139.346801,"zip":"9570015"},{"town":"東新町四丁目","koaza":"","lat":37.946467,"lng":139.348838,"zip":"9570015"},{"town":"戸野港","koaza":"","lat":38.025815,"lng":139.37389,"zip":"9592462"},{"town":"富島","koaza":"","lat":38.022372,"lng":139.336534,"zip":"9570207"},{"town":"富塚","koaza":"","lat":37.954472,"lng":139.292167,"zip":"9570062"},{"town":"富塚町一丁目","koaza":"","lat":37.94614,"lng":139.305442,"zip":"9570062"},{"town":"富塚町二丁目","koaza":"","lat":37.946198,"lng":139.300569,"zip":"9570062"},{"town":"富塚町三丁目","koaza":"","lat":37.948102,"lng":139.294696,"zip":"9570062"},{"town":"虎丸","koaza":"","lat":37.926567,"lng":139.445545,"zip":"9570332"},{"town":"鳥穴","koaza":"","lat":37.919722,"lng":139.25777,"zip":"9570092"},{"town":"中川","koaza":"","lat":37.959104,"lng":139.416398,"zip":"9592515"},{"town":"中倉","koaza":"","lat":37.953846,"lng":139.385752,"zip":"9592525"},{"town":"中島","koaza":"","lat":38.001083,"lng":139.343116,"zip":"9570214"},{"town":"長島","koaza":"","lat":38.007008,"lng":139.319501,"zip":"9570223"},{"town":"中曽根","koaza":"","lat":37.966518,"lng":139.304908,"zip":"9570067"},{"town":"中曽根町一丁目","koaza":"","lat":37.961027,"lng":139.317602,"zip":"9570067"},{"town":"中曽根町二丁目","koaza":"","lat":37.959717,"lng":139.315014,"zip":"9570067"},{"town":"中曽根町三丁目","koaza":"","lat":37.95969,"lng":139.310773,"zip":"9570067"},{"town":"中田町一丁目","koaza":"","lat":37.964591,"lng":139.330225,"zip":"9570006"},{"town":"中田町二丁目","koaza":"","lat":37.967778,"lng":139.332397,"zip":"9570006"},{"town":"中田町三丁目","koaza":"","lat":37.96392,"lng":139.33496,"zip":"9570006"},{"town":"中俵","koaza":"","lat":38.014865,"lng":139.358808,"zip":"9592468"},{"town":"中妻","koaza":"","lat":37.960825,"lng":139.373121,"zip":"9592526"},{"town":"中野","koaza":"","lat":38.008946,"lng":139.316819,"zip":"9570222"},{"town":"長畑","koaza":"","lat":37.97584,"lng":139.335812,"zip":"9570005"},{"town":"中谷内","koaza":"","lat":37.973646,"lng":139.324379,"zip":"9570002"},{"town":"西浦","koaza":"","lat":37.995852,"lng":139.373578,"zip":"9592416"},{"town":"西園町一丁目","koaza":"","lat":37.951687,"lng":139.317182,"zip":"9570058"},{"town":"西園町二丁目","koaza":"","lat":37.953474,"lng":139.313885,"zip":"9570058"},{"town":"西園町三丁目","koaza":"","lat":37.955561,"lng":139.317242,"zip":"9570058"},{"town":"西名柄","koaza":"","lat":37.968852,"lng":139.340978,"zip":"9570004"},{"town":"西姫田","koaza":"","lat":37.946092,"lng":139.378877,"zip":"9570357"},{"town":"二本木","koaza":"","lat":37.995483,"lng":139.337157,"zip":"9592432"},{"town":"野中","koaza":"","lat":37.99897,"lng":139.367071,"zip":"9592405"},{"town":"箱岩","koaza":"","lat":37.987407,"lng":139.38967,"zip":"9592413"},{"town":"早道場","koaza":"","lat":37.958067,"lng":139.367784,"zip":"9592454"},{"town":"万代","koaza":"","lat":37.893611,"lng":139.307018,"zip":"9592332"},{"town":"東赤谷","koaza":"","lat":37.807286,"lng":139.477886,"zip":"9570463"},{"town":"東塚ノ目","koaza":"","lat":37.957936,"lng":139.342542,"zip":"9570012"},{"town":"東姫田","koaza":"","lat":37.945253,"lng":139.385703,"zip":"9570351"},{"town":"東宮内","koaza":"","lat":37.960755,"lng":139.380616,"zip":"9592528"},{"town":"人橋","koaza":"","lat":38.003553,"lng":139.294323,"zip":"9570235"},{"town":"平山","koaza":"","lat":37.995698,"lng":139.369196,"zip":"9592412"},{"town":"日渡","koaza":"","lat":37.947683,"lng":139.288221,"zip":"9570072"},{"town":"福岡","koaza":"","lat":38.018543,"lng":139.340742,"zip":"9570206"},{"town":"福島","koaza":"","lat":37.913066,"lng":139.273485,"zip":"9592327"},{"town":"藤掛","koaza":"","lat":37.920159,"lng":139.334173,"zip":"9592313"},{"town":"藤塚浜","koaza":"","lat":38.033518,"lng":139.308465,"zip":"9570231"},{"town":"二ツ堂","koaza":"","lat":37.930743,"lng":139.309833,"zip":"9592302"},{"town":"二ツ山","koaza":"","lat":37.996203,"lng":139.277876,"zip":"9570234"},{"town":"舟入","koaza":"","lat":37.960846,"lng":139.299919,"zip":"9570066"},{"town":"舟入町一丁目","koaza":"","lat":37.953846,"lng":139.306857,"zip":"9570065"},{"town":"舟入町二丁目","koaza":"","lat":37.9562,"lng":139.310085,"zip":"9570065"},{"town":"舟入町三丁目","koaza":"","lat":37.958171,"lng":139.304404,"zip":"9570065"},{"town":"麓","koaza":"","lat":37.960915,"lng":139.393811,"zip":"9592517"},{"town":"古川","koaza":"","lat":37.989199,"lng":139.336181,"zip":"9592433"},{"town":"古楯","koaza":"","lat":37.996,"lng":139.355583,"zip":"9592409"},{"town":"古寺","koaza":"","lat":37.923826,"lng":139.361444,"zip":"9570022"},{"town":"法正橋","koaza":"","lat":37.902098,"lng":139.329199,"zip":"9570047"},{"town":"本田","koaza":"","lat":37.883086,"lng":139.284847,"zip":"9592335"},{"town":"本町一丁目","koaza":"","lat":37.947185,"lng":139.334977,"zip":"9570054"},{"town":"本町二丁目","koaza":"","lat":37.94893,"lng":139.331498,"zip":"9570054"},{"town":"本町三丁目","koaza":"","lat":37.951661,"lng":139.334942,"zip":"9570054"},{"town":"本町四丁目","koaza":"","lat":37.950339,"lng":139.338025,"zip":"9570054"},{"town":"本間新田","koaza":"","lat":37.916892,"lng":139.411566,"zip":"9570342"},{"town":"松岡","koaza":"","lat":37.879945,"lng":139.355539,"zip":"9570044"},{"town":"真中","koaza":"","lat":38.02714,"lng":139.332792,"zip":"9570201"},{"town":"真野代","koaza":"","lat":38.004861,"lng":139.307123,"zip":"9570000"},{"town":"真野原","koaza":"","lat":37.991731,"lng":139.30215,"zip":"9570233"},{"town":"真野原外","koaza":"","lat":38.010398,"lng":139.308239,"zip":"9570232"},{"town":"丸市","koaza":"","lat":37.99895,"lng":139.448989,"zip":"9570000"},{"town":"弓越","koaza":"","lat":37.939863,"lng":139.30891,"zip":"9570073"},{"town":"瑞波","koaza":"","lat":37.891368,"lng":139.316151,"zip":"9570048"},{"town":"溝足","koaza":"","lat":38.0071,"lng":139.431221,"zip":"9592507"},{"town":"三日市","koaza":"","lat":37.964243,"lng":139.362591,"zip":"9592453"},{"town":"三ツ椡","koaza":"","lat":37.909078,"lng":139.27044,"zip":"9592326"},{"town":"緑町一丁目","koaza":"","lat":37.959469,"lng":139.328971,"zip":"9570018"},{"town":"緑町二丁目","koaza":"","lat":37.959285,"lng":139.335147,"zip":"9570018"},{"town":"緑町三丁目","koaza":"","lat":37.955961,"lng":139.333304,"zip":"9570018"},{"town":"南楯","koaza":"","lat":37.9385,"lng":139.389615,"zip":"9570352"},{"town":"南成田","koaza":"","lat":37.999414,"lng":139.329349,"zip":"9570216"},{"town":"宮古木","koaza":"","lat":37.895694,"lng":139.395165,"zip":"9570346"},{"town":"宮吉","koaza":"","lat":37.99262,"lng":139.314321,"zip":"9570226"},{"town":"御幸町一丁目","koaza":"","lat":37.948882,"lng":139.321377,"zip":"9570057"},{"town":"御幸町二丁目","koaza":"","lat":37.947349,"lng":139.316716,"zip":"9570057"},{"town":"御幸町三丁目","koaza":"","lat":37.94643,"lng":139.319345,"zip":"9570057"},{"town":"御幸町四丁目","koaza":"","lat":37.942344,"lng":139.316142,"zip":"9570057"},{"town":"茗荷谷","koaza":"","lat":37.974129,"lng":139.38966,"zip":"9592442"},{"town":"六日町","koaza":"","lat":37.915396,"lng":139.34928,"zip":"9570027"},{"town":"向中条","koaza":"","lat":37.981862,"lng":139.347371,"zip":"9592426"},{"town":"元郷","koaza":"","lat":38.016791,"lng":139.299747,"zip":"9570236"},{"town":"山崎","koaza":"","lat":37.919123,"lng":139.352741,"zip":"9570028"},{"town":"八幡","koaza":"","lat":37.909336,"lng":139.353091,"zip":"9570033"},{"town":"八幡新田","koaza":"","lat":37.912646,"lng":139.339206,"zip":"9570032"},{"town":"豊町一丁目","koaza":"","lat":37.939214,"lng":139.333128,"zip":"9570016"},{"town":"豊町二丁目","koaza":"","lat":37.943168,"lng":139.337061,"zip":"9570016"},{"town":"豊町三丁目","koaza":"","lat":37.936538,"lng":139.337734,"zip":"9570016"},{"town":"豊町四丁目","koaza":"","lat":37.941355,"lng":139.342282,"zip":"9570016"},{"town":"横岡","koaza":"","lat":37.998136,"lng":139.385435,"zip":"9592411"},{"town":"横山","koaza":"","lat":37.996008,"lng":139.426099,"zip":"9592506"},{"town":"吉浦","koaza":"","lat":37.903381,"lng":139.309705,"zip":"9592324"},{"town":"吉田","koaza":"","lat":37.992212,"lng":139.356729,"zip":"9592408"},{"town":"米倉","koaza":"","lat":37.893385,"lng":139.368915,"zip":"9570036"},{"town":"米子","koaza":"","lat":37.997169,"lng":139.314468,"zip":"9570225"},{"town":"中ノ目新田","koaza":"","lat":37.919477,"lng":139.278395,"zip":"9592329"},{"town":"西宮内","koaza":"","lat":37.939513,"lng":139.294619,"zip":"9570076"},{"town":"西蓑口","koaza":"","lat":37.930942,"lng":139.29373,"zip":"9570075"},{"town":"則清新田","koaza":"","lat":37.941463,"lng":139.277632,"zip":"9570078"},{"town":"乗廻","koaza":"","lat":37.916159,"lng":139.26342,"zip":"9592328"},{"town":"下興野","koaza":"","lat":37.936383,"lng":139.271202,"zip":"9570083"},{"town":"太田新田","koaza":"","lat":37.934029,"lng":139.259756,"zip":"9570091"},{"town":"上中沢","koaza":"","lat":37.945458,"lng":139.266055,"zip":"9570081"},{"town":"則清","koaza":"","lat":37.945133,"lng":139.28083,"zip":"9570077"},{"town":"下中ノ目","koaza":"","lat":37.92248,"lng":139.295549,"zip":"9592322"},{"town":"飯島","koaza":"","lat":37.93325,"lng":139.280214,"zip":"9570084"},{"town":"飯島新田","koaza":"","lat":37.928685,"lng":139.263117,"zip":"9570086"},{"town":"中々山","koaza":"","lat":37.858718,"lng":139.40282,"zip":"9570461"},{"town":"山内","koaza":"","lat":37.868457,"lng":139.395476,"zip":"9570466"},{"town":"天王","koaza":"妻勝","lat":37.89531,"lng":139.27211,"zip":"9592325"},{"town":"富塚","koaza":"三賀境","lat":37.953207,"lng":139.290099,"zip":"9570062"},{"town":"中曽根","koaza":"中坪","lat":37.96261,"lng":139.30947,"zip":"9570067"},{"town":"小舟渡","koaza":"神明前","lat":37.964545,"lng":139.314185,"zip":"9570000"}]