[{"town":"赤沢","koaza":"","lat":38.195919,"lng":139.54413,"zip":"9580816"},{"town":"あけぼの","koaza":"","lat":38.244984,"lng":139.50992,"zip":"9580270"},{"town":"芦谷","koaza":"","lat":38.458115,"lng":139.497974,"zip":"9593651"},{"town":"荒川","koaza":"","lat":38.458514,"lng":139.599007,"zip":"9593923"},{"town":"荒川口","koaza":"","lat":38.484673,"lng":139.568832,"zip":"9593921"},{"town":"荒川縁新田","koaza":"","lat":38.141255,"lng":139.431426,"zip":"9593125"},{"town":"荒沢","koaza":"","lat":38.341969,"lng":139.575565,"zip":"9580203"},{"town":"安良町","koaza":"","lat":38.223411,"lng":139.47684,"zip":"9580846"},{"town":"荒屋","koaza":"","lat":38.129612,"lng":139.41017,"zip":"9593116"},{"town":"新屋","koaza":"","lat":38.261997,"lng":139.570007,"zip":"9580232"},{"town":"有明","koaza":"","lat":38.179102,"lng":139.478982,"zip":"9593414"},{"town":"飯岡","koaza":"","lat":38.170393,"lng":139.471862,"zip":"9593422"},{"town":"飯野一丁目","koaza":"","lat":38.220244,"lng":139.475511,"zip":"9580857"},{"town":"飯野二丁目","koaza":"","lat":38.221902,"lng":139.474479,"zip":"9580857"},{"town":"飯野三丁目","koaza":"","lat":38.219525,"lng":139.471304,"zip":"9580857"},{"town":"飯野桜ケ丘","koaza":"","lat":38.221994,"lng":139.471097,"zip":"9580856"},{"town":"飯野西","koaza":"","lat":38.222896,"lng":139.465489,"zip":"9580855"},{"town":"雷","koaza":"","lat":38.499192,"lng":139.676429,"zip":"9593916"},{"town":"伊呉野","koaza":"","lat":38.552385,"lng":139.549303,"zip":"9593901"},{"town":"石住","koaza":"","lat":38.254374,"lng":139.546855,"zip":"9580235"},{"town":"石原","koaza":"","lat":38.226317,"lng":139.492967,"zip":"9580832"},{"town":"泉町","koaza":"","lat":38.229034,"lng":139.477623,"zip":"9580877"},{"town":"板貝","koaza":"","lat":38.399416,"lng":139.462127,"zip":"9593663"},{"town":"板屋越","koaza":"","lat":38.304081,"lng":139.539608,"zip":"9580214"},{"town":"板屋沢","koaza":"","lat":38.474914,"lng":139.540324,"zip":"9593937"},{"town":"今川","koaza":"","lat":38.411719,"lng":139.468089,"zip":"9593662"},{"town":"今宿","koaza":"","lat":38.182112,"lng":139.463853,"zip":"9593416"},{"town":"鋳物師","koaza":"","lat":38.204596,"lng":139.530815,"zip":"9580813"},{"town":"岩ケ崎","koaza":"","lat":38.247773,"lng":139.443628,"zip":"9580008"},{"town":"岩崩","koaza":"","lat":38.24258,"lng":139.614864,"zip":"9580241"},{"town":"岩崎","koaza":"","lat":38.521414,"lng":139.537589,"zip":"9593903"},{"town":"岩野沢","koaza":"","lat":38.16017,"lng":139.4687,"zip":"9593426"},{"town":"岩船","koaza":"","lat":38.205413,"lng":139.445279,"zip":"9593449"},{"town":"船","koaza":"","lat":38.185258,"lng":139.458659,"zip":"9580000"},{"town":"岩船上大町","koaza":"","lat":38.193468,"lng":139.437183,"zip":"9580044"},{"town":"岩船上浜町","koaza":"","lat":38.191789,"lng":139.434105,"zip":"9580045"},{"town":"岩船岸見寺町","koaza":"","lat":38.19325,"lng":139.432401,"zip":"9580047"},{"town":"岩船上町","koaza":"","lat":38.189758,"lng":139.437802,"zip":"9580051"},{"town":"岩船北浜町","koaza":"","lat":38.194781,"lng":139.429507,"zip":"9580042"},{"town":"岩船地蔵町","koaza":"","lat":38.194214,"lng":139.431703,"zip":"9580048"},{"town":"岩船下大町","koaza":"","lat":38.193989,"lng":139.434824,"zip":"9580043"},{"town":"岩船下浜町","koaza":"","lat":38.19267,"lng":139.433624,"zip":"9580046"},{"town":"岩船新田町","koaza":"","lat":38.188413,"lng":139.43646,"zip":"9580054"},{"town":"岩船縦新町","koaza":"","lat":38.187365,"lng":139.434631,"zip":"9580055"},{"town":"岩船中新町","koaza":"","lat":38.19013,"lng":139.434987,"zip":"9580056"},{"town":"岩船三日市","koaza":"","lat":38.196553,"lng":139.431865,"zip":"9580041"},{"town":"岩船港町","koaza":"","lat":38.190461,"lng":139.431905,"zip":"9580058"},{"town":"岩船横新町","koaza":"","lat":38.190834,"lng":139.434875,"zip":"9580057"},{"town":"上野","koaza":"","lat":38.275994,"lng":139.513857,"zip":"9580262"},{"town":"牛屋","koaza":"","lat":38.152615,"lng":139.442308,"zip":"9593436"},{"town":"鵜泊","koaza":"","lat":38.481967,"lng":139.509011,"zip":"9593947"},{"town":"鵜渡路","koaza":"","lat":38.269851,"lng":139.507188,"zip":"9580264"},{"town":"海老江","koaza":"","lat":38.141025,"lng":139.414182,"zip":"9593117"},{"town":"大欠","koaza":"","lat":38.227095,"lng":139.467041,"zip":"9580867"},{"town":"大栗田","koaza":"","lat":38.180672,"lng":139.606102,"zip":"9580815"},{"town":"大毎","koaza":"","lat":38.42767,"lng":139.588726,"zip":"9593926"},{"town":"大沢","koaza":"","lat":38.41601,"lng":139.580459,"zip":"9593925"},{"town":"大須戸","koaza":"","lat":38.341566,"lng":139.556115,"zip":"9580202"},{"town":"大関","koaza":"","lat":38.214472,"lng":139.519648,"zip":"9580812"},{"town":"大代","koaza":"","lat":38.498616,"lng":139.643024,"zip":"9593915"},{"town":"大谷沢","koaza":"","lat":38.508553,"lng":139.549065,"zip":"9593906"},{"town":"大津","koaza":"","lat":38.128626,"lng":139.441998,"zip":"9593122"},{"town":"大塚","koaza":"","lat":38.185827,"lng":139.469149,"zip":"9593415"},{"town":"大月","koaza":"","lat":38.259882,"lng":139.448979,"zip":"9580007"},{"town":"大場沢","koaza":"","lat":38.244282,"lng":139.52712,"zip":"9580253"},{"town":"大町","koaza":"","lat":38.224313,"lng":139.478413,"zip":"9580842"},{"town":"小川","koaza":"","lat":38.247239,"lng":139.503543,"zip":"9580268"},{"town":"小国町","koaza":"","lat":38.223895,"lng":139.474092,"zip":"9580848"},{"town":"遅郷","koaza":"","lat":38.517118,"lng":139.562653,"zip":"9593912"},{"town":"小谷","koaza":"","lat":38.21739,"lng":139.527355,"zip":"9580806"},{"town":"小俣","koaza":"","lat":38.511151,"lng":139.602813,"zip":"9593914"},{"town":"加賀町","koaza":"","lat":38.228549,"lng":139.480227,"zip":"9580875"},{"town":"垣之内","koaza":"","lat":38.475581,"lng":139.54428,"zip":"9593932"},{"town":"柏尾","koaza":"","lat":38.295838,"lng":139.450345,"zip":"9580004"},{"town":"鍛冶町","koaza":"","lat":38.224682,"lng":139.471104,"zip":"9580863"},{"town":"潟端","koaza":"","lat":38.190525,"lng":139.462344,"zip":"9593448"},{"town":"片町","koaza":"","lat":38.229731,"lng":139.488387,"zip":"9580872"},{"town":"勝木","koaza":"","lat":38.489355,"lng":139.521498,"zip":"9593942"},{"town":"学校町","koaza":"","lat":38.227519,"lng":139.457959,"zip":"9580031"},{"town":"金屋","koaza":"","lat":38.134464,"lng":139.426266,"zip":"9593124"},{"town":"釜杭","koaza":"","lat":38.228113,"lng":139.573426,"zip":"9580245"},{"town":"上相川","koaza":"","lat":38.217955,"lng":139.513611,"zip":"9580808"},{"town":"上大蔵","koaza":"","lat":38.48068,"lng":139.535987,"zip":"9593948"},{"town":"上大鳥","koaza":"","lat":38.467193,"lng":139.561437,"zip":"9593934"},{"town":"上鍜冶屋","koaza":"","lat":38.110048,"lng":139.45702,"zip":"9593108"},{"town":"上片町","koaza":"","lat":38.228482,"lng":139.491517,"zip":"9580873"},{"town":"上助渕","koaza":"","lat":38.204435,"lng":139.477119,"zip":"9593403"},{"town":"上中島","koaza":"","lat":38.258337,"lng":139.549059,"zip":"9580236"},{"town":"上の山","koaza":"","lat":38.185782,"lng":139.440152,"zip":"9580053"},{"town":"上山田","koaza":"","lat":38.223899,"lng":139.556534,"zip":"9580805"},{"town":"河内","koaza":"","lat":38.162238,"lng":139.527685,"zip":"9593417"},{"town":"川部","koaza":"","lat":38.123771,"lng":139.482621,"zip":"9593433"},{"town":"寒川","koaza":"","lat":38.45134,"lng":139.49419,"zip":"9593653"},{"town":"岩石","koaza":"","lat":38.52176,"lng":139.566942,"zip":"9593913"},{"town":"上町","koaza":"","lat":38.222467,"lng":139.478306,"zip":"9580843"},{"town":"北赤谷","koaza":"","lat":38.471768,"lng":139.548283,"zip":"9593936"},{"town":"北大平","koaza":"","lat":38.321191,"lng":139.581673,"zip":"9580212"},{"town":"北黒川","koaza":"","lat":38.443173,"lng":139.594383,"zip":"9593924"},{"town":"北新保","koaza":"","lat":38.16817,"lng":139.437151,"zip":"9593443"},{"town":"北田中","koaza":"","lat":38.469051,"lng":139.554336,"zip":"9593935"},{"town":"北中","koaza":"","lat":38.439474,"lng":139.593404,"zip":"9593927"},{"town":"切田","koaza":"","lat":38.096495,"lng":139.447821,"zip":"9593106"},{"town":"茎太","koaza":"","lat":38.24705,"lng":139.604673,"zip":"9580242"},{"town":"日下","koaza":"","lat":38.225244,"lng":139.515274,"zip":"9580807"},{"town":"久保多町","koaza":"","lat":38.229572,"lng":139.484397,"zip":"9580871"},{"town":"熊登","koaza":"","lat":38.246292,"lng":139.542214,"zip":"9580255"},{"town":"桑川","koaza":"","lat":38.37292,"lng":139.45757,"zip":"9593665"},{"town":"下渡","koaza":"","lat":38.234816,"lng":139.474265,"zip":"9580014"},{"town":"小揚","koaza":"","lat":38.235556,"lng":139.590225,"zip":"9580244"},{"town":"碁石","koaza":"","lat":38.494121,"lng":139.517876,"zip":"9593941"},{"town":"小出","koaza":"","lat":38.184049,"lng":139.481042,"zip":"9593413"},{"town":"越沢","koaza":"","lat":38.440505,"lng":139.526707,"zip":"9593652"},{"town":"小口川","koaza":"","lat":38.191097,"lng":139.455243,"zip":"9593446"},{"town":"九日市","koaza":"","lat":38.178509,"lng":139.456324,"zip":"9593423"},{"town":"小須戸","koaza":"","lat":38.325615,"lng":139.560648,"zip":"9580204"},{"town":"小町","koaza":"","lat":38.226202,"lng":139.478815,"zip":"9580841"},{"town":"薦川","koaza":"","lat":38.293082,"lng":139.601462,"zip":"9580221"},{"town":"細工町","koaza":"","lat":38.222268,"lng":139.476523,"zip":"9580845"},{"town":"幸町","koaza":"","lat":38.226936,"lng":139.464014,"zip":"9580865"},{"town":"肴町","koaza":"","lat":38.224697,"lng":139.465174,"zip":"9580864"},{"town":"坂町","koaza":"","lat":38.110135,"lng":139.443031,"zip":"9593132"},{"town":"笹川","koaza":"","lat":38.386391,"lng":139.458745,"zip":"9593664"},{"town":"笹平","koaza":"","lat":38.231398,"lng":139.562763,"zip":"9580246"},{"town":"指合","koaza":"","lat":38.182157,"lng":139.501831,"zip":"9593412"},{"town":"里本庄","koaza":"","lat":38.193605,"lng":139.492955,"zip":"9593405"},{"town":"山辺里","koaza":"","lat":38.232,"lng":139.492119,"zip":"9580821"},{"town":"山居町一丁目","koaza":"","lat":38.215611,"lng":139.468235,"zip":"9580853"},{"town":"山居町二丁目","koaza":"","lat":38.213503,"lng":139.465846,"zip":"9580853"},{"town":"三之町","koaza":"","lat":38.223813,"lng":139.48019,"zip":"9580837"},{"town":"塩野町","koaza":"","lat":38.327394,"lng":139.55479,"zip":"9580205"},{"town":"塩町","koaza":"","lat":38.226658,"lng":139.475859,"zip":"9580876"},{"town":"塩谷","koaza":"","lat":38.15945,"lng":139.419005,"zip":"9593441"},{"town":"志田平","koaza":"","lat":38.204704,"lng":139.465739,"zip":"9593402"},{"town":"下相川","koaza":"","lat":38.224934,"lng":139.503292,"zip":"9580809"},{"town":"下大蔵","koaza":"","lat":38.484922,"lng":139.532936,"zip":"9593943"},{"town":"下大鳥","koaza":"","lat":38.474056,"lng":139.552429,"zip":"9593933"},{"town":"下鍜冶屋","koaza":"","lat":38.112038,"lng":139.45288,"zip":"9593107"},{"town":"下新保","koaza":"","lat":38.256364,"lng":139.53,"zip":"9580252"},{"town":"下助渕","koaza":"","lat":38.196514,"lng":139.467979,"zip":"9593406"},{"town":"下中島","koaza":"","lat":38.260668,"lng":139.500115,"zip":"9580265"},{"town":"下山田","koaza":"","lat":38.232466,"lng":139.526719,"zip":"9580804"},{"town":"庄内町","koaza":"","lat":38.228041,"lng":139.482471,"zip":"9580874"},{"town":"新光寺","koaza":"","lat":38.12253,"lng":139.413387,"zip":"9593115"},{"town":"新町","koaza":"","lat":38.224304,"lng":139.48901,"zip":"9580834"},{"town":"菅沼","koaza":"","lat":38.198013,"lng":139.53281,"zip":"9580817"},{"town":"杉平","koaza":"","lat":38.519398,"lng":139.557021,"zip":"9593911"},{"town":"杉原","koaza":"","lat":38.227434,"lng":139.488019,"zip":"9580831"},{"town":"関口","koaza":"","lat":38.304669,"lng":139.552926,"zip":"9580225"},{"town":"瀬波","koaza":"","lat":38.228682,"lng":139.450248,"zip":"9580037"},{"town":"瀬波温泉一丁目","koaza":"","lat":38.223711,"lng":139.444308,"zip":"9580037"},{"town":"瀬波温泉二丁目","koaza":"","lat":38.215097,"lng":139.443936,"zip":"9580037"},{"town":"瀬波温泉三丁目","koaza":"","lat":38.207778,"lng":139.434704,"zip":"9580037"},{"town":"瀬波上町","koaza":"","lat":38.230389,"lng":139.457145,"zip":"9580023"},{"town":"瀬波新田町","koaza":"","lat":38.236448,"lng":139.451036,"zip":"9580021"},{"town":"瀬波中町","koaza":"","lat":38.228373,"lng":139.45354,"zip":"9580024"},{"town":"瀬波浜町","koaza":"","lat":38.231938,"lng":139.451558,"zip":"9580026"},{"town":"瀬波横町","koaza":"","lat":38.233136,"lng":139.453639,"zip":"9580022"},{"town":"十川","koaza":"","lat":38.250706,"lng":139.514181,"zip":"9580254"},{"town":"大工町","koaza":"","lat":38.224034,"lng":139.477017,"zip":"9580847"},{"town":"高根","koaza":"","lat":38.329692,"lng":139.607637,"zip":"9580211"},{"town":"高御堂","koaza":"","lat":38.186468,"lng":139.461272,"zip":"9593447"},{"town":"滝の前","koaza":"","lat":38.241766,"lng":139.453397,"zip":"9580011"},{"town":"立島","koaza":"","lat":38.479537,"lng":139.530839,"zip":"9593944"},{"town":"田端町","koaza":"","lat":38.220753,"lng":139.466053,"zip":"9580854"},{"town":"千縄","koaza":"","lat":38.2485,"lng":139.598335,"zip":"9580243"},{"town":"仲間町","koaza":"","lat":38.221917,"lng":139.492174,"zip":"9580823"},{"town":"葛籠山","koaza":"","lat":38.132292,"lng":139.469923,"zip":"9593432"},{"town":"坪根","koaza":"","lat":38.218253,"lng":139.503106,"zip":"9580822"},{"town":"寺尾","koaza":"","lat":38.251755,"lng":139.490782,"zip":"9580267"},{"town":"寺町","koaza":"","lat":38.224849,"lng":139.476577,"zip":"9580849"},{"town":"天神岡","koaza":"","lat":38.234199,"lng":139.506387,"zip":"9580803"},{"town":"塔下","koaza":"","lat":38.510162,"lng":139.558078,"zip":"9593919"},{"town":"遠矢崎","koaza":"","lat":38.477964,"lng":139.537941,"zip":"9593938"},{"town":"殿岡","koaza":"","lat":38.189053,"lng":139.482044,"zip":"9593407"},{"town":"鳥屋","koaza":"","lat":38.137881,"lng":139.437386,"zip":"9593126"},{"town":"長井町","koaza":"","lat":38.220511,"lng":139.478008,"zip":"9580844"},{"town":"中川原団地","koaza":"","lat":38.227408,"lng":139.470728,"zip":"9580861"},{"town":"中倉","koaza":"","lat":38.124453,"lng":139.430645,"zip":"9593123"},{"town":"長坂","koaza":"","lat":38.478917,"lng":139.539371,"zip":"9593931"},{"town":"中新保","koaza":"","lat":38.260249,"lng":139.562128,"zip":"9580233"},{"town":"中継","koaza":"","lat":38.479282,"lng":139.607231,"zip":"9593918"},{"town":"中津原","koaza":"","lat":38.458786,"lng":139.575398,"zip":"9593928"},{"town":"中野","koaza":"","lat":38.111072,"lng":139.423924,"zip":"9593112"},{"town":"中浜","koaza":"","lat":38.538556,"lng":139.548298,"zip":"9593902"},{"town":"長政","koaza":"","lat":38.103068,"lng":139.427453,"zip":"9593111"},{"town":"長松","koaza":"","lat":38.162625,"lng":139.436032,"zip":"9593442"},{"town":"梨木","koaza":"","lat":38.10498,"lng":139.459698,"zip":"9593105"},{"town":"七湊","koaza":"","lat":38.205209,"lng":139.457802,"zip":"9593401"},{"town":"名割","koaza":"","lat":38.117822,"lng":139.424238,"zip":"9593113"},{"town":"新飯田","koaza":"","lat":38.187475,"lng":139.450243,"zip":"9593445"},{"town":"西興屋","koaza":"","lat":38.2437,"lng":139.490819,"zip":"9580801"},{"town":"二之町","koaza":"","lat":38.223353,"lng":139.483562,"zip":"9580835"},{"town":"温出","koaza":"","lat":38.514184,"lng":139.55132,"zip":"9593904"},{"town":"寝屋","koaza":"","lat":38.486352,"lng":139.512633,"zip":"9593946"},{"town":"野潟","koaza":"","lat":38.268825,"lng":139.450041,"zip":"9580006"},{"town":"羽ヶ榎","koaza":"","lat":38.124883,"lng":139.448858,"zip":"9593134"},{"town":"羽黒口","koaza":"","lat":38.220387,"lng":139.481603,"zip":"9580836"},{"town":"羽黒町","koaza":"","lat":38.218463,"lng":139.478976,"zip":"9580851"},{"town":"羽下ケ渕","koaza":"","lat":38.240276,"lng":139.461872,"zip":"9580013"},{"town":"浜新田","koaza":"","lat":38.219217,"lng":139.448352,"zip":"9580038"},{"town":"浜新保","koaza":"","lat":38.366766,"lng":139.455255,"zip":"9593666"},{"town":"早川","koaza":"","lat":38.325312,"lng":139.453893,"zip":"9580002"},{"town":"春木山","koaza":"","lat":38.109471,"lng":139.462499,"zip":"9593104"},{"town":"東興屋","koaza":"","lat":38.223071,"lng":139.498204,"zip":"9580000"},{"town":"檜原","koaza":"","lat":38.293606,"lng":139.535587,"zip":"9580215"},{"town":"平林","koaza":"","lat":38.14176,"lng":139.462419,"zip":"9593431"},{"town":"福田","koaza":"","lat":38.15357,"lng":139.428422,"zip":"9593437"},{"town":"藤沢","koaza":"","lat":38.120313,"lng":139.453474,"zip":"9593131"},{"town":"蒲萄","koaza":"","lat":38.388836,"lng":139.554346,"zip":"9580201"},{"town":"府屋","koaza":"","lat":38.514323,"lng":139.533591,"zip":"9593907"},{"town":"古渡路","koaza":"","lat":38.243276,"lng":139.503771,"zip":"9580269"},{"town":"朴平","koaza":"","lat":38.479316,"lng":139.581723,"zip":"9593922"},{"town":"堀片","koaza":"","lat":38.225764,"lng":139.489852,"zip":"9580833"},{"town":"堀野","koaza":"","lat":38.256211,"lng":139.559039,"zip":"9580234"},{"town":"堀ノ内","koaza":"","lat":38.514323,"lng":139.547218,"zip":"9593905"},{"town":"馬下","koaza":"","lat":38.346257,"lng":139.453185,"zip":"9580001"},{"town":"牧目","koaza":"","lat":38.173044,"lng":139.452068,"zip":"9593424"},{"town":"間島","koaza":"","lat":38.27589,"lng":139.451919,"zip":"9580005"},{"town":"間瀬","koaza":"","lat":38.485017,"lng":139.519925,"zip":"9593945"},{"town":"松岡","koaza":"","lat":38.320671,"lng":139.550536,"zip":"9580206"},{"town":"松喜和","koaza":"","lat":38.179122,"lng":139.441292,"zip":"9593428"},{"town":"松沢","koaza":"","lat":38.152056,"lng":139.475376,"zip":"9593427"},{"town":"松波町","koaza":"","lat":38.231275,"lng":139.449048,"zip":"9580025"},{"town":"松原町一丁目","koaza":"","lat":38.225739,"lng":139.462384,"zip":"9580032"},{"town":"松原町二丁目","koaza":"","lat":38.225197,"lng":139.459231,"zip":"9580032"},{"town":"松原町三丁目","koaza":"","lat":38.223829,"lng":139.461152,"zip":"9580032"},{"town":"松原町四丁目","koaza":"","lat":38.226098,"lng":139.460318,"zip":"9580032"},{"town":"松山","koaza":"","lat":38.215759,"lng":139.456464,"zip":"9580034"},{"town":"三面","koaza":"","lat":38.248372,"lng":139.723198,"zip":"9580035"},{"town":"三日市","koaza":"","lat":38.207068,"lng":139.443208,"zip":"9580000"},{"town":"緑町一丁目","koaza":"","lat":38.223105,"lng":139.459815,"zip":"9580033"},{"town":"緑町二丁目","koaza":"","lat":38.22082,"lng":139.45725,"zip":"9580033"},{"town":"緑町三丁目","koaza":"","lat":38.220491,"lng":139.454347,"zip":"9580033"},{"town":"緑町四丁目","koaza":"","lat":38.21841,"lng":139.45772,"zip":"9580033"},{"town":"緑町五丁目","koaza":"","lat":38.219628,"lng":139.460897,"zip":"9580033"},{"town":"南大平","koaza":"","lat":38.177009,"lng":139.531154,"zip":"9593411"},{"town":"南新保","koaza":"","lat":38.119002,"lng":139.413096,"zip":"9593114"},{"town":"南田中","koaza":"","lat":38.164414,"lng":139.45067,"zip":"9593444"},{"town":"南町一丁目","koaza":"","lat":38.217577,"lng":139.473988,"zip":"9580852"},{"town":"南町二丁目","koaza":"","lat":38.216358,"lng":139.471635,"zip":"9580852"},{"town":"宮ノ下","koaza":"","lat":38.257002,"lng":139.497821,"zip":"9580266"},{"town":"村上","koaza":"","lat":38.22904,"lng":139.464225,"zip":"9580866"},{"town":"本町","koaza":"","lat":38.220799,"lng":139.486737,"zip":"9580824"},{"town":"桃川","koaza":"","lat":38.163228,"lng":139.499839,"zip":"9593421"},{"town":"門前","koaza":"","lat":38.201362,"lng":139.553208,"zip":"9580814"},{"town":"宿田","koaza":"","lat":38.149108,"lng":139.458769,"zip":"9593435"},{"town":"山口","koaza":"","lat":38.121962,"lng":139.444875,"zip":"9593133"},{"town":"山熊田","koaza":"","lat":38.45702,"lng":139.666604,"zip":"9593917"},{"town":"山田","koaza":"","lat":38.163857,"lng":139.46795,"zip":"9593425"},{"town":"山屋","koaza":"","lat":38.205681,"lng":139.486253,"zip":"9593404"},{"town":"八日市","koaza":"","lat":38.187246,"lng":139.444021,"zip":"9580052"},{"town":"吉浦","koaza":"","lat":38.307815,"lng":139.45271,"zip":"9580003"},{"town":"四日市","koaza":"","lat":38.238506,"lng":139.501181,"zip":"9580802"},{"town":"若葉町","koaza":"","lat":38.227844,"lng":139.469106,"zip":"9580862"},{"town":"脇川","koaza":"","lat":38.435278,"lng":139.483114,"zip":"9593661"},{"town":"早稲田","koaza":"","lat":38.31433,"lng":139.547705,"zip":"9580213"},{"town":"佐々木","koaza":"","lat":38.121665,"lng":139.463818,"zip":"9593121"},{"town":"小岩内","koaza":"","lat":38.114727,"lng":139.488996,"zip":"9593434"},{"town":"花立","koaza":"","lat":38.107894,"lng":139.483641,"zip":"9593101"},{"town":"荒島","koaza":"","lat":38.110639,"lng":139.473626,"zip":"9593103"},{"town":"貝附","koaza":"","lat":38.10711,"lng":139.476686,"zip":"9593102"},{"town":"布部","koaza":"","lat":38.265707,"lng":139.568049,"zip":"9580231"},{"town":"猿沢","koaza":"","lat":38.282297,"lng":139.520938,"zip":"9580261"},{"town":"岩沢","koaza":"","lat":38.266047,"lng":139.531913,"zip":"9580251"},{"town":"川端","koaza":"","lat":38.274361,"lng":139.525783,"zip":"9580263"},{"town":"中原","koaza":"","lat":38.27577,"lng":139.541037,"zip":"9580223"},{"town":"黒田","koaza":"","lat":38.290678,"lng":139.550547,"zip":"9580224"},{"town":"猿田","koaza":"","lat":38.27998,"lng":139.568277,"zip":"9580222"},{"town":"朝日中野","koaza":"","lat":38.278758,"lng":139.56104,"zip":"9580226"},{"town":"上助渕","koaza":"谷地","lat":38.206795,"lng":139.478878,"zip":"9593403"},{"town":"仲間町","koaza":"坂下","lat":38.213037,"lng":139.483933,"zip":"9580823"},{"town":"仲間町","koaza":"菖蒲田","lat":38.219635,"lng":139.490554,"zip":"9580823"},{"town":"天神岡","koaza":"庄作","lat":38.233826,"lng":139.498753,"zip":"9580803"},{"town":"大関","koaza":"高平","lat":38.21565,"lng":139.522112,"zip":"9580812"},{"town":"村上","koaza":"丸山","lat":38.225182,"lng":139.49474,"zip":"9580866"},{"town":"山辺里","koaza":"太田","lat":38.231644,"lng":139.498808,"zip":"9580821"},{"town":"岩船","koaza":"駅前","lat":38.18247,"lng":139.456419,"zip":"9593449"},{"town":"村上","koaza":"牛沢","lat":38.215106,"lng":139.483864,"zip":"9580866"}]