[{"town":"赤岩","koaza":"","lat":37.689142,"lng":139.419342,"zip":"9594408"},{"town":"あが野北","koaza":"","lat":37.715864,"lng":139.378257,"zip":"9594621"},{"town":"あが野南","koaza":"","lat":37.710319,"lng":139.366731,"zip":"9594626"},{"town":"新谷","koaza":"","lat":37.755757,"lng":139.466503,"zip":"9594603"},{"town":"五十沢","koaza":"","lat":37.731863,"lng":139.392863,"zip":"9594606"},{"town":"五十島","koaza":"","lat":37.683196,"lng":139.332276,"zip":"9594614"},{"town":"石戸","koaza":"","lat":37.757151,"lng":139.335847,"zip":"9594632"},{"town":"石間","koaza":"","lat":37.751534,"lng":139.304304,"zip":"9594636"},{"town":"岩谷","koaza":"","lat":37.722086,"lng":139.363029,"zip":"9594627"},{"town":"上ノ山","koaza":"","lat":37.675335,"lng":139.454906,"zip":"9594405"},{"town":"大牧","koaza":"","lat":37.69049,"lng":139.409187,"zip":"9594410"},{"town":"岡沢","koaza":"","lat":37.777422,"lng":139.487399,"zip":"9594612"},{"town":"小手茂","koaza":"","lat":37.579949,"lng":139.45758,"zip":"9594525"},{"town":"鹿瀬","koaza":"","lat":37.706567,"lng":139.466162,"zip":"9594302"},{"town":"上島","koaza":"","lat":37.742911,"lng":139.382402,"zip":"9594617"},{"town":"神谷","koaza":"","lat":37.528463,"lng":139.365053,"zip":"9594534"},{"town":"川口","koaza":"","lat":37.721547,"lng":139.391685,"zip":"9594618"},{"town":"京ノ瀬","koaza":"","lat":37.705574,"lng":139.439962,"zip":"9594409"},{"town":"九島","koaza":"","lat":37.644058,"lng":139.458552,"zip":"9594501"},{"town":"熊渡","koaza":"","lat":37.735501,"lng":139.320486,"zip":"9594634"},{"town":"雲和田","koaza":"","lat":37.662356,"lng":139.427103,"zip":"9594406"},{"town":"倉ノ平","koaza":"","lat":37.680179,"lng":139.524208,"zip":"9594413"},{"town":"黒岩","koaza":"","lat":37.695907,"lng":139.383317,"zip":"9594623"},{"town":"小出","koaza":"","lat":37.628478,"lng":139.490236,"zip":"9594502"},{"town":"小花地","koaza":"","lat":37.700363,"lng":139.395506,"zip":"9594608"},{"town":"三宝分","koaza":"","lat":37.598375,"lng":139.488342,"zip":"9594522"},{"town":"白崎","koaza":"","lat":37.710435,"lng":139.385507,"zip":"9594622"},{"town":"大倉","koaza":"","lat":37.563739,"lng":139.557722,"zip":"9594512"},{"town":"田沢","koaza":"","lat":37.632465,"lng":139.526828,"zip":"9594416"},{"town":"津川","koaza":"","lat":37.676236,"lng":139.450069,"zip":"9594402"},{"town":"綱木","koaza":"","lat":37.795596,"lng":139.422528,"zip":"9594601"},{"town":"角島","koaza":"","lat":37.695737,"lng":139.45322,"zip":"9594401"},{"town":"釣浜","koaza":"","lat":37.727925,"lng":139.305268,"zip":"9594635"},{"town":"天満","koaza":"","lat":37.661716,"lng":139.4846,"zip":"9594411"},{"town":"豊川","koaza":"","lat":37.613457,"lng":139.462825,"zip":"9594503"},{"town":"豊実","koaza":"","lat":37.759764,"lng":139.635784,"zip":"9594304"},{"town":"取上","koaza":"","lat":37.733871,"lng":139.330981,"zip":"9594631"},{"town":"長谷","koaza":"","lat":37.709882,"lng":139.308434,"zip":"9594633"},{"town":"中ノ沢","koaza":"","lat":37.768551,"lng":139.366211,"zip":"9594611"},{"town":"七名","koaza":"","lat":37.547158,"lng":139.52947,"zip":"9594514"},{"town":"西","koaza":"","lat":37.666432,"lng":139.413511,"zip":"9594407"},{"town":"野村","koaza":"","lat":37.654237,"lng":139.48035,"zip":"9594418"},{"town":"花立","koaza":"","lat":37.661643,"lng":139.50544,"zip":"9594412"},{"town":"払川","koaza":"","lat":37.651921,"lng":139.444375,"zip":"9594441"},{"town":"東山","koaza":"","lat":37.602517,"lng":139.522621,"zip":"9594511"},{"town":"日出谷","koaza":"","lat":37.750197,"lng":139.551394,"zip":"9594303"},{"town":"日野川","koaza":"","lat":37.61066,"lng":139.442436,"zip":"9594539"},{"town":"平堀","koaza":"","lat":37.66863,"lng":139.472606,"zip":"9594403"},{"town":"広沢","koaza":"","lat":37.661814,"lng":139.469237,"zip":"9594404"},{"town":"広谷","koaza":"","lat":37.576903,"lng":139.438474,"zip":"9594537"},{"town":"福取","koaza":"","lat":37.66252,"lng":139.552957,"zip":"9594414"},{"town":"古岐","koaza":"","lat":37.783396,"lng":139.356207,"zip":"9594602"},{"town":"細越","koaza":"","lat":37.745719,"lng":139.407159,"zip":"9594605"},{"town":"三方","koaza":"","lat":37.552854,"lng":139.484708,"zip":"9594524"},{"town":"向鹿瀬","koaza":"","lat":37.700062,"lng":139.481937,"zip":"9594301"},{"town":"八木山","koaza":"","lat":37.667219,"lng":139.534223,"zip":"9594417"},{"town":"谷沢","koaza":"","lat":37.654263,"lng":139.378224,"zip":"9594624"},{"town":"八ツ田","koaza":"","lat":37.662054,"lng":139.573242,"zip":"9594415"},{"town":"行地","koaza":"","lat":37.734593,"lng":139.439618,"zip":"9594604"},{"town":"吉津","koaza":"","lat":37.716551,"lng":139.371668,"zip":"9594625"},{"town":"両郷","koaza":"","lat":37.636635,"lng":139.467053,"zip":"9594506"}]