[{"town":"青山町","koaza":"","lat":37.430963,"lng":138.600198,"zip":"9450016"},{"town":"赤坂町","koaza":"","lat":37.359467,"lng":138.537732,"zip":"9450847"},{"town":"朝日が丘","koaza":"","lat":37.352438,"lng":138.574362,"zip":"9450814"},{"town":"荒浜一丁目","koaza":"","lat":37.403549,"lng":138.583441,"zip":"9450017"},{"town":"荒浜二丁目","koaza":"","lat":37.408131,"lng":138.587819,"zip":"9450017"},{"town":"荒浜三丁目","koaza":"","lat":37.413502,"lng":138.596446,"zip":"9450017"},{"town":"荒浜四丁目","koaza":"","lat":37.417554,"lng":138.593705,"zip":"9450017"},{"town":"安政町","koaza":"","lat":37.385615,"lng":138.565233,"zip":"9450071"},{"town":"茨目一丁目","koaza":"","lat":37.362091,"lng":138.579774,"zip":"9451341"},{"town":"茨目二丁目","koaza":"","lat":37.360047,"lng":138.584076,"zip":"9451341"},{"town":"茨目三丁目","koaza":"","lat":37.364311,"lng":138.584788,"zip":"9451341"},{"town":"岩上","koaza":"","lat":37.360577,"lng":138.571599,"zip":"9450811"},{"town":"駅前一丁目","koaza":"","lat":37.364453,"lng":138.554927,"zip":"9450055"},{"town":"駅前二丁目","koaza":"","lat":37.366718,"lng":138.554757,"zip":"9450055"},{"town":"扇町","koaza":"","lat":37.366579,"lng":138.569841,"zip":"9450044"},{"town":"大字上輪","koaza":"","lat":37.320546,"lng":138.454142,"zip":"9450000"},{"town":"大字上輪新田","koaza":"","lat":37.325864,"lng":138.459813,"zip":"9450000"},{"town":"大字畔屋","koaza":"","lat":37.3712,"lng":138.625236,"zip":"9450000"},{"town":"大字飯塚","koaza":"","lat":37.409649,"lng":138.638717,"zip":"9450000"},{"town":"大字五十土","koaza":"","lat":37.407506,"lng":138.686795,"zip":"9450000"},{"town":"大字石曽根","koaza":"","lat":37.265587,"lng":138.618724,"zip":"9450000"},{"town":"大字市野新田","koaza":"","lat":37.250078,"lng":138.526838,"zip":"9450000"},{"town":"大字茨目","koaza":"","lat":37.355988,"lng":138.58524,"zip":"9450000"},{"town":"大字芋川","koaza":"","lat":37.305429,"lng":138.594861,"zip":"9450000"},{"town":"大字青海川","koaza":"","lat":37.341233,"lng":138.486468,"zip":"9450000"},{"town":"大字大河内新田","koaza":"","lat":37.330135,"lng":138.541496,"zip":"9450000"},{"town":"大字大沢","koaza":"","lat":37.249711,"lng":138.65798,"zip":"9450000"},{"town":"大字大清水","koaza":"","lat":37.299584,"lng":138.423126,"zip":"9450000"},{"town":"大字大平","koaza":"","lat":37.297506,"lng":138.463626,"zip":"9450000"},{"town":"大字大広田","koaza":"","lat":37.352873,"lng":138.679449,"zip":"9450000"},{"town":"大字大湊","koaza":"","lat":37.442175,"lng":138.606533,"zip":"9450000"},{"town":"大字女谷","koaza":"","lat":37.239566,"lng":138.539903,"zip":"9450000"},{"town":"大字折居","koaza":"","lat":37.22184,"lng":138.555731,"zip":"9450000"},{"town":"大字貝渕","koaza":"","lat":37.321254,"lng":138.558621,"zip":"9450000"},{"town":"大字笠島","koaza":"","lat":37.330649,"lng":138.474832,"zip":"9450000"},{"town":"大字加納","koaza":"","lat":37.317809,"lng":138.613132,"zip":"9450000"},{"town":"大字上田尻","koaza":"","lat":37.354374,"lng":138.5981,"zip":"9450000"},{"town":"大字木沢","koaza":"","lat":37.267562,"lng":138.548757,"zip":"9450000"},{"town":"大字北条","koaza":"","lat":37.341778,"lng":138.6379,"zip":"9450000"},{"town":"大字旧広田","koaza":"","lat":37.351518,"lng":138.668009,"zip":"9450000"},{"town":"大字鯨波","koaza":"","lat":37.321712,"lng":138.525999,"zip":"9450000"},{"town":"大字黒滝","koaza":"","lat":37.312322,"lng":138.553261,"zip":"9450000"},{"town":"大字久米","koaza":"","lat":37.28646,"lng":138.596612,"zip":"9450000"},{"town":"大字劔野","koaza":"","lat":37.346015,"lng":138.551856,"zip":"9450000"},{"town":"大字小黒須","koaza":"","lat":37.416127,"lng":138.675211,"zip":"9450000"},{"town":"大字小島","koaza":"","lat":37.356457,"lng":138.642501,"zip":"9450000"},{"town":"大字小杉","koaza":"","lat":37.315649,"lng":138.4848,"zip":"9450000"},{"town":"大字小田山新田","koaza":"","lat":37.308468,"lng":138.599362,"zip":"9450000"},{"town":"大字佐藤池新田","koaza":"","lat":37.349776,"lng":138.589397,"zip":"9450000"},{"town":"大字佐水","koaza":"","lat":37.293526,"lng":138.576227,"zip":"9450000"},{"town":"大字椎谷","koaza":"","lat":37.475709,"lng":138.623821,"zip":"9450000"},{"town":"大字清水谷","koaza":"","lat":37.240553,"lng":138.589833,"zip":"9450000"},{"town":"大字下大新田","koaza":"","lat":37.39345,"lng":138.61895,"zip":"9450000"},{"town":"大字下方","koaza":"","lat":37.345484,"lng":138.557249,"zip":"9450000"},{"town":"大字下田尻","koaza":"","lat":37.361655,"lng":138.600869,"zip":"9450000"},{"town":"大字上条","koaza":"","lat":37.313819,"lng":138.581202,"zip":"9450000"},{"town":"大字善根","koaza":"","lat":37.304637,"lng":138.641,"zip":"9450000"},{"town":"大字曽地","koaza":"","lat":37.400964,"lng":138.662572,"zip":"9450000"},{"town":"大字曽地新田","koaza":"","lat":37.403115,"lng":138.623294,"zip":"9450000"},{"town":"大字高畔","koaza":"","lat":37.304065,"lng":138.448632,"zip":"9450000"},{"town":"大字田塚","koaza":"","lat":37.36986,"lng":138.588002,"zip":"9450000"},{"town":"大字谷川新田","koaza":"","lat":37.242906,"lng":138.580193,"zip":"9450000"},{"town":"大字田屋","koaza":"","lat":37.284203,"lng":138.547183,"zip":"9450000"},{"town":"大字谷根","koaza":"","lat":37.302405,"lng":138.512754,"zip":"9450000"},{"town":"大字劔","koaza":"","lat":37.387822,"lng":138.606055,"zip":"9450000"},{"town":"大字土合","koaza":"","lat":37.393644,"lng":138.600434,"zip":"9450000"},{"town":"大字土合新田","koaza":"","lat":37.391755,"lng":138.610743,"zip":"9450000"},{"town":"大字東条","koaza":"","lat":37.341775,"lng":138.661414,"zip":"9450000"},{"town":"大字長崎","koaza":"","lat":37.399069,"lng":138.601137,"zip":"9450000"},{"town":"大字長崎新田","koaza":"","lat":37.398737,"lng":138.612791,"zip":"9450000"},{"town":"大字中田","koaza":"","lat":37.376227,"lng":138.611007,"zip":"9450000"},{"town":"大字成沢","koaza":"","lat":37.40388,"lng":138.679206,"zip":"9450000"},{"town":"大字西長鳥","koaza":"","lat":37.367292,"lng":138.674621,"zip":"9450000"},{"town":"大字南下","koaza":"","lat":37.320562,"lng":138.584394,"zip":"9450000"},{"town":"大字野田","koaza":"","lat":37.270034,"lng":138.56523,"zip":"9450000"},{"town":"大字橋場","koaza":"","lat":37.378769,"lng":138.593062,"zip":"9450000"},{"town":"大字花田","koaza":"","lat":37.407012,"lng":138.630984,"zip":"9450000"},{"town":"大字半田","koaza":"","lat":37.349063,"lng":138.580174,"zip":"9450000"},{"town":"大字東長鳥","koaza":"","lat":37.383015,"lng":138.697032,"zip":"9450000"},{"town":"大字平井","koaza":"","lat":37.357732,"lng":138.621384,"zip":"9450000"},{"town":"大字枇杷島","koaza":"","lat":37.341949,"lng":138.538835,"zip":"9450000"},{"town":"大字古町","koaza":"","lat":37.307752,"lng":138.575504,"zip":"9450000"},{"town":"大字細越","koaza":"","lat":37.28145,"lng":138.577257,"zip":"9450000"},{"town":"大字堀","koaza":"","lat":37.330747,"lng":138.582825,"zip":"9450000"},{"town":"大字本条","koaza":"","lat":37.327846,"lng":138.652076,"zip":"9450000"},{"town":"大字水上","koaza":"","lat":37.266427,"lng":138.590399,"zip":"9450000"},{"town":"大字南条","koaza":"","lat":37.325083,"lng":138.637816,"zip":"9450000"},{"town":"大字宮川","koaza":"","lat":37.457229,"lng":138.621653,"zip":"9450000"},{"town":"大字宮川新田","koaza":"","lat":37.259043,"lng":138.570265,"zip":"9450000"},{"town":"大字宮平","koaza":"","lat":37.289447,"lng":138.619156,"zip":"9450000"},{"town":"大字宮之窪","koaza":"","lat":37.304374,"lng":138.563748,"zip":"9450000"},{"town":"大字森近","koaza":"","lat":37.281468,"lng":138.638675,"zip":"9450000"},{"town":"大字安田","koaza":"","lat":37.338639,"lng":138.612035,"zip":"9450000"},{"town":"大字矢田","koaza":"","lat":37.38407,"lng":138.635504,"zip":"9450000"},{"town":"大字山口","koaza":"","lat":37.292718,"lng":138.562338,"zip":"9450000"},{"town":"大字山澗","koaza":"","lat":37.368576,"lng":138.647148,"zip":"9450000"},{"town":"大字山室","koaza":"","lat":37.265873,"lng":138.64675,"zip":"9450000"},{"town":"大字与板","koaza":"","lat":37.299959,"lng":138.620338,"zip":"9450000"},{"town":"大字吉井","koaza":"","lat":37.392206,"lng":138.651573,"zip":"9450000"},{"town":"大字吉井黒川","koaza":"","lat":37.387047,"lng":138.670218,"zip":"9450000"},{"town":"大字吉尾","koaza":"","lat":37.303161,"lng":138.483031,"zip":"9450000"},{"town":"大字与三","koaza":"","lat":37.383635,"lng":138.620167,"zip":"9450000"},{"town":"大字両田尻","koaza":"","lat":37.362387,"lng":138.59088,"zip":"9450000"},{"town":"大字蕨野","koaza":"","lat":37.307782,"lng":138.465156,"zip":"9450000"},{"town":"大久保一丁目","koaza":"","lat":37.364107,"lng":138.548656,"zip":"9450851"},{"town":"大久保二丁目","koaza":"","lat":37.36255,"lng":138.543851,"zip":"9450851"},{"town":"小倉町","koaza":"","lat":37.372811,"lng":138.563966,"zip":"9450076"},{"town":"鏡町","koaza":"","lat":37.366819,"lng":138.558782,"zip":"9450053"},{"town":"春日一丁目","koaza":"","lat":37.37929,"lng":138.569725,"zip":"9450074"},{"town":"春日二丁目","koaza":"","lat":37.38248,"lng":138.572668,"zip":"9450074"},{"town":"春日三丁目","koaza":"","lat":37.384836,"lng":138.576541,"zip":"9450074"},{"town":"学校町","koaza":"","lat":37.373579,"lng":138.554396,"zip":"9450065"},{"town":"北園町","koaza":"","lat":37.380097,"lng":138.560392,"zip":"9450072"},{"town":"北半田一丁目","koaza":"","lat":37.364591,"lng":138.573229,"zip":"9450035"},{"town":"北半田二丁目","koaza":"","lat":37.363869,"lng":138.576884,"zip":"9450035"},{"town":"希望が丘","koaza":"","lat":37.351855,"lng":138.570887,"zip":"9450815"},{"town":"鯨波一丁目","koaza":"","lat":37.357454,"lng":138.523483,"zip":"9450855"},{"town":"鯨波二丁目","koaza":"","lat":37.356505,"lng":138.517927,"zip":"9450855"},{"town":"鯨波三丁目","koaza":"","lat":37.354443,"lng":138.511524,"zip":"9450855"},{"town":"剣野町","koaza":"","lat":37.350893,"lng":138.549411,"zip":"9450835"},{"town":"小金町","koaza":"","lat":37.385437,"lng":138.582008,"zip":"9450024"},{"town":"寿町","koaza":"","lat":37.359849,"lng":138.533742,"zip":"9450846"},{"town":"幸町","koaza":"","lat":37.362458,"lng":138.558908,"zip":"9450821"},{"town":"栄田","koaza":"","lat":37.384869,"lng":138.590431,"zip":"9450000"},{"town":"栄町","koaza":"","lat":37.376754,"lng":138.55603,"zip":"9450061"},{"town":"桜木町","koaza":"","lat":37.381151,"lng":138.56716,"zip":"9450073"},{"town":"三和町","koaza":"","lat":37.365785,"lng":138.579332,"zip":"9450034"},{"town":"城塚","koaza":"","lat":37.357979,"lng":138.582348,"zip":"9451343"},{"town":"城東一丁目","koaza":"","lat":37.352486,"lng":138.556282,"zip":"9450825"},{"town":"城東二丁目","koaza":"","lat":37.352397,"lng":138.558529,"zip":"9450825"},{"town":"新赤坂一丁目","koaza":"","lat":37.355971,"lng":138.534546,"zip":"9450845"},{"town":"新赤坂二丁目","koaza":"","lat":37.357261,"lng":138.530809,"zip":"9450845"},{"town":"新橋","koaza":"","lat":37.364634,"lng":138.551743,"zip":"9450056"},{"town":"新花町","koaza":"","lat":37.376119,"lng":138.561678,"zip":"9450062"},{"town":"諏訪町","koaza":"","lat":37.373521,"lng":138.561228,"zip":"9450063"},{"town":"関町","koaza":"","lat":37.359037,"lng":138.553687,"zip":"9450832"},{"town":"高柳町石黒","koaza":"","lat":37.191986,"lng":138.570628,"zip":"9451515"},{"town":"高柳町漆島","koaza":"","lat":37.207098,"lng":138.627343,"zip":"9451511"},{"town":"高柳町岡田","koaza":"","lat":37.239381,"lng":138.634591,"zip":"9451501"},{"town":"高柳町岡野町","koaza":"","lat":37.225124,"lng":138.636167,"zip":"9451502"},{"town":"高柳町荻ノ島","koaza":"","lat":37.19812,"lng":138.622469,"zip":"9451512"},{"town":"高柳町門出","koaza":"","lat":37.189311,"lng":138.613582,"zip":"9451513"},{"town":"高柳町高尾","koaza":"","lat":37.216683,"lng":138.61044,"zip":"9451505"},{"town":"高柳町田代","koaza":"","lat":37.168288,"lng":138.614123,"zip":"9451514"},{"town":"高柳町栃ケ原","koaza":"","lat":37.189693,"lng":138.645463,"zip":"9451504"},{"town":"高柳町山中","koaza":"","lat":37.212908,"lng":138.660319,"zip":"9451503"},{"town":"宝田","koaza":"","lat":37.379103,"lng":138.589315,"zip":"9450000"},{"town":"宝町","koaza":"","lat":37.362749,"lng":138.564945,"zip":"9450817"},{"town":"田塚三丁目","koaza":"","lat":37.368172,"lng":138.583845,"zip":"9450032"},{"town":"田中","koaza":"","lat":37.358699,"lng":138.565061,"zip":"9450816"},{"town":"中央町","koaza":"","lat":37.372832,"lng":138.559034,"zip":"9450064"},{"town":"天神町","koaza":"","lat":37.359111,"lng":138.528545,"zip":"9450000"},{"town":"東の輪町","koaza":"","lat":37.360651,"lng":138.522682,"zip":"9450854"},{"town":"常盤台","koaza":"","lat":37.3574,"lng":138.548291,"zip":"9450834"},{"town":"豊田","koaza":"","lat":37.385011,"lng":138.586305,"zip":"9450000"},{"town":"中浜一丁目","koaza":"","lat":37.366385,"lng":138.542395,"zip":"9450852"},{"town":"中浜二丁目","koaza":"","lat":37.365525,"lng":138.539231,"zip":"9450852"},{"town":"長峰町","koaza":"","lat":37.350058,"lng":138.568884,"zip":"9451105"},{"town":"南光町","koaza":"","lat":37.357002,"lng":138.560556,"zip":"9450823"},{"town":"錦町","koaza":"","lat":37.367321,"lng":138.562339,"zip":"9450052"},{"town":"西本町一丁目","koaza":"","lat":37.368916,"lng":138.551686,"zip":"9450066"},{"town":"西本町二丁目","koaza":"","lat":37.368009,"lng":138.548745,"zip":"9450066"},{"town":"西本町三丁目","koaza":"","lat":37.368426,"lng":138.545285,"zip":"9450066"},{"town":"西港町","koaza":"","lat":37.370823,"lng":138.547214,"zip":"9450067"},{"town":"西山町池浦","koaza":"","lat":37.460696,"lng":138.670254,"zip":"9494123"},{"town":"西山町石地","koaza":"","lat":37.514359,"lng":138.666205,"zip":"9494201"},{"town":"西山町五日市","koaza":"","lat":37.438299,"lng":138.639218,"zip":"9494149"},{"town":"西山町伊毛","koaza":"","lat":37.473414,"lng":138.668438,"zip":"9494128"},{"town":"西山町後谷","koaza":"","lat":37.464729,"lng":138.632986,"zip":"9494131"},{"town":"西山町内方","koaza":"","lat":37.433966,"lng":138.645504,"zip":"9494148"},{"town":"西山町大崎","koaza":"","lat":37.494556,"lng":138.654546,"zip":"9494204"},{"town":"西山町大津","koaza":"","lat":37.4988,"lng":138.666259,"zip":"9494203"},{"town":"西山町大坪","koaza":"","lat":37.423613,"lng":138.657953,"zip":"9494147"},{"town":"西山町鬼王","koaza":"","lat":37.45508,"lng":138.657993,"zip":"9494133"},{"town":"西山町尾野内","koaza":"","lat":37.47572,"lng":138.68784,"zip":"9494112"},{"town":"西山町尾町","koaza":"","lat":37.509804,"lng":138.664026,"zip":"9494202"},{"town":"西山町鎌田","koaza":"","lat":37.470298,"lng":138.645088,"zip":"9494127"},{"town":"西山町上山田","koaza":"","lat":37.480591,"lng":138.678875,"zip":"9494113"},{"town":"西山町北野","koaza":"","lat":37.434969,"lng":138.651647,"zip":"9494145"},{"town":"西山町黒部","koaza":"","lat":37.451905,"lng":138.649839,"zip":"9494142"},{"town":"西山町甲田","koaza":"","lat":37.490813,"lng":138.648768,"zip":"9494206"},{"town":"西山町坂田","koaza":"","lat":37.444888,"lng":138.673915,"zip":"9494135"},{"town":"西山町下山田","koaza":"","lat":37.46656,"lng":138.667215,"zip":"9494126"},{"town":"西山町新保","koaza":"","lat":37.444739,"lng":138.648351,"zip":"9494144"},{"town":"西山町田沢","koaza":"","lat":37.469168,"lng":138.688032,"zip":"9494121"},{"town":"西山町中央台","koaza":"","lat":37.456125,"lng":138.668591,"zip":"9494125"},{"town":"西山町長嶺","koaza":"","lat":37.458537,"lng":138.647385,"zip":"9494132"},{"town":"西山町西山","koaza":"","lat":37.44875,"lng":138.641363,"zip":"9494141"},{"town":"西山町灰爪","koaza":"","lat":37.484994,"lng":138.680462,"zip":"9494114"},{"town":"西山町浜忠","koaza":"","lat":37.483213,"lng":138.648859,"zip":"9494205"},{"town":"西山町藤掛","koaza":"","lat":37.460497,"lng":138.688811,"zip":"9494122"},{"town":"西山町二田","koaza":"","lat":37.452299,"lng":138.683764,"zip":"9494134"},{"town":"西山町別山","koaza":"","lat":37.48586,"lng":138.704291,"zip":"9494111"},{"town":"西山町緑が丘","koaza":"","lat":37.4417,"lng":138.649683,"zip":"9494136"},{"town":"西山町妙法寺","koaza":"","lat":37.429859,"lng":138.670392,"zip":"9494146"},{"town":"西山町礼拝","koaza":"","lat":37.458415,"lng":138.662716,"zip":"9494124"},{"town":"西山町和田","koaza":"","lat":37.446969,"lng":138.644576,"zip":"9494143"},{"town":"日石町","koaza":"","lat":37.364948,"lng":138.559873,"zip":"9450054"},{"town":"番神一丁目","koaza":"","lat":37.364229,"lng":138.533406,"zip":"9450853"},{"town":"番神二丁目","koaza":"","lat":37.363292,"lng":138.529159,"zip":"9450853"},{"town":"半田一丁目","koaza":"","lat":37.35559,"lng":138.571037,"zip":"9450812"},{"town":"半田二丁目","koaza":"","lat":37.354585,"lng":138.579786,"zip":"9450812"},{"town":"半田三丁目","koaza":"","lat":37.359325,"lng":138.577621,"zip":"9450812"},{"town":"東長浜町","koaza":"","lat":37.369376,"lng":138.578913,"zip":"9450033"},{"town":"東原町","koaza":"","lat":37.388135,"lng":138.590565,"zip":"9450022"},{"town":"東本町一丁目","koaza":"","lat":37.369365,"lng":138.555414,"zip":"9450051"},{"town":"東本町二丁目","koaza":"","lat":37.369558,"lng":138.558952,"zip":"9450051"},{"town":"東本町三丁目","koaza":"","lat":37.369977,"lng":138.562503,"zip":"9450051"},{"town":"東港町","koaza":"","lat":37.372461,"lng":138.549918,"zip":"9450068"},{"town":"比角一丁目","koaza":"","lat":37.373757,"lng":138.567734,"zip":"9450047"},{"town":"比角二丁目","koaza":"","lat":37.373446,"lng":138.571682,"zip":"9450047"},{"town":"日吉町","koaza":"","lat":37.368038,"lng":138.573732,"zip":"9450043"},{"town":"藤元町","koaza":"","lat":37.381699,"lng":138.577147,"zip":"9450026"},{"town":"北斗町","koaza":"","lat":37.378275,"lng":138.572369,"zip":"9450027"},{"town":"穂波町","koaza":"","lat":37.359414,"lng":138.559061,"zip":"9450822"},{"town":"槇原町","koaza":"","lat":37.387773,"lng":138.5787,"zip":"9450015"},{"town":"松波一丁目","koaza":"","lat":37.390319,"lng":138.568566,"zip":"9450011"},{"town":"松波二丁目","koaza":"","lat":37.389146,"lng":138.572885,"zip":"9450011"},{"town":"松波三丁目","koaza":"","lat":37.396328,"lng":138.572205,"zip":"9450011"},{"town":"松波四丁目","koaza":"","lat":37.39696,"lng":138.57915,"zip":"9450011"},{"town":"三島町","koaza":"","lat":37.352773,"lng":138.547232,"zip":"9450837"},{"town":"三島西","koaza":"","lat":37.352288,"lng":138.545782,"zip":"9450838"},{"town":"緑町","koaza":"","lat":37.360168,"lng":138.542436,"zip":"9450841"},{"town":"南半田","koaza":"","lat":37.351421,"lng":138.579082,"zip":"9450813"},{"town":"宮場町","koaza":"","lat":37.356259,"lng":138.554875,"zip":"9450827"},{"town":"元城町","koaza":"","lat":37.35216,"lng":138.553727,"zip":"9450826"},{"town":"柳橋町","koaza":"","lat":37.361563,"lng":138.552951,"zip":"9450831"},{"town":"大和町","koaza":"","lat":37.376215,"lng":138.566311,"zip":"9450075"},{"town":"豊町","koaza":"","lat":37.366746,"lng":138.565555,"zip":"9450045"},{"town":"ゆりが丘","koaza":"","lat":37.34787,"lng":138.57366,"zip":"9451106"},{"town":"四谷一丁目","koaza":"","lat":37.370345,"lng":138.566919,"zip":"9450046"},{"town":"四谷二丁目","koaza":"","lat":37.370707,"lng":138.570935,"zip":"9450046"},{"town":"四谷三丁目","koaza":"","lat":37.371105,"lng":138.5736,"zip":"9450046"},{"town":"米山台一丁目","koaza":"","lat":37.355357,"lng":138.54414,"zip":"9450842"},{"town":"米山台二丁目","koaza":"","lat":37.353697,"lng":138.543115,"zip":"9450842"},{"town":"米山台三丁目","koaza":"","lat":37.355172,"lng":138.540736,"zip":"9450842"},{"town":"米山台四丁目","koaza":"","lat":37.3528,"lng":138.539542,"zip":"9450842"},{"town":"米山台五丁目","koaza":"","lat":37.35123,"lng":138.537566,"zip":"9450842"},{"town":"米山台西","koaza":"","lat":37.350346,"lng":138.536909,"zip":"9450844"},{"town":"米山台東","koaza":"","lat":37.351311,"lng":138.541683,"zip":"9450843"},{"town":"米山町","koaza":"","lat":37.310777,"lng":138.434788,"zip":"9493675"},{"town":"若葉町","koaza":"","lat":37.360001,"lng":138.547342,"zip":"9450833"},{"town":"新赤坂五丁目","koaza":"","lat":37.351967,"lng":138.532485,"zip":"9450845"},{"town":"柳田町","koaza":"","lat":37.380321,"lng":138.580077,"zip":"9450025"},{"town":"松美二丁目","koaza":"","lat":37.37646,"lng":138.577327,"zip":"9450041"},{"town":"松美一丁目","koaza":"","lat":37.374019,"lng":138.576334,"zip":"9450041"},{"town":"長浜町","koaza":"","lat":37.371758,"lng":138.576447,"zip":"9450042"},{"town":"田塚二丁目","koaza":"","lat":37.371424,"lng":138.585536,"zip":"9450032"},{"town":"田塚一丁目","koaza":"","lat":37.371989,"lng":138.581497,"zip":"9450032"},{"town":"東柳田","koaza":"","lat":37.380073,"lng":138.582592,"zip":"9450036"},{"town":"新田畑","koaza":"","lat":37.374731,"lng":138.582538,"zip":"9450031"},{"town":"大字藤井","koaza":"","lat":37.375353,"lng":138.593872,"zip":"9450000"},{"town":"美穂田","koaza":"","lat":37.379221,"lng":138.586069,"zip":"9450000"},{"town":"大字上原","koaza":"","lat":37.388216,"lng":138.594792,"zip":"9450000"},{"town":"大字山本","koaza":"","lat":37.394957,"lng":138.590758,"zip":"9450000"},{"town":"橋場町","koaza":"","lat":37.390603,"lng":138.580417,"zip":"9450014"},{"town":"新赤坂四丁目","koaza":"","lat":37.355652,"lng":138.530064,"zip":"9450845"},{"town":"新赤坂三丁目","koaza":"","lat":37.353742,"lng":138.532973,"zip":"9450845"},{"town":"新赤坂町","koaza":"","lat":37.354437,"lng":138.531936,"zip":"9450000"},{"town":"大字下原","koaza":"","lat":37.390473,"lng":138.591013,"zip":"9450000"},{"town":"原町","koaza":"","lat":37.389626,"lng":138.588343,"zip":"9450023"},{"town":"大字上方","koaza":"","lat":37.338095,"lng":138.56031,"zip":"9450000"},{"town":"大字新道","koaza":"","lat":37.325886,"lng":138.561941,"zip":"9450000"},{"town":"大字横山","koaza":"","lat":37.345895,"lng":138.565609,"zip":"9450000"},{"town":"大字軽井川","koaza":"","lat":37.336117,"lng":138.594809,"zip":"9450000"},{"town":"大字藤橋","koaza":"","lat":37.338695,"lng":138.573228,"zip":"9450000"},{"town":"向陽町","koaza":"","lat":37.345077,"lng":138.575344,"zip":"9451102"},{"town":"大字茨目","koaza":"二つ池","lat":37.354112,"lng":138.587201,"zip":"9450000"}]