[{"town":"粟生津","koaza":"","lat":37.646584,"lng":138.866857,"zip":"9590227"},{"town":"秋葉町一丁目","koaza":"","lat":37.661467,"lng":138.922369,"zip":"9591261"},{"town":"秋葉町二丁目","koaza":"","lat":37.663164,"lng":138.919467,"zip":"9591261"},{"town":"秋葉町三丁目","koaza":"","lat":37.659791,"lng":138.918857,"zip":"9591261"},{"town":"秋葉町四丁目","koaza":"","lat":37.663021,"lng":138.914067,"zip":"9591261"},{"town":"泉新","koaza":"","lat":37.639111,"lng":138.832168,"zip":"9590131"},{"town":"一ノ山一丁目","koaza":"","lat":37.624311,"lng":138.846874,"zip":"9590114"},{"town":"一ノ山二丁目","koaza":"","lat":37.624779,"lng":138.847687,"zip":"9590114"},{"town":"井土巻","koaza":"","lat":37.658777,"lng":138.939616,"zip":"9591232"},{"town":"井土巻一丁目","koaza":"","lat":37.655767,"lng":138.932776,"zip":"9591232"},{"town":"井土巻二丁目","koaza":"","lat":37.652772,"lng":138.932001,"zip":"9591232"},{"town":"井土巻三丁目","koaza":"","lat":37.6504,"lng":138.934869,"zip":"9591232"},{"town":"井土巻四丁目","koaza":"","lat":37.654754,"lng":138.935987,"zip":"9591232"},{"town":"井土巻五丁目","koaza":"","lat":37.65189,"lng":138.93769,"zip":"9591232"},{"town":"笈ケ島","koaza":"","lat":37.618123,"lng":138.85506,"zip":"9590113"},{"town":"大川津","koaza":"","lat":37.607103,"lng":138.841981,"zip":"9590123"},{"town":"大関","koaza":"","lat":37.667259,"lng":138.898613,"zip":"9591287"},{"town":"太田","koaza":"","lat":37.651749,"lng":138.820051,"zip":"9590108"},{"town":"大武新田","koaza":"","lat":37.622272,"lng":138.840556,"zip":"9590122"},{"town":"大船渡","koaza":"","lat":37.699538,"lng":138.94753,"zip":"9591212"},{"town":"大曲","koaza":"","lat":37.649721,"lng":138.916227,"zip":"9591263"},{"town":"庚塚","koaza":"","lat":37.694178,"lng":138.915831,"zip":"9590207"},{"town":"上河原","koaza":"","lat":37.651202,"lng":138.878092,"zip":"9590225"},{"town":"上諏訪","koaza":"","lat":37.631062,"lng":138.842184,"zip":"9590181"},{"town":"上児木","koaza":"","lat":37.681957,"lng":138.96469,"zip":"9591223"},{"town":"勘新","koaza":"","lat":37.693462,"lng":138.950983,"zip":"9591217"},{"town":"国上","koaza":"","lat":37.662758,"lng":138.809425,"zip":"9590136"},{"town":"熊森","koaza":"","lat":37.627906,"lng":138.868587,"zip":"9590112"},{"town":"蔵関","koaza":"","lat":37.654747,"lng":138.903071,"zip":"9591271"},{"town":"源八新田","koaza":"","lat":37.663624,"lng":138.840999,"zip":"9590137"},{"town":"小池","koaza":"","lat":37.640729,"lng":138.895462,"zip":"9591276"},{"town":"小池新町","koaza":"","lat":37.631301,"lng":138.905468,"zip":"9591275"},{"town":"穀町","koaza":"","lat":37.663579,"lng":138.928133,"zip":"9591256"},{"town":"小島","koaza":"","lat":37.712349,"lng":138.929856,"zip":"9590203"},{"town":"小関","koaza":"","lat":37.663532,"lng":138.903181,"zip":"9591286"},{"town":"五千石","koaza":"","lat":37.612537,"lng":138.831672,"zip":"9590124"},{"town":"五千石荒川一丁目","koaza":"","lat":37.618819,"lng":138.843418,"zip":"9590124"},{"town":"五千石荒川二丁目","koaza":"","lat":37.618549,"lng":138.842689,"zip":"9590124"},{"town":"小高","koaza":"","lat":37.668975,"lng":138.939712,"zip":"9591241"},{"town":"寿町","koaza":"","lat":37.665966,"lng":138.926497,"zip":"9591252"},{"town":"小中川","koaza":"","lat":37.701076,"lng":138.962955,"zip":"9591211"},{"town":"小古津新","koaza":"","lat":37.694079,"lng":138.956823,"zip":"9591213"},{"town":"小牧","koaza":"","lat":37.676036,"lng":138.948918,"zip":"9591226"},{"town":"幸町","koaza":"","lat":37.665414,"lng":138.932367,"zip":"9591254"},{"town":"桜町","koaza":"","lat":37.683713,"lng":138.905949,"zip":"9591281"},{"town":"笹曲","koaza":"","lat":37.621734,"lng":138.846158,"zip":"9590117"},{"town":"佐善","koaza":"","lat":37.663976,"lng":138.862683,"zip":"9590101"},{"town":"佐善村新田","koaza":"","lat":37.664674,"lng":138.853327,"zip":"9591200"},{"town":"佐渡山","koaza":"","lat":37.716412,"lng":138.917077,"zip":"9590202"},{"town":"佐渡","koaza":"","lat":37.660754,"lng":138.951431,"zip":"9590202"},{"town":"三王渕","koaza":"","lat":37.683053,"lng":138.943196,"zip":"9591207"},{"town":"地蔵堂","koaza":"","lat":37.632481,"lng":138.83803,"zip":"9590121"},{"town":"地蔵堂本町一丁目","koaza":"","lat":37.625404,"lng":138.840934,"zip":"9590129"},{"town":"地蔵堂本町二丁目","koaza":"","lat":37.626785,"lng":138.841843,"zip":"9590129"},{"town":"地蔵堂本町三丁目","koaza":"","lat":37.628197,"lng":138.841765,"zip":"9590129"},{"town":"下粟生津","koaza":"","lat":37.659697,"lng":138.878751,"zip":"9590222"},{"town":"下諏訪","koaza":"","lat":37.630608,"lng":138.837731,"zip":"9590183"},{"town":"下児木","koaza":"","lat":37.683435,"lng":138.970687,"zip":"9591223"},{"town":"新栄町","koaza":"","lat":37.670279,"lng":138.928501,"zip":"9591246"},{"town":"新興野","koaza":"","lat":37.626035,"lng":138.855142,"zip":"9590116"},{"town":"新生町","koaza":"","lat":37.688721,"lng":138.957028,"zip":"9591214"},{"town":"新生町一丁目","koaza":"","lat":37.690392,"lng":138.956872,"zip":"9591214"},{"town":"新生町二丁目","koaza":"","lat":37.688223,"lng":138.953209,"zip":"9591214"},{"town":"新長","koaza":"","lat":37.633484,"lng":138.828542,"zip":"9590125"},{"town":"新町","koaza":"","lat":37.66349,"lng":138.932121,"zip":"9591255"},{"town":"水道町一丁目","koaza":"","lat":37.656049,"lng":138.918975,"zip":"9591262"},{"town":"水道町二丁目","koaza":"","lat":37.657165,"lng":138.914989,"zip":"9591262"},{"town":"水道町三丁目","koaza":"","lat":37.655927,"lng":138.909676,"zip":"9591262"},{"town":"水道町四丁目","koaza":"","lat":37.659701,"lng":138.911005,"zip":"9591262"},{"town":"杉名","koaza":"","lat":37.642526,"lng":138.905004,"zip":"9591273"},{"town":"杉柳","koaza":"","lat":37.647075,"lng":138.90703,"zip":"9591272"},{"town":"雀森","koaza":"","lat":37.703459,"lng":138.918945,"zip":"9590205"},{"town":"砂子塚","koaza":"","lat":37.634912,"lng":138.850843,"zip":"9590103"},{"town":"関崎","koaza":"","lat":37.694258,"lng":138.938809,"zip":"9591206"},{"town":"杣木","koaza":"","lat":37.673785,"lng":138.903888,"zip":"9591284"},{"town":"大保","koaza":"","lat":37.692464,"lng":138.903791,"zip":"9590208"},{"town":"高木","koaza":"","lat":37.639307,"lng":138.858217,"zip":"9590228"},{"town":"舘野","koaza":"","lat":37.704479,"lng":138.934285,"zip":"9591203"},{"town":"田中新","koaza":"","lat":37.654564,"lng":138.89228,"zip":"9590223"},{"town":"中央通り一丁目","koaza":"","lat":37.663846,"lng":138.929701,"zip":"9591200"},{"town":"中央通り二丁目","koaza":"","lat":37.665521,"lng":138.930127,"zip":"9591200"},{"town":"中央通り三丁目","koaza":"","lat":37.667213,"lng":138.931314,"zip":"9591200"},{"town":"中条新田","koaza":"","lat":37.605588,"lng":138.84488,"zip":"9591200"},{"town":"長所","koaza":"","lat":37.714025,"lng":138.938563,"zip":"9591204"},{"town":"長辰","koaza":"","lat":37.665157,"lng":138.834655,"zip":"9590139"},{"town":"次新","koaza":"","lat":37.687637,"lng":138.965154,"zip":"9591222"},{"town":"燕","koaza":"","lat":37.677234,"lng":138.917669,"zip":"9591288"},{"town":"道金","koaza":"","lat":37.636448,"lng":138.91354,"zip":"9591265"},{"town":"殿島一丁目","koaza":"","lat":37.656358,"lng":138.92486,"zip":"9591233"},{"town":"殿島二丁目","koaza":"","lat":37.657081,"lng":138.927999,"zip":"9591233"},{"town":"富永","koaza":"","lat":37.693549,"lng":138.893777,"zip":"9590211"},{"town":"富永十兵衛新田","koaza":"","lat":37.688153,"lng":138.902049,"zip":"9590212"},{"town":"中川","koaza":"","lat":37.678238,"lng":138.950609,"zip":"9591225"},{"town":"中島","koaza":"","lat":37.649625,"lng":138.835768,"zip":"9590105"},{"town":"中諏訪","koaza":"","lat":37.631409,"lng":138.839879,"zip":"9590182"},{"town":"仲町","koaza":"","lat":37.66276,"lng":138.924794,"zip":"9591258"},{"town":"長渡","koaza":"","lat":37.693289,"lng":138.931265,"zip":"9591205"},{"town":"新堀","koaza":"","lat":37.641086,"lng":138.838538,"zip":"9590133"},{"town":"二階堂","koaza":"","lat":37.697891,"lng":138.943329,"zip":"9591216"},{"town":"西槙","koaza":"","lat":37.727744,"lng":138.928758,"zip":"9591200"},{"town":"野中才","koaza":"","lat":37.629841,"lng":138.832935,"zip":"9590126"},{"town":"野本","koaza":"","lat":37.6582,"lng":138.888001,"zip":"9590224"},{"town":"灰方","koaza":"","lat":37.682386,"lng":138.930838,"zip":"9591201"},{"town":"白山町一丁目","koaza":"","lat":37.66444,"lng":138.922059,"zip":"9591251"},{"town":"白山町二丁目","koaza":"","lat":37.666543,"lng":138.92516,"zip":"9591251"},{"town":"白山町三丁目","koaza":"","lat":37.669712,"lng":138.921571,"zip":"9591251"},{"town":"八王寺","koaza":"","lat":37.640013,"lng":138.922813,"zip":"9591264"},{"town":"花園町","koaza":"","lat":37.684991,"lng":138.953824,"zip":"9591221"},{"town":"花見","koaza":"","lat":37.680608,"lng":138.91148,"zip":"9591280"},{"town":"東太田","koaza":"","lat":37.66755,"lng":138.912374,"zip":"9591289"},{"town":"日之出町","koaza":"","lat":37.660695,"lng":138.942054,"zip":"9591242"},{"town":"物流センター一丁目","koaza":"","lat":37.650557,"lng":138.900655,"zip":"9591277"},{"town":"物流センター二丁目","koaza":"","lat":37.649302,"lng":138.900856,"zip":"9591277"},{"town":"物流センター三丁目","koaza":"","lat":37.64768,"lng":138.901113,"zip":"9591277"},{"town":"物流センター四丁目","koaza":"","lat":37.648514,"lng":138.904698,"zip":"9591277"},{"town":"分水あけぼの一丁目","koaza":"","lat":37.638535,"lng":138.839262,"zip":"9590132"},{"town":"分水旭町一丁目","koaza":"","lat":37.627377,"lng":138.843019,"zip":"9590107"},{"town":"分水旭町二丁目","koaza":"","lat":37.627952,"lng":138.844579,"zip":"9590107"},{"town":"分水旭町三丁目","koaza":"","lat":37.628569,"lng":138.843468,"zip":"9590107"},{"town":"分水旭町四丁目","koaza":"","lat":37.629666,"lng":138.844293,"zip":"9590107"},{"town":"分水旭町五丁目","koaza":"","lat":37.631534,"lng":138.84449,"zip":"9590107"},{"town":"分水大武一丁目","koaza":"","lat":37.625765,"lng":138.842978,"zip":"9590119"},{"town":"分水大武二丁目","koaza":"","lat":37.626122,"lng":138.843324,"zip":"9590119"},{"town":"分水大武三丁目","koaza":"","lat":37.626226,"lng":138.844207,"zip":"9590119"},{"town":"分水大武四丁目","koaza":"","lat":37.627265,"lng":138.843769,"zip":"9590119"},{"town":"分水大武五丁目","koaza":"","lat":37.624936,"lng":138.843822,"zip":"9590119"},{"town":"分水学校町一丁目","koaza":"","lat":37.628057,"lng":138.848122,"zip":"9590115"},{"town":"分水学校町二丁目","koaza":"","lat":37.626505,"lng":138.847766,"zip":"9590115"},{"town":"分水向陽","koaza":"","lat":37.635623,"lng":138.839866,"zip":"9590109"},{"town":"分水栄町","koaza":"","lat":37.625342,"lng":138.842557,"zip":"9590120"},{"town":"分水桜町一丁目","koaza":"","lat":37.628289,"lng":138.840375,"zip":"9590130"},{"town":"分水桜町二丁目","koaza":"","lat":37.627695,"lng":138.838459,"zip":"9590130"},{"town":"分水桜町三丁目","koaza":"","lat":37.625466,"lng":138.838905,"zip":"9590130"},{"town":"分水新町一丁目","koaza":"","lat":37.621159,"lng":138.842631,"zip":"9590128"},{"town":"分水新町二丁目","koaza":"","lat":37.622757,"lng":138.843463,"zip":"9590128"},{"town":"分水新町三丁目","koaza":"","lat":37.623929,"lng":138.842931,"zip":"9590128"},{"town":"分水新町四丁目","koaza":"","lat":37.624397,"lng":138.842245,"zip":"9590128"},{"town":"分水東学校町一丁目","koaza":"","lat":37.629675,"lng":138.846419,"zip":"9590106"},{"town":"分水東学校町二丁目","koaza":"","lat":37.631007,"lng":138.846389,"zip":"9590106"},{"town":"分水東学校町三丁目","koaza":"","lat":37.632409,"lng":138.846727,"zip":"9590106"},{"town":"分水文京町","koaza":"","lat":37.634814,"lng":138.842435,"zip":"9590127"},{"town":"分水向山一丁目","koaza":"","lat":37.624714,"lng":138.845418,"zip":"9590118"},{"town":"分水向山二丁目","koaza":"","lat":37.626166,"lng":138.845258,"zip":"9590118"},{"town":"分水弥生町","koaza":"","lat":37.633637,"lng":138.845362,"zip":"9590104"},{"town":"本町一丁目","koaza":"","lat":37.665378,"lng":138.92811,"zip":"9591253"},{"town":"本町二丁目","koaza":"","lat":37.666874,"lng":138.928334,"zip":"9591253"},{"town":"牧ケ花","koaza":"","lat":37.651812,"lng":138.853797,"zip":"9590102"},{"town":"牧ケ花村新田","koaza":"","lat":37.655351,"lng":138.843606,"zip":"9591200"},{"town":"真木山","koaza":"","lat":37.64169,"lng":138.810446,"zip":"9590134"},{"town":"幕島","koaza":"","lat":37.640778,"lng":138.804572,"zip":"9590138"},{"town":"又新","koaza":"","lat":37.68744,"lng":138.947356,"zip":"9591215"},{"town":"松橋","koaza":"","lat":37.694821,"lng":138.925501,"zip":"9591202"},{"town":"溝","koaza":"","lat":37.657385,"lng":138.864138,"zip":"9590172"},{"town":"溝古新","koaza":"","lat":37.663699,"lng":138.866791,"zip":"9590171"},{"town":"溝古新村新田","koaza":"","lat":37.670115,"lng":138.853893,"zip":"9591200"},{"town":"溝村新田","koaza":"","lat":37.661765,"lng":138.852896,"zip":"9591200"},{"town":"南一丁目","koaza":"","lat":37.657837,"lng":138.922479,"zip":"9591234"},{"town":"南二丁目","koaza":"","lat":37.660202,"lng":138.925365,"zip":"9591234"},{"town":"南三丁目","koaza":"","lat":37.660286,"lng":138.926956,"zip":"9591234"},{"town":"南四丁目","koaza":"","lat":37.66026,"lng":138.92831,"zip":"9591234"},{"town":"南五丁目","koaza":"","lat":37.659241,"lng":138.930092,"zip":"9591234"},{"town":"南六丁目","koaza":"","lat":37.659303,"lng":138.931637,"zip":"9591234"},{"town":"南七丁目","koaza":"","lat":37.659239,"lng":138.934703,"zip":"9591234"},{"town":"宮町","koaza":"","lat":37.663722,"lng":138.926721,"zip":"9591257"},{"town":"柳山","koaza":"","lat":37.639478,"lng":138.902662,"zip":"9591274"},{"town":"横田","koaza":"","lat":37.635908,"lng":138.88425,"zip":"9590111"},{"town":"吉田","koaza":"","lat":37.69432,"lng":138.885549,"zip":"9590263"},{"town":"吉田曙町","koaza":"","lat":37.685628,"lng":138.886477,"zip":"9590217"},{"town":"吉田旭町一丁目","koaza":"","lat":37.687451,"lng":138.876359,"zip":"9590235"},{"town":"吉田旭町二丁目","koaza":"","lat":37.686796,"lng":138.875183,"zip":"9590235"},{"town":"吉田旭町三丁目","koaza":"","lat":37.686438,"lng":138.873281,"zip":"9590235"},{"town":"吉田旭町四丁目","koaza":"","lat":37.685223,"lng":138.874053,"zip":"9590235"},{"town":"吉田東町","koaza":"","lat":37.695625,"lng":138.881447,"zip":"9590265"},{"town":"吉田春日町","koaza":"","lat":37.683614,"lng":138.882229,"zip":"9590216"},{"town":"吉田学校町","koaza":"","lat":37.69461,"lng":138.878571,"zip":"9590252"},{"town":"吉田神田町","koaza":"","lat":37.691282,"lng":138.882026,"zip":"9590241"},{"town":"吉田上町","koaza":"","lat":37.689568,"lng":138.875896,"zip":"9590245"},{"town":"吉田鴻巣","koaza":"","lat":37.706293,"lng":138.889782,"zip":"9590261"},{"town":"吉田寿町","koaza":"","lat":37.697302,"lng":138.873705,"zip":"9590256"},{"town":"吉田幸町","koaza":"","lat":37.695669,"lng":138.874636,"zip":"9590257"},{"town":"吉田栄町","koaza":"","lat":37.680775,"lng":138.871335,"zip":"9590233"},{"town":"吉田下中野","koaza":"","lat":37.674229,"lng":138.888378,"zip":"9590215"},{"town":"吉田下町","koaza":"","lat":37.69234,"lng":138.879173,"zip":"9590253"},{"town":"吉田新田町","koaza":"","lat":37.688151,"lng":138.871955,"zip":"9590247"},{"town":"吉田新町","koaza":"","lat":37.686882,"lng":138.872556,"zip":"9590246"},{"town":"吉田神明町","koaza":"","lat":37.694194,"lng":138.876109,"zip":"9590254"},{"town":"吉田水道町","koaza":"","lat":37.680614,"lng":138.87024,"zip":"9590234"},{"town":"吉田大保町","koaza":"","lat":37.688209,"lng":138.883805,"zip":"9590242"},{"town":"吉田堤町","koaza":"","lat":37.687628,"lng":138.878538,"zip":"9590237"},{"town":"吉田中町","koaza":"","lat":37.690584,"lng":138.877134,"zip":"9590244"},{"town":"吉田西太田","koaza":"","lat":37.670843,"lng":138.878112,"zip":"9590221"},{"town":"吉田浜首","koaza":"","lat":37.689782,"lng":138.869297,"zip":"9590248"},{"town":"吉田浜首町","koaza":"","lat":37.689738,"lng":138.870965,"zip":"9590248"},{"town":"吉田東栄町","koaza":"","lat":37.681995,"lng":138.876213,"zip":"9590232"},{"town":"吉田日之出町","koaza":"","lat":37.686257,"lng":138.879902,"zip":"9590231"},{"town":"吉田文京町","koaza":"","lat":37.703668,"lng":138.880106,"zip":"9590266"},{"town":"吉田法花堂","koaza":"","lat":37.679961,"lng":138.891238,"zip":"9590214"},{"town":"吉田本所","koaza":"","lat":37.697729,"lng":138.87851,"zip":"9590251"},{"town":"吉田松岡新田","koaza":"","lat":37.679689,"lng":138.876917,"zip":"9590243"},{"town":"吉田松岡町","koaza":"","lat":37.689227,"lng":138.87765,"zip":"9590236"},{"town":"吉田宮小路","koaza":"","lat":37.701591,"lng":138.873925,"zip":"9590267"},{"town":"吉田本町","koaza":"","lat":37.708316,"lng":138.874288,"zip":"9590268"},{"town":"吉田矢作","koaza":"","lat":37.691126,"lng":138.868657,"zip":"9590250"},{"town":"吉田弥生町","koaza":"","lat":37.69367,"lng":138.871845,"zip":"9590255"},{"town":"吉田吉栄","koaza":"","lat":37.685429,"lng":138.895987,"zip":"9590213"},{"town":"吉田若生町","koaza":"","lat":37.701454,"lng":138.88594,"zip":"9590262"},{"town":"四ツ屋","koaza":"","lat":37.683557,"lng":138.958686,"zip":"9591224"},{"town":"米納津","koaza":"","lat":37.699866,"lng":138.905143,"zip":"9590206"},{"town":"渡部","koaza":"","lat":37.651227,"lng":138.797658,"zip":"9590135"},{"town":"杣木","koaza":"善九郎","lat":37.674006,"lng":138.904182,"zip":"9591284"},{"town":"吉田","koaza":"樋の口","lat":37.692299,"lng":138.884798,"zip":"9590263"}]