[{"town":"あかね町","koaza":"","lat":38.056152,"lng":139.397416,"zip":"9592659"},{"town":"熱田坂","koaza":"","lat":38.027846,"lng":139.479675,"zip":"9592823"},{"town":"荒井浜","koaza":"","lat":38.113079,"lng":139.382899,"zip":"9592609"},{"town":"飯角","koaza":"","lat":38.03713,"lng":139.424386,"zip":"9592626"},{"town":"伊徳寺","koaza":"","lat":38.088839,"lng":139.414238,"zip":"9592600"},{"town":"江上","koaza":"","lat":38.057089,"lng":139.391504,"zip":"9592657"},{"town":"江尻","koaza":"","lat":38.093595,"lng":139.393341,"zip":"9592605"},{"town":"近江新","koaza":"","lat":38.093185,"lng":139.440094,"zip":"9592801"},{"town":"大出","koaza":"","lat":38.102157,"lng":139.393184,"zip":"9592604"},{"town":"大川町","koaza":"","lat":38.051483,"lng":139.404986,"zip":"9592644"},{"town":"太田野原","koaza":"","lat":38.055872,"lng":139.46347,"zip":"9592600"},{"town":"大長谷","koaza":"","lat":38.05618,"lng":139.518948,"zip":"9592813"},{"town":"小地谷","koaza":"","lat":38.099781,"lng":139.42269,"zip":"9592612"},{"town":"表町","koaza":"","lat":38.04961,"lng":139.399532,"zip":"9592631"},{"town":"加賀新","koaza":"","lat":38.053862,"lng":139.393164,"zip":"9592600"},{"town":"北成田","koaza":"","lat":38.02688,"lng":139.342616,"zip":"9592724"},{"town":"北本町","koaza":"","lat":38.056551,"lng":139.403427,"zip":"9592647"},{"town":"切田","koaza":"","lat":38.094256,"lng":139.445372,"zip":"9592802"},{"town":"乙","koaza":"","lat":38.122236,"lng":139.399118,"zip":"9592602"},{"town":"協和町","koaza":"","lat":38.069534,"lng":139.405676,"zip":"9592652"},{"town":"草野","koaza":"","lat":38.055193,"lng":139.385395,"zip":"9592663"},{"town":"久保田","koaza":"","lat":38.063774,"lng":139.392274,"zip":"9592600"},{"town":"倉敷町","koaza":"","lat":38.064633,"lng":139.405706,"zip":"9592653"},{"town":"栗木野新田","koaza":"","lat":38.042423,"lng":139.472607,"zip":"9592827"},{"town":"黒川","koaza":"","lat":38.075712,"lng":139.439121,"zip":"9592807"},{"town":"黒俣","koaza":"","lat":38.040647,"lng":139.527721,"zip":"9592814"},{"town":"鍬江","koaza":"","lat":38.07901,"lng":139.505522,"zip":"9592811"},{"town":"小出","koaza":"","lat":38.097188,"lng":139.402894,"zip":"9592600"},{"town":"鴻ノ巣","koaza":"","lat":38.076487,"lng":139.387438,"zip":"9592705"},{"town":"小長谷","koaza":"","lat":38.070748,"lng":139.504386,"zip":"9592812"},{"town":"小牧台","koaza":"","lat":38.03389,"lng":139.406107,"zip":"9592634"},{"town":"蔵王","koaza":"","lat":38.084902,"lng":139.457875,"zip":"9592803"},{"town":"坂井","koaza":"","lat":38.018323,"lng":139.463761,"zip":"9592825"},{"town":"笹口浜","koaza":"","lat":38.090586,"lng":139.362799,"zip":"9592701"},{"town":"塩沢","koaza":"","lat":38.083078,"lng":139.448324,"zip":"9592804"},{"town":"清水","koaza":"","lat":38.075523,"lng":139.393448,"zip":"9592600"},{"town":"下赤谷","koaza":"","lat":38.061923,"lng":139.457109,"zip":"9592806"},{"town":"下荒沢","koaza":"","lat":38.063429,"lng":139.495592,"zip":"9592816"},{"town":"下江端","koaza":"","lat":38.074946,"lng":139.42565,"zip":"9592809"},{"town":"下館","koaza":"","lat":38.072781,"lng":139.461928,"zip":"9592805"},{"town":"地本","koaza":"","lat":38.089815,"lng":139.387953,"zip":"9592607"},{"town":"十二天","koaza":"","lat":38.093111,"lng":139.410998,"zip":"9592619"},{"town":"新栄町","koaza":"","lat":38.047169,"lng":139.401581,"zip":"9592632"},{"town":"新和町","koaza":"","lat":38.059607,"lng":139.411276,"zip":"9592642"},{"town":"菅田","koaza":"","lat":38.105608,"lng":139.406146,"zip":"9592603"},{"town":"須巻","koaza":"","lat":38.05702,"lng":139.487939,"zip":"9592817"},{"town":"住吉町","koaza":"","lat":38.062376,"lng":139.411191,"zip":"9592648"},{"town":"関沢","koaza":"","lat":38.033063,"lng":139.414638,"zip":"9592633"},{"town":"高野","koaza":"","lat":38.081459,"lng":139.406271,"zip":"9592618"},{"town":"高野村新田","koaza":"","lat":38.077022,"lng":139.397473,"zip":"9592617"},{"town":"竹島","koaza":"","lat":38.032213,"lng":139.346877,"zip":"9592722"},{"town":"土作","koaza":"","lat":38.085017,"lng":139.412954,"zip":"9592616"},{"town":"つつじが丘","koaza":"","lat":38.032982,"lng":139.393103,"zip":"9592635"},{"town":"鼓岡","koaza":"","lat":38.035571,"lng":139.464058,"zip":"9592826"},{"town":"坪穴","koaza":"","lat":38.051616,"lng":139.474567,"zip":"9592821"},{"town":"東牧","koaza":"","lat":38.080478,"lng":139.431241,"zip":"9592808"},{"town":"富岡","koaza":"","lat":38.099198,"lng":139.382293,"zip":"9592608"},{"town":"中村浜","koaza":"","lat":38.074023,"lng":139.349916,"zip":"9592708"},{"town":"夏井","koaza":"","lat":38.031843,"lng":139.496034,"zip":"9592822"},{"town":"並槻","koaza":"","lat":38.067631,"lng":139.417354,"zip":"9592621"},{"town":"西栄町","koaza":"","lat":38.051854,"lng":139.400821,"zip":"9592646"},{"town":"西条","koaza":"","lat":38.068376,"lng":139.398645,"zip":"9592658"},{"town":"西条町","koaza":"","lat":38.065452,"lng":139.397536,"zip":"9592651"},{"town":"野中","koaza":"","lat":38.060441,"lng":139.417173,"zip":"9592627"},{"town":"羽黒","koaza":"","lat":38.053912,"lng":139.430864,"zip":"9592624"},{"town":"八幡","koaza":"","lat":38.08505,"lng":139.394139,"zip":"9592606"},{"town":"半山","koaza":"","lat":38.04408,"lng":139.425322,"zip":"9592625"},{"town":"東本町","koaza":"","lat":38.057224,"lng":139.409465,"zip":"9592643"},{"town":"平木田","koaza":"","lat":38.093593,"lng":139.423622,"zip":"9592614"},{"town":"平根台","koaza":"","lat":38.087102,"lng":139.374707,"zip":"9592702"},{"town":"二葉町","koaza":"","lat":38.063326,"lng":139.417853,"zip":"9592628"},{"town":"古舘","koaza":"","lat":38.092192,"lng":139.401301,"zip":"9592600"},{"town":"星の宮町","koaza":"","lat":38.039993,"lng":139.400739,"zip":"9592636"},{"town":"本郷","koaza":"","lat":38.061125,"lng":139.393491,"zip":"9592655"},{"town":"本郷町","koaza":"","lat":38.060281,"lng":139.40121,"zip":"9592654"},{"town":"本町","koaza":"","lat":38.051785,"lng":139.403271,"zip":"9592645"},{"town":"松波","koaza":"","lat":38.091343,"lng":139.369552,"zip":"9592600"},{"town":"水沢町","koaza":"","lat":38.045282,"lng":139.396841,"zip":"9592638"},{"town":"宮川","koaza":"","lat":38.028217,"lng":139.347103,"zip":"9592723"},{"town":"宮久","koaza":"","lat":37.941481,"lng":139.531333,"zip":"9592824"},{"town":"村松浜","koaza":"","lat":38.052955,"lng":139.328356,"zip":"9592709"},{"town":"持倉","koaza":"","lat":38.035246,"lng":139.510802,"zip":"9592815"},{"town":"桃崎浜","koaza":"","lat":38.143189,"lng":139.406956,"zip":"9592601"},{"town":"山屋","koaza":"","lat":38.101371,"lng":139.413267,"zip":"9592611"},{"town":"横道","koaza":"","lat":38.079095,"lng":139.417302,"zip":"9592615"},{"town":"若松町","koaza":"","lat":38.064424,"lng":139.410839,"zip":"9592641"},{"town":"西本町","koaza":"","lat":38.052343,"lng":139.396584,"zip":"9592656"},{"town":"弥彦岡","koaza":"","lat":38.040686,"lng":139.364147,"zip":"9592668"},{"town":"城塚","koaza":"","lat":38.035242,"lng":139.371252,"zip":"9592600"},{"town":"中条","koaza":"","lat":38.044724,"lng":139.393024,"zip":"9592629"},{"town":"船戸","koaza":"","lat":38.03405,"lng":139.383005,"zip":"9592675"},{"town":"長橋","koaza":"","lat":38.036372,"lng":139.397058,"zip":"9592637"},{"town":"小舟戸","koaza":"","lat":38.03908,"lng":139.381762,"zip":"9592674"},{"town":"八田","koaza":"","lat":38.045357,"lng":139.389488,"zip":"9592672"},{"town":"寅田","koaza":"","lat":38.040953,"lng":139.384168,"zip":"9592673"},{"town":"柴橋","koaza":"","lat":38.049765,"lng":139.380315,"zip":"9592664"},{"town":"東川内","koaza":"","lat":38.045962,"lng":139.377063,"zip":"9592671"},{"town":"大塚","koaza":"","lat":38.042427,"lng":139.37557,"zip":"9592665"},{"town":"宮瀬","koaza":"","lat":38.078626,"lng":139.382101,"zip":"9592704"},{"town":"高畑","koaza":"","lat":38.083199,"lng":139.372561,"zip":"9592703"},{"town":"赤川","koaza":"","lat":38.066968,"lng":139.381904,"zip":"9592661"},{"town":"山王","koaza":"","lat":38.070382,"lng":139.369367,"zip":"9592706"},{"town":"下高田","koaza":"","lat":38.066985,"lng":139.3635,"zip":"9592707"},{"town":"新舘","koaza":"","lat":38.052172,"lng":139.373315,"zip":"9592666"},{"town":"鷹ノ巣","koaza":"","lat":38.060425,"lng":139.377574,"zip":"9592662"},{"town":"西川内","koaza":"","lat":38.05135,"lng":139.368806,"zip":"9592667"},{"town":"苔実","koaza":"","lat":38.036783,"lng":139.35179,"zip":"9592721"},{"town":"高橋","koaza":"","lat":38.047053,"lng":139.354044,"zip":"9592715"},{"town":"築地","koaza":"","lat":38.050084,"lng":139.342618,"zip":"9592712"},{"town":"築地新","koaza":"","lat":38.052093,"lng":139.356346,"zip":"9592713"},{"town":"堀口","koaza":"","lat":38.048495,"lng":139.357221,"zip":"9592714"},{"town":"塩津","koaza":"","lat":38.038457,"lng":139.367277,"zip":"9592669"},{"town":"中倉","koaza":"","lat":38.045504,"lng":139.361506,"zip":"9592716"},{"town":"中条","koaza":"小荒川","lat":38.04954,"lng":139.411476,"zip":"9592629"},{"town":"下館","koaza":"大開","lat":38.080535,"lng":139.445361,"zip":"9592805"}]