[{"town":"熱田町","koaza":"","lat":37.515292,"lng":138.91702,"zip":"9540061"},{"town":"池之内町","koaza":"","lat":37.514443,"lng":138.930021,"zip":"9540038"},{"town":"池之島町","koaza":"","lat":37.518117,"lng":138.967361,"zip":"9540021"},{"town":"市野坪町","koaza":"","lat":37.532121,"lng":138.906308,"zip":"9540083"},{"town":"今町","koaza":"","lat":37.558632,"lng":138.887238,"zip":"9540111"},{"town":"今町一丁目","koaza":"","lat":37.54723,"lng":138.884384,"zip":"9540111"},{"town":"今町二丁目","koaza":"","lat":37.550513,"lng":138.883917,"zip":"9540111"},{"town":"今町三丁目","koaza":"","lat":37.551361,"lng":138.887931,"zip":"9540111"},{"town":"今町四丁目","koaza":"","lat":37.545487,"lng":138.890722,"zip":"9540111"},{"town":"今町五丁目","koaza":"","lat":37.552137,"lng":138.891035,"zip":"9540111"},{"town":"今町六丁目","koaza":"","lat":37.554678,"lng":138.885972,"zip":"9540111"},{"town":"今町七丁目","koaza":"","lat":37.558771,"lng":138.891027,"zip":"9540111"},{"town":"今町八丁目","koaza":"","lat":37.557908,"lng":138.894896,"zip":"9540111"},{"town":"牛ケ嶺町","koaza":"","lat":37.507726,"lng":138.979993,"zip":"9540025"},{"town":"内町","koaza":"","lat":37.536933,"lng":138.932504,"zip":"9540008"},{"town":"漆山町","koaza":"","lat":37.512305,"lng":138.905354,"zip":"9540063"},{"town":"太田町","koaza":"","lat":37.502045,"lng":138.959401,"zip":"9540031"},{"town":"鹿熊町","koaza":"","lat":37.507865,"lng":138.896977,"zip":"9540064"},{"town":"片桐町","koaza":"","lat":37.556084,"lng":138.907248,"zip":"9540081"},{"town":"学校町一丁目","koaza":"","lat":37.530758,"lng":138.919544,"zip":"9540052"},{"town":"学校町二丁目","koaza":"","lat":37.535717,"lng":138.91968,"zip":"9540052"},{"town":"加坪川町","koaza":"","lat":37.527204,"lng":138.901188,"zip":"9540084"},{"town":"上新田町","koaza":"","lat":37.540127,"lng":138.884803,"zip":"9540112"},{"town":"河野町","koaza":"","lat":37.511222,"lng":138.969138,"zip":"9540024"},{"town":"北野町","koaza":"","lat":37.521455,"lng":138.897019,"zip":"9540072"},{"town":"葛巻一丁目","koaza":"","lat":37.527578,"lng":138.911782,"zip":"9540058"},{"town":"葛巻二丁目","koaza":"","lat":37.523271,"lng":138.914038,"zip":"9540058"},{"town":"葛巻西町","koaza":"","lat":37.524687,"lng":138.888157,"zip":"9540077"},{"town":"葛巻東町","koaza":"","lat":37.522854,"lng":138.901558,"zip":"9540078"},{"town":"葛巻町","koaza":"","lat":37.519104,"lng":138.904654,"zip":"9540067"},{"town":"葛巻南町","koaza":"","lat":37.507464,"lng":138.891157,"zip":"9540079"},{"town":"小栗山町","koaza":"","lat":37.553592,"lng":138.9371,"zip":"9540002"},{"town":"坂井町","koaza":"","lat":37.565673,"lng":138.896953,"zip":"9540104"},{"town":"坂井町一丁目","koaza":"","lat":37.561677,"lng":138.891597,"zip":"9540104"},{"town":"指出町","koaza":"","lat":37.560897,"lng":138.92094,"zip":"9540001"},{"town":"佐野町","koaza":"","lat":37.462589,"lng":138.9513,"zip":"9540000"},{"town":"三林町","koaza":"","lat":37.583746,"lng":138.8759,"zip":"9540101"},{"town":"芝野町","koaza":"","lat":37.55009,"lng":138.896139,"zip":"9540087"},{"town":"島切窪町","koaza":"","lat":37.53475,"lng":138.941184,"zip":"9540012"},{"town":"下新町","koaza":"","lat":37.516671,"lng":138.912308,"zip":"9540062"},{"town":"下関町","koaza":"","lat":37.5631,"lng":138.875755,"zip":"9540105"},{"town":"下鳥町","koaza":"","lat":37.554777,"lng":138.912416,"zip":"9540007"},{"town":"釈迦塚町","koaza":"","lat":37.580618,"lng":138.883755,"zip":"9540102"},{"town":"庄川平町","koaza":"","lat":37.528021,"lng":138.936544,"zip":"9540017"},{"town":"昭和町一丁目","koaza":"","lat":37.533145,"lng":138.911557,"zip":"9540059"},{"town":"昭和町二丁目","koaza":"","lat":37.530455,"lng":138.912353,"zip":"9540059"},{"town":"新幸町","koaza":"","lat":37.535442,"lng":138.892674,"zip":"9540076"},{"town":"神保町","koaza":"","lat":37.500056,"lng":138.970828,"zip":"9540026"},{"town":"新町一丁目","koaza":"","lat":37.526441,"lng":138.921483,"zip":"9540057"},{"town":"新町二丁目","koaza":"","lat":37.527824,"lng":138.917946,"zip":"9540057"},{"town":"新町三丁目","koaza":"","lat":37.525243,"lng":138.918129,"zip":"9540057"},{"town":"杉澤町","koaza":"","lat":37.529381,"lng":138.984021,"zip":"9540022"},{"town":"反田町","koaza":"","lat":37.52631,"lng":138.894735,"zip":"9540085"},{"town":"田井町","koaza":"","lat":37.495447,"lng":138.925045,"zip":"9540036"},{"town":"田之尻町","koaza":"","lat":37.563498,"lng":138.906999,"zip":"9540103"},{"town":"月見台一丁目","koaza":"","lat":37.516484,"lng":138.926521,"zip":"9540034"},{"town":"月見台二丁目","koaza":"","lat":37.517282,"lng":138.931774,"zip":"9540034"},{"town":"椿澤町","koaza":"","lat":37.486307,"lng":138.941457,"zip":"9540037"},{"town":"戸代新田町","koaza":"","lat":37.537898,"lng":138.920353,"zip":"9540005"},{"town":"栃窪町","koaza":"","lat":37.477872,"lng":138.955966,"zip":"9540027"},{"town":"鳥屋脇町","koaza":"","lat":37.50793,"lng":138.912627,"zip":"9540044"},{"town":"名木野町","koaza":"","lat":37.505164,"lng":138.940328,"zip":"9540035"},{"town":"新潟西町","koaza":"","lat":37.552931,"lng":138.90236,"zip":"9540089"},{"town":"新潟東町","koaza":"","lat":37.552087,"lng":138.924037,"zip":"9540088"},{"town":"新潟町","koaza":"","lat":37.543857,"lng":138.939557,"zip":"9540006"},{"town":"仁嘉町","koaza":"","lat":37.527749,"lng":138.907701,"zip":"9540068"},{"town":"西今町","koaza":"","lat":37.5741,"lng":138.882208,"zip":"9540107"},{"town":"速水町","koaza":"","lat":37.533081,"lng":138.887717,"zip":"9540075"},{"town":"東今町","koaza":"","lat":37.567558,"lng":138.889945,"zip":"9540106"},{"town":"福島町","koaza":"","lat":37.534314,"lng":138.899098,"zip":"9540086"},{"town":"双葉町","koaza":"","lat":37.51715,"lng":138.922034,"zip":"9540046"},{"town":"傍所町","koaza":"","lat":37.51452,"lng":138.89379,"zip":"9540071"},{"town":"堀溝町","koaza":"","lat":37.532732,"lng":138.965192,"zip":"9540014"},{"town":"本所一丁目","koaza":"","lat":37.537359,"lng":138.911513,"zip":"9540051"},{"town":"本所二丁目","koaza":"","lat":37.539955,"lng":138.905977,"zip":"9540051"},{"town":"本所町","koaza":"","lat":37.53948,"lng":138.91753,"zip":"9540000"},{"town":"本町","koaza":"","lat":37.535427,"lng":138.936115,"zip":"9540053"},{"town":"本町一丁目","koaza":"","lat":37.528497,"lng":138.924156,"zip":"9540053"},{"town":"本町二丁目","koaza":"","lat":37.525428,"lng":138.923966,"zip":"9540053"},{"town":"本町三丁目","koaza":"","lat":37.529642,"lng":138.928369,"zip":"9540053"},{"town":"本町四丁目","koaza":"","lat":37.530852,"lng":138.925653,"zip":"9540053"},{"town":"本明町","koaza":"","lat":37.519353,"lng":138.955541,"zip":"9540032"},{"town":"緑町","koaza":"","lat":37.513946,"lng":138.921743,"zip":"9540045"},{"town":"南本町一丁目","koaza":"","lat":37.521343,"lng":138.925702,"zip":"9540056"},{"town":"南本町二丁目","koaza":"","lat":37.521418,"lng":138.922559,"zip":"9540056"},{"town":"南本町三丁目","koaza":"","lat":37.5216,"lng":138.918595,"zip":"9540056"},{"town":"嶺崎一丁目","koaza":"","lat":37.524188,"lng":138.927542,"zip":"9540055"},{"town":"嶺崎二丁目","koaza":"","lat":37.520289,"lng":138.929273,"zip":"9540055"},{"town":"耳取町","koaza":"","lat":37.502105,"lng":138.916219,"zip":"9540043"},{"town":"宮之原町","koaza":"","lat":37.516665,"lng":138.976456,"zip":"9540023"},{"town":"明晶町","koaza":"","lat":37.516609,"lng":138.942353,"zip":"9540033"},{"town":"元町一丁目","koaza":"","lat":37.537653,"lng":138.929361,"zip":"9540004"},{"town":"元町二丁目","koaza":"","lat":37.533689,"lng":138.926844,"zip":"9540004"},{"town":"柳橋町","koaza":"","lat":37.542121,"lng":138.900428,"zip":"9540082"},{"town":"山崎興野町","koaza":"","lat":37.530827,"lng":138.932307,"zip":"9540011"},{"town":"山崎町","koaza":"","lat":37.500496,"lng":138.921488,"zip":"9540042"},{"town":"山吉町","koaza":"","lat":37.527025,"lng":138.880138,"zip":"9540074"},{"town":"青木町","koaza":"","lat":37.517677,"lng":138.885922,"zip":"9540073"},{"town":"石地町","koaza":"","lat":37.547074,"lng":138.973528,"zip":"9540013"},{"town":"庄川町","koaza":"","lat":37.532748,"lng":138.954931,"zip":"9540016"},{"town":"細越一丁目","koaza":"","lat":37.524596,"lng":138.930857,"zip":"9540054"},{"town":"細越二丁目","koaza":"","lat":37.52369,"lng":138.935134,"zip":"9540054"},{"town":"庄川新田町","koaza":"","lat":37.521328,"lng":138.934013,"zip":"9540000"},{"town":"美里町","koaza":"","lat":37.546172,"lng":138.901703,"zip":"9540091"},{"town":"葛巻三丁目","koaza":"","lat":37.520791,"lng":138.910212,"zip":"9540058"},{"town":"上新田町","koaza":"下野沖","lat":37.542021,"lng":138.888219,"zip":"9540112"},{"town":"芝野町","koaza":"赤田","lat":37.549304,"lng":138.893106,"zip":"9540087"},{"town":"市野坪町","koaza":"浦","lat":37.534979,"lng":138.904953,"zip":"9540083"}]