[{"town":"青木町","koaza":"","lat":37.41199,"lng":138.855164,"zip":"9401112"},{"town":"青島町","koaza":"","lat":37.399861,"lng":138.816837,"zip":"9401145"},{"town":"青葉台一丁目","koaza":"","lat":37.446789,"lng":138.74945,"zip":"9402145"},{"town":"青葉台二丁目","koaza":"","lat":37.442125,"lng":138.749296,"zip":"9402145"},{"town":"青葉台三丁目","koaza":"","lat":37.442383,"lng":138.756122,"zip":"9402145"},{"town":"青葉台四丁目","koaza":"","lat":37.440279,"lng":138.75157,"zip":"9402145"},{"town":"青葉台五丁目","koaza":"","lat":37.437802,"lng":138.754005,"zip":"9402145"},{"town":"青山新町","koaza":"","lat":37.412048,"lng":138.829869,"zip":"9401149"},{"town":"青山町","koaza":"","lat":37.409156,"lng":138.82738,"zip":"9401148"},{"town":"赤谷","koaza":"","lat":37.43767,"lng":139.014303,"zip":"9400147"},{"town":"赤沼","koaza":"","lat":37.589857,"lng":138.868911,"zip":"9540202"},{"town":"明戸","koaza":"","lat":37.501788,"lng":139.003657,"zip":"9400105"},{"town":"曙一丁目","koaza":"","lat":37.425562,"lng":138.848994,"zip":"9400832"},{"town":"曙二丁目","koaza":"","lat":37.427583,"lng":138.85004,"zip":"9400832"},{"town":"曙三丁目","koaza":"","lat":37.430173,"lng":138.851351,"zip":"9400832"},{"town":"朝日","koaza":"","lat":37.394454,"lng":138.768927,"zip":"9495412"},{"town":"旭町一丁目","koaza":"","lat":37.442396,"lng":138.851341,"zip":"9400063"},{"town":"旭町二丁目","koaza":"","lat":37.443864,"lng":138.850745,"zip":"9400063"},{"town":"東町","koaza":"","lat":37.476425,"lng":138.996774,"zip":"9400224"},{"town":"麻生田町","koaza":"","lat":37.459478,"lng":138.909488,"zip":"9400806"},{"town":"愛宕二丁目","koaza":"","lat":37.457351,"lng":138.86067,"zip":"9400036"},{"town":"愛宕三丁目","koaza":"","lat":37.458346,"lng":138.85947,"zip":"9400036"},{"town":"雨池町","koaza":"","lat":37.468559,"lng":138.815822,"zip":"9402055"},{"town":"天下島","koaza":"","lat":37.462711,"lng":138.999525,"zip":"9400232"},{"town":"天下島一丁目","koaza":"","lat":37.46983,"lng":139.001169,"zip":"9400232"},{"town":"天下島二丁目","koaza":"","lat":37.467784,"lng":139.002588,"zip":"9400232"},{"town":"阿弥陀瀬","koaza":"","lat":37.542906,"lng":138.782629,"zip":"9494513"},{"town":"荒巻","koaza":"","lat":37.567741,"lng":138.787255,"zip":"9494506"},{"town":"新町一丁目","koaza":"","lat":37.460575,"lng":138.855825,"zip":"9400023"},{"town":"新町二丁目","koaza":"","lat":37.463359,"lng":138.857195,"zip":"9400023"},{"town":"新町三丁目","koaza":"","lat":37.465592,"lng":138.858976,"zip":"9400023"},{"town":"飯島","koaza":"","lat":37.423557,"lng":138.809851,"zip":"9495401"},{"town":"飯島善兵エ古新田","koaza":"","lat":37.423395,"lng":138.81498,"zip":"9400000"},{"town":"飯塚","koaza":"","lat":37.385744,"lng":138.756996,"zip":"9495414"},{"town":"池之島","koaza":"","lat":37.508308,"lng":138.876268,"zip":"9540143"},{"town":"石内一丁目","koaza":"","lat":37.461604,"lng":138.85321,"zip":"9400026"},{"town":"石内二丁目","koaza":"","lat":37.461813,"lng":138.85127,"zip":"9400026"},{"town":"泉一丁目","koaza":"","lat":37.463856,"lng":138.853713,"zip":"9400025"},{"town":"泉二丁目","koaza":"","lat":37.463887,"lng":138.851977,"zip":"9400025"},{"town":"石動町","koaza":"","lat":37.448429,"lng":138.794417,"zip":"9402032"},{"town":"石動南町","koaza":"","lat":37.442959,"lng":138.790936,"zip":"9402117"},{"town":"一之貝","koaza":"","lat":37.436603,"lng":138.958291,"zip":"9400242"},{"town":"一之渡戸","koaza":"","lat":37.48846,"lng":138.987571,"zip":"9400000"},{"town":"稲島","koaza":"","lat":37.562303,"lng":138.859023,"zip":"9540171"},{"town":"稲保二丁目","koaza":"","lat":37.480582,"lng":138.872323,"zip":"9400877"},{"town":"稲保四丁目","koaza":"","lat":37.480896,"lng":138.869754,"zip":"9400877"},{"town":"今井一丁目","koaza":"","lat":37.424173,"lng":138.827302,"zip":"9401166"},{"town":"今井二丁目","koaza":"","lat":37.42483,"lng":138.830104,"zip":"9401166"},{"town":"今井三丁目","koaza":"","lat":37.426887,"lng":138.831459,"zip":"9401166"},{"town":"今井町","koaza":"","lat":37.428169,"lng":138.830618,"zip":"9400000"},{"town":"入塩川","koaza":"","lat":37.464237,"lng":139.046176,"zip":"9400143"},{"town":"岩田","koaza":"","lat":37.378165,"lng":138.733784,"zip":"9495415"},{"town":"岩野","koaza":"","lat":37.371124,"lng":138.810623,"zip":"9401171"},{"town":"上田町","koaza":"","lat":37.449696,"lng":138.844305,"zip":"9400074"},{"town":"上の原町","koaza":"","lat":37.468742,"lng":138.997046,"zip":"9400237"},{"town":"梅野俣","koaza":"","lat":37.512015,"lng":139.073312,"zip":"9400123"},{"town":"浦","koaza":"","lat":37.3924,"lng":138.802331,"zip":"9495406"},{"town":"浦瀬町","koaza":"","lat":37.468245,"lng":138.910385,"zip":"9400805"},{"town":"瓜生","koaza":"","lat":37.510789,"lng":138.803836,"zip":"9402303"},{"town":"上沼新田","koaza":"","lat":37.57632,"lng":138.850681,"zip":"9540207"},{"town":"海老島勇次新田","koaza":"","lat":37.553947,"lng":138.828949,"zip":"9540166"},{"town":"王番田町","koaza":"","lat":37.46554,"lng":138.789339,"zip":"9402056"},{"town":"大字日越","koaza":"","lat":37.43944,"lng":138.781346,"zip":"9400000"},{"town":"大荒戸町","koaza":"","lat":37.48168,"lng":138.801342,"zip":"9402059"},{"town":"大川戸","koaza":"","lat":37.453647,"lng":139.016813,"zip":"9400148"},{"town":"大川原町","koaza":"","lat":37.368733,"lng":138.82322,"zip":"9401137"},{"town":"大口","koaza":"","lat":37.520745,"lng":138.866958,"zip":"9540145"},{"town":"大島新町一丁目","koaza":"","lat":37.445141,"lng":138.827134,"zip":"9402104"},{"town":"大島新町二丁目","koaza":"","lat":37.445144,"lng":138.825244,"zip":"9402104"},{"town":"大島新町三丁目","koaza":"","lat":37.445437,"lng":138.823383,"zip":"9402104"},{"town":"大島新町四丁目","koaza":"","lat":37.446926,"lng":138.818792,"zip":"9402104"},{"town":"大島新町五丁目","koaza":"","lat":37.447604,"lng":138.820188,"zip":"9402104"},{"town":"大島本町一丁目","koaza":"","lat":37.442872,"lng":138.826495,"zip":"9402112"},{"town":"大島本町二丁目","koaza":"","lat":37.442095,"lng":138.824561,"zip":"9402112"},{"town":"大島本町三丁目","koaza":"","lat":37.442459,"lng":138.821493,"zip":"9402112"},{"town":"大島本町四丁目","koaza":"","lat":37.444087,"lng":138.820134,"zip":"9402112"},{"town":"大島本町五丁目","koaza":"","lat":37.445569,"lng":138.818548,"zip":"9402112"},{"town":"大島町","koaza":"","lat":37.441263,"lng":138.826812,"zip":"9400000"},{"town":"大積折渡町","koaza":"","lat":37.432037,"lng":138.703833,"zip":"9402156"},{"town":"大積熊上町","koaza":"","lat":37.426149,"lng":138.711315,"zip":"9402155"},{"town":"大積千本町","koaza":"","lat":37.408281,"lng":138.714582,"zip":"9402153"},{"town":"大積善間町","koaza":"","lat":37.442389,"lng":138.722886,"zip":"9402158"},{"town":"大積高鳥町","koaza":"","lat":37.395366,"lng":138.714857,"zip":"9402152"},{"town":"大積田代町","koaza":"","lat":37.410772,"lng":138.706835,"zip":"9402154"},{"town":"大積灰下町","koaza":"","lat":37.404173,"lng":138.724376,"zip":"9402151"},{"town":"大積町一丁目","koaza":"","lat":37.429921,"lng":138.732711,"zip":"9402146"},{"town":"大積町二丁目","koaza":"","lat":37.422375,"lng":138.734836,"zip":"9402146"},{"town":"大積町三丁目","koaza":"","lat":37.416513,"lng":138.726461,"zip":"9402146"},{"town":"大積三島谷町","koaza":"","lat":37.450869,"lng":138.707868,"zip":"9402157"},{"town":"大手通一丁目","koaza":"","lat":37.446869,"lng":138.852007,"zip":"9400062"},{"town":"大手通二丁目","koaza":"","lat":37.447927,"lng":138.849098,"zip":"9400062"},{"town":"大沼新田","koaza":"","lat":37.607211,"lng":138.876617,"zip":"9540201"},{"town":"大野","koaza":"","lat":37.499395,"lng":138.798487,"zip":"9402305"},{"town":"大曲戸","koaza":"","lat":37.513574,"lng":138.882869,"zip":"9540134"},{"town":"大町","koaza":"","lat":37.427978,"lng":138.857655,"zip":"9400844"},{"town":"大町一丁目","koaza":"","lat":37.428839,"lng":138.860641,"zip":"9400844"},{"town":"大町二丁目","koaza":"","lat":37.429472,"lng":138.859311,"zip":"9400844"},{"town":"大町三丁目","koaza":"","lat":37.431144,"lng":138.859857,"zip":"9400844"},{"town":"大宮町","koaza":"","lat":37.428231,"lng":138.827301,"zip":"9401167"},{"town":"大山一丁目","koaza":"","lat":37.440855,"lng":138.820512,"zip":"9402113"},{"town":"大山二丁目","koaza":"","lat":37.441733,"lng":138.816988,"zip":"9402113"},{"town":"大山三丁目","koaza":"","lat":37.443013,"lng":138.816754,"zip":"9402113"},{"town":"岡村町","koaza":"","lat":37.44896,"lng":138.831414,"zip":"9400000"},{"town":"沖田一丁目","koaza":"","lat":37.44428,"lng":138.865904,"zip":"9400857"},{"town":"沖田二丁目","koaza":"","lat":37.446456,"lng":138.865204,"zip":"9400857"},{"town":"沖田三丁目","koaza":"","lat":37.445619,"lng":138.868913,"zip":"9400857"},{"town":"荻野一丁目","koaza":"","lat":37.471957,"lng":138.835778,"zip":"9402012"},{"town":"荻野二丁目","koaza":"","lat":37.472576,"lng":138.838087,"zip":"9402012"},{"town":"荻野町","koaza":"","lat":37.468022,"lng":138.839942,"zip":"9400000"},{"town":"小国町相野原","koaza":"","lat":37.29084,"lng":138.683268,"zip":"9495216"},{"town":"小国町新町","koaza":"","lat":37.290514,"lng":138.712512,"zip":"9495215"},{"town":"小国町大貝","koaza":"","lat":37.236674,"lng":138.693104,"zip":"9495346"},{"town":"小国町小国沢","koaza":"","lat":37.276072,"lng":138.724749,"zip":"9495333"},{"town":"小国町上岩田","koaza":"","lat":37.283488,"lng":138.708124,"zip":"9495332"},{"town":"小国町上新田","koaza":"","lat":37.329208,"lng":138.716213,"zip":"9400000"},{"town":"小国町上谷内新田","koaza":"","lat":37.29506,"lng":138.710938,"zip":"9495214"},{"town":"小国町桐沢","koaza":"","lat":37.303345,"lng":138.734386,"zip":"9495212"},{"town":"小国町小栗山","koaza":"","lat":37.276236,"lng":138.683662,"zip":"9495341"},{"town":"小国町苔野島","koaza":"","lat":37.248938,"lng":138.701074,"zip":"9495344"},{"town":"小国町下新田","koaza":"","lat":37.332884,"lng":138.718759,"zip":"9400000"},{"town":"小国町諏訪井","koaza":"","lat":37.247507,"lng":138.723004,"zip":"9495336"},{"town":"小国町武石","koaza":"","lat":37.326774,"lng":138.689485,"zip":"9495221"},{"town":"小国町太郎丸","koaza":"","lat":37.270849,"lng":138.712482,"zip":"9495335"},{"town":"小国町千谷沢","koaza":"","lat":37.328445,"lng":138.73702,"zip":"9495201"},{"town":"小国町七日町","koaza":"","lat":37.317765,"lng":138.726245,"zip":"9495211"},{"town":"小国町楢沢","koaza":"","lat":37.284033,"lng":138.735594,"zip":"9495331"},{"town":"小国町二本柳","koaza":"","lat":37.299259,"lng":138.703294,"zip":"9495217"},{"town":"小国町八王子","koaza":"","lat":37.293556,"lng":138.658868,"zip":"9495223"},{"town":"小国町原","koaza":"","lat":37.258626,"lng":138.697637,"zip":"9495343"},{"town":"小国町法坂","koaza":"","lat":37.296833,"lng":138.72022,"zip":"9495213"},{"town":"小国町法末","koaza":"","lat":37.263987,"lng":138.737509,"zip":"9495334"},{"town":"小国町三桶","koaza":"","lat":37.243293,"lng":138.713661,"zip":"9495345"},{"town":"小国町森光","koaza":"","lat":37.265886,"lng":138.685841,"zip":"9495342"},{"town":"小国町山野田","koaza":"","lat":37.247841,"lng":138.679971,"zip":"9495347"},{"town":"小国町横沢","koaza":"","lat":37.309734,"lng":138.69271,"zip":"9495222"},{"town":"押切川原町","koaza":"","lat":37.506117,"lng":138.885174,"zip":"9540138"},{"town":"押切新田","koaza":"","lat":37.509035,"lng":138.883115,"zip":"9540137"},{"town":"小島谷","koaza":"","lat":37.560895,"lng":138.769128,"zip":"9494511"},{"town":"乙吉町","koaza":"","lat":37.447874,"lng":138.90458,"zip":"9400812"},{"town":"思川新田","koaza":"","lat":37.511583,"lng":138.890444,"zip":"9540136"},{"town":"表町一丁目","koaza":"","lat":37.446996,"lng":138.845677,"zip":"9400071"},{"town":"表町二丁目","koaza":"","lat":37.449207,"lng":138.84776,"zip":"9400071"},{"town":"表町三丁目","koaza":"","lat":37.450423,"lng":138.848431,"zip":"9400071"},{"town":"表町四丁目","koaza":"","lat":37.451966,"lng":138.849055,"zip":"9400071"},{"town":"親沢町","koaza":"","lat":37.40997,"lng":138.754178,"zip":"9402134"},{"town":"御山町","koaza":"","lat":37.427668,"lng":138.883212,"zip":"9400828"},{"town":"柿町","koaza":"","lat":37.404607,"lng":138.875167,"zip":"9400822"},{"town":"籠田","koaza":"","lat":37.570234,"lng":138.744484,"zip":"9400000"},{"town":"柏町一丁目","koaza":"","lat":37.442399,"lng":138.846551,"zip":"9400088"},{"town":"柏町二丁目","koaza":"","lat":37.444419,"lng":138.847216,"zip":"9400088"},{"town":"春日一丁目","koaza":"","lat":37.447442,"lng":138.842595,"zip":"9400096"},{"town":"春日二丁目","koaza":"","lat":37.448891,"lng":138.84247,"zip":"9400096"},{"town":"片田町","koaza":"","lat":37.393568,"lng":138.83935,"zip":"9401143"},{"town":"学校町一丁目","koaza":"","lat":37.43942,"lng":138.86169,"zip":"9400041"},{"town":"学校町二丁目","koaza":"","lat":37.441953,"lng":138.861176,"zip":"9400041"},{"town":"学校町三丁目","koaza":"","lat":37.444238,"lng":138.860429,"zip":"9400041"},{"town":"加津保町","koaza":"","lat":37.476609,"lng":138.923097,"zip":"9400803"},{"town":"桂町","koaza":"","lat":37.48311,"lng":138.91697,"zip":"9400802"},{"town":"金沢","koaza":"","lat":37.47707,"lng":139.014731,"zip":"9400135"},{"town":"金沢一丁目","koaza":"","lat":37.480265,"lng":138.996515,"zip":"9400135"},{"town":"金沢二丁目","koaza":"","lat":37.476984,"lng":138.998212,"zip":"9400135"},{"town":"金沢三丁目","koaza":"","lat":37.476458,"lng":139.000667,"zip":"9400135"},{"town":"金沢四丁目","koaza":"","lat":37.475513,"lng":139.004615,"zip":"9400135"},{"town":"金沢五丁目","koaza":"","lat":37.477496,"lng":139.004881,"zip":"9400135"},{"town":"金沢六丁目","koaza":"","lat":37.477235,"lng":139.008332,"zip":"9400135"},{"town":"要町一丁目","koaza":"","lat":37.423514,"lng":138.835931,"zip":"9401153"},{"town":"要町二丁目","koaza":"","lat":37.427539,"lng":138.839397,"zip":"9401153"},{"town":"要町三丁目","koaza":"","lat":37.42963,"lng":138.840508,"zip":"9401153"},{"town":"金房一丁目","koaza":"","lat":37.436777,"lng":138.851535,"zip":"9400045"},{"town":"金房二丁目","koaza":"","lat":37.438126,"lng":138.853115,"zip":"9400045"},{"town":"金房三丁目","koaza":"","lat":37.439667,"lng":138.853127,"zip":"9400045"},{"town":"金町一丁目","koaza":"","lat":37.479011,"lng":138.994697,"zip":"9400221"},{"town":"金町二丁目","koaza":"","lat":37.481974,"lng":138.994206,"zip":"9400221"},{"town":"釜ケ島","koaza":"","lat":37.38372,"lng":138.814711,"zip":"9401172"},{"town":"釜沢町","koaza":"","lat":37.396047,"lng":138.861026,"zip":"9401114"},{"town":"上岩井","koaza":"","lat":37.489058,"lng":138.775283,"zip":"9402314"},{"town":"上樫出","koaza":"","lat":37.486936,"lng":139.028136,"zip":"9400116"},{"town":"上桐","koaza":"","lat":37.590277,"lng":138.786586,"zip":"9494501"},{"town":"上塩","koaza":"","lat":37.510298,"lng":139.054628,"zip":"9400128"},{"town":"上新田","koaza":"","lat":37.330296,"lng":138.713623,"zip":"9400000"},{"town":"上富岡一丁目","koaza":"","lat":37.424443,"lng":138.786535,"zip":"9402136"},{"town":"上富岡二丁目","koaza":"","lat":37.42413,"lng":138.782643,"zip":"9402136"},{"town":"上富岡町","koaza":"","lat":37.424921,"lng":138.776317,"zip":"9402137"},{"town":"上除町","koaza":"","lat":37.450992,"lng":138.786272,"zip":"9402033"},{"town":"上除町西一丁目","koaza":"","lat":37.448032,"lng":138.778429,"zip":"9402034"},{"town":"上除町西二丁目","koaza":"","lat":37.451645,"lng":138.77921,"zip":"9402034"},{"town":"上野町","koaza":"","lat":37.487897,"lng":138.838489,"zip":"9402004"},{"town":"上前島町","koaza":"","lat":37.400561,"lng":138.824988,"zip":"9401144"},{"town":"神谷","koaza":"","lat":37.403318,"lng":138.79759,"zip":"9495407"},{"town":"上柳町","koaza":"","lat":37.497031,"lng":138.83672,"zip":"9402471"},{"town":"亀貝町","koaza":"","lat":37.473328,"lng":138.884935,"zip":"9400884"},{"town":"亀崎町","koaza":"","lat":37.483636,"lng":138.929987,"zip":"9400801"},{"town":"鴉ケ島","koaza":"","lat":37.513269,"lng":138.990261,"zip":"9400201"},{"town":"軽井沢","koaza":"","lat":37.43331,"lng":138.936388,"zip":"9400243"},{"town":"川口相川","koaza":"","lat":37.293894,"lng":138.851094,"zip":"9497507"},{"town":"川口荒谷","koaza":"","lat":37.304077,"lng":138.858948,"zip":"9497508"},{"town":"川口牛ヶ島","koaza":"","lat":37.280383,"lng":138.843919,"zip":"9400000"},{"town":"川口木沢","koaza":"","lat":37.290213,"lng":138.884994,"zip":"9497502"},{"town":"川口田麦山","koaza":"","lat":37.214006,"lng":138.855526,"zip":"9497512"},{"town":"川口峠","koaza":"","lat":37.297608,"lng":138.879713,"zip":"9497501"},{"town":"川口中山","koaza":"","lat":37.268263,"lng":138.873823,"zip":"9497503"},{"town":"川口武道窪","koaza":"","lat":37.289346,"lng":138.863124,"zip":"9497506"},{"town":"川口和南津","koaza":"","lat":37.255799,"lng":138.88375,"zip":"9497511"},{"town":"川崎一丁目","koaza":"","lat":37.44921,"lng":138.864818,"zip":"9400864"},{"town":"川崎二丁目","koaza":"","lat":37.450521,"lng":138.867768,"zip":"9400864"},{"town":"川崎三丁目","koaza":"","lat":37.452035,"lng":138.871168,"zip":"9400864"},{"town":"川崎四丁目","koaza":"","lat":37.452908,"lng":138.865118,"zip":"9400864"},{"town":"川崎六丁目","koaza":"","lat":37.454771,"lng":138.872674,"zip":"9400864"},{"town":"河根川町","koaza":"","lat":37.476586,"lng":138.794294,"zip":"9402058"},{"town":"川袋町","koaza":"","lat":37.515771,"lng":138.837357,"zip":"9402463"},{"town":"川辺町","koaza":"","lat":37.521584,"lng":138.857404,"zip":"9400001"},{"town":"寒沢","koaza":"","lat":37.412836,"lng":138.998405,"zip":"9400153"},{"town":"雁島町","koaza":"","lat":37.502223,"lng":138.824768,"zip":"9402474"},{"town":"神田町一丁目","koaza":"","lat":37.45437,"lng":138.852807,"zip":"9400052"},{"town":"神田町二丁目","koaza":"","lat":37.455999,"lng":138.853937,"zip":"9400052"},{"town":"神田町三丁目","koaza":"","lat":37.457974,"lng":138.854839,"zip":"9400052"},{"town":"関東町","koaza":"","lat":37.452318,"lng":138.852313,"zip":"9400067"},{"town":"気比宮","koaza":"","lat":37.506629,"lng":138.778045,"zip":"9402322"},{"town":"北園町","koaza":"","lat":37.477725,"lng":138.859006,"zip":"9400014"},{"town":"北荷頃","koaza":"","lat":37.452341,"lng":138.979673,"zip":"9400241"},{"town":"北山一丁目","koaza":"","lat":37.437963,"lng":138.817832,"zip":"9402114"},{"town":"北山二丁目","koaza":"","lat":37.43873,"lng":138.815039,"zip":"9402114"},{"town":"北山三丁目","koaza":"","lat":37.440395,"lng":138.816067,"zip":"9402114"},{"town":"北山四丁目","koaza":"","lat":37.439778,"lng":138.818889,"zip":"9402114"},{"town":"北山町","koaza":"","lat":37.438145,"lng":138.820094,"zip":"9400000"},{"town":"狐興野","koaza":"","lat":37.55633,"lng":138.837136,"zip":"9540162"},{"town":"希望が丘一丁目","koaza":"","lat":37.442778,"lng":138.812187,"zip":"9402124"},{"town":"希望が丘四丁目","koaza":"","lat":37.448334,"lng":138.812837,"zip":"9402124"},{"town":"希望が丘南五丁目","koaza":"","lat":37.439508,"lng":138.809762,"zip":"9402125"},{"town":"希望が丘南六丁目","koaza":"","lat":37.441781,"lng":138.810135,"zip":"9402125"},{"town":"木山沢","koaza":"","lat":37.416231,"lng":138.98343,"zip":"9400254"},{"town":"九川","koaza":"","lat":37.511938,"lng":139.095106,"zip":"9400121"},{"town":"草生津一丁目","koaza":"","lat":37.441178,"lng":138.838725,"zip":"9400085"},{"town":"草生津二丁目","koaza":"","lat":37.442752,"lng":138.838935,"zip":"9400085"},{"town":"草生津三丁目","koaza":"","lat":37.443921,"lng":138.839788,"zip":"9400085"},{"town":"草生津町","koaza":"","lat":37.452743,"lng":138.832868,"zip":"9400000"},{"town":"熊袋","koaza":"","lat":37.499574,"lng":139.037963,"zip":"9400113"},{"town":"雲出町","koaza":"","lat":37.463744,"lng":138.763555,"zip":"9402046"},{"town":"栗山沢","koaza":"","lat":37.396415,"lng":139.015324,"zip":"9400155"},{"town":"黒坂","koaza":"","lat":37.582939,"lng":138.794115,"zip":"9494502"},{"town":"黒津町","koaza":"","lat":37.507252,"lng":138.840736,"zip":"9400007"},{"town":"稽古町","koaza":"","lat":37.456241,"lng":138.856733,"zip":"9400054"},{"town":"今朝白一丁目","koaza":"","lat":37.446405,"lng":138.859479,"zip":"9400033"},{"town":"今朝白二丁目","koaza":"","lat":37.448845,"lng":138.860005,"zip":"9400033"},{"town":"今朝白三丁目","koaza":"","lat":37.4507,"lng":138.860426,"zip":"9400033"},{"town":"下条町","koaza":"","lat":37.404266,"lng":138.835631,"zip":"9401146"},{"town":"江陽一丁目","koaza":"","lat":37.475878,"lng":138.836822,"zip":"9402015"},{"town":"江陽二丁目","koaza":"","lat":37.478144,"lng":138.835999,"zip":"9402015"},{"town":"越路中沢","koaza":"","lat":37.415223,"lng":138.797128,"zip":"9495408"},{"town":"越路中島","koaza":"","lat":37.408809,"lng":138.811379,"zip":"9495403"},{"town":"古正寺一丁目","koaza":"","lat":37.454715,"lng":138.819592,"zip":"9402106"},{"town":"古正寺二丁目","koaza":"","lat":37.457237,"lng":138.820487,"zip":"9402106"},{"town":"古正寺三丁目","koaza":"","lat":37.458981,"lng":138.821071,"zip":"9402106"},{"town":"古正寺町","koaza":"","lat":37.455899,"lng":138.814531,"zip":"9402103"},{"town":"小曽根町","koaza":"","lat":37.462963,"lng":138.88247,"zip":"9400883"},{"town":"五反田町","koaza":"","lat":37.460022,"lng":138.773424,"zip":"9402036"},{"town":"小貫","koaza":"","lat":37.490042,"lng":138.970738,"zip":"9400211"},{"town":"寿一丁目","koaza":"","lat":37.47475,"lng":138.853399,"zip":"9400015"},{"town":"寿二丁目","koaza":"","lat":37.477173,"lng":138.853973,"zip":"9400015"},{"town":"寿三丁目","koaza":"","lat":37.483987,"lng":138.854786,"zip":"9400015"},{"town":"呉服町一丁目","koaza":"","lat":37.452573,"lng":138.850771,"zip":"9400056"},{"town":"呉服町二丁目","koaza":"","lat":37.454253,"lng":138.851466,"zip":"9400056"},{"town":"小向","koaza":"","lat":37.435431,"lng":139.027445,"zip":"9400146"},{"town":"西所","koaza":"","lat":37.5774,"lng":138.865796,"zip":"9400000"},{"town":"才津西町","koaza":"","lat":37.434234,"lng":138.797556,"zip":"9402133"},{"town":"才津東町","koaza":"","lat":37.437949,"lng":138.803734,"zip":"9402131"},{"town":"才津南町","koaza":"","lat":37.43044,"lng":138.792951,"zip":"9402132"},{"town":"幸町一丁目","koaza":"","lat":37.437672,"lng":138.841656,"zip":"9400084"},{"town":"幸町二丁目","koaza":"","lat":37.437272,"lng":138.839646,"zip":"9400084"},{"town":"幸町三丁目","koaza":"","lat":37.437358,"lng":138.838056,"zip":"9400084"},{"town":"蔵王一丁目","koaza":"","lat":37.465967,"lng":138.852845,"zip":"9400028"},{"town":"蔵王二丁目","koaza":"","lat":37.467933,"lng":138.853037,"zip":"9400028"},{"town":"蔵王三丁目","koaza":"","lat":37.47099,"lng":138.852537,"zip":"9400028"},{"town":"蔵王町","koaza":"","lat":37.470487,"lng":138.846573,"zip":"9400000"},{"town":"堺東町","koaza":"","lat":37.456934,"lng":138.812101,"zip":"9402026"},{"town":"堺町","koaza":"","lat":37.462012,"lng":138.810936,"zip":"9402024"},{"town":"栄町一丁目","koaza":"","lat":37.484335,"lng":138.990959,"zip":"9400205"},{"town":"栄町二丁目","koaza":"","lat":37.484332,"lng":138.992632,"zip":"9400205"},{"town":"栄町三丁目","koaza":"","lat":37.484546,"lng":138.995312,"zip":"9400205"},{"town":"逆谷","koaza":"","lat":37.526697,"lng":138.771354,"zip":"9402321"},{"town":"坂之上町一丁目","koaza":"","lat":37.446992,"lng":138.848461,"zip":"9400065"},{"town":"坂之上町二丁目","koaza":"","lat":37.449247,"lng":138.849653,"zip":"9400065"},{"town":"坂之上町三丁目","koaza":"","lat":37.4509,"lng":138.850086,"zip":"9400065"},{"town":"鷺巣町","koaza":"","lat":37.400323,"lng":138.855592,"zip":"9401113"},{"town":"左近一丁目","koaza":"","lat":37.428341,"lng":138.834828,"zip":"9401161"},{"town":"左近二丁目","koaza":"","lat":37.430526,"lng":138.8371,"zip":"9401161"},{"town":"左近三丁目","koaza":"","lat":37.4311,"lng":138.838535,"zip":"9401161"},{"town":"左近町","koaza":"","lat":37.436625,"lng":138.831063,"zip":"9401161"},{"town":"笹崎一丁目","koaza":"","lat":37.425981,"lng":138.847061,"zip":"9400833"},{"town":"笹崎二丁目","koaza":"","lat":37.428388,"lng":138.848512,"zip":"9400833"},{"town":"笹崎三丁目","koaza":"","lat":37.430677,"lng":138.850257,"zip":"9400833"},{"town":"篠花","koaza":"","lat":37.417157,"lng":138.815888,"zip":"9495402"},{"town":"沢下条","koaza":"","lat":37.402114,"lng":138.742379,"zip":"9495413"},{"town":"沢田一丁目","koaza":"","lat":37.425825,"lng":138.844434,"zip":"9401101"},{"town":"沢田二丁目","koaza":"","lat":37.428002,"lng":138.845928,"zip":"9401101"},{"town":"沢田三丁目","koaza":"","lat":37.431559,"lng":138.848205,"zip":"9401101"},{"town":"三瀬ケ谷","koaza":"","lat":37.577217,"lng":138.793525,"zip":"9494504"},{"town":"三之宮町","koaza":"","lat":37.491419,"lng":138.818747,"zip":"9402472"},{"town":"三俵野町","koaza":"","lat":37.357881,"lng":138.824479,"zip":"9401136"},{"town":"三和一丁目","koaza":"","lat":37.432023,"lng":138.841776,"zip":"9401151"},{"town":"三和二丁目","koaza":"","lat":37.434165,"lng":138.841466,"zip":"9401151"},{"town":"三和三丁目","koaza":"","lat":37.43385,"lng":138.838825,"zip":"9401151"},{"town":"三和町","koaza":"","lat":37.432552,"lng":138.839459,"zip":"9401152"},{"town":"塩新町","koaza":"","lat":37.505308,"lng":139.065909,"zip":"9400129"},{"town":"塩中","koaza":"","lat":37.512642,"lng":139.081294,"zip":"9400122"},{"town":"地蔵一丁目","koaza":"","lat":37.454636,"lng":138.863795,"zip":"9400031"},{"town":"七軒町","koaza":"","lat":37.500976,"lng":138.881813,"zip":"9400894"},{"town":"信濃一丁目","koaza":"","lat":37.447627,"lng":138.838079,"zip":"9400098"},{"town":"信濃二丁目","koaza":"","lat":37.45024,"lng":138.837518,"zip":"9400098"},{"town":"寺宝町","koaza":"","lat":37.471917,"lng":138.798054,"zip":"9402057"},{"town":"島崎","koaza":"","lat":37.586129,"lng":138.765871,"zip":"9494525"},{"town":"島田","koaza":"","lat":37.540841,"lng":138.841312,"zip":"9540155"},{"town":"下樫出","koaza":"","lat":37.495379,"lng":139.023511,"zip":"9400115"},{"town":"下河根川","koaza":"","lat":37.500413,"lng":138.805338,"zip":"9402304"},{"town":"下々条一丁目","koaza":"","lat":37.480847,"lng":138.862567,"zip":"9400012"},{"town":"下々条二丁目","koaza":"","lat":37.484137,"lng":138.863061,"zip":"9400012"},{"town":"下々条三丁目","koaza":"","lat":37.487351,"lng":138.862724,"zip":"9400012"},{"town":"下々条四丁目","koaza":"","lat":37.490684,"lng":138.861702,"zip":"9400012"},{"town":"下々条町","koaza":"","lat":37.488343,"lng":138.86772,"zip":"9400011"},{"town":"下塩","koaza":"","lat":37.518651,"lng":139.029029,"zip":"9400111"},{"town":"下新田","koaza":"","lat":37.333073,"lng":138.715414,"zip":"9400000"},{"town":"下富岡","koaza":"","lat":37.563191,"lng":138.778464,"zip":"9494507"},{"town":"下柳一丁目","koaza":"","lat":37.470398,"lng":138.834815,"zip":"9402013"},{"town":"下柳二丁目","koaza":"","lat":37.473114,"lng":138.834166,"zip":"9402013"},{"town":"下柳三丁目","koaza":"","lat":37.475723,"lng":138.833185,"zip":"9402013"},{"town":"下山一丁目","koaza":"","lat":37.433032,"lng":138.812888,"zip":"9402115"},{"town":"下山二丁目","koaza":"","lat":37.434751,"lng":138.811694,"zip":"9402115"},{"town":"下山三丁目","koaza":"","lat":37.436906,"lng":138.812696,"zip":"9402115"},{"town":"下山四丁目","koaza":"","lat":37.436649,"lng":138.814496,"zip":"9402115"},{"town":"下山五丁目","koaza":"","lat":37.43631,"lng":138.816676,"zip":"9402115"},{"town":"下山六丁目","koaza":"","lat":37.434511,"lng":138.814973,"zip":"9402115"},{"town":"下山町","koaza":"","lat":37.433019,"lng":138.81819,"zip":"9400000"},{"town":"十二潟町","koaza":"","lat":37.51121,"lng":138.866062,"zip":"9400002"},{"town":"城岡一丁目","koaza":"","lat":37.467303,"lng":138.860084,"zip":"9400021"},{"town":"城岡二丁目","koaza":"","lat":37.47095,"lng":138.86165,"zip":"9400021"},{"town":"城岡三丁目","koaza":"","lat":37.475905,"lng":138.86335,"zip":"9400021"},{"town":"成願寺町","koaza":"","lat":37.429551,"lng":138.920254,"zip":"9400814"},{"town":"上条町","koaza":"","lat":37.425667,"lng":138.852495,"zip":"9400831"},{"town":"城内町一丁目","koaza":"","lat":37.445872,"lng":138.85174,"zip":"9400061"},{"town":"城内町二丁目","koaza":"","lat":37.447958,"lng":138.852949,"zip":"9400061"},{"town":"城内町三丁目","koaza":"","lat":37.450153,"lng":138.853697,"zip":"9400061"},{"town":"定明町","koaza":"","lat":37.41233,"lng":138.837539,"zip":"9401141"},{"town":"昭和一丁目","koaza":"","lat":37.457442,"lng":138.848335,"zip":"9400092"},{"town":"昭和二丁目","koaza":"","lat":37.459834,"lng":138.848526,"zip":"9400092"},{"town":"四郎丸一丁目","koaza":"","lat":37.439328,"lng":138.856896,"zip":"9400046"},{"town":"四郎丸二丁目","koaza":"","lat":37.441,"lng":138.855913,"zip":"9400046"},{"town":"四郎丸三丁目","koaza":"","lat":37.44182,"lng":138.856755,"zip":"9400046"},{"town":"四郎丸四丁目","koaza":"","lat":37.443681,"lng":138.856743,"zip":"9400046"},{"town":"四郎丸町","koaza":"","lat":37.445931,"lng":138.862864,"zip":"9400865"},{"town":"白鳥町","koaza":"","lat":37.452719,"lng":138.76393,"zip":"9402041"},{"town":"新開町","koaza":"","lat":37.49955,"lng":138.837916,"zip":"9402464"},{"town":"新組町","koaza":"","lat":37.499339,"lng":138.874063,"zip":"9400897"},{"town":"新組南町","koaza":"","lat":37.49357,"lng":138.879831,"zip":"9400898"},{"town":"新栄町一丁目","koaza":"","lat":37.48921,"lng":138.996092,"zip":"9400204"},{"town":"新栄町二丁目","koaza":"","lat":37.489094,"lng":138.997698,"zip":"9400204"},{"town":"新栄町三丁目","koaza":"","lat":37.487883,"lng":138.998668,"zip":"9400204"},{"town":"新産一丁目","koaza":"","lat":37.439633,"lng":138.796642,"zip":"9402127"},{"town":"新産二丁目","koaza":"","lat":37.43791,"lng":138.791732,"zip":"9402127"},{"town":"新産三丁目","koaza":"","lat":37.434443,"lng":138.791474,"zip":"9402127"},{"town":"新産四丁目","koaza":"","lat":37.435414,"lng":138.788021,"zip":"9402127"},{"town":"新産東町","koaza":"","lat":37.438868,"lng":138.800288,"zip":"9402128"},{"town":"信条南","koaza":"","lat":37.587209,"lng":138.849148,"zip":"9540218"},{"town":"新陽一丁目","koaza":"","lat":37.433578,"lng":138.75416,"zip":"9402147"},{"town":"新陽二丁目","koaza":"","lat":37.428761,"lng":138.755465,"zip":"9402147"},{"town":"水道町一丁目","koaza":"","lat":37.45564,"lng":138.841763,"zip":"9400093"},{"town":"水道町二丁目","koaza":"","lat":37.455565,"lng":138.843709,"zip":"9400093"},{"town":"水道町三丁目","koaza":"","lat":37.456637,"lng":138.845499,"zip":"9400093"},{"town":"水道町四丁目","koaza":"","lat":37.458176,"lng":138.845338,"zip":"9400093"},{"town":"水道町五丁目","koaza":"","lat":37.460387,"lng":138.846046,"zip":"9400093"},{"town":"末広一丁目","koaza":"","lat":37.431158,"lng":138.854524,"zip":"9400834"},{"town":"末広二丁目","koaza":"","lat":37.431852,"lng":138.855293,"zip":"9400834"},{"town":"末広三丁目","koaza":"","lat":37.433167,"lng":138.856442,"zip":"9400834"},{"town":"菅畑","koaza":"","lat":37.456123,"lng":139.026569,"zip":"9400144"},{"town":"杉之森","koaza":"","lat":37.542312,"lng":138.871241,"zip":"9540151"},{"town":"住吉一丁目","koaza":"","lat":37.433101,"lng":138.852009,"zip":"9400044"},{"town":"住吉二丁目","koaza":"","lat":37.434941,"lng":138.851572,"zip":"9400044"},{"town":"住吉三丁目","koaza":"","lat":37.436299,"lng":138.853534,"zip":"9400044"},{"town":"李崎町","koaza":"","lat":37.530997,"lng":138.83233,"zip":"9402462"},{"town":"栖吉町","koaza":"","lat":37.404815,"lng":138.913522,"zip":"9400821"},{"town":"西陵町","koaza":"","lat":37.465607,"lng":138.751889,"zip":"9402045"},{"town":"関根","koaza":"","lat":37.536855,"lng":138.848732,"zip":"9540154"},{"town":"関原西町","koaza":"","lat":37.458875,"lng":138.777135,"zip":"9402037"},{"town":"関原東町","koaza":"","lat":37.455928,"lng":138.780668,"zip":"9402038"},{"town":"関原町一丁目","koaza":"","lat":37.442743,"lng":138.768618,"zip":"9402035"},{"town":"関原町二丁目","koaza":"","lat":37.454236,"lng":138.77334,"zip":"9402035"},{"town":"関原町三丁目","koaza":"","lat":37.455819,"lng":138.768267,"zip":"9402035"},{"town":"関原町五丁目","koaza":"","lat":37.450617,"lng":138.7692,"zip":"9402035"},{"town":"関原南一丁目","koaza":"","lat":37.450042,"lng":138.775432,"zip":"9402039"},{"town":"関原南二丁目","koaza":"","lat":37.447908,"lng":138.774513,"zip":"9402039"},{"town":"関原南三丁目","koaza":"","lat":37.449646,"lng":138.7716,"zip":"9402039"},{"town":"関原南四丁目","koaza":"","lat":37.445789,"lng":138.774488,"zip":"9402039"},{"town":"関原南五丁目","koaza":"","lat":37.447542,"lng":138.771168,"zip":"9402039"},{"town":"摂田屋一丁目","koaza":"","lat":37.412385,"lng":138.84579,"zip":"9401105"},{"town":"摂田屋二丁目","koaza":"","lat":37.412688,"lng":138.843856,"zip":"9401105"},{"town":"摂田屋三丁目","koaza":"","lat":37.414945,"lng":138.842439,"zip":"9401105"},{"town":"摂田屋四丁目","koaza":"","lat":37.415285,"lng":138.840794,"zip":"9401105"},{"town":"摂田屋五丁目","koaza":"","lat":37.417011,"lng":138.837953,"zip":"9401105"},{"town":"摂田屋町","koaza":"","lat":37.41505,"lng":138.833047,"zip":"9401104"},{"town":"芹川町","koaza":"","lat":37.495352,"lng":138.823173,"zip":"9402473"},{"town":"千歳一丁目","koaza":"","lat":37.43752,"lng":138.84935,"zip":"9400082"},{"town":"千歳二丁目","koaza":"","lat":37.437194,"lng":138.846426,"zip":"9400082"},{"town":"千歳三丁目","koaza":"","lat":37.438802,"lng":138.847056,"zip":"9400082"},{"town":"千手一丁目","koaza":"","lat":37.439691,"lng":138.844327,"zip":"9400087"},{"town":"千手二丁目","koaza":"","lat":37.44181,"lng":138.844164,"zip":"9400087"},{"town":"千手三丁目","koaza":"","lat":37.444481,"lng":138.844316,"zip":"9400087"},{"town":"千秋一丁目","koaza":"","lat":37.45399,"lng":138.825613,"zip":"9402108"},{"town":"千秋二丁目","koaza":"","lat":37.459035,"lng":138.827639,"zip":"9402108"},{"town":"千秋三丁目","koaza":"","lat":37.463721,"lng":138.829697,"zip":"9402108"},{"town":"千秋四丁目","koaza":"","lat":37.466839,"lng":138.832637,"zip":"9402108"},{"town":"大黒町","koaza":"","lat":37.495965,"lng":138.886135,"zip":"9400895"},{"town":"大保","koaza":"","lat":37.530074,"lng":138.861154,"zip":"9540146"},{"town":"台町一丁目","koaza":"","lat":37.444855,"lng":138.854537,"zip":"9400048"},{"town":"台町二丁目","koaza":"","lat":37.446824,"lng":138.855321,"zip":"9400048"},{"town":"平","koaza":"","lat":37.46826,"lng":139.020781,"zip":"9400137"},{"town":"平一丁目","koaza":"","lat":37.472733,"lng":139.003775,"zip":"9400137"},{"town":"平二丁目","koaza":"","lat":37.470502,"lng":139.005884,"zip":"9400137"},{"town":"平三丁目","koaza":"","lat":37.466714,"lng":139.00564,"zip":"9400137"},{"town":"平四丁目","koaza":"","lat":37.468056,"lng":139.008876,"zip":"9400137"},{"town":"平五丁目","koaza":"","lat":37.464953,"lng":139.007797,"zip":"9400137"},{"town":"高島町","koaza":"","lat":37.384304,"lng":138.825867,"zip":"9401139"},{"town":"高瀬町","koaza":"","lat":37.462749,"lng":138.79985,"zip":"9402025"},{"town":"高寺町","koaza":"","lat":37.434616,"lng":138.772616,"zip":"9402143"},{"town":"高頭町","koaza":"","lat":37.432095,"lng":138.759899,"zip":"9402144"},{"town":"高野町","koaza":"","lat":37.491869,"lng":138.809417,"zip":"9402051"},{"town":"高畑町","koaza":"","lat":37.421973,"lng":138.86327,"zip":"9400825"},{"town":"高町一丁目","koaza":"","lat":37.420309,"lng":138.86683,"zip":"9400824"},{"town":"高町二丁目","koaza":"","lat":37.418124,"lng":138.865844,"zip":"9400824"},{"town":"高町三丁目","koaza":"","lat":37.415426,"lng":138.864096,"zip":"9400824"},{"town":"高町四丁目","koaza":"","lat":37.413145,"lng":138.864169,"zip":"9400824"},{"town":"高見一丁目","koaza":"","lat":37.498959,"lng":138.866204,"zip":"9400003"},{"town":"高見二丁目","koaza":"","lat":37.499243,"lng":138.863461,"zip":"9400003"},{"town":"高見町","koaza":"","lat":37.504342,"lng":138.861287,"zip":"9400004"},{"town":"宝一丁目","koaza":"","lat":37.480987,"lng":138.85699,"zip":"9400016"},{"town":"宝二丁目","koaza":"","lat":37.482675,"lng":138.857826,"zip":"9400016"},{"town":"宝三丁目","koaza":"","lat":37.484706,"lng":138.858307,"zip":"9400016"},{"town":"宝四丁目","koaza":"","lat":37.487406,"lng":138.859761,"zip":"9400016"},{"town":"宝五丁目","koaza":"","lat":37.489999,"lng":138.858672,"zip":"9400016"},{"town":"滝之口","koaza":"","lat":37.493824,"lng":139.052043,"zip":"9400127"},{"town":"滝の下町","koaza":"","lat":37.472504,"lng":138.997671,"zip":"9400226"},{"town":"滝谷町","koaza":"","lat":37.368487,"lng":138.835859,"zip":"9401138"},{"town":"竹之高地町","koaza":"","lat":37.379943,"lng":138.899632,"zip":"9401123"},{"town":"竹町","koaza":"","lat":37.398146,"lng":138.850247,"zip":"9401116"},{"town":"田之口","koaza":"","lat":37.435592,"lng":138.98003,"zip":"9400251"},{"town":"千谷沢","koaza":"","lat":37.340772,"lng":138.704262,"zip":"9495124"},{"town":"中永","koaza":"","lat":37.509617,"lng":138.751565,"zip":"9402324"},{"town":"中央公園","koaza":"","lat":37.47839,"lng":138.993327,"zip":"9400222"},{"town":"中条北","koaza":"","lat":37.581107,"lng":138.845389,"zip":"9400000"},{"town":"千代栄町","koaza":"","lat":37.446169,"lng":138.884142,"zip":"9400819"},{"town":"塚野山","koaza":"","lat":37.348948,"lng":138.726015,"zip":"9495123"},{"town":"土ケ谷","koaza":"","lat":37.469453,"lng":138.963048,"zip":"9400212"},{"town":"堤町","koaza":"","lat":37.478112,"lng":138.839013,"zip":"9402014"},{"town":"坪根","koaza":"","lat":37.50994,"lng":138.87111,"zip":"9540144"},{"town":"鶴ケ曽根","koaza":"","lat":37.550474,"lng":138.867371,"zip":"9540172"},{"town":"鉄工町一丁目","koaza":"","lat":37.470703,"lng":138.828488,"zip":"9402022"},{"town":"鉄工町二丁目","koaza":"","lat":37.472972,"lng":138.827553,"zip":"9402022"},{"town":"寺島町","koaza":"","lat":37.459534,"lng":138.837082,"zip":"9402101"},{"town":"寺泊吉","koaza":"","lat":37.63479,"lng":138.783973,"zip":"9402507"},{"town":"寺泊赤坂","koaza":"","lat":37.641608,"lng":138.776584,"zip":"9400000"},{"town":"寺泊小豆曽根","koaza":"","lat":37.626982,"lng":138.818696,"zip":"9590162"},{"town":"寺泊雨池","koaza":"","lat":37.655734,"lng":138.779273,"zip":"9400000"},{"town":"寺泊荒町","koaza":"","lat":37.64737,"lng":138.769984,"zip":"9400000"},{"town":"寺泊有信","koaza":"","lat":37.596629,"lng":138.796243,"zip":"9590155"},{"town":"寺泊磯町","koaza":"","lat":37.653391,"lng":138.773546,"zip":"9400000"},{"town":"寺泊一枚田","koaza":"","lat":37.650555,"lng":138.773998,"zip":"9400000"},{"town":"寺泊一里塚","koaza":"","lat":37.645385,"lng":138.773711,"zip":"9400000"},{"town":"寺泊入軽井","koaza":"","lat":37.595141,"lng":138.811236,"zip":"9590149"},{"town":"寺泊岩方","koaza":"","lat":37.582236,"lng":138.822917,"zip":"9590147"},{"town":"寺泊上田町","koaza":"","lat":37.647017,"lng":138.766566,"zip":"9400000"},{"town":"寺泊烏帽子平","koaza":"","lat":37.635479,"lng":138.774665,"zip":"9400000"},{"town":"寺泊円上寺","koaza":"","lat":37.64633,"lng":138.786745,"zip":"9402511"},{"town":"寺泊円上寺山","koaza":"","lat":37.641222,"lng":138.787992,"zip":"9400000"},{"town":"寺泊大地","koaza":"","lat":37.637857,"lng":138.789929,"zip":"9402503"},{"town":"寺泊大町","koaza":"","lat":37.644131,"lng":138.767467,"zip":"9400000"},{"town":"寺泊大和田","koaza":"","lat":37.619611,"lng":138.761342,"zip":"9402529"},{"town":"寺泊小川町","koaza":"","lat":37.637666,"lng":138.762788,"zip":"9400000"},{"town":"寺泊片町","koaza":"","lat":37.642184,"lng":138.765875,"zip":"9400000"},{"town":"寺泊金山","koaza":"","lat":37.627527,"lng":138.759794,"zip":"9400000"},{"town":"寺泊蟹沢","koaza":"","lat":37.650699,"lng":138.780485,"zip":"9400000"},{"town":"寺泊上荒町","koaza":"","lat":37.63905,"lng":138.763447,"zip":"9400000"},{"town":"寺泊上片町","koaza":"","lat":37.640763,"lng":138.765543,"zip":"9400000"},{"town":"寺泊川崎","koaza":"","lat":37.624641,"lng":138.804091,"zip":"9402517"},{"town":"寺泊木島","koaza":"","lat":37.60739,"lng":138.789928,"zip":"9590156"},{"town":"寺泊北曽根","koaza":"","lat":37.621858,"lng":138.823881,"zip":"9590165"},{"town":"寺泊京ケ入","koaza":"","lat":37.639438,"lng":138.797046,"zip":"9402512"},{"town":"寺泊切替","koaza":"","lat":37.652839,"lng":138.78712,"zip":"9400000"},{"town":"寺泊蔵場町","koaza":"","lat":37.64759,"lng":138.773562,"zip":"9400000"},{"town":"寺泊香清水","koaza":"","lat":37.637557,"lng":138.765765,"zip":"9400000"},{"town":"寺泊庚塚","koaza":"","lat":37.653556,"lng":138.777671,"zip":"9400000"},{"town":"寺泊郷本","koaza":"","lat":37.607502,"lng":138.751093,"zip":"9402528"},{"town":"寺泊越ノ浦","koaza":"","lat":37.651432,"lng":138.776333,"zip":"9400000"},{"town":"寺泊五分一","koaza":"","lat":37.60031,"lng":138.790472,"zip":"9590154"},{"town":"寺泊小屋場","koaza":"","lat":37.658794,"lng":138.781755,"zip":"9400000"},{"town":"寺泊坂井町","koaza":"","lat":37.649977,"lng":138.771442,"zip":"9400000"},{"town":"寺泊敷ノ川","koaza":"","lat":37.649607,"lng":138.77741,"zip":"9400000"},{"town":"寺泊志戸橋","koaza":"","lat":37.596623,"lng":138.747962,"zip":"9402527"},{"town":"寺泊下荒町","koaza":"","lat":37.64863,"lng":138.770494,"zip":"9400000"},{"town":"寺泊下桐","koaza":"","lat":37.609035,"lng":138.803886,"zip":"9590152"},{"town":"寺泊下窪田","koaza":"","lat":37.64342,"lng":138.7977,"zip":"9400000"},{"town":"寺泊下曽根","koaza":"","lat":37.626345,"lng":138.807385,"zip":"9402516"},{"town":"寺泊下中条","koaza":"","lat":37.619477,"lng":138.832494,"zip":"9590164"},{"town":"寺泊白岩","koaza":"","lat":37.657504,"lng":138.774935,"zip":"9400000"},{"town":"寺泊新長","koaza":"","lat":37.628158,"lng":138.825194,"zip":"9590163"},{"town":"寺泊千駄越","koaza":"","lat":37.653415,"lng":138.779232,"zip":"9400000"},{"town":"寺泊高内","koaza":"","lat":37.60182,"lng":138.823129,"zip":"9590143"},{"town":"寺泊田頭","koaza":"","lat":37.600709,"lng":138.767543,"zip":"9402523"},{"town":"寺泊竹森","koaza":"","lat":37.620825,"lng":138.815208,"zip":"9590161"},{"town":"寺泊田尻","koaza":"","lat":37.587958,"lng":138.818112,"zip":"9590146"},{"town":"寺泊田ノ尻","koaza":"","lat":37.629045,"lng":138.762291,"zip":"9400000"},{"town":"寺泊敦ケ曽根","koaza":"","lat":37.616144,"lng":138.82688,"zip":"9590141"},{"town":"寺泊当新田","koaza":"","lat":37.632256,"lng":138.807442,"zip":"9402513"},{"town":"寺泊戸崎","koaza":"","lat":37.624241,"lng":138.796117,"zip":"9402518"},{"town":"寺泊年友","koaza":"","lat":37.621417,"lng":138.775529,"zip":"9402521"},{"town":"寺泊殿林","koaza":"","lat":37.642817,"lng":138.79707,"zip":"9400000"},{"town":"寺泊中曽根","koaza":"","lat":37.6344,"lng":138.817581,"zip":"9402515"},{"town":"寺泊長峯","koaza":"","lat":37.624334,"lng":138.760541,"zip":"9400000"},{"town":"寺泊名子山","koaza":"","lat":37.639259,"lng":138.781071,"zip":"9400000"},{"town":"寺泊夏戸","koaza":"","lat":37.609989,"lng":138.776869,"zip":"9402522"},{"town":"寺泊七曲","koaza":"","lat":37.64465,"lng":138.780922,"zip":"9400000"},{"town":"寺泊仁ケ村外新田","koaza":"","lat":37.587249,"lng":138.826241,"zip":"9400000"},{"town":"寺泊二ノ関","koaza":"","lat":37.641121,"lng":138.769692,"zip":"9400000"},{"town":"寺泊鼠山","koaza":"","lat":37.646197,"lng":138.776157,"zip":"9400000"},{"town":"寺泊野積","koaza":"","lat":37.686231,"lng":138.79283,"zip":"9402501"},{"town":"寺泊硲田","koaza":"","lat":37.605295,"lng":138.796696,"zip":"9590153"},{"town":"寺泊花立","koaza":"","lat":37.632337,"lng":138.762756,"zip":"9400000"},{"town":"寺泊万善寺","koaza":"","lat":37.610147,"lng":138.821143,"zip":"9590142"},{"town":"寺泊引岡","koaza":"","lat":37.626215,"lng":138.78506,"zip":"9402508"},{"town":"寺泊平野新村新田","koaza":"","lat":37.59559,"lng":138.823009,"zip":"9590145"},{"town":"寺泊蛇塚","koaza":"","lat":37.639837,"lng":138.815444,"zip":"9402514"},{"town":"寺泊弁才天","koaza":"","lat":37.635778,"lng":138.798009,"zip":"9402504"},{"town":"寺泊町軽井","koaza":"","lat":37.598452,"lng":138.826882,"zip":"9590144"},{"town":"寺泊松沢町","koaza":"","lat":37.635843,"lng":138.762555,"zip":"9400000"},{"town":"寺泊松田","koaza":"","lat":37.594314,"lng":138.765022,"zip":"9402524"},{"town":"寺泊湊町","koaza":"","lat":37.662359,"lng":138.774213,"zip":"9400000"},{"town":"寺泊箕輪","koaza":"","lat":37.633986,"lng":138.792852,"zip":"9400000"},{"town":"寺泊明ケ谷","koaza":"","lat":37.592756,"lng":138.759898,"zip":"9402525"},{"town":"寺泊本弁","koaza":"","lat":37.630481,"lng":138.799701,"zip":"9402505"},{"town":"寺泊求草","koaza":"","lat":37.60823,"lng":138.812416,"zip":"9590151"},{"town":"寺泊本山","koaza":"","lat":37.633173,"lng":138.799593,"zip":"9402506"},{"town":"寺泊矢田","koaza":"","lat":37.579263,"lng":138.803099,"zip":"9590148"},{"town":"寺泊藪田","koaza":"","lat":37.658683,"lng":138.78595,"zip":"9400000"},{"town":"寺泊山田","koaza":"","lat":37.589254,"lng":138.740443,"zip":"9402526"},{"town":"寺泊横掛","koaza":"","lat":37.634158,"lng":138.767032,"zip":"9400000"},{"town":"寺泊鰐口","koaza":"","lat":37.618706,"lng":138.805709,"zip":"9590157"},{"town":"天神町","koaza":"","lat":37.509962,"lng":138.849846,"zip":"9400008"},{"town":"土合一丁目","koaza":"","lat":37.433166,"lng":138.854464,"zip":"9400043"},{"town":"土合二丁目","koaza":"","lat":37.43539,"lng":138.85573,"zip":"9400043"},{"town":"土合三丁目","koaza":"","lat":37.435459,"lng":138.85808,"zip":"9400043"},{"town":"土合四丁目","koaza":"","lat":37.436752,"lng":138.858408,"zip":"9400043"},{"town":"土合五丁目","koaza":"","lat":37.437757,"lng":138.857407,"zip":"9400043"},{"town":"土合町","koaza":"","lat":37.43167,"lng":138.867658,"zip":"9400847"},{"town":"十日町","koaza":"","lat":37.384646,"lng":138.838259,"zip":"9401131"},{"town":"栃尾旭町","koaza":"","lat":37.470911,"lng":139.002639,"zip":"9400231"},{"town":"栃尾新町","koaza":"","lat":37.47957,"lng":138.990766,"zip":"9400216"},{"town":"栃尾泉","koaza":"","lat":37.447274,"lng":139.002694,"zip":"9400234"},{"town":"栃尾岩野外新田","koaza":"","lat":37.504114,"lng":138.9934,"zip":"9400202"},{"town":"栃尾大野","koaza":"","lat":37.464504,"lng":138.986266,"zip":"9400235"},{"town":"栃尾大野町一丁目","koaza":"","lat":37.469441,"lng":138.990875,"zip":"9400236"},{"town":"栃尾大野町二丁目","koaza":"","lat":37.467292,"lng":138.987938,"zip":"9400236"},{"town":"栃尾大野町三丁目","koaza":"","lat":37.469833,"lng":138.993866,"zip":"9400236"},{"town":"栃尾大野町四丁目","koaza":"","lat":37.467227,"lng":138.993319,"zip":"9400236"},{"town":"栃尾大町","koaza":"","lat":37.476978,"lng":138.991361,"zip":"9400217"},{"town":"栃尾表町","koaza":"","lat":37.474181,"lng":138.99323,"zip":"9400218"},{"town":"栃尾島田","koaza":"","lat":37.485425,"lng":139.05689,"zip":"9400141"},{"town":"栃尾原","koaza":"","lat":37.482502,"lng":139.00743,"zip":"9400132"},{"town":"栃尾原町一丁目","koaza":"","lat":37.481591,"lng":139.000582,"zip":"9400134"},{"town":"栃尾原町二丁目","koaza":"","lat":37.480714,"lng":139.001477,"zip":"9400134"},{"town":"栃尾原町三丁目","koaza":"","lat":37.480623,"lng":139.004421,"zip":"9400134"},{"town":"栃尾原町四丁目","koaza":"","lat":37.483171,"lng":138.998792,"zip":"9400134"},{"town":"栃尾原町五丁目","koaza":"","lat":37.485759,"lng":139.000095,"zip":"9400134"},{"town":"栃尾本町","koaza":"","lat":37.476988,"lng":138.994166,"zip":"9400223"},{"town":"栃尾町","koaza":"","lat":37.475783,"lng":138.984248,"zip":"9400215"},{"town":"栃尾宮沢","koaza":"","lat":37.457209,"lng":139.00034,"zip":"9400233"},{"town":"栃尾山田","koaza":"","lat":37.480593,"lng":138.977902,"zip":"9400214"},{"town":"栃尾山田町","koaza":"","lat":37.482009,"lng":138.988979,"zip":"9400213"},{"town":"栃堀","koaza":"","lat":37.436758,"lng":139.07254,"zip":"9400145"},{"town":"殿町一丁目","koaza":"","lat":37.444639,"lng":138.851899,"zip":"9400064"},{"town":"殿町二丁目","koaza":"","lat":37.44526,"lng":138.84958,"zip":"9400064"},{"town":"殿町三丁目","koaza":"","lat":37.446051,"lng":138.848107,"zip":"9400064"},{"town":"富島町","koaza":"","lat":37.472245,"lng":138.889346,"zip":"9400881"},{"town":"豊田町","koaza":"","lat":37.429662,"lng":138.855492,"zip":"9400836"},{"town":"豊詰町","koaza":"","lat":37.40494,"lng":138.844662,"zip":"9401142"},{"town":"鳥越","koaza":"","lat":37.474974,"lng":138.74768,"zip":"9402316"},{"town":"中","koaza":"","lat":37.416101,"lng":138.96898,"zip":"9402324"},{"town":"中潟町","koaza":"","lat":37.352493,"lng":138.831096,"zip":"9401135"},{"town":"長倉一丁目","koaza":"","lat":37.435571,"lng":138.87343,"zip":"9400829"},{"town":"長倉二丁目","koaza":"","lat":37.434003,"lng":138.870504,"zip":"9400829"},{"town":"長倉三丁目","koaza":"","lat":37.435306,"lng":138.869871,"zip":"9400829"},{"town":"長倉四丁目","koaza":"","lat":37.437499,"lng":138.868618,"zip":"9400829"},{"town":"長倉西町","koaza":"","lat":37.434925,"lng":138.866418,"zip":"9400849"},{"town":"長倉町","koaza":"","lat":37.432077,"lng":138.874183,"zip":"9400826"},{"town":"長倉南町","koaza":"","lat":37.432851,"lng":138.868344,"zip":"9400848"},{"town":"中興野","koaza":"","lat":37.521576,"lng":138.879246,"zip":"9540131"},{"town":"仲子町","koaza":"","lat":37.474372,"lng":138.998837,"zip":"9400225"},{"town":"中西","koaza":"","lat":37.581121,"lng":138.872938,"zip":"9540204"},{"town":"中沢一丁目","koaza":"","lat":37.438535,"lng":138.878698,"zip":"9400853"},{"town":"中沢二丁目","koaza":"","lat":37.442018,"lng":138.877923,"zip":"9400853"},{"town":"中沢三丁目","koaza":"","lat":37.442324,"lng":138.874551,"zip":"9400853"},{"town":"中沢四丁目","koaza":"","lat":37.442051,"lng":138.871722,"zip":"9400853"},{"town":"中沢町","koaza":"","lat":37.446358,"lng":138.875964,"zip":"9400854"},{"town":"中島一丁目","koaza":"","lat":37.452872,"lng":138.838999,"zip":"9400094"},{"town":"中島二丁目","koaza":"","lat":37.452619,"lng":138.841174,"zip":"9400094"},{"town":"中島三丁目","koaza":"","lat":37.452669,"lng":138.843223,"zip":"9400094"},{"town":"中島四丁目","koaza":"","lat":37.453291,"lng":138.84596,"zip":"9400094"},{"town":"中島五丁目","koaza":"","lat":37.454396,"lng":138.848546,"zip":"9400094"},{"town":"中島六丁目","koaza":"","lat":37.455799,"lng":138.850022,"zip":"9400094"},{"town":"中島七丁目","koaza":"","lat":37.459031,"lng":138.850395,"zip":"9400094"},{"town":"中瀬一丁目","koaza":"","lat":37.487156,"lng":138.857169,"zip":"9400017"},{"town":"中瀬二丁目","koaza":"","lat":37.48894,"lng":138.856617,"zip":"9400017"},{"town":"永田一丁目","koaza":"","lat":37.462554,"lng":138.871243,"zip":"9400874"},{"town":"永田二丁目","koaza":"","lat":37.464849,"lng":138.871149,"zip":"9400874"},{"town":"永田三丁目","koaza":"","lat":37.466228,"lng":138.872206,"zip":"9400874"},{"town":"永田四丁目","koaza":"","lat":37.464696,"lng":138.874079,"zip":"9400874"},{"town":"永田町","koaza":"","lat":37.468535,"lng":138.875995,"zip":"9400873"},{"town":"長町一丁目","koaza":"","lat":37.453382,"lng":138.854159,"zip":"9400053"},{"town":"長町二丁目","koaza":"","lat":37.456979,"lng":138.855592,"zip":"9400053"},{"town":"中貫町一丁目","koaza":"","lat":37.436663,"lng":138.88426,"zip":"9400852"},{"town":"中貫町二丁目","koaza":"","lat":37.438074,"lng":138.882613,"zip":"9400852"},{"town":"中貫町三丁目","koaza":"","lat":37.439322,"lng":138.881301,"zip":"9400852"},{"town":"中之島","koaza":"","lat":37.537218,"lng":138.87451,"zip":"9540124"},{"town":"中之島高畑","koaza":"","lat":37.539091,"lng":138.862667,"zip":"9540152"},{"town":"中之島中条","koaza":"","lat":37.572444,"lng":138.839099,"zip":"9540216"},{"town":"中之島宮内","koaza":"","lat":37.549152,"lng":138.836905,"zip":"9540157"},{"town":"中野中","koaza":"","lat":37.556956,"lng":138.853398,"zip":"9540174"},{"town":"中野西","koaza":"","lat":37.556765,"lng":138.848131,"zip":"9540175"},{"town":"中野東","koaza":"","lat":37.552003,"lng":138.855872,"zip":"9540173"},{"town":"長峰町","koaza":"","lat":37.435652,"lng":138.783725,"zip":"9402142"},{"town":"長呂","koaza":"","lat":37.540613,"lng":138.837898,"zip":"9540156"},{"town":"七日市","koaza":"","lat":37.481595,"lng":138.778841,"zip":"9402315"},{"town":"並木新田","koaza":"","lat":37.548401,"lng":138.83096,"zip":"9540163"},{"town":"成沢町","koaza":"","lat":37.51726,"lng":138.822954,"zip":"9402465"},{"town":"南陽一丁目","koaza":"","lat":37.412938,"lng":138.825622,"zip":"9401164"},{"town":"南陽二丁目","koaza":"","lat":37.417896,"lng":138.82772,"zip":"9401164"},{"town":"新保一丁目","koaza":"","lat":37.463102,"lng":138.868058,"zip":"9400875"},{"town":"新保三丁目","koaza":"","lat":37.466269,"lng":138.864485,"zip":"9400875"},{"town":"新保四丁目","koaza":"","lat":37.46572,"lng":138.868561,"zip":"9400875"},{"town":"新保五丁目","koaza":"","lat":37.467753,"lng":138.865418,"zip":"9400875"},{"town":"新保六丁目","koaza":"","lat":37.468151,"lng":138.868913,"zip":"9400875"},{"town":"新保町","koaza":"","lat":37.47271,"lng":138.868157,"zip":"9400876"},{"town":"濁沢町","koaza":"","lat":37.364216,"lng":138.875452,"zip":"9401121"},{"town":"西新町一丁目","koaza":"","lat":37.462099,"lng":138.855178,"zip":"9400024"},{"town":"西新町二丁目","koaza":"","lat":37.465155,"lng":138.856034,"zip":"9400024"},{"town":"西片貝町","koaza":"","lat":37.428347,"lng":138.905778,"zip":"9400817"},{"town":"西川口","koaza":"","lat":37.26334,"lng":138.852872,"zip":"9497513"},{"town":"西神田町","koaza":"","lat":37.460232,"lng":138.853498,"zip":"9400051"},{"town":"西神田町一丁目","koaza":"","lat":37.456756,"lng":138.852921,"zip":"9400051"},{"town":"西神田町二丁目","koaza":"","lat":37.459156,"lng":138.853317,"zip":"9400051"},{"town":"錦一丁目","koaza":"","lat":37.429654,"lng":138.857402,"zip":"9400835"},{"town":"錦二丁目","koaza":"","lat":37.430847,"lng":138.85746,"zip":"9400835"},{"town":"錦三丁目","koaza":"","lat":37.432356,"lng":138.857792,"zip":"9400835"},{"town":"西蔵王一丁目","koaza":"","lat":37.463522,"lng":138.850402,"zip":"9400027"},{"town":"西蔵王二丁目","koaza":"","lat":37.465066,"lng":138.850073,"zip":"9400027"},{"town":"西蔵王三丁目","koaza":"","lat":37.467264,"lng":138.849808,"zip":"9400027"},{"town":"西千手一丁目","koaza":"","lat":37.440791,"lng":138.841044,"zip":"9400086"},{"town":"西千手二丁目","koaza":"","lat":37.44226,"lng":138.841601,"zip":"9400086"},{"town":"西千手三丁目","koaza":"","lat":37.44394,"lng":138.842344,"zip":"9400086"},{"town":"西高山新田","koaza":"","lat":37.573719,"lng":138.873822,"zip":"9540205"},{"town":"西谷","koaza":"","lat":37.361735,"lng":138.720893,"zip":"9495121"},{"town":"西津町","koaza":"","lat":37.430226,"lng":138.799754,"zip":"9402126"},{"town":"西中野俣","koaza":"","lat":37.394432,"lng":138.978929,"zip":"9400256"},{"town":"西野","koaza":"","lat":37.42076,"lng":138.804487,"zip":"9495409"},{"town":"西野俣","koaza":"","lat":37.426081,"lng":138.976425,"zip":"9400252"},{"town":"西宮内一丁目","koaza":"","lat":37.425763,"lng":138.834705,"zip":"9401162"},{"town":"西宮内二丁目","koaza":"","lat":37.428664,"lng":138.837793,"zip":"9401162"},{"town":"日赤町一丁目","koaza":"","lat":37.450042,"lng":138.842175,"zip":"9400095"},{"town":"日赤町二丁目","koaza":"","lat":37.449498,"lng":138.840107,"zip":"9400095"},{"town":"日赤町三丁目","koaza":"","lat":37.449337,"lng":138.838708,"zip":"9400095"},{"town":"楡原","koaza":"","lat":37.495053,"lng":138.992436,"zip":"9400203"},{"town":"猫興野","koaza":"","lat":37.551413,"lng":138.875218,"zip":"9540123"},{"town":"根小屋","koaza":"","lat":37.569424,"lng":138.79524,"zip":"9494505"},{"town":"野口","koaza":"","lat":37.561089,"lng":138.872975,"zip":"9540121"},{"town":"灰島新田","koaza":"","lat":37.528662,"lng":138.871884,"zip":"9540142"},{"town":"蓮潟一丁目","koaza":"","lat":37.464285,"lng":138.821931,"zip":"9402023"},{"town":"蓮潟二丁目","koaza":"","lat":37.467762,"lng":138.8225,"zip":"9402023"},{"town":"蓮潟三丁目","koaza":"","lat":37.470261,"lng":138.825935,"zip":"9402023"},{"town":"蓮潟四丁目","koaza":"","lat":37.467672,"lng":138.826352,"zip":"9402023"},{"town":"蓮潟五丁目","koaza":"","lat":37.46555,"lng":138.825492,"zip":"9402023"},{"town":"蓮潟町","koaza":"","lat":37.475137,"lng":138.823339,"zip":"9400000"},{"town":"鉢伏町","koaza":"","lat":37.427096,"lng":138.868275,"zip":"9400842"},{"town":"花井町","koaza":"","lat":37.507031,"lng":138.819808,"zip":"9402475"},{"town":"花園一丁目","koaza":"","lat":37.432587,"lng":138.860266,"zip":"9400845"},{"town":"花園二丁目","koaza":"","lat":37.434057,"lng":138.860421,"zip":"9400845"},{"town":"花園三丁目","koaza":"","lat":37.435138,"lng":138.861611,"zip":"9400845"},{"town":"花園東一丁目","koaza":"","lat":37.432916,"lng":138.864282,"zip":"9400846"},{"town":"花園東二丁目","koaza":"","lat":37.434419,"lng":138.864415,"zip":"9400846"},{"town":"原町一丁目","koaza":"","lat":37.481195,"lng":138.860136,"zip":"9400013"},{"town":"原町二丁目","koaza":"","lat":37.485074,"lng":138.860957,"zip":"9400013"},{"town":"半蔵金","koaza":"","lat":37.386893,"lng":138.945476,"zip":"9400258"},{"town":"東新町","koaza":"","lat":37.458333,"lng":138.857764,"zip":"9400022"},{"town":"東新町一丁目","koaza":"","lat":37.459924,"lng":138.857654,"zip":"9400022"},{"town":"東新町二丁目","koaza":"","lat":37.461536,"lng":138.858313,"zip":"9400022"},{"town":"東新町三丁目","koaza":"","lat":37.463547,"lng":138.85915,"zip":"9400022"},{"town":"東が丘","koaza":"","lat":37.472103,"lng":139.008008,"zip":"9400136"},{"town":"東片貝町","koaza":"","lat":37.44019,"lng":138.894916,"zip":"9400816"},{"town":"東川口","koaza":"","lat":37.27686,"lng":138.850775,"zip":"9497504"},{"town":"東神田一丁目","koaza":"","lat":37.455142,"lng":138.861773,"zip":"9400035"},{"town":"東神田二丁目","koaza":"","lat":37.454607,"lng":138.860164,"zip":"9400035"},{"town":"東神田三丁目","koaza":"","lat":37.455694,"lng":138.858529,"zip":"9400035"},{"town":"東蔵王一丁目","koaza":"","lat":37.46801,"lng":138.856462,"zip":"9400029"},{"town":"東蔵王二丁目","koaza":"","lat":37.472103,"lng":138.857556,"zip":"9400029"},{"town":"東蔵王三丁目","koaza":"","lat":37.475821,"lng":138.857336,"zip":"9400029"},{"town":"東坂之上町一丁目","koaza":"","lat":37.446443,"lng":138.849773,"zip":"9400066"},{"town":"東坂之上町二丁目","koaza":"","lat":37.448831,"lng":138.850875,"zip":"9400066"},{"town":"東坂之上町三丁目","koaza":"","lat":37.450495,"lng":138.851842,"zip":"9400066"},{"town":"東高見一丁目","koaza":"","lat":37.502233,"lng":138.865795,"zip":"9400006"},{"town":"東高見二丁目","koaza":"","lat":37.507729,"lng":138.864197,"zip":"9400006"},{"town":"東谷","koaza":"","lat":37.348688,"lng":138.749156,"zip":"9495122"},{"town":"東中野俣","koaza":"","lat":37.394013,"lng":138.99743,"zip":"9400255"},{"town":"東宮内町","koaza":"","lat":37.423378,"lng":138.845635,"zip":"9401102"},{"town":"人面","koaza":"","lat":37.518633,"lng":139.013867,"zip":"9400102"},{"town":"日野浦","koaza":"","lat":37.545032,"lng":138.760183,"zip":"9494514"},{"town":"百束町","koaza":"","lat":37.497931,"lng":138.898231,"zip":"9400892"},{"town":"平中野俣","koaza":"","lat":37.501714,"lng":139.091749,"zip":"9400124"},{"town":"比礼","koaza":"","lat":37.453246,"lng":138.946711,"zip":"9400244"},{"town":"深沢町","koaza":"","lat":37.41271,"lng":138.775692,"zip":"9402135"},{"town":"吹谷","koaza":"","lat":37.429641,"lng":138.992506,"zip":"9400151"},{"town":"福井町","koaza":"","lat":37.497977,"lng":138.89059,"zip":"9400893"},{"town":"福住一丁目","koaza":"","lat":37.449507,"lng":138.856264,"zip":"9400034"},{"town":"福住二丁目","koaza":"","lat":37.4514,"lng":138.856926,"zip":"9400034"},{"town":"福住三丁目","koaza":"","lat":37.453151,"lng":138.857518,"zip":"9400034"},{"town":"福戸町","koaza":"","lat":37.482187,"lng":138.811631,"zip":"9402052"},{"town":"福原","koaza":"","lat":37.559057,"lng":138.837747,"zip":"9540165"},{"town":"福道町","koaza":"","lat":37.476021,"lng":138.811687,"zip":"9402053"},{"town":"袋町一丁目","koaza":"","lat":37.451431,"lng":138.854919,"zip":"9400055"},{"town":"袋町二丁目","koaza":"","lat":37.452317,"lng":138.855177,"zip":"9400055"},{"town":"袋町三丁目","koaza":"","lat":37.453443,"lng":138.855683,"zip":"9400055"},{"town":"藤川","koaza":"","lat":37.510533,"lng":138.793595,"zip":"9402302"},{"town":"藤沢一丁目","koaza":"","lat":37.474682,"lng":138.84014,"zip":"9402011"},{"town":"藤沢二丁目","koaza":"","lat":37.476544,"lng":138.84155,"zip":"9402011"},{"town":"藤沢町","koaza":"","lat":37.474368,"lng":138.844322,"zip":"9400000"},{"town":"藤橋一丁目","koaza":"","lat":37.430465,"lng":138.78566,"zip":"9402141"},{"town":"藤橋二丁目","koaza":"","lat":37.436314,"lng":138.785838,"zip":"9402141"},{"town":"二ツ郷屋","koaza":"","lat":37.503928,"lng":139.017181,"zip":"9400103"},{"town":"二日町","koaza":"","lat":37.511411,"lng":139.039962,"zip":"9400112"},{"town":"不動沢","koaza":"","lat":37.365822,"lng":138.746547,"zip":"9495416"},{"town":"船江町","koaza":"","lat":37.448507,"lng":138.844563,"zip":"9400073"},{"town":"文納","koaza":"","lat":37.517217,"lng":139.00187,"zip":"9400101"},{"town":"平島一丁目","koaza":"","lat":37.419257,"lng":138.832416,"zip":"9401163"},{"town":"平島二丁目","koaza":"","lat":37.422222,"lng":138.828257,"zip":"9401163"},{"town":"平島三丁目","koaza":"","lat":37.422803,"lng":138.832038,"zip":"9401163"},{"town":"平島町","koaza":"","lat":37.418841,"lng":138.834145,"zip":"9401163"},{"town":"宝地町","koaza":"","lat":37.454163,"lng":138.79873,"zip":"9402031"},{"town":"北陽一丁目","koaza":"","lat":37.487987,"lng":138.87492,"zip":"9400871"},{"town":"北陽二丁目","koaza":"","lat":37.486036,"lng":138.872289,"zip":"9400871"},{"town":"干場一丁目","koaza":"","lat":37.452349,"lng":138.862049,"zip":"9400032"},{"town":"干場二丁目","koaza":"","lat":37.452942,"lng":138.859944,"zip":"9400032"},{"town":"堀金一丁目","koaza":"","lat":37.458633,"lng":138.872575,"zip":"9400868"},{"town":"堀金二丁目","koaza":"","lat":37.460284,"lng":138.873776,"zip":"9400868"},{"town":"堀金三丁目","koaza":"","lat":37.462261,"lng":138.873912,"zip":"9400868"},{"town":"堀金町","koaza":"","lat":37.460188,"lng":138.87774,"zip":"9400000"},{"town":"本所","koaza":"","lat":37.465829,"lng":139.064341,"zip":"9400142"},{"town":"本町一丁目","koaza":"","lat":37.448184,"lng":138.845895,"zip":"9400076"},{"town":"本町二丁目","koaza":"","lat":37.450152,"lng":138.846754,"zip":"9400076"},{"town":"本町三丁目","koaza":"","lat":37.452032,"lng":138.847176,"zip":"9400076"},{"town":"本津川","koaza":"","lat":37.461102,"lng":138.965091,"zip":"9400245"},{"town":"品之木","koaza":"","lat":37.528846,"lng":138.852078,"zip":"9540147"},{"town":"前島町","koaza":"","lat":37.409098,"lng":138.820265,"zip":"9401147"},{"town":"前田一丁目","koaza":"","lat":37.43649,"lng":138.862184,"zip":"9400042"},{"town":"前田二丁目","koaza":"","lat":37.437254,"lng":138.863542,"zip":"9400042"},{"town":"前田三丁目","koaza":"","lat":37.437924,"lng":138.861834,"zip":"9400042"},{"town":"曲新町","koaza":"","lat":37.417325,"lng":138.850361,"zip":"9401103"},{"town":"曲新町一丁目","koaza":"","lat":37.416265,"lng":138.844734,"zip":"9401103"},{"town":"曲新町二丁目","koaza":"","lat":37.418569,"lng":138.844131,"zip":"9401103"},{"town":"曲新町三丁目","koaza":"","lat":37.42073,"lng":138.84429,"zip":"9401103"},{"town":"槇下町","koaza":"","lat":37.4875,"lng":138.844793,"zip":"9402001"},{"town":"巻島一丁目","koaza":"","lat":37.479083,"lng":138.833766,"zip":"9402005"},{"town":"巻島二丁目","koaza":"","lat":37.48178,"lng":138.834269,"zip":"9402005"},{"town":"巻島町","koaza":"","lat":37.481307,"lng":138.829669,"zip":"9400000"},{"town":"巻渕","koaza":"","lat":37.490821,"lng":139.006772,"zip":"9400133"},{"town":"巻渕一丁目","koaza":"","lat":37.485093,"lng":139.003537,"zip":"9400133"},{"town":"巻渕二丁目","koaza":"","lat":37.48373,"lng":139.006876,"zip":"9400133"},{"town":"巻渕三丁目","koaza":"","lat":37.485863,"lng":139.006216,"zip":"9400133"},{"town":"巻渕四丁目","koaza":"","lat":37.487995,"lng":139.00298,"zip":"9400133"},{"town":"槇山町","koaza":"","lat":37.48601,"lng":138.835629,"zip":"9402002"},{"town":"町田町","koaza":"","lat":37.415747,"lng":138.859326,"zip":"9401111"},{"town":"松尾","koaza":"","lat":37.40641,"lng":139.020032,"zip":"9400154"},{"town":"松ケ崎新田","koaza":"","lat":37.570214,"lng":138.836779,"zip":"9540217"},{"town":"松葉一丁目","koaza":"","lat":37.461621,"lng":138.848865,"zip":"9400091"},{"town":"松葉二丁目","koaza":"","lat":37.463727,"lng":138.848011,"zip":"9400091"},{"town":"末宝","koaza":"","lat":37.558137,"lng":138.835934,"zip":"9540164"},{"town":"真野代新田","koaza":"","lat":37.592271,"lng":138.836728,"zip":"9540215"},{"town":"真弓","koaza":"","lat":37.557047,"lng":138.873783,"zip":"9540122"},{"town":"美沢一丁目","koaza":"","lat":37.437938,"lng":138.866487,"zip":"9400856"},{"town":"美沢二丁目","koaza":"","lat":37.439965,"lng":138.866367,"zip":"9400856"},{"town":"美沢三丁目","koaza":"","lat":37.443146,"lng":138.8694,"zip":"9400856"},{"town":"美沢四丁目","koaza":"","lat":37.442634,"lng":138.865591,"zip":"9400856"},{"town":"三島上条","koaza":"","lat":37.513459,"lng":138.764913,"zip":"9402323"},{"town":"三島新保","koaza":"","lat":37.491766,"lng":138.801048,"zip":"9402311"},{"town":"三島中条","koaza":"","lat":37.494398,"lng":138.793534,"zip":"9402312"},{"town":"水穴町","koaza":"","lat":37.47204,"lng":138.921916,"zip":"9400804"},{"town":"水沢","koaza":"","lat":37.506538,"lng":138.995067,"zip":"9400106"},{"town":"水梨町","koaza":"","lat":37.422441,"lng":138.82511,"zip":"9401165"},{"town":"美園一丁目","koaza":"","lat":37.46014,"lng":138.867813,"zip":"9400866"},{"town":"美園二丁目","koaza":"","lat":37.4613,"lng":138.86791,"zip":"9400866"},{"town":"三ツ郷屋一丁目","koaza":"","lat":37.444995,"lng":138.815847,"zip":"9402111"},{"town":"三ツ郷屋二丁目","koaza":"","lat":37.447627,"lng":138.81535,"zip":"9402111"},{"town":"三ツ郷屋町","koaza":"","lat":37.449838,"lng":138.815248,"zip":"9400000"},{"town":"緑町一丁目","koaza":"","lat":37.449736,"lng":138.824163,"zip":"9402105"},{"town":"緑町二丁目","koaza":"","lat":37.449468,"lng":138.819865,"zip":"9402105"},{"town":"緑町三丁目","koaza":"","lat":37.451454,"lng":138.819524,"zip":"9402105"},{"town":"南新保町","koaza":"","lat":37.471408,"lng":138.806474,"zip":"9402054"},{"town":"南七日町","koaza":"","lat":37.443852,"lng":138.797532,"zip":"9402116"},{"town":"南町一丁目","koaza":"","lat":37.441811,"lng":138.850253,"zip":"9400081"},{"town":"南町二丁目","koaza":"","lat":37.441619,"lng":138.84862,"zip":"9400081"},{"town":"南町三丁目","koaza":"","lat":37.441271,"lng":138.847311,"zip":"9400081"},{"town":"宮内一丁目","koaza":"","lat":37.418234,"lng":138.840027,"zip":"9401106"},{"town":"宮内二丁目","koaza":"","lat":37.4202,"lng":138.840415,"zip":"9401106"},{"town":"宮内三丁目","koaza":"","lat":37.422092,"lng":138.842528,"zip":"9401106"},{"town":"宮内四丁目","koaza":"","lat":37.424094,"lng":138.842983,"zip":"9401106"},{"town":"宮内五丁目","koaza":"","lat":37.426787,"lng":138.842161,"zip":"9401106"},{"town":"宮内六丁目","koaza":"","lat":37.429104,"lng":138.843319,"zip":"9401106"},{"town":"宮内七丁目","koaza":"","lat":37.430686,"lng":138.844051,"zip":"9401106"},{"town":"宮内八丁目","koaza":"","lat":37.432526,"lng":138.845474,"zip":"9401106"},{"town":"宮内町","koaza":"","lat":37.423179,"lng":138.848897,"zip":"9401155"},{"town":"宮栄一丁目","koaza":"","lat":37.419542,"lng":138.836141,"zip":"9401154"},{"town":"宮栄二丁目","koaza":"","lat":37.421472,"lng":138.83773,"zip":"9401154"},{"town":"宮栄三丁目","koaza":"","lat":37.424325,"lng":138.840065,"zip":"9401154"},{"town":"宮沢","koaza":"","lat":37.511514,"lng":138.781632,"zip":"9402301"},{"town":"宮下町","koaza":"","lat":37.466762,"lng":138.891982,"zip":"9400882"},{"town":"宮路町","koaza":"","lat":37.45438,"lng":138.916738,"zip":"9400811"},{"town":"宮関一丁目","koaza":"","lat":37.468683,"lng":138.83022,"zip":"9402021"},{"town":"宮関二丁目","koaza":"","lat":37.46978,"lng":138.832382,"zip":"9402021"},{"town":"宮関三丁目","koaza":"","lat":37.470927,"lng":138.831345,"zip":"9402021"},{"town":"宮関四丁目","koaza":"","lat":37.474224,"lng":138.830729,"zip":"9402021"},{"town":"宮関町","koaza":"","lat":37.467203,"lng":138.836847,"zip":"9400000"},{"town":"宮原一丁目","koaza":"","lat":37.434217,"lng":138.843625,"zip":"9400083"},{"town":"宮原二丁目","koaza":"","lat":37.436215,"lng":138.843936,"zip":"9400083"},{"town":"宮原三丁目","koaza":"","lat":37.437868,"lng":138.843967,"zip":"9400083"},{"town":"宮本東方町","koaza":"","lat":37.441939,"lng":138.737671,"zip":"9402043"},{"town":"宮本堀之内町","koaza":"","lat":37.45135,"lng":138.730727,"zip":"9402044"},{"town":"宮本町一丁目","koaza":"","lat":37.451888,"lng":138.750774,"zip":"9402042"},{"town":"宮本町二丁目","koaza":"","lat":37.459084,"lng":138.727424,"zip":"9402042"},{"town":"宮本町三丁目","koaza":"","lat":37.468304,"lng":138.723095,"zip":"9402042"},{"town":"宮本町四丁目","koaza":"","lat":37.456861,"lng":138.758492,"zip":"9402042"},{"town":"妙見町","koaza":"","lat":37.34416,"lng":138.839172,"zip":"9401134"},{"town":"六日市町","koaza":"","lat":37.355418,"lng":138.846342,"zip":"9401133"},{"town":"葎谷","koaza":"","lat":37.48777,"lng":139.084115,"zip":"9400125"},{"town":"村松町","koaza":"","lat":37.383561,"lng":138.868563,"zip":"9401115"},{"town":"森上","koaza":"","lat":37.399946,"lng":138.964116,"zip":"9400257"},{"town":"谷内一丁目","koaza":"","lat":37.475134,"lng":138.994911,"zip":"9400227"},{"town":"谷内二丁目","koaza":"","lat":37.473835,"lng":138.99475,"zip":"9400227"},{"town":"柳原町","koaza":"","lat":37.446971,"lng":138.84373,"zip":"9400072"},{"town":"山口","koaza":"","lat":37.500299,"lng":139.02705,"zip":"9400114"},{"town":"山古志竹沢","koaza":"","lat":37.324603,"lng":138.882784,"zip":"9470204"},{"town":"山古志種苧原","koaza":"","lat":37.355752,"lng":138.93428,"zip":"9470201"},{"town":"山古志南平","koaza":"","lat":37.32963,"lng":138.917285,"zip":"9470202"},{"town":"山古志東竹沢","koaza":"","lat":37.311036,"lng":138.914127,"zip":"9470203"},{"town":"山古志虫亀","koaza":"","lat":37.342412,"lng":138.89176,"zip":"9470205"},{"town":"山田一丁目","koaza":"","lat":37.445126,"lng":138.840419,"zip":"9400097"},{"town":"山田二丁目","koaza":"","lat":37.445762,"lng":138.839336,"zip":"9400097"},{"town":"山田三丁目","koaza":"","lat":37.447087,"lng":138.840477,"zip":"9400097"},{"town":"山屋","koaza":"","lat":37.498146,"lng":139.007507,"zip":"9400104"},{"town":"悠久町","koaza":"","lat":37.4328,"lng":138.881791,"zip":"9400827"},{"town":"悠久町一丁目","koaza":"","lat":37.432844,"lng":138.885376,"zip":"9400827"},{"town":"悠久町二丁目","koaza":"","lat":37.435669,"lng":138.88246,"zip":"9400827"},{"town":"悠久町三丁目","koaza":"","lat":37.436405,"lng":138.879206,"zip":"9400827"},{"town":"悠久町四丁目","koaza":"","lat":37.433953,"lng":138.876638,"zip":"9400827"},{"town":"豊一丁目","koaza":"","lat":37.458907,"lng":138.869964,"zip":"9400836"},{"town":"豊二丁目","koaza":"","lat":37.460893,"lng":138.870657,"zip":"9400836"},{"town":"弓町一丁目","koaza":"","lat":37.441509,"lng":138.853265,"zip":"9400047"},{"town":"弓町二丁目","koaza":"","lat":37.443021,"lng":138.853865,"zip":"9400047"},{"town":"与板町岩方","koaza":"","lat":37.573735,"lng":138.818578,"zip":"9402405"},{"town":"与板町江西二丁目","koaza":"","lat":37.534074,"lng":138.817789,"zip":"9402406"},{"town":"与板町江西三丁目","koaza":"","lat":37.534213,"lng":138.81555,"zip":"9402406"},{"town":"与板町江西四丁目","koaza":"","lat":37.533783,"lng":138.814928,"zip":"9402406"},{"town":"与板町城山一丁目","koaza":"","lat":37.533087,"lng":138.805569,"zip":"9402407"},{"town":"与板町蔦都","koaza":"","lat":37.528531,"lng":138.828264,"zip":"9402411"},{"town":"与板町中田","koaza":"","lat":37.517466,"lng":138.804419,"zip":"9402414"},{"town":"与板町東与板","koaza":"","lat":37.543854,"lng":138.820448,"zip":"9402401"},{"town":"与板町広野","koaza":"","lat":37.517447,"lng":138.817383,"zip":"9402412"},{"town":"与板町槙原","koaza":"","lat":37.521922,"lng":138.791181,"zip":"9400000"},{"town":"与板町馬越","koaza":"","lat":37.567027,"lng":138.811915,"zip":"9402404"},{"town":"与板町南中","koaza":"","lat":37.522378,"lng":138.807583,"zip":"9402415"},{"town":"与板町本与板","koaza":"","lat":37.553544,"lng":138.807043,"zip":"9402403"},{"town":"与板町山沢","koaza":"","lat":37.527662,"lng":138.80195,"zip":"9402417"},{"town":"与板町与板","koaza":"","lat":37.538901,"lng":138.80146,"zip":"9402402"},{"town":"与板町吉津","koaza":"","lat":37.523867,"lng":138.817156,"zip":"9402413"},{"town":"陽光台一丁目","koaza":"","lat":37.437492,"lng":138.747273,"zip":"9402148"},{"town":"陽光台二丁目","koaza":"","lat":37.439037,"lng":138.745812,"zip":"9402148"},{"town":"陽光台三丁目","koaza":"","lat":37.435838,"lng":138.744177,"zip":"9402148"},{"town":"陽光台四丁目","koaza":"","lat":37.433708,"lng":138.742665,"zip":"9402148"},{"town":"陽光台五丁目","koaza":"","lat":37.434467,"lng":138.748462,"zip":"9402148"},{"town":"横枕町","koaza":"","lat":37.404782,"lng":138.853688,"zip":"9401117"},{"town":"横山","koaza":"","lat":37.539088,"lng":138.855777,"zip":"9540153"},{"town":"吉崎","koaza":"","lat":37.496672,"lng":138.783232,"zip":"9402313"},{"town":"吉水","koaza":"","lat":37.489433,"lng":139.011442,"zip":"9400131"},{"town":"四ツ屋町","koaza":"","lat":37.503529,"lng":138.905492,"zip":"9400891"},{"town":"蓬平町","koaza":"","lat":37.364312,"lng":138.899073,"zip":"9401122"},{"town":"来迎寺","koaza":"","lat":37.3903,"lng":138.77974,"zip":"9495411"},{"town":"来伝","koaza":"","lat":37.415636,"lng":139.023402,"zip":"9400152"},{"town":"蓮花寺","koaza":"","lat":37.497784,"lng":138.758514,"zip":"9402325"},{"town":"六所","koaza":"","lat":37.566538,"lng":138.870898,"zip":"9540206"},{"town":"若草町一丁目","koaza":"","lat":37.437003,"lng":138.885645,"zip":"9400851"},{"town":"若草町二丁目","koaza":"","lat":37.439134,"lng":138.883541,"zip":"9400851"},{"town":"若草町三丁目","koaza":"","lat":37.440759,"lng":138.881468,"zip":"9400851"},{"town":"若野浦","koaza":"","lat":37.552163,"lng":138.783247,"zip":"9494512"},{"town":"脇川新田町","koaza":"","lat":37.534286,"lng":138.844309,"zip":"9540181"},{"town":"脇野町","koaza":"","lat":37.502589,"lng":138.789884,"zip":"9402306"},{"town":"山葵谷","koaza":"","lat":37.479928,"lng":139.071345,"zip":"9400126"},{"town":"和島北野","koaza":"","lat":37.580243,"lng":138.783644,"zip":"9494503"},{"town":"和島高畑","koaza":"","lat":37.547841,"lng":138.74687,"zip":"9494515"},{"town":"和島中沢","koaza":"","lat":37.56025,"lng":138.757367,"zip":"9494516"},{"town":"渡沢町","koaza":"","lat":37.365974,"lng":138.854777,"zip":"9401132"},{"town":"渡場町","koaza":"","lat":37.479414,"lng":138.843908,"zip":"9402003"},{"town":"渡里町","koaza":"","lat":37.450776,"lng":138.844989,"zip":"9400075"},{"town":"両高","koaza":"","lat":37.579619,"lng":138.743082,"zip":"9494524"},{"town":"城之丘","koaza":"","lat":37.57284,"lng":138.733056,"zip":"9494523"},{"town":"村田","koaza":"","lat":37.567308,"lng":138.734586,"zip":"9494522"},{"town":"東保内","koaza":"","lat":37.570185,"lng":138.7488,"zip":"9494521"},{"town":"梅田","koaza":"","lat":37.568739,"lng":138.756929,"zip":"9494517"},{"town":"稲葉町","koaza":"","lat":37.476711,"lng":138.874113,"zip":"9400872"},{"town":"稲保一丁目","koaza":"","lat":37.480531,"lng":138.875565,"zip":"9400877"},{"town":"稲保三丁目","koaza":"","lat":37.482655,"lng":138.87479,"zip":"9400877"},{"town":"稲保南一丁目","koaza":"","lat":37.477967,"lng":138.875953,"zip":"9400878"},{"town":"福島町","koaza":"","lat":37.483043,"lng":138.884968,"zip":"9400896"},{"town":"大曲戸新田","koaza":"","lat":37.517084,"lng":138.881432,"zip":"9540133"},{"town":"中条新田","koaza":"","lat":37.604862,"lng":138.845839,"zip":"9540214"},{"town":"信条東","koaza":"","lat":37.594925,"lng":138.855017,"zip":"9540221"},{"town":"中之島西野","koaza":"","lat":37.608843,"lng":138.867178,"zip":"9540212"},{"town":"信条西","koaza":"","lat":37.60968,"lng":138.85906,"zip":"9540222"},{"town":"下沼新田","koaza":"","lat":37.599684,"lng":138.863998,"zip":"9540213"},{"town":"三沼","koaza":"","lat":37.593197,"lng":138.867458,"zip":"9400000"},{"town":"小沼新田","koaza":"","lat":37.5967,"lng":138.870366,"zip":"9540203"},{"town":"喜多町","koaza":"","lat":37.451694,"lng":138.806831,"zip":"9402121"},{"town":"希望が丘三丁目","koaza":"","lat":37.446226,"lng":138.812432,"zip":"9402124"},{"town":"七日町","koaza":"","lat":37.444238,"lng":138.805611,"zip":"9402123"},{"town":"福山町","koaza":"","lat":37.447459,"lng":138.799218,"zip":"9402122"},{"town":"希望が丘二丁目","koaza":"","lat":37.44434,"lng":138.812488,"zip":"9402124"},{"town":"琴平三丁目","koaza":"","lat":37.463459,"lng":138.861117,"zip":"9400038"},{"town":"新保二丁目","koaza":"","lat":37.463447,"lng":138.864045,"zip":"9400875"},{"town":"川崎五丁目","koaza":"","lat":37.454935,"lng":138.86779,"zip":"9400864"},{"town":"川崎町","koaza":"","lat":37.453741,"lng":138.879816,"zip":"9400861"},{"town":"地蔵二丁目","koaza":"","lat":37.456858,"lng":138.864709,"zip":"9400031"},{"town":"東栄一丁目","koaza":"","lat":37.457855,"lng":138.863235,"zip":"9400037"},{"town":"愛宕一丁目","koaza":"","lat":37.456737,"lng":138.862312,"zip":"9400036"},{"town":"琴平一丁目","koaza":"","lat":37.459673,"lng":138.863586,"zip":"9400038"},{"town":"東栄三丁目","koaza":"","lat":37.460261,"lng":138.860201,"zip":"9400037"},{"town":"琴平二丁目","koaza":"","lat":37.460987,"lng":138.862429,"zip":"9400038"},{"town":"東栄二丁目","koaza":"","lat":37.458687,"lng":138.862087,"zip":"9400037"},{"town":"花園南一丁目","koaza":"","lat":37.429838,"lng":138.862733,"zip":"9400841"},{"town":"花園南二丁目","koaza":"","lat":37.431239,"lng":138.863577,"zip":"9400841"},{"town":"東大町","koaza":"","lat":37.427986,"lng":138.862289,"zip":"9400843"},{"town":"北富島","koaza":"","lat":37.477138,"lng":138.894208,"zip":"9400000"},{"town":"中条南","koaza":"","lat":37.5718,"lng":138.846183,"zip":"9400000"},{"town":"中野西部","koaza":"","lat":37.562871,"lng":138.837471,"zip":"9400000"},{"town":"中野北","koaza":"","lat":37.564786,"lng":138.852302,"zip":"9400000"},{"town":"中野南","koaza":"","lat":37.548591,"lng":138.852579,"zip":"9400000"},{"town":"中通西","koaza":"","lat":37.546015,"lng":138.841994,"zip":"9400000"},{"town":"旭岡一丁目","koaza":"","lat":37.42296,"lng":138.857075,"zip":"9400840"},{"town":"旭岡二丁目","koaza":"","lat":37.425604,"lng":138.8567,"zip":"9400840"},{"town":"北陽三丁目","koaza":"","lat":37.483537,"lng":138.870131,"zip":"9400871"},{"town":"亀ケ谷新田","koaza":"","lat":37.548035,"lng":138.865433,"zip":"9540177"},{"town":"中通東","koaza":"","lat":37.535764,"lng":138.857489,"zip":"9400000"},{"town":"中之島中央","koaza":"","lat":37.545045,"lng":138.866512,"zip":"9400000"},{"town":"南中之島","koaza":"","lat":37.533689,"lng":138.864884,"zip":"9400000"},{"town":"北中之島","koaza":"","lat":37.56276,"lng":138.865592,"zip":"9400000"},{"town":"喜多町","koaza":"鐙潟","lat":37.451968,"lng":138.801177,"zip":"9402121"},{"town":"古正寺町","koaza":"中割","lat":37.452712,"lng":138.816999,"zip":"9402103"},{"town":"与板町与板","koaza":"江西","lat":37.535976,"lng":138.817857,"zip":"9402402"},{"town":"下条町","koaza":"野々入","lat":37.408182,"lng":138.833607,"zip":"9401146"},{"town":"片田町","koaza":"西荒田","lat":37.39616,"lng":138.833843,"zip":"9401143"},{"town":"十日町","koaza":"野々入","lat":37.380753,"lng":138.833865,"zip":"9401131"},{"town":"高見町","koaza":"大潟","lat":37.510776,"lng":138.861647,"zip":"9400004"},{"town":"喜多町","koaza":"川原","lat":37.448617,"lng":138.805435,"zip":"9402121"},{"town":"西片貝町","koaza":"大木","lat":37.452924,"lng":138.887685,"zip":"9400817"},{"town":"川崎町","koaza":"野口","lat":37.456376,"lng":138.87478,"zip":"9400861"},{"town":"堺町","koaza":"浦田","lat":37.456625,"lng":138.809362,"zip":"9402024"},{"town":"三ツ郷屋町","koaza":"下川原","lat":37.450547,"lng":138.817171,"zip":"9400000"},{"town":"高見町","koaza":"東堤","lat":37.497867,"lng":138.86507,"zip":"9400004"},{"town":"川崎町","koaza":"山崎","lat":37.461678,"lng":138.865877,"zip":"9400861"},{"town":"喜多町","koaza":"下川原","lat":37.451321,"lng":138.807479,"zip":"9402121"}]