[{"town":"荒屋","koaza":"","lat":37.825658,"lng":139.229986,"zip":"9592061"},{"town":"安野町","koaza":"","lat":37.842668,"lng":139.221317,"zip":"9592003"},{"town":"飯森杉","koaza":"","lat":37.836977,"lng":139.189619,"zip":"9592122"},{"town":"泉","koaza":"","lat":37.848375,"lng":139.248232,"zip":"9591959"},{"town":"市野山","koaza":"","lat":37.822064,"lng":139.2245,"zip":"9592062"},{"town":"稲荷町","koaza":"","lat":37.830987,"lng":139.215639,"zip":"9592035"},{"town":"姥ヶ橋","koaza":"","lat":37.840421,"lng":139.183833,"zip":"9592000"},{"town":"大室","koaza":"","lat":37.80353,"lng":139.264231,"zip":"9591935"},{"town":"大野地","koaza":"","lat":37.825981,"lng":139.251976,"zip":"9592043"},{"town":"岡山町","koaza":"","lat":37.834601,"lng":139.224329,"zip":"9592025"},{"town":"沖","koaza":"","lat":37.861816,"lng":139.255209,"zip":"9591964"},{"town":"沖ノ館","koaza":"","lat":37.860429,"lng":139.236556,"zip":"9591977"},{"town":"小里","koaza":"","lat":37.839215,"lng":139.197114,"zip":"9592121"},{"town":"折居","koaza":"","lat":37.856151,"lng":139.318276,"zip":"9591921"},{"town":"女堂","koaza":"","lat":37.848487,"lng":139.30175,"zip":"9591914"},{"town":"籠田","koaza":"","lat":37.78256,"lng":139.261157,"zip":"9592202"},{"town":"嘉瀬島","koaza":"","lat":37.809748,"lng":139.172864,"zip":"9592148"},{"town":"学校町","koaza":"","lat":37.830555,"lng":139.224287,"zip":"9592032"},{"town":"勝屋","koaza":"","lat":37.833459,"lng":139.307384,"zip":"9591923"},{"town":"金沢","koaza":"","lat":37.819546,"lng":139.247878,"zip":"9592044"},{"town":"金田町","koaza":"","lat":37.829477,"lng":139.229661,"zip":"9592031"},{"town":"金渕","koaza":"","lat":37.855591,"lng":139.189094,"zip":"9592105"},{"town":"上飯塚","koaza":"","lat":37.869147,"lng":139.242853,"zip":"9591975"},{"town":"上蔵野","koaza":"","lat":37.870743,"lng":139.261572,"zip":"9591908"},{"town":"上黒瀬","koaza":"","lat":37.841683,"lng":139.169988,"zip":"9592116"},{"town":"上小中山","koaza":"","lat":37.81235,"lng":139.258892,"zip":"9591933"},{"town":"上坂町","koaza":"","lat":37.822912,"lng":139.274941,"zip":"9591942"},{"town":"上関口","koaza":"","lat":37.874103,"lng":139.258852,"zip":"9591962"},{"town":"上中","koaza":"","lat":37.821114,"lng":139.228456,"zip":"9592047"},{"town":"上中野目","koaza":"","lat":37.820833,"lng":139.214731,"zip":"9592048"},{"town":"上西野","koaza":"","lat":37.875004,"lng":139.263434,"zip":"9591904"},{"town":"上西山","koaza":"","lat":37.8589,"lng":139.30452,"zip":"9591921"},{"town":"上牧野","koaza":"","lat":37.870718,"lng":139.273362,"zip":"9592000"},{"town":"上山田","koaza":"","lat":37.813534,"lng":139.261859,"zip":"9591932"},{"town":"川岡","koaza":"","lat":37.853583,"lng":139.263179,"zip":"9591978"},{"town":"北園町","koaza":"","lat":37.845874,"lng":139.230613,"zip":"9592014"},{"town":"北本町","koaza":"","lat":37.84323,"lng":139.231287,"zip":"9592015"},{"town":"京ヶ島","koaza":"","lat":37.829339,"lng":139.182235,"zip":"9592000"},{"town":"京ヶ瀬工業団地","koaza":"","lat":37.816745,"lng":139.158656,"zip":"9592000"},{"town":"切梅新田","koaza":"","lat":37.803757,"lng":139.218168,"zip":"9592082"},{"town":"草水","koaza":"","lat":37.756526,"lng":139.275273,"zip":"9592214"},{"town":"久保","koaza":"","lat":37.763456,"lng":139.249565,"zip":"9592212"},{"town":"窪川原","koaza":"","lat":37.835679,"lng":139.170183,"zip":"9592126"},{"town":"熊堂","koaza":"","lat":37.868343,"lng":139.275505,"zip":"9591907"},{"town":"熊堂村新田","koaza":"","lat":37.885519,"lng":139.26111,"zip":"9592000"},{"town":"下条町","koaza":"","lat":37.835833,"lng":139.2195,"zip":"9592026"},{"town":"小河原","koaza":"","lat":37.817643,"lng":139.179308,"zip":"9592134"},{"town":"小栗山","koaza":"","lat":37.842344,"lng":139.284871,"zip":"9591916"},{"town":"小境","koaza":"","lat":37.812379,"lng":139.216576,"zip":"9592065"},{"town":"小島","koaza":"","lat":37.808549,"lng":139.186382,"zip":"9592146"},{"town":"越御堂","koaza":"","lat":37.804378,"lng":139.239157,"zip":"9592054"},{"town":"五分市","koaza":"","lat":37.807135,"lng":139.234983,"zip":"9592000"},{"town":"小松","koaza":"","lat":37.743737,"lng":139.27602,"zip":"9592213"},{"town":"五郎巻","koaza":"","lat":37.853448,"lng":139.200644,"zip":"9592102"},{"town":"境新","koaza":"","lat":37.808069,"lng":139.238564,"zip":"9592053"},{"town":"境新田","koaza":"","lat":37.829591,"lng":139.238917,"zip":"9592042"},{"town":"下里","koaza":"","lat":37.814077,"lng":139.167886,"zip":"9592135"},{"town":"笹岡","koaza":"","lat":37.836916,"lng":139.287094,"zip":"9591918"},{"town":"里","koaza":"","lat":37.786887,"lng":139.291509,"zip":"9592045"},{"town":"沢口","koaza":"","lat":37.85189,"lng":139.290646,"zip":"9591913"},{"town":"沢田","koaza":"","lat":37.770245,"lng":139.246518,"zip":"9592211"},{"town":"七石","koaza":"","lat":37.814068,"lng":139.238499,"zip":"9592051"},{"town":"島田","koaza":"","lat":37.857168,"lng":139.254108,"zip":"9591965"},{"town":"下一分","koaza":"","lat":37.857607,"lng":139.290644,"zip":"9591912"},{"town":"下黒瀬","koaza":"","lat":37.847138,"lng":139.1619,"zip":"9592117"},{"town":"下ノ橋","koaza":"","lat":37.833446,"lng":139.193669,"zip":"9592124"},{"town":"下福岡","koaza":"","lat":37.851246,"lng":139.250753,"zip":"9591951"},{"town":"下山屋","koaza":"","lat":37.849225,"lng":139.269505,"zip":"9591952"},{"town":"十二神","koaza":"","lat":37.801714,"lng":139.25423,"zip":"9591936"},{"town":"城","koaza":"","lat":37.846431,"lng":139.177295,"zip":"9592114"},{"town":"庄ケ宮","koaza":"","lat":37.822019,"lng":139.234173,"zip":"9592046"},{"town":"新保","koaza":"","lat":37.754892,"lng":139.231282,"zip":"9592217"},{"town":"水原","koaza":"","lat":37.85317,"lng":139.230421,"zip":"9592013"},{"town":"関屋","koaza":"","lat":37.824253,"lng":139.185455,"zip":"9592133"},{"town":"曽郷","koaza":"","lat":37.847932,"lng":139.188497,"zip":"9592112"},{"town":"滝沢","koaza":"","lat":37.866039,"lng":139.283897,"zip":"9591905"},{"town":"田中","koaza":"","lat":37.810786,"lng":139.239816,"zip":"9592052"},{"town":"田山","koaza":"","lat":37.84145,"lng":139.174698,"zip":"9592115"},{"town":"千原","koaza":"","lat":37.855132,"lng":139.244088,"zip":"9592011"},{"town":"中央町一丁目","koaza":"","lat":37.839004,"lng":139.228945,"zip":"9592021"},{"town":"中央町二丁目","koaza":"","lat":37.8389,"lng":139.22429,"zip":"9592021"},{"town":"塚田","koaza":"","lat":37.856691,"lng":139.262703,"zip":"9591966"},{"town":"月崎","koaza":"","lat":37.829729,"lng":139.203119,"zip":"9592131"},{"town":"天神堂","koaza":"","lat":37.849122,"lng":139.240152,"zip":"9592012"},{"town":"外城","koaza":"","lat":37.847795,"lng":139.233149,"zip":"9592022"},{"town":"外城町","koaza":"","lat":37.838513,"lng":139.233258,"zip":"9592022"},{"town":"土橋","koaza":"","lat":37.820993,"lng":139.218496,"zip":"9592063"},{"town":"長起","koaza":"","lat":37.863199,"lng":139.266741,"zip":"9591911"},{"town":"中島","koaza":"","lat":37.832185,"lng":139.236419,"zip":"9592024"},{"town":"中島町","koaza":"","lat":37.833898,"lng":139.230001,"zip":"9592024"},{"town":"中野","koaza":"","lat":37.811391,"lng":139.24259,"zip":"9592000"},{"town":"七浦","koaza":"","lat":37.816601,"lng":139.263754,"zip":"9591934"},{"town":"七島","koaza":"","lat":37.822623,"lng":139.202737,"zip":"9592141"},{"town":"新飯田","koaza":"","lat":37.814076,"lng":139.224147,"zip":"9592000"},{"town":"猫山","koaza":"","lat":37.844895,"lng":139.195826,"zip":"9592111"},{"town":"羽黒","koaza":"","lat":37.820592,"lng":139.28313,"zip":"9591941"},{"town":"羽多屋","koaza":"","lat":37.789518,"lng":139.26293,"zip":"9592201"},{"town":"日の出町","koaza":"","lat":37.835078,"lng":139.238246,"zip":"9592023"},{"town":"深堀","koaza":"","lat":37.849133,"lng":139.16895,"zip":"9592107"},{"town":"深町","koaza":"","lat":37.815695,"lng":139.242515,"zip":"9592049"},{"town":"福井","koaza":"","lat":37.79883,"lng":139.246321,"zip":"9591937"},{"town":"福田","koaza":"","lat":37.81662,"lng":139.218749,"zip":"9592064"},{"town":"福永","koaza":"","lat":37.775247,"lng":139.248855,"zip":"9592204"},{"town":"藤屋","koaza":"","lat":37.880521,"lng":139.263924,"zip":"9591903"},{"town":"船居","koaza":"","lat":37.866413,"lng":139.236616,"zip":"9591976"},{"town":"法柳","koaza":"","lat":37.857117,"lng":139.17544,"zip":"9592106"},{"town":"法柳新田","koaza":"","lat":37.859423,"lng":139.184188,"zip":"9592104"},{"town":"発久","koaza":"","lat":37.847241,"lng":139.25809,"zip":"9591953"},{"town":"堀越","koaza":"","lat":37.77639,"lng":139.303929,"zip":"9592055"},{"town":"本明","koaza":"","lat":37.857373,"lng":139.247761,"zip":"9591967"},{"town":"蒔田","koaza":"","lat":37.84263,"lng":139.256023,"zip":"9591954"},{"town":"前山","koaza":"","lat":37.822545,"lng":139.191045,"zip":"9592132"},{"town":"牧島","koaza":"","lat":37.811672,"lng":139.233325,"zip":"9592056"},{"town":"丸山","koaza":"","lat":37.776533,"lng":139.270191,"zip":"9592203"},{"town":"みそら野町","koaza":"","lat":37.842396,"lng":139.204139,"zip":"9592006"},{"town":"緑岡","koaza":"","lat":37.842769,"lng":139.189839,"zip":"9592113"},{"town":"緑町","koaza":"","lat":37.830797,"lng":139.218797,"zip":"9592034"},{"town":"南安野町","koaza":"","lat":37.836608,"lng":139.214387,"zip":"9592004"},{"town":"宮島","koaza":"","lat":37.819836,"lng":139.252679,"zip":"9591948"},{"town":"宮下","koaza":"","lat":37.820466,"lng":139.259258,"zip":"9591947"},{"town":"六日野","koaza":"","lat":37.826648,"lng":139.209268,"zip":"9592130"},{"town":"村岡","koaza":"","lat":37.863835,"lng":139.281193,"zip":"9591906"},{"town":"村杉","koaza":"","lat":37.799848,"lng":139.286097,"zip":"9591928"},{"town":"百津","koaza":"","lat":37.827364,"lng":139.212846,"zip":"9592037"},{"town":"百津町","koaza":"","lat":37.828809,"lng":139.220915,"zip":"9592033"},{"town":"保田","koaza":"","lat":37.772725,"lng":139.275809,"zip":"9592221"},{"town":"野地城","koaza":"","lat":37.816553,"lng":139.230357,"zip":"9592057"},{"town":"山岸新","koaza":"","lat":37.805485,"lng":139.243889,"zip":"9592000"},{"town":"山口町一丁目","koaza":"","lat":37.840399,"lng":139.21487,"zip":"9592005"},{"town":"山口町二丁目","koaza":"","lat":37.839914,"lng":139.20973,"zip":"9592005"},{"town":"山倉新田","koaza":"","lat":37.878578,"lng":139.25574,"zip":"9591972"},{"town":"湯沢","koaza":"","lat":37.844724,"lng":139.310002,"zip":"9591922"},{"town":"横山","koaza":"","lat":37.839383,"lng":139.240685,"zip":"9591957"},{"town":"六野瀬","koaza":"","lat":37.754609,"lng":139.250321,"zip":"9592215"},{"town":"若葉町","koaza":"","lat":37.833418,"lng":139.217418,"zip":"9592036"},{"town":"渡場","koaza":"","lat":37.747709,"lng":139.238851,"zip":"9592216"},{"town":"榎","koaza":"","lat":37.879055,"lng":139.24034,"zip":"9591974"},{"town":"飯田新田","koaza":"","lat":37.790872,"lng":139.17816,"zip":"9592000"},{"town":"七浦村新田","koaza":"","lat":37.81276,"lng":139.273115,"zip":"9592000"},{"town":"宮島村新田","koaza":"","lat":37.812911,"lng":139.271737,"zip":"9592000"},{"town":"宮下村新田","koaza":"","lat":37.812892,"lng":139.270314,"zip":"9592000"},{"town":"飯山秣","koaza":"","lat":37.88629,"lng":139.265335,"zip":"9592000"},{"town":"山倉村新田地先","koaza":"","lat":37.882605,"lng":139.257871,"zip":"9592000"},{"town":"島田新村新田","koaza":"","lat":37.883106,"lng":139.260632,"zip":"9592000"},{"town":"東沖村新田","koaza":"","lat":37.882675,"lng":139.2598,"zip":"9592000"},{"town":"本田","koaza":"","lat":37.891032,"lng":139.261959,"zip":"9592000"},{"town":"飯山","koaza":"","lat":37.887577,"lng":139.260997,"zip":"9591902"},{"town":"向中ノ通","koaza":"","lat":37.888222,"lng":139.262644,"zip":"9591910"},{"town":"中牧野新村新田","koaza":"","lat":37.883488,"lng":139.26968,"zip":"9592000"},{"town":"中ノ通","koaza":"","lat":37.886891,"lng":139.26639,"zip":"9591901"},{"town":"上高関","koaza":"","lat":37.871363,"lng":139.268328,"zip":"9591909"},{"town":"飯山新","koaza":"","lat":37.880826,"lng":139.268972,"zip":"9591902"},{"town":"荻島","koaza":"","lat":37.860017,"lng":139.24342,"zip":"9591975"},{"town":"榎船渡","koaza":"","lat":37.868243,"lng":139.246781,"zip":"9591968"},{"town":"山倉","koaza":"","lat":37.874597,"lng":139.253552,"zip":"9591961"},{"town":"上高田","koaza":"","lat":37.873286,"lng":139.250744,"zip":"9591973"},{"town":"南沖山","koaza":"","lat":37.86645,"lng":139.255878,"zip":"9591963"},{"town":"高田村ノ内","koaza":"","lat":37.876313,"lng":139.237647,"zip":"9592000"},{"town":"小浮","koaza":"","lat":37.774046,"lng":139.208167,"zip":"9592222"},{"town":"大和","koaza":"","lat":37.781303,"lng":139.198649,"zip":"9592227"},{"town":"千唐仁","koaza":"","lat":37.780619,"lng":139.19313,"zip":"9592224"},{"town":"布目","koaza":"","lat":37.782904,"lng":139.198032,"zip":"9592223"},{"town":"山口村新田","koaza":"","lat":37.860304,"lng":139.219959,"zip":"9592000"},{"town":"下条","koaza":"","lat":37.854716,"lng":139.221486,"zip":"9592002"},{"town":"駒林","koaza":"","lat":37.85543,"lng":139.214375,"zip":"9592101"},{"town":"山口","koaza":"","lat":37.847194,"lng":139.213835,"zip":"9592007"},{"town":"西岡","koaza":"","lat":37.802335,"lng":139.190298,"zip":"9592072"},{"town":"上福岡","koaza":"","lat":37.799492,"lng":139.192111,"zip":"9592073"},{"town":"長池","koaza":"","lat":37.787716,"lng":139.190152,"zip":"9592000"},{"town":"熊居新田","koaza":"","lat":37.797724,"lng":139.21989,"zip":"9592083"},{"town":"野田","koaza":"","lat":37.781022,"lng":139.21439,"zip":"9592226"},{"town":"寺社","koaza":"","lat":37.792564,"lng":139.22539,"zip":"9592205"},{"town":"山本新","koaza":"","lat":37.7979,"lng":139.23865,"zip":"9592085"},{"town":"かがやき","koaza":"","lat":37.789491,"lng":139.244841,"zip":"9592206"},{"town":"粕島","koaza":"","lat":37.810711,"lng":139.184323,"zip":"9592147"},{"town":"水ケ曽根","koaza":"","lat":37.801599,"lng":139.18252,"zip":"9592071"},{"town":"箸木免","koaza":"","lat":37.818267,"lng":139.195427,"zip":"9592142"},{"town":"寺社新","koaza":"","lat":37.811468,"lng":139.190206,"zip":"9592145"},{"town":"清野","koaza":"","lat":37.808982,"lng":139.192304,"zip":"9592144"},{"town":"川前","koaza":"","lat":37.808453,"lng":139.194415,"zip":"9592143"},{"town":"百津潟新田","koaza":"","lat":37.819016,"lng":139.202144,"zip":"9592000"},{"town":"七島村古新田","koaza":"","lat":37.821723,"lng":139.212266,"zip":"9592000"},{"town":"中潟","koaza":"","lat":37.813818,"lng":139.198403,"zip":"9592066"},{"town":"中村新村新田","koaza":"","lat":37.885587,"lng":139.267917,"zip":"9592000"},{"town":"折居村新田","koaza":"","lat":37.885032,"lng":139.267743,"zip":"9592000"},{"town":"畑江","koaza":"","lat":37.823557,"lng":139.303915,"zip":"9591924"},{"town":"出湯","koaza":"","lat":37.813045,"lng":139.310827,"zip":"9591926"},{"town":"大宮","koaza":"","lat":37.804768,"lng":139.284008,"zip":"9591930"},{"town":"押切","koaza":"","lat":37.8183,"lng":139.272002,"zip":"9591946"},{"town":"今板","koaza":"","lat":37.808722,"lng":139.292164,"zip":"9591927"},{"town":"山寺","koaza":"","lat":37.806904,"lng":139.274464,"zip":"9591931"},{"town":"小中山村新田","koaza":"","lat":37.812043,"lng":139.277436,"zip":"9592000"},{"town":"山崎","koaza":"","lat":37.835466,"lng":139.273556,"zip":"9591919"},{"town":"川崎","koaza":"","lat":37.836217,"lng":139.264811,"zip":"9591949"},{"town":"次郎丸","koaza":"","lat":37.828429,"lng":139.275659,"zip":"9591943"},{"town":"金屋","koaza":"","lat":37.827941,"lng":139.262694,"zip":"9591944"},{"town":"須走","koaza":"","lat":37.836261,"lng":139.248444,"zip":"9591956"},{"town":"野村","koaza":"","lat":37.842576,"lng":139.250178,"zip":"9591958"},{"town":"上山屋","koaza":"","lat":37.835686,"lng":139.260561,"zip":"9591945"},{"town":"赤水","koaza":"","lat":37.838383,"lng":139.255412,"zip":"9591955"},{"town":"高田","koaza":"","lat":37.883365,"lng":139.250269,"zip":"9591971"},{"town":"堤","koaza":"","lat":37.846257,"lng":139.27693,"zip":"9591917"},{"town":"上一分","koaza":"","lat":37.848073,"lng":139.282928,"zip":"9591915"},{"town":"外山王","koaza":"","lat":37.789799,"lng":139.201867,"zip":"9592000"},{"town":"新座下","koaza":"","lat":37.788342,"lng":139.204119,"zip":"9592000"},{"town":"新座","koaza":"","lat":37.787488,"lng":139.211434,"zip":"9592086"},{"town":"上江端","koaza":"","lat":37.796164,"lng":139.211418,"zip":"9592081"},{"town":"嶋瀬","koaza":"","lat":37.787898,"lng":139.198075,"zip":"9592225"},{"town":"東町","koaza":"","lat":37.798084,"lng":139.204927,"zip":"9592075"},{"town":"分田","koaza":"","lat":37.792858,"lng":139.192273,"zip":"9592074"},{"town":"金渕","koaza":"乙","lat":37.862219,"lng":139.180715,"zip":"9592105"},{"town":"金渕","koaza":"甲","lat":37.85608,"lng":139.193633,"zip":"9592105"},{"town":"庄ケ宮","koaza":"沢田","lat":37.82465,"lng":139.227704,"zip":"9592046"},{"town":"堀越","koaza":"堂ノ下","lat":37.813467,"lng":139.227371,"zip":"9592055"},{"town":"市野山","koaza":"大坪","lat":37.822451,"lng":139.225859,"zip":"9592062"},{"town":"笹岡","koaza":"葉山","lat":37.83669,"lng":139.292198,"zip":"9591918"}]