[{"town":"青島","koaza":"","lat":37.219496,"lng":138.951683,"zip":"9460043"},{"town":"赤土","koaza":"","lat":37.291054,"lng":139.010522,"zip":"9460224"},{"town":"穴沢","koaza":"","lat":37.355824,"lng":139.090915,"zip":"9460304"},{"town":"池平","koaza":"","lat":37.239895,"lng":139.019549,"zip":"9460064"},{"town":"池平新田","koaza":"","lat":37.235969,"lng":139.005815,"zip":"9460064"},{"town":"泉沢","koaza":"","lat":37.276203,"lng":138.955722,"zip":"9460114"},{"town":"伊勢島","koaza":"","lat":37.209653,"lng":138.95757,"zip":"9460038"},{"town":"板木","koaza":"","lat":37.202311,"lng":138.971133,"zip":"9460032"},{"town":"稲荷町一丁目","koaza":"","lat":37.2329,"lng":138.958369,"zip":"9460002"},{"town":"井口新田","koaza":"","lat":37.230336,"lng":138.975068,"zip":"9460076"},{"town":"芋鞘","koaza":"","lat":37.373999,"lng":139.094732,"zip":"9460302"},{"town":"魚野地","koaza":"","lat":37.204203,"lng":138.895542,"zip":"9497423"},{"town":"宇津野","koaza":"","lat":37.118733,"lng":139.154309,"zip":"9460084"},{"town":"浦町一丁目","koaza":"","lat":37.231425,"lng":138.959291,"zip":"9460012"},{"town":"大石","koaza":"","lat":37.224293,"lng":138.937118,"zip":"9497411"},{"town":"大芋川","koaza":"","lat":37.292694,"lng":138.926565,"zip":"9460124"},{"town":"大浦","koaza":"","lat":37.191316,"lng":138.957179,"zip":"9460033"},{"town":"大浦新田","koaza":"","lat":37.182217,"lng":138.952815,"zip":"9460034"},{"town":"大倉","koaza":"","lat":37.32346,"lng":139.001824,"zip":"9460226"},{"town":"大倉沢","koaza":"","lat":37.309352,"lng":139.005613,"zip":"9460223"},{"town":"大沢","koaza":"","lat":37.223683,"lng":139.00174,"zip":"9460073"},{"town":"大白川","koaza":"","lat":37.335556,"lng":139.168123,"zip":"9460303"},{"town":"大塚新田","koaza":"","lat":37.236455,"lng":138.968462,"zip":"9460004"},{"town":"大栃山","koaza":"","lat":37.34953,"lng":139.067779,"zip":"9460305"},{"town":"大原新田","koaza":"","lat":37.326579,"lng":139.027025,"zip":"9460215"},{"town":"大湯温泉","koaza":"","lat":37.162201,"lng":139.075374,"zip":"9460088"},{"town":"岡新田","koaza":"","lat":37.183198,"lng":138.934917,"zip":"9460036"},{"town":"小平尾","koaza":"","lat":37.319054,"lng":138.966497,"zip":"9460101"},{"town":"親柄","koaza":"","lat":37.283358,"lng":138.982001,"zip":"9460108"},{"town":"折立又新田","koaza":"","lat":37.17411,"lng":139.053525,"zip":"9460086"},{"town":"金ケ沢","koaza":"","lat":37.290108,"lng":138.987673,"zip":"9460105"},{"town":"上折立","koaza":"","lat":37.193848,"lng":139.08549,"zip":"9460087"},{"town":"上長鳥新田","koaza":"","lat":37.345515,"lng":139.040776,"zip":"9460211"},{"town":"上原","koaza":"","lat":37.218828,"lng":138.985817,"zip":"9460022"},{"town":"栗山","koaza":"","lat":37.302947,"lng":138.984497,"zip":"9460104"},{"town":"小出島","koaza":"","lat":37.236704,"lng":138.963609,"zip":"9460011"},{"town":"古新田","koaza":"","lat":37.219825,"lng":138.963261,"zip":"9460025"},{"town":"小庭名","koaza":"","lat":37.280088,"lng":138.972439,"zip":"9460121"},{"town":"佐梨","koaza":"","lat":37.225322,"lng":138.970683,"zip":"9460021"},{"town":"下倉","koaza":"","lat":37.251744,"lng":138.958172,"zip":"9497401"},{"town":"渋川","koaza":"","lat":37.33628,"lng":139.054402,"zip":"9460203"},{"town":"下折立","koaza":"","lat":37.207274,"lng":139.060152,"zip":"9460085"},{"town":"下田","koaza":"","lat":37.28199,"lng":138.986183,"zip":"9460107"},{"town":"須川","koaza":"","lat":37.306323,"lng":139.019601,"zip":"9460221"},{"town":"須原","koaza":"","lat":37.33545,"lng":139.011946,"zip":"9460216"},{"town":"諏訪町一丁目","koaza":"","lat":37.232713,"lng":138.960029,"zip":"9460003"},{"town":"高倉","koaza":"","lat":37.388714,"lng":139.073373,"zip":"9460201"},{"town":"田川","koaza":"","lat":37.24181,"lng":138.908559,"zip":"9497415"},{"town":"田小屋","koaza":"","lat":37.377545,"lng":139.085981,"zip":"9460301"},{"town":"田戸","koaza":"","lat":37.242186,"lng":138.941491,"zip":"9497402"},{"town":"田中","koaza":"","lat":37.293238,"lng":138.992849,"zip":"9460106"},{"town":"中家","koaza":"","lat":37.239789,"lng":138.998345,"zip":"9460063"},{"town":"中家新田","koaza":"","lat":37.2443,"lng":138.987861,"zip":"9460063"},{"town":"中子沢","koaza":"","lat":37.240396,"lng":139.039514,"zip":"9460065"},{"town":"十日町","koaza":"","lat":37.188544,"lng":138.945107,"zip":"9460035"},{"town":"中島","koaza":"","lat":37.245415,"lng":138.965366,"zip":"9460057"},{"town":"長鳥","koaza":"","lat":37.341905,"lng":139.039373,"zip":"9460212"},{"town":"中ノ島","koaza":"","lat":37.233532,"lng":138.95672,"zip":"9460000"},{"town":"中原","koaza":"","lat":37.218062,"lng":138.969493,"zip":"9460024"},{"town":"長堀新田","koaza":"","lat":37.282471,"lng":138.989301,"zip":"9460107"},{"town":"七日市","koaza":"","lat":37.237135,"lng":138.975853,"zip":"9460071"},{"town":"七日市新田","koaza":"","lat":37.234614,"lng":138.982756,"zip":"9460072"},{"town":"西名","koaza":"","lat":37.350404,"lng":139.038709,"zip":"9460204"},{"town":"西名新田","koaza":"","lat":37.357026,"lng":139.033166,"zip":"9460206"},{"town":"根小屋","koaza":"","lat":37.26546,"lng":138.93901,"zip":"9497403"},{"town":"原","koaza":"","lat":37.225572,"lng":138.886697,"zip":"9497422"},{"town":"原虫野","koaza":"","lat":37.209836,"lng":138.965552,"zip":"9460031"},{"town":"東野名","koaza":"","lat":37.364005,"lng":139.053141,"zip":"9460202"},{"town":"一日市","koaza":"","lat":37.242401,"lng":138.982339,"zip":"9460062"},{"town":"干溝","koaza":"","lat":37.202906,"lng":138.996721,"zip":"9460023"},{"town":"平野又","koaza":"","lat":37.363208,"lng":139.069823,"zip":"9460306"},{"town":"日渡新田","koaza":"","lat":37.238075,"lng":138.959059,"zip":"9460001"},{"town":"福田新田","koaza":"","lat":37.312736,"lng":139.011414,"zip":"9460222"},{"town":"福山新田","koaza":"","lat":37.351901,"lng":138.984577,"zip":"9460207"},{"town":"細野","koaza":"","lat":37.333414,"lng":139.034702,"zip":"9460213"},{"town":"堀之内","koaza":"","lat":37.224935,"lng":138.920167,"zip":"9497413"},{"town":"本町一丁目","koaza":"","lat":37.232149,"lng":138.958093,"zip":"9460041"},{"town":"本町二丁目","koaza":"","lat":37.231933,"lng":138.959481,"zip":"9460041"},{"town":"本町三丁目","koaza":"","lat":37.232081,"lng":138.960335,"zip":"9460041"},{"town":"松川","koaza":"","lat":37.311186,"lng":139.042077,"zip":"9460214"},{"town":"水沢","koaza":"","lat":37.301235,"lng":138.942635,"zip":"9460123"},{"town":"三ツ又","koaza":"","lat":37.222958,"lng":139.090524,"zip":"9460066"},{"town":"蓑和田","koaza":"","lat":37.221593,"lng":139.039546,"zip":"9460083"},{"town":"三渕沢","koaza":"","lat":37.308915,"lng":138.994403,"zip":"9460225"},{"town":"宮沢新田","koaza":"","lat":37.283598,"lng":138.985493,"zip":"9460105"},{"town":"宮椿新田","koaza":"","lat":37.356252,"lng":139.041414,"zip":"9460205"},{"town":"明神","koaza":"","lat":37.193555,"lng":138.861617,"zip":"9497424"},{"town":"葎沢","koaza":"","lat":37.218995,"lng":139.016363,"zip":"9460081"},{"town":"虫野","koaza":"","lat":37.204127,"lng":138.960418,"zip":"9460037"},{"town":"茂沢","koaza":"","lat":37.295183,"lng":138.95049,"zip":"9460123"},{"town":"柳原一丁目","koaza":"","lat":37.231497,"lng":138.957964,"zip":"9460042"},{"town":"山口","koaza":"","lat":37.268217,"lng":138.969158,"zip":"9460115"},{"town":"湯之谷芋川","koaza":"","lat":37.203346,"lng":139.0276,"zip":"9460082"},{"town":"横町一丁目","koaza":"","lat":37.232657,"lng":138.957046,"zip":"9460005"},{"town":"横町二丁目","koaza":"","lat":37.233552,"lng":138.957452,"zip":"9460005"},{"town":"横根","koaza":"","lat":37.374532,"lng":139.067987,"zip":"9460307"},{"town":"与五郎新田","koaza":"","lat":37.237481,"lng":138.932423,"zip":"9497412"},{"town":"吉田","koaza":"","lat":37.225682,"lng":138.985663,"zip":"9460075"},{"town":"吉平","koaza":"","lat":37.282035,"lng":138.966753,"zip":"9460121"},{"town":"吉原","koaza":"","lat":37.288479,"lng":138.957975,"zip":"9460122"},{"town":"吉水","koaza":"","lat":37.219505,"lng":138.906733,"zip":"9497421"},{"town":"四日町","koaza":"","lat":37.235268,"lng":138.95244,"zip":"9460007"},{"town":"米沢","koaza":"","lat":37.257848,"lng":139.028084,"zip":"9460054"},{"town":"連日","koaza":"","lat":37.277122,"lng":138.974438,"zip":"9460121"},{"town":"和田","koaza":"","lat":37.278327,"lng":138.979126,"zip":"9460109"},{"town":"和長島","koaza":"","lat":37.248002,"lng":138.918166,"zip":"9497414"},{"town":"新保","koaza":"","lat":37.246458,"lng":138.975275,"zip":"9460061"},{"town":"徳田","koaza":"","lat":37.268482,"lng":138.924905,"zip":"9497418"},{"town":"竜光","koaza":"","lat":37.276061,"lng":138.913423,"zip":"9497404"},{"town":"下新田","koaza":"","lat":37.264121,"lng":138.90136,"zip":"9497417"},{"town":"中島新田","koaza":"","lat":37.251499,"lng":138.969477,"zip":"9460058"},{"town":"東中","koaza":"","lat":37.259218,"lng":138.965858,"zip":"9460113"},{"town":"田尻","koaza":"","lat":37.261076,"lng":138.97124,"zip":"9460112"},{"town":"並柳","koaza":"","lat":37.267505,"lng":138.978767,"zip":"9460111"},{"town":"横瀬","koaza":"","lat":37.275704,"lng":138.987143,"zip":"9460107"},{"town":"清本","koaza":"","lat":37.277756,"lng":139.005849,"zip":"9460107"},{"town":"江口","koaza":"","lat":37.265706,"lng":139.012193,"zip":"9460052"},{"town":"山田","koaza":"","lat":37.251495,"lng":138.994269,"zip":"9460055"},{"town":"今泉","koaza":"","lat":37.257641,"lng":138.979252,"zip":"9460051"},{"town":"新道島","koaza":"","lat":37.268581,"lng":138.893704,"zip":"9497405"},{"town":"下島","koaza":"","lat":37.245601,"lng":138.895976,"zip":"9497416"},{"town":"堀之内","koaza":"五軒屋敷","lat":37.238957,"lng":138.932604,"zip":"9497413"},{"town":"中原","koaza":"土井下","lat":37.218376,"lng":138.968179,"zip":"9460024"},{"town":"小庭名","koaza":"新田","lat":37.28323,"lng":138.970063,"zip":"9460121"},{"town":"新保","koaza":"新田","lat":37.248616,"lng":138.977862,"zip":"9460061"},{"town":"江口","koaza":"新田","lat":37.261391,"lng":138.993167,"zip":"9460052"}]