[{"town":"青柳一丁目","koaza":"","lat":34.004935,"lng":131.871849,"zip":"7440004"},{"town":"青柳二丁目","koaza":"","lat":34.005966,"lng":131.872845,"zip":"7440004"},{"town":"生野屋一丁目","koaza":"","lat":34.038902,"lng":131.884963,"zip":"7440031"},{"town":"生野屋二丁目","koaza":"","lat":34.037782,"lng":131.886885,"zip":"7440031"},{"town":"生野屋三丁目","koaza":"","lat":34.041473,"lng":131.890362,"zip":"7440031"},{"town":"生野屋四丁目","koaza":"","lat":34.038156,"lng":131.889871,"zip":"7440031"},{"town":"生野屋五丁目","koaza":"","lat":34.036677,"lng":131.892245,"zip":"7440031"},{"town":"生野屋西一丁目","koaza":"","lat":34.035671,"lng":131.880332,"zip":"7440032"},{"town":"生野屋西二丁目","koaza":"","lat":34.037653,"lng":131.879931,"zip":"7440032"},{"town":"生野屋西三丁目","koaza":"","lat":34.040942,"lng":131.880487,"zip":"7440032"},{"town":"生野屋西四丁目","koaza":"","lat":34.039307,"lng":131.88315,"zip":"7440032"},{"town":"生野屋南一丁目","koaza":"","lat":34.031981,"lng":131.876664,"zip":"7440033"},{"town":"生野屋南二丁目","koaza":"","lat":34.033874,"lng":131.883211,"zip":"7440033"},{"town":"生野屋南三丁目","koaza":"","lat":34.03488,"lng":131.890969,"zip":"7440033"},{"town":"駅南一丁目","koaza":"","lat":34.010145,"lng":131.86615,"zip":"7440007"},{"town":"駅南二丁目","koaza":"","lat":34.009056,"lng":131.864924,"zip":"7440007"},{"town":"大字生野屋","koaza":"","lat":34.047097,"lng":131.887271,"zip":"7440000"},{"town":"大字大藤谷","koaza":"","lat":34.071901,"lng":131.917152,"zip":"7440000"},{"town":"大字笠戸島","koaza":"","lat":33.960021,"lng":131.854722,"zip":"7440000"},{"town":"大字切山","koaza":"","lat":34.047705,"lng":131.923769,"zip":"7440000"},{"town":"大字下谷","koaza":"","lat":34.089304,"lng":131.872165,"zip":"7440000"},{"town":"大字来巻","koaza":"","lat":34.01456,"lng":131.923474,"zip":"7440000"},{"town":"大字河内","koaza":"","lat":34.012997,"lng":131.897707,"zip":"7440000"},{"town":"大字末武上","koaza":"","lat":34.043716,"lng":131.869753,"zip":"7440000"},{"town":"大字末武下","koaza":"","lat":34.012311,"lng":131.85747,"zip":"7440000"},{"town":"大字末武中","koaza":"","lat":34.025145,"lng":131.842818,"zip":"7440000"},{"town":"大字瀬戸","koaza":"","lat":34.0679,"lng":131.888941,"zip":"7440000"},{"town":"大字中須南","koaza":"","lat":34.086169,"lng":131.895498,"zip":"7440000"},{"town":"大字西豊井","koaza":"","lat":34.01401,"lng":131.873761,"zip":"7440000"},{"town":"大字温見","koaza":"","lat":34.078174,"lng":131.903288,"zip":"7440000"},{"town":"大字東豊井","koaza":"","lat":33.995495,"lng":131.88306,"zip":"7440000"},{"town":"大字平田","koaza":"","lat":34.01268,"lng":131.846881,"zip":"7440000"},{"town":"大字山田","koaza":"","lat":34.047008,"lng":131.90626,"zip":"7440000"},{"town":"大手町一丁目","koaza":"","lat":34.012374,"lng":131.865997,"zip":"7440015"},{"town":"大手町二丁目","koaza":"","lat":34.013366,"lng":131.868087,"zip":"7440015"},{"town":"大手町三丁目","koaza":"","lat":34.01498,"lng":131.870018,"zip":"7440015"},{"town":"清瀬町一丁目","koaza":"","lat":34.030612,"lng":131.858385,"zip":"7440071"},{"town":"清瀬町二丁目","koaza":"","lat":34.02942,"lng":131.855856,"zip":"7440071"},{"town":"清瀬町三丁目","koaza":"","lat":34.030064,"lng":131.852966,"zip":"7440071"},{"town":"清瀬町四丁目","koaza":"","lat":34.032513,"lng":131.855797,"zip":"7440071"},{"town":"楠木町一丁目","koaza":"","lat":34.020849,"lng":131.863635,"zip":"7440029"},{"town":"楠木町二丁目","koaza":"","lat":34.025074,"lng":131.866341,"zip":"7440029"},{"town":"琴平町一丁目","koaza":"","lat":34.003001,"lng":131.873518,"zip":"7440003"},{"town":"琴平町二丁目","koaza":"","lat":34.004034,"lng":131.874635,"zip":"7440003"},{"town":"栄町一丁目","koaza":"","lat":34.010997,"lng":131.867265,"zip":"7440013"},{"town":"栄町二丁目","koaza":"","lat":34.011458,"lng":131.868475,"zip":"7440013"},{"town":"栄町三丁目","koaza":"","lat":34.012125,"lng":131.869632,"zip":"7440013"},{"town":"桜町一丁目","koaza":"","lat":34.017001,"lng":131.870455,"zip":"7440019"},{"town":"桜町二丁目","koaza":"","lat":34.020032,"lng":131.871492,"zip":"7440019"},{"town":"桜町三丁目","koaza":"","lat":34.019923,"lng":131.867619,"zip":"7440019"},{"town":"潮音町一丁目","koaza":"","lat":34.016815,"lng":131.854522,"zip":"7440074"},{"town":"潮音町二丁目","koaza":"","lat":34.017704,"lng":131.852374,"zip":"7440074"},{"town":"潮音町三丁目","koaza":"","lat":34.021247,"lng":131.850773,"zip":"7440074"},{"town":"潮音町四丁目","koaza":"","lat":34.023517,"lng":131.847093,"zip":"7440074"},{"town":"潮音町五丁目","koaza":"","lat":34.021186,"lng":131.84675,"zip":"7440074"},{"town":"潮音町六丁目","koaza":"","lat":34.018361,"lng":131.849538,"zip":"7440074"},{"town":"潮音町七丁目","koaza":"","lat":34.018399,"lng":131.845338,"zip":"7440074"},{"town":"潮音町八丁目","koaza":"","lat":34.016518,"lng":131.847329,"zip":"7440074"},{"town":"昭和町一丁目","koaza":"","lat":34.017836,"lng":131.880814,"zip":"7440062"},{"town":"昭和町二丁目","koaza":"","lat":34.016642,"lng":131.881869,"zip":"7440062"},{"town":"新川一丁目","koaza":"","lat":34.006648,"lng":131.865106,"zip":"7440008"},{"town":"新川二丁目","koaza":"","lat":34.007504,"lng":131.86309,"zip":"7440008"},{"town":"新川三丁目","koaza":"","lat":34.008793,"lng":131.861696,"zip":"7440008"},{"town":"新川四丁目","koaza":"","lat":34.00504,"lng":131.859121,"zip":"7440008"},{"town":"中央町","koaza":"","lat":34.017719,"lng":131.862645,"zip":"7440025"},{"town":"藤光町一丁目","koaza":"","lat":34.024082,"lng":131.86845,"zip":"7440028"},{"town":"藤光町二丁目","koaza":"","lat":34.027753,"lng":131.86956,"zip":"7440028"},{"town":"東陽一丁目","koaza":"","lat":34.033372,"lng":131.908195,"zip":"7440043"},{"town":"東陽二丁目","koaza":"","lat":34.035818,"lng":131.90957,"zip":"7440043"},{"town":"東陽三丁目","koaza":"","lat":34.037017,"lng":131.914417,"zip":"7440043"},{"town":"東陽四丁目","koaza":"","lat":34.034531,"lng":131.915629,"zip":"7440043"},{"town":"東陽五丁目","koaza":"","lat":34.031693,"lng":131.915949,"zip":"7440043"},{"town":"東陽六丁目","koaza":"","lat":34.031965,"lng":131.911918,"zip":"7440043"},{"town":"東陽七丁目","koaza":"","lat":34.033534,"lng":131.913283,"zip":"7440043"},{"town":"東和一丁目","koaza":"","lat":34.027869,"lng":131.924904,"zip":"7440053"},{"town":"東和二丁目","koaza":"","lat":34.028878,"lng":131.924179,"zip":"7440053"},{"town":"中市一丁目","koaza":"","lat":34.011904,"lng":131.863632,"zip":"7440014"},{"town":"中市二丁目","koaza":"","lat":34.010421,"lng":131.862446,"zip":"7440014"},{"town":"西柳一丁目","koaza":"","lat":34.015642,"lng":131.866658,"zip":"7440018"},{"town":"西柳二丁目","koaza":"","lat":34.01664,"lng":131.864959,"zip":"7440018"},{"town":"望町一丁目","koaza":"","lat":34.028624,"lng":131.861032,"zip":"7440072"},{"town":"望町二丁目","koaza":"","lat":34.025358,"lng":131.859134,"zip":"7440072"},{"town":"望町三丁目","koaza":"","lat":34.026418,"lng":131.857478,"zip":"7440072"},{"town":"望町四丁目","koaza":"","lat":34.027053,"lng":131.855056,"zip":"7440072"},{"town":"望町五丁目","koaza":"","lat":34.027418,"lng":131.852246,"zip":"7440072"},{"town":"旗岡一丁目","koaza":"","lat":34.010634,"lng":131.875531,"zip":"7440006"},{"town":"旗岡二丁目","koaza":"","lat":34.011995,"lng":131.876182,"zip":"7440006"},{"town":"旗岡三丁目","koaza":"","lat":34.012033,"lng":131.877907,"zip":"7440006"},{"town":"旗岡四丁目","koaza":"","lat":34.008998,"lng":131.878601,"zip":"7440006"},{"town":"旗岡五丁目","koaza":"","lat":34.008104,"lng":131.876665,"zip":"7440006"},{"town":"葉山一丁目","koaza":"","lat":34.02463,"lng":131.911411,"zip":"7440000"},{"town":"葉山二丁目","koaza":"","lat":34.022066,"lng":131.906861,"zip":"7440000"},{"town":"東海岸通り","koaza":"","lat":33.985342,"lng":131.88333,"zip":"7440000"},{"town":"東柳一丁目","koaza":"","lat":34.013449,"lng":131.864588,"zip":"7440017"},{"town":"東柳二丁目","koaza":"","lat":34.014315,"lng":131.866746,"zip":"7440017"},{"town":"古川町一丁目","koaza":"","lat":34.007911,"lng":131.869547,"zip":"7440005"},{"town":"古川町二丁目","koaza":"","lat":34.008589,"lng":131.870897,"zip":"7440005"},{"town":"古川町三丁目","koaza":"","lat":34.007211,"lng":131.871892,"zip":"7440005"},{"town":"古川町四丁目","koaza":"","lat":34.006512,"lng":131.87057,"zip":"7440005"},{"town":"北斗町","koaza":"","lat":34.009986,"lng":131.869296,"zip":"7440012"},{"town":"星が丘一丁目","koaza":"","lat":34.021025,"lng":131.897794,"zip":"7440065"},{"town":"星が丘二丁目","koaza":"","lat":34.020724,"lng":131.899528,"zip":"7440065"},{"town":"星が丘三丁目","koaza":"","lat":34.018807,"lng":131.897749,"zip":"7440065"},{"town":"美里町一丁目","koaza":"","lat":34.025849,"lng":131.865049,"zip":"7440073"},{"town":"美里町二丁目","koaza":"","lat":34.026643,"lng":131.862978,"zip":"7440073"},{"town":"美里町三丁目","koaza":"","lat":34.023098,"lng":131.861182,"zip":"7440073"},{"town":"美里町四丁目","koaza":"","lat":34.020705,"lng":131.858702,"zip":"7440073"},{"town":"瑞穂町一丁目","koaza":"","lat":34.022101,"lng":131.855493,"zip":"7440075"},{"town":"瑞穂町二丁目","koaza":"","lat":34.023632,"lng":131.852817,"zip":"7440075"},{"town":"瑞穂町三丁目","koaza":"","lat":34.026548,"lng":131.849968,"zip":"7440075"},{"town":"瑞穂町四丁目","koaza":"","lat":34.025118,"lng":131.848426,"zip":"7440075"},{"town":"南花岡一丁目","koaza":"","lat":34.032901,"lng":131.862015,"zip":"7440027"},{"town":"南花岡二丁目","koaza":"","lat":34.033503,"lng":131.865805,"zip":"7440027"},{"town":"南花岡三丁目","koaza":"","lat":34.033913,"lng":131.86885,"zip":"7440027"},{"town":"南花岡四丁目","koaza":"","lat":34.034209,"lng":131.872728,"zip":"7440027"},{"town":"南花岡五丁目","koaza":"","lat":34.032406,"lng":131.871459,"zip":"7440027"},{"town":"南花岡六丁目","koaza":"","lat":34.03059,"lng":131.864755,"zip":"7440027"},{"town":"南花岡七丁目","koaza":"","lat":34.030075,"lng":131.867525,"zip":"7440027"},{"town":"桃山町","koaza":"","lat":34.026851,"lng":131.917925,"zip":"7440052"},{"town":"若宮町","koaza":"","lat":34.022699,"lng":131.881784,"zip":"7440063"},{"town":"大字笠戸島","koaza":"深浦","lat":33.944788,"lng":131.82466,"zip":"7440000"},{"town":"大字笠戸島","koaza":"小深浦","lat":33.947029,"lng":131.833319,"zip":"7440000"},{"town":"大字笠戸島","koaza":"大松ケ浦","lat":33.950058,"lng":131.842416,"zip":"7440000"},{"town":"大字笠戸島","koaza":"江ノ浦","lat":33.953482,"lng":131.850735,"zip":"7440000"},{"town":"大字笠戸島","koaza":"尾郷","lat":33.96087,"lng":131.850747,"zip":"7440000"},{"town":"大字山田","koaza":"梅ノ木原","lat":34.049726,"lng":131.904929,"zip":"7440000"},{"town":"大字末武下","koaza":"中筋潮入","lat":34.012563,"lng":131.858177,"zip":"7440000"}]