[{"town":"赤池町","koaza":"","lat":34.059673,"lng":131.011382,"zip":"7520902"},{"town":"垢田町一丁目","koaza":"","lat":33.993498,"lng":130.923942,"zip":"7510841"},{"town":"垢田町二丁目","koaza":"","lat":33.990963,"lng":130.925981,"zip":"7510841"},{"town":"赤間町","koaza":"","lat":33.959339,"lng":130.943753,"zip":"7500007"},{"town":"秋根上町一丁目","koaza":"","lat":34.012436,"lng":130.959028,"zip":"7510878"},{"town":"秋根上町二丁目","koaza":"","lat":34.010338,"lng":130.95872,"zip":"7510878"},{"town":"秋根上町三丁目","koaza":"","lat":34.007583,"lng":130.960032,"zip":"7510878"},{"town":"秋根北町","koaza":"","lat":34.01412,"lng":130.95219,"zip":"7510876"},{"town":"秋根新町","koaza":"","lat":34.011829,"lng":130.948328,"zip":"7510874"},{"town":"秋根西町一丁目","koaza":"","lat":34.009121,"lng":130.947528,"zip":"7510873"},{"town":"秋根西町二丁目","koaza":"","lat":34.007006,"lng":130.945444,"zip":"7510873"},{"town":"秋根東町","koaza":"","lat":34.010726,"lng":130.954617,"zip":"7510877"},{"town":"秋根本町一丁目","koaza":"","lat":34.010348,"lng":130.950399,"zip":"7510875"},{"town":"秋根本町二丁目","koaza":"","lat":34.010351,"lng":130.952473,"zip":"7510875"},{"town":"秋根南町一丁目","koaza":"","lat":34.007136,"lng":130.95021,"zip":"7510872"},{"town":"秋根南町二丁目","koaza":"","lat":34.007376,"lng":130.954458,"zip":"7510872"},{"town":"阿弥陀寺町","koaza":"","lat":33.959369,"lng":130.948383,"zip":"7500003"},{"town":"綾羅木新町一丁目","koaza":"","lat":34.009377,"lng":130.921381,"zip":"7510865"},{"town":"綾羅木新町二丁目","koaza":"","lat":34.011602,"lng":130.918222,"zip":"7510865"},{"town":"綾羅木新町三丁目","koaza":"","lat":34.011556,"lng":130.922713,"zip":"7510865"},{"town":"綾羅木新町四丁目","koaza":"","lat":34.010483,"lng":130.924301,"zip":"7510865"},{"town":"綾羅木本町一丁目","koaza":"","lat":34.004838,"lng":130.927386,"zip":"7510849"},{"town":"綾羅木本町二丁目","koaza":"","lat":34.002997,"lng":130.926177,"zip":"7510849"},{"town":"綾羅木本町三丁目","koaza":"","lat":34.001634,"lng":130.92429,"zip":"7510849"},{"town":"綾羅木本町四丁目","koaza":"","lat":34.004679,"lng":130.922764,"zip":"7510849"},{"town":"綾羅木本町五丁目","koaza":"","lat":34.006561,"lng":130.922983,"zip":"7510849"},{"town":"綾羅木本町六丁目","koaza":"","lat":34.008213,"lng":130.919589,"zip":"7510849"},{"town":"綾羅木本町七丁目","koaza":"","lat":34.006453,"lng":130.916548,"zip":"7510849"},{"town":"綾羅木本町八丁目","koaza":"","lat":34.004709,"lng":130.919185,"zip":"7510849"},{"town":"綾羅木本町九丁目","koaza":"","lat":34.003505,"lng":130.921979,"zip":"7510849"},{"town":"綾羅木南町一丁目","koaza":"","lat":34.001395,"lng":130.921145,"zip":"7510848"},{"town":"綾羅木南町二丁目","koaza":"","lat":34.002768,"lng":130.916587,"zip":"7510848"},{"town":"綾羅木南町三丁目","koaza":"","lat":34.002172,"lng":130.911445,"zip":"7510848"},{"town":"あるかぽーと","koaza":"","lat":33.95349,"lng":130.941213,"zip":"7500036"},{"town":"生野町一丁目","koaza":"","lat":33.981483,"lng":130.935688,"zip":"7510832"},{"town":"生野町二丁目","koaza":"","lat":33.984441,"lng":130.935554,"zip":"7510832"},{"town":"伊倉新町一丁目","koaza":"","lat":34.006342,"lng":130.940025,"zip":"7510869"},{"town":"伊倉新町二丁目","koaza":"","lat":34.006985,"lng":130.938766,"zip":"7510869"},{"town":"伊倉新町三丁目","koaza":"","lat":34.006416,"lng":130.932925,"zip":"7510869"},{"town":"伊倉新町四丁目","koaza":"","lat":34.005232,"lng":130.933922,"zip":"7510869"},{"town":"伊倉新町五丁目","koaza":"","lat":34.005044,"lng":130.931204,"zip":"7510869"},{"town":"伊倉町一丁目","koaza":"","lat":34.002952,"lng":130.929326,"zip":"7510864"},{"town":"伊倉町二丁目","koaza":"","lat":34.00503,"lng":130.929413,"zip":"7510864"},{"town":"伊倉町三丁目","koaza":"","lat":34.001881,"lng":130.933398,"zip":"7510864"},{"town":"伊倉東町","koaza":"","lat":34.005495,"lng":130.943731,"zip":"7510861"},{"town":"伊倉本町","koaza":"","lat":34.00342,"lng":130.93568,"zip":"7510863"},{"town":"伊崎町一丁目","koaza":"","lat":33.954749,"lng":130.917885,"zip":"7500065"},{"town":"伊崎町二丁目","koaza":"","lat":33.956505,"lng":130.910761,"zip":"7500065"},{"town":"石神町","koaza":"","lat":33.97386,"lng":130.938465,"zip":"7510825"},{"town":"一の宮卸本町","koaza":"","lat":33.989077,"lng":130.94863,"zip":"7510817"},{"town":"一の宮学園町","koaza":"","lat":33.999491,"lng":130.947946,"zip":"7510807"},{"town":"一の宮住吉一丁目","koaza":"","lat":34.002644,"lng":130.95716,"zip":"7510805"},{"town":"一の宮住吉二丁目","koaza":"","lat":33.99733,"lng":130.955803,"zip":"7510805"},{"town":"一の宮住吉三丁目","koaza":"","lat":33.99351,"lng":130.953638,"zip":"7510805"},{"town":"一の宮町一丁目","koaza":"","lat":34.003754,"lng":130.946637,"zip":"7510806"},{"town":"一の宮町二丁目","koaza":"","lat":34.002829,"lng":130.949868,"zip":"7510806"},{"town":"一の宮町三丁目","koaza":"","lat":33.997804,"lng":130.951101,"zip":"7510806"},{"town":"一の宮町四丁目","koaza":"","lat":33.994066,"lng":130.951449,"zip":"7510806"},{"town":"一の宮町五丁目","koaza":"","lat":33.993032,"lng":130.949178,"zip":"7510806"},{"town":"一の宮東町一丁目","koaza":"","lat":34.00374,"lng":130.961453,"zip":"7510809"},{"town":"一の宮東町二丁目","koaza":"","lat":33.999831,"lng":130.96093,"zip":"7510809"},{"town":"一の宮東町三丁目","koaza":"","lat":34.002647,"lng":130.964999,"zip":"7510809"},{"town":"一の宮本町一丁目","koaza":"","lat":34.004034,"lng":130.952279,"zip":"7510808"},{"town":"一の宮本町二丁目","koaza":"","lat":34.000633,"lng":130.953905,"zip":"7510808"},{"town":"今浦町","koaza":"","lat":33.954646,"lng":130.922198,"zip":"7500064"},{"town":"入江町","koaza":"","lat":33.95403,"lng":130.93523,"zip":"7500013"},{"town":"上条町","koaza":"","lat":33.955684,"lng":130.923783,"zip":"7500027"},{"town":"後田町一丁目","koaza":"","lat":33.969575,"lng":130.932624,"zip":"7510826"},{"town":"後田町二丁目","koaza":"","lat":33.97136,"lng":130.932157,"zip":"7510826"},{"town":"後田町三丁目","koaza":"","lat":33.972702,"lng":130.93483,"zip":"7510826"},{"town":"後田町五丁目","koaza":"","lat":33.973992,"lng":130.932373,"zip":"7510826"},{"town":"王喜宇津井一丁目","koaza":"","lat":34.064031,"lng":131.043072,"zip":"7501115"},{"town":"王喜宇津井二丁目","koaza":"","lat":34.063691,"lng":131.046785,"zip":"7501115"},{"town":"王喜宇津井三丁目","koaza":"","lat":34.061799,"lng":131.050048,"zip":"7501115"},{"town":"王喜本町一丁目","koaza":"","lat":34.061938,"lng":131.057725,"zip":"7501114"},{"town":"王喜本町二丁目","koaza":"","lat":34.065099,"lng":131.055625,"zip":"7501114"},{"town":"王喜本町三丁目","koaza":"","lat":34.066202,"lng":131.052103,"zip":"7501114"},{"town":"王喜本町四丁目","koaza":"","lat":34.06956,"lng":131.04882,"zip":"7501114"},{"town":"王喜本町五丁目","koaza":"","lat":34.065474,"lng":131.048669,"zip":"7501114"},{"town":"王喜本町六丁目","koaza":"","lat":34.061005,"lng":131.054229,"zip":"7501114"},{"town":"王司上町一丁目","koaza":"","lat":34.044471,"lng":131.013054,"zip":"7520916"},{"town":"王司上町二丁目","koaza":"","lat":34.040717,"lng":131.010393,"zip":"7520916"},{"town":"王司上町三丁目","koaza":"","lat":34.036878,"lng":131.009562,"zip":"7520916"},{"town":"王司上町四丁目","koaza":"","lat":34.03516,"lng":131.010342,"zip":"7520916"},{"town":"王司上町五丁目","koaza":"","lat":34.041492,"lng":131.014069,"zip":"7520916"},{"town":"王司川端一丁目","koaza":"","lat":34.047879,"lng":131.018001,"zip":"7520912"},{"town":"王司川端二丁目","koaza":"","lat":34.047692,"lng":131.020119,"zip":"7520912"},{"town":"王司川端三丁目","koaza":"","lat":34.046967,"lng":131.022401,"zip":"7520912"},{"town":"王司神田一丁目","koaza":"","lat":34.047157,"lng":131.015065,"zip":"7520911"},{"town":"王司神田二丁目","koaza":"","lat":34.047828,"lng":131.012172,"zip":"7520911"},{"town":"王司神田三丁目","koaza":"","lat":34.049928,"lng":131.009662,"zip":"7520911"},{"town":"王司神田四丁目","koaza":"","lat":34.053881,"lng":131.008664,"zip":"7520911"},{"town":"王司神田五丁目","koaza":"","lat":34.053681,"lng":131.012544,"zip":"7520911"},{"town":"王司神田六丁目","koaza":"","lat":34.048938,"lng":131.017059,"zip":"7520911"},{"town":"王司本町一丁目","koaza":"","lat":34.042621,"lng":131.017259,"zip":"7520915"},{"town":"王司本町二丁目","koaza":"","lat":34.041889,"lng":131.019438,"zip":"7520915"},{"town":"王司本町三丁目","koaza":"","lat":34.037408,"lng":131.016962,"zip":"7520915"},{"town":"王司本町四丁目","koaza":"","lat":34.039017,"lng":131.015034,"zip":"7520915"},{"town":"王司本町五丁目","koaza":"","lat":34.035776,"lng":131.012641,"zip":"7520915"},{"town":"王司本町六丁目","koaza":"","lat":34.034937,"lng":131.014445,"zip":"7520915"},{"town":"王司南町","koaza":"","lat":34.032505,"lng":131.012571,"zip":"7520924"},{"town":"大字垢田","koaza":"","lat":33.996817,"lng":130.91325,"zip":"7500000"},{"town":"大字秋根","koaza":"","lat":34.011666,"lng":130.963179,"zip":"7500000"},{"town":"大字綾羅木","koaza":"","lat":34.013146,"lng":130.930164,"zip":"7500000"},{"town":"大字有冨","koaza":"","lat":34.018245,"lng":130.945502,"zip":"7500000"},{"town":"大字伊倉","koaza":"","lat":34.001163,"lng":130.94103,"zip":"7500000"},{"town":"大字石原","koaza":"","lat":34.020677,"lng":130.952103,"zip":"7500000"},{"town":"大字井田","koaza":"","lat":34.056287,"lng":130.971907,"zip":"7500000"},{"town":"大字植田","koaza":"","lat":34.103908,"lng":130.981743,"zip":"7500000"},{"town":"大字宇津井","koaza":"","lat":34.070321,"lng":131.0686,"zip":"7500000"},{"town":"大字内日上","koaza":"","lat":34.08919,"lng":130.948705,"zip":"7500000"},{"town":"大字内日下","koaza":"","lat":34.10275,"lng":130.967504,"zip":"7500000"},{"town":"大字宇部","koaza":"","lat":34.04041,"lng":131.005774,"zip":"7500000"},{"town":"大字小月町","koaza":"","lat":34.087323,"lng":131.035756,"zip":"7500000"},{"town":"大字小野","koaza":"","lat":34.044049,"lng":130.956432,"zip":"7500000"},{"town":"大字員光","koaza":"","lat":34.043077,"lng":130.992189,"zip":"7500000"},{"town":"大字形山","koaza":"","lat":34.019507,"lng":130.960422,"zip":"7500000"},{"town":"大字蒲生野","koaza":"","lat":34.0427,"lng":130.941012,"zip":"7500000"},{"town":"大字清末","koaza":"","lat":34.073196,"lng":131.018278,"zip":"7500000"},{"town":"大字楠乃","koaza":"","lat":33.992229,"lng":130.961852,"zip":"7500000"},{"town":"大字才川","koaza":"","lat":34.030964,"lng":130.997334,"zip":"7500000"},{"town":"大字勝谷","koaza":"","lat":34.016531,"lng":130.979955,"zip":"7500000"},{"town":"大字高畑","koaza":"","lat":33.98653,"lng":130.968113,"zip":"7500000"},{"town":"大字田倉","koaza":"","lat":34.021546,"lng":130.971838,"zip":"7500000"},{"town":"大字冨任","koaza":"","lat":34.019385,"lng":130.931107,"zip":"7500000"},{"town":"大字豊浦村","koaza":"","lat":33.995586,"lng":130.977073,"zip":"7500000"},{"town":"大字永田郷","koaza":"","lat":34.088144,"lng":130.896624,"zip":"7500000"},{"town":"大字延行","koaza":"","lat":34.013435,"lng":130.939793,"zip":"7500000"},{"town":"大字彦島","koaza":"","lat":33.933414,"lng":130.929827,"zip":"7500000"},{"town":"大字福江","koaza":"","lat":34.048143,"lng":130.924378,"zip":"7500000"},{"town":"大字藤ケ谷","koaza":"","lat":33.982615,"lng":130.959557,"zip":"7500000"},{"town":"大字蓋井島","koaza":"","lat":34.103645,"lng":130.786664,"zip":"7500000"},{"town":"大字前田","koaza":"","lat":33.976876,"lng":130.971041,"zip":"7500000"},{"town":"大字松小田","koaza":"","lat":34.024734,"lng":130.991319,"zip":"7500000"},{"town":"大字松屋","koaza":"","lat":34.059119,"lng":131.071199,"zip":"7500000"},{"town":"大字椋野","koaza":"","lat":33.974734,"lng":130.957802,"zip":"7500000"},{"town":"大字六連島","koaza":"","lat":33.975601,"lng":130.863248,"zip":"7500000"},{"town":"大字安岡","koaza":"","lat":34.035868,"lng":130.930696,"zip":"7500000"},{"town":"大字山田","koaza":"","lat":34.059711,"lng":130.993167,"zip":"7500000"},{"town":"大字横野","koaza":"","lat":34.03598,"lng":130.916415,"zip":"7500000"},{"town":"大字吉田","koaza":"","lat":34.088898,"lng":131.063247,"zip":"7500000"},{"town":"大字吉田地方","koaza":"","lat":34.092837,"lng":131.088183,"zip":"7500000"},{"town":"大字吉見上","koaza":"","lat":34.088929,"lng":130.920117,"zip":"7500000"},{"town":"大字吉見下","koaza":"","lat":34.066345,"lng":130.921249,"zip":"7500000"},{"town":"大字吉母","koaza":"","lat":34.100339,"lng":130.881069,"zip":"7500000"},{"town":"小月市原町","koaza":"","lat":34.076297,"lng":131.032053,"zip":"7501147"},{"town":"小月駅前一丁目","koaza":"","lat":34.068875,"lng":131.033011,"zip":"7501143"},{"town":"小月京泊","koaza":"","lat":34.070465,"lng":131.045542,"zip":"7501134"},{"town":"小月公園町","koaza":"","lat":34.072466,"lng":131.031601,"zip":"7501146"},{"town":"小月小島一丁目","koaza":"","lat":34.066192,"lng":131.038158,"zip":"7501136"},{"town":"小月小島二丁目","koaza":"","lat":34.066586,"lng":131.042312,"zip":"7501136"},{"town":"小月幸町","koaza":"","lat":34.077841,"lng":131.034953,"zip":"7501141"},{"town":"小月杉迫一丁目","koaza":"","lat":34.072764,"lng":131.029436,"zip":"7501145"},{"town":"小月杉迫二丁目","koaza":"","lat":34.072123,"lng":131.026769,"zip":"7501145"},{"town":"小月杉迫三丁目","koaza":"","lat":34.076094,"lng":131.027097,"zip":"7501145"},{"town":"小月高雄町","koaza":"","lat":34.073858,"lng":131.043282,"zip":"7501133"},{"town":"小月茶屋一丁目","koaza":"","lat":34.069985,"lng":131.032006,"zip":"7501144"},{"town":"小月茶屋二丁目","koaza":"","lat":34.067437,"lng":131.029659,"zip":"7501144"},{"town":"小月茶屋三丁目","koaza":"","lat":34.069905,"lng":131.026196,"zip":"7501144"},{"town":"小月西の台","koaza":"","lat":34.069285,"lng":131.043223,"zip":"7501135"},{"town":"小月本町一丁目","koaza":"","lat":34.072089,"lng":131.033627,"zip":"7501142"},{"town":"小月本町二丁目","koaza":"","lat":34.072239,"lng":131.036191,"zip":"7501142"},{"town":"小月南町","koaza":"","lat":34.060246,"lng":131.037634,"zip":"7501137"},{"town":"小月宮の町","koaza":"","lat":34.073291,"lng":131.039566,"zip":"7501132"},{"town":"卸新町","koaza":"","lat":33.98549,"lng":130.949681,"zip":"7510818"},{"town":"梶栗町一丁目","koaza":"","lat":34.016184,"lng":130.918151,"zip":"7596614"},{"town":"梶栗町二丁目","koaza":"","lat":34.014245,"lng":130.918337,"zip":"7596614"},{"town":"梶栗町三丁目","koaza":"","lat":34.015609,"lng":130.920769,"zip":"7596614"},{"town":"梶栗町五丁目","koaza":"","lat":34.015938,"lng":130.925797,"zip":"7596614"},{"town":"春日町","koaza":"","lat":33.959495,"lng":130.929237,"zip":"7500031"},{"town":"員光町一丁目","koaza":"","lat":34.052659,"lng":131.00337,"zip":"7520903"},{"town":"員光町二丁目","koaza":"","lat":34.055283,"lng":131.003707,"zip":"7520903"},{"town":"員光町三丁目","koaza":"","lat":34.052322,"lng":130.997972,"zip":"7520903"},{"town":"員光町四丁目","koaza":"","lat":34.04953,"lng":131.00062,"zip":"7520903"},{"town":"形山町","koaza":"","lat":34.016068,"lng":130.958643,"zip":"7510888"},{"town":"形山みどり町","koaza":"","lat":34.01589,"lng":130.955159,"zip":"7510885"},{"town":"上新地町一丁目","koaza":"","lat":33.958789,"lng":130.921148,"zip":"7500061"},{"town":"上新地町二丁目","koaza":"","lat":33.961977,"lng":130.920872,"zip":"7500061"},{"town":"上新地町三丁目","koaza":"","lat":33.959164,"lng":130.919094,"zip":"7500061"},{"town":"上新地町四丁目","koaza":"","lat":33.956615,"lng":130.91593,"zip":"7500061"},{"town":"上新地町五丁目","koaza":"","lat":33.958602,"lng":130.916304,"zip":"7500061"},{"town":"上田中町一丁目","koaza":"","lat":33.966676,"lng":130.938294,"zip":"7500009"},{"town":"上田中町二丁目","koaza":"","lat":33.963982,"lng":130.940283,"zip":"7500009"},{"town":"上田中町三丁目","koaza":"","lat":33.960897,"lng":130.939511,"zip":"7500009"},{"town":"上田中町四丁目","koaza":"","lat":33.963391,"lng":130.937114,"zip":"7500009"},{"town":"上田中町五丁目","koaza":"","lat":33.961695,"lng":130.935722,"zip":"7500009"},{"town":"上田中町六丁目","koaza":"","lat":33.959904,"lng":130.935187,"zip":"7500009"},{"town":"上田中町七丁目","koaza":"","lat":33.961476,"lng":130.93235,"zip":"7500009"},{"town":"上田中町八丁目","koaza":"","lat":33.96359,"lng":130.934502,"zip":"7500009"},{"town":"亀浜町","koaza":"","lat":34.032161,"lng":131.016094,"zip":"7520925"},{"town":"唐戸町","koaza":"","lat":33.957118,"lng":130.943434,"zip":"7500005"},{"town":"川中本町","koaza":"","lat":34.000331,"lng":130.930689,"zip":"7510859"},{"town":"川中本町一丁目","koaza":"","lat":33.99817,"lng":130.933332,"zip":"7510859"},{"town":"川中本町二丁目","koaza":"","lat":34.001764,"lng":130.929096,"zip":"7510859"},{"town":"川中豊町一丁目","koaza":"","lat":33.99938,"lng":130.93692,"zip":"7510853"},{"town":"川中豊町二丁目","koaza":"","lat":33.997169,"lng":130.935723,"zip":"7510853"},{"town":"川中豊町三丁目","koaza":"","lat":33.997276,"lng":130.938969,"zip":"7510853"},{"town":"川中豊町四丁目","koaza":"","lat":33.998291,"lng":130.940716,"zip":"7510853"},{"town":"川中豊町五丁目","koaza":"","lat":33.995455,"lng":130.938959,"zip":"7510853"},{"town":"川中豊町六丁目","koaza":"","lat":33.995415,"lng":130.935638,"zip":"7510853"},{"town":"川中豊町七丁目","koaza":"","lat":33.993673,"lng":130.937536,"zip":"7510853"},{"town":"関西町","koaza":"","lat":33.957901,"lng":130.927668,"zip":"7500032"},{"town":"関西本町","koaza":"","lat":33.956562,"lng":130.926363,"zip":"7500022"},{"town":"神田町一丁目","koaza":"","lat":33.964396,"lng":130.923822,"zip":"7500044"},{"town":"神田町二丁目","koaza":"","lat":33.962342,"lng":130.925441,"zip":"7500044"},{"town":"観音崎町","koaza":"","lat":33.952984,"lng":130.938233,"zip":"7500012"},{"town":"菊川町大字上大野","koaza":"","lat":34.111851,"lng":131.05039,"zip":"7500000"},{"town":"菊川町大字上岡枝","koaza":"","lat":34.158269,"lng":131.020741,"zip":"7500000"},{"town":"菊川町大字上田部","koaza":"","lat":34.102438,"lng":131.023622,"zip":"7500000"},{"town":"菊川町大字上保木","koaza":"","lat":34.132077,"lng":131.047478,"zip":"7500000"},{"town":"菊川町大字貴飯","koaza":"","lat":34.160489,"lng":130.998257,"zip":"7500000"},{"town":"菊川町大字轡井","koaza":"","lat":34.118687,"lng":131.081307,"zip":"7500000"},{"town":"菊川町大字久野","koaza":"","lat":34.149458,"lng":130.967415,"zip":"7500000"},{"town":"菊川町大字下大野","koaza":"","lat":34.097025,"lng":131.051483,"zip":"7500000"},{"town":"菊川町大字下岡枝","koaza":"","lat":34.133573,"lng":131.036055,"zip":"7500000"},{"town":"菊川町大字下保木","koaza":"","lat":34.116826,"lng":131.060799,"zip":"7500000"},{"town":"菊川町大字田部","koaza":"","lat":34.108873,"lng":131.038406,"zip":"7500000"},{"town":"菊川町大字七見","koaza":"","lat":34.109898,"lng":131.006642,"zip":"7500000"},{"town":"菊川町大字楢崎","koaza":"","lat":34.137213,"lng":130.995167,"zip":"7500000"},{"town":"菊川町大字西中山","koaza":"","lat":34.15204,"lng":131.03656,"zip":"7500000"},{"town":"菊川町大字日新","koaza":"","lat":34.126773,"lng":130.981489,"zip":"7500000"},{"town":"菊川町大字東中山","koaza":"","lat":34.146178,"lng":131.058509,"zip":"7500000"},{"town":"菊川町大字道市","koaza":"","lat":34.133282,"lng":131.076197,"zip":"7500000"},{"town":"菊川町大字樅ノ木","koaza":"","lat":34.143677,"lng":131.076441,"zip":"7500000"},{"town":"菊川町大字吉賀","koaza":"","lat":34.129854,"lng":131.015007,"zip":"7500000"},{"town":"貴船町一丁目","koaza":"","lat":33.964134,"lng":130.944051,"zip":"7510823"},{"town":"貴船町二丁目","koaza":"","lat":33.966343,"lng":130.94427,"zip":"7510823"},{"town":"貴船町三丁目","koaza":"","lat":33.969343,"lng":130.943677,"zip":"7510823"},{"town":"貴船町四丁目","koaza":"","lat":33.971135,"lng":130.939581,"zip":"7510823"},{"town":"清末鞍馬一丁目","koaza":"","lat":34.062079,"lng":131.023878,"zip":"7501153"},{"town":"清末鞍馬二丁目","koaza":"","lat":34.061769,"lng":131.02639,"zip":"7501153"},{"town":"清末鞍馬三丁目","koaza":"","lat":34.064776,"lng":131.0278,"zip":"7501153"},{"town":"清末鞍馬四丁目","koaza":"","lat":34.065446,"lng":131.025651,"zip":"7501153"},{"town":"清末鞍馬五丁目","koaza":"","lat":34.068402,"lng":131.023027,"zip":"7501153"},{"town":"清末五毛一丁目","koaza":"","lat":34.055208,"lng":131.021832,"zip":"7501162"},{"town":"清末陣屋","koaza":"","lat":34.066396,"lng":131.021315,"zip":"7501152"},{"town":"清末千房一丁目","koaza":"","lat":34.05528,"lng":131.016,"zip":"7501163"},{"town":"清末千房二丁目","koaza":"","lat":34.053299,"lng":131.018116,"zip":"7501163"},{"town":"清末千房三丁目","koaza":"","lat":34.052316,"lng":131.020646,"zip":"7501163"},{"town":"清末大門","koaza":"","lat":34.061714,"lng":131.015663,"zip":"7501164"},{"town":"清末中町一丁目","koaza":"","lat":34.058312,"lng":131.024186,"zip":"7501155"},{"town":"清末中町二丁目","koaza":"","lat":34.057357,"lng":131.025696,"zip":"7501155"},{"town":"清末中町三丁目","koaza":"","lat":34.056173,"lng":131.027437,"zip":"7501155"},{"town":"清末西町一丁目","koaza":"","lat":34.06283,"lng":131.019704,"zip":"7501161"},{"town":"清末西町二丁目","koaza":"","lat":34.060278,"lng":131.019627,"zip":"7501161"},{"town":"清末西町三丁目","koaza":"","lat":34.057267,"lng":131.020639,"zip":"7501161"},{"town":"清末東町一丁目","koaza":"","lat":34.051459,"lng":131.023568,"zip":"7501156"},{"town":"清末東町二丁目","koaza":"","lat":34.050213,"lng":131.028094,"zip":"7501156"},{"town":"清末東町三丁目","koaza":"","lat":34.052151,"lng":131.030666,"zip":"7501156"},{"town":"清末東町四丁目","koaza":"","lat":34.055408,"lng":131.029794,"zip":"7501156"},{"town":"清末東町五丁目","koaza":"","lat":34.054782,"lng":131.033454,"zip":"7501156"},{"town":"清末東町六丁目","koaza":"","lat":34.057886,"lng":131.033983,"zip":"7501156"},{"town":"清末本町","koaza":"","lat":34.059595,"lng":131.022475,"zip":"7501154"},{"town":"楠乃一丁目","koaza":"","lat":33.990536,"lng":130.953311,"zip":"7510804"},{"town":"楠乃二丁目","koaza":"","lat":33.996454,"lng":130.959546,"zip":"7510804"},{"town":"楠乃三丁目","koaza":"","lat":33.998355,"lng":130.970318,"zip":"7510804"},{"town":"楠乃四丁目","koaza":"","lat":34.000858,"lng":130.967258,"zip":"7510804"},{"town":"楠乃五丁目","koaza":"","lat":34.000187,"lng":130.972019,"zip":"7510804"},{"town":"熊野町一丁目","koaza":"","lat":33.989914,"lng":130.942511,"zip":"7510852"},{"town":"熊野町二丁目","koaza":"","lat":33.992851,"lng":130.943803,"zip":"7510852"},{"town":"熊野町三丁目","koaza":"","lat":33.992893,"lng":130.946269,"zip":"7510852"},{"town":"熊野西町","koaza":"","lat":33.995416,"lng":130.942971,"zip":"7510851"},{"town":"工領開作","koaza":"","lat":34.041596,"lng":131.064788,"zip":"7500000"},{"town":"向洋町一丁目","koaza":"","lat":33.965564,"lng":130.932636,"zip":"7500041"},{"town":"向洋町二丁目","koaza":"","lat":33.961769,"lng":130.930774,"zip":"7500041"},{"town":"向洋町三丁目","koaza":"","lat":33.962413,"lng":130.928877,"zip":"7500041"},{"town":"木屋川一丁目","koaza":"","lat":34.076958,"lng":131.070224,"zip":"7501112"},{"town":"木屋川二丁目","koaza":"","lat":34.079456,"lng":131.071493,"zip":"7501112"},{"town":"木屋川本町一丁目","koaza":"","lat":34.074225,"lng":131.066176,"zip":"7501112"},{"town":"木屋川本町二丁目","koaza":"","lat":34.076653,"lng":131.065141,"zip":"7501112"},{"town":"木屋川本町三丁目","koaza":"","lat":34.077216,"lng":131.060707,"zip":"7501112"},{"town":"木屋川本町四丁目","koaza":"","lat":34.077487,"lng":131.057211,"zip":"7501112"},{"town":"木屋川本町五丁目","koaza":"","lat":34.076776,"lng":131.054097,"zip":"7501112"},{"town":"木屋川南町一丁目","koaza":"","lat":34.072207,"lng":131.063313,"zip":"7501113"},{"town":"木屋川南町二丁目","koaza":"","lat":34.073049,"lng":131.055403,"zip":"7501113"},{"town":"木屋川南町三丁目","koaza":"","lat":34.069373,"lng":131.058849,"zip":"7501113"},{"town":"木屋川南町四丁目","koaza":"","lat":34.070233,"lng":131.053117,"zip":"7501113"},{"town":"金比羅町","koaza":"","lat":33.968884,"lng":130.916361,"zip":"7500058"},{"town":"幸町","koaza":"","lat":33.961889,"lng":130.94355,"zip":"7500001"},{"town":"栄町","koaza":"","lat":33.965799,"lng":130.928728,"zip":"7500049"},{"town":"桜山町","koaza":"","lat":33.960753,"lng":130.922,"zip":"7500035"},{"town":"笹山町","koaza":"","lat":33.953424,"lng":130.927526,"zip":"7500024"},{"town":"汐入町","koaza":"","lat":33.973522,"lng":130.916926,"zip":"7500059"},{"town":"勝谷新町一丁目","koaza":"","lat":34.003261,"lng":130.969168,"zip":"7510802"},{"town":"勝谷新町二丁目","koaza":"","lat":34.006225,"lng":130.969787,"zip":"7510802"},{"town":"勝谷新町三丁目","koaza":"","lat":34.006019,"lng":130.97184,"zip":"7510802"},{"town":"勝谷新町四丁目","koaza":"","lat":34.005686,"lng":130.974609,"zip":"7510802"},{"town":"白崎一丁目","koaza":"","lat":34.058803,"lng":131.041264,"zip":"7501116"},{"town":"白崎二丁目","koaza":"","lat":34.056142,"lng":131.045096,"zip":"7501116"},{"town":"白崎三丁目","koaza":"","lat":34.059577,"lng":131.048305,"zip":"7501116"},{"town":"白崎四丁目","koaza":"","lat":34.055779,"lng":131.050622,"zip":"7501116"},{"town":"新垢田西町一丁目","koaza":"","lat":33.987735,"lng":130.91398,"zip":"7510844"},{"town":"新垢田西町三丁目","koaza":"","lat":33.987192,"lng":130.912764,"zip":"7510844"},{"town":"新垢田西町四丁目","koaza":"","lat":33.989153,"lng":130.910771,"zip":"7510844"},{"town":"新垢田東町一丁目","koaza":"","lat":33.988803,"lng":130.915807,"zip":"7510843"},{"town":"新地町","koaza":"","lat":33.955774,"lng":130.921246,"zip":"7500063"},{"town":"新地西町","koaza":"","lat":33.956729,"lng":130.91997,"zip":"7500062"},{"town":"新椋野一丁目","koaza":"","lat":33.983395,"lng":130.947279,"zip":"7510820"},{"town":"新椋野二丁目","koaza":"","lat":33.982154,"lng":130.944993,"zip":"7510820"},{"town":"新椋野三丁目","koaza":"","lat":33.984507,"lng":130.944244,"zip":"7510820"},{"town":"筋ケ浜町","koaza":"","lat":33.961464,"lng":130.913001,"zip":"7500056"},{"town":"筋川町","koaza":"","lat":33.965446,"lng":130.915721,"zip":"7500057"},{"town":"大学町一丁目","koaza":"","lat":33.986274,"lng":130.933312,"zip":"7510831"},{"town":"大学町二丁目","koaza":"","lat":33.988336,"lng":130.933943,"zip":"7510831"},{"town":"大学町三丁目","koaza":"","lat":33.990399,"lng":130.93623,"zip":"7510831"},{"town":"大学町四丁目","koaza":"","lat":33.992098,"lng":130.937309,"zip":"7510831"},{"town":"大学町五丁目","koaza":"","lat":33.987306,"lng":130.937739,"zip":"7510831"},{"town":"大平町","koaza":"","lat":33.963947,"lng":130.918878,"zip":"7500053"},{"town":"宝町","koaza":"","lat":33.982176,"lng":130.939673,"zip":"7510822"},{"town":"田倉御殿町一丁目","koaza":"","lat":34.015727,"lng":130.974004,"zip":"7510882"},{"town":"田倉御殿町二丁目","koaza":"","lat":34.015638,"lng":130.975167,"zip":"7510882"},{"town":"竹崎町一丁目","koaza":"","lat":33.952445,"lng":130.925817,"zip":"7500025"},{"town":"竹崎町二丁目","koaza":"","lat":33.952536,"lng":130.924178,"zip":"7500025"},{"town":"竹崎町三丁目","koaza":"","lat":33.952424,"lng":130.921502,"zip":"7500025"},{"town":"竹崎町四丁目","koaza":"","lat":33.949555,"lng":130.924361,"zip":"7500025"},{"town":"田中町","koaza":"","lat":33.959754,"lng":130.941045,"zip":"7500008"},{"town":"壇之浦町","koaza":"","lat":33.962798,"lng":130.953519,"zip":"7510814"},{"town":"千鳥ケ丘町","koaza":"","lat":34.032695,"lng":131.006576,"zip":"7520922"},{"town":"千鳥浜町","koaza":"","lat":34.036162,"lng":131.02016,"zip":"7520914"},{"town":"中央町","koaza":"","lat":33.961432,"lng":130.928602,"zip":"7500042"},{"town":"長府安養寺一丁目","koaza":"","lat":34.007805,"lng":130.98266,"zip":"7520962"},{"town":"長府安養寺二丁目","koaza":"","lat":34.00294,"lng":130.982313,"zip":"7520962"},{"town":"長府安養寺三丁目","koaza":"","lat":34.001117,"lng":130.982605,"zip":"7520962"},{"town":"長府安養寺四丁目","koaza":"","lat":34.003531,"lng":130.984599,"zip":"7520962"},{"town":"長府印内町","koaza":"","lat":34.004839,"lng":130.992081,"zip":"7520957"},{"town":"長府江下町","koaza":"","lat":34.012376,"lng":130.996005,"zip":"7520952"},{"town":"長府扇町","koaza":"","lat":34.018592,"lng":131.013276,"zip":"7520927"},{"town":"長府逢坂町","koaza":"","lat":33.998544,"lng":130.979805,"zip":"7520971"},{"town":"長府金屋町","koaza":"","lat":34.002332,"lng":130.989994,"zip":"7520959"},{"town":"長府金屋浜町","koaza":"","lat":34.001945,"lng":130.99128,"zip":"7520958"},{"town":"長府亀の甲一丁目","koaza":"","lat":34.00112,"lng":130.987653,"zip":"7520966"},{"town":"長府亀の甲二丁目","koaza":"","lat":34.002753,"lng":130.987417,"zip":"7520966"},{"town":"長府川端一丁目","koaza":"","lat":33.995686,"lng":130.981889,"zip":"7520979"},{"town":"長府川端二丁目","koaza":"","lat":33.99394,"lng":130.983815,"zip":"7520979"},{"town":"長府黒門町","koaza":"","lat":33.984613,"lng":130.9841,"zip":"7520980"},{"town":"長府黒門東町","koaza":"","lat":33.989998,"lng":130.989613,"zip":"7520986"},{"town":"長府黒門南町","koaza":"","lat":33.986133,"lng":130.986815,"zip":"7520989"},{"town":"長府古城町","koaza":"","lat":34.011045,"lng":130.992795,"zip":"7520954"},{"town":"長府紺屋町","koaza":"","lat":34.001666,"lng":130.986024,"zip":"7520968"},{"town":"長府才川二丁目","koaza":"","lat":34.024085,"lng":131.003613,"zip":"7520928"},{"town":"長府侍町一丁目","koaza":"","lat":33.994205,"lng":130.986756,"zip":"7520978"},{"town":"長府侍町二丁目","koaza":"","lat":33.995399,"lng":130.98968,"zip":"7520978"},{"town":"長府四王司町","koaza":"","lat":34.018754,"lng":130.985998,"zip":"7520942"},{"town":"長府新四王司町","koaza":"","lat":34.018854,"lng":130.983673,"zip":"7520941"},{"town":"長府新松原町","koaza":"","lat":33.992316,"lng":130.988805,"zip":"7520982"},{"town":"長府惣社町","koaza":"","lat":33.997194,"lng":130.985528,"zip":"7520970"},{"town":"長府外浦町","koaza":"","lat":33.987832,"lng":130.991804,"zip":"7520985"},{"town":"長府高場町","koaza":"","lat":33.978772,"lng":130.976913,"zip":"7520994"},{"town":"長府珠の浦町","koaza":"","lat":34.007502,"lng":130.978398,"zip":"7520961"},{"town":"長府土居の内町","koaza":"","lat":33.999194,"lng":130.989662,"zip":"7520974"},{"town":"長府豊浦町","koaza":"","lat":34.010314,"lng":130.989083,"zip":"7520945"},{"town":"長府中尾町","koaza":"","lat":34.009277,"lng":130.986403,"zip":"7520946"},{"town":"長府中土居北町","koaza":"","lat":34.007614,"lng":130.987849,"zip":"7520963"},{"town":"長府中土居本町","koaza":"","lat":34.006158,"lng":130.989871,"zip":"7520964"},{"town":"長府中之町","koaza":"","lat":34.000363,"lng":130.990061,"zip":"7520973"},{"town":"長府中浜町","koaza":"","lat":33.998228,"lng":130.989329,"zip":"7520975"},{"town":"長府中六波町","koaza":"","lat":34.012739,"lng":130.992212,"zip":"7520944"},{"town":"長府野久留米町","koaza":"","lat":33.990859,"lng":130.979734,"zip":"7520992"},{"town":"長府羽衣町","koaza":"","lat":33.989683,"lng":130.987105,"zip":"7520987"},{"town":"長府羽衣南町","koaza":"","lat":33.989244,"lng":130.985296,"zip":"7520988"},{"town":"長府浜浦町","koaza":"","lat":33.983308,"lng":130.979879,"zip":"7520993"},{"town":"長府浜浦西町","koaza":"","lat":33.986509,"lng":130.978416,"zip":"7520998"},{"town":"長府浜浦南町","koaza":"","lat":33.980383,"lng":130.977591,"zip":"7520995"},{"town":"長府東侍町","koaza":"","lat":33.994879,"lng":130.992249,"zip":"7520977"},{"town":"長府日の出町","koaza":"","lat":34.015127,"lng":130.993785,"zip":"7520951"},{"town":"長府古江小路町","koaza":"","lat":33.99825,"lng":130.985662,"zip":"7520972"},{"town":"長府豊城町","koaza":"","lat":34.01443,"lng":130.989947,"zip":"7520943"},{"town":"長府前八幡町","koaza":"","lat":34.007643,"lng":130.993414,"zip":"7520956"},{"town":"長府松小田北町","koaza":"","lat":34.022134,"lng":130.997916,"zip":"7520932"},{"town":"長府松小田中町","koaza":"","lat":34.019068,"lng":130.99433,"zip":"7520935"},{"town":"長府松小田西町","koaza":"","lat":34.01749,"lng":130.988973,"zip":"7520937"},{"town":"長府松小田東町","koaza":"","lat":34.019205,"lng":131.00314,"zip":"7520934"},{"town":"長府松小田本町","koaza":"","lat":34.017585,"lng":130.999499,"zip":"7520933"},{"town":"長府松小田南町","koaza":"","lat":34.016016,"lng":130.996408,"zip":"7520936"},{"town":"長府松原町","koaza":"","lat":33.993247,"lng":130.990134,"zip":"7520983"},{"town":"長府満珠新町","koaza":"","lat":34.012783,"lng":130.98418,"zip":"7520948"},{"town":"長府満珠町","koaza":"","lat":34.013787,"lng":130.988386,"zip":"7520947"},{"town":"長府三島町","koaza":"","lat":34.005674,"lng":130.985816,"zip":"7520965"},{"town":"長府港町","koaza":"","lat":34.006675,"lng":130.997714,"zip":"7520953"},{"town":"長府南之町","koaza":"","lat":33.997144,"lng":130.989286,"zip":"7520976"},{"town":"長府宮崎町","koaza":"","lat":33.991375,"lng":130.993487,"zip":"7520984"},{"town":"長府宮の内町","koaza":"","lat":33.999635,"lng":130.98573,"zip":"7520967"},{"town":"長府向田町","koaza":"","lat":33.981857,"lng":130.975537,"zip":"7520996"},{"town":"長府八幡町","koaza":"","lat":34.009341,"lng":130.993877,"zip":"7520955"},{"town":"富任町四丁目","koaza":"","lat":34.023438,"lng":130.919856,"zip":"7596613"},{"town":"富任町五丁目","koaza":"","lat":34.02351,"lng":130.924112,"zip":"7596613"},{"town":"富任町六丁目","koaza":"","lat":34.019646,"lng":130.923277,"zip":"7596613"},{"town":"富任町七丁目","koaza":"","lat":34.019613,"lng":130.926062,"zip":"7596613"},{"town":"富任町八丁目","koaza":"","lat":34.02244,"lng":130.928965,"zip":"7596613"},{"town":"豊浦町大字厚母郷","koaza":"","lat":34.110442,"lng":130.903197,"zip":"7500000"},{"town":"豊浦町大字宇賀","koaza":"","lat":34.217779,"lng":130.938231,"zip":"7500000"},{"town":"豊浦町大字川棚","koaza":"","lat":34.16809,"lng":130.957235,"zip":"7500000"},{"town":"豊浦町大字黒井","koaza":"","lat":34.119259,"lng":130.920681,"zip":"7500000"},{"town":"豊浦町大字小串","koaza":"","lat":34.176768,"lng":130.937634,"zip":"7500000"},{"town":"豊浦町大字室津上","koaza":"","lat":34.117468,"lng":130.880802,"zip":"7500000"},{"town":"豊浦町大字室津下","koaza":"","lat":34.13243,"lng":130.881898,"zip":"7500000"},{"town":"豊浦町大字吉永","koaza":"","lat":34.129701,"lng":130.925863,"zip":"7500000"},{"town":"豊浦町大字涌田後地","koaza":"","lat":34.148394,"lng":130.907792,"zip":"7500000"},{"town":"豊浦町豊洋台一丁目","koaza":"","lat":34.114926,"lng":130.910463,"zip":"7596313"},{"town":"豊浦町豊洋台二丁目","koaza":"","lat":34.115917,"lng":130.912924,"zip":"7596313"},{"town":"豊浦町豊洋台三丁目","koaza":"","lat":34.112322,"lng":130.913531,"zip":"7596313"},{"town":"豊浦町豊洋台新町","koaza":"","lat":34.118957,"lng":130.910983,"zip":"7596313"},{"town":"豊田町大字阿座上","koaza":"","lat":34.193085,"lng":131.056749,"zip":"7500000"},{"town":"豊田町大字荒木","koaza":"","lat":34.254291,"lng":131.047742,"zip":"7500000"},{"town":"豊田町大字一ノ俣","koaza":"","lat":34.283486,"lng":131.05762,"zip":"7500000"},{"town":"豊田町大字稲見","koaza":"","lat":34.24648,"lng":131.092779,"zip":"7500000"},{"town":"豊田町大字稲光","koaza":"","lat":34.182599,"lng":131.083458,"zip":"7500000"},{"town":"豊田町大字今出","koaza":"","lat":34.248732,"lng":131.149384,"zip":"7500000"},{"town":"豊田町大字浮石","koaza":"","lat":34.241202,"lng":131.049311,"zip":"7500000"},{"town":"豊田町大字宇内","koaza":"","lat":34.239545,"lng":131.076311,"zip":"7500000"},{"town":"豊田町大字江良","koaza":"","lat":34.180025,"lng":131.04404,"zip":"7500000"},{"town":"豊田町大字大河内","koaza":"","lat":34.225927,"lng":131.121628,"zip":"7500000"},{"town":"豊田町大字城戸","koaza":"","lat":34.156304,"lng":131.065395,"zip":"7500000"},{"town":"豊田町大字金道","koaza":"","lat":34.226804,"lng":131.068506,"zip":"7500000"},{"town":"豊田町大字佐野","koaza":"","lat":34.264336,"lng":131.046997,"zip":"7500000"},{"town":"豊田町大字地吉","koaza":"","lat":34.25156,"lng":131.118632,"zip":"7500000"},{"town":"豊田町大字鷹子","koaza":"","lat":34.206037,"lng":131.03923,"zip":"7500000"},{"town":"豊田町大字高山","koaza":"","lat":34.16947,"lng":131.073104,"zip":"7500000"},{"town":"豊田町大字手洗","koaza":"","lat":34.178894,"lng":131.06687,"zip":"7500000"},{"town":"豊田町大字殿居","koaza":"","lat":34.266252,"lng":131.029833,"zip":"7500000"},{"town":"豊田町大字殿敷","koaza":"","lat":34.19371,"lng":131.091911,"zip":"7500000"},{"town":"豊田町大字中村","koaza":"","lat":34.191704,"lng":131.07184,"zip":"7500000"},{"town":"豊田町大字楢原","koaza":"","lat":34.21306,"lng":131.089122,"zip":"7500000"},{"town":"豊田町大字西市","koaza":"","lat":34.202335,"lng":131.075424,"zip":"7500000"},{"town":"豊田町大字西長野","koaza":"","lat":34.171474,"lng":131.055081,"zip":"7500000"},{"town":"豊田町大字庭田","koaza":"","lat":34.201046,"lng":131.057897,"zip":"7500000"},{"town":"豊田町大字萩原","koaza":"","lat":34.159533,"lng":131.083488,"zip":"7500000"},{"town":"豊田町大字東長野","koaza":"","lat":34.168274,"lng":131.061996,"zip":"7500000"},{"town":"豊田町大字日野","koaza":"","lat":34.174688,"lng":131.081706,"zip":"7500000"},{"town":"豊田町大字杢路子","koaza":"","lat":34.216146,"lng":131.001653,"zip":"7500000"},{"town":"豊田町大字八道","koaza":"","lat":34.218344,"lng":131.059997,"zip":"7500000"},{"town":"豊田町大字矢田","koaza":"","lat":34.202244,"lng":131.070797,"zip":"7500000"},{"town":"長崎新町","koaza":"","lat":33.954962,"lng":130.926029,"zip":"7500023"},{"town":"長崎中央町","koaza":"","lat":33.956038,"lng":130.929242,"zip":"7500021"},{"town":"長崎町一丁目","koaza":"","lat":33.957821,"lng":130.923553,"zip":"7500029"},{"town":"長崎本町","koaza":"","lat":33.956778,"lng":130.924862,"zip":"7500028"},{"town":"永田本町一丁目","koaza":"","lat":34.072623,"lng":130.895829,"zip":"7596533"},{"town":"永田本町二丁目","koaza":"","lat":34.071183,"lng":130.893494,"zip":"7596533"},{"town":"永田本町三丁目","koaza":"","lat":34.075954,"lng":130.893709,"zip":"7596533"},{"town":"永田本町四丁目","koaza":"","lat":34.069514,"lng":130.890357,"zip":"7596533"},{"town":"長門町","koaza":"","lat":33.954039,"lng":130.925265,"zip":"7500026"},{"town":"中之町","koaza":"","lat":33.958166,"lng":130.945306,"zip":"7500004"},{"town":"南部町","koaza":"","lat":33.955763,"lng":130.940383,"zip":"7500006"},{"town":"西入江町","koaza":"","lat":33.953943,"lng":130.933709,"zip":"7500015"},{"town":"西大坪町","koaza":"","lat":33.962553,"lng":130.916647,"zip":"7500054"},{"town":"西神田町","koaza":"","lat":33.960129,"lng":130.923608,"zip":"7500034"},{"town":"西観音町","koaza":"","lat":34.04736,"lng":131.003055,"zip":"7520905"},{"town":"乃木浜一丁目","koaza":"","lat":34.044346,"lng":131.023924,"zip":"7520913"},{"town":"乃木浜二丁目","koaza":"","lat":34.041975,"lng":131.028728,"zip":"7520913"},{"town":"乃木浜三丁目","koaza":"","lat":34.039454,"lng":131.02392,"zip":"7520913"},{"town":"幡生町一丁目","koaza":"","lat":33.977615,"lng":130.939175,"zip":"7510828"},{"town":"幡生町二丁目","koaza":"","lat":33.97786,"lng":130.93285,"zip":"7510828"},{"town":"岬之町","koaza":"","lat":33.951571,"lng":130.935162,"zip":"7500014"},{"town":"稗田北町","koaza":"","lat":33.996452,"lng":130.931754,"zip":"7510857"},{"town":"稗田町","koaza":"","lat":33.994535,"lng":130.931114,"zip":"7510858"},{"town":"稗田中町","koaza":"","lat":33.995481,"lng":130.927827,"zip":"7510856"},{"town":"稗田西町","koaza":"","lat":33.999156,"lng":130.927424,"zip":"7510855"},{"town":"稗田南町","koaza":"","lat":33.991449,"lng":130.929655,"zip":"7510854"},{"town":"東神田町","koaza":"","lat":33.961011,"lng":130.926601,"zip":"7500043"},{"town":"東観音町","koaza":"","lat":34.047152,"lng":131.008571,"zip":"7520906"},{"town":"東勝谷","koaza":"","lat":34.001784,"lng":130.97307,"zip":"7510879"},{"town":"東向山町","koaza":"","lat":33.966114,"lng":130.927644,"zip":"7500048"},{"town":"東大和町一丁目","koaza":"","lat":33.945837,"lng":130.92233,"zip":"7500066"},{"town":"東大和町二丁目","koaza":"","lat":33.943214,"lng":130.921055,"zip":"7500066"},{"town":"彦島海士郷町","koaza":"","lat":33.95157,"lng":130.914974,"zip":"7500071"},{"town":"彦島江の浦町一丁目","koaza":"","lat":33.936144,"lng":130.914265,"zip":"7500075"},{"town":"彦島江の浦町二丁目","koaza":"","lat":33.933295,"lng":130.914231,"zip":"7500075"},{"town":"彦島江の浦町三丁目","koaza":"","lat":33.930396,"lng":130.915753,"zip":"7500075"},{"town":"彦島江の浦町四丁目","koaza":"","lat":33.934354,"lng":130.917923,"zip":"7500075"},{"town":"彦島江の浦町五丁目","koaza":"","lat":33.933025,"lng":130.920269,"zip":"7500075"},{"town":"彦島江の浦町六丁目","koaza":"","lat":33.934831,"lng":130.922147,"zip":"7500075"},{"town":"彦島江の浦町七丁目","koaza":"","lat":33.93131,"lng":130.924285,"zip":"7500075"},{"town":"彦島江の浦町八丁目","koaza":"","lat":33.930059,"lng":130.920713,"zip":"7500075"},{"town":"彦島江の浦町九丁目","koaza":"","lat":33.929168,"lng":130.916671,"zip":"7500075"},{"town":"彦島老の山公園","koaza":"","lat":33.947957,"lng":130.903536,"zip":"7500073"},{"town":"彦島老町一丁目","koaza":"","lat":33.949387,"lng":130.915073,"zip":"7500072"},{"town":"彦島老町二丁目","koaza":"","lat":33.949089,"lng":130.908758,"zip":"7500072"},{"town":"彦島老町三丁目","koaza":"","lat":33.945517,"lng":130.912647,"zip":"7500072"},{"town":"彦島桜ケ丘町","koaza":"","lat":33.921496,"lng":130.922829,"zip":"7500083"},{"town":"彦島迫町一丁目","koaza":"","lat":33.930208,"lng":130.903408,"zip":"7500092"},{"town":"彦島迫町二丁目","koaza":"","lat":33.935355,"lng":130.903022,"zip":"7500092"},{"town":"彦島迫町三丁目","koaza":"","lat":33.938109,"lng":130.900531,"zip":"7500092"},{"town":"彦島迫町四丁目","koaza":"","lat":33.940326,"lng":130.903214,"zip":"7500092"},{"town":"彦島迫町五丁目","koaza":"","lat":33.94142,"lng":130.896501,"zip":"7500092"},{"town":"彦島迫町六丁目","koaza":"","lat":33.947332,"lng":130.901631,"zip":"7500092"},{"town":"彦島迫町七丁目","koaza":"","lat":33.934877,"lng":130.897277,"zip":"7500092"},{"town":"彦島塩浜町一丁目","koaza":"","lat":33.922768,"lng":130.911973,"zip":"7500086"},{"town":"彦島塩浜町二丁目","koaza":"","lat":33.917859,"lng":130.907486,"zip":"7500086"},{"town":"彦島塩浜町三丁目","koaza":"","lat":33.917826,"lng":130.911571,"zip":"7500086"},{"town":"彦島塩浜町四丁目","koaza":"","lat":33.915709,"lng":130.904876,"zip":"7500086"},{"town":"彦島杉田町一丁目","koaza":"","lat":33.928162,"lng":130.922201,"zip":"7500078"},{"town":"彦島杉田町二丁目","koaza":"","lat":33.925937,"lng":130.921292,"zip":"7500078"},{"town":"彦島角倉町一丁目","koaza":"","lat":33.927082,"lng":130.915028,"zip":"7500081"},{"town":"彦島角倉町二丁目","koaza":"","lat":33.92447,"lng":130.914058,"zip":"7500081"},{"town":"彦島角倉町三丁目","koaza":"","lat":33.924539,"lng":130.917643,"zip":"7500081"},{"town":"彦島角倉町四丁目","koaza":"","lat":33.927658,"lng":130.917173,"zip":"7500081"},{"town":"彦島竹ノ子島町","koaza":"","lat":33.951386,"lng":130.877496,"zip":"7500094"},{"town":"彦島田の首町一丁目","koaza":"","lat":33.916413,"lng":130.917478,"zip":"7500085"},{"town":"彦島田の首町二丁目","koaza":"","lat":33.914938,"lng":130.913869,"zip":"7500085"},{"town":"彦島弟子待町一丁目","koaza":"","lat":33.927226,"lng":130.926045,"zip":"7500076"},{"town":"彦島弟子待町二丁目","koaza":"","lat":33.924642,"lng":130.924339,"zip":"7500076"},{"town":"彦島弟子待町三丁目","koaza":"","lat":33.918244,"lng":130.923546,"zip":"7500076"},{"town":"彦島弟子待東町","koaza":"","lat":33.928566,"lng":130.924307,"zip":"7500077"},{"town":"彦島西山町一丁目","koaza":"","lat":33.940857,"lng":130.888766,"zip":"7500093"},{"town":"彦島西山町二丁目","koaza":"","lat":33.946463,"lng":130.888186,"zip":"7500093"},{"town":"彦島西山町三丁目","koaza":"","lat":33.944975,"lng":130.881205,"zip":"7500093"},{"town":"彦島西山町四丁目","koaza":"","lat":33.948717,"lng":130.882124,"zip":"7500093"},{"town":"彦島西山町五丁目","koaza":"","lat":33.950825,"lng":130.88445,"zip":"7500093"},{"town":"彦島福浦町一丁目","koaza":"","lat":33.925996,"lng":130.904398,"zip":"7500087"},{"town":"彦島福浦町二丁目","koaza":"","lat":33.929272,"lng":130.91014,"zip":"7500087"},{"town":"彦島福浦町三丁目","koaza":"","lat":33.926708,"lng":130.912356,"zip":"7500087"},{"town":"彦島本村町一丁目","koaza":"","lat":33.944997,"lng":130.907474,"zip":"7500074"},{"town":"彦島本村町二丁目","koaza":"","lat":33.942999,"lng":130.906474,"zip":"7500074"},{"town":"彦島本村町三丁目","koaza":"","lat":33.943562,"lng":130.911752,"zip":"7500074"},{"town":"彦島本村町四丁目","koaza":"","lat":33.943022,"lng":130.909835,"zip":"7500074"},{"town":"彦島本村町五丁目","koaza":"","lat":33.940766,"lng":130.909249,"zip":"7500074"},{"town":"彦島本村町六丁目","koaza":"","lat":33.939509,"lng":130.912311,"zip":"7500074"},{"town":"彦島本村町七丁目","koaza":"","lat":33.937056,"lng":130.909701,"zip":"7500074"},{"town":"彦島緑町","koaza":"","lat":33.932047,"lng":130.908657,"zip":"7500091"},{"town":"彦島向井町一丁目","koaza":"","lat":33.918549,"lng":130.92109,"zip":"7500084"},{"town":"彦島向井町二丁目","koaza":"","lat":33.919028,"lng":130.91766,"zip":"7500084"},{"town":"彦島山中町一丁目","koaza":"","lat":33.922667,"lng":130.918283,"zip":"7500082"},{"town":"彦島山中町二丁目","koaza":"","lat":33.922151,"lng":130.920847,"zip":"7500082"},{"town":"藤ケ谷町","koaza":"","lat":33.98127,"lng":130.955738,"zip":"7510811"},{"town":"藤附町","koaza":"","lat":33.965495,"lng":130.921521,"zip":"7500052"},{"town":"豊前田町一丁目","koaza":"","lat":33.953588,"lng":130.928961,"zip":"7500018"},{"town":"豊前田町二丁目","koaza":"","lat":33.952076,"lng":130.927167,"zip":"7500018"},{"town":"豊前田町三丁目","koaza":"","lat":33.950443,"lng":130.928865,"zip":"7500018"},{"town":"古屋町一丁目","koaza":"","lat":33.99727,"lng":130.923984,"zip":"7510847"},{"town":"古屋町二丁目","koaza":"","lat":33.999768,"lng":130.920389,"zip":"7510847"},{"town":"豊北町大字阿川","koaza":"","lat":34.32949,"lng":130.929704,"zip":"7500000"},{"town":"豊北町大字粟野","koaza":"","lat":34.330068,"lng":130.986765,"zip":"7500000"},{"town":"豊北町大字神田","koaza":"","lat":34.328149,"lng":130.901143,"zip":"7500000"},{"town":"豊北町大字神田上","koaza":"","lat":34.281659,"lng":130.900956,"zip":"7500000"},{"town":"豊北町大字北宇賀","koaza":"","lat":34.243118,"lng":130.951938,"zip":"7500000"},{"town":"豊北町大字滝部","koaza":"","lat":34.295853,"lng":130.946241,"zip":"7500000"},{"town":"豊北町大字田耕","koaza":"","lat":34.269528,"lng":130.988175,"zip":"7500000"},{"town":"豊北町大字角島","koaza":"","lat":34.354968,"lng":130.859718,"zip":"7500000"},{"town":"豊北町大字矢玉","koaza":"","lat":34.274918,"lng":130.888522,"zip":"7500000"},{"town":"細江新町","koaza":"","lat":33.948528,"lng":130.929297,"zip":"7500017"},{"town":"細江町一丁目","koaza":"","lat":33.952616,"lng":130.932187,"zip":"7500016"},{"town":"細江町二丁目","koaza":"","lat":33.951186,"lng":130.932512,"zip":"7500016"},{"town":"細江町三丁目","koaza":"","lat":33.950777,"lng":130.930667,"zip":"7500016"},{"town":"本町一丁目","koaza":"","lat":33.96389,"lng":130.951542,"zip":"7510815"},{"town":"本町二丁目","koaza":"","lat":33.964626,"lng":130.949619,"zip":"7510815"},{"town":"本町三丁目","koaza":"","lat":33.966244,"lng":130.947752,"zip":"7510815"},{"town":"本町四丁目","koaza":"","lat":33.967766,"lng":130.950957,"zip":"7510815"},{"town":"前勝谷町","koaza":"","lat":34.00649,"lng":130.964929,"zip":"7510803"},{"town":"前田一丁目","koaza":"","lat":33.975073,"lng":130.971087,"zip":"7520997"},{"town":"前田二丁目","koaza":"","lat":33.973438,"lng":130.966441,"zip":"7520997"},{"town":"松屋上町一丁目","koaza":"","lat":34.055046,"lng":131.058649,"zip":"7501122"},{"town":"松屋上町二丁目","koaza":"","lat":34.056322,"lng":131.062172,"zip":"7501122"},{"town":"松屋上町三丁目","koaza":"","lat":34.0598,"lng":131.061646,"zip":"7501122"},{"town":"松屋東町一丁目","koaza":"","lat":34.045503,"lng":131.064464,"zip":"7501123"},{"town":"松屋東町二丁目","koaza":"","lat":34.048311,"lng":131.063124,"zip":"7501123"},{"town":"松屋東町三丁目","koaza":"","lat":34.049854,"lng":131.065418,"zip":"7501123"},{"town":"松屋本町一丁目","koaza":"","lat":34.052902,"lng":131.057163,"zip":"7501124"},{"town":"松屋本町二丁目","koaza":"","lat":34.049423,"lng":131.058837,"zip":"7501124"},{"town":"松屋本町三丁目","koaza":"","lat":34.048269,"lng":131.053324,"zip":"7501124"},{"town":"松屋本町四丁目","koaza":"","lat":34.055453,"lng":131.05396,"zip":"7501124"},{"town":"松屋本町五丁目","koaza":"","lat":34.058466,"lng":131.054544,"zip":"7501124"},{"town":"丸山町一丁目","koaza":"","lat":33.95723,"lng":130.936078,"zip":"7500019"},{"town":"丸山町二丁目","koaza":"","lat":33.958448,"lng":130.934072,"zip":"7500019"},{"town":"丸山町三丁目","koaza":"","lat":33.958302,"lng":130.931362,"zip":"7500019"},{"town":"丸山町四丁目","koaza":"","lat":33.956084,"lng":130.9324,"zip":"7500019"},{"town":"丸山町五丁目","koaza":"","lat":33.954094,"lng":130.931419,"zip":"7500019"},{"town":"三河町","koaza":"","lat":33.987193,"lng":130.942195,"zip":"7510821"},{"town":"南大坪町","koaza":"","lat":33.959874,"lng":130.916162,"zip":"7500055"},{"town":"みもすそ川町","koaza":"","lat":33.968491,"lng":130.956992,"zip":"7510813"},{"town":"宮田町一丁目","koaza":"","lat":33.960965,"lng":130.946983,"zip":"7500002"},{"town":"宮田町二丁目","koaza":"","lat":33.961769,"lng":130.945734,"zip":"7500002"},{"town":"向山町","koaza":"","lat":33.967099,"lng":130.926199,"zip":"7500047"},{"town":"椋野上町","koaza":"","lat":33.975673,"lng":130.953599,"zip":"7510812"},{"town":"椋野町一丁目","koaza":"","lat":33.973575,"lng":130.944926,"zip":"7510816"},{"town":"椋野町二丁目","koaza":"","lat":33.977825,"lng":130.949399,"zip":"7510816"},{"town":"椋野町三丁目","koaza":"","lat":33.980817,"lng":130.943818,"zip":"7510816"},{"town":"名池町","koaza":"","lat":33.958222,"lng":130.937796,"zip":"7500011"},{"town":"元町","koaza":"","lat":33.965877,"lng":130.924646,"zip":"7500045"},{"town":"安岡駅前二丁目","koaza":"","lat":34.023586,"lng":130.914727,"zip":"7596612"},{"town":"安岡町一丁目","koaza":"","lat":34.027406,"lng":130.914674,"zip":"7596603"},{"town":"安岡町二丁目","koaza":"","lat":34.026164,"lng":130.917757,"zip":"7596603"},{"town":"安岡町三丁目","koaza":"","lat":34.027733,"lng":130.919349,"zip":"7596603"},{"town":"安岡町四丁目","koaza":"","lat":34.031061,"lng":130.917919,"zip":"7596603"},{"town":"安岡町五丁目","koaza":"","lat":34.032126,"lng":130.923564,"zip":"7596603"},{"town":"安岡町六丁目","koaza":"","lat":34.03385,"lng":130.926154,"zip":"7596603"},{"town":"安岡町七丁目","koaza":"","lat":34.029022,"lng":130.924707,"zip":"7596603"},{"town":"安岡町八丁目","koaza":"","lat":34.032099,"lng":130.931278,"zip":"7596603"},{"town":"安岡本町一丁目","koaza":"","lat":34.025433,"lng":130.912225,"zip":"7596611"},{"town":"安岡本町二丁目","koaza":"","lat":34.028111,"lng":130.911578,"zip":"7596611"},{"town":"安岡本町三丁目","koaza":"","lat":34.02652,"lng":130.906834,"zip":"7596611"},{"town":"山手町","koaza":"","lat":33.959061,"lng":130.925333,"zip":"7500033"},{"town":"大和町一丁目","koaza":"","lat":33.947821,"lng":130.919404,"zip":"7500067"},{"town":"大和町二丁目","koaza":"","lat":33.941834,"lng":130.91628,"zip":"7500067"},{"town":"山の口町","koaza":"","lat":33.969731,"lng":130.936256,"zip":"7510824"},{"town":"山の田北町","koaza":"","lat":33.991697,"lng":130.932559,"zip":"7510839"},{"town":"山の田中央町","koaza":"","lat":33.987575,"lng":130.926673,"zip":"7510837"},{"town":"山の田西町","koaza":"","lat":33.988234,"lng":130.923345,"zip":"7510836"},{"town":"山の田本町","koaza":"","lat":33.98933,"lng":130.928548,"zip":"7510838"},{"town":"横野町一丁目","koaza":"","lat":34.033292,"lng":130.913706,"zip":"7596604"},{"town":"横野町二丁目","koaza":"","lat":34.029643,"lng":130.908668,"zip":"7596604"},{"town":"横野町三丁目","koaza":"","lat":34.033245,"lng":130.910374,"zip":"7596604"},{"town":"横野町四丁目","koaza":"","lat":34.036663,"lng":130.912051,"zip":"7596604"},{"town":"吉見古宿町","koaza":"","lat":34.06284,"lng":130.903147,"zip":"7596521"},{"town":"吉見里町一丁目","koaza":"","lat":34.072533,"lng":130.900964,"zip":"7596525"},{"town":"吉見里町二丁目","koaza":"","lat":34.074892,"lng":130.904219,"zip":"7596525"},{"town":"吉見新町一丁目","koaza":"","lat":34.070324,"lng":130.899895,"zip":"7596532"},{"town":"吉見新町二丁目","koaza":"","lat":34.071843,"lng":130.89829,"zip":"7596532"},{"town":"吉見本町一丁目","koaza":"","lat":34.069504,"lng":130.902261,"zip":"7596531"},{"town":"吉見本町二丁目","koaza":"","lat":34.067409,"lng":130.903674,"zip":"7596531"},{"town":"吉見竜王町","koaza":"","lat":34.068596,"lng":130.905784,"zip":"7596522"},{"town":"大字阿内","koaza":"","lat":34.088652,"lng":131.004323,"zip":"7500000"},{"town":"長州出島","koaza":"","lat":33.989636,"lng":130.898124,"zip":"7510840"},{"town":"山の田南町","koaza":"","lat":33.985332,"lng":130.925779,"zip":"7510835"},{"town":"武久西原台","koaza":"","lat":33.986274,"lng":130.921509,"zip":"7510819"},{"town":"新垢田南町一丁目","koaza":"","lat":33.987549,"lng":130.916313,"zip":"7510842"},{"town":"新垢田南町二丁目","koaza":"","lat":33.986322,"lng":130.916729,"zip":"7510842"},{"town":"新垢田南町三丁目","koaza":"","lat":33.985213,"lng":130.915598,"zip":"7510842"},{"town":"新垢田西町二丁目","koaza":"","lat":33.985234,"lng":130.913694,"zip":"7510844"},{"town":"梶栗町四丁目","koaza":"","lat":34.015965,"lng":130.922345,"zip":"7596614"},{"town":"富任町三丁目","koaza":"","lat":34.019726,"lng":130.921211,"zip":"7596613"},{"town":"長府才川一丁目","koaza":"","lat":34.028817,"lng":131.008093,"zip":"7520928"},{"town":"ゆめタウン","koaza":"","lat":34.029143,"lng":131.013051,"zip":"7520926"},{"town":"山の田東町","koaza":"","lat":33.985626,"lng":130.928865,"zip":"7510834"},{"town":"安岡駅前一丁目","koaza":"","lat":34.0238,"lng":130.916474,"zip":"7596612"},{"town":"富任町二丁目","koaza":"","lat":34.019453,"lng":130.919678,"zip":"7596613"},{"town":"富任町一丁目","koaza":"","lat":34.019391,"lng":130.917646,"zip":"7596613"},{"town":"垢田町三丁目","koaza":"","lat":33.99062,"lng":130.922313,"zip":"7510841"},{"town":"垢田町五丁目","koaza":"","lat":33.994794,"lng":130.920651,"zip":"7510841"},{"town":"垢田町四丁目","koaza":"","lat":33.989758,"lng":130.91913,"zip":"7510841"},{"town":"新垢田東町二丁目","koaza":"","lat":33.990027,"lng":130.914573,"zip":"7510843"},{"town":"新垢田北町","koaza":"","lat":33.990987,"lng":130.912067,"zip":"7510845"},{"town":"幡生宮の下町","koaza":"","lat":33.98336,"lng":130.930931,"zip":"7510829"},{"town":"武久町一丁目","koaza":"","lat":33.981687,"lng":130.923474,"zip":"7510833"},{"town":"武久町二丁目","koaza":"","lat":33.981284,"lng":130.917751,"zip":"7510833"},{"town":"大坪本町","koaza":"","lat":33.97006,"lng":130.921118,"zip":"7500051"},{"town":"後田町四丁目","koaza":"","lat":33.9719,"lng":130.926451,"zip":"7510826"},{"town":"羽山町","koaza":"","lat":33.970266,"lng":130.924029,"zip":"7500046"},{"town":"幡生新町","koaza":"","lat":33.976316,"lng":130.923058,"zip":"7510830"},{"town":"幡生本町","koaza":"","lat":33.975313,"lng":130.926164,"zip":"7510827"}]