[{"town":"浅江一丁目","koaza":"","lat":33.971764,"lng":131.929261,"zip":"7430021"},{"town":"浅江二丁目","koaza":"","lat":33.972912,"lng":131.925935,"zip":"7430021"},{"town":"浅江三丁目","koaza":"","lat":33.974165,"lng":131.922663,"zip":"7430021"},{"town":"浅江四丁目","koaza":"","lat":33.967583,"lng":131.928018,"zip":"7430021"},{"town":"浅江五丁目","koaza":"","lat":33.970137,"lng":131.924097,"zip":"7430021"},{"town":"浅江六丁目","koaza":"","lat":33.963561,"lng":131.924767,"zip":"7430021"},{"town":"浅江七丁目","koaza":"","lat":33.967122,"lng":131.921976,"zip":"7430021"},{"town":"岩狩一丁目","koaza":"","lat":33.993334,"lng":131.953777,"zip":"7430051"},{"town":"岩狩二丁目","koaza":"","lat":33.99463,"lng":131.95711,"zip":"7430051"},{"town":"岩狩三丁目","koaza":"","lat":33.998368,"lng":131.955423,"zip":"7430051"},{"town":"大字浅江","koaza":"","lat":33.989029,"lng":131.911032,"zip":"7430000"},{"town":"大字岩田","koaza":"","lat":33.982563,"lng":131.988393,"zip":"7430000"},{"town":"大字岩田立野","koaza":"","lat":33.993447,"lng":131.982729,"zip":"7430000"},{"town":"大字牛島","koaza":"","lat":33.861597,"lng":132.018468,"zip":"7430000"},{"town":"大字小周防","koaza":"","lat":34.020056,"lng":131.981583,"zip":"7430000"},{"town":"大字塩田","koaza":"","lat":33.998239,"lng":132.037231,"zip":"7430000"},{"town":"大字島田","koaza":"","lat":33.97877,"lng":131.963299,"zip":"7430000"},{"town":"大字立野","koaza":"","lat":33.999272,"lng":131.974781,"zip":"7430000"},{"town":"大字束荷","koaza":"","lat":34.011847,"lng":132.009973,"zip":"7430000"},{"town":"大字三井","koaza":"","lat":33.998071,"lng":131.944115,"zip":"7430000"},{"town":"大字光井","koaza":"","lat":33.964789,"lng":131.969663,"zip":"7430000"},{"town":"大字三輪","koaza":"","lat":33.974776,"lng":132.00269,"zip":"7430000"},{"town":"大字室積村","koaza":"","lat":33.930718,"lng":131.992409,"zip":"7430000"},{"town":"上島田一丁目","koaza":"","lat":33.982249,"lng":131.956525,"zip":"7430065"},{"town":"上島田二丁目","koaza":"","lat":33.986107,"lng":131.957822,"zip":"7430065"},{"town":"上島田三丁目","koaza":"","lat":33.985939,"lng":131.95952,"zip":"7430065"},{"town":"上島田四丁目","koaza":"","lat":33.991018,"lng":131.961031,"zip":"7430065"},{"town":"上島田五丁目","koaza":"","lat":33.990468,"lng":131.964439,"zip":"7430065"},{"town":"上島田六丁目","koaza":"","lat":33.995537,"lng":131.965876,"zip":"7430065"},{"town":"上島田七丁目","koaza":"","lat":33.992626,"lng":131.967151,"zip":"7430065"},{"town":"上島田八丁目","koaza":"","lat":33.991618,"lng":131.972407,"zip":"7430065"},{"town":"上島田九丁目","koaza":"","lat":33.993502,"lng":131.970258,"zip":"7430065"},{"town":"木園一丁目","koaza":"","lat":33.97715,"lng":131.930066,"zip":"7430046"},{"town":"協和町","koaza":"","lat":33.984749,"lng":131.92891,"zip":"7430043"},{"town":"島田一丁目","koaza":"","lat":33.969808,"lng":131.93602,"zip":"7430063"},{"town":"島田二丁目","koaza":"","lat":33.971313,"lng":131.932964,"zip":"7430063"},{"town":"島田三丁目","koaza":"","lat":33.974561,"lng":131.938569,"zip":"7430063"},{"town":"島田四丁目","koaza":"","lat":33.975763,"lng":131.934222,"zip":"7430063"},{"town":"島田五丁目","koaza":"","lat":33.978779,"lng":131.940339,"zip":"7430063"},{"town":"島田六丁目","koaza":"","lat":33.979742,"lng":131.935498,"zip":"7430063"},{"town":"島田七丁目","koaza":"","lat":33.982897,"lng":131.933903,"zip":"7430063"},{"town":"千坊台一丁目","koaza":"","lat":33.946822,"lng":131.965995,"zip":"7430012"},{"town":"千坊台二丁目","koaza":"","lat":33.946237,"lng":131.969138,"zip":"7430012"},{"town":"千坊台三丁目","koaza":"","lat":33.946306,"lng":131.971915,"zip":"7430012"},{"town":"宝町","koaza":"","lat":33.987412,"lng":131.928297,"zip":"7430042"},{"town":"中央一丁目","koaza":"","lat":33.954651,"lng":131.950545,"zip":"7430013"},{"town":"中央二丁目","koaza":"","lat":33.95622,"lng":131.948014,"zip":"7430013"},{"town":"中央三丁目","koaza":"","lat":33.957764,"lng":131.945704,"zip":"7430013"},{"town":"中央四丁目","koaza":"","lat":33.959363,"lng":131.943234,"zip":"7430013"},{"town":"中央五丁目","koaza":"","lat":33.962501,"lng":131.940173,"zip":"7430013"},{"town":"中央六丁目","koaza":"","lat":33.964583,"lng":131.942302,"zip":"7430013"},{"town":"中島田一丁目","koaza":"","lat":33.980668,"lng":131.94906,"zip":"7430064"},{"town":"中島田二丁目","koaza":"","lat":33.983223,"lng":131.949277,"zip":"7430064"},{"town":"中島田三丁目","koaza":"","lat":33.984729,"lng":131.946613,"zip":"7430064"},{"town":"中村町","koaza":"","lat":33.977414,"lng":131.918478,"zip":"7430048"},{"town":"虹ケ丘一丁目","koaza":"","lat":33.976558,"lng":131.916533,"zip":"7430031"},{"town":"虹ケ丘三丁目","koaza":"","lat":33.977602,"lng":131.911948,"zip":"7430031"},{"town":"虹ケ丘四丁目","koaza":"","lat":33.980112,"lng":131.914768,"zip":"7430031"},{"town":"虹ケ丘五丁目","koaza":"","lat":33.977991,"lng":131.906357,"zip":"7430031"},{"town":"虹ケ丘六丁目","koaza":"","lat":33.975969,"lng":131.903515,"zip":"7430031"},{"town":"虹ケ浜一丁目","koaza":"","lat":33.972465,"lng":131.919337,"zip":"7430022"},{"town":"虹ケ浜二丁目","koaza":"","lat":33.969529,"lng":131.917965,"zip":"7430022"},{"town":"花園一丁目","koaza":"","lat":33.976496,"lng":131.926058,"zip":"7430047"},{"town":"花園二丁目","koaza":"","lat":33.974882,"lng":131.927744,"zip":"7430047"},{"town":"光ケ丘","koaza":"","lat":33.97974,"lng":131.921803,"zip":"7430023"},{"town":"丸山町","koaza":"","lat":33.988351,"lng":131.925073,"zip":"7430041"},{"town":"三井一丁目","koaza":"","lat":33.988079,"lng":131.940405,"zip":"7430052"},{"town":"三井二丁目","koaza":"","lat":33.986124,"lng":131.942108,"zip":"7430052"},{"town":"三井三丁目","koaza":"","lat":33.987875,"lng":131.944556,"zip":"7430052"},{"town":"三井四丁目","koaza":"","lat":33.987423,"lng":131.947853,"zip":"7430052"},{"town":"三井五丁目","koaza":"","lat":33.990975,"lng":131.9512,"zip":"7430052"},{"town":"三井六丁目","koaza":"","lat":33.988542,"lng":131.955862,"zip":"7430052"},{"town":"三井七丁目","koaza":"","lat":33.99182,"lng":131.956145,"zip":"7430052"},{"town":"三井八丁目","koaza":"","lat":33.991392,"lng":131.958645,"zip":"7430052"},{"town":"光井一丁目","koaza":"","lat":33.949231,"lng":131.959149,"zip":"7430011"},{"town":"光井二丁目","koaza":"","lat":33.951603,"lng":131.952193,"zip":"7430011"},{"town":"光井三丁目","koaza":"","lat":33.954865,"lng":131.957161,"zip":"7430011"},{"town":"光井四丁目","koaza":"","lat":33.957754,"lng":131.956465,"zip":"7430011"},{"town":"光井五丁目","koaza":"","lat":33.964266,"lng":131.960102,"zip":"7430011"},{"town":"光井六丁目","koaza":"","lat":33.964106,"lng":131.953953,"zip":"7430011"},{"town":"光井七丁目","koaza":"","lat":33.95893,"lng":131.952472,"zip":"7430011"},{"town":"光井八丁目","koaza":"","lat":33.962137,"lng":131.948009,"zip":"7430011"},{"town":"光井九丁目","koaza":"","lat":33.960466,"lng":131.946657,"zip":"7430011"},{"town":"宮ノ下町","koaza":"","lat":33.981841,"lng":131.930209,"zip":"7430045"},{"town":"室積一丁目","koaza":"","lat":33.931298,"lng":131.973616,"zip":"7430007"},{"town":"室積二丁目","koaza":"","lat":33.929152,"lng":131.974797,"zip":"7430007"},{"town":"室積三丁目","koaza":"","lat":33.928801,"lng":131.971957,"zip":"7430007"},{"town":"室積四丁目","koaza":"","lat":33.930827,"lng":131.970464,"zip":"7430007"},{"town":"室積五丁目","koaza":"","lat":33.927169,"lng":131.970181,"zip":"7430007"},{"town":"室積六丁目","koaza":"","lat":33.927385,"lng":131.966305,"zip":"7430007"},{"town":"室積七丁目","koaza":"","lat":33.924848,"lng":131.968824,"zip":"7430007"},{"town":"室積八丁目","koaza":"","lat":33.92173,"lng":131.968529,"zip":"7430007"},{"town":"室積市延","koaza":"","lat":33.934514,"lng":131.979073,"zip":"7430004"},{"town":"室積大町","koaza":"","lat":33.939206,"lng":131.970662,"zip":"7430072"},{"town":"室積沖田","koaza":"","lat":33.933649,"lng":131.975636,"zip":"7430075"},{"town":"室積新開一丁目","koaza":"","lat":33.94279,"lng":131.965215,"zip":"7430071"},{"town":"室積新開二丁目","koaza":"","lat":33.943261,"lng":131.967554,"zip":"7430071"},{"town":"室積神田","koaza":"","lat":33.931978,"lng":131.976964,"zip":"7430006"},{"town":"室積中央町","koaza":"","lat":33.934142,"lng":131.972337,"zip":"7430008"},{"town":"室積西ノ庄","koaza":"","lat":33.936783,"lng":131.976231,"zip":"7430074"},{"town":"室積東ノ庄","koaza":"","lat":33.930261,"lng":131.981661,"zip":"7430005"},{"town":"室積正木","koaza":"","lat":33.936857,"lng":131.971242,"zip":"7430073"},{"town":"室積松原","koaza":"","lat":33.936261,"lng":131.968803,"zip":"7430009"},{"town":"和田町","koaza":"","lat":33.983793,"lng":131.927408,"zip":"7430044"},{"town":"虹ケ浜三丁目","koaza":"","lat":33.972698,"lng":131.911833,"zip":"7430022"},{"town":"虹ケ丘七丁目","koaza":"","lat":33.975713,"lng":131.907332,"zip":"7430031"},{"town":"虹ケ丘二丁目","koaza":"","lat":33.97532,"lng":131.912541,"zip":"7430031"},{"town":"大字浅江","koaza":"木園","lat":33.979334,"lng":131.927768,"zip":"7430000"}]