[{"town":"相生町一丁目","koaza":"","lat":34.05896,"lng":131.799768,"zip":"7450055"},{"town":"相生町二丁目","koaza":"","lat":34.060755,"lng":131.798955,"zip":"7450055"},{"town":"相生町三丁目","koaza":"","lat":34.062231,"lng":131.798221,"zip":"7450055"},{"town":"青山町","koaza":"","lat":34.043448,"lng":131.817819,"zip":"7450842"},{"town":"秋月一丁目","koaza":"","lat":34.053134,"lng":131.826354,"zip":"7450825"},{"town":"秋月二丁目","koaza":"","lat":34.056774,"lng":131.827816,"zip":"7450825"},{"town":"秋月三丁目","koaza":"","lat":34.058064,"lng":131.830187,"zip":"7450825"},{"town":"秋月四丁目","koaza":"","lat":34.059339,"lng":131.833677,"zip":"7450825"},{"town":"飯島町一丁目","koaza":"","lat":34.051382,"lng":131.809002,"zip":"7450014"},{"town":"飯島町二丁目","koaza":"","lat":34.049591,"lng":131.807484,"zip":"7450014"},{"town":"泉原町","koaza":"","lat":34.053668,"lng":131.819575,"zip":"7450833"},{"town":"今宿町一丁目","koaza":"","lat":34.056492,"lng":131.803504,"zip":"7450074"},{"town":"今宿町二丁目","koaza":"","lat":34.057876,"lng":131.80274,"zip":"7450074"},{"town":"今宿町三丁目","koaza":"","lat":34.059658,"lng":131.801898,"zip":"7450074"},{"town":"今宿町四丁目","koaza":"","lat":34.06122,"lng":131.80131,"zip":"7450074"},{"town":"今住町","koaza":"","lat":34.063136,"lng":131.802385,"zip":"7450063"},{"town":"入船町","koaza":"","lat":34.056659,"lng":131.797249,"zip":"7450047"},{"town":"梅園町一丁目","koaza":"","lat":34.056132,"lng":131.804923,"zip":"7450076"},{"town":"梅園町二丁目","koaza":"","lat":34.057498,"lng":131.805659,"zip":"7450076"},{"town":"梅園町三丁目","koaza":"","lat":34.058837,"lng":131.806586,"zip":"7450076"},{"town":"江口一丁目","koaza":"","lat":34.063017,"lng":131.793778,"zip":"7450862"},{"town":"江口二丁目","koaza":"","lat":34.065268,"lng":131.790505,"zip":"7450862"},{"town":"江口三丁目","koaza":"","lat":34.065471,"lng":131.787735,"zip":"7450862"},{"town":"江の宮町","koaza":"","lat":34.052266,"lng":131.829854,"zip":"7450826"},{"town":"戎町一丁目","koaza":"","lat":34.05467,"lng":131.802483,"zip":"7450041"},{"town":"戎町二丁目","koaza":"","lat":34.055904,"lng":131.801792,"zip":"7450041"},{"town":"戎町三丁目","koaza":"","lat":34.057345,"lng":131.801093,"zip":"7450041"},{"town":"大字莇地","koaza":"","lat":34.110844,"lng":131.838086,"zip":"7450000"},{"town":"大字馬神","koaza":"","lat":34.123507,"lng":131.710832,"zip":"7450000"},{"town":"大字大河内","koaza":"","lat":34.023734,"lng":131.948157,"zip":"7450000"},{"town":"大字大潮","koaza":"","lat":34.298281,"lng":131.814394,"zip":"7450000"},{"town":"大字大島","koaza":"","lat":33.991656,"lng":131.799316,"zip":"7450000"},{"town":"大字大津島","koaza":"","lat":34.007275,"lng":131.697587,"zip":"7450000"},{"town":"大字大道理","koaza":"","lat":34.166865,"lng":131.798434,"zip":"7450000"},{"town":"大字大向","koaza":"","lat":34.177865,"lng":131.831732,"zip":"7450000"},{"town":"大字奥関屋","koaza":"","lat":34.066862,"lng":131.944865,"zip":"7450000"},{"town":"大字小畑","koaza":"","lat":34.102062,"lng":131.738956,"zip":"7450000"},{"town":"大字鹿野上","koaza":"","lat":34.253082,"lng":131.85329,"zip":"7450000"},{"town":"大字鹿野下","koaza":"","lat":34.210497,"lng":131.825372,"zip":"7450000"},{"town":"大字鹿野中","koaza":"","lat":34.228467,"lng":131.798298,"zip":"7450000"},{"town":"大字川上","koaza":"","lat":34.121886,"lng":131.794881,"zip":"7450000"},{"town":"大字川曲","koaza":"","lat":34.103642,"lng":131.817184,"zip":"7450000"},{"town":"大字櫛ヶ浜","koaza":"","lat":34.026097,"lng":131.829796,"zip":"7450000"},{"town":"大字久米","koaza":"","lat":34.051854,"lng":131.856113,"zip":"7450000"},{"town":"大字栗屋","koaza":"","lat":34.013334,"lng":131.813358,"zip":"7450000"},{"town":"大字小松原","koaza":"","lat":34.04736,"lng":132.010775,"zip":"7450000"},{"town":"大字四熊","koaza":"","lat":34.113721,"lng":131.764039,"zip":"7450000"},{"town":"大字下上","koaza":"","lat":34.086124,"lng":131.77899,"zip":"7450000"},{"town":"大字上村","koaza":"","lat":34.091043,"lng":131.800614,"zip":"7450000"},{"town":"大字粭島","koaza":"","lat":33.978949,"lng":131.763546,"zip":"7450000"},{"town":"大字須々万奥","koaza":"","lat":34.149957,"lng":131.870244,"zip":"7450000"},{"town":"大字須々万本郷","koaza":"","lat":34.112503,"lng":131.864157,"zip":"7450000"},{"town":"大字須万","koaza":"","lat":34.216508,"lng":131.890137,"zip":"7450000"},{"town":"大字巣山","koaza":"","lat":34.231477,"lng":131.767573,"zip":"7450000"},{"town":"大字清尾","koaza":"","lat":34.055169,"lng":131.985298,"zip":"7450000"},{"town":"大字垰","koaza":"","lat":34.143536,"lng":131.734763,"zip":"7450000"},{"town":"大字高瀬","koaza":"","lat":34.173936,"lng":131.767935,"zip":"7450000"},{"town":"大字富田","koaza":"","lat":34.039097,"lng":131.761824,"zip":"7450000"},{"town":"大字中須北","koaza":"","lat":34.144593,"lng":131.935069,"zip":"7450000"},{"town":"大字中須南","koaza":"","lat":34.107217,"lng":131.916415,"zip":"7450000"},{"town":"大字中野","koaza":"","lat":34.135744,"lng":131.774384,"zip":"7450000"},{"town":"大字長穂","koaza":"","lat":34.137912,"lng":131.840316,"zip":"7450000"},{"town":"大字中村","koaza":"","lat":34.033109,"lng":131.960989,"zip":"7450000"},{"town":"大字夏切","koaza":"","lat":34.164523,"lng":131.739125,"zip":"7450000"},{"town":"大字原","koaza":"","lat":34.066977,"lng":131.960969,"zip":"7450000"},{"town":"大字樋口","koaza":"","lat":34.071497,"lng":131.978305,"zip":"7450000"},{"town":"大字福川","koaza":"","lat":34.083533,"lng":131.729318,"zip":"7450000"},{"town":"大字戸田","koaza":"","lat":34.073733,"lng":131.679127,"zip":"7450000"},{"town":"大字金峰","koaza":"","lat":34.17155,"lng":131.906878,"zip":"7450000"},{"town":"大字夜市","koaza":"","lat":34.089616,"lng":131.715469,"zip":"7450000"},{"town":"大字八代","koaza":"","lat":34.094254,"lng":131.945093,"zip":"7450000"},{"town":"大字安田","koaza":"","lat":34.039784,"lng":131.973002,"zip":"7450000"},{"town":"大字譲羽","koaza":"","lat":34.068454,"lng":131.862849,"zip":"7450000"},{"town":"大字湯野","koaza":"","lat":34.108092,"lng":131.671602,"zip":"7450000"},{"town":"大字米光","koaza":"","lat":34.124906,"lng":131.734828,"zip":"7450000"},{"town":"大字呼坂","koaza":"","lat":34.051235,"lng":131.941423,"zip":"7450000"},{"town":"大内町","koaza":"","lat":34.049816,"lng":131.825433,"zip":"7450824"},{"town":"扇町","koaza":"","lat":34.054916,"lng":131.823052,"zip":"7450832"},{"town":"岡田町","koaza":"","lat":34.061557,"lng":131.80645,"zip":"7450066"},{"town":"小川屋町","koaza":"","lat":34.067158,"lng":131.754138,"zip":"7460027"},{"town":"沖見町一丁目","koaza":"","lat":34.058723,"lng":131.799022,"zip":"7450051"},{"town":"沖見町二丁目","koaza":"","lat":34.060546,"lng":131.798294,"zip":"7450051"},{"town":"沖見町三丁目","koaza":"","lat":34.061921,"lng":131.797643,"zip":"7450051"},{"town":"桶川町","koaza":"","lat":34.071681,"lng":131.774879,"zip":"7460013"},{"town":"御姫町","koaza":"","lat":34.075162,"lng":131.727349,"zip":"7460051"},{"town":"温田一丁目","koaza":"","lat":34.072918,"lng":131.746115,"zip":"7460036"},{"town":"開成町","koaza":"","lat":34.057162,"lng":131.75586,"zip":"7460006"},{"town":"学園台","koaza":"","lat":34.051805,"lng":131.847677,"zip":"7450000"},{"town":"かせ河原町","koaza":"","lat":34.070545,"lng":131.726031,"zip":"7460055"},{"town":"勝間ヶ丘一丁目","koaza":"","lat":34.047048,"lng":131.953752,"zip":"7450615"},{"town":"勝間ヶ丘二丁目","koaza":"","lat":34.048464,"lng":131.953152,"zip":"7450615"},{"town":"勝間ヶ丘三丁目","koaza":"","lat":34.050307,"lng":131.953597,"zip":"7450615"},{"town":"上迫町","koaza":"","lat":34.079667,"lng":131.733009,"zip":"7460065"},{"town":"上遠石町","koaza":"","lat":34.044252,"lng":131.822497,"zip":"7450817"},{"town":"花陽一丁目","koaza":"","lat":34.053894,"lng":131.832768,"zip":"7450858"},{"town":"花陽二丁目","koaza":"","lat":34.052982,"lng":131.834362,"zip":"7450858"},{"town":"川崎一丁目","koaza":"","lat":34.073517,"lng":131.776813,"zip":"7460001"},{"town":"川崎二丁目","koaza":"","lat":34.073533,"lng":131.779232,"zip":"7460001"},{"town":"川手一丁目","koaza":"","lat":34.070303,"lng":131.778215,"zip":"7460009"},{"town":"川手二丁目","koaza":"","lat":34.068707,"lng":131.780351,"zip":"7460009"},{"town":"川端町一丁目","koaza":"","lat":34.050746,"lng":131.810527,"zip":"7450012"},{"town":"川端町二丁目","koaza":"","lat":34.049668,"lng":131.809883,"zip":"7450012"},{"town":"河東町","koaza":"","lat":34.048309,"lng":131.811308,"zip":"7450845"},{"town":"岐山通一丁目","koaza":"","lat":34.055208,"lng":131.807017,"zip":"7450071"},{"town":"岐山通二丁目","koaza":"","lat":34.056824,"lng":131.807944,"zip":"7450071"},{"town":"岐山通三丁目","koaza":"","lat":34.058204,"lng":131.808765,"zip":"7450071"},{"town":"岐南町","koaza":"","lat":34.058845,"lng":131.813422,"zip":"7450007"},{"town":"銀座一丁目","koaza":"","lat":34.051378,"lng":131.804208,"zip":"7450032"},{"town":"銀座二丁目","koaza":"","lat":34.050207,"lng":131.805306,"zip":"7450032"},{"town":"銀南街","koaza":"","lat":34.05091,"lng":131.805483,"zip":"7450031"},{"town":"楠木一丁目","koaza":"","lat":34.056564,"lng":131.821028,"zip":"7450831"},{"town":"楠木二丁目","koaza":"","lat":34.056734,"lng":131.825246,"zip":"7450831"},{"town":"熊毛中央町","koaza":"","lat":34.049017,"lng":131.968931,"zip":"7450663"},{"town":"慶万町","koaza":"","lat":34.048993,"lng":131.813775,"zip":"7450836"},{"town":"古泉一丁目","koaza":"","lat":34.067123,"lng":131.764802,"zip":"7460024"},{"town":"古泉二丁目","koaza":"","lat":34.067173,"lng":131.768724,"zip":"7460024"},{"town":"古泉三丁目","koaza":"","lat":34.066349,"lng":131.772578,"zip":"7460024"},{"town":"糀町一丁目","koaza":"","lat":34.048508,"lng":131.806151,"zip":"7450027"},{"town":"糀町二丁目","koaza":"","lat":34.047692,"lng":131.806916,"zip":"7450027"},{"town":"孝田町","koaza":"","lat":34.04828,"lng":131.834859,"zip":"7450822"},{"town":"河内町","koaza":"","lat":34.078264,"lng":131.757005,"zip":"7460032"},{"town":"鼓海一丁目","koaza":"","lat":34.021593,"lng":131.824751,"zip":"7450814"},{"town":"鼓海二丁目","koaza":"","lat":34.021456,"lng":131.821199,"zip":"7450814"},{"town":"鼓海三丁目","koaza":"","lat":34.021399,"lng":131.817436,"zip":"7450814"},{"town":"児玉町一丁目","koaza":"","lat":34.054893,"lng":131.808202,"zip":"7450005"},{"town":"児玉町二丁目","koaza":"","lat":34.05624,"lng":131.808912,"zip":"7450005"},{"town":"児玉町三丁目","koaza":"","lat":34.057737,"lng":131.809717,"zip":"7450005"},{"town":"権現町","koaza":"","lat":34.058391,"lng":131.798193,"zip":"7450046"},{"town":"栄町一丁目","koaza":"","lat":34.054005,"lng":131.80486,"zip":"7450037"},{"town":"栄町二丁目","koaza":"","lat":34.0535,"lng":131.803877,"zip":"7450037"},{"town":"坂根町","koaza":"","lat":34.081182,"lng":131.757428,"zip":"7460031"},{"town":"桜木一丁目","koaza":"","lat":34.043013,"lng":131.837349,"zip":"7450806"},{"town":"桜木二丁目","koaza":"","lat":34.039483,"lng":131.840608,"zip":"7450806"},{"town":"桜木三丁目","koaza":"","lat":34.037439,"lng":131.836601,"zip":"7450806"},{"town":"桜馬場通一丁目","koaza":"","lat":34.053799,"lng":131.807895,"zip":"7450011"},{"town":"桜馬場通二丁目","koaza":"","lat":34.052848,"lng":131.810065,"zip":"7450011"},{"town":"桜馬場通三丁目","koaza":"","lat":34.05148,"lng":131.811074,"zip":"7450011"},{"town":"五月町","koaza":"","lat":34.038542,"lng":131.829291,"zip":"7450811"},{"town":"皿山町","koaza":"","lat":34.078132,"lng":131.736705,"zip":"7460061"},{"town":"三番町一丁目","koaza":"","lat":34.053818,"lng":131.810681,"zip":"7450003"},{"town":"三番町二丁目","koaza":"","lat":34.055237,"lng":131.811473,"zip":"7450003"},{"town":"三番町三丁目","koaza":"","lat":34.056749,"lng":131.812332,"zip":"7450003"},{"town":"椎木町","koaza":"","lat":34.066507,"lng":131.781345,"zip":"7460008"},{"town":"清水一丁目","koaza":"","lat":34.070844,"lng":131.768026,"zip":"7460015"},{"town":"清水二丁目","koaza":"","lat":34.069426,"lng":131.770678,"zip":"7460015"},{"town":"清水町","koaza":"","lat":34.054764,"lng":131.818374,"zip":"7450834"},{"town":"社地町","koaza":"","lat":34.072197,"lng":131.738294,"zip":"7460041"},{"town":"周陽一丁目","koaza":"","lat":34.04845,"lng":131.82852,"zip":"7450823"},{"town":"周陽二丁目","koaza":"","lat":34.045954,"lng":131.83188,"zip":"7450823"},{"town":"周陽三丁目","koaza":"","lat":34.045448,"lng":131.826801,"zip":"7450823"},{"town":"城ケ丘一丁目","koaza":"","lat":34.045562,"lng":131.836877,"zip":"7450807"},{"town":"城ケ丘二丁目","koaza":"","lat":34.044303,"lng":131.839817,"zip":"7450807"},{"town":"城ケ丘三丁目","koaza":"","lat":34.042217,"lng":131.843022,"zip":"7450807"},{"town":"城ケ丘四丁目","koaza":"","lat":34.04487,"lng":131.84479,"zip":"7450807"},{"town":"城ケ丘五丁目","koaza":"","lat":34.045894,"lng":131.840947,"zip":"7450807"},{"town":"鐘楼町","koaza":"","lat":34.060606,"lng":131.808714,"zip":"7450061"},{"town":"昭和通一丁目","koaza":"","lat":34.051123,"lng":131.809855,"zip":"7450013"},{"town":"昭和通二丁目","koaza":"","lat":34.04911,"lng":131.808467,"zip":"7450013"},{"town":"新宮町","koaza":"","lat":34.040622,"lng":131.812416,"zip":"7450843"},{"town":"新宿通一丁目","koaza":"","lat":34.05773,"lng":131.80165,"zip":"7450056"},{"town":"新宿通二丁目","koaza":"","lat":34.059363,"lng":131.800902,"zip":"7450056"},{"town":"新宿通三丁目","koaza":"","lat":34.061133,"lng":131.800067,"zip":"7450056"},{"town":"新宿通四丁目","koaza":"","lat":34.062488,"lng":131.799418,"zip":"7450056"},{"town":"新宿通五丁目","koaza":"","lat":34.064094,"lng":131.800348,"zip":"7450056"},{"town":"新宿通六丁目","koaza":"","lat":34.065419,"lng":131.79888,"zip":"7450056"},{"town":"新清光台一丁目","koaza":"","lat":34.035065,"lng":131.949215,"zip":"7450643"},{"town":"新清光台二丁目","koaza":"","lat":34.035415,"lng":131.952046,"zip":"7450643"},{"town":"新清光台三丁目","koaza":"","lat":34.033804,"lng":131.952672,"zip":"7450643"},{"town":"新清光台四丁目","koaza":"","lat":34.032998,"lng":131.951947,"zip":"7450643"},{"town":"新地一丁目","koaza":"","lat":34.067348,"lng":131.792892,"zip":"7450861"},{"town":"新地二丁目","koaza":"","lat":34.066266,"lng":131.791961,"zip":"7450861"},{"town":"新地三丁目","koaza":"","lat":34.068082,"lng":131.78842,"zip":"7450861"},{"town":"新地町","koaza":"","lat":34.071484,"lng":131.732605,"zip":"7460045"},{"town":"新堤町","koaza":"","lat":34.078452,"lng":131.760968,"zip":"7460033"},{"town":"新田一丁目","koaza":"","lat":34.065644,"lng":131.734558,"zip":"7460043"},{"town":"新田二丁目","koaza":"","lat":34.06256,"lng":131.734443,"zip":"7460043"},{"town":"新町一丁目","koaza":"","lat":34.052677,"lng":131.806633,"zip":"7450017"},{"town":"新町二丁目","koaza":"","lat":34.051763,"lng":131.80573,"zip":"7450017"},{"town":"住崎町","koaza":"","lat":34.048635,"lng":131.803802,"zip":"7450026"},{"town":"清光台町","koaza":"","lat":34.031427,"lng":131.950967,"zip":"7450653"},{"town":"瀬戸見町","koaza":"","lat":34.050214,"lng":131.83265,"zip":"7450827"},{"town":"大神一丁目","koaza":"","lat":34.082161,"lng":131.762536,"zip":"7460018"},{"town":"大神二丁目","koaza":"","lat":34.082451,"lng":131.76567,"zip":"7460018"},{"town":"大神三丁目","koaza":"","lat":34.079591,"lng":131.76509,"zip":"7460018"},{"town":"大神四丁目","koaza":"","lat":34.084576,"lng":131.767588,"zip":"7460018"},{"town":"大神五丁目","koaza":"","lat":34.087262,"lng":131.765746,"zip":"7460018"},{"town":"高水原一丁目","koaza":"","lat":34.052292,"lng":131.969635,"zip":"7450662"},{"town":"高水原二丁目","koaza":"","lat":34.053033,"lng":131.972445,"zip":"7450662"},{"town":"高水原三丁目","koaza":"","lat":34.053981,"lng":131.97121,"zip":"7450662"},{"town":"竹島町","koaza":"","lat":34.051229,"lng":131.7595,"zip":"7460007"},{"town":"築港町","koaza":"","lat":34.049768,"lng":131.800349,"zip":"7450025"},{"town":"中央町","koaza":"","lat":34.07109,"lng":131.764681,"zip":"7460016"},{"town":"千代田町","koaza":"","lat":34.05309,"lng":131.800274,"zip":"7450044"},{"town":"月丘町一丁目","koaza":"","lat":34.059294,"lng":131.807634,"zip":"7450062"},{"town":"月丘町二丁目","koaza":"","lat":34.060046,"lng":131.805823,"zip":"7450062"},{"town":"月丘町三丁目","koaza":"","lat":34.060925,"lng":131.803658,"zip":"7450062"},{"town":"月丘町四丁目","koaza":"","lat":34.062092,"lng":131.800618,"zip":"7450062"},{"town":"辻町","koaza":"","lat":34.057527,"lng":131.815922,"zip":"7450001"},{"town":"土井一丁目","koaza":"","lat":34.079254,"lng":131.770808,"zip":"7460011"},{"town":"土井二丁目","koaza":"","lat":34.077118,"lng":131.773499,"zip":"7460011"},{"town":"遠石一丁目","koaza":"","lat":34.041257,"lng":131.819562,"zip":"7450816"},{"town":"遠石二丁目","koaza":"","lat":34.041915,"lng":131.823473,"zip":"7450816"},{"town":"遠石三丁目","koaza":"","lat":34.038474,"lng":131.825216,"zip":"7450816"},{"town":"道源町","koaza":"","lat":34.065584,"lng":131.784826,"zip":"7460003"},{"town":"徳山港町","koaza":"","lat":34.052237,"lng":131.796011,"zip":"7450045"},{"town":"富田一丁目","koaza":"","lat":34.074263,"lng":131.7508,"zip":"7460034"},{"town":"富田二丁目","koaza":"","lat":34.074246,"lng":131.754711,"zip":"7460034"},{"town":"長田町","koaza":"","lat":34.06097,"lng":131.723785,"zip":"7460054"},{"town":"中畷町","koaza":"","lat":34.071214,"lng":131.728174,"zip":"7460052"},{"town":"渚町","koaza":"","lat":34.057656,"lng":131.785298,"zip":"7460005"},{"town":"那智町","koaza":"","lat":34.044324,"lng":131.80553,"zip":"7450023"},{"town":"西千代田町","koaza":"","lat":34.068826,"lng":131.785323,"zip":"7460002"},{"town":"西桝町","koaza":"","lat":34.068015,"lng":131.734507,"zip":"7460044"},{"town":"西松原一丁目","koaza":"","lat":34.063947,"lng":131.797717,"zip":"7450054"},{"town":"西松原二丁目","koaza":"","lat":34.063188,"lng":131.796716,"zip":"7450054"},{"town":"西松原三丁目","koaza":"","lat":34.065789,"lng":131.795742,"zip":"7450054"},{"town":"西松原四丁目","koaza":"","lat":34.064744,"lng":131.794424,"zip":"7450054"},{"town":"二番町一丁目","koaza":"","lat":34.053305,"lng":131.811509,"zip":"7450002"},{"town":"二番町二丁目","koaza":"","lat":34.054836,"lng":131.812362,"zip":"7450002"},{"town":"二番町三丁目","koaza":"","lat":34.056398,"lng":131.813263,"zip":"7450002"},{"town":"野上町一丁目","koaza":"","lat":34.055835,"lng":131.801184,"zip":"7450042"},{"town":"野上町二丁目","koaza":"","lat":34.057128,"lng":131.800557,"zip":"7450042"},{"town":"野村一丁目","koaza":"","lat":34.063791,"lng":131.767297,"zip":"7460022"},{"town":"野村二丁目","koaza":"","lat":34.064604,"lng":131.773945,"zip":"7460022"},{"town":"野村三丁目","koaza":"","lat":34.065268,"lng":131.779792,"zip":"7460022"},{"town":"野村南町","koaza":"","lat":34.058132,"lng":131.775031,"zip":"7460023"},{"town":"羽島一丁目","koaza":"","lat":34.074869,"lng":131.725913,"zip":"7460056"},{"town":"羽島二丁目","koaza":"","lat":34.075388,"lng":131.722063,"zip":"7460056"},{"town":"羽島三丁目","koaza":"","lat":34.072187,"lng":131.722344,"zip":"7460056"},{"town":"橋本町一丁目","koaza":"","lat":34.047704,"lng":131.808728,"zip":"7450022"},{"town":"橋本町二丁目","koaza":"","lat":34.046619,"lng":131.807927,"zip":"7450022"},{"town":"初音町一丁目","koaza":"","lat":34.059123,"lng":131.800267,"zip":"7450052"},{"town":"初音町二丁目","koaza":"","lat":34.060911,"lng":131.799436,"zip":"7450052"},{"town":"初音町三丁目","koaza":"","lat":34.062351,"lng":131.798776,"zip":"7450052"},{"town":"花園町","koaza":"","lat":34.066983,"lng":131.7755,"zip":"7460021"},{"town":"花畠町","koaza":"","lat":34.05978,"lng":131.810996,"zip":"7450006"},{"town":"浜田一丁目","koaza":"","lat":34.069147,"lng":131.755553,"zip":"7460026"},{"town":"速玉町","koaza":"","lat":34.046024,"lng":131.809746,"zip":"7450844"},{"town":"原宿町","koaza":"","lat":34.062296,"lng":131.804365,"zip":"7450065"},{"town":"晴海町","koaza":"","lat":34.036451,"lng":131.791869,"zip":"7450024"},{"town":"東山町","koaza":"","lat":34.046884,"lng":131.815191,"zip":"7450846"},{"town":"日地町","koaza":"","lat":34.076003,"lng":131.754367,"zip":"7460035"},{"town":"平野一丁目","koaza":"","lat":34.07197,"lng":131.751045,"zip":"7460029"},{"town":"平野二丁目","koaza":"","lat":34.071666,"lng":131.754755,"zip":"7460029"},{"town":"平原町","koaza":"","lat":34.048346,"lng":131.84263,"zip":"7450808"},{"town":"福川一丁目","koaza":"","lat":34.073834,"lng":131.741978,"zip":"7460038"},{"town":"福川二丁目","koaza":"","lat":34.074473,"lng":131.739249,"zip":"7460038"},{"town":"福川三丁目","koaza":"","lat":34.074296,"lng":131.73698,"zip":"7460038"},{"town":"福川中市町","koaza":"","lat":34.074445,"lng":131.734673,"zip":"7460062"},{"town":"藤ヶ台一丁目","koaza":"","lat":34.04748,"lng":131.954833,"zip":"7450618"},{"town":"藤ヶ台二丁目","koaza":"","lat":34.047815,"lng":131.955956,"zip":"7450618"},{"town":"古市一丁目","koaza":"","lat":34.067892,"lng":131.758799,"zip":"7460025"},{"town":"古市二丁目","koaza":"","lat":34.069411,"lng":131.764745,"zip":"7460025"},{"town":"古川町","koaza":"","lat":34.069859,"lng":131.775265,"zip":"7460014"},{"town":"平和通一丁目","koaza":"","lat":34.051799,"lng":131.808275,"zip":"7450015"},{"town":"平和通二丁目","koaza":"","lat":34.049717,"lng":131.806332,"zip":"7450015"},{"town":"本陣町","koaza":"","lat":34.07469,"lng":131.732195,"zip":"7460063"},{"town":"本町一丁目","koaza":"","lat":34.05316,"lng":131.802893,"zip":"7450036"},{"town":"本町二丁目","koaza":"","lat":34.054455,"lng":131.802024,"zip":"7450036"},{"town":"舞車町","koaza":"","lat":34.052144,"lng":131.815666,"zip":"7450835"},{"town":"松保町","koaza":"","lat":34.044629,"lng":131.813186,"zip":"7450847"},{"town":"政所一丁目","koaza":"","lat":34.074719,"lng":131.768996,"zip":"7460012"},{"town":"政所二丁目","koaza":"","lat":34.072776,"lng":131.768414,"zip":"7460012"},{"town":"政所三丁目","koaza":"","lat":34.072395,"lng":131.771951,"zip":"7460012"},{"town":"政所四丁目","koaza":"","lat":34.074704,"lng":131.773969,"zip":"7460012"},{"town":"丸山町","koaza":"","lat":34.076215,"lng":131.750955,"zip":"7460037"},{"town":"御影町","koaza":"","lat":34.058326,"lng":131.791569,"zip":"7450053"},{"town":"三笹町","koaza":"","lat":34.0627,"lng":131.785666,"zip":"7460004"},{"town":"緑町一丁目","koaza":"","lat":34.057895,"lng":131.804212,"zip":"7450075"},{"town":"緑町二丁目","koaza":"","lat":34.059439,"lng":131.805018,"zip":"7450075"},{"town":"緑町三丁目","koaza":"","lat":34.060214,"lng":131.803305,"zip":"7450075"},{"town":"港町","koaza":"","lat":34.068676,"lng":131.747732,"zip":"7460028"},{"town":"南浦山町","koaza":"","lat":34.069055,"lng":131.791065,"zip":"7450868"},{"town":"みなみ銀座一丁目","koaza":"","lat":34.050637,"lng":131.803175,"zip":"7450033"},{"town":"みなみ銀座二丁目","koaza":"","lat":34.049799,"lng":131.804677,"zip":"7450033"},{"town":"都町一丁目","koaza":"","lat":34.054132,"lng":131.801177,"zip":"7450043"},{"town":"都町二丁目","koaza":"","lat":34.055472,"lng":131.800045,"zip":"7450043"},{"town":"都町三丁目","koaza":"","lat":34.056853,"lng":131.799737,"zip":"7450043"},{"town":"宮の前一丁目","koaza":"","lat":34.074668,"lng":131.764204,"zip":"7460017"},{"town":"宮の前二丁目","koaza":"","lat":34.072724,"lng":131.764623,"zip":"7460017"},{"town":"宮前町","koaza":"","lat":34.035122,"lng":131.822267,"zip":"7450815"},{"town":"御幸通一丁目","koaza":"","lat":34.053331,"lng":131.806027,"zip":"7450034"},{"town":"御幸通二丁目","koaza":"","lat":34.052239,"lng":131.804704,"zip":"7450034"},{"town":"室尾一丁目","koaza":"","lat":34.067204,"lng":131.730528,"zip":"7460053"},{"town":"室尾二丁目","koaza":"","lat":34.064384,"lng":131.729748,"zip":"7460053"},{"town":"毛利町一丁目","koaza":"","lat":34.054294,"lng":131.809433,"zip":"7450004"},{"town":"毛利町二丁目","koaza":"","lat":34.055806,"lng":131.809913,"zip":"7450004"},{"town":"毛利町三丁目","koaza":"","lat":34.057357,"lng":131.810892,"zip":"7450004"},{"town":"柳町","koaza":"","lat":34.048633,"lng":131.809786,"zip":"7450021"},{"town":"弥生町一丁目","koaza":"","lat":34.055723,"lng":131.806054,"zip":"7450072"},{"town":"弥生町二丁目","koaza":"","lat":34.057045,"lng":131.8068,"zip":"7450072"},{"town":"弥生町三丁目","koaza":"","lat":34.058419,"lng":131.807644,"zip":"7450072"},{"town":"有楽町","koaza":"","lat":34.052397,"lng":131.802333,"zip":"7450035"},{"town":"由加町","koaza":"","lat":34.030222,"lng":131.82422,"zip":"7450813"},{"town":"横浜町","koaza":"","lat":34.034801,"lng":131.829632,"zip":"7450812"},{"town":"呼坂本町","koaza":"","lat":34.050449,"lng":131.967841,"zip":"7450661"},{"town":"代々木通一丁目","koaza":"","lat":34.054714,"lng":131.805137,"zip":"7450073"},{"town":"代々木通二丁目","koaza":"","lat":34.055588,"lng":131.803233,"zip":"7450073"},{"town":"臨海町","koaza":"","lat":34.057918,"lng":131.744025,"zip":"7460019"},{"town":"若草町","koaza":"","lat":34.046652,"lng":131.818206,"zip":"7450841"},{"town":"若宮町一丁目","koaza":"","lat":34.052335,"lng":131.807724,"zip":"7450016"},{"town":"若宮町二丁目","koaza":"","lat":34.05105,"lng":131.806512,"zip":"7450016"},{"town":"若山一丁目","koaza":"","lat":34.075959,"lng":131.728458,"zip":"7460064"},{"town":"若山二丁目","koaza":"","lat":34.078603,"lng":131.72115,"zip":"7460064"},{"town":"川崎三丁目","koaza":"","lat":34.071256,"lng":131.786069,"zip":"7460001"},{"town":"浦山一丁目","koaza":"","lat":34.069094,"lng":131.79406,"zip":"7450856"},{"town":"北山一丁目","koaza":"","lat":34.066634,"lng":131.802632,"zip":"7450864"},{"town":"御山町","koaza":"","lat":34.067268,"lng":131.799314,"zip":"7450863"},{"town":"浦山二丁目","koaza":"","lat":34.068325,"lng":131.797179,"zip":"7450856"},{"town":"北山二丁目","koaza":"","lat":34.067627,"lng":131.801574,"zip":"7450864"},{"town":"住吉町","koaza":"","lat":34.064728,"lng":131.804097,"zip":"7450064"},{"town":"東北山二丁目","koaza":"","lat":34.067244,"lng":131.805763,"zip":"7450869"},{"town":"大字徳山","koaza":"","lat":34.073542,"lng":131.822447,"zip":"7450000"},{"town":"蓮ヶ浴二丁目","koaza":"","lat":34.066366,"lng":131.808531,"zip":"7450865"},{"town":"東北山一丁目","koaza":"","lat":34.066428,"lng":131.80683,"zip":"7450869"},{"town":"蓮ヶ浴一丁目","koaza":"","lat":34.065185,"lng":131.808381,"zip":"7450865"},{"town":"福川南町","koaza":"","lat":34.06761,"lng":131.739612,"zip":"7460042"},{"town":"温田二丁目","koaza":"","lat":34.070896,"lng":131.744899,"zip":"7460036"},{"town":"鶴見台一丁目","koaza":"","lat":34.052414,"lng":131.974764,"zip":"7450632"},{"town":"鶴見台二丁目","koaza":"","lat":34.051055,"lng":131.974528,"zip":"7450632"},{"town":"鶴見台三丁目","koaza":"","lat":34.050208,"lng":131.974942,"zip":"7450632"},{"town":"鶴見台六丁目","koaza":"","lat":34.04963,"lng":131.977108,"zip":"7450632"},{"town":"鶴見台五丁目","koaza":"","lat":34.050632,"lng":131.977206,"zip":"7450632"},{"town":"鶴見台四丁目","koaza":"","lat":34.051766,"lng":131.976663,"zip":"7450632"}]