[{"town":"大字秋","koaza":"","lat":33.882142,"lng":132.253473,"zip":"7422100"},{"town":"大字出井","koaza":"","lat":33.873967,"lng":132.215512,"zip":"7422100"},{"town":"大字伊保田","koaza":"","lat":33.945499,"lng":132.42882,"zip":"7422100"},{"town":"大字浮島","koaza":"","lat":33.949909,"lng":132.345456,"zip":"7422100"},{"town":"大字内入","koaza":"","lat":33.919584,"lng":132.401824,"zip":"7422100"},{"town":"大字沖家室島","koaza":"","lat":33.852746,"lng":132.36185,"zip":"7422100"},{"town":"大字笠佐島","koaza":"","lat":33.942512,"lng":132.160273,"zip":"7422100"},{"town":"大字家房","koaza":"","lat":33.883132,"lng":132.233425,"zip":"7422100"},{"town":"大字久賀","koaza":"","lat":33.937672,"lng":132.266959,"zip":"7422100"},{"town":"大字神浦","koaza":"","lat":33.922466,"lng":132.376312,"zip":"7422100"},{"town":"大字小泊","koaza":"","lat":33.91685,"lng":132.389293,"zip":"7422100"},{"town":"大字小松","koaza":"","lat":33.939689,"lng":132.193604,"zip":"7422100"},{"town":"大字小松開作","koaza":"","lat":33.927032,"lng":132.183029,"zip":"7422100"},{"town":"大字地家室","koaza":"","lat":33.870984,"lng":132.350426,"zip":"7422100"},{"town":"大字志佐","koaza":"","lat":33.917028,"lng":132.184219,"zip":"7422100"},{"town":"大字土居","koaza":"","lat":33.913336,"lng":132.308137,"zip":"7422100"},{"town":"大字外入","koaza":"","lat":33.874698,"lng":132.336547,"zip":"7422100"},{"town":"大字西安下庄","koaza":"","lat":33.893016,"lng":132.263799,"zip":"7422100"},{"town":"大字西方","koaza":"","lat":33.885511,"lng":132.35745,"zip":"7422100"},{"town":"大字西三蒲","koaza":"","lat":33.939376,"lng":132.206511,"zip":"7422100"},{"town":"大字西屋代","koaza":"","lat":33.922739,"lng":132.206458,"zip":"7422100"},{"town":"大字東安下庄","koaza":"","lat":33.902946,"lng":132.292566,"zip":"7422100"},{"town":"大字東三蒲","koaza":"","lat":33.950446,"lng":132.215292,"zip":"7422100"},{"town":"大字東屋代","koaza":"","lat":33.907039,"lng":132.221387,"zip":"7422100"},{"town":"大字日前","koaza":"","lat":33.923689,"lng":132.29114,"zip":"7422100"},{"town":"大字日見","koaza":"","lat":33.903531,"lng":132.188912,"zip":"7422100"},{"town":"大字平野","koaza":"","lat":33.900143,"lng":132.355504,"zip":"7422100"},{"town":"大字戸田","koaza":"","lat":33.877706,"lng":132.208979,"zip":"7422100"},{"town":"大字椋野","koaza":"","lat":33.95067,"lng":132.23157,"zip":"7422100"},{"town":"大字森","koaza":"","lat":33.916954,"lng":132.360797,"zip":"7422100"},{"town":"大字油宇","koaza":"","lat":33.928914,"lng":132.424034,"zip":"7422100"},{"town":"大字油良","koaza":"","lat":33.907242,"lng":132.31386,"zip":"7422100"},{"town":"大字横見","koaza":"","lat":33.895202,"lng":132.194905,"zip":"7422100"},{"town":"大字和佐","koaza":"","lat":33.913794,"lng":132.372351,"zip":"7422100"},{"town":"大字和田","koaza":"","lat":33.935322,"lng":132.411693,"zip":"7422100"}]