[{"town":"相生町","koaza":"","lat":33.953657,"lng":131.245356,"zip":"7550043"},{"town":"上条一丁目","koaza":"","lat":33.977738,"lng":131.237435,"zip":"7550801"},{"town":"上条二丁目","koaza":"","lat":33.975673,"lng":131.237147,"zip":"7550801"},{"town":"上条三丁目","koaza":"","lat":33.973507,"lng":131.234841,"zip":"7550801"},{"town":"上条四丁目","koaza":"","lat":33.974551,"lng":131.2327,"zip":"7550801"},{"town":"上条五丁目","koaza":"","lat":33.977314,"lng":131.235063,"zip":"7550801"},{"town":"朝日町","koaza":"","lat":33.957225,"lng":131.246604,"zip":"7550041"},{"town":"あすとぴあ一丁目","koaza":"","lat":33.982804,"lng":131.294625,"zip":"7550152"},{"town":"あすとぴあ二丁目","koaza":"","lat":33.983088,"lng":131.296473,"zip":"7550152"},{"town":"あすとぴあ三丁目","koaza":"","lat":33.986513,"lng":131.301418,"zip":"7550152"},{"town":"あすとぴあ四丁目","koaza":"","lat":33.983113,"lng":131.29878,"zip":"7550152"},{"town":"あすとぴあ五丁目","koaza":"","lat":33.978018,"lng":131.299489,"zip":"7550152"},{"town":"あすとぴあ六丁目","koaza":"","lat":33.975537,"lng":131.299973,"zip":"7550152"},{"town":"あすとぴあ七丁目","koaza":"","lat":33.978632,"lng":131.295779,"zip":"7550152"},{"town":"居能町一丁目","koaza":"","lat":33.9654,"lng":131.230207,"zip":"7550055"},{"town":"居能町二丁目","koaza":"","lat":33.967078,"lng":131.22999,"zip":"7550055"},{"town":"居能町三丁目","koaza":"","lat":33.970753,"lng":131.228822,"zip":"7550055"},{"town":"今村北一丁目","koaza":"","lat":33.959898,"lng":131.299382,"zip":"7550155"},{"town":"今村北二丁目","koaza":"","lat":33.961101,"lng":131.301954,"zip":"7550155"},{"town":"今村北三丁目","koaza":"","lat":33.963542,"lng":131.303493,"zip":"7550155"},{"town":"今村北四丁目","koaza":"","lat":33.960546,"lng":131.307815,"zip":"7550155"},{"town":"今村北五丁目","koaza":"","lat":33.960348,"lng":131.305898,"zip":"7550155"},{"town":"今村南一丁目","koaza":"","lat":33.952759,"lng":131.301962,"zip":"7550154"},{"town":"今村南二丁目","koaza":"","lat":33.955901,"lng":131.30457,"zip":"7550154"},{"town":"今村南三丁目","koaza":"","lat":33.952991,"lng":131.304888,"zip":"7550154"},{"town":"岩鼻町","koaza":"","lat":33.980532,"lng":131.222809,"zip":"7550810"},{"town":"上町一丁目","koaza":"","lat":33.958764,"lng":131.240501,"zip":"7550051"},{"town":"上町二丁目","koaza":"","lat":33.960074,"lng":131.237983,"zip":"7550051"},{"town":"鵜の島町","koaza":"","lat":33.961628,"lng":131.238159,"zip":"7550062"},{"town":"大字芦河内","koaza":"","lat":34.087076,"lng":131.271661,"zip":"7550000"},{"town":"大字荒瀬","koaza":"","lat":34.066206,"lng":131.293439,"zip":"7550000"},{"town":"大字櫟原","koaza":"","lat":34.090505,"lng":131.30016,"zip":"7550000"},{"town":"大字今富","koaza":"","lat":34.091092,"lng":131.254143,"zip":"7550000"},{"town":"大字棯小野","koaza":"","lat":34.08924,"lng":131.342438,"zip":"7550000"},{"town":"大字瓜生野","koaza":"","lat":34.049656,"lng":131.281696,"zip":"7550000"},{"town":"大字沖宇部","koaza":"","lat":33.930178,"lng":131.276265,"zip":"7550000"},{"town":"大字沖ノ旦","koaza":"","lat":33.995635,"lng":131.238831,"zip":"7550000"},{"town":"大字奥万倉","koaza":"","lat":34.106693,"lng":131.23704,"zip":"7550000"},{"town":"大字小野","koaza":"","lat":34.117241,"lng":131.334786,"zip":"7550000"},{"town":"大字上宇部","koaza":"","lat":33.992852,"lng":131.258064,"zip":"7550000"},{"town":"大字川上","koaza":"","lat":33.993031,"lng":131.273006,"zip":"7550000"},{"town":"大字木田","koaza":"","lat":34.064101,"lng":131.281027,"zip":"7550000"},{"town":"大字車地","koaza":"","lat":34.04434,"lng":131.296209,"zip":"7550000"},{"town":"大字小串","koaza":"","lat":33.949139,"lng":131.232534,"zip":"7550000"},{"town":"大字末信","koaza":"","lat":34.012354,"lng":131.248358,"zip":"7550000"},{"town":"大字棚井","koaza":"","lat":34.024616,"lng":131.23878,"zip":"7550000"},{"town":"大字中宇部","koaza":"","lat":33.972162,"lng":131.258169,"zip":"7550000"},{"town":"大字中山","koaza":"","lat":33.985444,"lng":131.245747,"zip":"7550000"},{"town":"大字西沖の山","koaza":"","lat":33.951356,"lng":131.203145,"zip":"7550000"},{"town":"大字西吉部","koaza":"","lat":34.118625,"lng":131.258063,"zip":"7550000"},{"town":"大字西岐波","koaza":"","lat":33.969316,"lng":131.30799,"zip":"7550000"},{"town":"大字西万倉","koaza":"","lat":34.082934,"lng":131.225778,"zip":"7550000"},{"town":"大字如意寺","koaza":"","lat":34.096925,"lng":131.290791,"zip":"7550000"},{"town":"大字東吉部","koaza":"","lat":34.14217,"lng":131.291333,"zip":"7550000"},{"town":"大字東岐波","koaza":"","lat":33.980255,"lng":131.331788,"zip":"7550000"},{"town":"大字東万倉","koaza":"","lat":34.056758,"lng":131.243347,"zip":"7550000"},{"town":"大字広瀬","koaza":"","lat":34.002407,"lng":131.2384,"zip":"7550000"},{"town":"大字藤河内","koaza":"","lat":34.074138,"lng":131.324226,"zip":"7550000"},{"town":"大字藤曲","koaza":"","lat":33.959983,"lng":131.221147,"zip":"7550000"},{"town":"大字船木","koaza":"","lat":34.052167,"lng":131.207209,"zip":"7550000"},{"town":"大字矢矯","koaza":"","lat":34.077203,"lng":131.250256,"zip":"7550000"},{"town":"大字山中","koaza":"","lat":34.058123,"lng":131.315884,"zip":"7550000"},{"town":"大字吉見","koaza":"","lat":34.042592,"lng":131.257078,"zip":"7550000"},{"town":"大字善和","koaza":"","lat":34.016707,"lng":131.287257,"zip":"7550000"},{"town":"大小路一丁目","koaza":"","lat":33.968681,"lng":131.270325,"zip":"7550076"},{"town":"大小路二丁目","koaza":"","lat":33.967589,"lng":131.273815,"zip":"7550076"},{"town":"大小路三丁目","koaza":"","lat":33.965442,"lng":131.26665,"zip":"7550076"},{"town":"恩田町一丁目","koaza":"","lat":33.944013,"lng":131.260908,"zip":"7550023"},{"town":"恩田町二丁目","koaza":"","lat":33.945378,"lng":131.263671,"zip":"7550023"},{"town":"恩田町三丁目","koaza":"","lat":33.946787,"lng":131.266474,"zip":"7550023"},{"town":"恩田町四丁目","koaza":"","lat":33.94508,"lng":131.269792,"zip":"7550023"},{"town":"恩田町五丁目","koaza":"","lat":33.941071,"lng":131.267449,"zip":"7550023"},{"town":"海南町","koaza":"","lat":33.958115,"lng":131.262737,"zip":"7550038"},{"town":"上野中町","koaza":"","lat":33.952902,"lng":131.272725,"zip":"7550092"},{"town":"神原町一丁目","koaza":"","lat":33.950073,"lng":131.257692,"zip":"7550022"},{"town":"神原町二丁目","koaza":"","lat":33.947975,"lng":131.26126,"zip":"7550022"},{"town":"亀浦一丁目","koaza":"","lat":33.943936,"lng":131.285598,"zip":"7550002"},{"town":"亀浦二丁目","koaza":"","lat":33.940965,"lng":131.284278,"zip":"7550002"},{"town":"亀浦三丁目","koaza":"","lat":33.941075,"lng":131.288424,"zip":"7550002"},{"town":"亀浦四丁目","koaza":"","lat":33.938483,"lng":131.288341,"zip":"7550002"},{"town":"亀浦五丁目","koaza":"","lat":33.938154,"lng":131.282259,"zip":"7550002"},{"town":"川添一丁目","koaza":"","lat":33.972902,"lng":131.268557,"zip":"7550074"},{"town":"川添二丁目","koaza":"","lat":33.970631,"lng":131.265857,"zip":"7550074"},{"town":"川添三丁目","koaza":"","lat":33.97116,"lng":131.264907,"zip":"7550074"},{"town":"北小羽山町一丁目","koaza":"","lat":33.976749,"lng":131.253987,"zip":"7550081"},{"town":"北小羽山町二丁目","koaza":"","lat":33.978788,"lng":131.256991,"zip":"7550081"},{"town":"北小羽山町三丁目","koaza":"","lat":33.979651,"lng":131.25555,"zip":"7550081"},{"town":"北小羽山町四丁目","koaza":"","lat":33.980094,"lng":131.259207,"zip":"7550081"},{"town":"北琴芝一丁目","koaza":"","lat":33.960149,"lng":131.255297,"zip":"7550036"},{"town":"北琴芝二丁目","koaza":"","lat":33.958483,"lng":131.257964,"zip":"7550036"},{"town":"北条一丁目","koaza":"","lat":33.972488,"lng":131.23869,"zip":"7550802"},{"town":"北条二丁目","koaza":"","lat":33.972331,"lng":131.237072,"zip":"7550802"},{"town":"草江一丁目","koaza":"","lat":33.939975,"lng":131.270514,"zip":"7550004"},{"town":"草江二丁目","koaza":"","lat":33.938926,"lng":131.274056,"zip":"7550004"},{"town":"草江三丁目","koaza":"","lat":33.936954,"lng":131.272314,"zip":"7550004"},{"town":"草江四丁目","koaza":"","lat":33.934805,"lng":131.271832,"zip":"7550004"},{"town":"厚南北二丁目","koaza":"","lat":33.999276,"lng":131.215962,"zip":"7590209"},{"town":"厚南北三丁目","koaza":"","lat":34.000461,"lng":131.212176,"zip":"7590209"},{"town":"厚南北四丁目","koaza":"","lat":34.003926,"lng":131.213629,"zip":"7590209"},{"town":"厚南北五丁目","koaza":"","lat":34.002227,"lng":131.217475,"zip":"7590209"},{"town":"五十目山町","koaza":"","lat":33.936767,"lng":131.267896,"zip":"7550005"},{"town":"琴崎町","koaza":"","lat":33.971027,"lng":131.268052,"zip":"7550075"},{"town":"琴芝町一丁目","koaza":"","lat":33.955042,"lng":131.250418,"zip":"7550033"},{"town":"琴芝町二丁目","koaza":"","lat":33.952935,"lng":131.253964,"zip":"7550033"},{"town":"寿町一丁目","koaza":"","lat":33.953888,"lng":131.248222,"zip":"7550032"},{"town":"寿町二丁目","koaza":"","lat":33.952394,"lng":131.250289,"zip":"7550032"},{"town":"寿町三丁目","koaza":"","lat":33.950872,"lng":131.25249,"zip":"7550032"},{"town":"小松原町一丁目","koaza":"","lat":33.964703,"lng":131.241361,"zip":"7550066"},{"town":"小松原町二丁目","koaza":"","lat":33.96325,"lng":131.239675,"zip":"7550066"},{"town":"幸町","koaza":"","lat":33.939091,"lng":131.253441,"zip":"7550012"},{"town":"笹山町一丁目","koaza":"","lat":33.940044,"lng":131.261657,"zip":"7550015"},{"town":"笹山町二丁目","koaza":"","lat":33.938762,"lng":131.263822,"zip":"7550015"},{"town":"芝中町","koaza":"","lat":33.943813,"lng":131.25761,"zip":"7550017"},{"town":"島一丁目","koaza":"","lat":33.960238,"lng":131.245139,"zip":"7550047"},{"town":"島二丁目","koaza":"","lat":33.961043,"lng":131.24414,"zip":"7550047"},{"town":"島三丁目","koaza":"","lat":33.961835,"lng":131.242263,"zip":"7550047"},{"town":"下条一丁目","koaza":"","lat":33.962867,"lng":131.245275,"zip":"7550048"},{"town":"下条二丁目","koaza":"","lat":33.963557,"lng":131.243415,"zip":"7550048"},{"town":"昭和町一丁目","koaza":"","lat":33.942474,"lng":131.253962,"zip":"7550011"},{"town":"昭和町二丁目","koaza":"","lat":33.939632,"lng":131.255755,"zip":"7550011"},{"town":"昭和町三丁目","koaza":"","lat":33.936905,"lng":131.256302,"zip":"7550011"},{"town":"昭和町四丁目","koaza":"","lat":33.934051,"lng":131.2579,"zip":"7550011"},{"town":"新天町一丁目","koaza":"","lat":33.950148,"lng":131.246567,"zip":"7550029"},{"town":"新天町二丁目","koaza":"","lat":33.948218,"lng":131.249808,"zip":"7550029"},{"town":"新町","koaza":"","lat":33.949276,"lng":131.243712,"zip":"7550044"},{"town":"末広町","koaza":"","lat":33.935842,"lng":131.263617,"zip":"7550014"},{"town":"助田町","koaza":"","lat":33.962901,"lng":131.230727,"zip":"7550054"},{"town":"中央町一丁目","koaza":"","lat":33.95622,"lng":131.242746,"zip":"7550045"},{"town":"中央町二丁目","koaza":"","lat":33.953618,"lng":131.242637,"zip":"7550045"},{"town":"中央町三丁目","koaza":"","lat":33.954607,"lng":131.240603,"zip":"7550045"},{"town":"常藤町","koaza":"","lat":33.949451,"lng":131.254426,"zip":"7550021"},{"town":"寺の前町","koaza":"","lat":33.962727,"lng":131.268642,"zip":"7550078"},{"town":"常盤台一丁目","koaza":"","lat":33.957866,"lng":131.268401,"zip":"7550097"},{"town":"常盤台二丁目","koaza":"","lat":33.955912,"lng":131.274037,"zip":"7550097"},{"town":"常盤町一丁目","koaza":"","lat":33.951397,"lng":131.247792,"zip":"7550031"},{"town":"常盤町二丁目","koaza":"","lat":33.949522,"lng":131.250582,"zip":"7550031"},{"town":"床波一丁目","koaza":"","lat":33.951331,"lng":131.307523,"zip":"7550153"},{"town":"床波二丁目","koaza":"","lat":33.95324,"lng":131.306449,"zip":"7550153"},{"town":"床波三丁目","koaza":"","lat":33.956269,"lng":131.310472,"zip":"7550153"},{"town":"床波四丁目","koaza":"","lat":33.95796,"lng":131.3153,"zip":"7550153"},{"town":"床波五丁目","koaza":"","lat":33.954743,"lng":131.315173,"zip":"7550153"},{"town":"床波六丁目","koaza":"","lat":33.95231,"lng":131.310184,"zip":"7550153"},{"town":"中尾一丁目","koaza":"","lat":33.968047,"lng":131.263806,"zip":"7550073"},{"town":"中尾二丁目","koaza":"","lat":33.965839,"lng":131.263734,"zip":"7550073"},{"town":"中村一丁目","koaza":"","lat":33.967424,"lng":131.258681,"zip":"7550072"},{"town":"中村二丁目","koaza":"","lat":33.964295,"lng":131.261993,"zip":"7550072"},{"town":"中村三丁目","koaza":"","lat":33.962777,"lng":131.259438,"zip":"7550072"},{"town":"鍋倉町","koaza":"","lat":33.96791,"lng":131.233126,"zip":"7550064"},{"town":"西宇部北一丁目","koaza":"","lat":34.00243,"lng":131.22818,"zip":"7590211"},{"town":"西宇部北二丁目","koaza":"","lat":34.00345,"lng":131.223696,"zip":"7590211"},{"town":"西宇部北三丁目","koaza":"","lat":34.00582,"lng":131.222676,"zip":"7590211"},{"town":"西宇部北四丁目","koaza":"","lat":34.009793,"lng":131.222384,"zip":"7590211"},{"town":"西宇部北五丁目","koaza":"","lat":34.007712,"lng":131.225125,"zip":"7590211"},{"town":"西宇部北六丁目","koaza":"","lat":34.010036,"lng":131.226387,"zip":"7590211"},{"town":"西宇部北七丁目","koaza":"","lat":34.003829,"lng":131.226984,"zip":"7590211"},{"town":"西宇部南一丁目","koaza":"","lat":33.999484,"lng":131.224425,"zip":"7590208"},{"town":"西宇部南二丁目","koaza":"","lat":33.999307,"lng":131.22228,"zip":"7590208"},{"town":"西宇部南四丁目","koaza":"","lat":34.0033,"lng":131.220158,"zip":"7590208"},{"town":"西梶返一丁目","koaza":"","lat":33.956246,"lng":131.261465,"zip":"7550037"},{"town":"西梶返二丁目","koaza":"","lat":33.953753,"lng":131.261137,"zip":"7550037"},{"town":"西梶返三丁目","koaza":"","lat":33.952387,"lng":131.259079,"zip":"7550037"},{"town":"錦町","koaza":"","lat":33.945745,"lng":131.251843,"zip":"7550018"},{"town":"西小串一丁目","koaza":"","lat":33.962964,"lng":131.248427,"zip":"7550049"},{"town":"西小串二丁目","koaza":"","lat":33.964716,"lng":131.249904,"zip":"7550049"},{"town":"西琴芝一丁目","koaza":"","lat":33.958487,"lng":131.252125,"zip":"7550035"},{"town":"西琴芝二丁目","koaza":"","lat":33.956593,"lng":131.251435,"zip":"7550035"},{"town":"西中町","koaza":"","lat":33.961099,"lng":131.234078,"zip":"7550053"},{"town":"西平原一丁目","koaza":"","lat":33.978933,"lng":131.226254,"zip":"7550808"},{"town":"西平原二丁目","koaza":"","lat":33.975858,"lng":131.224426,"zip":"7550808"},{"town":"西平原三丁目","koaza":"","lat":33.971821,"lng":131.226131,"zip":"7550808"},{"town":"西平原四丁目","koaza":"","lat":33.973366,"lng":131.222213,"zip":"7550808"},{"town":"西本町一丁目","koaza":"","lat":33.957052,"lng":131.238783,"zip":"7550052"},{"town":"西本町二丁目","koaza":"","lat":33.958769,"lng":131.236629,"zip":"7550052"},{"town":"沼一丁目","koaza":"","lat":33.962966,"lng":131.264691,"zip":"7550085"},{"town":"沼二丁目","koaza":"","lat":33.960089,"lng":131.263836,"zip":"7550085"},{"town":"沼三丁目","koaza":"","lat":33.960307,"lng":131.267848,"zip":"7550085"},{"town":"野中一丁目","koaza":"","lat":33.950138,"lng":131.273861,"zip":"7550025"},{"town":"野中二丁目","koaza":"","lat":33.947272,"lng":131.274429,"zip":"7550025"},{"town":"野中三丁目","koaza":"","lat":33.948683,"lng":131.282078,"zip":"7550025"},{"town":"野中四丁目","koaza":"","lat":33.949669,"lng":131.277731,"zip":"7550025"},{"town":"野中五丁目","koaza":"","lat":33.947086,"lng":131.277218,"zip":"7550025"},{"town":"野原一丁目","koaza":"","lat":33.948353,"lng":131.270087,"zip":"7550024"},{"town":"野原二丁目","koaza":"","lat":33.94507,"lng":131.273144,"zip":"7550024"},{"town":"則貞一丁目","koaza":"","lat":33.943923,"lng":131.273807,"zip":"7550003"},{"town":"則貞二丁目","koaza":"","lat":33.944046,"lng":131.277889,"zip":"7550003"},{"town":"則貞三丁目","koaza":"","lat":33.945488,"lng":131.282252,"zip":"7550003"},{"town":"則貞四丁目","koaza":"","lat":33.940658,"lng":131.280622,"zip":"7550003"},{"town":"則貞五丁目","koaza":"","lat":33.940998,"lng":131.277803,"zip":"7550003"},{"town":"則貞六丁目","koaza":"","lat":33.939472,"lng":131.275812,"zip":"7550003"},{"town":"八王子町","koaza":"","lat":33.927806,"lng":131.26519,"zip":"7550007"},{"town":"浜田一丁目","koaza":"","lat":33.986549,"lng":131.232888,"zip":"7550806"},{"town":"浜田二丁目","koaza":"","lat":33.985341,"lng":131.229334,"zip":"7550806"},{"town":"浜田三丁目","koaza":"","lat":33.988944,"lng":131.230123,"zip":"7550806"},{"town":"浜町一丁目","koaza":"","lat":33.966468,"lng":131.237086,"zip":"7550065"},{"town":"浜町二丁目","koaza":"","lat":33.965515,"lng":131.235605,"zip":"7550065"},{"town":"東小羽山町一丁目","koaza":"","lat":33.980359,"lng":131.264482,"zip":"7550082"},{"town":"東小羽山町二丁目","koaza":"","lat":33.980803,"lng":131.262079,"zip":"7550082"},{"town":"東小羽山町三丁目","koaza":"","lat":33.98314,"lng":131.26137,"zip":"7550082"},{"town":"東小羽山町四丁目","koaza":"","lat":33.983923,"lng":131.263914,"zip":"7550082"},{"town":"東小羽山町五丁目","koaza":"","lat":33.986163,"lng":131.263488,"zip":"7550082"},{"town":"東梶返一丁目","koaza":"","lat":33.956019,"lng":131.266576,"zip":"7550039"},{"town":"東梶返二丁目","koaza":"","lat":33.953141,"lng":131.267149,"zip":"7550039"},{"town":"東梶返三丁目","koaza":"","lat":33.950206,"lng":131.267118,"zip":"7550039"},{"town":"東梶返四丁目","koaza":"","lat":33.950431,"lng":131.262221,"zip":"7550039"},{"town":"東小串一丁目","koaza":"","lat":33.961982,"lng":131.251064,"zip":"7550068"},{"town":"東小串二丁目","koaza":"","lat":33.96381,"lng":131.251886,"zip":"7550068"},{"town":"東琴芝一丁目","koaza":"","lat":33.95629,"lng":131.256264,"zip":"7550034"},{"town":"東琴芝二丁目","koaza":"","lat":33.954592,"lng":131.255277,"zip":"7550034"},{"town":"東芝中町","koaza":"","lat":33.939776,"lng":131.259013,"zip":"7550016"},{"town":"東新川町","koaza":"","lat":33.947429,"lng":131.256067,"zip":"7550019"},{"town":"東平原一丁目","koaza":"","lat":33.978761,"lng":131.231914,"zip":"7550807"},{"town":"東平原二丁目","koaza":"","lat":33.977496,"lng":131.229166,"zip":"7550807"},{"town":"東藤曲一丁目","koaza":"","lat":33.969541,"lng":131.235541,"zip":"7550803"},{"town":"東藤曲二丁目","koaza":"","lat":33.970435,"lng":131.233242,"zip":"7550803"},{"town":"東本町一丁目","koaza":"","lat":33.948624,"lng":131.246084,"zip":"7550028"},{"town":"東本町二丁目","koaza":"","lat":33.947074,"lng":131.248274,"zip":"7550028"},{"town":"東見初町","koaza":"","lat":33.934758,"lng":131.255185,"zip":"7550009"},{"town":"開一丁目","koaza":"","lat":33.963434,"lng":131.277056,"zip":"7550096"},{"town":"開二丁目","koaza":"","lat":33.966605,"lng":131.281582,"zip":"7550096"},{"town":"開三丁目","koaza":"","lat":33.961547,"lng":131.284703,"zip":"7550096"},{"town":"開四丁目","koaza":"","lat":33.958671,"lng":131.281409,"zip":"7550096"},{"town":"開五丁目","koaza":"","lat":33.955633,"lng":131.27967,"zip":"7550096"},{"town":"開六丁目","koaza":"","lat":33.959862,"lng":131.276619,"zip":"7550096"},{"town":"風呂ヶ迫町","koaza":"","lat":33.96681,"lng":131.277722,"zip":"7550000"},{"town":"文京台一丁目","koaza":"","lat":33.982744,"lng":131.233602,"zip":"7550805"},{"town":"文京台二丁目","koaza":"","lat":33.979508,"lng":131.234482,"zip":"7550805"},{"town":"文京台三丁目","koaza":"","lat":33.98171,"lng":131.229034,"zip":"7550805"},{"town":"文京町","koaza":"","lat":33.972589,"lng":131.230925,"zip":"7550056"},{"town":"松崎町","koaza":"","lat":33.982571,"lng":131.225345,"zip":"7550809"},{"town":"松島町","koaza":"","lat":33.956322,"lng":131.244993,"zip":"7550042"},{"town":"松山町一丁目","koaza":"","lat":33.946764,"lng":131.253549,"zip":"7550026"},{"town":"松山町二丁目","koaza":"","lat":33.943204,"lng":131.255618,"zip":"7550026"},{"town":"松山町三丁目","koaza":"","lat":33.940209,"lng":131.257084,"zip":"7550026"},{"town":"松山町四丁目","koaza":"","lat":33.937451,"lng":131.259091,"zip":"7550026"},{"town":"松山町五丁目","koaza":"","lat":33.935217,"lng":131.260257,"zip":"7550026"},{"town":"岬町一丁目","koaza":"","lat":33.932649,"lng":131.261758,"zip":"7550006"},{"town":"岬町二丁目","koaza":"","lat":33.931378,"lng":131.265047,"zip":"7550006"},{"town":"岬町三丁目","koaza":"","lat":33.93162,"lng":131.268436,"zip":"7550006"},{"town":"港町一丁目","koaza":"","lat":33.945053,"lng":131.246469,"zip":"7550027"},{"town":"港町二丁目","koaza":"","lat":33.942492,"lng":131.248927,"zip":"7550027"},{"town":"南小羽山町一丁目","koaza":"","lat":33.973645,"lng":131.256113,"zip":"7550083"},{"town":"南小羽山町二丁目","koaza":"","lat":33.976509,"lng":131.258297,"zip":"7550083"},{"town":"南小羽山町三丁目","koaza":"","lat":33.976158,"lng":131.255501,"zip":"7550083"},{"town":"南小串一丁目","koaza":"","lat":33.959376,"lng":131.249028,"zip":"7550046"},{"town":"南小串二丁目","koaza":"","lat":33.959975,"lng":131.24662,"zip":"7550046"},{"town":"南中山町","koaza":"","lat":33.982254,"lng":131.237155,"zip":"7550804"},{"town":"南浜町一丁目","koaza":"","lat":33.963008,"lng":131.235387,"zip":"7550063"},{"town":"南浜町二丁目","koaza":"","lat":33.964336,"lng":131.233019,"zip":"7550063"},{"town":"宮地町","koaza":"","lat":33.963311,"lng":131.255658,"zip":"7550071"},{"town":"明神町一丁目","koaza":"","lat":33.929863,"lng":131.2618,"zip":"7550008"},{"town":"明神町二丁目","koaza":"","lat":33.929126,"lng":131.259706,"zip":"7550008"},{"town":"明神町三丁目","koaza":"","lat":33.929094,"lng":131.256325,"zip":"7550008"},{"town":"明治町一丁目","koaza":"","lat":33.944738,"lng":131.250306,"zip":"7550013"},{"town":"明治町二丁目","koaza":"","lat":33.941758,"lng":131.25235,"zip":"7550013"},{"town":"山門一丁目","koaza":"","lat":33.965266,"lng":131.269573,"zip":"7550077"},{"town":"山門二丁目","koaza":"","lat":33.965553,"lng":131.274879,"zip":"7550077"},{"town":"山門三丁目","koaza":"","lat":33.964252,"lng":131.272399,"zip":"7550077"},{"town":"山門四丁目","koaza":"","lat":33.962913,"lng":131.274344,"zip":"7550077"},{"town":"山門五丁目","koaza":"","lat":33.96073,"lng":131.272077,"zip":"7550077"},{"town":"山の手町","koaza":"","lat":34.006842,"lng":131.231605,"zip":"7590201"},{"town":"若松町","koaza":"","lat":33.959502,"lng":131.242291,"zip":"7550061"},{"town":"厚南北一丁目","koaza":"","lat":33.999455,"lng":131.218727,"zip":"7590209"},{"town":"厚南中央四丁目","koaza":"","lat":33.996274,"lng":131.214964,"zip":"7590212"},{"town":"厚南中央五丁目","koaza":"","lat":33.992674,"lng":131.213496,"zip":"7590212"},{"town":"厚南中央三丁目","koaza":"","lat":33.994208,"lng":131.216342,"zip":"7590212"},{"town":"西宇部南三丁目","koaza":"","lat":34.000082,"lng":131.22047,"zip":"7590208"},{"town":"厚南中央二丁目","koaza":"","lat":33.995962,"lng":131.21811,"zip":"7590212"},{"town":"厚南中央一丁目","koaza":"","lat":33.995481,"lng":131.221294,"zip":"7590212"},{"town":"大字際波","koaza":"","lat":34.00695,"lng":131.213125,"zip":"7550000"},{"town":"黒石北一丁目","koaza":"","lat":33.989651,"lng":131.214213,"zip":"7590213"},{"town":"大字妻崎開作","koaza":"","lat":33.972759,"lng":131.209858,"zip":"7550000"},{"town":"大字中野開作","koaza":"","lat":33.987053,"lng":131.216857,"zip":"7550000"},{"town":"黒石北二丁目","koaza":"","lat":33.987709,"lng":131.212348,"zip":"7590213"},{"town":"黒石北三丁目","koaza":"","lat":33.98506,"lng":131.208752,"zip":"7590213"},{"town":"厚南中央六丁目","koaza":"","lat":33.99119,"lng":131.211249,"zip":"7590212"},{"town":"黒石北五丁目","koaza":"","lat":33.98923,"lng":131.209647,"zip":"7590213"},{"town":"黒石北四丁目","koaza":"","lat":33.987472,"lng":131.207298,"zip":"7590213"},{"town":"大字東須恵","koaza":"","lat":33.979279,"lng":131.195274,"zip":"7550000"},{"town":"西小串三丁目","koaza":"","lat":33.966077,"lng":131.247101,"zip":"7550049"},{"town":"西小串四丁目","koaza":"","lat":33.966907,"lng":131.245383,"zip":"7550049"},{"town":"西小串五丁目","koaza":"","lat":33.964518,"lng":131.244143,"zip":"7550049"},{"town":"西小串六丁目","koaza":"","lat":33.964206,"lng":131.246473,"zip":"7550049"},{"town":"大字東須恵","koaza":"梅田堤下","lat":33.975182,"lng":131.189474,"zip":"7550000"},{"town":"大字東須恵","koaza":"下岡の上","lat":33.994634,"lng":131.207483,"zip":"7550000"},{"town":"大字際波","koaza":"北迫","lat":34.009591,"lng":131.232187,"zip":"7550000"},{"town":"大字西岐波","koaza":"萩原","lat":33.977183,"lng":131.286512,"zip":"7550000"}]