[{"town":"秋穂西","koaza":"","lat":34.02895,"lng":131.440473,"zip":"7541102"},{"town":"秋穂東","koaza":"","lat":34.01481,"lng":131.452946,"zip":"7541101"},{"town":"秋穂二島","koaza":"","lat":34.043147,"lng":131.4189,"zip":"7540893"},{"town":"葵一丁目","koaza":"","lat":34.160606,"lng":131.450175,"zip":"7530821"},{"town":"葵二丁目","koaza":"","lat":34.162193,"lng":131.450567,"zip":"7530821"},{"town":"青葉台","koaza":"","lat":34.206388,"lng":131.504495,"zip":"7530012"},{"town":"赤妻町","koaza":"","lat":34.171304,"lng":131.446816,"zip":"7530067"},{"town":"朝倉町","koaza":"","lat":34.179891,"lng":131.448259,"zip":"7530061"},{"town":"朝田","koaza":"","lat":34.149879,"lng":131.41732,"zip":"7530871"},{"town":"旭通り一丁目","koaza":"","lat":34.170192,"lng":131.472521,"zip":"7530051"},{"town":"旭通り二丁目","koaza":"","lat":34.168331,"lng":131.474627,"zip":"7530051"},{"town":"阿知須","koaza":"","lat":34.016356,"lng":131.343505,"zip":"7541277"},{"town":"阿東生雲中","koaza":"","lat":34.361621,"lng":131.589582,"zip":"7591342"},{"town":"阿東生雲西分","koaza":"","lat":34.41096,"lng":131.63142,"zip":"7591341"},{"town":"阿東生雲東分","koaza":"","lat":34.337362,"lng":131.612711,"zip":"7591231"},{"town":"阿東嘉年上","koaza":"","lat":34.482285,"lng":131.665675,"zip":"7591601"},{"town":"阿東嘉年下","koaza":"","lat":34.44444,"lng":131.668344,"zip":"7591602"},{"town":"阿東篠目","koaza":"","lat":34.280764,"lng":131.554278,"zip":"7591232"},{"town":"阿東地福上","koaza":"","lat":34.378543,"lng":131.662224,"zip":"7591421"},{"town":"阿東地福下","koaza":"","lat":34.337531,"lng":131.653968,"zip":"7591422"},{"town":"阿東蔵目喜","koaza":"","lat":34.387344,"lng":131.568409,"zip":"7591343"},{"town":"阿東徳佐上","koaza":"","lat":34.409853,"lng":131.76154,"zip":"7591511"},{"town":"阿東徳佐下","koaza":"","lat":34.400992,"lng":131.693032,"zip":"7591513"},{"town":"阿東徳佐中","koaza":"","lat":34.405739,"lng":131.719278,"zip":"7591512"},{"town":"石観音町","koaza":"","lat":34.183467,"lng":131.483092,"zip":"7530038"},{"town":"維新公園一丁目","koaza":"","lat":34.162341,"lng":131.438065,"zip":"7530815"},{"town":"維新公園二丁目","koaza":"","lat":34.159224,"lng":131.442018,"zip":"7530815"},{"town":"維新公園三丁目","koaza":"","lat":34.154614,"lng":131.441232,"zip":"7530815"},{"town":"維新公園四丁目","koaza":"","lat":34.156309,"lng":131.437688,"zip":"7530815"},{"town":"維新公園五丁目","koaza":"","lat":34.161134,"lng":131.435111,"zip":"7530815"},{"town":"維新公園六丁目","koaza":"","lat":34.159075,"lng":131.434046,"zip":"7530815"},{"town":"泉町","koaza":"","lat":34.16769,"lng":131.450946,"zip":"7530066"},{"town":"今井町","koaza":"","lat":34.160731,"lng":131.458025,"zip":"7530055"},{"town":"後河原","koaza":"","lat":34.184096,"lng":131.47636,"zip":"7530083"},{"town":"駅通り一丁目","koaza":"","lat":34.173114,"lng":131.478558,"zip":"7530048"},{"town":"駅通り二丁目","koaza":"","lat":34.174831,"lng":131.479639,"zip":"7530048"},{"town":"江崎","koaza":"","lat":34.061834,"lng":131.354067,"zip":"7540896"},{"town":"江良一丁目","koaza":"","lat":34.190948,"lng":131.486784,"zip":"7530017"},{"town":"江良二丁目","koaza":"","lat":34.1932,"lng":131.483488,"zip":"7530017"},{"town":"江良三丁目","koaza":"","lat":34.193571,"lng":131.48603,"zip":"7530017"},{"town":"円政寺","koaza":"","lat":34.182045,"lng":131.481878,"zip":"7530036"},{"town":"円政寺町","koaza":"","lat":34.181007,"lng":131.482622,"zip":"7530036"},{"town":"大市町","koaza":"","lat":34.179131,"lng":131.48011,"zip":"7530033"},{"town":"大内長野","koaza":"","lat":34.160596,"lng":131.526461,"zip":"7530211"},{"town":"大内矢田","koaza":"","lat":34.145569,"lng":131.507015,"zip":"7530215"},{"town":"大内矢田北三丁目","koaza":"","lat":34.157043,"lng":131.504161,"zip":"7530221"},{"town":"大内矢田北四丁目","koaza":"","lat":34.155812,"lng":131.507479,"zip":"7530221"},{"town":"大内矢田北五丁目","koaza":"","lat":34.155175,"lng":131.510389,"zip":"7530221"},{"town":"大内矢田北六丁目","koaza":"","lat":34.153945,"lng":131.513502,"zip":"7530221"},{"town":"大内矢田南三丁目","koaza":"","lat":34.153563,"lng":131.50314,"zip":"7530222"},{"town":"大内矢田南四丁目","koaza":"","lat":34.152671,"lng":131.506458,"zip":"7530222"},{"town":"大内矢田南五丁目","koaza":"","lat":34.150465,"lng":131.503242,"zip":"7530222"},{"town":"大内矢田南六丁目","koaza":"","lat":34.147706,"lng":131.505488,"zip":"7530222"},{"town":"大内矢田南七丁目","koaza":"","lat":34.151992,"lng":131.510031,"zip":"7530222"},{"town":"大内矢田南八丁目","koaza":"","lat":34.151568,"lng":131.514115,"zip":"7530222"},{"town":"大手町","koaza":"","lat":34.183333,"lng":131.474152,"zip":"7530072"},{"town":"大殿大路","koaza":"","lat":34.183683,"lng":131.480562,"zip":"7530093"},{"town":"小郡維新町","koaza":"","lat":34.087362,"lng":131.399626,"zip":"7540029"},{"town":"小郡円座西町","koaza":"","lat":34.114899,"lng":131.38715,"zip":"7540008"},{"town":"小郡円座東町","koaza":"","lat":34.113761,"lng":131.389769,"zip":"7540007"},{"town":"小郡大江町","koaza":"","lat":34.093419,"lng":131.402951,"zip":"7540015"},{"town":"小郡尾崎町","koaza":"","lat":34.109141,"lng":131.395061,"zip":"7540006"},{"town":"小郡金堀町","koaza":"","lat":34.109953,"lng":131.390313,"zip":"7540004"},{"town":"小郡上郷","koaza":"","lat":34.134546,"lng":131.395526,"zip":"7540001"},{"town":"小郡給領町","koaza":"","lat":34.086366,"lng":131.402244,"zip":"7540028"},{"town":"小郡黄金町","koaza":"","lat":34.090418,"lng":131.398007,"zip":"7540021"},{"town":"小郡栄町","koaza":"","lat":34.088741,"lng":131.402883,"zip":"7540026"},{"town":"小郡三軒屋町","koaza":"","lat":34.087695,"lng":131.4039,"zip":"7540027"},{"town":"小郡下郷","koaza":"","lat":34.098978,"lng":131.392352,"zip":"7540002"},{"town":"小郡新町一丁目","koaza":"","lat":34.113173,"lng":131.398799,"zip":"7540031"},{"town":"小郡新町二丁目","koaza":"","lat":34.113918,"lng":131.394345,"zip":"7540031"},{"town":"小郡新町三丁目","koaza":"","lat":34.116225,"lng":131.394317,"zip":"7540031"},{"town":"小郡新町四丁目","koaza":"","lat":34.115386,"lng":131.399555,"zip":"7540031"},{"town":"小郡新町五丁目","koaza":"","lat":34.112707,"lng":131.402777,"zip":"7540031"},{"town":"小郡新町六丁目","koaza":"","lat":34.117716,"lng":131.400676,"zip":"7540031"},{"town":"小郡新町七丁目","koaza":"","lat":34.119277,"lng":131.39751,"zip":"7540031"},{"town":"小郡高砂町","koaza":"","lat":34.092605,"lng":131.400285,"zip":"7540014"},{"town":"小郡花園町","koaza":"","lat":34.088912,"lng":131.39612,"zip":"7540022"},{"town":"小郡光が丘","koaza":"","lat":34.123959,"lng":131.397471,"zip":"7540033"},{"town":"小郡平砂町","koaza":"","lat":34.088383,"lng":131.393445,"zip":"7540025"},{"town":"小郡船倉町","koaza":"","lat":34.092793,"lng":131.404764,"zip":"7540012"},{"town":"小郡平成町","koaza":"","lat":34.088321,"lng":131.401033,"zip":"7540020"},{"town":"小郡前田町","koaza":"","lat":34.086147,"lng":131.397809,"zip":"7540023"},{"town":"小郡真名","koaza":"","lat":34.132055,"lng":131.376701,"zip":"7540003"},{"town":"小郡緑町","koaza":"","lat":34.090864,"lng":131.401714,"zip":"7540013"},{"town":"小郡御幸町","koaza":"","lat":34.09339,"lng":131.398447,"zip":"7540011"},{"town":"小郡みらい町一丁目","koaza":"","lat":34.120115,"lng":131.402244,"zip":"7540032"},{"town":"小郡みらい町二丁目","koaza":"","lat":34.120907,"lng":131.399415,"zip":"7540032"},{"town":"小郡山手上町","koaza":"","lat":34.106609,"lng":131.392742,"zip":"7540005"},{"town":"小郡若草町","koaza":"","lat":34.085394,"lng":131.394907,"zip":"7540024"},{"town":"折本一丁目","koaza":"","lat":34.188659,"lng":131.496382,"zip":"7530022"},{"town":"折本二丁目","koaza":"","lat":34.191795,"lng":131.500766,"zip":"7530022"},{"town":"嘉川","koaza":"","lat":34.085941,"lng":131.369837,"zip":"7540897"},{"town":"春日町","koaza":"","lat":34.18228,"lng":131.471702,"zip":"7530073"},{"town":"金古曽町","koaza":"","lat":34.185695,"lng":131.485172,"zip":"7530024"},{"town":"上小鯖","koaza":"","lat":34.107999,"lng":131.504974,"zip":"7530213"},{"town":"上竪小路","koaza":"","lat":34.187272,"lng":131.47693,"zip":"7530035"},{"town":"上天花町","koaza":"","lat":34.210642,"lng":131.462008,"zip":"7530891"},{"town":"亀山町","koaza":"","lat":34.179808,"lng":131.473166,"zip":"7530089"},{"town":"神田町","koaza":"","lat":34.172889,"lng":131.45585,"zip":"7530064"},{"town":"木町","koaza":"","lat":34.19131,"lng":131.474258,"zip":"7530095"},{"town":"楠木町","koaza":"","lat":34.170923,"lng":131.4533,"zip":"7530065"},{"town":"久保小路","koaza":"","lat":34.180788,"lng":131.479018,"zip":"7530084"},{"town":"熊野町","koaza":"","lat":34.168792,"lng":131.461261,"zip":"7530077"},{"town":"黒川","koaza":"","lat":34.129471,"lng":131.450791,"zip":"7530851"},{"town":"香山町","koaza":"","lat":34.189231,"lng":131.473116,"zip":"7530081"},{"town":"黄金町","koaza":"","lat":34.171499,"lng":131.476774,"zip":"7530045"},{"town":"米屋町","koaza":"","lat":34.17696,"lng":131.477227,"zip":"7530087"},{"town":"幸町","koaza":"","lat":34.158695,"lng":131.450974,"zip":"7530826"},{"town":"桜畠一丁目","koaza":"","lat":34.191093,"lng":131.495492,"zip":"7530021"},{"town":"桜畠二丁目","koaza":"","lat":34.192819,"lng":131.499618,"zip":"7530021"},{"town":"桜畠三丁目","koaza":"","lat":34.194107,"lng":131.498567,"zip":"7530021"},{"town":"桜畠四丁目","koaza":"","lat":34.195992,"lng":131.500654,"zip":"7530021"},{"town":"桜畠五丁目","koaza":"","lat":34.194755,"lng":131.496088,"zip":"7530021"},{"town":"桜畠六丁目","koaza":"","lat":34.197634,"lng":131.495557,"zip":"7530021"},{"town":"三の宮一丁目","koaza":"","lat":34.187004,"lng":131.489386,"zip":"7530023"},{"town":"三の宮二丁目","koaza":"","lat":34.188607,"lng":131.492035,"zip":"7530023"},{"town":"三和町","koaza":"","lat":34.165971,"lng":131.468645,"zip":"7530052"},{"town":"芝崎町","koaza":"","lat":34.189274,"lng":131.488318,"zip":"7530025"},{"town":"下市町","koaza":"","lat":34.161994,"lng":131.459826,"zip":"7530058"},{"town":"下宇野令","koaza":"","lat":34.177421,"lng":131.446226,"zip":"7530000"},{"town":"下小鯖","koaza":"","lat":34.128129,"lng":131.546041,"zip":"7530212"},{"town":"下竪小路","koaza":"","lat":34.182752,"lng":131.479135,"zip":"7530034"},{"town":"諸願小路","koaza":"","lat":34.180249,"lng":131.479277,"zip":"7530084"},{"town":"白石一丁目","koaza":"","lat":34.177885,"lng":131.470549,"zip":"7530070"},{"town":"白石二丁目","koaza":"","lat":34.175978,"lng":131.469523,"zip":"7530070"},{"town":"新馬場","koaza":"","lat":34.18055,"lng":131.478232,"zip":"7530085"},{"town":"陶","koaza":"","lat":34.094675,"lng":131.428515,"zip":"7540891"},{"town":"鋳銭司","koaza":"","lat":34.086682,"lng":131.464519,"zip":"7471221"},{"town":"周布町","koaza":"","lat":34.160619,"lng":131.453825,"zip":"7530822"},{"town":"銭湯小路","koaza":"","lat":34.179961,"lng":131.478708,"zip":"7530084"},{"town":"泉都町","koaza":"","lat":34.166746,"lng":131.463266,"zip":"7530076"},{"town":"惣太夫町","koaza":"","lat":34.172244,"lng":131.481369,"zip":"7530042"},{"town":"宝町","koaza":"","lat":34.157343,"lng":131.447282,"zip":"7530812"},{"town":"滝町","koaza":"","lat":34.188476,"lng":131.465516,"zip":"7530071"},{"town":"中央一丁目","koaza":"","lat":34.177243,"lng":131.475702,"zip":"7530074"},{"town":"中央二丁目","koaza":"","lat":34.176544,"lng":131.473218,"zip":"7530074"},{"town":"中央三丁目","koaza":"","lat":34.17479,"lng":131.473082,"zip":"7530074"},{"town":"中央四丁目","koaza":"","lat":34.173554,"lng":131.469596,"zip":"7530074"},{"town":"中央五丁目","koaza":"","lat":34.17165,"lng":131.470364,"zip":"7530074"},{"town":"天花一丁目","koaza":"","lat":34.188281,"lng":131.479261,"zip":"7530091"},{"town":"天花二丁目","koaza":"","lat":34.192463,"lng":131.475684,"zip":"7530091"},{"town":"天花三丁目","koaza":"","lat":34.19639,"lng":131.473461,"zip":"7530091"},{"town":"道場門前一丁目","koaza":"","lat":34.175528,"lng":131.475233,"zip":"7530047"},{"town":"道場門前二丁目","koaza":"","lat":34.174389,"lng":131.476466,"zip":"7530047"},{"town":"道祖町","koaza":"","lat":34.182708,"lng":131.484108,"zip":"7530037"},{"town":"堂の前町","koaza":"","lat":34.17982,"lng":131.4815,"zip":"7530032"},{"town":"徳地伊賀地","koaza":"","lat":34.167661,"lng":131.634904,"zip":"7470232"},{"town":"徳地小古祖","koaza":"","lat":34.204228,"lng":131.670552,"zip":"7470234"},{"town":"徳地上村","koaza":"","lat":34.14921,"lng":131.71084,"zip":"7470523"},{"town":"徳地岸見","koaza":"","lat":34.154419,"lng":131.609425,"zip":"7470233"},{"town":"徳地串","koaza":"","lat":34.190658,"lng":131.718373,"zip":"7470612"},{"town":"徳地鯖河内","koaza":"","lat":34.208265,"lng":131.742277,"zip":"7470611"},{"town":"徳地島地","koaza":"","lat":34.163039,"lng":131.691881,"zip":"7470522"},{"town":"徳地野谷","koaza":"","lat":34.291552,"lng":131.64243,"zip":"7470401"},{"town":"徳地引谷","koaza":"","lat":34.221623,"lng":131.614918,"zip":"7470341"},{"town":"徳地深谷","koaza":"","lat":34.208028,"lng":131.695619,"zip":"7470235"},{"town":"徳地藤木","koaza":"","lat":34.147311,"lng":131.677254,"zip":"7470524"},{"town":"徳地船路","koaza":"","lat":34.262151,"lng":131.667884,"zip":"7470342"},{"town":"徳地堀","koaza":"","lat":34.189011,"lng":131.636608,"zip":"7470231"},{"town":"徳地三谷","koaza":"","lat":34.256,"lng":131.72347,"zip":"7470343"},{"town":"徳地八坂","koaza":"","lat":34.223144,"lng":131.664076,"zip":"7470344"},{"town":"徳地山畑","koaza":"","lat":34.177338,"lng":131.692815,"zip":"7470521"},{"town":"徳地柚木","koaza":"","lat":34.323701,"lng":131.708633,"zip":"7470402"},{"town":"富田原町","koaza":"","lat":34.1607,"lng":131.46399,"zip":"7530054"},{"town":"中市町","koaza":"","lat":34.178188,"lng":131.478555,"zip":"7530086"},{"town":"中尾","koaza":"","lat":34.201876,"lng":131.439961,"zip":"7530801"},{"town":"中河原","koaza":"","lat":34.179491,"lng":131.478028,"zip":"7530088"},{"town":"中河原町","koaza":"","lat":34.179105,"lng":131.476342,"zip":"7530088"},{"town":"中園町","koaza":"","lat":34.169043,"lng":131.46676,"zip":"7530075"},{"town":"名田島","koaza":"","lat":34.068819,"lng":131.414722,"zip":"7540892"},{"town":"七尾台","koaza":"","lat":34.192279,"lng":131.482221,"zip":"7530018"},{"town":"錦町","koaza":"","lat":34.174735,"lng":131.450284,"zip":"7530068"},{"town":"仁保上郷","koaza":"","lat":34.251473,"lng":131.590397,"zip":"7530301"},{"town":"仁保下郷","koaza":"","lat":34.190408,"lng":131.542502,"zip":"7530303"},{"town":"仁保中郷","koaza":"","lat":34.199314,"lng":131.576548,"zip":"7530302"},{"town":"野田","koaza":"","lat":34.185486,"lng":131.479897,"zip":"7530094"},{"town":"東山一丁目","koaza":"","lat":34.175963,"lng":131.48038,"zip":"7530041"},{"town":"東山二丁目","koaza":"","lat":34.176878,"lng":131.481894,"zip":"7530041"},{"town":"平井","koaza":"","lat":34.153714,"lng":131.463727,"zip":"7530831"},{"town":"平野一丁目","koaza":"","lat":34.193665,"lng":131.489074,"zip":"7530015"},{"town":"平野二丁目","koaza":"","lat":34.194175,"lng":131.490863,"zip":"7530015"},{"town":"平野三丁目","koaza":"","lat":34.194918,"lng":131.492232,"zip":"7530015"},{"town":"古熊一丁目","koaza":"","lat":34.176537,"lng":131.484317,"zip":"7530031"},{"town":"古熊二丁目","koaza":"","lat":34.180442,"lng":131.485021,"zip":"7530031"},{"town":"古熊三丁目","koaza":"","lat":34.184295,"lng":131.487509,"zip":"7530031"},{"town":"穂積町","koaza":"","lat":34.155127,"lng":131.455595,"zip":"7530824"},{"town":"本町一丁目","koaza":"","lat":34.173634,"lng":131.473236,"zip":"7530046"},{"town":"本町二丁目","koaza":"","lat":34.17219,"lng":131.473828,"zip":"7530046"},{"town":"前町","koaza":"","lat":34.162737,"lng":131.462359,"zip":"7530057"},{"town":"松美町","koaza":"","lat":34.164484,"lng":131.464716,"zip":"7530053"},{"town":"水の上町","koaza":"","lat":34.186665,"lng":131.473497,"zip":"7530082"},{"town":"緑ヶ丘","koaza":"","lat":34.195524,"lng":131.488054,"zip":"7530016"},{"town":"宮島町","koaza":"","lat":34.166775,"lng":131.479026,"zip":"7530043"},{"town":"宮野上","koaza":"","lat":34.216981,"lng":131.51365,"zip":"7530001"},{"town":"宮野下","koaza":"","lat":34.200894,"lng":131.502974,"zip":"7530011"},{"town":"元町","koaza":"","lat":34.170314,"lng":131.458428,"zip":"7530063"},{"town":"矢原","koaza":"","lat":34.150672,"lng":131.445939,"zip":"7530861"},{"town":"矢原町","koaza":"","lat":34.156503,"lng":131.452513,"zip":"7530825"},{"town":"八幡馬場","koaza":"","lat":34.185509,"lng":131.48227,"zip":"7530092"},{"town":"湯田温泉一丁目","koaza":"","lat":34.165043,"lng":131.459717,"zip":"7530056"},{"town":"湯田温泉二丁目","koaza":"","lat":34.163064,"lng":131.45629,"zip":"7530056"},{"town":"湯田温泉三丁目","koaza":"","lat":34.166415,"lng":131.458147,"zip":"7530056"},{"town":"湯田温泉四丁目","koaza":"","lat":34.164572,"lng":131.454854,"zip":"7530056"},{"town":"湯田温泉五丁目","koaza":"","lat":34.168171,"lng":131.456286,"zip":"7530056"},{"town":"湯田温泉六丁目","koaza":"","lat":34.166359,"lng":131.453255,"zip":"7530056"},{"town":"吉敷","koaza":"","lat":34.183545,"lng":131.41196,"zip":"7530811"},{"town":"吉敷赤田一丁目","koaza":"","lat":34.171733,"lng":131.430451,"zip":"7530817"},{"town":"吉敷赤田二丁目","koaza":"","lat":34.172464,"lng":131.433472,"zip":"7530817"},{"town":"吉敷赤田三丁目","koaza":"","lat":34.176776,"lng":131.432151,"zip":"7530817"},{"town":"吉敷赤田四丁目","koaza":"","lat":34.176162,"lng":131.429112,"zip":"7530817"},{"town":"吉敷赤田五丁目","koaza":"","lat":34.182066,"lng":131.429058,"zip":"7530817"},{"town":"吉敷上東一丁目","koaza":"","lat":34.172546,"lng":131.440882,"zip":"7530818"},{"town":"吉敷上東二丁目","koaza":"","lat":34.171316,"lng":131.439274,"zip":"7530818"},{"town":"吉敷上東三丁目","koaza":"","lat":34.168633,"lng":131.434163,"zip":"7530818"},{"town":"吉敷佐畑一丁目","koaza":"","lat":34.165519,"lng":131.434393,"zip":"7530816"},{"town":"吉敷佐畑二丁目","koaza":"","lat":34.168573,"lng":131.431656,"zip":"7530816"},{"town":"吉敷佐畑三丁目","koaza":"","lat":34.164793,"lng":131.430308,"zip":"7530816"},{"town":"吉敷佐畑四丁目","koaza":"","lat":34.168481,"lng":131.428686,"zip":"7530816"},{"town":"吉敷佐畑五丁目","koaza":"","lat":34.164581,"lng":131.426386,"zip":"7530816"},{"town":"吉敷佐畑六丁目","koaza":"","lat":34.165682,"lng":131.420795,"zip":"7530816"},{"town":"吉敷下東一丁目","koaza":"","lat":34.164494,"lng":131.446314,"zip":"7530814"},{"town":"吉敷下東二丁目","koaza":"","lat":34.163114,"lng":131.448832,"zip":"7530814"},{"town":"吉敷下東三丁目","koaza":"","lat":34.159274,"lng":131.445147,"zip":"7530814"},{"town":"吉敷下東四丁目","koaza":"","lat":34.161154,"lng":131.442837,"zip":"7530814"},{"town":"吉敷中東一丁目","koaza":"","lat":34.168262,"lng":131.444779,"zip":"7530813"},{"town":"吉敷中東二丁目","koaza":"","lat":34.166761,"lng":131.44339,"zip":"7530813"},{"town":"吉敷中東三丁目","koaza":"","lat":34.166064,"lng":131.439645,"zip":"7530813"},{"town":"吉敷中東四丁目","koaza":"","lat":34.163986,"lng":131.441028,"zip":"7530813"},{"town":"若宮町","koaza":"","lat":34.158729,"lng":131.455863,"zip":"7530823"},{"town":"鰐石町","koaza":"","lat":34.169588,"lng":131.477798,"zip":"7530044"},{"town":"大内氷上二丁目","koaza":"","lat":34.160862,"lng":131.498136,"zip":"7530231"},{"town":"大内氷上七丁目","koaza":"","lat":34.161642,"lng":131.505708,"zip":"7530231"},{"town":"大内矢田北二丁目","koaza":"","lat":34.159801,"lng":131.505386,"zip":"7530221"},{"town":"大内氷上六丁目","koaza":"","lat":34.164769,"lng":131.504162,"zip":"7530231"},{"town":"大内氷上三丁目","koaza":"","lat":34.162441,"lng":131.495486,"zip":"7530231"},{"town":"大内氷上四丁目","koaza":"","lat":34.163885,"lng":131.497648,"zip":"7530231"},{"town":"大内氷上五丁目","koaza":"","lat":34.164982,"lng":131.500138,"zip":"7530231"},{"town":"大内小京都","koaza":"","lat":34.152645,"lng":131.479741,"zip":"7530242"},{"town":"大内姫山台","koaza":"","lat":34.157699,"lng":131.477763,"zip":"7530243"},{"town":"深溝","koaza":"","lat":34.046693,"lng":131.37302,"zip":"7540895"},{"town":"佐山","koaza":"","lat":34.042114,"lng":131.346696,"zip":"7540894"},{"town":"吉田","koaza":"","lat":34.139794,"lng":131.471825,"zip":"7530841"},{"town":"大内矢田北一丁目","koaza":"","lat":34.157834,"lng":131.500748,"zip":"7530221"},{"town":"大内矢田南一丁目","koaza":"","lat":34.154265,"lng":131.499464,"zip":"7530222"},{"town":"大内氷上一丁目","koaza":"","lat":34.158583,"lng":131.496617,"zip":"7530231"},{"town":"大内中央一丁目","koaza":"","lat":34.155483,"lng":131.495747,"zip":"7530252"},{"town":"大内矢田南二丁目","koaza":"","lat":34.150847,"lng":131.497985,"zip":"7530222"},{"town":"大内千坊六丁目","koaza":"","lat":34.160411,"lng":131.491764,"zip":"7530251"},{"town":"白石三丁目","koaza":"","lat":34.179356,"lng":131.467719,"zip":"7530070"},{"town":"緑町","koaza":"","lat":34.171021,"lng":131.464772,"zip":"7530078"},{"town":"荻町","koaza":"","lat":34.173078,"lng":131.458657,"zip":"7530062"},{"town":"糸米一丁目","koaza":"","lat":34.174578,"lng":131.465429,"zip":"7530079"},{"town":"上宇野令","koaza":"","lat":34.207599,"lng":131.46137,"zip":"7530091"},{"town":"糸米二丁目","koaza":"","lat":34.176035,"lng":131.462268,"zip":"7530079"},{"town":"大内千坊二丁目","koaza":"","lat":34.161815,"lng":131.485539,"zip":"7530251"},{"town":"大内問田一丁目","koaza":"","lat":34.157861,"lng":131.481889,"zip":"7530241"},{"town":"大内問田三丁目","koaza":"","lat":34.152409,"lng":131.484081,"zip":"7530241"},{"town":"大内問田五丁目","koaza":"","lat":34.14969,"lng":131.484595,"zip":"7530241"},{"town":"大内千坊五丁目","koaza":"","lat":34.156682,"lng":131.491383,"zip":"7530251"},{"town":"大内問田四丁目","koaza":"","lat":34.15157,"lng":131.487639,"zip":"7530241"},{"town":"大内中央二丁目","koaza":"","lat":34.153274,"lng":131.494372,"zip":"7530252"},{"town":"大内御堀","koaza":"","lat":34.138813,"lng":131.497377,"zip":"7530214"},{"town":"大内千坊一丁目","koaza":"","lat":34.162578,"lng":131.480667,"zip":"7530251"},{"town":"大内問田二丁目","koaza":"","lat":34.158416,"lng":131.484284,"zip":"7530241"},{"town":"大内千坊三丁目","koaza":"","lat":34.158515,"lng":131.487328,"zip":"7530251"},{"town":"大内千坊四丁目","koaza":"","lat":34.154326,"lng":131.489799,"zip":"7530251"},{"town":"大内御堀一丁目","koaza":"","lat":34.168263,"lng":131.485244,"zip":"7530214"},{"town":"大内御堀二丁目","koaza":"","lat":34.168285,"lng":131.487491,"zip":"7530214"},{"town":"大内御堀三丁目","koaza":"","lat":34.16911,"lng":131.491154,"zip":"7530214"},{"town":"大内御堀四丁目","koaza":"","lat":34.166376,"lng":131.489811,"zip":"7530214"},{"town":"大内御堀五丁目","koaza":"","lat":34.164808,"lng":131.488056,"zip":"7530214"},{"town":"大内御堀六丁目","koaza":"","lat":34.164786,"lng":131.484925,"zip":"7530214"},{"town":"小郡かぜの丘","koaza":"","lat":34.123695,"lng":131.401958,"zip":"7540034"},{"town":"阿知須","koaza":"青畑","lat":34.004542,"lng":131.297955,"zip":"7541277"},{"town":"阿知須","koaza":"源河","lat":34.016772,"lng":131.319915,"zip":"7541277"},{"town":"阿知須","koaza":"引野","lat":34.006465,"lng":131.326995,"zip":"7541277"},{"town":"阿知須","koaza":"河内","lat":34.021658,"lng":131.335565,"zip":"7541277"},{"town":"阿知須","koaza":"杖川","lat":34.011108,"lng":131.330988,"zip":"7541277"},{"town":"阿知須","koaza":"向井関","lat":34.004735,"lng":131.330965,"zip":"7541277"},{"town":"阿知須","koaza":"野口","lat":34.01282,"lng":131.333902,"zip":"7541277"},{"town":"阿知須","koaza":"仙在","lat":34.004097,"lng":131.33695,"zip":"7541277"},{"town":"阿知須","koaza":"井関","lat":34.009485,"lng":131.338206,"zip":"7541277"},{"town":"阿知須","koaza":"赤迫","lat":34.007803,"lng":131.341706,"zip":"7541277"},{"town":"阿知須","koaza":"岡区","lat":34.013731,"lng":131.342743,"zip":"7541277"},{"town":"阿知須","koaza":"浜表","lat":34.011139,"lng":131.345195,"zip":"7541277"},{"town":"阿知須","koaza":"旦西区","lat":34.017914,"lng":131.345884,"zip":"7541277"},{"town":"阿知須","koaza":"沖の原","lat":34.014522,"lng":131.351118,"zip":"7541277"},{"town":"阿知須","koaza":"旦門松区","lat":34.018995,"lng":131.349361,"zip":"7541277"},{"town":"阿知須","koaza":"旦北区","lat":34.021803,"lng":131.353,"zip":"7541277"},{"town":"阿知須","koaza":"西祝区","lat":34.004446,"lng":131.353557,"zip":"7541277"},{"town":"阿知須","koaza":"旦東区","lat":34.019484,"lng":131.353463,"zip":"7541277"},{"town":"阿知須","koaza":"岩倉西区","lat":34.024544,"lng":131.354527,"zip":"7541277"},{"town":"阿知須","koaza":"浜","lat":34.00956,"lng":131.357136,"zip":"7541277"},{"town":"阿知須","koaza":"南祝","lat":34.004558,"lng":131.357575,"zip":"7541277"},{"town":"阿知須","koaza":"岩倉西前","lat":34.020687,"lng":131.356946,"zip":"7541277"},{"town":"阿知須","koaza":"岩倉上区","lat":34.025118,"lng":131.357388,"zip":"7541277"},{"town":"阿知須","koaza":"岩倉前区","lat":34.020565,"lng":131.361193,"zip":"7541277"},{"town":"阿知須","koaza":"寺河内","lat":34.008235,"lng":131.358644,"zip":"7541277"},{"town":"阿知須","koaza":"岩倉辻区","lat":34.02667,"lng":131.361794,"zip":"7541277"},{"town":"阿知須","koaza":"北祝","lat":34.006943,"lng":131.359258,"zip":"7541277"},{"town":"阿知須","koaza":"小古郷西区","lat":34.00434,"lng":131.360405,"zip":"7541277"},{"town":"阿知須","koaza":"西条","lat":34.009473,"lng":131.360503,"zip":"7541277"},{"town":"阿知須","koaza":"中村","lat":34.007853,"lng":131.360669,"zip":"7541277"},{"town":"阿知須","koaza":"東","lat":34.006802,"lng":131.360643,"zip":"7541277"},{"town":"阿知須","koaza":"恵比須","lat":34.00571,"lng":131.361221,"zip":"7541277"},{"town":"阿知須","koaza":"小古郷東区","lat":34.004259,"lng":131.36136,"zip":"7541277"},{"town":"阿知須","koaza":"縄田北区","lat":34.007798,"lng":131.362478,"zip":"7541277"},{"town":"阿知須","koaza":"砂郷二区","lat":34.009991,"lng":131.361941,"zip":"7541277"},{"town":"阿知須","koaza":"築地","lat":34.005621,"lng":131.362033,"zip":"7541277"},{"town":"阿知須","koaza":"縄田南区","lat":34.007167,"lng":131.362454,"zip":"7541277"},{"town":"阿知須","koaza":"小古郷南区","lat":34.000346,"lng":131.363935,"zip":"7541277"},{"town":"阿知須","koaza":"砂郷三区","lat":34.012454,"lng":131.363336,"zip":"7541277"},{"town":"阿知須","koaza":"砂郷一区","lat":34.009743,"lng":131.363552,"zip":"7541277"},{"town":"小郡下郷","koaza":"山手","lat":34.102689,"lng":131.393632,"zip":"7540002"},{"town":"小郡上郷","koaza":"仁保津","lat":34.126444,"lng":131.412319,"zip":"7540001"},{"town":"朝田","koaza":"下郷田","lat":34.144768,"lng":131.424752,"zip":"7530871"},{"town":"黒川","koaza":"采女","lat":34.137267,"lng":131.436948,"zip":"7530851"}]