[{"town":"青葉台","koaza":"","lat":34.010333,"lng":131.161886,"zip":"7560030"},{"town":"赤崎一丁目","koaza":"","lat":33.964983,"lng":131.173048,"zip":"7560841"},{"town":"赤崎二丁目","koaza":"","lat":33.961607,"lng":131.174011,"zip":"7560841"},{"town":"赤崎三丁目","koaza":"","lat":33.961978,"lng":131.176041,"zip":"7560841"},{"town":"赤崎四丁目","koaza":"","lat":33.963391,"lng":131.177564,"zip":"7560841"},{"town":"厚狭一丁目","koaza":"","lat":34.053097,"lng":131.164914,"zip":"7570001"},{"town":"旭町一丁目","koaza":"","lat":33.999151,"lng":131.181895,"zip":"7560808"},{"town":"稲荷町","koaza":"","lat":33.984534,"lng":131.179411,"zip":"7560811"},{"town":"大字厚狭","koaza":"","lat":34.083263,"lng":131.191301,"zip":"7560000"},{"town":"大字有帆","koaza":"","lat":34.019893,"lng":131.213224,"zip":"7560000"},{"town":"大字鴨庄","koaza":"","lat":34.073489,"lng":131.166428,"zip":"7560000"},{"town":"大字郡","koaza":"","lat":34.022359,"lng":131.14197,"zip":"7560000"},{"town":"大字高畑","koaza":"","lat":34.034209,"lng":131.193726,"zip":"7560000"},{"town":"大字千崎","koaza":"","lat":34.027494,"lng":131.177181,"zip":"7560000"},{"town":"大字津布田","koaza":"","lat":34.022762,"lng":131.121127,"zip":"7560000"},{"town":"大字西高泊","koaza":"","lat":34.008779,"lng":131.163798,"zip":"7560000"},{"town":"大字埴生","koaza":"","lat":34.054515,"lng":131.084153,"zip":"7560000"},{"town":"大字福田","koaza":"","lat":34.064964,"lng":131.103539,"zip":"7560000"},{"town":"大字丸河内","koaza":"","lat":33.980038,"lng":131.185951,"zip":"7560000"},{"town":"大字山川","koaza":"","lat":34.069764,"lng":131.151978,"zip":"7560000"},{"town":"大字山野井","koaza":"","lat":34.067145,"lng":131.128517,"zip":"7560000"},{"town":"柿の木坂一丁目","koaza":"","lat":34.016358,"lng":131.180991,"zip":"7560067"},{"town":"柿の木坂二丁目","koaza":"","lat":34.01644,"lng":131.178301,"zip":"7560067"},{"town":"柿の木坂三丁目","koaza":"","lat":34.018969,"lng":131.179394,"zip":"7560067"},{"town":"叶松一丁目","koaza":"","lat":33.969744,"lng":131.184959,"zip":"7560854"},{"town":"叶松二丁目","koaza":"","lat":33.969686,"lng":131.187616,"zip":"7560854"},{"town":"北竜王町","koaza":"","lat":33.971016,"lng":131.176439,"zip":"7560833"},{"town":"共和台","koaza":"","lat":34.009063,"lng":131.204383,"zip":"7560011"},{"town":"くし山一丁目","koaza":"","lat":34.010285,"lng":131.184608,"zip":"7560080"},{"town":"高栄一丁目","koaza":"","lat":33.984343,"lng":131.175278,"zip":"7560815"},{"town":"高栄二丁目","koaza":"","lat":33.981895,"lng":131.175373,"zip":"7560815"},{"town":"高栄三丁目","koaza":"","lat":33.982317,"lng":131.170695,"zip":"7560815"},{"town":"栄町","koaza":"","lat":33.991354,"lng":131.177552,"zip":"7560802"},{"town":"桜一丁目","koaza":"","lat":34.052905,"lng":131.157743,"zip":"7570006"},{"town":"桜二丁目","koaza":"","lat":34.053949,"lng":131.153988,"zip":"7570006"},{"town":"自由ヶ丘","koaza":"","lat":33.984084,"lng":131.186075,"zip":"7560805"},{"town":"新有帆町","koaza":"","lat":34.019425,"lng":131.202243,"zip":"7560010"},{"town":"新沖一丁目","koaza":"","lat":33.968269,"lng":131.170801,"zip":"7560847"},{"town":"新沖二丁目","koaza":"","lat":33.967558,"lng":131.163672,"zip":"7560847"},{"town":"新沖三丁目","koaza":"","lat":33.965731,"lng":131.169253,"zip":"7560847"},{"town":"新生一丁目","koaza":"","lat":34.001051,"lng":131.180484,"zip":"7560092"},{"town":"新生二丁目","koaza":"","lat":34.001748,"lng":131.178332,"zip":"7560092"},{"town":"新生三丁目","koaza":"","lat":34.002234,"lng":131.176351,"zip":"7560092"},{"town":"須恵一丁目","koaza":"","lat":33.973531,"lng":131.179702,"zip":"7560836"},{"town":"須恵二丁目","koaza":"","lat":33.970732,"lng":131.179453,"zip":"7560836"},{"town":"須恵三丁目","koaza":"","lat":33.967489,"lng":131.178794,"zip":"7560836"},{"town":"住吉本町一丁目","koaza":"","lat":33.980587,"lng":131.177748,"zip":"7560813"},{"town":"住吉本町二丁目","koaza":"","lat":33.980772,"lng":131.180381,"zip":"7560813"},{"town":"セメント町","koaza":"","lat":33.977863,"lng":131.175913,"zip":"7560835"},{"town":"大休団地","koaza":"","lat":34.033315,"lng":131.207693,"zip":"7560008"},{"town":"高千帆二丁目","koaza":"","lat":34.018966,"lng":131.187172,"zip":"7560060"},{"town":"中央一丁目","koaza":"","lat":33.976762,"lng":131.177612,"zip":"7560824"},{"town":"中央二丁目","koaza":"","lat":33.978726,"lng":131.177798,"zip":"7560824"},{"town":"中央三丁目","koaza":"","lat":33.978526,"lng":131.180356,"zip":"7560824"},{"town":"中央四丁目","koaza":"","lat":33.976485,"lng":131.180199,"zip":"7560824"},{"town":"千代町一丁目","koaza":"","lat":33.982313,"lng":131.179743,"zip":"7560814"},{"town":"千代町二丁目","koaza":"","lat":33.984279,"lng":131.184034,"zip":"7560814"},{"town":"中川一丁目","koaza":"","lat":33.989189,"lng":131.178437,"zip":"7560806"},{"town":"中川二丁目","koaza":"","lat":33.986786,"lng":131.179093,"zip":"7560806"},{"town":"中川三丁目","koaza":"","lat":33.986607,"lng":131.175117,"zip":"7560806"},{"town":"中川四丁目","koaza":"","lat":33.98893,"lng":131.174936,"zip":"7560806"},{"town":"中川五丁目","koaza":"","lat":33.989468,"lng":131.170905,"zip":"7560806"},{"town":"中川六丁目","koaza":"","lat":33.986416,"lng":131.170833,"zip":"7560806"},{"town":"波瀬一丁目","koaza":"","lat":33.959947,"lng":131.172879,"zip":"7560861"},{"town":"日の出一丁目","koaza":"","lat":34.003842,"lng":131.182091,"zip":"7560091"},{"town":"日の出二丁目","koaza":"","lat":34.005434,"lng":131.179681,"zip":"7560091"},{"town":"日の出三丁目","koaza":"","lat":34.007206,"lng":131.184207,"zip":"7560091"},{"town":"日の出四丁目","koaza":"","lat":34.004312,"lng":131.187044,"zip":"7560091"},{"town":"平成町","koaza":"","lat":33.978877,"lng":131.174464,"zip":"7560837"},{"town":"緑が丘","koaza":"","lat":34.016248,"lng":131.172333,"zip":"7560034"},{"town":"港町","koaza":"","lat":33.972275,"lng":131.17229,"zip":"7560834"},{"town":"南竜王町","koaza":"","lat":33.96619,"lng":131.175998,"zip":"7560832"},{"town":"大字東高泊","koaza":"","lat":34.012228,"lng":131.197253,"zip":"7560000"},{"town":"石井手一丁目","koaza":"","lat":34.015398,"lng":131.193527,"zip":"7560063"},{"town":"くし山二丁目","koaza":"","lat":34.013219,"lng":131.188265,"zip":"7560080"},{"town":"くし山三丁目","koaza":"","lat":34.016109,"lng":131.188017,"zip":"7560080"},{"town":"高千帆一丁目","koaza":"","lat":34.018458,"lng":131.189692,"zip":"7560060"},{"town":"大字小野田","koaza":"","lat":33.957696,"lng":131.172307,"zip":"7560000"},{"town":"大学通二丁目","koaza":"","lat":33.95816,"lng":131.185943,"zip":"7560884"},{"town":"大学通一丁目","koaza":"","lat":33.956501,"lng":131.187342,"zip":"7560884"},{"town":"大字西沖","koaza":"","lat":33.944774,"lng":131.189861,"zip":"7560000"},{"town":"大字郡","koaza":"岡崎","lat":34.051296,"lng":131.170286,"zip":"7560000"},{"town":"大字厚狭","koaza":"束の原","lat":34.061846,"lng":131.171646,"zip":"7560000"},{"town":"大字西高泊","koaza":"神田","lat":34.009219,"lng":131.171877,"zip":"7560000"},{"town":"大字厚狭","koaza":"上ヶ田","lat":34.057595,"lng":131.174523,"zip":"7560000"},{"town":"大字西高泊","koaza":"ワカリ","lat":34.00492,"lng":131.175896,"zip":"7560000"},{"town":"大字小野田","koaza":"須賀","lat":33.956544,"lng":131.181492,"zip":"7560000"}]