[{"town":"相ノ谷","koaza":"","lat":34.130808,"lng":132.064813,"zip":"7400304"},{"town":"旭町一丁目","koaza":"","lat":34.158331,"lng":132.226282,"zip":"7400024"},{"town":"旭町二丁目","koaza":"","lat":34.162023,"lng":132.227219,"zip":"7400024"},{"town":"旭町三丁目","koaza":"","lat":34.161139,"lng":132.23344,"zip":"7400024"},{"town":"阿品","koaza":"","lat":34.190326,"lng":132.136023,"zip":"7410094"},{"town":"愛宕町一丁目","koaza":"","lat":34.144263,"lng":132.202592,"zip":"7400037"},{"town":"愛宕町二丁目","koaza":"","lat":34.142064,"lng":132.201296,"zip":"7400037"},{"town":"愛宕町三丁目","koaza":"","lat":34.150027,"lng":132.194996,"zip":"7400037"},{"town":"飯田町一丁目","koaza":"","lat":34.171799,"lng":132.240528,"zip":"7400003"},{"town":"飯田町二丁目","koaza":"","lat":34.176976,"lng":132.237486,"zip":"7400003"},{"town":"飯田町三丁目","koaza":"","lat":34.181153,"lng":132.236934,"zip":"7400003"},{"town":"伊房","koaza":"","lat":34.141064,"lng":132.073824,"zip":"7400324"},{"town":"今津町一丁目","koaza":"","lat":34.167079,"lng":132.22086,"zip":"7400017"},{"town":"今津町二丁目","koaza":"","lat":34.165501,"lng":132.220707,"zip":"7400017"},{"town":"今津町三丁目","koaza":"","lat":34.163131,"lng":132.217779,"zip":"7400017"},{"town":"今津町四丁目","koaza":"","lat":34.164568,"lng":132.21474,"zip":"7400017"},{"town":"今津町五丁目","koaza":"","lat":34.161232,"lng":132.214304,"zip":"7400017"},{"town":"今津町六丁目","koaza":"","lat":34.16191,"lng":132.211393,"zip":"7400017"},{"town":"入野","koaza":"","lat":34.140428,"lng":132.102457,"zip":"7400321"},{"town":"岩国一丁目","koaza":"","lat":34.165964,"lng":132.179693,"zip":"7410062"},{"town":"岩国二丁目","koaza":"","lat":34.163051,"lng":132.180721,"zip":"7410062"},{"town":"岩国三丁目","koaza":"","lat":34.162498,"lng":132.18382,"zip":"7410062"},{"town":"岩国四丁目","koaza":"","lat":34.16828,"lng":132.184408,"zip":"7410062"},{"town":"岩国五丁目","koaza":"","lat":34.173124,"lng":132.184869,"zip":"7410062"},{"town":"上田","koaza":"","lat":34.154144,"lng":132.107464,"zip":"7400317"},{"town":"牛野谷町一丁目","koaza":"","lat":34.155457,"lng":132.191988,"zip":"7410071"},{"town":"牛野谷町二丁目","koaza":"","lat":34.15374,"lng":132.199216,"zip":"7410071"},{"town":"牛野谷町三丁目","koaza":"","lat":34.149743,"lng":132.202158,"zip":"7410071"},{"town":"青木町一丁目","koaza":"","lat":34.099433,"lng":132.203068,"zip":"7400042"},{"town":"青木町二丁目","koaza":"","lat":34.098577,"lng":132.198323,"zip":"7400042"},{"town":"青木町三丁目","koaza":"","lat":34.09348,"lng":132.20066,"zip":"7400042"},{"town":"青木町四丁目","koaza":"","lat":34.094737,"lng":132.18983,"zip":"7400042"},{"town":"大谷","koaza":"","lat":34.15641,"lng":132.135364,"zip":"7410084"},{"town":"大山","koaza":"","lat":34.133067,"lng":132.087824,"zip":"7400323"},{"town":"小瀬","koaza":"","lat":34.212512,"lng":132.177558,"zip":"7410091"},{"town":"尾津町一丁目","koaza":"","lat":34.144456,"lng":132.210913,"zip":"7400032"},{"town":"尾津町二丁目","koaza":"","lat":34.139339,"lng":132.209326,"zip":"7400032"},{"town":"尾津町三丁目","koaza":"","lat":34.139236,"lng":132.21336,"zip":"7400032"},{"town":"尾津町四丁目","koaza":"","lat":34.135504,"lng":132.208747,"zip":"7400032"},{"town":"尾津町五丁目","koaza":"","lat":34.131389,"lng":132.217812,"zip":"7400032"},{"town":"桂町一丁目","koaza":"","lat":34.17091,"lng":132.234595,"zip":"7400013"},{"town":"桂町二丁目","koaza":"","lat":34.172711,"lng":132.23435,"zip":"7400013"},{"town":"叶木","koaza":"","lat":34.100648,"lng":132.138546,"zip":"7410075"},{"town":"川口町一丁目","koaza":"","lat":34.164715,"lng":132.226643,"zip":"7400015"},{"town":"川口町二丁目","koaza":"","lat":34.165438,"lng":132.230901,"zip":"7400015"},{"town":"川下町一丁目","koaza":"","lat":34.160183,"lng":132.217207,"zip":"7400023"},{"town":"川下町二丁目","koaza":"","lat":34.160412,"lng":132.22126,"zip":"7400023"},{"town":"川下町三丁目","koaza":"","lat":34.160474,"lng":132.223383,"zip":"7400023"},{"town":"川西一丁目","koaza":"","lat":34.161025,"lng":132.173223,"zip":"7410082"},{"town":"川西二丁目","koaza":"","lat":34.15845,"lng":132.172067,"zip":"7410082"},{"town":"川西三丁目","koaza":"","lat":34.152936,"lng":132.168806,"zip":"7410082"},{"town":"川西四丁目","koaza":"","lat":34.1529,"lng":132.175935,"zip":"7410082"},{"town":"瓦谷","koaza":"","lat":34.179663,"lng":132.117654,"zip":"7400311"},{"town":"杭名","koaza":"","lat":34.179684,"lng":132.108162,"zip":"7400303"},{"town":"玖珂町","koaza":"","lat":34.100463,"lng":132.092774,"zip":"7420332"},{"town":"楠町一丁目","koaza":"","lat":34.156554,"lng":132.204584,"zip":"7400028"},{"town":"楠町二丁目","koaza":"","lat":34.15593,"lng":132.208176,"zip":"7400028"},{"town":"楠町三丁目","koaza":"","lat":34.155837,"lng":132.211124,"zip":"7400028"},{"town":"車町一丁目","koaza":"","lat":34.157778,"lng":132.216504,"zip":"7400026"},{"town":"車町二丁目","koaza":"","lat":34.155805,"lng":132.220175,"zip":"7400026"},{"town":"車町三丁目","koaza":"","lat":34.154645,"lng":132.222881,"zip":"7400026"},{"town":"黒磯町一丁目","koaza":"","lat":34.105625,"lng":132.201136,"zip":"7400041"},{"town":"黒磯町二丁目","koaza":"","lat":34.104287,"lng":132.195293,"zip":"7400041"},{"town":"黒磯町三丁目","koaza":"","lat":34.101508,"lng":132.187584,"zip":"7400041"},{"town":"下","koaza":"","lat":34.169106,"lng":132.095921,"zip":"7400302"},{"town":"守内","koaza":"","lat":34.172086,"lng":132.133193,"zip":"7400312"},{"town":"周東町明見谷","koaza":"","lat":34.13417,"lng":132.035921,"zip":"7420411"},{"town":"周東町獺越","koaza":"","lat":34.123431,"lng":131.994934,"zip":"7420422"},{"town":"周東町上久原","koaza":"","lat":34.071692,"lng":132.071373,"zip":"7420413"},{"town":"周東町上須通","koaza":"","lat":34.103427,"lng":131.991247,"zip":"7420426"},{"town":"周東町川上","koaza":"","lat":34.1168,"lng":132.045342,"zip":"7420412"},{"town":"周東町差川","koaza":"","lat":34.075877,"lng":132.016284,"zip":"7420424"},{"town":"周東町三瀬川","koaza":"","lat":34.15286,"lng":131.975516,"zip":"7420421"},{"town":"周東町下久原","koaza":"","lat":34.096893,"lng":132.045566,"zip":"7420417"},{"town":"周東町下須通","koaza":"","lat":34.097545,"lng":132.012771,"zip":"7420423"},{"town":"周東町祖生","koaza":"","lat":34.068265,"lng":132.115627,"zip":"7420301"},{"town":"周東町田尻","koaza":"","lat":34.034431,"lng":132.070974,"zip":"7420414"},{"town":"周東町中山","koaza":"","lat":34.034722,"lng":132.039206,"zip":"7420415"},{"town":"周東町西長野","koaza":"","lat":34.091099,"lng":132.00167,"zip":"7420425"},{"town":"周東町樋余地","koaza":"","lat":34.100558,"lng":131.975193,"zip":"7420427"},{"town":"周東町用田","koaza":"","lat":34.068144,"lng":132.059926,"zip":"7420416"},{"town":"装束町一丁目","koaza":"","lat":34.193832,"lng":132.231232,"zip":"7400001"},{"town":"装束町二丁目","koaza":"","lat":34.195771,"lng":132.227514,"zip":"7400001"},{"town":"装束町三丁目","koaza":"","lat":34.199023,"lng":132.225735,"zip":"7400001"},{"town":"装束町四丁目","koaza":"","lat":34.20064,"lng":132.229447,"zip":"7400001"},{"town":"装束町五丁目","koaza":"","lat":34.199836,"lng":132.231577,"zip":"7400001"},{"town":"装束町六丁目","koaza":"","lat":34.199167,"lng":132.235001,"zip":"7400001"},{"town":"昭和町一丁目","koaza":"","lat":34.172739,"lng":132.229588,"zip":"7400004"},{"town":"昭和町二丁目","koaza":"","lat":34.174315,"lng":132.229982,"zip":"7400004"},{"town":"昭和町三丁目","koaza":"","lat":34.176387,"lng":132.230129,"zip":"7400004"},{"town":"新港町一丁目","koaza":"","lat":34.183702,"lng":132.229014,"zip":"7400002"},{"town":"新港町二丁目","koaza":"","lat":34.183019,"lng":132.232247,"zip":"7400002"},{"town":"新港町三丁目","koaza":"","lat":34.187543,"lng":132.235846,"zip":"7400002"},{"town":"新港町四丁目","koaza":"","lat":34.189762,"lng":132.229944,"zip":"7400002"},{"town":"新港町五丁目","koaza":"","lat":34.189172,"lng":132.225824,"zip":"7400002"},{"town":"砂山町一丁目","koaza":"","lat":34.177993,"lng":132.220096,"zip":"7400019"},{"town":"砂山町二丁目","koaza":"","lat":34.177693,"lng":132.216307,"zip":"7400019"},{"town":"角","koaza":"","lat":34.163219,"lng":132.100864,"zip":"7400327"},{"town":"関戸","koaza":"","lat":34.18707,"lng":132.178119,"zip":"7410063"},{"town":"関戸一丁目","koaza":"","lat":34.183925,"lng":132.171981,"zip":"7410063"},{"town":"竹安","koaza":"","lat":34.148331,"lng":132.092113,"zip":"7400325"},{"town":"多田","koaza":"","lat":34.182306,"lng":132.155499,"zip":"7410092"},{"town":"多田一丁目","koaza":"","lat":34.175547,"lng":132.163425,"zip":"7410092"},{"town":"多田二丁目","koaza":"","lat":34.179431,"lng":132.166262,"zip":"7410092"},{"town":"多田三丁目","koaza":"","lat":34.18263,"lng":132.168624,"zip":"7410092"},{"town":"立石町一丁目","koaza":"","lat":34.179251,"lng":132.230193,"zip":"7400011"},{"town":"立石町二丁目","koaza":"","lat":34.178584,"lng":132.227145,"zip":"7400011"},{"town":"立石町三丁目","koaza":"","lat":34.177356,"lng":132.223668,"zip":"7400011"},{"town":"立石町四丁目","koaza":"","lat":34.18247,"lng":132.223233,"zip":"7400011"},{"town":"田原","koaza":"","lat":34.173211,"lng":132.143347,"zip":"7410093"},{"town":"近延","koaza":"","lat":34.139661,"lng":132.119879,"zip":"7400315"},{"town":"通津","koaza":"","lat":34.073696,"lng":132.182036,"zip":"7400044"},{"town":"寺山","koaza":"","lat":34.156191,"lng":132.120481,"zip":"7400314"},{"town":"天尾","koaza":"","lat":34.180862,"lng":132.058388,"zip":"7400306"},{"town":"中津町一丁目","koaza":"","lat":34.154096,"lng":132.213841,"zip":"7400027"},{"town":"中津町二丁目","koaza":"","lat":34.152969,"lng":132.216929,"zip":"7400027"},{"town":"中津町三丁目","koaza":"","lat":34.151585,"lng":132.21861,"zip":"7400027"},{"town":"長野","koaza":"","lat":34.056336,"lng":132.194303,"zip":"7400045"},{"town":"灘町","koaza":"","lat":34.128961,"lng":132.206488,"zip":"7400033"},{"town":"錦町宇佐","koaza":"","lat":34.427669,"lng":132.045285,"zip":"7400901"},{"town":"錦町宇佐郷","koaza":"","lat":34.38864,"lng":132.021732,"zip":"7400904"},{"town":"錦町大野","koaza":"","lat":34.311036,"lng":131.932794,"zip":"7400721"},{"town":"錦町大原","koaza":"","lat":34.37045,"lng":132.050764,"zip":"7400903"},{"town":"錦町須川","koaza":"","lat":34.34438,"lng":132.005457,"zip":"7400811"},{"town":"錦町中ノ瀬","koaza":"","lat":34.287558,"lng":131.954356,"zip":"7400722"},{"town":"錦町野谷","koaza":"","lat":34.224817,"lng":131.954773,"zip":"7400725"},{"town":"錦町広瀬","koaza":"","lat":34.274346,"lng":131.92182,"zip":"7400724"},{"town":"錦町深川","koaza":"","lat":34.317107,"lng":131.983062,"zip":"7400812"},{"town":"錦町府谷","koaza":"","lat":34.28702,"lng":131.993399,"zip":"7400723"},{"town":"錦見一丁目","koaza":"","lat":34.170244,"lng":132.188633,"zip":"7410061"},{"town":"錦見二丁目","koaza":"","lat":34.171355,"lng":132.193068,"zip":"7410061"},{"town":"錦見三丁目","koaza":"","lat":34.169093,"lng":132.197727,"zip":"7410061"},{"town":"錦見四丁目","koaza":"","lat":34.163569,"lng":132.187467,"zip":"7410061"},{"town":"錦見五丁目","koaza":"","lat":34.163323,"lng":132.190493,"zip":"7410061"},{"town":"錦見六丁目","koaza":"","lat":34.163415,"lng":132.194464,"zip":"7410061"},{"town":"錦見七丁目","koaza":"","lat":34.159832,"lng":132.187307,"zip":"7410061"},{"town":"錦見八丁目","koaza":"","lat":34.162956,"lng":132.199693,"zip":"7410061"},{"town":"柱島","koaza":"","lat":34.020553,"lng":132.412355,"zip":"7400051"},{"town":"柱野","koaza":"","lat":34.131181,"lng":132.150615,"zip":"7410073"},{"town":"廿木","koaza":"","lat":34.123603,"lng":132.108919,"zip":"7400322"},{"town":"土生","koaza":"","lat":34.152525,"lng":132.099399,"zip":"7400326"},{"town":"日の出町","koaza":"","lat":34.166803,"lng":132.238598,"zip":"7400014"},{"town":"平田一丁目","koaza":"","lat":34.151797,"lng":132.182129,"zip":"7410072"},{"town":"平田二丁目","koaza":"","lat":34.145617,"lng":132.174819,"zip":"7410072"},{"town":"平田三丁目","koaza":"","lat":34.139348,"lng":132.174431,"zip":"7410072"},{"town":"平田四丁目","koaza":"","lat":34.147492,"lng":132.188255,"zip":"7410072"},{"town":"平田五丁目","koaza":"","lat":34.14379,"lng":132.192769,"zip":"7410072"},{"town":"平田六丁目","koaza":"","lat":34.137852,"lng":132.185363,"zip":"7410072"},{"town":"藤生町一丁目","koaza":"","lat":34.114636,"lng":132.199354,"zip":"7400036"},{"town":"藤生町二丁目","koaza":"","lat":34.110599,"lng":132.19627,"zip":"7400036"},{"town":"藤生町三丁目","koaza":"","lat":34.119152,"lng":132.194255,"zip":"7400036"},{"town":"藤生町四丁目","koaza":"","lat":34.110067,"lng":132.186219,"zip":"7400036"},{"town":"藤生町五丁目","koaza":"","lat":34.11415,"lng":132.179691,"zip":"7400036"},{"town":"二鹿","koaza":"","lat":34.158367,"lng":132.044036,"zip":"7400305"},{"town":"保木","koaza":"","lat":34.164041,"lng":132.110602,"zip":"7400313"},{"town":"保津町一丁目","koaza":"","lat":34.088106,"lng":132.203768,"zip":"7400043"},{"town":"保津町二丁目","koaza":"","lat":34.084892,"lng":132.203324,"zip":"7400043"},{"town":"本郷町宇塚","koaza":"","lat":34.304814,"lng":132.023092,"zip":"7400604"},{"town":"本郷町西黒沢","koaza":"","lat":34.320306,"lng":132.016077,"zip":"7400605"},{"town":"本郷町波野","koaza":"","lat":34.258759,"lng":132.032052,"zip":"7400603"},{"town":"本郷町本郷","koaza":"","lat":34.290528,"lng":132.043276,"zip":"7400602"},{"town":"本郷町本谷","koaza":"","lat":34.328038,"lng":132.044808,"zip":"7400601"},{"town":"麻里布町一丁目","koaza":"","lat":34.173818,"lng":132.225805,"zip":"7400018"},{"town":"麻里布町二丁目","koaza":"","lat":34.170137,"lng":132.224118,"zip":"7400018"},{"town":"麻里布町三丁目","koaza":"","lat":34.170375,"lng":132.22156,"zip":"7400018"},{"town":"麻里布町四丁目","koaza":"","lat":34.173408,"lng":132.220526,"zip":"7400018"},{"town":"麻里布町五丁目","koaza":"","lat":34.174526,"lng":132.223006,"zip":"7400018"},{"town":"麻里布町六丁目","koaza":"","lat":34.169373,"lng":132.219317,"zip":"7400018"},{"town":"麻里布町七丁目","koaza":"","lat":34.171978,"lng":132.217171,"zip":"7400018"},{"town":"三笠町一丁目","koaza":"","lat":34.166784,"lng":132.224896,"zip":"7400016"},{"town":"三笠町二丁目","koaza":"","lat":34.167256,"lng":132.227345,"zip":"7400016"},{"town":"三笠町三丁目","koaza":"","lat":34.167917,"lng":132.229699,"zip":"7400016"},{"town":"美川町小川","koaza":"","lat":34.2422,"lng":132.007372,"zip":"7400501"},{"town":"美川町四馬神","koaza":"","lat":34.233954,"lng":131.979906,"zip":"7400502"},{"town":"美川町添谷","koaza":"","lat":34.256199,"lng":131.999916,"zip":"7400503"},{"town":"美川町南桑","koaza":"","lat":34.21195,"lng":132.026814,"zip":"7400504"},{"town":"美川町根笠","koaza":"","lat":34.178858,"lng":131.997547,"zip":"7400505"},{"town":"御庄","koaza":"","lat":34.159892,"lng":132.155697,"zip":"7410083"},{"town":"御庄一丁目","koaza":"","lat":34.164645,"lng":132.148214,"zip":"7410083"},{"town":"御庄二丁目","koaza":"","lat":34.167252,"lng":132.149594,"zip":"7410083"},{"town":"御庄三丁目","koaza":"","lat":34.170695,"lng":132.15479,"zip":"7410083"},{"town":"御庄四丁目","koaza":"","lat":34.168853,"lng":132.159156,"zip":"7410083"},{"town":"御庄五丁目","koaza":"","lat":34.165171,"lng":132.151498,"zip":"7410083"},{"town":"三角町一丁目","koaza":"","lat":34.139103,"lng":132.231767,"zip":"7400025"},{"town":"三角町二丁目","koaza":"","lat":34.151778,"lng":132.23142,"zip":"7400025"},{"town":"三角町三丁目","koaza":"","lat":34.157121,"lng":132.238489,"zip":"7400025"},{"town":"海土路町一丁目","koaza":"","lat":34.124964,"lng":132.178495,"zip":"7400035"},{"town":"海土路町二丁目","koaza":"","lat":34.12348,"lng":132.188471,"zip":"7400035"},{"town":"南岩国町一丁目","koaza":"","lat":34.136323,"lng":132.202397,"zip":"7400034"},{"town":"南岩国町二丁目","koaza":"","lat":34.139951,"lng":132.197368,"zip":"7400034"},{"town":"南岩国町三丁目","koaza":"","lat":34.131459,"lng":132.200444,"zip":"7400034"},{"town":"南岩国町四丁目","koaza":"","lat":34.131866,"lng":132.189783,"zip":"7400034"},{"town":"南岩国町五丁目","koaza":"","lat":34.122955,"lng":132.198665,"zip":"7400034"},{"town":"美和町阿賀","koaza":"","lat":34.2893,"lng":132.068508,"zip":"7401241"},{"town":"美和町秋掛","koaza":"","lat":34.321894,"lng":132.084251,"zip":"7401201"},{"town":"美和町生見","koaza":"","lat":34.247898,"lng":132.086368,"zip":"7401231"},{"town":"美和町大根川","koaza":"","lat":34.229029,"lng":132.127614,"zip":"7401217"},{"town":"美和町釜ヶ原","koaza":"","lat":34.294384,"lng":132.122103,"zip":"7400000"},{"town":"美和町上駄床","koaza":"","lat":34.264207,"lng":132.112668,"zip":"7401221"},{"town":"美和町岸根","koaza":"","lat":34.247914,"lng":132.134554,"zip":"7401213"},{"town":"美和町北中山","koaza":"","lat":34.296122,"lng":132.099857,"zip":"7401202"},{"town":"美和町黒沢","koaza":"","lat":34.240267,"lng":132.128947,"zip":"7401212"},{"town":"美和町佐坂","koaza":"","lat":34.228626,"lng":132.113425,"zip":"7401224"},{"town":"美和町渋前","koaza":"","lat":34.218583,"lng":132.093811,"zip":"7401225"},{"town":"美和町下畑","koaza":"","lat":34.234772,"lng":132.057829,"zip":"7401242"},{"town":"美和町瀬戸ノ内","koaza":"","lat":34.249995,"lng":132.115304,"zip":"7401219"},{"town":"美和町田ノ口","koaza":"","lat":34.242661,"lng":132.103028,"zip":"7401222"},{"town":"美和町中垣内","koaza":"","lat":34.240746,"lng":132.123916,"zip":"7401218"},{"town":"美和町長谷","koaza":"","lat":34.212478,"lng":132.144388,"zip":"7401215"},{"town":"美和町滑","koaza":"","lat":34.235242,"lng":132.123134,"zip":"7401223"},{"town":"美和町西畑","koaza":"","lat":34.211612,"lng":132.066131,"zip":"7401232"},{"town":"美和町日宛","koaza":"","lat":34.20884,"lng":132.118468,"zip":"7401216"},{"town":"美和町百合谷","koaza":"","lat":34.230203,"lng":132.145191,"zip":"7401214"},{"town":"室の木町一丁目","koaza":"","lat":34.170857,"lng":132.210783,"zip":"7400021"},{"town":"室の木町二丁目","koaza":"","lat":34.177455,"lng":132.210827,"zip":"7400021"},{"town":"室の木町三丁目","koaza":"","lat":34.174548,"lng":132.20618,"zip":"7400021"},{"town":"室の木町四丁目","koaza":"","lat":34.167094,"lng":132.205114,"zip":"7400021"},{"town":"室の木町五丁目","koaza":"","lat":34.172521,"lng":132.199891,"zip":"7400021"},{"town":"持国","koaza":"","lat":34.167764,"lng":132.138725,"zip":"7410085"},{"town":"元町一丁目","koaza":"","lat":34.170189,"lng":132.226634,"zip":"7400012"},{"town":"元町二丁目","koaza":"","lat":34.170517,"lng":132.228515,"zip":"7400012"},{"town":"元町三丁目","koaza":"","lat":34.170553,"lng":132.230113,"zip":"7400012"},{"town":"元町四丁目","koaza":"","lat":34.17084,"lng":132.231954,"zip":"7400012"},{"town":"門前町一丁目","koaza":"","lat":34.150659,"lng":132.210916,"zip":"7400031"},{"town":"門前町二丁目","koaza":"","lat":34.147738,"lng":132.207353,"zip":"7400031"},{"town":"門前町三丁目","koaza":"","lat":34.147658,"lng":132.21485,"zip":"7400031"},{"town":"門前町四丁目","koaza":"","lat":34.146243,"lng":132.217864,"zip":"7400031"},{"town":"門前町五丁目","koaza":"","lat":34.140038,"lng":132.219889,"zip":"7400031"},{"town":"山手町一丁目","koaza":"","lat":34.168866,"lng":132.215593,"zip":"7400022"},{"town":"山手町二丁目","koaza":"","lat":34.167219,"lng":132.212234,"zip":"7400022"},{"town":"山手町三丁目","koaza":"","lat":34.163671,"lng":132.208332,"zip":"7400022"},{"town":"山手町四丁目","koaza":"","lat":34.161393,"lng":132.203473,"zip":"7400022"},{"town":"由宇町","koaza":"","lat":34.035921,"lng":132.176929,"zip":"7401455"},{"town":"由宇町北一丁目","koaza":"","lat":34.04909,"lng":132.211193,"zip":"7401455"},{"town":"由宇町北二丁目","koaza":"","lat":34.048091,"lng":132.208942,"zip":"7401455"},{"town":"由宇町北三丁目","koaza":"","lat":34.046956,"lng":132.206759,"zip":"7401455"},{"town":"由宇町北四丁目","koaza":"","lat":34.045918,"lng":132.203369,"zip":"7401455"},{"town":"由宇町北五丁目","koaza":"","lat":34.045496,"lng":132.198031,"zip":"7401455"},{"town":"由宇町北六丁目","koaza":"","lat":34.049421,"lng":132.206175,"zip":"7401455"},{"town":"由宇町北七丁目","koaza":"","lat":34.049388,"lng":132.214202,"zip":"7401455"},{"town":"由宇町神東","koaza":"","lat":34.002798,"lng":132.203967,"zip":"7401432"},{"town":"由宇町千鳥ヶ丘一丁目","koaza":"","lat":34.03505,"lng":132.21458,"zip":"7400000"},{"town":"由宇町千鳥ヶ丘二丁目","koaza":"","lat":34.032345,"lng":132.213096,"zip":"7400000"},{"town":"由宇町千鳥ヶ丘三丁目","koaza":"","lat":34.032347,"lng":132.210542,"zip":"7400000"},{"town":"由宇町中央一丁目","koaza":"","lat":34.045704,"lng":132.211329,"zip":"7401428"},{"town":"由宇町中央二丁目","koaza":"","lat":34.044874,"lng":132.208634,"zip":"7401428"},{"town":"由宇町西一丁目","koaza":"","lat":34.041094,"lng":132.205508,"zip":"7401454"},{"town":"由宇町西二丁目","koaza":"","lat":34.044439,"lng":132.200091,"zip":"7401454"},{"town":"由宇町西三丁目","koaza":"","lat":34.043008,"lng":132.200283,"zip":"7401454"},{"town":"由宇町港一丁目","koaza":"","lat":34.04528,"lng":132.214359,"zip":"7401424"},{"town":"由宇町港二丁目","koaza":"","lat":34.045918,"lng":132.216524,"zip":"7401424"},{"town":"由宇町港三丁目","koaza":"","lat":34.046126,"lng":132.2191,"zip":"7401424"},{"town":"由宇町南一丁目","koaza":"","lat":34.041994,"lng":132.213701,"zip":"7401451"},{"town":"由宇町南二丁目","koaza":"","lat":34.042654,"lng":132.211403,"zip":"7401451"},{"town":"由宇町南三丁目","koaza":"","lat":34.040369,"lng":132.211737,"zip":"7401451"},{"town":"由宇町南四丁目","koaza":"","lat":34.040799,"lng":132.208781,"zip":"7401451"},{"town":"由宇町南五丁目","koaza":"","lat":34.040024,"lng":132.207156,"zip":"7401451"},{"town":"由宇町南沖一丁目","koaza":"","lat":34.041641,"lng":132.215671,"zip":"7401425"},{"town":"由宇町南沖二丁目","koaza":"","lat":34.039186,"lng":132.218006,"zip":"7401425"},{"town":"由宇町南沖三丁目","koaza":"","lat":34.038151,"lng":132.216404,"zip":"7401425"},{"town":"由宇町南沖四丁目","koaza":"","lat":34.037225,"lng":132.214267,"zip":"7401425"},{"town":"由宇町由宇崎","koaza":"","lat":34.036742,"lng":132.216357,"zip":"7401426"},{"town":"行波","koaza":"","lat":34.174981,"lng":132.091465,"zip":"7400301"},{"town":"行正","koaza":"","lat":34.148771,"lng":132.108972,"zip":"7400316"},{"town":"横山一丁目","koaza":"","lat":34.166224,"lng":132.171945,"zip":"7410081"},{"town":"横山二丁目","koaza":"","lat":34.170843,"lng":132.17614,"zip":"7410081"},{"town":"横山三丁目","koaza":"","lat":34.175327,"lng":132.177681,"zip":"7410081"},{"town":"六呂師","koaza":"","lat":34.102397,"lng":132.163904,"zip":"7410074"},{"town":"玖珂町","koaza":"臼田","lat":34.100837,"lng":132.0593,"zip":"7420332"},{"town":"玖珂町","koaza":"千束","lat":34.092336,"lng":132.066501,"zip":"7420332"},{"town":"玖珂町","koaza":"阿山","lat":34.095494,"lng":132.073848,"zip":"7420332"},{"town":"玖珂町","koaza":"有延","lat":34.08651,"lng":132.071753,"zip":"7420332"},{"town":"玖珂町","koaza":"久門給","lat":34.088144,"lng":132.077591,"zip":"7420332"},{"town":"玖珂町","koaza":"谷津","lat":34.109511,"lng":132.079908,"zip":"7420332"},{"town":"玖珂町","koaza":"新町","lat":34.094895,"lng":132.078227,"zip":"7420332"},{"town":"玖珂町","koaza":"鞍掛","lat":34.100116,"lng":132.077734,"zip":"7420332"},{"town":"玖珂町","koaza":"瀬田","lat":34.080527,"lng":132.086304,"zip":"7420332"},{"town":"玖珂町","koaza":"新市","lat":34.09011,"lng":132.081146,"zip":"7420332"},{"town":"玖珂町","koaza":"上市","lat":34.098528,"lng":132.086006,"zip":"7420332"},{"town":"玖珂町","koaza":"本町","lat":34.094758,"lng":132.082773,"zip":"7420332"},{"town":"玖珂町","koaza":"駅通","lat":34.09616,"lng":132.082428,"zip":"7420332"},{"town":"玖珂町","koaza":"大田","lat":34.087774,"lng":132.085931,"zip":"7420332"},{"town":"玖珂町","koaza":"同道","lat":34.092415,"lng":132.085673,"zip":"7420332"},{"town":"玖珂町","koaza":"市頭","lat":34.094853,"lng":132.086222,"zip":"7420332"},{"town":"玖珂町","koaza":"柳井田","lat":34.089225,"lng":132.098347,"zip":"7420332"},{"town":"玖珂町","koaza":"野口","lat":34.102063,"lng":132.096317,"zip":"7420332"},{"town":"玖珂町","koaza":"下谷","lat":34.099181,"lng":132.107939,"zip":"7420332"},{"town":"玖珂町","koaza":"欽明路","lat":34.10623,"lng":132.104785,"zip":"7420332"},{"town":"玖珂町","koaza":"野地","lat":34.07988,"lng":132.103041,"zip":"7420332"},{"town":"玖珂町","koaza":"上谷","lat":34.105829,"lng":132.118533,"zip":"7420332"},{"town":"由宇町","koaza":"峇清","lat":34.034235,"lng":132.15769,"zip":"7401455"},{"town":"由宇町","koaza":"笠塚","lat":34.034962,"lng":132.14952,"zip":"7401455"},{"town":"由宇町","koaza":"清水","lat":34.051957,"lng":132.171039,"zip":"7401455"},{"town":"由宇町","koaza":"西区","lat":34.021478,"lng":132.166047,"zip":"7401455"},{"town":"由宇町","koaza":"横道","lat":34.036408,"lng":132.176896,"zip":"7401455"},{"town":"由宇町","koaza":"中倉","lat":34.0272,"lng":132.182681,"zip":"7401455"},{"town":"由宇町","koaza":"寺迫","lat":34.042542,"lng":132.182117,"zip":"7401455"},{"town":"由宇町","koaza":"小槙","lat":34.035588,"lng":132.185967,"zip":"7401455"},{"town":"由宇町","koaza":"中村","lat":34.042363,"lng":132.190689,"zip":"7401455"},{"town":"由宇町","koaza":"正南","lat":34.032156,"lng":132.201807,"zip":"7401455"},{"town":"由宇町","koaza":"有家","lat":34.02936,"lng":132.212968,"zip":"7401455"},{"town":"由宇町","koaza":"本町","lat":34.044441,"lng":132.212505,"zip":"7401455"},{"town":"由宇町","koaza":"柏原","lat":34.04481,"lng":132.208219,"zip":"7401455"},{"town":"由宇町","koaza":"横町","lat":34.044429,"lng":132.210802,"zip":"7401455"},{"town":"由宇町","koaza":"上北","lat":34.042329,"lng":132.196241,"zip":"7401455"}]