[{"town":"旭ケ丘","koaza":"","lat":33.955286,"lng":132.102583,"zip":"7421351"},{"town":"阿月","koaza":"","lat":33.878375,"lng":132.132144,"zip":"7421353"},{"town":"伊陸","koaza":"","lat":34.026034,"lng":132.10962,"zip":"7420201"},{"town":"伊保庄","koaza":"","lat":33.930087,"lng":132.116168,"zip":"7421352"},{"town":"駅南","koaza":"","lat":33.966304,"lng":132.103121,"zip":"7420036"},{"town":"大畠","koaza":"","lat":33.968519,"lng":132.163213,"zip":"7490102"},{"town":"片野西","koaza":"","lat":33.97093,"lng":132.121362,"zip":"7420003"},{"town":"北浜","koaza":"","lat":33.960428,"lng":132.117708,"zip":"7420012"},{"town":"神代","koaza":"","lat":33.980317,"lng":132.183749,"zip":"7490101"},{"town":"古開作","koaza":"","lat":33.96406,"lng":132.096601,"zip":"7420032"},{"town":"新市","koaza":"","lat":33.964977,"lng":132.11768,"zip":"7420009"},{"town":"新市沖","koaza":"","lat":33.96318,"lng":132.11749,"zip":"7420011"},{"town":"新市北","koaza":"","lat":33.965418,"lng":132.118665,"zip":"7420008"},{"town":"新市南","koaza":"","lat":33.964117,"lng":132.11797,"zip":"7420010"},{"town":"新庄","koaza":"","lat":33.976316,"lng":132.086509,"zip":"7420033"},{"town":"新天地","koaza":"","lat":33.967314,"lng":132.11483,"zip":"7420006"},{"town":"中央一丁目","koaza":"","lat":33.965791,"lng":132.110173,"zip":"7420035"},{"town":"中央二丁目","koaza":"","lat":33.966837,"lng":132.106778,"zip":"7420035"},{"town":"中央三丁目","koaza":"","lat":33.969343,"lng":132.10461,"zip":"7420035"},{"town":"天神","koaza":"","lat":33.966135,"lng":132.114339,"zip":"7420005"},{"town":"遠崎","koaza":"","lat":33.962541,"lng":132.148839,"zip":"7490103"},{"town":"土手町","koaza":"","lat":33.966744,"lng":132.112382,"zip":"7420004"},{"town":"ニュータウン南町","koaza":"","lat":33.966807,"lng":132.097134,"zip":"7420024"},{"town":"東土手","koaza":"","lat":33.966978,"lng":132.11767,"zip":"7420007"},{"town":"日積","koaza":"","lat":34.002141,"lng":132.161799,"zip":"7420111"},{"town":"姫田","koaza":"","lat":33.969899,"lng":132.112746,"zip":"7420001"},{"town":"平郡","koaza":"","lat":33.792524,"lng":132.226969,"zip":"7420041"},{"town":"南浜一丁目","koaza":"","lat":33.963419,"lng":132.11186,"zip":"7420023"},{"town":"南浜二丁目","koaza":"","lat":33.960823,"lng":132.109304,"zip":"7420023"},{"town":"南浜三丁目","koaza":"","lat":33.960143,"lng":132.114224,"zip":"7420023"},{"town":"南浜四丁目","koaza":"","lat":33.956667,"lng":132.117277,"zip":"7420023"},{"town":"南町一丁目","koaza":"","lat":33.964683,"lng":132.102261,"zip":"7420031"},{"town":"南町二丁目","koaza":"","lat":33.964167,"lng":132.106243,"zip":"7420031"},{"town":"南町三丁目","koaza":"","lat":33.962779,"lng":132.103625,"zip":"7420031"},{"town":"南町四丁目","koaza":"","lat":33.961803,"lng":132.10643,"zip":"7420031"},{"town":"南町五丁目","koaza":"","lat":33.960507,"lng":132.103367,"zip":"7420031"},{"town":"南町六丁目","koaza":"","lat":33.961553,"lng":132.100324,"zip":"7420031"},{"town":"南町七丁目","koaza":"","lat":33.963231,"lng":132.099002,"zip":"7420031"},{"town":"柳井","koaza":"","lat":33.983453,"lng":132.112852,"zip":"7420021"},{"town":"柳井津","koaza":"","lat":33.967807,"lng":132.11034,"zip":"7420022"},{"town":"山根","koaza":"","lat":33.969822,"lng":132.115667,"zip":"7420002"},{"town":"余田","koaza":"","lat":33.985839,"lng":132.067086,"zip":"7420034"},{"town":"古開作","koaza":"中東条","lat":33.967796,"lng":132.099282,"zip":"7420032"}]