[{"town":"大字瀬田","koaza":"","lat":34.191974,"lng":132.215624,"zip":"7400000"},{"town":"関ケ浜","koaza":"","lat":34.195014,"lng":132.189382,"zip":"7400063"},{"town":"関ケ浜一丁目","koaza":"","lat":34.200821,"lng":132.200465,"zip":"7400063"},{"town":"関ケ浜二丁目","koaza":"","lat":34.204847,"lng":132.204214,"zip":"7400063"},{"town":"瀬田一丁目","koaza":"","lat":34.19509,"lng":132.207605,"zip":"7400062"},{"town":"瀬田二丁目","koaza":"","lat":34.199133,"lng":132.214152,"zip":"7400062"},{"town":"瀬田三丁目","koaza":"","lat":34.197762,"lng":132.218564,"zip":"7400062"},{"town":"瀬田四丁目","koaza":"","lat":34.193106,"lng":132.223668,"zip":"7400062"},{"town":"和木一丁目","koaza":"","lat":34.204613,"lng":132.219046,"zip":"7400061"},{"town":"和木二丁目","koaza":"","lat":34.205059,"lng":132.222347,"zip":"7400061"},{"town":"和木三丁目","koaza":"","lat":34.205658,"lng":132.224387,"zip":"7400061"},{"town":"和木四丁目","koaza":"","lat":34.205185,"lng":132.227553,"zip":"7400061"},{"town":"和木五丁目","koaza":"","lat":34.205319,"lng":132.230449,"zip":"7400061"},{"town":"和木六丁目","koaza":"","lat":34.203505,"lng":132.238556,"zip":"7400061"}]