[{"town":"伊佐町伊佐","koaza":"","lat":34.163115,"lng":131.240837,"zip":"7592222"},{"town":"伊佐町奥万倉","koaza":"","lat":34.136124,"lng":131.230741,"zip":"7592223"},{"town":"伊佐町河原","koaza":"","lat":34.201648,"lng":131.257313,"zip":"7592221"},{"town":"伊佐町堀越","koaza":"","lat":34.133146,"lng":131.216704,"zip":"7592131"},{"town":"大嶺町奥分","koaza":"","lat":34.196833,"lng":131.161243,"zip":"7592214"},{"town":"大嶺町北分","koaza":"","lat":34.207818,"lng":131.225857,"zip":"7592211"},{"town":"大嶺町西分","koaza":"","lat":34.159337,"lng":131.164857,"zip":"7592213"},{"town":"大嶺町東分","koaza":"","lat":34.181474,"lng":131.208403,"zip":"7592212"},{"town":"於福町上","koaza":"","lat":34.248847,"lng":131.186267,"zip":"7592301"},{"town":"於福町下","koaza":"","lat":34.233124,"lng":131.202883,"zip":"7592302"},{"town":"秋芳町青景","koaza":"","lat":34.274829,"lng":131.292022,"zip":"7540602"},{"town":"秋芳町秋吉","koaza":"","lat":34.232286,"lng":131.297789,"zip":"7540511"},{"town":"秋芳町岩永下郷","koaza":"","lat":34.181437,"lng":131.293807,"zip":"7540513"},{"town":"秋芳町岩永本郷","koaza":"","lat":34.206837,"lng":131.282886,"zip":"7540512"},{"town":"秋芳町嘉万","koaza":"","lat":34.291049,"lng":131.258023,"zip":"7540601"},{"town":"秋芳町別府","koaza":"","lat":34.252253,"lng":131.243239,"zip":"7540603"},{"town":"豊田前町麻生上","koaza":"","lat":34.215088,"lng":131.138326,"zip":"7500601"},{"town":"豊田前町麻生下","koaza":"","lat":34.18926,"lng":131.117984,"zip":"7500602"},{"town":"豊田前町今山","koaza":"","lat":34.16832,"lng":131.125985,"zip":"7500603"},{"town":"豊田前町嶽","koaza":"","lat":34.154392,"lng":131.096067,"zip":"7500606"},{"town":"豊田前町古烏帽子","koaza":"","lat":34.14857,"lng":131.100801,"zip":"7500605"},{"town":"豊田前町保々","koaza":"","lat":34.156206,"lng":131.114379,"zip":"7500604"},{"town":"西厚保町原","koaza":"","lat":34.120433,"lng":131.119343,"zip":"7592152"},{"town":"西厚保町本郷","koaza":"","lat":34.101792,"lng":131.147842,"zip":"7592151"},{"town":"東厚保町川東","koaza":"","lat":34.133263,"lng":131.153663,"zip":"7592142"},{"town":"東厚保町山中","koaza":"","lat":34.134674,"lng":131.194033,"zip":"7592141"},{"town":"美東町赤","koaza":"","lat":34.290534,"lng":131.330822,"zip":"7540302"},{"town":"美東町綾木","koaza":"","lat":34.201678,"lng":131.367745,"zip":"7540212"},{"town":"美東町絵堂","koaza":"","lat":34.279902,"lng":131.366888,"zip":"7540301"},{"town":"美東町大田","koaza":"","lat":34.232838,"lng":131.357427,"zip":"7540211"},{"town":"美東町小野","koaza":"","lat":34.170071,"lng":131.31278,"zip":"7540123"},{"town":"美東町長田","koaza":"","lat":34.18007,"lng":131.372204,"zip":"7540121"},{"town":"美東町長登","koaza":"","lat":34.250645,"lng":131.328202,"zip":"7540213"},{"town":"美東町真名","koaza":"","lat":34.158138,"lng":131.350882,"zip":"7540122"},{"town":"大嶺町東分","koaza":"来福台八丁目","lat":34.184143,"lng":131.192949,"zip":"7592212"},{"town":"大嶺町東分","koaza":"来福台七丁目","lat":34.186433,"lng":131.194436,"zip":"7592212"},{"town":"大嶺町東分","koaza":"来福台六丁目","lat":34.188285,"lng":131.194815,"zip":"7592212"},{"town":"大嶺町東分","koaza":"来福台一丁目","lat":34.182408,"lng":131.197139,"zip":"7592212"},{"town":"大嶺町東分","koaza":"来福台四丁目","lat":34.185558,"lng":131.198173,"zip":"7592212"},{"town":"大嶺町東分","koaza":"来福台五丁目","lat":34.187333,"lng":131.197846,"zip":"7592212"},{"town":"大嶺町東分","koaza":"来福台二丁目","lat":34.18148,"lng":131.198488,"zip":"7592212"},{"town":"大嶺町東分","koaza":"来福台三丁目","lat":34.183337,"lng":131.199563,"zip":"7592212"}]