[{"town":"通","koaza":"","lat":34.427687,"lng":131.244094,"zip":"7594107"},{"town":"渋木","koaza":"","lat":34.311072,"lng":131.199632,"zip":"7594104"},{"town":"仙崎","koaza":"","lat":34.390048,"lng":131.198838,"zip":"7594106"},{"town":"俵山","koaza":"","lat":34.290348,"lng":131.099869,"zip":"7594211"},{"town":"西深川","koaza":"","lat":34.366937,"lng":131.169424,"zip":"7594102"},{"town":"東深川","koaza":"","lat":34.37117,"lng":131.186832,"zip":"7594101"},{"town":"深川湯本","koaza":"","lat":34.332187,"lng":131.172768,"zip":"7594103"},{"town":"日置上","koaza":"","lat":34.391991,"lng":131.133799,"zip":"7594401"},{"town":"日置蔵小田","koaza":"","lat":34.397802,"lng":131.059694,"zip":"7594405"},{"town":"日置下","koaza":"","lat":34.390125,"lng":131.073793,"zip":"7594403"},{"town":"日置中","koaza":"","lat":34.374348,"lng":131.098843,"zip":"7594402"},{"town":"日置野田","koaza":"","lat":34.405008,"lng":131.073429,"zip":"7594404"},{"town":"真木","koaza":"","lat":34.316413,"lng":131.226357,"zip":"7594105"},{"town":"三隅上","koaza":"","lat":34.349614,"lng":131.303628,"zip":"7593801"},{"town":"三隅下","koaza":"","lat":34.363853,"lng":131.223502,"zip":"7593803"},{"town":"三隅中","koaza":"","lat":34.358667,"lng":131.253766,"zip":"7593802"},{"town":"油谷伊上","koaza":"","lat":34.37057,"lng":131.019656,"zip":"7594505"},{"town":"油谷後畑","koaza":"","lat":34.407895,"lng":131.039938,"zip":"7594711"},{"town":"油谷角山","koaza":"","lat":34.390825,"lng":131.034695,"zip":"7594713"},{"town":"油谷川尻","koaza":"","lat":34.422503,"lng":131.000638,"zip":"7594621"},{"town":"油谷河原","koaza":"","lat":34.367596,"lng":131.047333,"zip":"7594504"},{"town":"油谷蔵小田","koaza":"","lat":34.387373,"lng":131.057399,"zip":"7594501"},{"town":"油谷新別名","koaza":"","lat":34.373348,"lng":131.060361,"zip":"7594503"},{"town":"油谷津黄","koaza":"","lat":34.417769,"lng":131.078168,"zip":"7594712"},{"town":"油谷久富","koaza":"","lat":34.377362,"lng":131.078941,"zip":"7594502"},{"town":"油谷向津具上","koaza":"","lat":34.416716,"lng":130.993232,"zip":"7594622"},{"town":"油谷向津具下","koaza":"","lat":34.414086,"lng":130.97156,"zip":"7594623"},{"town":"俵山","koaza":"桂川","lat":34.279265,"lng":131.092639,"zip":"7594211"},{"town":"西深川","koaza":"下斎藤","lat":34.362481,"lng":131.176069,"zip":"7594102"},{"town":"東深川","koaza":"土の内","lat":34.365429,"lng":131.182257,"zip":"7594101"},{"town":"東深川","koaza":"真名ケ崎","lat":34.375493,"lng":131.191303,"zip":"7594101"},{"town":"仙崎","koaza":"堤尻","lat":34.378165,"lng":131.200518,"zip":"7594106"},{"town":"仙崎","koaza":"網田","lat":34.376885,"lng":131.193905,"zip":"7594106"},{"town":"仙崎","koaza":"新屋敷","lat":34.389361,"lng":131.196339,"zip":"7594106"},{"town":"東深川","koaza":"西新開","lat":34.388309,"lng":131.196498,"zip":"7594101"},{"town":"仙崎","koaza":"中ノ蔵","lat":34.381483,"lng":131.196703,"zip":"7594106"},{"town":"仙崎","koaza":"漁港南","lat":34.38397,"lng":131.205621,"zip":"7594106"}]