[{"town":"伊佐江町","koaza":"","lat":34.044443,"lng":131.550385,"zip":"7470847"},{"town":"石が口一丁目","koaza":"","lat":34.042919,"lng":131.56592,"zip":"7470806"},{"town":"石が口二丁目","koaza":"","lat":34.043503,"lng":131.562646,"zip":"7470806"},{"town":"石が口三丁目","koaza":"","lat":34.040048,"lng":131.562944,"zip":"7470806"},{"town":"岩畠一丁目","koaza":"","lat":34.058264,"lng":131.595109,"zip":"7470001"},{"town":"岩畠二丁目","koaza":"","lat":34.062846,"lng":131.593566,"zip":"7470001"},{"town":"岩畠三丁目","koaza":"","lat":34.062709,"lng":131.597617,"zip":"7470001"},{"town":"駅南町","koaza":"","lat":34.051254,"lng":131.565769,"zip":"7470801"},{"town":"大字伊佐江","koaza":"","lat":34.038054,"lng":131.554074,"zip":"7470000"},{"town":"大字植松","koaza":"","lat":34.045599,"lng":131.528473,"zip":"7470000"},{"town":"大字江泊","koaza":"","lat":34.038073,"lng":131.612949,"zip":"7470000"},{"town":"大字奥畑","koaza":"","lat":34.146268,"lng":131.643444,"zip":"7470000"},{"town":"大字切畑","koaza":"","lat":34.083874,"lng":131.501542,"zip":"7470000"},{"town":"大字佐野","koaza":"","lat":34.057477,"lng":131.518451,"zip":"7470000"},{"town":"大字新田","koaza":"","lat":34.029526,"lng":131.56774,"zip":"7470000"},{"town":"大字鈴屋","koaza":"","lat":34.11517,"lng":131.583237,"zip":"7470000"},{"town":"大字台道","koaza":"","lat":34.052521,"lng":131.480863,"zip":"7470000"},{"town":"大字田島","koaza":"","lat":34.014605,"lng":131.530924,"zip":"7470000"},{"town":"大字富海","koaza":"","lat":34.057678,"lng":131.645588,"zip":"7470000"},{"town":"大字中山","koaza":"","lat":34.13973,"lng":131.609275,"zip":"7470000"},{"town":"大字奈美","koaza":"","lat":34.133392,"lng":131.587485,"zip":"7470000"},{"town":"大字仁井令","koaza":"","lat":34.037713,"lng":131.556812,"zip":"7470000"},{"town":"大字西浦","koaza":"","lat":34.023198,"lng":131.52139,"zip":"7470000"},{"town":"大字野島","koaza":"","lat":33.940874,"lng":131.695423,"zip":"7470000"},{"town":"大字浜方","koaza":"","lat":34.01645,"lng":131.557279,"zip":"7470000"},{"town":"大字久兼","koaza":"","lat":34.110882,"lng":131.635598,"zip":"7470000"},{"town":"大字真尾","koaza":"","lat":34.095797,"lng":131.604705,"zip":"7470000"},{"town":"大字三田尻村","koaza":"","lat":34.038272,"lng":131.57161,"zip":"7470000"},{"town":"大字向島","koaza":"","lat":34.005026,"lng":131.580689,"zip":"7470000"},{"town":"大字牟礼","koaza":"","lat":34.070195,"lng":131.6106,"zip":"7470000"},{"town":"大字和字","koaza":"","lat":34.120023,"lng":131.614323,"zip":"7470000"},{"town":"岡村町","koaza":"","lat":34.04611,"lng":131.570025,"zip":"7470803"},{"town":"沖今宿一丁目","koaza":"","lat":34.050152,"lng":131.598558,"zip":"7470013"},{"town":"沖今宿二丁目","koaza":"","lat":34.048478,"lng":131.601887,"zip":"7470013"},{"town":"お茶屋町","koaza":"","lat":34.045653,"lng":131.572747,"zip":"7470819"},{"town":"勝間一丁目","koaza":"","lat":34.045303,"lng":131.581329,"zip":"7470822"},{"town":"勝間二丁目","koaza":"","lat":34.048045,"lng":131.583321,"zip":"7470822"},{"town":"勝間三丁目","koaza":"","lat":34.050038,"lng":131.587062,"zip":"7470822"},{"town":"鐘紡町","koaza":"","lat":34.044706,"lng":131.585973,"zip":"7470823"},{"town":"華浦一丁目","koaza":"","lat":34.041168,"lng":131.571653,"zip":"7470816"},{"town":"華浦二丁目","koaza":"","lat":34.039731,"lng":131.569687,"zip":"7470816"},{"town":"上天神町","koaza":"","lat":34.059758,"lng":131.573883,"zip":"7470033"},{"town":"岸津一丁目","koaza":"","lat":34.054106,"lng":131.594335,"zip":"7470011"},{"town":"岸津二丁目","koaza":"","lat":34.050681,"lng":131.594183,"zip":"7470011"},{"town":"協和町","koaza":"","lat":34.038898,"lng":131.576776,"zip":"7470815"},{"town":"桑山一丁目","koaza":"","lat":34.046964,"lng":131.565928,"zip":"7470808"},{"town":"桑山二丁目","koaza":"","lat":34.048071,"lng":131.560521,"zip":"7470808"},{"town":"警固町一丁目","koaza":"","lat":34.049696,"lng":131.579935,"zip":"7470821"},{"town":"警固町二丁目","koaza":"","lat":34.050934,"lng":131.58314,"zip":"7470821"},{"town":"国衙一丁目","koaza":"","lat":34.054187,"lng":131.58406,"zip":"7470024"},{"town":"国衙二丁目","koaza":"","lat":34.057289,"lng":131.583019,"zip":"7470024"},{"town":"国衙三丁目","koaza":"","lat":34.057098,"lng":131.586824,"zip":"7470024"},{"town":"国衙四丁目","koaza":"","lat":34.056891,"lng":131.590954,"zip":"7470024"},{"town":"国衙五丁目","koaza":"","lat":34.053626,"lng":131.589439,"zip":"7470024"},{"town":"国分寺町","koaza":"","lat":34.064666,"lng":131.579477,"zip":"7470021"},{"town":"寿町","koaza":"","lat":34.051295,"lng":131.561137,"zip":"7470809"},{"town":"佐波一丁目","koaza":"","lat":34.053588,"lng":131.561133,"zip":"7470044"},{"town":"敷山町","koaza":"","lat":34.067038,"lng":131.598571,"zip":"7470006"},{"town":"清水町","koaza":"","lat":34.047624,"lng":131.551773,"zip":"7470842"},{"town":"自由ケ丘一丁目","koaza":"","lat":34.068645,"lng":131.537832,"zip":"7470066"},{"town":"自由ケ丘二丁目","koaza":"","lat":34.070511,"lng":131.536678,"zip":"7470066"},{"town":"自由ケ丘三丁目","koaza":"","lat":34.070064,"lng":131.541742,"zip":"7470066"},{"town":"自由ケ丘四丁目","koaza":"","lat":34.072999,"lng":131.536162,"zip":"7470066"},{"town":"自力町","koaza":"","lat":34.042441,"lng":131.574989,"zip":"7470817"},{"town":"新築地町","koaza":"","lat":34.041631,"lng":131.59221,"zip":"7470824"},{"town":"新田一丁目","koaza":"","lat":34.036757,"lng":131.567775,"zip":"7470825"},{"town":"酢貝","koaza":"","lat":34.058262,"lng":131.598834,"zip":"7470002"},{"town":"桑南一丁目","koaza":"","lat":34.043775,"lng":131.559619,"zip":"7470807"},{"town":"桑南二丁目","koaza":"","lat":34.039985,"lng":131.559584,"zip":"7470807"},{"town":"中西","koaza":"","lat":34.062927,"lng":131.601811,"zip":"7470005"},{"town":"仁井令町","koaza":"","lat":34.050697,"lng":131.555381,"zip":"7470841"},{"town":"西仁井令一丁目","koaza":"","lat":34.050532,"lng":131.546404,"zip":"7470849"},{"town":"西仁井令二丁目","koaza":"","lat":34.048909,"lng":131.546885,"zip":"7470849"},{"town":"八王子一丁目","koaza":"","lat":34.055385,"lng":131.566414,"zip":"7470037"},{"town":"八王子二丁目","koaza":"","lat":34.058707,"lng":131.566921,"zip":"7470037"},{"town":"華城中央一丁目","koaza":"","lat":34.044225,"lng":131.545181,"zip":"7470848"},{"town":"華城中央二丁目","koaza":"","lat":34.04499,"lng":131.543102,"zip":"7470848"},{"town":"華園町","koaza":"","lat":34.043961,"lng":131.555896,"zip":"7470844"},{"town":"東仁井令町","koaza":"","lat":34.047478,"lng":131.556052,"zip":"7470843"},{"town":"東松崎町","koaza":"","lat":34.059612,"lng":131.577454,"zip":"7470028"},{"town":"東三田尻一丁目","koaza":"","lat":34.048451,"lng":131.576407,"zip":"7470813"},{"town":"東三田尻二丁目","koaza":"","lat":34.046536,"lng":131.577174,"zip":"7470813"},{"town":"松崎町","koaza":"","lat":34.063344,"lng":131.575254,"zip":"7470029"},{"town":"松原町","koaza":"","lat":34.0423,"lng":131.568129,"zip":"7470804"},{"town":"鞠生町","koaza":"","lat":34.040112,"lng":131.565772,"zip":"7470805"},{"town":"三田尻一丁目","koaza":"","lat":34.047101,"lng":131.574099,"zip":"7470814"},{"town":"三田尻二丁目","koaza":"","lat":34.042151,"lng":131.57834,"zip":"7470814"},{"town":"三田尻三丁目","koaza":"","lat":34.044733,"lng":131.578314,"zip":"7470814"},{"town":"三田尻本町","koaza":"","lat":34.043556,"lng":131.573103,"zip":"7470818"},{"town":"緑町二丁目","koaza":"","lat":34.054408,"lng":131.580365,"zip":"7470026"},{"town":"南松崎町","koaza":"","lat":34.057642,"lng":131.577816,"zip":"7470027"},{"town":"宮市町","koaza":"","lat":34.061095,"lng":131.570878,"zip":"7470032"},{"town":"美和町","koaza":"","lat":34.057477,"lng":131.580654,"zip":"7470025"},{"town":"牟礼今宿一丁目","koaza":"","lat":34.053657,"lng":131.598895,"zip":"7470012"},{"town":"牟礼今宿二丁目","koaza":"","lat":34.05249,"lng":131.602277,"zip":"7470012"},{"town":"牟礼柳","koaza":"","lat":34.058013,"lng":131.602395,"zip":"7470003"},{"town":"大字西佐波令","koaza":"","lat":34.053627,"lng":131.543057,"zip":"7470000"},{"town":"大字大崎","koaza":"","lat":34.072057,"lng":131.543914,"zip":"7470000"},{"town":"開出西町","koaza":"","lat":34.052878,"lng":131.546123,"zip":"7470054"},{"town":"佐波二丁目","koaza":"","lat":34.056077,"lng":131.562751,"zip":"7470044"},{"town":"高倉二丁目","koaza":"","lat":34.052862,"lng":131.555924,"zip":"7470045"},{"town":"千日一丁目","koaza":"","lat":34.058399,"lng":131.559709,"zip":"7470046"},{"town":"高倉一丁目","koaza":"","lat":34.056624,"lng":131.557658,"zip":"7470045"},{"town":"開出本町","koaza":"","lat":34.053324,"lng":131.551034,"zip":"7470053"},{"town":"古祖原","koaza":"","lat":34.059023,"lng":131.550174,"zip":"7470056"},{"town":"平和町","koaza":"","lat":34.058187,"lng":131.563411,"zip":"7470043"},{"town":"千日二丁目","koaza":"","lat":34.061372,"lng":131.562524,"zip":"7470046"},{"town":"今市町","koaza":"","lat":34.061846,"lng":131.566206,"zip":"7470042"},{"town":"大字下右田","koaza":"","lat":34.082198,"lng":131.556276,"zip":"7470000"},{"town":"本橋町","koaza":"","lat":34.066423,"lng":131.564626,"zip":"7470041"},{"town":"大字高井","koaza":"","lat":34.078851,"lng":131.546984,"zip":"7470000"},{"town":"泉町","koaza":"","lat":34.060923,"lng":131.55506,"zip":"7470051"},{"town":"新橋町","koaza":"","lat":34.063343,"lng":131.559538,"zip":"7470047"},{"town":"大字上右田","koaza":"","lat":34.096364,"lng":131.567973,"zip":"7470000"},{"town":"迫戸町","koaza":"","lat":34.066627,"lng":131.569074,"zip":"7470031"},{"town":"大字東佐波令","koaza":"","lat":34.073427,"lng":131.58141,"zip":"7470000"},{"town":"惣社町","koaza":"","lat":34.061986,"lng":131.581391,"zip":"7470022"},{"town":"多々良一丁目","koaza":"","lat":34.063034,"lng":131.586717,"zip":"7470023"},{"town":"多々良二丁目","koaza":"","lat":34.060292,"lng":131.589302,"zip":"7470023"},{"town":"中央町","koaza":"","lat":34.050803,"lng":131.570154,"zip":"7470802"},{"town":"鋳物師町","koaza":"","lat":34.051393,"lng":131.57675,"zip":"7470812"},{"town":"緑町一丁目","koaza":"","lat":34.05468,"lng":131.577139,"zip":"7470026"},{"town":"車塚町","koaza":"","lat":34.051505,"lng":131.573441,"zip":"7470811"},{"town":"戎町二丁目","koaza":"","lat":34.058796,"lng":131.569916,"zip":"7470036"},{"town":"戎町一丁目","koaza":"","lat":34.05505,"lng":131.569553,"zip":"7470036"},{"town":"天神二丁目","koaza":"","lat":34.057399,"lng":131.574232,"zip":"7470034"},{"town":"天神一丁目","koaza":"","lat":34.054271,"lng":131.573537,"zip":"7470034"},{"town":"栄町二丁目","koaza":"","lat":34.058655,"lng":131.571707,"zip":"7470035"},{"town":"栄町一丁目","koaza":"","lat":34.05526,"lng":131.571348,"zip":"7470035"},{"town":"中泉町","koaza":"","lat":34.056044,"lng":131.547263,"zip":"7470055"},{"town":"開出","koaza":"","lat":34.056979,"lng":131.553572,"zip":"7470052"}]