[{"town":"秋山","koaza":"","lat":35.568936,"lng":139.067339,"zip":"4010201"},{"town":"棡原","koaza":"","lat":35.6723,"lng":139.085809,"zip":"4090111"},{"town":"新田","koaza":"","lat":35.61666,"lng":139.114139,"zip":"4090113"},{"town":"鶴島","koaza":"","lat":35.602837,"lng":139.116619,"zip":"4090114"},{"town":"川合","koaza":"","lat":35.600222,"lng":139.079443,"zip":"4090122"},{"town":"上野原","koaza":"","lat":35.637842,"lng":139.109638,"zip":"4090112"},{"town":"西原","koaza":"","lat":35.702135,"lng":139.015167,"zip":"4090141"},{"town":"コモアしおつ二丁目","koaza":"","lat":35.616866,"lng":139.078418,"zip":"4090126"},{"town":"コモアしおつ一丁目","koaza":"","lat":35.62034,"lng":139.077706,"zip":"4090126"},{"town":"コモアしおつ三丁目","koaza":"","lat":35.61849,"lng":139.074276,"zip":"4090126"},{"town":"コモアしおつ四丁目","koaza":"","lat":35.617802,"lng":139.071027,"zip":"4090126"},{"town":"八ツ沢","koaza":"","lat":35.623936,"lng":139.091338,"zip":"4090133"},{"town":"大野","koaza":"","lat":35.623984,"lng":139.058252,"zip":"4090123"},{"town":"犬目","koaza":"","lat":35.627182,"lng":139.031026,"zip":"4090124"},{"town":"桑久保","koaza":"","lat":35.643929,"lng":139.062812,"zip":"4090136"},{"town":"鶴川","koaza":"","lat":35.633425,"lng":139.09834,"zip":"4090132"},{"town":"大椚","koaza":"","lat":35.633597,"lng":139.083015,"zip":"4090134"},{"town":"芦垣","koaza":"","lat":35.651377,"lng":139.070673,"zip":"4090135"},{"town":"和見","koaza":"","lat":35.657428,"lng":139.052704,"zip":"4090137"},{"town":"野田尻","koaza":"","lat":35.648527,"lng":139.037305,"zip":"4090125"},{"town":"大倉","koaza":"","lat":35.648755,"lng":139.078163,"zip":"4090138"},{"town":"大曽根","koaza":"","lat":35.645527,"lng":139.094969,"zip":"4090131"},{"town":"松留","koaza":"","lat":35.61796,"lng":139.107645,"zip":"4090115"},{"town":"四方津","koaza":"","lat":35.613949,"lng":139.078136,"zip":"4090121"}]