[{"town":"今福新田","koaza":"","lat":35.581203,"lng":138.503638,"zip":"4093835"},{"town":"西花輪","koaza":"","lat":35.588821,"lng":138.51681,"zip":"4093843"},{"town":"高部","koaza":"","lat":35.583536,"lng":138.555669,"zip":"4001515"},{"town":"東花輪","koaza":"","lat":35.588048,"lng":138.527263,"zip":"4093842"},{"town":"今福","koaza":"","lat":35.582498,"lng":138.507793,"zip":"4093834"},{"town":"大田和","koaza":"","lat":35.5822,"lng":138.52584,"zip":"4093831"},{"town":"藤巻","koaza":"","lat":35.580296,"lng":138.516083,"zip":"4093833"},{"town":"浅利","koaza":"","lat":35.581455,"lng":138.543394,"zip":"4001514"},{"town":"一町畑","koaza":"","lat":35.58885,"lng":138.536227,"zip":"4093813"},{"town":"関原","koaza":"","lat":35.559744,"lng":138.569477,"zip":"4001512"},{"town":"木原","koaza":"","lat":35.573422,"lng":138.565514,"zip":"4001511"},{"town":"大鳥居","koaza":"","lat":35.56319,"lng":138.550267,"zip":"4001513"},{"town":"馬籠","koaza":"","lat":35.577969,"lng":138.521244,"zip":"4093832"},{"town":"極楽寺","koaza":"","lat":35.599749,"lng":138.556844,"zip":"4093811"},{"town":"町之田","koaza":"","lat":35.593632,"lng":138.538979,"zip":"4093814"},{"town":"下三條","koaza":"","lat":35.59807,"lng":138.529905,"zip":"4093822"},{"town":"下河東","koaza":"","lat":35.603465,"lng":138.538811,"zip":"4093821"},{"town":"成島","koaza":"","lat":35.603687,"lng":138.548923,"zip":"4093815"},{"town":"西新居","koaza":"","lat":35.612463,"lng":138.545505,"zip":"4093802"},{"town":"臼井阿原","koaza":"","lat":35.600454,"lng":138.51468,"zip":"4093844"},{"town":"中楯","koaza":"","lat":35.61241,"lng":138.550492,"zip":"4093801"},{"town":"井之口","koaza":"","lat":35.615159,"lng":138.539968,"zip":"4093804"},{"town":"乙黒","koaza":"","lat":35.593072,"lng":138.547699,"zip":"4093812"},{"town":"山之神","koaza":"","lat":35.613899,"lng":138.512644,"zip":"4093845"},{"town":"布施","koaza":"","lat":35.604367,"lng":138.522238,"zip":"4093841"},{"town":"上三條","koaza":"","lat":35.605182,"lng":138.530233,"zip":"4093823"},{"town":"若宮","koaza":"","lat":35.612799,"lng":138.538499,"zip":"4093803"},{"town":"山之神","koaza":"流通団地三丁目","lat":35.610484,"lng":138.513055,"zip":"4093845"},{"town":"山之神","koaza":"流通団地二丁目","lat":35.610562,"lng":138.514931,"zip":"4093845"},{"town":"山之神","koaza":"鍛冶新居","lat":35.614548,"lng":138.51491,"zip":"4093845"},{"town":"山之神","koaza":"流通団地一丁目","lat":35.610623,"lng":138.516189,"zip":"4093845"}]