[{"town":"東南湖","koaza":"","lat":35.575175,"lng":138.490859,"zip":"4000412"},{"town":"西南湖","koaza":"","lat":35.587483,"lng":138.492128,"zip":"4000411"},{"town":"浅原","koaza":"","lat":35.594709,"lng":138.505753,"zip":"4000333"},{"town":"上高砂","koaza":"","lat":35.668168,"lng":138.494833,"zip":"4000201"},{"town":"荊沢","koaza":"","lat":35.583689,"lng":138.466847,"zip":"4000422"},{"town":"大師","koaza":"","lat":35.586886,"lng":138.472589,"zip":"4000416"},{"town":"秋山","koaza":"","lat":35.584745,"lng":138.434629,"zip":"4000424"},{"town":"湯沢","koaza":"","lat":35.590983,"lng":138.445065,"zip":"4000425"},{"town":"落合","koaza":"","lat":35.586869,"lng":138.457634,"zip":"4000423"},{"town":"戸田","koaza":"","lat":35.580798,"lng":138.477555,"zip":"4000414"},{"town":"和泉","koaza":"","lat":35.579856,"lng":138.482385,"zip":"4000413"},{"town":"藤田","koaza":"","lat":35.597121,"lng":138.497731,"zip":"4000334"},{"town":"鏡中條","koaza":"","lat":35.614758,"lng":138.500625,"zip":"4000332"},{"town":"下今井","koaza":"","lat":35.62574,"lng":138.493062,"zip":"4000331"},{"town":"下今諏訪","koaza":"","lat":35.629964,"lng":138.498953,"zip":"4000212"},{"town":"上今諏訪","koaza":"","lat":35.638887,"lng":138.498317,"zip":"4000211"},{"town":"徳永","koaza":"","lat":35.654708,"lng":138.487326,"zip":"4000203"},{"town":"下高砂","koaza":"","lat":35.653553,"lng":138.499152,"zip":"4000202"},{"town":"須澤","koaza":"","lat":35.664603,"lng":138.376584,"zip":"4000400"},{"town":"上市之瀬","koaza":"","lat":35.599278,"lng":138.392923,"zip":"4000317"},{"town":"芦安安通","koaza":"","lat":35.614066,"lng":138.359215,"zip":"4000242"},{"town":"高尾","koaza":"","lat":35.625398,"lng":138.409459,"zip":"4000318"},{"town":"芦安芦倉","koaza":"","lat":35.672967,"lng":138.263492,"zip":"4000241"},{"town":"野牛島","koaza":"","lat":35.669209,"lng":138.479574,"zip":"4000205"},{"town":"大嵐","koaza":"","lat":35.659885,"lng":138.405066,"zip":"4000234"},{"town":"塩前","koaza":"","lat":35.66583,"lng":138.411832,"zip":"4000231"},{"town":"六科","koaza":"","lat":35.666771,"lng":138.46012,"zip":"4000206"},{"town":"高田新田","koaza":"","lat":35.566254,"lng":138.477046,"zip":"4000400"},{"town":"宮沢","koaza":"","lat":35.580377,"lng":138.473259,"zip":"4000415"},{"town":"清水","koaza":"","lat":35.589111,"lng":138.474546,"zip":"4000417"},{"town":"寺部","koaza":"","lat":35.613697,"lng":138.488635,"zip":"4000337"},{"town":"榎原","koaza":"","lat":35.659304,"lng":138.484734,"zip":"4000204"},{"town":"上八田","koaza":"","lat":35.655916,"lng":138.47825,"zip":"4000215"},{"town":"西野","koaza":"","lat":35.640608,"lng":138.484224,"zip":"4000213"},{"town":"在家塚","koaza":"","lat":35.639807,"lng":138.470156,"zip":"4000221"},{"town":"飯野","koaza":"","lat":35.641344,"lng":138.45474,"zip":"4000222"},{"town":"沢登","koaza":"","lat":35.627188,"lng":138.470506,"zip":"4000302"},{"town":"曲輪田新田","koaza":"","lat":35.637903,"lng":138.444585,"zip":"4000223"},{"town":"十五所","koaza":"","lat":35.619687,"lng":138.474095,"zip":"4000305"},{"town":"桃園","koaza":"","lat":35.622815,"lng":138.457605,"zip":"4000301"},{"town":"百々","koaza":"","lat":35.655475,"lng":138.464041,"zip":"4000214"},{"town":"江原","koaza":"","lat":35.601027,"lng":138.4743,"zip":"4000401"},{"town":"鮎沢","koaza":"","lat":35.595542,"lng":138.47038,"zip":"4000403"},{"town":"川上","koaza":"","lat":35.594753,"lng":138.46124,"zip":"4000421"},{"town":"古市場","koaza":"","lat":35.59132,"lng":138.466548,"zip":"4000404"},{"town":"下宮地","koaza":"","lat":35.603144,"lng":138.465584,"zip":"4000405"},{"town":"塚原","koaza":"","lat":35.598092,"lng":138.450602,"zip":"4000426"},{"town":"小笠原","koaza":"","lat":35.612084,"lng":138.464408,"zip":"4000306"},{"town":"あやめが丘","koaza":"","lat":35.60854,"lng":138.445796,"zip":"4000319"},{"town":"上野","koaza":"","lat":35.600919,"lng":138.443314,"zip":"4000315"},{"town":"下市之瀬","koaza":"","lat":35.600018,"lng":138.457614,"zip":"4000314"},{"town":"山寺","koaza":"","lat":35.60625,"lng":138.457862,"zip":"4000308"},{"town":"平岡","koaza":"","lat":35.611625,"lng":138.418619,"zip":"4000313"},{"town":"上宮地","koaza":"","lat":35.619564,"lng":138.438552,"zip":"4000312"},{"town":"上今井","koaza":"","lat":35.628773,"lng":138.481801,"zip":"4000303"},{"town":"曲輪田","koaza":"","lat":35.63046,"lng":138.441004,"zip":"4000311"},{"town":"飯野新田","koaza":"","lat":35.648916,"lng":138.440332,"zip":"4000224"},{"town":"築山","koaza":"","lat":35.649693,"lng":138.426297,"zip":"4000225"},{"town":"有野","koaza":"","lat":35.658997,"lng":138.440705,"zip":"4000226"},{"town":"十日市場","koaza":"","lat":35.607243,"lng":138.476398,"zip":"4000336"},{"town":"吉田","koaza":"","lat":35.620936,"lng":138.484136,"zip":"4000304"},{"town":"中野","koaza":"","lat":35.595862,"lng":138.426821,"zip":"4000316"},{"town":"加賀美","koaza":"","lat":35.601823,"lng":138.485681,"zip":"4000335"},{"town":"田島","koaza":"","lat":35.594011,"lng":138.481783,"zip":"4000402"},{"town":"駒場","koaza":"","lat":35.645804,"lng":138.410923,"zip":"4000232"},{"town":"野牛島","koaza":"前畑","lat":35.662914,"lng":138.47978,"zip":"4000205"},{"town":"十五所","koaza":"西原","lat":35.618593,"lng":138.469697,"zip":"4000305"}]