[{"town":"井出","koaza":"","lat":35.260215,"lng":138.501331,"zip":"4092304"},{"town":"万沢","koaza":"","lat":35.204254,"lng":138.504929,"zip":"4092103"},{"town":"福士","koaza":"","lat":35.219272,"lng":138.44108,"zip":"4092102"},{"town":"下佐野","koaza":"","lat":35.286299,"lng":138.507863,"zip":"4092302"},{"town":"楮根","koaza":"","lat":35.259795,"lng":138.449674,"zip":"4092101"},{"town":"上佐野","koaza":"","lat":35.342131,"lng":138.506806,"zip":"4092301"},{"town":"成島","koaza":"","lat":35.269026,"lng":138.399306,"zip":"4092216"},{"town":"十島","koaza":"","lat":35.229653,"lng":138.520919,"zip":"4092303"},{"town":"大和","koaza":"","lat":35.273814,"lng":138.455122,"zip":"4092213"},{"town":"塩沢","koaza":"","lat":35.273816,"lng":138.439632,"zip":"4092214"},{"town":"南部","koaza":"","lat":35.289763,"lng":138.447527,"zip":"4092212"},{"town":"本郷","koaza":"","lat":35.300713,"lng":138.423409,"zip":"4092217"},{"town":"内船","koaza":"","lat":35.285687,"lng":138.477905,"zip":"4092305"},{"town":"中野","koaza":"","lat":35.30722,"lng":138.44605,"zip":"4092211"}]