[{"town":"大城","koaza":"","lat":35.334011,"lng":138.373845,"zip":"4092537"},{"town":"相又","koaza":"","lat":35.329778,"lng":138.419176,"zip":"4092536"},{"town":"横根中","koaza":"","lat":35.314167,"lng":138.419954,"zip":"4092535"},{"town":"大垈","koaza":"","lat":35.393621,"lng":138.480647,"zip":"4092404"},{"town":"椿草里","koaza":"","lat":35.374954,"lng":138.504965,"zip":"4092405"},{"town":"樋之上","koaza":"","lat":35.340069,"lng":138.46788,"zip":"4092414"},{"town":"大島","koaza":"","lat":35.324628,"lng":138.462856,"zip":"4092415"},{"town":"清子","koaza":"","lat":35.343528,"lng":138.438224,"zip":"4092533"},{"town":"湯之奥","koaza":"","lat":35.402006,"lng":138.510264,"zip":"4092941"},{"town":"常葉","koaza":"","lat":35.437622,"lng":138.491684,"zip":"4092936"},{"town":"杉山","koaza":"","lat":35.437484,"lng":138.539246,"zip":"4092932"},{"town":"嶺","koaza":"","lat":35.502774,"lng":138.499902,"zip":"4093125"},{"town":"粟倉","koaza":"","lat":35.426503,"lng":138.42038,"zip":"4092521"},{"town":"下山","koaza":"","lat":35.409297,"lng":138.436535,"zip":"4092522"},{"town":"波高島","koaza":"","lat":35.420071,"lng":138.464459,"zip":"4092945"},{"town":"上之平","koaza":"","lat":35.427011,"lng":138.46599,"zip":"4092947"},{"town":"下部","koaza":"","lat":35.41717,"lng":138.48182,"zip":"4092942"},{"town":"清澤","koaza":"","lat":35.446844,"lng":138.492581,"zip":"4092500"},{"town":"大炊平","koaza":"","lat":35.450632,"lng":138.498937,"zip":"4092934"},{"town":"岩欠","koaza":"","lat":35.456445,"lng":138.496094,"zip":"4092933"},{"town":"北川","koaza":"","lat":35.466507,"lng":138.49992,"zip":"4092931"},{"town":"切房木","koaza":"","lat":35.479191,"lng":138.497643,"zip":"4093115"},{"town":"熊澤","koaza":"","lat":35.490311,"lng":138.490957,"zip":"4092500"},{"town":"久保","koaza":"","lat":35.497139,"lng":138.505534,"zip":"4093122"},{"town":"大山","koaza":"","lat":35.4993,"lng":138.51444,"zip":"4093121"},{"town":"大磯小磯","koaza":"","lat":35.503224,"lng":138.539573,"zip":"4093111"},{"town":"根子","koaza":"","lat":35.491461,"lng":138.566026,"zip":"4093103"},{"town":"折門","koaza":"","lat":35.506222,"lng":138.55964,"zip":"4093101"},{"town":"八坂","koaza":"","lat":35.507255,"lng":138.585882,"zip":"4093102"},{"town":"光子沢","koaza":"","lat":35.326707,"lng":138.440438,"zip":"4092534"},{"town":"大崩","koaza":"","lat":35.36046,"lng":138.48638,"zip":"4092406"},{"town":"和田","koaza":"","lat":35.348892,"lng":138.452967,"zip":"4092413"},{"town":"角打","koaza":"","lat":35.358141,"lng":138.460286,"zip":"4092412"},{"town":"大野","koaza":"","lat":35.360185,"lng":138.442187,"zip":"4092532"},{"town":"門野","koaza":"","lat":35.354846,"lng":138.398383,"zip":"4092538"},{"town":"梅平","koaza":"","lat":35.363326,"lng":138.430739,"zip":"4092531"},{"town":"小田船原","koaza":"","lat":35.362329,"lng":138.409243,"zip":"4092539"},{"town":"丸滝","koaza":"","lat":35.362249,"lng":138.471301,"zip":"4092411"},{"town":"波木井","koaza":"","lat":35.381179,"lng":138.443649,"zip":"4092523"},{"town":"桃ケ窪","koaza":"","lat":35.417622,"lng":138.469982,"zip":"4092944"},{"town":"川向","koaza":"","lat":35.416261,"lng":138.473548,"zip":"4092943"},{"town":"帯金","koaza":"","lat":35.390428,"lng":138.458208,"zip":"4092403"},{"town":"下八木沢","koaza":"","lat":35.403756,"lng":138.460111,"zip":"4092402"},{"town":"上八木沢","koaza":"","lat":35.411107,"lng":138.463343,"zip":"4092401"},{"town":"身延","koaza":"","lat":35.384991,"lng":138.413784,"zip":"4092524"},{"town":"釜額","koaza":"","lat":35.453699,"lng":138.563235,"zip":"4093105"},{"town":"古関","koaza":"","lat":35.472011,"lng":138.522705,"zip":"4093106"},{"town":"瀬戸","koaza":"","lat":35.483731,"lng":138.532552,"zip":"4093107"},{"town":"道","koaza":"","lat":35.4807,"lng":138.510589,"zip":"4093114"},{"town":"芝草","koaza":"","lat":35.485621,"lng":138.521777,"zip":"4093112"},{"town":"水船","koaza":"","lat":35.484784,"lng":138.514302,"zip":"4093113"},{"town":"中ノ倉","koaza":"","lat":35.473095,"lng":138.564761,"zip":"4092500"},{"town":"梨子","koaza":"","lat":35.446207,"lng":138.389542,"zip":"4093435"},{"town":"古長谷","koaza":"","lat":35.455642,"lng":138.392304,"zip":"4093437"},{"town":"江尻窪","koaza":"","lat":35.442677,"lng":138.404126,"zip":"4093434"},{"town":"遅沢","koaza":"","lat":35.439034,"lng":138.418741,"zip":"4093433"},{"town":"八日市場","koaza":"","lat":35.450838,"lng":138.433255,"zip":"4093421"},{"town":"伊沼","koaza":"","lat":35.445364,"lng":138.434589,"zip":"4093424"},{"town":"切石","koaza":"","lat":35.466279,"lng":138.440576,"zip":"4093304"},{"town":"福原","koaza":"","lat":35.453055,"lng":138.385943,"zip":"4093436"},{"town":"夜子沢","koaza":"","lat":35.461227,"lng":138.428653,"zip":"4093306"},{"town":"中山","koaza":"","lat":35.453415,"lng":138.414144,"zip":"4093432"},{"town":"矢細工","koaza":"","lat":35.462071,"lng":138.396171,"zip":"4093431"},{"town":"寺沢","koaza":"","lat":35.471019,"lng":138.438271,"zip":"4093303"},{"town":"日向南沢","koaza":"","lat":35.470716,"lng":138.424297,"zip":"4093307"},{"town":"久成","koaza":"","lat":35.480121,"lng":138.405658,"zip":"4093312"},{"town":"飯富","koaza":"","lat":35.435149,"lng":138.435047,"zip":"4093423"},{"town":"市之瀬","koaza":"","lat":35.461868,"lng":138.484318,"zip":"4092938"},{"town":"一色","koaza":"","lat":35.450614,"lng":138.461808,"zip":"4092937"},{"town":"宮木","koaza":"","lat":35.442447,"lng":138.444175,"zip":"4093422"},{"town":"車田","koaza":"","lat":35.478974,"lng":138.485115,"zip":"4093116"},{"town":"三澤","koaza":"","lat":35.471874,"lng":138.472933,"zip":"4092500"},{"town":"手打沢","koaza":"","lat":35.478269,"lng":138.43547,"zip":"4093302"},{"town":"西嶋","koaza":"","lat":35.489549,"lng":138.442822,"zip":"4093301"},{"town":"大塩","koaza":"","lat":35.490174,"lng":138.418111,"zip":"4093311"},{"town":"平須","koaza":"","lat":35.472384,"lng":138.399053,"zip":"4093313"},{"town":"大子","koaza":"","lat":35.429462,"lng":138.456159,"zip":"4092946"},{"town":"上田原","koaza":"","lat":35.466122,"lng":138.460205,"zip":"4093118"},{"town":"下田原","koaza":"","lat":35.460566,"lng":138.45338,"zip":"4093305"},{"town":"樋田","koaza":"","lat":35.487116,"lng":138.484731,"zip":"4093124"},{"town":"山家","koaza":"","lat":35.507669,"lng":138.511114,"zip":"4093126"}]