[{"town":"薬袋","koaza":"","lat":35.421015,"lng":138.362571,"zip":"4092727"},{"town":"赤沢","koaza":"","lat":35.376355,"lng":138.376465,"zip":"4092733"},{"town":"千須和","koaza":"","lat":35.426329,"lng":138.37992,"zip":"4092726"},{"town":"高住","koaza":"","lat":35.403154,"lng":138.365019,"zip":"4092732"},{"town":"雨畑","koaza":"","lat":35.365684,"lng":138.299525,"zip":"4092734"},{"town":"小縄","koaza":"","lat":35.407477,"lng":138.3907,"zip":"4092725"},{"town":"初鹿島","koaza":"","lat":35.407508,"lng":138.409155,"zip":"4092724"},{"town":"塩之上","koaza":"","lat":35.441173,"lng":138.37133,"zip":"4092721"},{"town":"早川","koaza":"","lat":35.452139,"lng":138.357093,"zip":"4092705"},{"town":"保","koaza":"","lat":35.430838,"lng":138.296955,"zip":"4092713"},{"town":"大島","koaza":"","lat":35.417099,"lng":138.352287,"zip":"4092731"},{"town":"大原野","koaza":"","lat":35.474967,"lng":138.36023,"zip":"4092704"},{"town":"黒桂","koaza":"","lat":35.46292,"lng":138.292627,"zip":"4092711"},{"town":"湯島","koaza":"","lat":35.536001,"lng":138.305389,"zip":"4092702"},{"town":"新倉","koaza":"","lat":35.495256,"lng":138.314168,"zip":"4092703"},{"town":"奈良田","koaza":"","lat":35.603208,"lng":138.276608,"zip":"4092701"},{"town":"笹走","koaza":"","lat":35.440615,"lng":138.38815,"zip":"4092722"},{"town":"榑坪","koaza":"","lat":35.428212,"lng":138.395974,"zip":"4092723"},{"town":"草塩","koaza":"","lat":35.430399,"lng":138.338805,"zip":"4092714"},{"town":"京ケ島","koaza":"","lat":35.433405,"lng":138.3559,"zip":"4092715"},{"town":"西之宮","koaza":"","lat":35.446623,"lng":138.300235,"zip":"4092712"}]