[{"town":"西向","koaza":"","lat":35.472019,"lng":138.942141,"zip":"4020200"},{"town":"長又","koaza":"","lat":35.486247,"lng":138.947217,"zip":"4020228"},{"town":"白井平","koaza":"","lat":35.48614,"lng":138.959017,"zip":"4020200"},{"town":"小山","koaza":"","lat":35.473984,"lng":138.967097,"zip":"4020200"},{"town":"細尻","koaza":"","lat":35.477345,"lng":138.97575,"zip":"4020200"},{"town":"久保平","koaza":"","lat":35.490074,"lng":138.961448,"zip":"4020200"},{"town":"沢上り","koaza":"","lat":35.491647,"lng":138.964952,"zip":"4020200"},{"town":"堰口","koaza":"","lat":35.483495,"lng":138.97954,"zip":"4020200"},{"town":"三ケ瀬","koaza":"","lat":35.480205,"lng":138.995057,"zip":"4020200"},{"town":"板橋","koaza":"","lat":35.494507,"lng":138.96724,"zip":"4020225"},{"town":"川村","koaza":"","lat":35.498798,"lng":138.969529,"zip":"4020224"},{"town":"大道下","koaza":"","lat":35.494078,"lng":138.976465,"zip":"4020200"},{"town":"善ノ木","koaza":"","lat":35.494579,"lng":138.982686,"zip":"4020200"},{"town":"水ノ元","koaza":"","lat":35.493792,"lng":138.986548,"zip":"4020200"},{"town":"矢崎","koaza":"","lat":35.50173,"lng":138.978181,"zip":"4020200"},{"town":"矢崎向","koaza":"","lat":35.495437,"lng":138.988765,"zip":"4020200"},{"town":"板橋沢","koaza":"","lat":35.504304,"lng":138.980613,"zip":"4020200"},{"town":"上山中","koaza":"","lat":35.505305,"lng":138.98333,"zip":"4020200"},{"town":"下山中","koaza":"","lat":35.503374,"lng":138.98762,"zip":"4020200"},{"town":"神地向","koaza":"","lat":35.495937,"lng":138.99849,"zip":"4020200"},{"town":"上神地","koaza":"","lat":35.50509,"lng":138.989408,"zip":"4020200"},{"town":"下神地","koaza":"","lat":35.50981,"lng":138.988121,"zip":"4020200"},{"town":"道坂","koaza":"","lat":35.512241,"lng":138.977466,"zip":"4020200"},{"town":"平久住尾根","koaza":"","lat":35.517319,"lng":138.986333,"zip":"4020200"},{"town":"平久住","koaza":"","lat":35.510883,"lng":138.991982,"zip":"4020200"},{"town":"石原","koaza":"","lat":35.507307,"lng":138.995057,"zip":"4020200"},{"town":"唐沢尾根","koaza":"","lat":35.517319,"lng":138.992054,"zip":"4020200"},{"town":"唐沢","koaza":"","lat":35.509524,"lng":138.99756,"zip":"4020200"},{"town":"猿口","koaza":"","lat":35.496938,"lng":139.003853,"zip":"4020200"},{"town":"大振","koaza":"","lat":35.513886,"lng":138.997703,"zip":"4020200"},{"town":"滝原","koaza":"","lat":35.516103,"lng":139.000778,"zip":"4020200"},{"town":"大指","koaza":"","lat":35.506163,"lng":139.012792,"zip":"4020215"},{"town":"寺ノ下","koaza":"","lat":35.521895,"lng":139.00607,"zip":"4020200"},{"town":"堂ノ下","koaza":"","lat":35.520894,"lng":139.014579,"zip":"4020200"},{"town":"川原畑","koaza":"","lat":35.517176,"lng":139.013936,"zip":"4020214"},{"town":"谷相","koaza":"","lat":35.51975,"lng":139.020443,"zip":"4020213"},{"town":"大久保入","koaza":"","lat":35.531477,"lng":139.012935,"zip":"4020200"},{"town":"室久保","koaza":"","lat":35.504304,"lng":139.034387,"zip":"4020200"},{"town":"小室久保","koaza":"","lat":35.518534,"lng":139.034602,"zip":"4020200"},{"town":"池ノ原","koaza":"","lat":35.520608,"lng":139.026521,"zip":"4020200"},{"town":"大久保","koaza":"","lat":35.524899,"lng":139.022302,"zip":"4020200"},{"town":"数雲塚","koaza":"","lat":35.524827,"lng":139.019085,"zip":"4020200"},{"town":"的場向","koaza":"","lat":35.523384,"lng":139.029023,"zip":"4020200"},{"town":"的場","koaza":"","lat":35.527137,"lng":139.025911,"zip":"4020200"},{"town":"岩瀬","koaza":"","lat":35.527045,"lng":139.023851,"zip":"4020200"},{"town":"岩瀬沢","koaza":"","lat":35.53121,"lng":139.020922,"zip":"4020200"},{"town":"櫓沢","koaza":"","lat":35.538258,"lng":139.01932,"zip":"4020200"},{"town":"向原","koaza":"","lat":35.524482,"lng":139.032913,"zip":"4020200"},{"town":"戸渡","koaza":"","lat":35.52883,"lng":139.028199,"zip":"4020200"},{"town":"岡道沢","koaza":"","lat":35.533498,"lng":139.02733,"zip":"4020200"},{"town":"日蔭","koaza":"","lat":35.517846,"lng":139.040647,"zip":"4020200"},{"town":"竹之本","koaza":"","lat":35.530203,"lng":139.031403,"zip":"4020209"},{"town":"入道沢","koaza":"","lat":35.537388,"lng":139.032821,"zip":"4020200"},{"town":"中丸","koaza":"","lat":35.529471,"lng":139.035156,"zip":"4020200"},{"town":"馬場","koaza":"","lat":35.530844,"lng":139.038908,"zip":"4020208"},{"town":"田代","koaza":"","lat":35.524208,"lng":139.041425,"zip":"4020200"},{"town":"細入","koaza":"","lat":35.514185,"lng":139.047512,"zip":"4020200"},{"town":"蜂久保","koaza":"","lat":35.523155,"lng":139.047512,"zip":"4020200"},{"town":"椿沢","koaza":"","lat":35.512675,"lng":139.060464,"zip":"4020200"},{"town":"細野","koaza":"","lat":35.523796,"lng":139.052043,"zip":"4020200"},{"town":"弥太郎指","koaza":"","lat":35.526588,"lng":139.055155,"zip":"4020200"},{"town":"大栗","koaza":"","lat":35.532034,"lng":139.043897,"zip":"4020207"},{"town":"赤倉沢","koaza":"","lat":35.539127,"lng":139.040236,"zip":"4020200"},{"town":"西川","koaza":"","lat":35.539997,"lng":139.045865,"zip":"4020200"},{"town":"湯本","koaza":"","lat":35.533636,"lng":139.046551,"zip":"4020200"},{"town":"大室沢","koaza":"","lat":35.521416,"lng":139.069251,"zip":"4020200"},{"town":"西山","koaza":"","lat":35.529517,"lng":139.064675,"zip":"4020200"},{"town":"大室指","koaza":"","lat":35.532034,"lng":139.071494,"zip":"4020204"},{"town":"小善地向","koaza":"","lat":35.529471,"lng":139.05543,"zip":"4020200"},{"town":"小善地","koaza":"","lat":35.53423,"lng":139.051631,"zip":"4020206"},{"town":"峯","koaza":"","lat":35.536839,"lng":139.051585,"zip":"4020200"},{"town":"椿後","koaza":"","lat":35.541965,"lng":139.054331,"zip":"4020200"},{"town":"中入","koaza":"","lat":35.540043,"lng":139.059686,"zip":"4020200"},{"town":"大椿","koaza":"","lat":35.532263,"lng":139.05726,"zip":"4020200"},{"town":"小椿","koaza":"","lat":35.532629,"lng":139.061013,"zip":"4020200"},{"town":"大羽根","koaza":"","lat":35.53986,"lng":139.063622,"zip":"4020200"},{"town":"滝山","koaza":"","lat":35.539402,"lng":139.068153,"zip":"4020200"},{"town":"大室","koaza":"","lat":35.523201,"lng":139.093644,"zip":"4020204"},{"town":"鐘撞","koaza":"","lat":35.516656,"lng":139.087969,"zip":"4020200"},{"town":"大渡向","koaza":"","lat":35.527091,"lng":139.093461,"zip":"4020200"},{"town":"野原向","koaza":"","lat":35.529471,"lng":139.090715,"zip":"4020200"},{"town":"柿ノ木","koaza":"","lat":35.530523,"lng":139.087146,"zip":"4020200"},{"town":"杉沢","koaza":"","lat":35.529928,"lng":139.084079,"zip":"4020200"},{"town":"井戸沢","koaza":"","lat":35.542102,"lng":139.072134,"zip":"4020200"},{"town":"笹久根向","koaza":"","lat":35.527686,"lng":139.078084,"zip":"4020200"},{"town":"笹久根","koaza":"","lat":35.536793,"lng":139.075338,"zip":"4020200"},{"town":"今野","koaza":"","lat":35.542148,"lng":139.078313,"zip":"4020200"},{"town":"峠ノ沢","koaza":"","lat":35.54494,"lng":139.08385,"zip":"4020200"},{"town":"久保","koaza":"","lat":35.538944,"lng":139.084583,"zip":"4020203"},{"town":"向平","koaza":"","lat":35.538304,"lng":139.087237,"zip":"4020200"},{"town":"麦尻","koaza":"","lat":35.541141,"lng":139.090761,"zip":"4020200"},{"town":"中丸沢","koaza":"","lat":35.538716,"lng":139.0925,"zip":"4020200"},{"town":"野原","koaza":"","lat":35.536656,"lng":139.094102,"zip":"4020200"},{"town":"大渡","koaza":"","lat":35.531485,"lng":139.098999,"zip":"4020200"},{"town":"栗指","koaza":"","lat":35.534368,"lng":139.096299,"zip":"4020200"},{"town":"中沢","koaza":"","lat":35.535237,"lng":139.100326,"zip":"4020200"},{"town":"滝ノ沢","koaza":"","lat":35.54105,"lng":139.100235,"zip":"4020200"},{"town":"網掛戸向","koaza":"","lat":35.530112,"lng":139.104674,"zip":"4020200"},{"town":"網掛戸","koaza":"","lat":35.531805,"lng":139.102706,"zip":"4020200"},{"town":"落合","koaza":"","lat":35.534642,"lng":139.106413,"zip":"4020200"},{"town":"子ツ沢","koaza":"","lat":35.538121,"lng":139.104994,"zip":"4020200"},{"town":"月夜野","koaza":"","lat":35.537709,"lng":139.110212,"zip":"4020201"},{"town":"宮ノ沢","koaza":"","lat":35.541416,"lng":139.10591,"zip":"4020200"},{"town":"後沢","koaza":"","lat":35.543979,"lng":139.107191,"zip":"4020200"},{"town":"平野","koaza":"","lat":35.546633,"lng":139.109525,"zip":"4020200"},{"town":"中尾","koaza":"","lat":35.515197,"lng":139.028108,"zip":"4020200"}]