[{"town":"富士ヶ嶺","koaza":"","lat":35.414104,"lng":138.626889,"zip":"4010300"},{"town":"本栖","koaza":"","lat":35.450409,"lng":138.617063,"zip":"4010337"},{"town":"小立","koaza":"","lat":35.488015,"lng":138.746131,"zip":"4010302"},{"town":"船津","koaza":"","lat":35.475737,"lng":138.758511,"zip":"4010301"},{"town":"精進","koaza":"","lat":35.481387,"lng":138.626364,"zip":"4010336"},{"town":"浅川","koaza":"","lat":35.508925,"lng":138.776485,"zip":"4010303"},{"town":"勝山","koaza":"","lat":35.488575,"lng":138.735421,"zip":"4010310"},{"town":"長浜","koaza":"","lat":35.508251,"lng":138.715655,"zip":"4010331"},{"town":"大石","koaza":"","lat":35.532025,"lng":138.722152,"zip":"4010305"},{"town":"西湖","koaza":"","lat":35.50352,"lng":138.685109,"zip":"4010332"},{"town":"西湖西","koaza":"","lat":35.500671,"lng":138.661327,"zip":"4010333"},{"town":"西湖南","koaza":"","lat":35.49085,"lng":138.67624,"zip":"4010334"},{"town":"大嵐","koaza":"","lat":35.495443,"lng":138.729051,"zip":"4010335"},{"town":"河口","koaza":"","lat":35.543289,"lng":138.779055,"zip":"4010304"}]