[{"town":"猿橋町藤崎","koaza":"","lat":35.598221,"lng":138.992645,"zip":"4090612"},{"town":"猿橋町猿橋","koaza":"","lat":35.601236,"lng":138.980241,"zip":"4090614"},{"town":"初狩町中初狩","koaza":"","lat":35.597383,"lng":138.869798,"zip":"4010022"},{"town":"初狩町下初狩","koaza":"","lat":35.603548,"lng":138.885431,"zip":"4010021"},{"town":"猿橋町小篠","koaza":"","lat":35.592753,"lng":139.006903,"zip":"4090611"},{"town":"梁川町立野","koaza":"","lat":35.594087,"lng":139.023064,"zip":"4090506"},{"town":"梁川町塩瀬","koaza":"","lat":35.596531,"lng":139.05099,"zip":"4090505"},{"town":"七保町浅川","koaza":"","lat":35.653195,"lng":138.9953,"zip":"4090621"},{"town":"猿橋町小沢","koaza":"","lat":35.592626,"lng":138.958715,"zip":"4090616"},{"town":"猿橋町朝日小沢","koaza":"","lat":35.583235,"lng":138.967005,"zip":"4090615"},{"town":"富浜町鳥沢","koaza":"","lat":35.62108,"lng":139.007028,"zip":"4090502"},{"town":"七保町駒宮","koaza":"","lat":35.663373,"lng":138.97942,"zip":"4090627"},{"town":"大月町真木","koaza":"","lat":35.638892,"lng":138.874187,"zip":"4010016"},{"town":"笹子町白野","koaza":"","lat":35.61381,"lng":138.849789,"zip":"4010023"},{"town":"笹子町吉久保","koaza":"","lat":35.598862,"lng":138.834493,"zip":"4010024"},{"town":"笹子町黒野田","koaza":"","lat":35.597109,"lng":138.798974,"zip":"4010025"},{"town":"七保町瀬戸","koaza":"","lat":35.692576,"lng":138.952283,"zip":"4090626"},{"town":"七保町奈良子","koaza":"","lat":35.673136,"lng":138.917104,"zip":"4090625"},{"town":"梁川町新倉","koaza":"","lat":35.610982,"lng":139.057571,"zip":"4090504"},{"town":"梁川町綱の上","koaza":"","lat":35.608416,"lng":139.036629,"zip":"4090503"},{"town":"猿橋町桂台二丁目","koaza":"","lat":35.609158,"lng":138.973438,"zip":"4090618"},{"town":"大月三丁目","koaza":"","lat":35.613767,"lng":138.94069,"zip":"4010013"},{"town":"大月二丁目","koaza":"","lat":35.60913,"lng":138.939553,"zip":"4010013"},{"town":"大月一丁目","koaza":"","lat":35.611542,"lng":138.942637,"zip":"4010013"},{"town":"御太刀一丁目","koaza":"","lat":35.612738,"lng":138.945475,"zip":"4010012"},{"town":"御太刀二丁目","koaza":"","lat":35.615504,"lng":138.94678,"zip":"4010012"},{"town":"大月町大月","koaza":"","lat":35.602502,"lng":138.945429,"zip":"4010014"},{"town":"駒橋一丁目","koaza":"","lat":35.613621,"lng":138.949445,"zip":"4010011"},{"town":"駒橋二丁目","koaza":"","lat":35.613119,"lng":138.954574,"zip":"4010011"},{"town":"賑岡町ゆりケ丘","koaza":"","lat":35.618689,"lng":138.956268,"zip":"4010003"},{"town":"駒橋三丁目","koaza":"","lat":35.61233,"lng":138.959982,"zip":"4010011"},{"town":"大月町駒橋","koaza":"","lat":35.604266,"lng":138.955175,"zip":"4010000"},{"town":"猿橋町桂台三丁目","koaza":"","lat":35.606115,"lng":138.972217,"zip":"4090618"},{"town":"猿橋町桂台一丁目","koaza":"","lat":35.609785,"lng":138.964999,"zip":"4090618"},{"town":"猿橋町殿上","koaza":"","lat":35.606155,"lng":138.965303,"zip":"4090617"},{"town":"猿橋町伊良原","koaza":"","lat":35.612076,"lng":138.984269,"zip":"4090613"},{"town":"賑岡町岩殿","koaza":"","lat":35.62276,"lng":138.956596,"zip":"4010002"},{"town":"賑岡町強瀬","koaza":"","lat":35.618005,"lng":138.949841,"zip":"4010004"},{"town":"賑岡町浅利","koaza":"","lat":35.623739,"lng":138.928981,"zip":"4010005"},{"town":"大月町花咲","koaza":"","lat":35.607905,"lng":138.925553,"zip":"4010015"},{"town":"七保町下和田","koaza":"","lat":35.629673,"lng":138.974704,"zip":"4090622"},{"town":"富浜町宮谷","koaza":"","lat":35.63116,"lng":138.986809,"zip":"4090501"},{"town":"賑岡町畑倉","koaza":"","lat":35.628409,"lng":138.946444,"zip":"4010001"},{"town":"七保町葛野","koaza":"","lat":35.635151,"lng":138.963066,"zip":"4090623"},{"town":"七保町林","koaza":"","lat":35.646852,"lng":138.944439,"zip":"4090624"},{"town":"賑岡町奥山","koaza":"","lat":35.643142,"lng":138.917088,"zip":"4010006"}]