[{"town":"中村","koaza":"","lat":35.67186,"lng":138.699282,"zip":"4050021"},{"town":"上栗原","koaza":"","lat":35.665301,"lng":138.703269,"zip":"4050022"},{"town":"下栗原","koaza":"","lat":35.667556,"lng":138.693144,"zip":"4050023"},{"town":"歌田","koaza":"","lat":35.666378,"lng":138.685339,"zip":"4050024"},{"town":"一町田中","koaza":"","lat":35.663208,"lng":138.676414,"zip":"4050025"},{"town":"大野","koaza":"","lat":35.671885,"lng":138.675917,"zip":"4050016"},{"town":"水口","koaza":"","lat":35.728427,"lng":138.649778,"zip":"4050047"},{"town":"切差","koaza":"","lat":35.727766,"lng":138.615809,"zip":"4050048"},{"town":"牧丘町牧平","koaza":"","lat":35.748235,"lng":138.61464,"zip":"4040006"},{"town":"矢坪","koaza":"","lat":35.70155,"lng":138.652644,"zip":"4050036"},{"town":"三富上釜口","koaza":"","lat":35.835088,"lng":138.737207,"zip":"4040206"},{"town":"三富川浦","koaza":"","lat":35.847103,"lng":138.781587,"zip":"4040201"},{"town":"牧丘町成沢","koaza":"","lat":35.763452,"lng":138.728489,"zip":"4040011"},{"town":"牧丘町室伏","koaza":"","lat":35.757899,"lng":138.714421,"zip":"4040012"},{"town":"牧丘町千野々宮","koaza":"","lat":35.755462,"lng":138.707818,"zip":"4040016"},{"town":"牧丘町倉科","koaza":"","lat":35.759677,"lng":138.684531,"zip":"4040003"},{"town":"牧丘町西保下","koaza":"","lat":35.757709,"lng":138.670011,"zip":"4040004"},{"town":"牧丘町西保中","koaza":"","lat":35.748198,"lng":138.661483,"zip":"4040005"},{"town":"牧丘町北原","koaza":"","lat":35.811238,"lng":138.644372,"zip":"4040007"},{"town":"三富徳和","koaza":"","lat":35.810249,"lng":138.70538,"zip":"4040205"},{"town":"牧丘町柳平","koaza":"","lat":35.821045,"lng":138.661478,"zip":"4040001"},{"town":"下井尻","koaza":"","lat":35.703592,"lng":138.708265,"zip":"4050003"},{"town":"上之割","koaza":"","lat":35.696596,"lng":138.706333,"zip":"4050004"},{"town":"三ケ所","koaza":"","lat":35.689728,"lng":138.703237,"zip":"4050011"},{"town":"小原東","koaza":"","lat":35.695091,"lng":138.699605,"zip":"4050005"},{"town":"鴨居寺","koaza":"","lat":35.680629,"lng":138.701716,"zip":"4050013"},{"town":"上石森","koaza":"","lat":35.680276,"lng":138.695517,"zip":"4050014"},{"town":"下石森","koaza":"","lat":35.676217,"lng":138.686895,"zip":"4050015"},{"town":"小原西","koaza":"","lat":35.694225,"lng":138.690308,"zip":"4050006"},{"town":"上神内川","koaza":"","lat":35.68689,"lng":138.687689,"zip":"4050018"},{"town":"東後屋敷","koaza":"","lat":35.686505,"lng":138.711474,"zip":"4050012"},{"town":"下神内川","koaza":"","lat":35.680772,"lng":138.681748,"zip":"4050017"},{"town":"七日市場","koaza":"","lat":35.704872,"lng":138.700226,"zip":"4050007"},{"town":"北","koaza":"","lat":35.710848,"lng":138.68863,"zip":"4050041"},{"town":"南","koaza":"","lat":35.699378,"lng":138.679524,"zip":"4050042"},{"town":"万力","koaza":"","lat":35.690331,"lng":138.672354,"zip":"4050031"},{"town":"江曽原","koaza":"","lat":35.705011,"lng":138.671622,"zip":"4050043"},{"town":"正徳寺","koaza":"","lat":35.704052,"lng":138.636948,"zip":"4050032"},{"town":"上岩下","koaza":"","lat":35.683235,"lng":138.653082,"zip":"4050034"},{"town":"山根","koaza":"","lat":35.688713,"lng":138.65792,"zip":"4050035"},{"town":"堀内","koaza":"","lat":35.713878,"lng":138.638559,"zip":"4050046"},{"town":"大工","koaza":"","lat":35.708958,"lng":138.662546,"zip":"4050045"},{"town":"牧丘町城古寺","koaza":"","lat":35.744763,"lng":138.711343,"zip":"4040015"},{"town":"牧丘町窪平","koaza":"","lat":35.74262,"lng":138.716811,"zip":"4040013"},{"town":"西","koaza":"","lat":35.723919,"lng":138.693125,"zip":"4050001"},{"town":"市川","koaza":"","lat":35.715161,"lng":138.678567,"zip":"4050044"},{"town":"落合","koaza":"","lat":35.682167,"lng":138.66226,"zip":"4050033"},{"town":"牧丘町隼","koaza":"","lat":35.728821,"lng":138.705308,"zip":"4040014"},{"town":"東","koaza":"","lat":35.714168,"lng":138.696906,"zip":"4050002"},{"town":"三富下釜口","koaza":"","lat":35.794511,"lng":138.735863,"zip":"4040204"},{"town":"三富下荻原","koaza":"","lat":35.774361,"lng":138.733524,"zip":"4040203"},{"town":"牧丘町杣口","koaza":"","lat":35.783413,"lng":138.694055,"zip":"4040002"},{"town":"三富上柚木","koaza":"","lat":35.769862,"lng":138.740625,"zip":"4040202"},{"town":"落合","koaza":"塚田","lat":35.679235,"lng":138.660641,"zip":"4050033"},{"town":"下石森","koaza":"宮ノ前","lat":35.67663,"lng":138.690681,"zip":"4050015"}]