[{"town":"勝沼町勝沼","koaza":"","lat":35.663177,"lng":138.728018,"zip":"4091316"},{"town":"勝沼町菱山","koaza":"","lat":35.671555,"lng":138.7538,"zip":"4091302"},{"town":"勝沼町山林","koaza":"","lat":35.637053,"lng":138.743848,"zip":"4040000"},{"town":"大和町初鹿野","koaza":"","lat":35.653661,"lng":138.799042,"zip":"4091203"},{"town":"大和町木賊","koaza":"","lat":35.665031,"lng":138.810954,"zip":"4091201"},{"town":"勝沼町深沢","koaza":"","lat":35.668334,"lng":138.779183,"zip":"4091311"},{"town":"大和町田野","koaza":"","lat":35.648555,"lng":138.830434,"zip":"4091202"},{"town":"塩山福生里","koaza":"","lat":35.747132,"lng":138.746976,"zip":"4040056"},{"town":"塩山竹森","koaza":"","lat":35.736485,"lng":138.749242,"zip":"4040051"},{"town":"塩山上粟生野","koaza":"","lat":35.7207,"lng":138.749718,"zip":"4040031"},{"town":"塩山下粟生野","koaza":"","lat":35.71338,"lng":138.744132,"zip":"4040032"},{"town":"塩山中萩原","koaza":"","lat":35.712105,"lng":138.783548,"zip":"4091212"},{"town":"塩山下萩原","koaza":"","lat":35.706197,"lng":138.75063,"zip":"4040024"},{"town":"塩山牛奥","koaza":"","lat":35.6906,"lng":138.793287,"zip":"4091213"},{"town":"勝沼町中原","koaza":"","lat":35.684324,"lng":138.755623,"zip":"4091301"},{"town":"勝沼町小佐手","koaza":"","lat":35.674523,"lng":138.726928,"zip":"4091303"},{"town":"勝沼町等々力","koaza":"","lat":35.669714,"lng":138.71178,"zip":"4091315"},{"town":"塩山上萩原","koaza":"","lat":35.731626,"lng":138.824018,"zip":"4091211"},{"town":"塩山上小田原","koaza":"","lat":35.74502,"lng":138.786653,"zip":"4040026"},{"town":"塩山平沢","koaza":"","lat":35.757136,"lng":138.76656,"zip":"4040052"},{"town":"塩山小屋敷","koaza":"","lat":35.77209,"lng":138.754582,"zip":"4040211"},{"town":"塩山下柚木","koaza":"","lat":35.751555,"lng":138.731154,"zip":"4040055"},{"town":"塩山一ノ瀬高橋","koaza":"","lat":35.821009,"lng":138.820447,"zip":"4040000"},{"town":"大和町鶴瀬","koaza":"","lat":35.642914,"lng":138.766962,"zip":"4091205"},{"town":"大和町日影","koaza":"","lat":35.628475,"lng":138.76825,"zip":"4091204"},{"town":"勝沼町上岩崎","koaza":"","lat":35.65177,"lng":138.730747,"zip":"4091312"},{"town":"勝沼町藤井","koaza":"","lat":35.648069,"lng":138.71507,"zip":"4091314"},{"town":"勝沼町下岩崎","koaza":"","lat":35.652097,"lng":138.72123,"zip":"4091313"},{"town":"塩山下小田原","koaza":"","lat":35.739715,"lng":138.771809,"zip":"4040025"},{"town":"塩山上於曽","koaza":"","lat":35.709188,"lng":138.729628,"zip":"4040042"},{"town":"塩山千野","koaza":"","lat":35.72008,"lng":138.734543,"zip":"4040041"},{"town":"塩山熊野","koaza":"","lat":35.69076,"lng":138.728179,"zip":"4040036"},{"town":"塩山西野原","koaza":"","lat":35.688229,"lng":138.734047,"zip":"4040035"},{"town":"塩山赤尾","koaza":"","lat":35.702814,"lng":138.73813,"zip":"4040033"},{"town":"塩山下於曽","koaza":"","lat":35.699454,"lng":138.72792,"zip":"4040043"},{"town":"勝沼町休息","koaza":"","lat":35.678508,"lng":138.715016,"zip":"4091304"},{"town":"塩山上井尻","koaza":"","lat":35.711888,"lng":138.714229,"zip":"4040046"},{"town":"塩山上塩後","koaza":"","lat":35.7049,"lng":138.717249,"zip":"4040045"},{"town":"塩山下塩後","koaza":"","lat":35.695533,"lng":138.715042,"zip":"4040044"},{"town":"勝沼町綿塚","koaza":"","lat":35.674788,"lng":138.703994,"zip":"4091305"},{"town":"塩山藤木","koaza":"","lat":35.734724,"lng":138.71998,"zip":"4040054"},{"town":"勝沼町山","koaza":"","lat":35.682884,"lng":138.724838,"zip":"4091306"},{"town":"塩山西広門田","koaza":"","lat":35.690431,"lng":138.719701,"zip":"4040037"},{"town":"塩山三日市場","koaza":"","lat":35.719204,"lng":138.716956,"zip":"4040047"},{"town":"塩山下塩後","koaza":"向原","lat":35.695,"lng":138.719039,"zip":"4040044"}]