[{"town":"古関町","koaza":"","lat":35.5253,"lng":138.620758,"zip":"4093712"},{"town":"中畑町","koaza":"","lat":35.565431,"lng":138.60498,"zip":"4001505"},{"town":"上向山町","koaza":"","lat":35.582175,"lng":138.588924,"zip":"4001506"},{"town":"下向山町","koaza":"","lat":35.585614,"lng":138.576725,"zip":"4001507"},{"town":"和戸町","koaza":"","lat":35.652015,"lng":138.615404,"zip":"4000812"},{"town":"川田町","koaza":"","lat":35.652814,"lng":138.629433,"zip":"4000811"},{"town":"桜井町","koaza":"","lat":35.666089,"lng":138.620053,"zip":"4000803"},{"town":"向町","koaza":"","lat":35.64694,"lng":138.616091,"zip":"4000813"},{"town":"下曽根町","koaza":"","lat":35.593947,"lng":138.572635,"zip":"4001508"},{"town":"横根町","koaza":"","lat":35.670838,"lng":138.608514,"zip":"4000802"},{"town":"善光寺町","koaza":"","lat":35.680481,"lng":138.598934,"zip":"4000801"},{"town":"池田二丁目","koaza":"","lat":35.671493,"lng":138.539671,"zip":"4000062"},{"town":"池田三丁目","koaza":"","lat":35.671572,"lng":138.535485,"zip":"4000062"},{"town":"上積翠寺町","koaza":"","lat":35.708557,"lng":138.60121,"zip":"4000011"},{"town":"東光寺町","koaza":"","lat":35.669877,"lng":138.587118,"zip":"4000808"},{"town":"愛宕町","koaza":"","lat":35.667449,"lng":138.577169,"zip":"4000023"},{"town":"北口三丁目","koaza":"","lat":35.668955,"lng":138.572979,"zip":"4000024"},{"town":"北口二丁目","koaza":"","lat":35.668875,"lng":138.570826,"zip":"4000024"},{"town":"北口一丁目","koaza":"","lat":35.669573,"lng":138.568635,"zip":"4000024"},{"town":"朝日一丁目","koaza":"","lat":35.669849,"lng":138.566743,"zip":"4000025"},{"town":"朝日二丁目","koaza":"","lat":35.670092,"lng":138.564725,"zip":"4000025"},{"town":"朝日三丁目","koaza":"","lat":35.670748,"lng":138.562613,"zip":"4000025"},{"town":"塩部一丁目","koaza":"","lat":35.672825,"lng":138.560655,"zip":"4000026"},{"town":"塩部二丁目","koaza":"","lat":35.670987,"lng":138.55642,"zip":"4000026"},{"town":"富士見一丁目","koaza":"","lat":35.673116,"lng":138.55054,"zip":"4000027"},{"town":"飯田二丁目","koaza":"","lat":35.668918,"lng":138.551999,"zip":"4000035"},{"town":"池田一丁目","koaza":"","lat":35.67191,"lng":138.544693,"zip":"4000062"},{"town":"黒平町","koaza":"","lat":35.83179,"lng":138.609457,"zip":"4001211"},{"town":"猪狩町","koaza":"","lat":35.752903,"lng":138.5593,"zip":"4001217"},{"town":"川窪町","koaza":"","lat":35.760036,"lng":138.579194,"zip":"4001213"},{"town":"高成町","koaza":"","lat":35.748902,"lng":138.576876,"zip":"4001214"},{"town":"上帯那町","koaza":"","lat":35.751774,"lng":138.590571,"zip":"4000081"},{"town":"梯町","koaza":"","lat":35.536097,"lng":138.596545,"zip":"4093711"},{"town":"心経寺町","koaza":"","lat":35.570986,"lng":138.608364,"zip":"4001503"},{"town":"右左口町","koaza":"","lat":35.56487,"lng":138.589406,"zip":"4001504"},{"town":"中央三丁目","koaza":"","lat":35.662312,"lng":138.576615,"zip":"4000032"},{"town":"中央二丁目","koaza":"","lat":35.663389,"lng":138.573561,"zip":"4000032"},{"town":"丸の内二丁目","koaza":"","lat":35.664866,"lng":138.565909,"zip":"4000031"},{"town":"丸の内三丁目","koaza":"","lat":35.660359,"lng":138.564884,"zip":"4000031"},{"town":"宝一丁目","koaza":"","lat":35.666083,"lng":138.562255,"zip":"4000034"},{"town":"丸の内一丁目","koaza":"","lat":35.664953,"lng":138.570319,"zip":"4000031"},{"town":"飯田一丁目","koaza":"","lat":35.668689,"lng":138.55808,"zip":"4000035"},{"town":"宝二丁目","koaza":"","lat":35.661475,"lng":138.560887,"zip":"4000034"},{"town":"飯田三丁目","koaza":"","lat":35.665162,"lng":138.558056,"zip":"4000035"},{"town":"飯田四丁目","koaza":"","lat":35.666374,"lng":138.554035,"zip":"4000035"},{"town":"下飯田三丁目","koaza":"","lat":35.660949,"lng":138.552532,"zip":"4000064"},{"town":"下飯田二丁目","koaza":"","lat":35.664498,"lng":138.547218,"zip":"4000064"},{"town":"下飯田一丁目","koaza":"","lat":35.667425,"lng":138.546012,"zip":"4000064"},{"town":"青沼二丁目","koaza":"","lat":35.65404,"lng":138.57772,"zip":"4000867"},{"town":"朝気一丁目","koaza":"","lat":35.654022,"lng":138.582031,"zip":"4000862"},{"town":"中央五丁目","koaza":"","lat":35.658235,"lng":138.575415,"zip":"4000032"},{"town":"城東一丁目","koaza":"","lat":35.660891,"lng":138.579852,"zip":"4000861"},{"town":"城東二丁目","koaza":"","lat":35.657664,"lng":138.578586,"zip":"4000861"},{"town":"中央一丁目","koaza":"","lat":35.6598,"lng":138.569071,"zip":"4000032"},{"town":"青沼三丁目","koaza":"","lat":35.651813,"lng":138.576132,"zip":"4000867"},{"town":"青沼一丁目","koaza":"","lat":35.654665,"lng":138.574619,"zip":"4000867"},{"town":"若松町","koaza":"","lat":35.655076,"lng":138.571775,"zip":"4000866"},{"town":"中央四丁目","koaza":"","lat":35.658726,"lng":138.572412,"zip":"4000032"},{"town":"相生二丁目","koaza":"","lat":35.656546,"lng":138.568548,"zip":"4000858"},{"town":"相生三丁目","koaza":"","lat":35.653266,"lng":138.567641,"zip":"4000858"},{"town":"相生一丁目","koaza":"","lat":35.657086,"lng":138.564392,"zip":"4000858"},{"town":"寿町","koaza":"","lat":35.657996,"lng":138.560027,"zip":"4000033"},{"town":"飯田五丁目","koaza":"","lat":35.663294,"lng":138.554842,"zip":"4000035"},{"town":"上石田二丁目","koaza":"","lat":35.656065,"lng":138.55736,"zip":"4000041"},{"town":"上石田三丁目","koaza":"","lat":35.652651,"lng":138.555805,"zip":"4000041"},{"town":"徳行二丁目","koaza":"","lat":35.650516,"lng":138.547821,"zip":"4000047"},{"town":"貢川本町","koaza":"","lat":35.654516,"lng":138.549876,"zip":"4000048"},{"town":"上石田一丁目","koaza":"","lat":35.657799,"lng":138.552319,"zip":"4000041"},{"town":"富竹一丁目","koaza":"","lat":35.657423,"lng":138.547164,"zip":"4000049"},{"town":"下飯田四丁目","koaza":"","lat":35.661549,"lng":138.547132,"zip":"4000064"},{"town":"南口町","koaza":"","lat":35.644218,"lng":138.578255,"zip":"4000863"},{"town":"湯田二丁目","koaza":"","lat":35.645449,"lng":138.575713,"zip":"4000864"},{"town":"湯田一丁目","koaza":"","lat":35.649198,"lng":138.576193,"zip":"4000864"},{"town":"太田町","koaza":"","lat":35.651044,"lng":138.57141,"zip":"4000865"},{"town":"幸町","koaza":"","lat":35.646081,"lng":138.571844,"zip":"4000857"},{"town":"伊勢三丁目","koaza":"","lat":35.643445,"lng":138.567247,"zip":"4000856"},{"town":"伊勢二丁目","koaza":"","lat":35.646511,"lng":138.567574,"zip":"4000856"},{"town":"伊勢一丁目","koaza":"","lat":35.650378,"lng":138.567779,"zip":"4000856"},{"town":"高畑一丁目","koaza":"","lat":35.651773,"lng":138.563177,"zip":"4000042"},{"town":"高畑三丁目","koaza":"","lat":35.644415,"lng":138.564168,"zip":"4000042"},{"town":"高畑二丁目","koaza":"","lat":35.648691,"lng":138.560587,"zip":"4000042"},{"town":"上石田四丁目","koaza":"","lat":35.649782,"lng":138.554962,"zip":"4000041"},{"town":"国母一丁目","koaza":"","lat":35.645752,"lng":138.558772,"zip":"4000043"},{"town":"国母二丁目","koaza":"","lat":35.642212,"lng":138.56055,"zip":"4000043"},{"town":"下石田二丁目","koaza":"","lat":35.647325,"lng":138.552602,"zip":"4000046"},{"town":"国母三丁目","koaza":"","lat":35.642985,"lng":138.554823,"zip":"4000043"},{"town":"国母七丁目","koaza":"","lat":35.638132,"lng":138.549457,"zip":"4000043"},{"town":"国母五丁目","koaza":"","lat":35.640194,"lng":138.552184,"zip":"4000043"},{"town":"朝気三丁目","koaza":"","lat":35.64955,"lng":138.581744,"zip":"4000862"},{"town":"伊勢四丁目","koaza":"","lat":35.63939,"lng":138.566298,"zip":"4000856"},{"town":"国母四丁目","koaza":"","lat":35.638011,"lng":138.559775,"zip":"4000043"},{"town":"上曽根町","koaza":"","lat":35.601566,"lng":138.594879,"zip":"4001501"},{"town":"小曲町","koaza":"","lat":35.606586,"lng":138.583725,"zip":"4000841"},{"town":"西下条町","koaza":"","lat":35.606275,"lng":138.572213,"zip":"4000054"},{"town":"下鍛冶屋町","koaza":"","lat":35.619656,"lng":138.587227,"zip":"4000835"},{"town":"西油川町","koaza":"","lat":35.623107,"lng":138.595896,"zip":"4000833"},{"town":"小瀬町","koaza":"","lat":35.625646,"lng":138.586941,"zip":"4000836"},{"town":"下小河原町","koaza":"","lat":35.632223,"lng":138.578062,"zip":"4000853"},{"town":"高室町","koaza":"","lat":35.610728,"lng":138.556216,"zip":"4000057"},{"town":"堀之内町","koaza":"","lat":35.611678,"lng":138.562063,"zip":"4000056"},{"town":"東下条町","koaza":"","lat":35.61168,"lng":138.574143,"zip":"4000843"},{"town":"中町","koaza":"","lat":35.617118,"lng":138.572147,"zip":"4000844"},{"town":"下今井町","koaza":"","lat":35.610082,"lng":138.579947,"zip":"4000842"},{"town":"上今井町","koaza":"","lat":35.621049,"lng":138.576221,"zip":"4000845"},{"town":"中小河原町","koaza":"","lat":35.63048,"lng":138.572884,"zip":"4000854"},{"town":"国母六丁目","koaza":"","lat":35.63635,"lng":138.557148,"zip":"4000043"},{"town":"後屋町","koaza":"","lat":35.628704,"lng":138.563038,"zip":"4000045"},{"town":"上小河原町","koaza":"","lat":35.631872,"lng":138.565584,"zip":"4000044"},{"town":"上条新居町","koaza":"","lat":35.62977,"lng":138.553701,"zip":"4000052"},{"town":"古上条町","koaza":"","lat":35.629602,"lng":138.558058,"zip":"4000051"},{"town":"大里町","koaza":"","lat":35.621109,"lng":138.564265,"zip":"4000053"},{"town":"宮原町","koaza":"","lat":35.617563,"lng":138.555837,"zip":"4000058"},{"town":"住吉五丁目","koaza":"","lat":35.636858,"lng":138.577975,"zip":"4000851"},{"town":"七沢町","koaza":"","lat":35.639631,"lng":138.60423,"zip":"4000825"},{"town":"西高橋町","koaza":"","lat":35.639131,"lng":138.597136,"zip":"4000826"},{"town":"住吉四丁目","koaza":"","lat":35.638798,"lng":138.581475,"zip":"4000851"},{"town":"上町","koaza":"","lat":35.63091,"lng":138.586194,"zip":"4000831"},{"town":"青葉町","koaza":"","lat":35.645627,"lng":138.583977,"zip":"4000828"},{"town":"蓬沢一丁目","koaza":"","lat":35.64285,"lng":138.590468,"zip":"4000827"},{"town":"住吉三丁目","koaza":"","lat":35.64103,"lng":138.581369,"zip":"4000851"},{"town":"酒折二丁目","koaza":"","lat":35.657234,"lng":138.602385,"zip":"4000805"},{"town":"上阿原町","koaza":"","lat":35.646391,"lng":138.606728,"zip":"4000814"},{"town":"蓬沢町","koaza":"","lat":35.64237,"lng":138.595277,"zip":"4000824"},{"town":"里吉町","koaza":"","lat":35.650605,"lng":138.595608,"zip":"4000823"},{"town":"砂田町","koaza":"","lat":35.654598,"lng":138.591722,"zip":"4000821"},{"town":"里吉三丁目","koaza":"","lat":35.648039,"lng":138.58624,"zip":"4000822"},{"town":"里吉四丁目","koaza":"","lat":35.646829,"lng":138.590982,"zip":"4000822"},{"town":"里吉一丁目","koaza":"","lat":35.65172,"lng":138.588348,"zip":"4000822"},{"town":"住吉一丁目","koaza":"","lat":35.640384,"lng":138.572131,"zip":"4000851"},{"town":"増坪町","koaza":"","lat":35.634275,"lng":138.592533,"zip":"4000832"},{"town":"住吉本町","koaza":"","lat":35.638732,"lng":138.590704,"zip":"4000852"},{"town":"中小河原一丁目","koaza":"","lat":35.635193,"lng":138.571133,"zip":"4000855"},{"town":"住吉二丁目","koaza":"","lat":35.637599,"lng":138.567615,"zip":"4000851"},{"town":"国母八丁目","koaza":"","lat":35.633959,"lng":138.553357,"zip":"4000043"},{"town":"徳行三丁目","koaza":"","lat":35.648452,"lng":138.540977,"zip":"4000047"},{"town":"徳行一丁目","koaza":"","lat":35.653882,"lng":138.543796,"zip":"4000047"},{"town":"富竹二丁目","koaza":"","lat":35.65873,"lng":138.544238,"zip":"4000049"},{"town":"徳行四丁目","koaza":"","lat":35.65031,"lng":138.537642,"zip":"4000047"},{"town":"里吉二丁目","koaza":"","lat":35.650828,"lng":138.592495,"zip":"4000822"},{"town":"国玉町","koaza":"","lat":35.65045,"lng":138.600346,"zip":"4000815"},{"town":"酒折一丁目","koaza":"","lat":35.656829,"lng":138.597428,"zip":"4000805"},{"town":"酒折町","koaza":"","lat":35.663855,"lng":138.601347,"zip":"4000804"},{"town":"城東四丁目","koaza":"","lat":35.657876,"lng":138.583537,"zip":"4000861"},{"town":"朝気二丁目","koaza":"","lat":35.653463,"lng":138.586037,"zip":"4000862"},{"town":"城東三丁目","koaza":"","lat":35.659744,"lng":138.584683,"zip":"4000861"},{"town":"酒折三丁目","koaza":"","lat":35.660872,"lng":138.598529,"zip":"4000805"},{"town":"善光寺一丁目","koaza":"","lat":35.658256,"lng":138.592661,"zip":"4000806"},{"town":"善光寺三丁目","koaza":"","lat":35.663964,"lng":138.594021,"zip":"4000806"},{"town":"東光寺三丁目","koaza":"","lat":35.667022,"lng":138.588837,"zip":"4000807"},{"town":"城東五丁目","koaza":"","lat":35.658823,"lng":138.588342,"zip":"4000861"},{"town":"東光寺一丁目","koaza":"","lat":35.662521,"lng":138.58255,"zip":"4000807"},{"town":"東光寺二丁目","koaza":"","lat":35.664374,"lng":138.586645,"zip":"4000807"},{"town":"善光寺二丁目","koaza":"","lat":35.664153,"lng":138.591338,"zip":"4000806"},{"town":"徳行五丁目","koaza":"","lat":35.652736,"lng":138.53614,"zip":"4000047"},{"town":"富竹四丁目","koaza":"","lat":35.655491,"lng":138.538847,"zip":"4000049"},{"town":"下河原町","koaza":"","lat":35.664755,"lng":138.532779,"zip":"4000068"},{"town":"金竹町","koaza":"","lat":35.667649,"lng":138.537807,"zip":"4000063"},{"town":"長松寺町","koaza":"","lat":35.666637,"lng":138.540914,"zip":"4000067"},{"town":"中村町","koaza":"","lat":35.666161,"lng":138.535214,"zip":"4000069"},{"town":"富竹三丁目","koaza":"","lat":35.656549,"lng":138.541471,"zip":"4000049"},{"town":"貢川一丁目","koaza":"","lat":35.660039,"lng":138.539496,"zip":"4000065"},{"town":"新田町","koaza":"","lat":35.663278,"lng":138.540088,"zip":"4000066"},{"town":"貢川二丁目","koaza":"","lat":35.660792,"lng":138.5349,"zip":"4000065"},{"town":"落合町","koaza":"","lat":35.613786,"lng":138.589643,"zip":"4000834"},{"town":"白井町","koaza":"","lat":35.609753,"lng":138.604383,"zip":"4001502"},{"town":"大津町","koaza":"","lat":35.602055,"lng":138.56389,"zip":"4000055"},{"town":"荒川二丁目","koaza":"","lat":35.677012,"lng":138.536479,"zip":"4000061"},{"town":"千塚五丁目","koaza":"","lat":35.686343,"lng":138.539388,"zip":"4000074"},{"town":"千塚四丁目","koaza":"","lat":35.684597,"lng":138.535981,"zip":"4000074"},{"town":"千塚二丁目","koaza":"","lat":35.679424,"lng":138.538436,"zip":"4000074"},{"town":"千塚三丁目","koaza":"","lat":35.683265,"lng":138.542208,"zip":"4000074"},{"town":"緑が丘二丁目","koaza":"","lat":35.682421,"lng":138.55869,"zip":"4000008"},{"town":"北新一丁目","koaza":"","lat":35.679872,"lng":138.566911,"zip":"4000005"},{"town":"北新二丁目","koaza":"","lat":35.681812,"lng":138.565256,"zip":"4000005"},{"town":"屋形一丁目","koaza":"","lat":35.682174,"lng":138.570738,"zip":"4000017"},{"town":"屋形二丁目","koaza":"","lat":35.68196,"lng":138.573795,"zip":"4000017"},{"town":"大手一丁目","koaza":"","lat":35.680929,"lng":138.575719,"zip":"4000015"},{"town":"西田町","koaza":"","lat":35.685634,"lng":138.568342,"zip":"4000004"},{"town":"屋形三丁目","koaza":"","lat":35.685236,"lng":138.573456,"zip":"4000017"},{"town":"大手三丁目","koaza":"","lat":35.684284,"lng":138.578295,"zip":"4000015"},{"town":"小松町","koaza":"","lat":35.68951,"lng":138.567323,"zip":"4000002"},{"town":"古府中町","koaza":"","lat":35.688647,"lng":138.576582,"zip":"4000014"},{"town":"岩窪町","koaza":"","lat":35.683204,"lng":138.587149,"zip":"4000013"},{"town":"下積翠寺町","koaza":"","lat":35.696599,"lng":138.583836,"zip":"4000012"},{"town":"和田町","koaza":"","lat":35.692084,"lng":138.558753,"zip":"4000001"},{"town":"塚原町","koaza":"","lat":35.698642,"lng":138.571298,"zip":"4000003"},{"town":"湯村三丁目","koaza":"","lat":35.688701,"lng":138.550292,"zip":"4000073"},{"town":"羽黒町","koaza":"","lat":35.693761,"lng":138.546751,"zip":"4000071"},{"town":"平瀬町","koaza":"","lat":35.71311,"lng":138.543932,"zip":"4000083"},{"town":"下帯那町","koaza":"","lat":35.710361,"lng":138.559659,"zip":"4000082"},{"town":"塔岩町","koaza":"","lat":35.732598,"lng":138.573281,"zip":"4001216"},{"town":"竹日向町","koaza":"","lat":35.737747,"lng":138.579986,"zip":"4001215"},{"town":"山宮町","koaza":"","lat":35.694989,"lng":138.53351,"zip":"4000075"},{"town":"大手二丁目","koaza":"","lat":35.679738,"lng":138.577666,"zip":"4000015"},{"town":"緑が丘一丁目","koaza":"","lat":35.677895,"lng":138.560048,"zip":"4000008"},{"town":"元紺屋町","koaza":"","lat":35.672436,"lng":138.578041,"zip":"4000022"},{"town":"武田二丁目","koaza":"","lat":35.671852,"lng":138.571868,"zip":"4000016"},{"town":"宮前町","koaza":"","lat":35.674229,"lng":138.575493,"zip":"4000021"},{"town":"武田一丁目","koaza":"","lat":35.67233,"lng":138.569777,"zip":"4000016"},{"town":"武田四丁目","koaza":"","lat":35.67803,"lng":138.573061,"zip":"4000016"},{"town":"武田三丁目","koaza":"","lat":35.675086,"lng":138.571923,"zip":"4000016"},{"town":"朝日四丁目","koaza":"","lat":35.672909,"lng":138.568061,"zip":"4000025"},{"town":"美咲一丁目","koaza":"","lat":35.673988,"lng":138.563674,"zip":"4000007"},{"town":"朝日五丁目","koaza":"","lat":35.673368,"lng":138.566277,"zip":"4000025"},{"town":"美咲二丁目","koaza":"","lat":35.677261,"lng":138.564624,"zip":"4000007"},{"town":"天神町","koaza":"","lat":35.677354,"lng":138.568279,"zip":"4000006"},{"town":"荒川一丁目","koaza":"","lat":35.675009,"lng":138.540914,"zip":"4000061"},{"town":"塩部三丁目","koaza":"","lat":35.674541,"lng":138.557952,"zip":"4000026"},{"town":"大和町","koaza":"","lat":35.679611,"lng":138.554889,"zip":"4000072"},{"town":"塩部四丁目","koaza":"","lat":35.675347,"lng":138.554628,"zip":"4000026"},{"town":"湯村一丁目","koaza":"","lat":35.677393,"lng":138.551351,"zip":"4000073"},{"town":"湯村二丁目","koaza":"","lat":35.678562,"lng":138.547761,"zip":"4000073"},{"town":"千塚一丁目","koaza":"","lat":35.679549,"lng":138.543401,"zip":"4000074"},{"town":"音羽町","koaza":"","lat":35.677803,"lng":138.541975,"zip":"4000028"},{"town":"富士見二丁目","koaza":"","lat":35.674177,"lng":138.54679,"zip":"4000027"},{"town":"高町","koaza":"","lat":35.767291,"lng":138.572879,"zip":"4001212"},{"town":"草鹿沢町","koaza":"","lat":35.774654,"lng":138.547281,"zip":"4001219"},{"town":"御岳町","koaza":"","lat":35.779728,"lng":138.566723,"zip":"4001218"},{"town":"和戸町","koaza":"藤塚","lat":35.653234,"lng":138.615633,"zip":"4000812"}]