[{"town":"長塚","koaza":"","lat":35.671501,"lng":138.531924,"zip":"4000125"},{"town":"竜王新町","koaza":"","lat":35.672518,"lng":138.5158,"zip":"4000111"},{"town":"大下条","koaza":"","lat":35.671491,"lng":138.525468,"zip":"4000126"},{"town":"竜王","koaza":"","lat":35.664353,"lng":138.507297,"zip":"4000118"},{"town":"岩森","koaza":"","lat":35.696728,"lng":138.489776,"zip":"4000106"},{"town":"龍地","koaza":"","lat":35.68376,"lng":138.509664,"zip":"4000104"},{"town":"團子新居","koaza":"","lat":35.714227,"lng":138.500321,"zip":"4000100"},{"town":"大垈","koaza":"","lat":35.704352,"lng":138.505921,"zip":"4000103"},{"town":"菖蒲澤","koaza":"","lat":35.716382,"lng":138.494455,"zip":"4000100"},{"town":"下今井","koaza":"","lat":35.680157,"lng":138.494507,"zip":"4000105"},{"town":"上菅口","koaza":"","lat":35.755157,"lng":138.522342,"zip":"4001117"},{"town":"安寺","koaza":"","lat":35.75437,"lng":138.534699,"zip":"4001126"},{"town":"下福沢","koaza":"","lat":35.754197,"lng":138.547434,"zip":"4001124"},{"town":"玉川","koaza":"","lat":35.634824,"lng":138.525098,"zip":"4000116"},{"town":"万才","koaza":"","lat":35.646971,"lng":138.532455,"zip":"4000114"},{"town":"篠原","koaza":"","lat":35.650539,"lng":138.52259,"zip":"4000115"},{"town":"名取","koaza":"","lat":35.665648,"lng":138.523779,"zip":"4000112"},{"town":"富竹新田","koaza":"","lat":35.655608,"lng":138.531395,"zip":"4000113"},{"town":"西八幡","koaza":"","lat":35.645083,"lng":138.514056,"zip":"4000117"},{"town":"天狗沢","koaza":"","lat":35.688965,"lng":138.515765,"zip":"4000127"},{"town":"中下条","koaza":"","lat":35.680456,"lng":138.526897,"zip":"4000124"},{"town":"境","koaza":"","lat":35.693337,"lng":138.522269,"zip":"4000122"},{"town":"大久保","koaza":"","lat":35.696976,"lng":138.512598,"zip":"4000128"},{"town":"吉沢","koaza":"","lat":35.724373,"lng":138.541537,"zip":"4001112"},{"town":"千田","koaza":"","lat":35.738664,"lng":138.553973,"zip":"4001111"},{"town":"獅子平","koaza":"","lat":35.740184,"lng":138.533219,"zip":"4001116"},{"town":"下菅口","koaza":"","lat":35.746747,"lng":138.528248,"zip":"4001125"},{"town":"漆戸","koaza":"","lat":35.740856,"lng":138.526451,"zip":"4001115"},{"town":"牛句","koaza":"","lat":35.706955,"lng":138.519422,"zip":"4000121"},{"town":"亀沢","koaza":"","lat":35.728385,"lng":138.524576,"zip":"4001113"},{"town":"島上条","koaza":"","lat":35.687128,"lng":138.525298,"zip":"4000123"},{"town":"打返","koaza":"","lat":35.740595,"lng":138.51672,"zip":"4001114"},{"town":"志田","koaza":"","lat":35.685499,"lng":138.483713,"zip":"4000107"},{"town":"宇津谷","koaza":"","lat":35.700839,"lng":138.475539,"zip":"4000108"},{"town":"上福沢","koaza":"","lat":35.767183,"lng":138.536623,"zip":"4001123"},{"town":"神戸","koaza":"","lat":35.765236,"lng":138.526546,"zip":"4001127"},{"town":"下芦沢","koaza":"","lat":35.771977,"lng":138.528967,"zip":"4001122"},{"town":"上芦沢","koaza":"","lat":35.790559,"lng":138.540504,"zip":"4001121"},{"town":"志田","koaza":"柿木","lat":35.684539,"lng":138.483786,"zip":"4000107"},{"town":"島上条","koaza":"村続","lat":35.684486,"lng":138.525927,"zip":"4000123"},{"town":"竜王新町","koaza":"西裏","lat":35.669438,"lng":138.511934,"zip":"4000111"}]