[{"town":"石和町駅前","koaza":"","lat":35.656051,"lng":138.635975,"zip":"4060028"},{"town":"御坂町藤野木","koaza":"","lat":35.581714,"lng":138.773087,"zip":"4060814"},{"town":"芦川町上芦川","koaza":"","lat":35.549503,"lng":138.714812,"zip":"4093701"},{"town":"境川町大窪","koaza":"","lat":35.575385,"lng":138.632222,"zip":"4060855"},{"town":"芦川町鶯宿","koaza":"","lat":35.54017,"lng":138.644201,"zip":"4093704"},{"town":"境川町藤垈","koaza":"","lat":35.580376,"lng":138.616728,"zip":"4060853"},{"town":"境川町小黒坂","koaza":"","lat":35.589711,"lng":138.62984,"zip":"4060851"},{"town":"御坂町上黒駒","koaza":"","lat":35.590987,"lng":138.712061,"zip":"4060813"},{"town":"御坂町下黒駒","koaza":"","lat":35.599201,"lng":138.694074,"zip":"4060812"},{"town":"八代町竹居","koaza":"","lat":35.585687,"lng":138.675507,"zip":"4060832"},{"town":"八代町奈良原","koaza":"","lat":35.591505,"lng":138.678883,"zip":"4060833"},{"town":"境川町大黒坂","koaza":"","lat":35.575575,"lng":138.645161,"zip":"4060852"},{"town":"一宮町石","koaza":"","lat":35.62693,"lng":138.73688,"zip":"4050061"},{"town":"一宮町土塚","koaza":"","lat":35.62034,"lng":138.739502,"zip":"4050067"},{"town":"八代町岡","koaza":"","lat":35.594751,"lng":138.651122,"zip":"4060834"},{"town":"境川町石橋","koaza":"","lat":35.606656,"lng":138.620172,"zip":"4060842"},{"town":"八代町米倉","koaza":"","lat":35.601271,"lng":138.637979,"zip":"4060835"},{"town":"八代町大間田","koaza":"","lat":35.621449,"lng":138.620523,"zip":"4060825"},{"town":"石和町唐柏","koaza":"","lat":35.637323,"lng":138.616043,"zip":"4060034"},{"town":"石和町広瀬","koaza":"","lat":35.64104,"lng":138.624876,"zip":"4060035"},{"town":"石和町小石和","koaza":"","lat":35.627864,"lng":138.6214,"zip":"4060033"},{"town":"八代町増利","koaza":"","lat":35.616783,"lng":138.620654,"zip":"4060824"},{"town":"境川町小山","koaza":"","lat":35.601342,"lng":138.624901,"zip":"4060844"},{"town":"境川町寺尾","koaza":"","lat":35.587393,"lng":138.599434,"zip":"4060854"},{"town":"春日居町加茂","koaza":"","lat":35.669104,"lng":138.658456,"zip":"4060005"},{"town":"春日居町別田","koaza":"","lat":35.6735,"lng":138.657555,"zip":"4060002"},{"town":"春日居町熊野堂","koaza":"","lat":35.669638,"lng":138.651273,"zip":"4060012"},{"town":"春日居町鎮目","koaza":"","lat":35.671365,"lng":138.634867,"zip":"4060015"},{"town":"春日居町国府","koaza":"","lat":35.681576,"lng":138.634445,"zip":"4060014"},{"town":"春日居町桑戸","koaza":"","lat":35.693499,"lng":138.631285,"zip":"4060003"},{"town":"芦川町新井原","koaza":"","lat":35.546241,"lng":138.684191,"zip":"4093702"},{"town":"芦川町中芦川","koaza":"","lat":35.544449,"lng":138.670878,"zip":"4093703"},{"town":"御坂町蕎麦塚","koaza":"","lat":35.617861,"lng":138.664577,"zip":"4060818"},{"town":"御坂町八千蔵","koaza":"","lat":35.620928,"lng":138.659096,"zip":"4060806"},{"town":"御坂町栗合","koaza":"","lat":35.623802,"lng":138.664979,"zip":"4060805"},{"town":"御坂町夏目原","koaza":"","lat":35.628478,"lng":138.662663,"zip":"4060804"},{"town":"境川町前間田","koaza":"","lat":35.598767,"lng":138.632703,"zip":"4060843"},{"town":"八代町高家","koaza":"","lat":35.613348,"lng":138.657393,"zip":"4060831"},{"town":"八代町永井","koaza":"","lat":35.613983,"lng":138.630608,"zip":"4060823"},{"town":"八代町北","koaza":"","lat":35.620899,"lng":138.64953,"zip":"4060821"},{"town":"八代町南","koaza":"","lat":35.618224,"lng":138.634538,"zip":"4060822"},{"town":"御坂町二之宮","koaza":"","lat":35.629389,"lng":138.648483,"zip":"4060807"},{"town":"御坂町国衙","koaza":"","lat":35.637118,"lng":138.648523,"zip":"4060808"},{"town":"御坂町下野原","koaza":"","lat":35.622975,"lng":138.673773,"zip":"4060811"},{"town":"御坂町尾山","koaza":"","lat":35.614813,"lng":138.678258,"zip":"4060815"},{"town":"一宮町新巻","koaza":"","lat":35.621291,"lng":138.701662,"zip":"4050065"},{"town":"一宮町市之蔵","koaza":"","lat":35.623393,"lng":138.693565,"zip":"4050063"},{"town":"一宮町塩田","koaza":"","lat":35.633963,"lng":138.69152,"zip":"4050064"},{"town":"一宮町神沢","koaza":"","lat":35.641426,"lng":138.699153,"zip":"4050066"},{"town":"一宮町東新居","koaza":"","lat":35.61484,"lng":138.730847,"zip":"4050069"},{"town":"一宮町狐新居","koaza":"","lat":35.616234,"lng":138.718202,"zip":"4050068"},{"town":"一宮町金沢","koaza":"","lat":35.621889,"lng":138.709502,"zip":"4050062"},{"town":"一宮町千米寺","koaza":"","lat":35.645504,"lng":138.709525,"zip":"4050054"},{"town":"一宮町地蔵堂","koaza":"","lat":35.647487,"lng":138.704379,"zip":"4050055"},{"town":"石和町窪中島","koaza":"","lat":35.646692,"lng":138.630938,"zip":"4060036"},{"town":"一宮町末木","koaza":"","lat":35.644241,"lng":138.690001,"zip":"4050073"},{"town":"一宮町上矢作","koaza":"","lat":35.660463,"lng":138.700351,"zip":"4050059"},{"town":"一宮町一ノ宮","koaza":"","lat":35.648165,"lng":138.698065,"zip":"4050056"},{"town":"一宮町中尾","koaza":"","lat":35.654762,"lng":138.701108,"zip":"4050053"},{"town":"一宮町北都塚","koaza":"","lat":35.653127,"lng":138.69147,"zip":"4050071"},{"town":"一宮町小城","koaza":"","lat":35.658887,"lng":138.691507,"zip":"4050058"},{"town":"一宮町北野呂","koaza":"","lat":35.660843,"lng":138.71009,"zip":"4050051"},{"town":"一宮町本都塚","koaza":"","lat":35.650326,"lng":138.688568,"zip":"4050072"},{"town":"一宮町橋立","koaza":"","lat":35.64677,"lng":138.67835,"zip":"4050075"},{"town":"御坂町金川原","koaza":"","lat":35.632539,"lng":138.672372,"zip":"4060802"},{"town":"一宮町国分","koaza":"","lat":35.635954,"lng":138.679417,"zip":"4050074"},{"town":"一宮町東原","koaza":"","lat":35.644657,"lng":138.680006,"zip":"4050075"},{"town":"一宮町金田","koaza":"","lat":35.652654,"lng":138.682045,"zip":"4050079"},{"town":"一宮町下矢作","koaza":"","lat":35.658763,"lng":138.683228,"zip":"4050057"},{"town":"一宮町坪井","koaza":"","lat":35.650218,"lng":138.667082,"zip":"4050077"},{"town":"御坂町井之上","koaza":"","lat":35.631283,"lng":138.666638,"zip":"4060803"},{"town":"石和町四日市場","koaza":"","lat":35.639335,"lng":138.635093,"zip":"4060032"},{"town":"一宮町竹原田","koaza":"","lat":35.647929,"lng":138.674078,"zip":"4050076"},{"town":"石和町上平井","koaza":"","lat":35.647273,"lng":138.660185,"zip":"4060025"},{"town":"春日居町寺本","koaza":"","lat":35.666676,"lng":138.6551,"zip":"4060013"},{"town":"石和町下平井","koaza":"","lat":35.649121,"lng":138.64861,"zip":"4060027"},{"town":"石和町山崎","koaza":"","lat":35.658773,"lng":138.642106,"zip":"4060022"},{"town":"石和町八田","koaza":"","lat":35.654147,"lng":138.641256,"zip":"4060023"},{"town":"御坂町成田","koaza":"","lat":35.640166,"lng":138.651315,"zip":"4060801"},{"town":"石和町中川","koaza":"","lat":35.643188,"lng":138.658846,"zip":"4060026"},{"town":"石和町松本","koaza":"","lat":35.660812,"lng":138.632926,"zip":"4060021"},{"town":"春日居町小松","koaza":"","lat":35.66454,"lng":138.662058,"zip":"4060004"},{"town":"一宮町南野呂","koaza":"","lat":35.654599,"lng":138.709395,"zip":"4050052"},{"town":"石和町市部","koaza":"","lat":35.648722,"lng":138.637298,"zip":"4060031"},{"town":"石和町川中島","koaza":"","lat":35.6558,"lng":138.653189,"zip":"4060024"},{"town":"一宮町田中","koaza":"","lat":35.659273,"lng":138.668986,"zip":"4050078"},{"town":"境川町坊ヶ峯","koaza":"","lat":35.597014,"lng":138.613935,"zip":"4060000"},{"town":"境川町三椚","koaza":"","lat":35.603263,"lng":138.612409,"zip":"4060846"},{"town":"境川町大坪","koaza":"","lat":35.612208,"lng":138.610505,"zip":"4060841"},{"town":"石和町河内","koaza":"","lat":35.629988,"lng":138.60261,"zip":"4060043"},{"town":"石和町今井","koaza":"","lat":35.631886,"lng":138.605175,"zip":"4060042"},{"town":"石和町東高橋","koaza":"","lat":35.635794,"lng":138.604932,"zip":"4060041"},{"town":"石和町東油川","koaza":"","lat":35.622538,"lng":138.600801,"zip":"4060046"},{"town":"石和町井戸","koaza":"","lat":35.623487,"lng":138.606281,"zip":"4060045"},{"town":"石和町砂原","koaza":"","lat":35.619962,"lng":138.611101,"zip":"4060044"},{"town":"春日居町徳条","koaza":"","lat":35.671408,"lng":138.649557,"zip":"4060011"},{"town":"春日居町下岩下","koaza":"","lat":35.682079,"lng":138.64266,"zip":"4060001"},{"town":"御坂町大野寺","koaza":"","lat":35.60938,"lng":138.674235,"zip":"4060817"},{"town":"御坂町竹居","koaza":"","lat":35.603375,"lng":138.669616,"zip":"4060816"},{"town":"石和町市部","koaza":"広岡","lat":35.649089,"lng":138.636156,"zip":"4060031"},{"town":"御坂町夏目原","koaza":"前の木","lat":35.631408,"lng":138.657675,"zip":"4060804"}]