[{"town":"岩下","koaza":"","lat":35.492897,"lng":138.483474,"zip":"4093234"},{"town":"寺所","koaza":"","lat":35.501319,"lng":138.494369,"zip":"4093232"},{"town":"五八","koaza":"","lat":35.501272,"lng":138.484989,"zip":"4093233"},{"town":"落居","koaza":"","lat":35.509299,"lng":138.481345,"zip":"4093231"},{"town":"葛篭沢","koaza":"","lat":35.496541,"lng":138.472115,"zip":"4093600"},{"town":"岩間","koaza":"","lat":35.495555,"lng":138.45991,"zip":"4093244"},{"town":"市川大門","koaza":"","lat":35.55618,"lng":138.505189,"zip":"4093601"},{"town":"高田","koaza":"","lat":35.558261,"lng":138.486795,"zip":"4093606"},{"town":"山保","koaza":"","lat":35.528769,"lng":138.509539,"zip":"4093602"},{"town":"印沢","koaza":"","lat":35.55193,"lng":138.496026,"zip":"4093607"},{"town":"楠甫","koaza":"","lat":35.499752,"lng":138.451456,"zip":"4093245"},{"town":"宮原","koaza":"","lat":35.487477,"lng":138.4707,"zip":"4093242"},{"town":"鴨狩津向","koaza":"","lat":35.476686,"lng":138.451851,"zip":"4093243"},{"town":"三帳","koaza":"","lat":35.531626,"lng":138.57481,"zip":"4093622"},{"town":"垈","koaza":"","lat":35.529352,"lng":138.537529,"zip":"4093624"},{"town":"高萩","koaza":"","lat":35.528551,"lng":138.558034,"zip":"4093623"},{"town":"畑熊","koaza":"","lat":35.540562,"lng":138.536229,"zip":"4093626"},{"town":"中山","koaza":"","lat":35.545819,"lng":138.554307,"zip":"4093625"},{"town":"下芦川","koaza":"","lat":35.534363,"lng":138.58465,"zip":"4093621"},{"town":"大塚","koaza":"","lat":35.568788,"lng":138.534481,"zip":"4093611"},{"town":"上野","koaza":"","lat":35.560442,"lng":138.521998,"zip":"4093612"},{"town":"八之尻","koaza":"","lat":35.536472,"lng":138.483765,"zip":"4093604"},{"town":"下大鳥居","koaza":"","lat":35.549081,"lng":138.479605,"zip":"4093605"},{"town":"黒沢","koaza":"","lat":35.53178,"lng":138.466725,"zip":"4093603"}]