[{"town":"小形山","koaza":"","lat":35.585062,"lng":138.912865,"zip":"4020006"},{"town":"鹿留","koaza":"","lat":35.493756,"lng":138.893054,"zip":"4020032"},{"town":"朝日曽雌","koaza":"","lat":35.544449,"lng":139.000131,"zip":"4020015"},{"town":"朝日馬場","koaza":"","lat":35.565411,"lng":138.963324,"zip":"4020014"},{"town":"大野","koaza":"","lat":35.516034,"lng":138.942395,"zip":"4020023"},{"town":"大幡","koaza":"","lat":35.565658,"lng":138.839961,"zip":"4020045"},{"town":"加畑","koaza":"","lat":35.546439,"lng":138.862851,"zip":"4020044"},{"town":"夏狩","koaza":"","lat":35.538913,"lng":138.870148,"zip":"4020035"},{"town":"桂町","koaza":"","lat":35.534515,"lng":138.869751,"zip":"4020034"},{"town":"大原","koaza":"","lat":35.583352,"lng":138.931699,"zip":"4020002"},{"town":"田野倉","koaza":"","lat":35.591906,"lng":138.938122,"zip":"4020001"},{"town":"井倉","koaza":"","lat":35.575082,"lng":138.941335,"zip":"4020011"},{"town":"戸沢","koaza":"","lat":35.538453,"lng":138.959054,"zip":"4020022"},{"town":"盛里","koaza":"","lat":35.557408,"lng":138.948002,"zip":"4020013"},{"town":"与縄","koaza":"","lat":35.563474,"lng":138.950577,"zip":"4020012"},{"town":"玉川","koaza":"","lat":35.553805,"lng":138.931827,"zip":"4020021"},{"town":"古川渡","koaza":"","lat":35.57487,"lng":138.927312,"zip":"4020004"},{"town":"小野","koaza":"","lat":35.528453,"lng":138.908123,"zip":"4020024"},{"town":"法能","koaza":"","lat":35.542894,"lng":138.924994,"zip":"4020025"},{"town":"つる四丁目","koaza":"","lat":35.561174,"lng":138.908336,"zip":"4020056"},{"town":"下谷三丁目","koaza":"","lat":35.562645,"lng":138.912943,"zip":"4020051"},{"town":"つる一丁目","koaza":"","lat":35.558728,"lng":138.909062,"zip":"4020056"},{"town":"中央四丁目","koaza":"","lat":35.555701,"lng":138.911277,"zip":"4020052"},{"town":"中央二丁目","koaza":"","lat":35.553609,"lng":138.90926,"zip":"4020052"},{"town":"上谷二丁目","koaza":"","lat":35.550261,"lng":138.906307,"zip":"4020053"},{"town":"中央三丁目","koaza":"","lat":35.552657,"lng":138.910597,"zip":"4020052"},{"town":"上谷三丁目","koaza":"","lat":35.549575,"lng":138.907106,"zip":"4020053"},{"town":"上谷一丁目","koaza":"","lat":35.550793,"lng":138.904384,"zip":"4020053"},{"town":"田原三丁目","koaza":"","lat":35.538422,"lng":138.896536,"zip":"4020054"},{"town":"上谷六丁目","koaza":"","lat":35.544641,"lng":138.904064,"zip":"4020053"},{"town":"田原二丁目","koaza":"","lat":35.542526,"lng":138.897575,"zip":"4020054"},{"town":"上谷五丁目","koaza":"","lat":35.545553,"lng":138.902695,"zip":"4020053"},{"town":"上谷四丁目","koaza":"","lat":35.546872,"lng":138.902569,"zip":"4020053"},{"town":"田原一丁目","koaza":"","lat":35.54484,"lng":138.897794,"zip":"4020054"},{"town":"田原四丁目","koaza":"","lat":35.541184,"lng":138.892737,"zip":"4020054"},{"town":"中央一丁目","koaza":"","lat":35.554268,"lng":138.907999,"zip":"4020052"},{"town":"上谷","koaza":"","lat":35.533989,"lng":138.896299,"zip":"4020053"},{"town":"十日市場","koaza":"","lat":35.535367,"lng":138.88529,"zip":"4020031"},{"town":"つる二丁目","koaza":"","lat":35.558719,"lng":138.911797,"zip":"4020056"},{"town":"下谷二丁目","koaza":"","lat":35.562046,"lng":138.914199,"zip":"4020051"},{"town":"下谷一丁目","koaza":"","lat":35.559364,"lng":138.914603,"zip":"4020051"},{"town":"つる三丁目","koaza":"","lat":35.557534,"lng":138.905911,"zip":"4020056"},{"town":"下谷四丁目","koaza":"","lat":35.563659,"lng":138.911063,"zip":"4020051"},{"town":"四日市場","koaza":"","lat":35.568374,"lng":138.919191,"zip":"4020005"},{"town":"つる五丁目","koaza":"","lat":35.562372,"lng":138.905489,"zip":"4020056"},{"town":"川茂","koaza":"","lat":35.57623,"lng":138.921315,"zip":"4020003"},{"town":"厚原","koaza":"","lat":35.556489,"lng":138.896726,"zip":"4020042"},{"town":"川棚","koaza":"","lat":35.551217,"lng":138.899413,"zip":"4020055"},{"town":"平栗","koaza":"","lat":35.554601,"lng":138.888962,"zip":"4020043"},{"town":"下谷","koaza":"","lat":35.573147,"lng":138.905968,"zip":"4020051"},{"town":"金井","koaza":"","lat":35.572225,"lng":138.890861,"zip":"4020041"},{"town":"中津森","koaza":"","lat":35.566018,"lng":138.884888,"zip":"4020046"},{"town":"境","koaza":"","lat":35.519115,"lng":138.859353,"zip":"4020033"},{"town":"四日市場","koaza":"瀬中","lat":35.562971,"lng":138.917652,"zip":"4020005"}]