[{"town":"龍岡町下條南割","koaza":"","lat":35.676214,"lng":138.471641,"zip":"4070033"},{"town":"大草町下條西割","koaza":"","lat":35.676058,"lng":138.451098,"zip":"4070035"},{"town":"穂坂町上今井","koaza":"","lat":35.732085,"lng":138.497059,"zip":"4070172"},{"town":"穂坂町三ツ澤","koaza":"","lat":35.730049,"lng":138.484808,"zip":"4070000"},{"town":"穂坂町柳平","koaza":"","lat":35.755652,"lng":138.503139,"zip":"4070171"},{"town":"穂坂町長久保","koaza":"","lat":35.723697,"lng":138.498543,"zip":"4070173"},{"town":"旭町上條南割","koaza":"","lat":35.671431,"lng":138.432759,"zip":"4070046"},{"town":"神山町武田","koaza":"","lat":35.697974,"lng":138.396838,"zip":"4070041"},{"town":"清哲町青木","koaza":"","lat":35.712565,"lng":138.377216,"zip":"4070055"},{"town":"円野町下円井","koaza":"","lat":35.727334,"lng":138.351731,"zip":"4070052"},{"town":"穂坂町三之蔵","koaza":"","lat":35.750286,"lng":138.477695,"zip":"4070176"},{"town":"中田町小田川","koaza":"","lat":35.75871,"lng":138.431019,"zip":"4070261"},{"town":"穴山町","koaza":"","lat":35.757671,"lng":138.416887,"zip":"4070263"},{"town":"円野町上円井","koaza":"","lat":35.763263,"lng":138.386418,"zip":"4070051"},{"town":"栄一丁目","koaza":"","lat":35.69655,"lng":138.463212,"zip":"4070025"},{"town":"龍岡町下條東割","koaza":"","lat":35.686735,"lng":138.465637,"zip":"4070032"},{"town":"栄二丁目","koaza":"","lat":35.693789,"lng":138.466257,"zip":"4070025"},{"town":"大草町下條中割","koaza":"","lat":35.679031,"lng":138.45697,"zip":"4070034"},{"town":"旭町上條中割","koaza":"","lat":35.682407,"lng":138.430906,"zip":"4070045"},{"town":"清哲町水上","koaza":"","lat":35.708849,"lng":138.410616,"zip":"4070058"},{"town":"大草町上條東割","koaza":"","lat":35.688183,"lng":138.453141,"zip":"4070036"},{"town":"神山町北宮地","koaza":"","lat":35.705377,"lng":138.4216,"zip":"4070042"},{"town":"大草町若尾","koaza":"","lat":35.69971,"lng":138.445001,"zip":"4070037"},{"town":"神山町鍋山","koaza":"","lat":35.699961,"lng":138.424981,"zip":"4070043"},{"town":"清哲町樋口","koaza":"","lat":35.71471,"lng":138.422434,"zip":"4070057"},{"town":"水神二丁目","koaza":"","lat":35.713145,"lng":138.440208,"zip":"4070022"},{"town":"龍岡町若尾新田","koaza":"","lat":35.696542,"lng":138.455369,"zip":"4070031"},{"town":"本町四丁目","koaza":"","lat":35.699614,"lng":138.460355,"zip":"4070024"},{"town":"本町三丁目","koaza":"","lat":35.701564,"lng":138.455222,"zip":"4070024"},{"town":"水神一丁目","koaza":"","lat":35.709754,"lng":138.444484,"zip":"4070022"},{"town":"富士見ケ丘一丁目","koaza":"","lat":35.711379,"lng":138.44735,"zip":"4070021"},{"town":"本町一丁目","koaza":"","lat":35.706802,"lng":138.448056,"zip":"4070024"},{"town":"中央町","koaza":"","lat":35.709361,"lng":138.450257,"zip":"4070023"},{"town":"本町二丁目","koaza":"","lat":35.704974,"lng":138.452797,"zip":"4070024"},{"town":"中島二丁目","koaza":"","lat":35.700656,"lng":138.462988,"zip":"4070013"},{"town":"富士見二丁目","koaza":"","lat":35.708545,"lng":138.454651,"zip":"4070014"},{"town":"富士見三丁目","koaza":"","lat":35.706061,"lng":138.456561,"zip":"4070014"},{"town":"中島一丁目","koaza":"","lat":35.703696,"lng":138.458618,"zip":"4070013"},{"town":"富士見一丁目","koaza":"","lat":35.710706,"lng":138.454152,"zip":"4070014"},{"town":"若宮二丁目","koaza":"","lat":35.712797,"lng":138.452607,"zip":"4070015"},{"town":"富士見ケ丘二丁目","koaza":"","lat":35.714333,"lng":138.444859,"zip":"4070021"},{"town":"若宮一丁目","koaza":"","lat":35.713049,"lng":138.448882,"zip":"4070015"},{"town":"若宮三丁目","koaza":"","lat":35.716575,"lng":138.451534,"zip":"4070015"},{"town":"岩下","koaza":"","lat":35.708665,"lng":138.459886,"zip":"4070012"},{"town":"藤井町南下條","koaza":"","lat":35.718415,"lng":138.444546,"zip":"4070004"},{"town":"上ノ山","koaza":"","lat":35.711861,"lng":138.464913,"zip":"4070011"},{"town":"一ツ谷","koaza":"","lat":35.718462,"lng":138.433573,"zip":"4070005"},{"town":"藤井町坂井","koaza":"","lat":35.727985,"lng":138.43761,"zip":"4070002"},{"town":"藤井町北下條","koaza":"","lat":35.725558,"lng":138.44453,"zip":"4070003"},{"town":"穂坂町宮久保","koaza":"","lat":35.731187,"lng":138.469229,"zip":"4070175"},{"town":"藤井町駒井","koaza":"","lat":35.734793,"lng":138.441906,"zip":"4070001"},{"town":"中田町中條","koaza":"","lat":35.741185,"lng":138.431839,"zip":"4070262"},{"town":"下祖母石","koaza":"","lat":35.726732,"lng":138.426699,"zip":"4070006"},{"town":"上祖母石","koaza":"","lat":35.736243,"lng":138.41827,"zip":"4070007"},{"town":"円野町入戸野","koaza":"","lat":35.744651,"lng":138.402569,"zip":"4070053"},{"town":"清哲町折居","koaza":"","lat":35.734318,"lng":138.400079,"zip":"4070054"},{"town":"旭町上條北割","koaza":"","lat":35.687845,"lng":138.400024,"zip":"4070044"}]