[{"town":"勝連南風原","koaza":"","lat":26.332998,"lng":127.877681,"zip":"9042311"},{"town":"与那城伊計","koaza":"","lat":26.391472,"lng":127.995315,"zip":"9042421"},{"town":"与那城平安座","koaza":"","lat":26.349798,"lng":127.95429,"zip":"9042426"},{"town":"与那城屋平","koaza":"","lat":26.331746,"lng":127.929245,"zip":"9042427"},{"town":"与那城照間","koaza":"","lat":26.338803,"lng":127.886642,"zip":"9042301"},{"town":"字州崎","koaza":"","lat":26.336232,"lng":127.854274,"zip":"9042200"},{"town":"字宇堅","koaza":"","lat":26.381598,"lng":127.870679,"zip":"9042200"},{"town":"字赤野","koaza":"","lat":26.374309,"lng":127.865531,"zip":"9042200"},{"town":"字具志川","koaza":"","lat":26.354983,"lng":127.87205,"zip":"9042200"},{"town":"石川曙一丁目","koaza":"","lat":26.419623,"lng":127.828403,"zip":"9041107"},{"town":"石川","koaza":"","lat":26.434546,"lng":127.822079,"zip":"9041106"},{"town":"石川曙二丁目","koaza":"","lat":26.418189,"lng":127.827059,"zip":"9041107"},{"town":"石川嘉手苅","koaza":"","lat":26.422076,"lng":127.807505,"zip":"9041114"},{"town":"石川伊波","koaza":"","lat":26.425597,"lng":127.811208,"zip":"9041115"},{"town":"石川山城","koaza":"","lat":26.412997,"lng":127.80416,"zip":"9041113"},{"town":"与那城中央","koaza":"","lat":26.3292,"lng":127.90566,"zip":"9042305"},{"town":"勝連比嘉","koaza":"","lat":26.318333,"lng":127.959749,"zip":"9042316"},{"town":"勝連浜","koaza":"","lat":26.320984,"lng":127.953648,"zip":"9042315"},{"town":"与那城","koaza":"","lat":26.328382,"lng":127.894635,"zip":"9042303"},{"town":"与那城安勢理","koaza":"","lat":26.315775,"lng":127.905527,"zip":"9042306"},{"town":"与那城屋慶名","koaza":"","lat":26.324285,"lng":127.905662,"zip":"9042304"},{"town":"勝連平安名","koaza":"","lat":26.316901,"lng":127.892694,"zip":"9042312"},{"town":"与那城饒辺","koaza":"","lat":26.314093,"lng":127.913397,"zip":"9042307"},{"town":"勝連内間","koaza":"","lat":26.314422,"lng":127.900807,"zip":"9042313"},{"town":"与那城西原","koaza":"","lat":26.330432,"lng":127.886667,"zip":"9042302"},{"town":"与那城桃原","koaza":"","lat":26.358455,"lng":127.976222,"zip":"9042425"},{"town":"与那城池味","koaza":"","lat":26.378646,"lng":127.986301,"zip":"9042422"},{"town":"与那城平宮","koaza":"","lat":26.353754,"lng":127.966947,"zip":"9042428"},{"town":"与那城上原","koaza":"","lat":26.370738,"lng":127.977716,"zip":"9042424"},{"town":"与那城宮城","koaza":"","lat":26.367086,"lng":127.989363,"zip":"9042423"},{"town":"石川東恩納崎","koaza":"","lat":26.416703,"lng":127.837423,"zip":"9041108"},{"town":"喜仲二丁目","koaza":"","lat":26.356447,"lng":127.843497,"zip":"9042236"},{"town":"喜仲三丁目","koaza":"","lat":26.355028,"lng":127.845783,"zip":"9042236"},{"town":"喜仲四丁目","koaza":"","lat":26.353566,"lng":127.848432,"zip":"9042236"},{"town":"字仲嶺","koaza":"","lat":26.358409,"lng":127.852638,"zip":"9042200"},{"town":"喜仲一丁目","koaza":"","lat":26.358956,"lng":127.84401,"zip":"9042236"},{"town":"みどり町三丁目","koaza":"","lat":26.375507,"lng":127.859198,"zip":"9042215"},{"town":"みどり町一丁目","koaza":"","lat":26.380437,"lng":127.858763,"zip":"9042215"},{"town":"みどり町五丁目","koaza":"","lat":26.378283,"lng":127.853469,"zip":"9042215"},{"town":"字川田","koaza":"","lat":26.346502,"lng":127.866224,"zip":"9042200"},{"town":"字塩屋","koaza":"","lat":26.347637,"lng":127.859282,"zip":"9042200"},{"town":"字赤道","koaza":"","lat":26.358509,"lng":127.828268,"zip":"9042200"},{"town":"字宮里","koaza":"","lat":26.3518,"lng":127.834942,"zip":"9042200"},{"town":"字高江洲","koaza":"","lat":26.352846,"lng":127.841399,"zip":"9042200"},{"town":"字豊原","koaza":"","lat":26.34738,"lng":127.852351,"zip":"9042200"},{"town":"字喜屋武","koaza":"","lat":26.360368,"lng":127.848096,"zip":"9042200"},{"town":"字上江洲","koaza":"","lat":26.35818,"lng":127.857916,"zip":"9042200"},{"town":"字大田","koaza":"","lat":26.353503,"lng":127.865781,"zip":"9042200"},{"town":"字兼箇段","koaza":"","lat":26.370189,"lng":127.837828,"zip":"9042200"},{"town":"字川崎","koaza":"","lat":26.383322,"lng":127.842151,"zip":"9042200"},{"town":"みどり町六丁目","koaza":"","lat":26.381365,"lng":127.854941,"zip":"9042215"},{"town":"字天願","koaza":"","lat":26.390102,"lng":127.858842,"zip":"9042200"},{"town":"みどり町二丁目","koaza":"","lat":26.379224,"lng":127.862199,"zip":"9042215"},{"town":"字昆布","koaza":"","lat":26.395932,"lng":127.846062,"zip":"9042200"},{"town":"字栄野比","koaza":"","lat":26.392716,"lng":127.832209,"zip":"9042200"},{"town":"石川楚南","koaza":"","lat":26.400536,"lng":127.812352,"zip":"9041112"},{"town":"石川東恩納","koaza":"","lat":26.407634,"lng":127.830574,"zip":"9041111"},{"town":"石川曙三丁目","koaza":"","lat":26.417451,"lng":127.824532,"zip":"9041107"},{"town":"石川赤崎三丁目","koaza":"","lat":26.429392,"lng":127.840248,"zip":"9041103"},{"town":"石川一丁目","koaza":"","lat":26.430656,"lng":127.825987,"zip":"9041106"},{"town":"石川白浜一丁目","koaza":"","lat":26.429433,"lng":127.828765,"zip":"9041105"},{"town":"石川石崎一丁目","koaza":"","lat":26.426156,"lng":127.829321,"zip":"9041104"},{"town":"石川東山本町一丁目","koaza":"","lat":26.435839,"lng":127.830947,"zip":"9041101"},{"town":"石川二丁目","koaza":"","lat":26.42766,"lng":127.823742,"zip":"9041106"},{"town":"石川東山二丁目","koaza":"","lat":26.437237,"lng":127.838926,"zip":"9041102"},{"town":"石川白浜二丁目","koaza":"","lat":26.424904,"lng":127.826206,"zip":"9041105"},{"town":"石川東山本町二丁目","koaza":"","lat":26.436457,"lng":127.833715,"zip":"9041101"},{"town":"石川東山一丁目","koaza":"","lat":26.436983,"lng":127.836407,"zip":"9041102"},{"town":"石川石崎二丁目","koaza":"","lat":26.429772,"lng":127.830569,"zip":"9041104"},{"town":"石川赤崎一丁目","koaza":"","lat":26.431014,"lng":127.835268,"zip":"9041103"},{"town":"石川赤崎二丁目","koaza":"","lat":26.433633,"lng":127.837202,"zip":"9041103"},{"town":"勝連津堅","koaza":"","lat":26.252115,"lng":127.942203,"zip":"9042317"},{"town":"勝連平敷屋","koaza":"","lat":26.304394,"lng":127.912465,"zip":"9042314"},{"town":"字安慶名","koaza":"","lat":26.381987,"lng":127.851705,"zip":"9042200"},{"town":"字平良川","koaza":"","lat":26.367828,"lng":127.849706,"zip":"9042200"},{"town":"みどり町四丁目","koaza":"","lat":26.3766,"lng":127.856367,"zip":"9042215"},{"town":"字西原","koaza":"","lat":26.375257,"lng":127.843901,"zip":"9042200"},{"town":"安慶名二丁目","koaza":"","lat":26.377266,"lng":127.850568,"zip":"9042214"},{"town":"安慶名三丁目","koaza":"","lat":26.373332,"lng":127.85079,"zip":"9042214"},{"town":"字田場","koaza":"","lat":26.36824,"lng":127.864218,"zip":"9042200"},{"town":"安慶名一丁目","koaza":"","lat":26.373448,"lng":127.854435,"zip":"9042214"},{"town":"字前原","koaza":"","lat":26.341061,"lng":127.849133,"zip":"9042200"},{"town":"字江洲","koaza":"","lat":26.347405,"lng":127.832255,"zip":"9042200"},{"town":"字前原","koaza":"幸崎原","lat":26.337858,"lng":127.844785,"zip":"9042200"}]