[{"town":"字奥間","koaza":"","lat":26.256153,"lng":127.784369,"zip":"9012400"},{"town":"字南浜","koaza":"","lat":26.234686,"lng":127.785788,"zip":"9012400"},{"town":"字北浜","koaza":"","lat":26.2408,"lng":127.785717,"zip":"9012400"},{"town":"字和宇慶","koaza":"","lat":26.240118,"lng":127.779172,"zip":"9012400"},{"town":"字津覇","koaza":"","lat":26.247623,"lng":127.782223,"zip":"9012400"},{"town":"字伊舎堂","koaza":"","lat":26.277135,"lng":127.800801,"zip":"9012400"},{"town":"字添石","koaza":"","lat":26.273873,"lng":127.798325,"zip":"9012400"},{"town":"字屋宜","koaza":"","lat":26.270263,"lng":127.793155,"zip":"9012400"},{"town":"字当間","koaza":"","lat":26.264056,"lng":127.790222,"zip":"9012400"},{"town":"字新垣","koaza":"","lat":26.274151,"lng":127.784245,"zip":"9012400"},{"town":"字安里","koaza":"","lat":26.259955,"lng":127.787322,"zip":"9012400"},{"town":"字久場","koaza":"","lat":26.283273,"lng":127.812565,"zip":"9012400"},{"town":"字泊","koaza":"","lat":26.275334,"lng":127.809305,"zip":"9012400"},{"town":"字登又","koaza":"","lat":26.282209,"lng":127.79011,"zip":"9012400"},{"town":"字北上原","koaza":"","lat":26.267206,"lng":127.779384,"zip":"9012400"},{"town":"字南上原","koaza":"","lat":26.250996,"lng":127.771295,"zip":"9012400"},{"town":"字伊集","koaza":"","lat":26.240675,"lng":127.772555,"zip":"9012400"}]