[{"town":"字大湾","koaza":"","lat":26.374691,"lng":127.747119,"zip":"9040300"},{"town":"字大木","koaza":"","lat":26.382266,"lng":127.745938,"zip":"9040300"},{"town":"字伊良皆","koaza":"","lat":26.387268,"lng":127.754446,"zip":"9040300"},{"town":"字長浜","koaza":"","lat":26.416287,"lng":127.738345,"zip":"9040300"},{"town":"字座喜味","koaza":"","lat":26.40325,"lng":127.747468,"zip":"9040300"},{"town":"字喜名","koaza":"","lat":26.401009,"lng":127.76689,"zip":"9040300"},{"town":"字古堅","koaza":"","lat":26.367463,"lng":127.748301,"zip":"9040300"},{"town":"字親志","koaza":"","lat":26.415406,"lng":127.773434,"zip":"9040300"},{"town":"字儀間","koaza":"","lat":26.417427,"lng":127.718498,"zip":"9040300"},{"town":"字渡慶次","koaza":"","lat":26.419687,"lng":127.725952,"zip":"9040300"},{"town":"字瀬名波","koaza":"","lat":26.425771,"lng":127.729176,"zip":"9040300"},{"town":"字長田","koaza":"","lat":26.388039,"lng":127.767931,"zip":"9040300"},{"town":"字比謝","koaza":"","lat":26.378771,"lng":127.753774,"zip":"9040300"},{"town":"字牧原","koaza":"","lat":26.373904,"lng":127.763978,"zip":"9040300"},{"town":"字比謝矼","koaza":"","lat":26.370118,"lng":127.755689,"zip":"9040300"},{"town":"字渡具知","koaza":"","lat":26.36824,"lng":127.738749,"zip":"9040300"},{"town":"字高志保","koaza":"","lat":26.409608,"lng":127.726656,"zip":"9040300"},{"town":"字上地","koaza":"","lat":26.404628,"lng":127.737429,"zip":"9040300"},{"town":"字波平","koaza":"","lat":26.40114,"lng":127.725475,"zip":"9040300"},{"town":"字都屋","koaza":"","lat":26.391126,"lng":127.725961,"zip":"9040300"},{"town":"字楚辺","koaza":"","lat":26.382116,"lng":127.735998,"zip":"9040300"},{"town":"字宇座","koaza":"","lat":26.432859,"lng":127.721754,"zip":"9040300"}]