[{"town":"字幸地","koaza":"","lat":26.231912,"lng":127.743071,"zip":"9030100"},{"town":"字小波津","koaza":"","lat":26.224506,"lng":127.755201,"zip":"9030100"},{"town":"字翁長","koaza":"","lat":26.233951,"lng":127.752129,"zip":"9030100"},{"town":"字桃原","koaza":"","lat":26.21666,"lng":127.749219,"zip":"9030100"},{"town":"字安室","koaza":"","lat":26.219835,"lng":127.754318,"zip":"9030100"},{"town":"字徳佐田","koaza":"","lat":26.243657,"lng":127.747611,"zip":"9030100"},{"town":"字東崎","koaza":"","lat":26.214068,"lng":127.772889,"zip":"9030100"},{"town":"字掛保久","koaza":"","lat":26.232372,"lng":127.772213,"zip":"9030100"},{"town":"字嘉手苅","koaza":"","lat":26.225821,"lng":127.765836,"zip":"9030100"},{"town":"字兼久","koaza":"","lat":26.217097,"lng":127.767875,"zip":"9030100"},{"town":"字津花波","koaza":"","lat":26.230343,"lng":127.760539,"zip":"9030100"},{"town":"字呉屋","koaza":"","lat":26.231389,"lng":127.756351,"zip":"9030100"},{"town":"字小橋川","koaza":"","lat":26.231428,"lng":127.763719,"zip":"9030100"},{"town":"字与那城","koaza":"","lat":26.219705,"lng":127.76148,"zip":"9030100"},{"town":"字我謝","koaza":"","lat":26.215469,"lng":127.758083,"zip":"9030100"},{"town":"字森川","koaza":"","lat":26.24928,"lng":127.756716,"zip":"9030100"},{"town":"字池田","koaza":"","lat":26.220431,"lng":127.741157,"zip":"9030100"},{"town":"上原一丁目","koaza":"","lat":26.241069,"lng":127.762133,"zip":"9030125"},{"town":"字棚原","koaza":"","lat":26.245747,"lng":127.754968,"zip":"9030100"},{"town":"棚原一丁目","koaza":"","lat":26.242601,"lng":127.755364,"zip":"9030126"},{"town":"字千原","koaza":"","lat":26.250893,"lng":127.762658,"zip":"9030100"},{"town":"上原二丁目","koaza":"","lat":26.243157,"lng":127.762911,"zip":"9030125"},{"town":"字上原","koaza":"","lat":26.239697,"lng":127.764867,"zip":"9030100"},{"town":"字小那覇","koaza":"","lat":26.227559,"lng":127.778964,"zip":"9030100"},{"town":"字内間","koaza":"","lat":26.233672,"lng":127.767302,"zip":"9030100"}]