[{"town":"字つきしろ","koaza":"","lat":26.160656,"lng":127.791972,"zip":"9011400"},{"town":"知念","koaza":"","lat":26.145407,"lng":127.809305,"zip":"9011502"},{"town":"知念字知名","koaza":"","lat":26.18421,"lng":127.816173,"zip":"9011400"},{"town":"知念字知念","koaza":"","lat":26.162496,"lng":127.814644,"zip":"9011400"},{"town":"知念字志喜屋","koaza":"","lat":26.153685,"lng":127.799359,"zip":"9011400"},{"town":"知念字山里","koaza":"","lat":26.156143,"lng":127.803681,"zip":"9011400"},{"town":"知念字具志堅","koaza":"","lat":26.15754,"lng":127.808718,"zip":"9011400"},{"town":"知念字久手堅","koaza":"","lat":26.170654,"lng":127.823817,"zip":"9011400"},{"town":"知念字久高","koaza":"","lat":26.161998,"lng":127.893967,"zip":"9011400"},{"town":"知念字久原","koaza":"","lat":26.18517,"lng":127.804141,"zip":"9011400"},{"town":"知念字吉富","koaza":"","lat":26.168374,"lng":127.818433,"zip":"9011400"},{"town":"知念字海野","koaza":"","lat":26.187809,"lng":127.810988,"zip":"9011400"},{"town":"知念字安座真","koaza":"","lat":26.177312,"lng":127.822089,"zip":"9011400"},{"town":"大里字嶺井","koaza":"","lat":26.193869,"lng":127.755639,"zip":"9011400"},{"town":"大里字仲間","koaza":"","lat":26.179172,"lng":127.742147,"zip":"9011400"},{"town":"大里字大里","koaza":"","lat":26.182675,"lng":127.757056,"zip":"9011400"},{"town":"大里字大城","koaza":"","lat":26.167183,"lng":127.7575,"zip":"9011400"},{"town":"大里字高平","koaza":"","lat":26.1732,"lng":127.741536,"zip":"9011400"},{"town":"大里字古堅","koaza":"","lat":26.191422,"lng":127.743981,"zip":"9011400"},{"town":"大里字稲嶺","koaza":"","lat":26.165322,"lng":127.73765,"zip":"9011400"},{"town":"佐敷字冨祖崎","koaza":"","lat":26.174838,"lng":127.794127,"zip":"9011400"},{"town":"佐敷字津波古","koaza":"","lat":26.182244,"lng":127.770821,"zip":"9011400"},{"town":"佐敷字仲伊保","koaza":"","lat":26.181536,"lng":127.794861,"zip":"9011400"},{"town":"佐敷字新里","koaza":"","lat":26.167823,"lng":127.773164,"zip":"9011400"},{"town":"佐敷字新開","koaza":"","lat":26.177175,"lng":127.776278,"zip":"9011400"},{"town":"佐敷字小谷","koaza":"","lat":26.173203,"lng":127.765611,"zip":"9011400"},{"town":"佐敷字手登根","koaza":"","lat":26.168901,"lng":127.804117,"zip":"9011400"},{"town":"佐敷字佐敷","koaza":"","lat":26.165561,"lng":127.789842,"zip":"9011400"},{"town":"佐敷字兼久","koaza":"","lat":26.167946,"lng":127.781265,"zip":"9011400"},{"town":"佐敷字屋比久","koaza":"","lat":26.177129,"lng":127.802059,"zip":"9011400"},{"town":"佐敷字伊原","koaza":"","lat":26.175219,"lng":127.81044,"zip":"9011400"},{"town":"玉城字當山","koaza":"","lat":26.14009,"lng":127.762124,"zip":"9011400"},{"town":"玉城字堀川","koaza":"","lat":26.132829,"lng":127.761154,"zip":"9011400"},{"town":"玉城字富里","koaza":"","lat":26.143528,"lng":127.769697,"zip":"9011400"},{"town":"玉城字百名","koaza":"","lat":26.139734,"lng":127.789192,"zip":"9011400"},{"town":"玉城字仲村渠","koaza":"","lat":26.147906,"lng":127.788491,"zip":"9011400"},{"town":"玉城字中山","koaza":"","lat":26.141809,"lng":127.776389,"zip":"9011400"},{"town":"玉城字前川","koaza":"","lat":26.144705,"lng":127.749931,"zip":"9011400"},{"town":"玉城字船越","koaza":"","lat":26.154322,"lng":127.754889,"zip":"9011400"},{"town":"玉城字親慶原","koaza":"","lat":26.15729,"lng":127.779385,"zip":"9011400"},{"town":"玉城字糸数","koaza":"","lat":26.154463,"lng":127.765498,"zip":"9011400"},{"town":"玉城字志堅原","koaza":"","lat":26.133116,"lng":127.766607,"zip":"9011400"},{"town":"玉城字玉城","koaza":"","lat":26.141862,"lng":127.782205,"zip":"9011400"},{"town":"玉城字喜良原","koaza":"","lat":26.154269,"lng":127.775287,"zip":"9011400"},{"town":"玉城字垣花","koaza":"","lat":26.15114,"lng":127.792603,"zip":"9011400"},{"town":"玉城字屋嘉部","koaza":"","lat":26.147405,"lng":127.763629,"zip":"9011400"},{"town":"玉城字奥武","koaza":"","lat":26.1367,"lng":127.755966,"zip":"9011400"},{"town":"玉城字愛地","koaza":"","lat":26.159113,"lng":127.745324,"zip":"9011400"},{"town":"知念","koaza":"志喜屋","lat":26.152378,"lng":127.801282,"zip":"9011502"},{"town":"知念","koaza":"久原","lat":26.185352,"lng":127.803524,"zip":"9011502"},{"town":"知念","koaza":"山里","lat":26.154995,"lng":127.804644,"zip":"9011502"},{"town":"知念","koaza":"具志堅","lat":26.157882,"lng":127.807772,"zip":"9011502"},{"town":"知念","koaza":"知念","lat":26.160753,"lng":127.815299,"zip":"9011502"},{"town":"知念","koaza":"海野","lat":26.188664,"lng":127.810823,"zip":"9011502"},{"town":"知念","koaza":"知名","lat":26.183835,"lng":127.813337,"zip":"9011502"},{"town":"知念","koaza":"吉富","lat":26.167796,"lng":127.817767,"zip":"9011502"},{"town":"知念","koaza":"久手堅","lat":26.170679,"lng":127.823115,"zip":"9011502"},{"town":"知念","koaza":"安座真","lat":26.177382,"lng":127.823061,"zip":"9011502"}]