[{"town":"宇茂佐の森五丁目","koaza":"","lat":26.603581,"lng":127.962329,"zip":"9050009"},{"town":"宇茂佐の森四丁目","koaza":"","lat":26.602057,"lng":127.961358,"zip":"9050009"},{"town":"宇茂佐の森三丁目","koaza":"","lat":26.600669,"lng":127.95643,"zip":"9050009"},{"town":"宇茂佐の森二丁目","koaza":"","lat":26.599042,"lng":127.961925,"zip":"9050009"},{"town":"宇茂佐の森一丁目","koaza":"","lat":26.599464,"lng":127.965258,"zip":"9050009"},{"town":"字嘉陽","koaza":"","lat":26.555861,"lng":128.113087,"zip":"9050000"},{"town":"字天仁屋","koaza":"","lat":26.577972,"lng":128.117936,"zip":"9050000"},{"town":"字久志","koaza":"","lat":26.522811,"lng":127.997811,"zip":"9050000"},{"town":"字許田","koaza":"","lat":26.540748,"lng":127.979509,"zip":"9050000"},{"town":"字数久田","koaza":"","lat":26.556203,"lng":127.987429,"zip":"9050000"},{"town":"字世冨慶","koaza":"","lat":26.566739,"lng":128.003534,"zip":"9050000"},{"town":"字名護","koaza":"","lat":26.58568,"lng":128.010169,"zip":"9050000"},{"town":"字三原","koaza":"","lat":26.569704,"lng":128.085969,"zip":"9050000"},{"town":"字源河","koaza":"","lat":26.613891,"lng":128.076819,"zip":"9050000"},{"town":"字田井等","koaza":"","lat":26.600531,"lng":128.023649,"zip":"9050000"},{"town":"字大川","koaza":"","lat":26.579326,"lng":128.042264,"zip":"9050000"},{"town":"字汀間","koaza":"","lat":26.568599,"lng":128.063652,"zip":"9050000"},{"town":"字瀬嵩","koaza":"","lat":26.568281,"lng":128.05689,"zip":"9050000"},{"town":"字呉我","koaza":"","lat":26.634502,"lng":127.998262,"zip":"9050000"},{"town":"字我部","koaza":"","lat":26.661094,"lng":128.000603,"zip":"9050000"},{"town":"城三丁目","koaza":"","lat":26.587433,"lng":127.981774,"zip":"9050013"},{"town":"城二丁目","koaza":"","lat":26.587564,"lng":127.984232,"zip":"9050013"},{"town":"大北三丁目","koaza":"","lat":26.604597,"lng":127.995911,"zip":"9050019"},{"town":"大北二丁目","koaza":"","lat":26.601178,"lng":127.998515,"zip":"9050019"},{"town":"字我部祖河","koaza":"","lat":26.626295,"lng":127.999117,"zip":"9050000"},{"town":"字古我知","koaza":"","lat":26.62618,"lng":127.983267,"zip":"9050000"},{"town":"東江二丁目","koaza":"","lat":26.586579,"lng":127.990737,"zip":"9050021"},{"town":"東江一丁目","koaza":"","lat":26.585814,"lng":127.98688,"zip":"9050021"},{"town":"字伊差川","koaza":"","lat":26.605593,"lng":128.005374,"zip":"9050000"},{"town":"字運天原","koaza":"","lat":26.670432,"lng":128.00131,"zip":"9050000"},{"town":"字済井出","koaza":"","lat":26.66942,"lng":128.015092,"zip":"9050000"},{"town":"字大浦","koaza":"","lat":26.562912,"lng":128.040626,"zip":"9050000"},{"town":"字安部","koaza":"","lat":26.54546,"lng":128.087198,"zip":"9050000"},{"town":"字豊原","koaza":"","lat":26.526122,"lng":128.017287,"zip":"9050000"},{"town":"字辺野古","koaza":"","lat":26.534958,"lng":128.027871,"zip":"9050000"},{"town":"字二見","koaza":"","lat":26.556215,"lng":128.02555,"zip":"9050000"},{"town":"東江四丁目","koaza":"","lat":26.58292,"lng":127.98557,"zip":"9050021"},{"town":"東江五丁目","koaza":"","lat":26.580619,"lng":127.984374,"zip":"9050021"},{"town":"東江三丁目","koaza":"","lat":26.582091,"lng":127.987511,"zip":"9050021"},{"town":"字幸喜","koaza":"","lat":26.532351,"lng":127.959187,"zip":"9050000"},{"town":"字喜瀬","koaza":"","lat":26.527142,"lng":127.943567,"zip":"9050000"},{"town":"字川上","koaza":"","lat":26.618202,"lng":128.022232,"zip":"9050000"},{"town":"字仲尾","koaza":"","lat":26.626641,"lng":128.011316,"zip":"9050000"},{"town":"字振慶名","koaza":"","lat":26.608642,"lng":128.013352,"zip":"9050000"},{"town":"字饒平名","koaza":"","lat":26.659492,"lng":128.016595,"zip":"9050000"},{"town":"字屋我","koaza":"","lat":26.651748,"lng":128.03104,"zip":"9050000"},{"town":"字稲嶺","koaza":"","lat":26.626873,"lng":128.048158,"zip":"9050000"},{"town":"字親川","koaza":"","lat":26.609492,"lng":128.024212,"zip":"9050000"},{"town":"字真喜屋","koaza":"","lat":26.61592,"lng":128.047895,"zip":"9050000"},{"town":"字仲尾次","koaza":"","lat":26.609425,"lng":128.038782,"zip":"9050000"},{"town":"宮里四丁目","koaza":"","lat":26.599199,"lng":127.968752,"zip":"9050011"},{"town":"大中四丁目","koaza":"","lat":26.597126,"lng":127.989078,"zip":"9050017"},{"town":"大中一丁目","koaza":"","lat":26.590985,"lng":127.98408,"zip":"9050017"},{"town":"城一丁目","koaza":"","lat":26.5896,"lng":127.982036,"zip":"9050013"},{"town":"大中二丁目","koaza":"","lat":26.592596,"lng":127.985295,"zip":"9050017"},{"town":"大東四丁目","koaza":"","lat":26.594293,"lng":127.992186,"zip":"9050016"},{"town":"大北一丁目","koaza":"","lat":26.600301,"lng":127.991187,"zip":"9050019"},{"town":"大中三丁目","koaza":"","lat":26.595508,"lng":127.986371,"zip":"9050017"},{"town":"大南二丁目","koaza":"","lat":26.593657,"lng":127.976,"zip":"9050015"},{"town":"大西三丁目","koaza":"","lat":26.596871,"lng":127.982561,"zip":"9050018"},{"town":"大西二丁目","koaza":"","lat":26.594887,"lng":127.981279,"zip":"9050018"},{"town":"宮里五丁目","koaza":"","lat":26.599579,"lng":127.972477,"zip":"9050011"},{"town":"大南四丁目","koaza":"","lat":26.598979,"lng":127.97647,"zip":"9050015"},{"town":"大南三丁目","koaza":"","lat":26.596304,"lng":127.977174,"zip":"9050015"},{"town":"宮里一丁目","koaza":"","lat":26.594838,"lng":127.972653,"zip":"9050011"},{"town":"宮里六丁目","koaza":"","lat":26.601808,"lng":127.974527,"zip":"9050011"},{"town":"字山入端","koaza":"","lat":26.608305,"lng":127.934787,"zip":"9050000"},{"town":"字宮里","koaza":"","lat":26.598867,"lng":127.966616,"zip":"9050000"},{"town":"大北四丁目","koaza":"","lat":26.605244,"lng":127.989542,"zip":"9050019"},{"town":"字勝山","koaza":"","lat":26.623922,"lng":127.936608,"zip":"9050000"},{"town":"字安和","koaza":"","lat":26.614852,"lng":127.916852,"zip":"9050000"},{"town":"宮里二丁目","koaza":"","lat":26.591953,"lng":127.969875,"zip":"9050011"},{"town":"港二丁目","koaza":"","lat":26.590272,"lng":127.976052,"zip":"9050014"},{"town":"大東三丁目","koaza":"","lat":26.592217,"lng":127.989963,"zip":"9050016"},{"town":"大中五丁目","koaza":"","lat":26.596111,"lng":127.991718,"zip":"9050017"},{"town":"大東二丁目","koaza":"","lat":26.589768,"lng":127.988877,"zip":"9050016"},{"town":"大東一丁目","koaza":"","lat":26.589076,"lng":127.985909,"zip":"9050016"},{"town":"大南一丁目","koaza":"","lat":26.592764,"lng":127.978702,"zip":"9050015"},{"town":"大西一丁目","koaza":"","lat":26.592939,"lng":127.98116,"zip":"9050018"},{"town":"港一丁目","koaza":"","lat":26.591202,"lng":127.978201,"zip":"9050014"},{"town":"大西四丁目","koaza":"","lat":26.600416,"lng":127.979583,"zip":"9050018"},{"town":"大西五丁目","koaza":"","lat":26.601235,"lng":127.984599,"zip":"9050018"},{"town":"宮里七丁目","koaza":"","lat":26.604115,"lng":127.978699,"zip":"9050011"},{"town":"大北五丁目","koaza":"","lat":26.605756,"lng":127.983884,"zip":"9050019"},{"town":"宮里三丁目","koaza":"","lat":26.595395,"lng":127.968752,"zip":"9050011"},{"town":"字旭川","koaza":"","lat":26.621635,"lng":127.951648,"zip":"9050000"},{"town":"字屋部","koaza":"","lat":26.609001,"lng":127.950231,"zip":"9050000"},{"town":"字為又","koaza":"","lat":26.614817,"lng":127.974155,"zip":"9050000"},{"town":"字宇茂佐","koaza":"","lat":26.609574,"lng":127.965295,"zip":"9050000"},{"town":"字中山","koaza":"","lat":26.628657,"lng":127.967478,"zip":"9050000"},{"town":"字名護","koaza":"見取川原","lat":26.610246,"lng":127.984608,"zip":"9050000"}]