[{"town":"字運天","koaza":"","lat":26.687458,"lng":127.999249,"zip":"9050400"},{"town":"字天底","koaza":"","lat":26.670799,"lng":127.982006,"zip":"9050400"},{"town":"字上運天","koaza":"","lat":26.679944,"lng":127.994791,"zip":"9050400"},{"town":"字玉城","koaza":"","lat":26.671032,"lng":127.970248,"zip":"9050400"},{"town":"字謝名","koaza":"","lat":26.677117,"lng":127.962658,"zip":"9050400"},{"town":"字仲尾次","koaza":"","lat":26.687214,"lng":127.950743,"zip":"9050400"},{"town":"字今泊","koaza":"","lat":26.688035,"lng":127.927078,"zip":"9050400"},{"town":"字兼次","koaza":"","lat":26.68386,"lng":127.938551,"zip":"9050400"},{"town":"字湧川","koaza":"","lat":26.653025,"lng":127.981431,"zip":"9050400"},{"town":"字呉我山","koaza":"","lat":26.652139,"lng":127.966167,"zip":"9050400"},{"town":"字古宇利","koaza":"","lat":26.704348,"lng":128.018102,"zip":"9050400"},{"town":"字勢理客","koaza":"","lat":26.678553,"lng":127.985227,"zip":"9050400"},{"town":"字渡喜仁","koaza":"","lat":26.688807,"lng":127.984378,"zip":"9050400"},{"town":"字崎山","koaza":"","lat":26.697634,"lng":127.960631,"zip":"9050400"},{"town":"字平敷","koaza":"","lat":26.689848,"lng":127.96058,"zip":"9050400"},{"town":"字仲宗根","koaza":"","lat":26.688716,"lng":127.975541,"zip":"9050400"},{"town":"字越地","koaza":"","lat":26.691006,"lng":127.969611,"zip":"9050400"},{"town":"字与那嶺","koaza":"","lat":26.689765,"lng":127.947015,"zip":"9050400"},{"town":"字諸志","koaza":"","lat":26.688952,"lng":127.942081,"zip":"9050400"}]