[{"town":"字白浜","koaza":"","lat":26.649028,"lng":128.115483,"zip":"9051300"},{"town":"字田港","koaza":"","lat":26.657548,"lng":128.138117,"zip":"9051300"},{"town":"字大保","koaza":"","lat":26.649262,"lng":128.126872,"zip":"9051300"},{"town":"字喜如嘉","koaza":"","lat":26.690618,"lng":128.155533,"zip":"9051300"},{"town":"字謝名城","koaza":"","lat":26.693786,"lng":128.168065,"zip":"9051300"},{"town":"字押川","koaza":"","lat":26.665847,"lng":128.142016,"zip":"9051300"},{"town":"字大宜味","koaza":"","lat":26.68141,"lng":128.142474,"zip":"9051300"},{"town":"字根路銘","koaza":"","lat":26.676463,"lng":128.146988,"zip":"9051300"},{"town":"字饒波","koaza":"","lat":26.683947,"lng":128.154266,"zip":"9051300"},{"town":"字塩屋","koaza":"","lat":26.675875,"lng":128.11241,"zip":"9051300"},{"town":"字大兼久","koaza":"","lat":26.695678,"lng":128.125817,"zip":"9051300"},{"town":"字屋古","koaza":"","lat":26.672715,"lng":128.116908,"zip":"9051300"},{"town":"字上原","koaza":"","lat":26.684132,"lng":128.112678,"zip":"9051300"},{"town":"字宮城","koaza":"","lat":26.667244,"lng":128.101439,"zip":"9051300"},{"town":"字津波","koaza":"","lat":26.639682,"lng":128.09757,"zip":"9051300"},{"town":"字田嘉里","koaza":"","lat":26.697727,"lng":128.181132,"zip":"9051300"}]