[{"town":"神山一丁目","koaza":"","lat":26.268776,"lng":127.764862,"zip":"9012207"},{"town":"愛知三丁目","koaza":"","lat":26.265571,"lng":127.769215,"zip":"9012206"},{"town":"愛知二丁目","koaza":"","lat":26.268445,"lng":127.770952,"zip":"9012206"},{"town":"愛知一丁目","koaza":"","lat":26.271227,"lng":127.767662,"zip":"9012206"},{"town":"我如古四丁目","koaza":"","lat":26.255249,"lng":127.75,"zip":"9012214"},{"town":"我如古三丁目","koaza":"","lat":26.252911,"lng":127.754623,"zip":"9012214"},{"town":"我如古二丁目","koaza":"","lat":26.254567,"lng":127.758491,"zip":"9012214"},{"town":"大山七丁目","koaza":"","lat":26.28492,"lng":127.744631,"zip":"9012223"},{"town":"真栄原一丁目","koaza":"","lat":26.257614,"lng":127.745494,"zip":"9012215"},{"town":"大山二丁目","koaza":"","lat":26.275632,"lng":127.744412,"zip":"9012223"},{"town":"大山四丁目","koaza":"","lat":26.283308,"lng":127.749115,"zip":"9012223"},{"town":"大山一丁目","koaza":"","lat":26.280648,"lng":127.751478,"zip":"9012223"},{"town":"大山五丁目","koaza":"","lat":26.281148,"lng":127.745227,"zip":"9012223"},{"town":"真栄原三丁目","koaza":"","lat":26.263189,"lng":127.744942,"zip":"9012215"},{"town":"字佐真下","koaza":"","lat":26.265603,"lng":127.748426,"zip":"9012200"},{"town":"字我如古","koaza":"","lat":26.260311,"lng":127.746759,"zip":"9012200"},{"town":"嘉数二丁目","koaza":"","lat":26.255411,"lng":127.737018,"zip":"9012226"},{"town":"新城一丁目","koaza":"","lat":26.287969,"lng":127.772719,"zip":"9012201"},{"town":"喜友名二丁目","koaza":"","lat":26.284793,"lng":127.760494,"zip":"9012222"},{"town":"大山三丁目","koaza":"","lat":26.284813,"lng":127.752162,"zip":"9012223"},{"town":"伊佐四丁目","koaza":"","lat":26.289765,"lng":127.752422,"zip":"9012221"},{"town":"伊佐三丁目","koaza":"","lat":26.292044,"lng":127.755494,"zip":"9012221"},{"town":"普天間二丁目","koaza":"","lat":26.289427,"lng":127.775457,"zip":"9012202"},{"town":"長田二丁目","koaza":"","lat":26.263107,"lng":127.767818,"zip":"9012212"},{"town":"志真志三丁目","koaza":"","lat":26.256111,"lng":127.761999,"zip":"9012213"},{"town":"喜友名一丁目","koaza":"","lat":26.285404,"lng":127.764496,"zip":"9012222"},{"town":"伊佐二丁目","koaza":"","lat":26.287457,"lng":127.7542,"zip":"9012221"},{"town":"野嵩三丁目","koaza":"","lat":26.287209,"lng":127.783792,"zip":"9012203"},{"town":"字赤道","koaza":"","lat":26.275432,"lng":127.768941,"zip":"9012200"},{"town":"宜野湾一丁目","koaza":"","lat":26.265697,"lng":127.761157,"zip":"9012211"},{"town":"字神山","koaza":"","lat":26.274473,"lng":127.760489,"zip":"9012200"},{"town":"新城二丁目","koaza":"","lat":26.28685,"lng":127.769531,"zip":"9012201"},{"town":"長田三丁目","koaza":"","lat":26.261073,"lng":127.767595,"zip":"9012212"},{"town":"志真志一丁目","koaza":"","lat":26.258172,"lng":127.764123,"zip":"9012213"},{"town":"長田一丁目","koaza":"","lat":26.263484,"lng":127.764541,"zip":"9012212"},{"town":"志真志四丁目","koaza":"","lat":26.257401,"lng":127.758887,"zip":"9012213"},{"town":"長田四丁目","koaza":"","lat":26.26093,"lng":127.761753,"zip":"9012212"},{"town":"宜野湾三丁目","koaza":"","lat":26.26086,"lng":127.756045,"zip":"9012211"},{"town":"赤道一丁目","koaza":"","lat":26.273467,"lng":127.770583,"zip":"9012205"},{"town":"我如古一丁目","koaza":"","lat":26.258228,"lng":127.75306,"zip":"9012214"},{"town":"宜野湾二丁目","koaza":"","lat":26.264101,"lng":127.756773,"zip":"9012211"},{"town":"赤道二丁目","koaza":"","lat":26.271894,"lng":127.773642,"zip":"9012205"},{"town":"上原二丁目","koaza":"","lat":26.275586,"lng":127.77713,"zip":"9012204"},{"town":"野嵩一丁目","koaza":"","lat":26.282571,"lng":127.78134,"zip":"9012203"},{"town":"上原一丁目","koaza":"","lat":26.277136,"lng":127.775953,"zip":"9012204"},{"town":"字野嵩","koaza":"","lat":26.282753,"lng":127.775715,"zip":"9012200"},{"town":"野嵩四丁目","koaza":"","lat":26.291305,"lng":127.782516,"zip":"9012203"},{"town":"野嵩二丁目","koaza":"","lat":26.284803,"lng":127.777874,"zip":"9012203"},{"town":"普天間一丁目","koaza":"","lat":26.291618,"lng":127.779047,"zip":"9012202"},{"town":"伊佐一丁目","koaza":"","lat":26.284568,"lng":127.756329,"zip":"9012221"},{"town":"志真志二丁目","koaza":"","lat":26.256198,"lng":127.767175,"zip":"9012213"},{"town":"真志喜四丁目","koaza":"","lat":26.28015,"lng":127.734712,"zip":"9012224"},{"town":"大山六丁目","koaza":"","lat":26.277983,"lng":127.740621,"zip":"9012223"},{"town":"真志喜二丁目","koaza":"","lat":26.275549,"lng":127.737154,"zip":"9012224"},{"town":"真志喜三丁目","koaza":"","lat":26.274807,"lng":127.734007,"zip":"9012224"},{"town":"字真志喜","koaza":"","lat":26.272219,"lng":127.735802,"zip":"9012200"},{"town":"嘉数三丁目","koaza":"","lat":26.257182,"lng":127.734214,"zip":"9012226"},{"town":"字宇地泊","koaza":"","lat":26.27243,"lng":127.729892,"zip":"9012200"},{"town":"字大謝名","koaza":"","lat":26.2707,"lng":127.735014,"zip":"9012200"},{"town":"大謝名五丁目","koaza":"","lat":26.266481,"lng":127.73234,"zip":"9012225"},{"town":"嘉数一丁目","koaza":"","lat":26.259588,"lng":127.735739,"zip":"9012226"},{"town":"嘉数四丁目","koaza":"","lat":26.261969,"lng":127.732289,"zip":"9012226"},{"town":"大謝名一丁目","koaza":"","lat":26.267897,"lng":127.736768,"zip":"9012225"},{"town":"真志喜一丁目","koaza":"","lat":26.271206,"lng":127.740709,"zip":"9012224"},{"town":"大謝名四丁目","koaza":"","lat":26.264688,"lng":127.735089,"zip":"9012225"},{"town":"大謝名三丁目","koaza":"","lat":26.26359,"lng":127.737889,"zip":"9012225"},{"town":"大謝名二丁目","koaza":"","lat":26.265723,"lng":127.739821,"zip":"9012225"},{"town":"真栄原二丁目","koaza":"","lat":26.2608,"lng":127.740693,"zip":"9012215"},{"town":"字真栄原","koaza":"","lat":26.260573,"lng":127.744858,"zip":"9012200"},{"town":"字宜野湾","koaza":"","lat":26.270245,"lng":127.754067,"zip":"9012200"},{"town":"字大山","koaza":"","lat":26.276834,"lng":127.751391,"zip":"9012200"},{"town":"字上原","koaza":"","lat":26.278494,"lng":127.773272,"zip":"9012200"},{"town":"字新城","koaza":"","lat":26.282059,"lng":127.771851,"zip":"9012200"},{"town":"字喜友名","koaza":"","lat":26.290147,"lng":127.762852,"zip":"9012200"},{"town":"字伊佐","koaza":"","lat":26.289317,"lng":127.758753,"zip":"9012200"},{"town":"字安仁屋","koaza":"","lat":26.293656,"lng":127.76768,"zip":"9012200"},{"town":"字普天間","koaza":"","lat":26.294537,"lng":127.773764,"zip":"9012200"},{"town":"字中原","koaza":"","lat":26.278459,"lng":127.765768,"zip":"9012200"}]