[{"town":"城辺","koaza":"","lat":24.756914,"lng":125.384528,"zip":"9060102"},{"town":"下地","koaza":"","lat":24.744713,"lng":125.280446,"zip":"9060304"},{"town":"上野","koaza":"","lat":24.74167,"lng":125.327333,"zip":"9060204"},{"town":"平良","koaza":"","lat":24.842422,"lng":125.30218,"zip":"9060421"},{"town":"伊良部","koaza":"","lat":24.835268,"lng":125.186042,"zip":"9060502"},{"town":"平良","koaza":"前里","lat":24.925399,"lng":125.242883,"zip":"9060421"},{"town":"平良","koaza":"池間","lat":24.924153,"lng":125.246711,"zip":"9060421"},{"town":"下地","koaza":"与那覇","lat":24.735018,"lng":125.275684,"zip":"9060304"},{"town":"平良","koaza":"久貝","lat":24.790429,"lng":125.271733,"zip":"9060421"},{"town":"平良","koaza":"狩俣","lat":24.887066,"lng":125.28154,"zip":"9060421"},{"town":"平良","koaza":"松原","lat":24.781235,"lng":125.280419,"zip":"9060421"},{"town":"平良","koaza":"下里","lat":24.786167,"lng":125.294202,"zip":"9060421"},{"town":"下地","koaza":"上地","lat":24.748534,"lng":125.284565,"zip":"9060304"},{"town":"平良","koaza":"西里","lat":24.772767,"lng":125.328526,"zip":"9060421"},{"town":"下地","koaza":"洲鎌","lat":24.734076,"lng":125.287167,"zip":"9060304"},{"town":"平良","koaza":"西仲宗根","lat":24.810907,"lng":125.293753,"zip":"9060421"},{"town":"下地","koaza":"川満","lat":24.758322,"lng":125.302347,"zip":"9060304"},{"town":"平良","koaza":"荷川取","lat":24.817925,"lng":125.282075,"zip":"9060421"},{"town":"平良","koaza":"東仲宗根","lat":24.802297,"lng":125.292188,"zip":"9060421"},{"town":"平良","koaza":"島尻","lat":24.857607,"lng":125.304433,"zip":"9060421"},{"town":"平良","koaza":"西原","lat":24.829282,"lng":125.299391,"zip":"9060421"},{"town":"平良","koaza":"大浦","lat":24.8445,"lng":125.301127,"zip":"9060421"},{"town":"下地","koaza":"嘉手苅","lat":24.730327,"lng":125.301903,"zip":"9060304"},{"town":"上野","koaza":"宮国","lat":24.730902,"lng":125.31733,"zip":"9060204"},{"town":"平良","koaza":"東仲宗根添","lat":24.782653,"lng":125.328483,"zip":"9060421"},{"town":"上野","koaza":"上野","lat":24.739878,"lng":125.309164,"zip":"9060204"},{"town":"上野","koaza":"野原","lat":24.757652,"lng":125.325126,"zip":"9060204"},{"town":"上野","koaza":"新里","lat":24.731743,"lng":125.338261,"zip":"9060204"},{"town":"城辺","koaza":"下里添","lat":24.759775,"lng":125.342012,"zip":"9060102"},{"town":"城辺","koaza":"長間","lat":24.777139,"lng":125.360022,"zip":"9060102"},{"town":"城辺","koaza":"砂川","lat":24.743047,"lng":125.349168,"zip":"9060102"},{"town":"城辺","koaza":"西里添","lat":24.750542,"lng":125.371403,"zip":"9060102"},{"town":"城辺","koaza":"友利","lat":24.732585,"lng":125.375017,"zip":"9060102"},{"town":"城辺","koaza":"比嘉","lat":24.769545,"lng":125.379897,"zip":"9060102"},{"town":"城辺","koaza":"保良","lat":24.73299,"lng":125.430404,"zip":"9060102"},{"town":"城辺","koaza":"福里","lat":24.752504,"lng":125.39261,"zip":"9060102"},{"town":"城辺","koaza":"新城","lat":24.74759,"lng":125.417432,"zip":"9060102"}]