[{"town":"字具志頭","koaza":"","lat":26.125995,"lng":127.747182,"zip":"9010400"},{"town":"字新城","koaza":"","lat":26.137358,"lng":127.741897,"zip":"9010400"},{"town":"字友寄","koaza":"","lat":26.169613,"lng":127.720614,"zip":"9010400"},{"town":"字宜次","koaza":"","lat":26.17166,"lng":127.710833,"zip":"9010400"},{"town":"字港川","koaza":"","lat":26.126518,"lng":127.758129,"zip":"9010400"},{"town":"字長毛","koaza":"","lat":26.130438,"lng":127.756189,"zip":"9010400"},{"town":"字与座","koaza":"","lat":26.109029,"lng":127.72909,"zip":"9010400"},{"town":"字玻名城","koaza":"","lat":26.118676,"lng":127.739905,"zip":"9010400"},{"town":"字安里","koaza":"","lat":26.111939,"lng":127.736149,"zip":"9010400"},{"town":"字高良","koaza":"","lat":26.131594,"lng":127.709587,"zip":"9010400"},{"town":"字世名城","koaza":"","lat":26.132654,"lng":127.71715,"zip":"9010400"},{"town":"字当銘","koaza":"","lat":26.148718,"lng":127.701782,"zip":"9010400"},{"town":"字伊覇","koaza":"","lat":26.159701,"lng":127.72107,"zip":"9010400"},{"town":"字志多伯","koaza":"","lat":26.152097,"lng":127.708948,"zip":"9010400"},{"town":"字上田原","koaza":"","lat":26.160759,"lng":127.713728,"zip":"9010400"},{"town":"字小城","koaza":"","lat":26.157841,"lng":127.704558,"zip":"9010400"},{"town":"字仲座","koaza":"","lat":26.11199,"lng":127.724532,"zip":"9010400"},{"town":"字大頓","koaza":"","lat":26.128947,"lng":127.73549,"zip":"9010400"},{"town":"字富盛","koaza":"","lat":26.132358,"lng":127.727863,"zip":"9010400"},{"town":"字後原","koaza":"","lat":26.146468,"lng":127.734968,"zip":"9010400"},{"town":"字屋宜原","koaza":"","lat":26.163092,"lng":127.727601,"zip":"9010400"},{"town":"字東風平","koaza":"","lat":26.152087,"lng":127.721199,"zip":"9010400"},{"town":"字外間","koaza":"","lat":26.177742,"lng":127.71492,"zip":"9010400"}]