[{"town":"西洲三丁目","koaza":"","lat":26.260212,"lng":127.695944,"zip":"9012123"},{"town":"西原三丁目","koaza":"","lat":26.254216,"lng":127.746972,"zip":"9012101"},{"town":"西原四丁目","koaza":"","lat":26.249041,"lng":127.747439,"zip":"9012101"},{"town":"西原二丁目","koaza":"","lat":26.254173,"lng":127.744567,"zip":"9012101"},{"town":"西洲二丁目","koaza":"","lat":26.25241,"lng":127.687366,"zip":"9012123"},{"town":"当山二丁目","koaza":"","lat":26.251305,"lng":127.735033,"zip":"9012104"},{"town":"当山一丁目","koaza":"","lat":26.252494,"lng":127.729871,"zip":"9012104"},{"town":"仲間二丁目","koaza":"","lat":26.249871,"lng":127.728313,"zip":"9012103"},{"town":"城間二丁目","koaza":"","lat":26.25337,"lng":127.712384,"zip":"9012133"},{"town":"仲間一丁目","koaza":"","lat":26.250949,"lng":127.722562,"zip":"9012103"},{"town":"伊祖四丁目","koaza":"","lat":26.254867,"lng":127.7225,"zip":"9012132"},{"town":"伊祖一丁目","koaza":"","lat":26.251832,"lng":127.717848,"zip":"9012132"},{"town":"伊祖二丁目","koaza":"","lat":26.253716,"lng":127.716324,"zip":"9012132"},{"town":"城間一丁目","koaza":"","lat":26.255545,"lng":127.708864,"zip":"9012133"},{"town":"屋富祖四丁目","koaza":"","lat":26.254045,"lng":127.707631,"zip":"9012127"},{"town":"屋富祖三丁目","koaza":"","lat":26.252596,"lng":127.70657,"zip":"9012127"},{"town":"字屋富祖","koaza":"","lat":26.256405,"lng":127.700167,"zip":"9012100"},{"town":"字宮城","koaza":"","lat":26.253529,"lng":127.698943,"zip":"9012100"},{"town":"字仲西","koaza":"","lat":26.251113,"lng":127.695914,"zip":"9012100"},{"town":"西原一丁目","koaza":"","lat":26.253107,"lng":127.741797,"zip":"9012101"},{"town":"沢岻一丁目","koaza":"","lat":26.236192,"lng":127.712397,"zip":"9012112"},{"town":"経塚一丁目","koaza":"","lat":26.241877,"lng":127.723106,"zip":"9012111"},{"town":"西原五丁目","koaza":"","lat":26.248242,"lng":127.743246,"zip":"9012101"},{"town":"当山三丁目","koaza":"","lat":26.247699,"lng":127.735272,"zip":"9012104"},{"town":"前田四丁目","koaza":"","lat":26.236685,"lng":127.735398,"zip":"9012102"},{"town":"前田二丁目","koaza":"","lat":26.242975,"lng":127.738447,"zip":"9012102"},{"town":"前田一丁目","koaza":"","lat":26.24116,"lng":127.736435,"zip":"9012102"},{"town":"西洲一丁目","koaza":"","lat":26.246219,"lng":127.686432,"zip":"9012123"},{"town":"西原六丁目","koaza":"","lat":26.246194,"lng":127.746522,"zip":"9012101"},{"town":"前田三丁目","koaza":"","lat":26.243834,"lng":127.740996,"zip":"9012102"},{"town":"字仲間","koaza":"","lat":26.243754,"lng":127.729287,"zip":"9012100"},{"town":"字前田","koaza":"","lat":26.239714,"lng":127.730903,"zip":"9012100"},{"town":"字経塚","koaza":"","lat":26.237598,"lng":127.722674,"zip":"9012100"},{"town":"安波茶三丁目","koaza":"","lat":26.244151,"lng":127.721722,"zip":"9012114"},{"town":"仲間三丁目","koaza":"","lat":26.244136,"lng":127.727651,"zip":"9012103"},{"town":"安波茶二丁目","koaza":"","lat":26.247564,"lng":127.723073,"zip":"9012114"},{"town":"安波茶一丁目","koaza":"","lat":26.24636,"lng":127.718873,"zip":"9012114"},{"town":"屋富祖一丁目","koaza":"","lat":26.250859,"lng":127.71264,"zip":"9012127"},{"town":"屋富祖二丁目","koaza":"","lat":26.250636,"lng":127.709029,"zip":"9012127"},{"town":"宮城一丁目","koaza":"","lat":26.250652,"lng":127.704346,"zip":"9012126"},{"town":"宮城三丁目","koaza":"","lat":26.246453,"lng":127.70447,"zip":"9012126"},{"town":"大平三丁目","koaza":"","lat":26.244912,"lng":127.71506,"zip":"9012113"},{"town":"字大平","koaza":"","lat":26.243551,"lng":127.712779,"zip":"9012100"},{"town":"大平一丁目","koaza":"","lat":26.248639,"lng":127.713305,"zip":"9012113"},{"town":"宮城二丁目","koaza":"","lat":26.248294,"lng":127.705886,"zip":"9012126"},{"town":"宮城四丁目","koaza":"","lat":26.244664,"lng":127.704187,"zip":"9012126"},{"town":"仲西二丁目","koaza":"","lat":26.246514,"lng":127.699985,"zip":"9012125"},{"town":"仲西一丁目","koaza":"","lat":26.24779,"lng":127.699034,"zip":"9012125"},{"town":"字小湾","koaza":"","lat":26.248901,"lng":127.692552,"zip":"9012100"},{"town":"伊奈武瀬一丁目","koaza":"","lat":26.248315,"lng":127.671968,"zip":"9012128"},{"town":"仲西三丁目","koaza":"","lat":26.2446,"lng":127.699059,"zip":"9012125"},{"town":"沢岻二丁目","koaza":"","lat":26.235556,"lng":127.708609,"zip":"9012112"},{"town":"大平二丁目","koaza":"","lat":26.243693,"lng":127.7099,"zip":"9012113"},{"town":"字沢岻","koaza":"","lat":26.23905,"lng":127.714197,"zip":"9012100"},{"town":"宮城六丁目","koaza":"","lat":26.24385,"lng":127.70785,"zip":"9012126"},{"town":"内間二丁目","koaza":"","lat":26.235822,"lng":127.705764,"zip":"9012121"},{"town":"内間一丁目","koaza":"","lat":26.239623,"lng":127.707329,"zip":"9012121"},{"town":"内間三丁目","koaza":"","lat":26.237442,"lng":127.700826,"zip":"9012121"},{"town":"宮城五丁目","koaza":"","lat":26.243215,"lng":127.703282,"zip":"9012126"},{"town":"内間四丁目","koaza":"","lat":26.240135,"lng":127.703665,"zip":"9012121"},{"town":"勢理客一丁目","koaza":"","lat":26.241592,"lng":127.697881,"zip":"9012122"},{"town":"勢理客四丁目","koaza":"","lat":26.244344,"lng":127.689794,"zip":"9012122"},{"town":"勢理客二丁目","koaza":"","lat":26.243276,"lng":127.695499,"zip":"9012122"},{"town":"内間五丁目","koaza":"","lat":26.239902,"lng":127.699131,"zip":"9012121"},{"town":"勢理客三丁目","koaza":"","lat":26.241259,"lng":127.692398,"zip":"9012122"},{"town":"港川一丁目","koaza":"","lat":26.260924,"lng":127.719297,"zip":"9012134"},{"town":"字牧港","koaza":"","lat":26.267441,"lng":127.715947,"zip":"9012100"},{"town":"牧港一丁目","koaza":"","lat":26.263792,"lng":127.721392,"zip":"9012131"},{"town":"牧港五丁目","koaza":"","lat":26.270612,"lng":127.717664,"zip":"9012131"},{"town":"牧港四丁目","koaza":"","lat":26.264264,"lng":127.728573,"zip":"9012131"},{"town":"牧港二丁目","koaza":"","lat":26.262282,"lng":127.725418,"zip":"9012131"},{"town":"牧港三丁目","koaza":"","lat":26.258285,"lng":127.729917,"zip":"9012131"},{"town":"城間三丁目","koaza":"","lat":26.257097,"lng":127.711764,"zip":"9012133"},{"town":"伊祖五丁目","koaza":"","lat":26.257425,"lng":127.7262,"zip":"9012132"},{"town":"伊祖三丁目","koaza":"","lat":26.257468,"lng":127.720941,"zip":"9012132"},{"town":"港川二丁目","koaza":"","lat":26.264191,"lng":127.716188,"zip":"9012134"},{"town":"字港川","koaza":"","lat":26.269027,"lng":127.711922,"zip":"9012100"},{"town":"城間四丁目","koaza":"","lat":26.258972,"lng":127.714397,"zip":"9012133"},{"town":"字城間","koaza":"","lat":26.26212,"lng":127.706165,"zip":"9012100"}]