[{"town":"南ぬ浜町","koaza":"","lat":24.330858,"lng":124.14501,"zip":"9070015"},{"town":"美崎町","koaza":"","lat":24.339368,"lng":124.155463,"zip":"9070012"},{"town":"字白保","koaza":"","lat":24.399176,"lng":124.235469,"zip":"9070000"},{"town":"字大浜","koaza":"","lat":24.38738,"lng":124.209288,"zip":"9070000"},{"town":"字平得","koaza":"","lat":24.381549,"lng":124.186131,"zip":"9070000"},{"town":"字真栄里","koaza":"","lat":24.383537,"lng":124.198054,"zip":"9070000"},{"town":"字登野城","koaza":"","lat":24.378062,"lng":124.178186,"zip":"9070000"},{"town":"字桃里","koaza":"","lat":24.449676,"lng":124.245393,"zip":"9070000"},{"town":"字新川","koaza":"","lat":24.364752,"lng":124.128604,"zip":"9070000"},{"town":"字野底","koaza":"","lat":24.494591,"lng":124.239561,"zip":"9070000"},{"town":"字崎枝","koaza":"","lat":24.435726,"lng":124.10009,"zip":"9070000"},{"town":"字宮良","koaza":"","lat":24.394323,"lng":124.222372,"zip":"9070000"},{"town":"字名蔵","koaza":"","lat":24.407606,"lng":124.156114,"zip":"9070000"},{"town":"字川平","koaza":"","lat":24.455191,"lng":124.128743,"zip":"9070000"},{"town":"字伊原間","koaza":"","lat":24.513841,"lng":124.285419,"zip":"9070000"},{"town":"字平久保","koaza":"","lat":24.578763,"lng":124.319535,"zip":"9070000"},{"town":"八島町一丁目","koaza":"","lat":24.335069,"lng":124.158257,"zip":"9070011"},{"town":"八島町二丁目","koaza":"","lat":24.332426,"lng":124.16571,"zip":"9070011"},{"town":"字盛山","koaza":"","lat":24.389859,"lng":124.240754,"zip":"9070000"},{"town":"字大川","koaza":"","lat":24.361795,"lng":124.166988,"zip":"9070000"},{"town":"浜崎町一丁目","koaza":"","lat":24.33937,"lng":124.152078,"zip":"9070013"},{"town":"字石垣","koaza":"","lat":24.367947,"lng":124.152835,"zip":"9070000"},{"town":"字桴海","koaza":"","lat":24.460844,"lng":124.228926,"zip":"9070000"},{"town":"新栄町","koaza":"","lat":24.346218,"lng":124.148903,"zip":"9070014"},{"town":"浜崎町三丁目","koaza":"","lat":24.339462,"lng":124.147876,"zip":"9070013"},{"town":"浜崎町二丁目","koaza":"","lat":24.341396,"lng":124.149745,"zip":"9070013"},{"town":"字大浜","koaza":"南大浜","lat":24.339933,"lng":124.191564,"zip":"9070000"},{"town":"字盛山","koaza":"東牛種子","lat":24.384691,"lng":124.245457,"zip":"9070000"}]