[{"town":"古波蔵一丁目","koaza":"","lat":26.199562,"lng":127.691306,"zip":"9000024"},{"town":"真嘉比一丁目","koaza":"","lat":26.222671,"lng":127.700862,"zip":"9020068"},{"town":"楚辺三丁目","koaza":"","lat":26.207035,"lng":127.683173,"zip":"9000023"},{"town":"宇栄原六丁目","koaza":"","lat":26.184452,"lng":127.665806,"zip":"9010153"},{"town":"宇栄原五丁目","koaza":"","lat":26.186091,"lng":127.66699,"zip":"9010153"},{"town":"宇栄原四丁目","koaza":"","lat":26.185664,"lng":127.671191,"zip":"9010153"},{"town":"壺川一丁目","koaza":"","lat":26.20583,"lng":127.681725,"zip":"9000025"},{"town":"小禄五丁目","koaza":"","lat":26.191872,"lng":127.67409,"zip":"9010152"},{"town":"小禄二丁目","koaza":"","lat":26.190858,"lng":127.675595,"zip":"9010152"},{"town":"小禄四丁目","koaza":"","lat":26.189247,"lng":127.672172,"zip":"9010152"},{"town":"小禄三丁目","koaza":"","lat":26.187968,"lng":127.673625,"zip":"9010152"},{"town":"銘苅三丁目","koaza":"","lat":26.234646,"lng":127.699143,"zip":"9000004"},{"town":"安謝二丁目","koaza":"","lat":26.236112,"lng":127.690279,"zip":"9000003"},{"town":"安謝一丁目","koaza":"","lat":26.235369,"lng":127.694564,"zip":"9000003"},{"town":"字銘苅","koaza":"","lat":26.236129,"lng":127.699544,"zip":"9000000"},{"town":"字安謝","koaza":"","lat":26.238942,"lng":127.689789,"zip":"9000000"},{"town":"曙二丁目","koaza":"","lat":26.239992,"lng":127.682645,"zip":"9000002"},{"town":"曙三丁目","koaza":"","lat":26.242252,"lng":127.685134,"zip":"9000002"},{"town":"港町三丁目","koaza":"","lat":26.244798,"lng":127.675857,"zip":"9000001"},{"town":"港町四丁目","koaza":"","lat":26.244032,"lng":127.671219,"zip":"9000001"},{"town":"港町二丁目","koaza":"","lat":26.242447,"lng":127.677165,"zip":"9000001"},{"town":"首里石嶺町四丁目","koaza":"","lat":26.232425,"lng":127.733362,"zip":"9030804"},{"town":"首里石嶺町三丁目","koaza":"","lat":26.231054,"lng":127.726001,"zip":"9030804"},{"town":"首里石嶺町一丁目","koaza":"","lat":26.22618,"lng":127.725259,"zip":"9030804"},{"town":"首里儀保町一丁目","koaza":"","lat":26.22369,"lng":127.718837,"zip":"9030821"},{"town":"首里儀保町三丁目","koaza":"","lat":26.225635,"lng":127.718938,"zip":"9030821"},{"town":"首里久場川町一丁目","koaza":"","lat":26.225692,"lng":127.721479,"zip":"9030807"},{"town":"首里平良町二丁目","koaza":"","lat":26.228652,"lng":127.718044,"zip":"9030803"},{"town":"首里大名町三丁目","koaza":"","lat":26.231515,"lng":127.721468,"zip":"9030802"},{"town":"首里平良町一丁目","koaza":"","lat":26.229139,"lng":127.720857,"zip":"9030803"},{"town":"首里大名町二丁目","koaza":"","lat":26.231721,"lng":127.718094,"zip":"9030802"},{"town":"首里儀保町二丁目","koaza":"","lat":26.224205,"lng":127.717622,"zip":"9030821"},{"town":"真嘉比二丁目","koaza":"","lat":26.225787,"lng":127.702179,"zip":"9020068"},{"town":"古島一丁目","koaza":"","lat":26.229366,"lng":127.704115,"zip":"9020061"},{"town":"首里末吉町四丁目","koaza":"","lat":26.229062,"lng":127.708778,"zip":"9030801"},{"town":"首里末吉町三丁目","koaza":"","lat":26.233004,"lng":127.706865,"zip":"9030801"},{"town":"真嘉比三丁目","koaza":"","lat":26.224135,"lng":127.70489,"zip":"9020068"},{"town":"松島二丁目","koaza":"","lat":26.225357,"lng":127.710673,"zip":"9020069"},{"town":"松島一丁目","koaza":"","lat":26.222964,"lng":127.706398,"zip":"9020069"},{"town":"字古島","koaza":"","lat":26.231481,"lng":127.703568,"zip":"9000000"},{"town":"首里桃原町一丁目","koaza":"","lat":26.223606,"lng":127.713986,"zip":"9030822"},{"town":"古島二丁目","koaza":"","lat":26.22701,"lng":127.7076,"zip":"9020061"},{"town":"首里末吉町二丁目","koaza":"","lat":26.230701,"lng":127.709895,"zip":"9030801"},{"town":"首里末吉町一丁目","koaza":"","lat":26.228001,"lng":127.714014,"zip":"9030801"},{"town":"首里大名町一丁目","koaza":"","lat":26.231359,"lng":127.714593,"zip":"9030802"},{"town":"首里桃原町二丁目","koaza":"","lat":26.224365,"lng":127.715462,"zip":"9030822"},{"town":"首里儀保町四丁目","koaza":"","lat":26.225878,"lng":127.716403,"zip":"9030821"},{"town":"銘苅一丁目","koaza":"","lat":26.230445,"lng":127.701255,"zip":"9000004"},{"town":"銘苅二丁目","koaza":"","lat":26.232268,"lng":127.697664,"zip":"9000004"},{"town":"おもろまち三丁目","koaza":"","lat":26.228821,"lng":127.694567,"zip":"9000006"},{"town":"天久一丁目","koaza":"","lat":26.231555,"lng":127.691517,"zip":"9000005"},{"town":"天久二丁目","koaza":"","lat":26.232981,"lng":127.687694,"zip":"9000005"},{"town":"上之屋一丁目","koaza":"","lat":26.227585,"lng":127.688016,"zip":"9000011"},{"town":"字天久","koaza":"","lat":26.234746,"lng":127.684287,"zip":"9000000"},{"town":"おもろまち二丁目","koaza":"","lat":26.225955,"lng":127.691279,"zip":"9000006"},{"town":"曙一丁目","koaza":"","lat":26.235033,"lng":127.682048,"zip":"9000002"},{"town":"港町一丁目","koaza":"","lat":26.236646,"lng":127.677574,"zip":"9000001"},{"town":"字上之屋","koaza":"","lat":26.229674,"lng":127.683866,"zip":"9000000"},{"town":"泊三丁目","koaza":"","lat":26.226959,"lng":127.683247,"zip":"9000012"},{"town":"泊二丁目","koaza":"","lat":26.224964,"lng":127.687296,"zip":"9000012"},{"town":"首里石嶺町二丁目","koaza":"","lat":26.222972,"lng":127.732605,"zip":"9030804"},{"town":"首里赤平町二丁目","koaza":"","lat":26.223856,"lng":127.720962,"zip":"9030811"},{"town":"首里久場川町二丁目","koaza":"","lat":26.222583,"lng":127.725892,"zip":"9030807"},{"town":"首里赤平町一丁目","koaza":"","lat":26.222181,"lng":127.720364,"zip":"9030811"},{"town":"首里汀良町二丁目","koaza":"","lat":26.220656,"lng":127.723729,"zip":"9030806"},{"town":"首里汀良町三丁目","koaza":"","lat":26.220317,"lng":127.726774,"zip":"9030806"},{"town":"首里赤田町三丁目","koaza":"","lat":26.214146,"lng":127.726126,"zip":"9030813"},{"town":"首里鳥堀町三丁目","koaza":"","lat":26.216833,"lng":127.725986,"zip":"9030805"},{"town":"首里鳥堀町五丁目","koaza":"","lat":26.216127,"lng":127.728222,"zip":"9030805"},{"town":"首里崎山町三丁目","koaza":"","lat":26.212626,"lng":127.72456,"zip":"9030814"},{"town":"首里鳥堀町二丁目","koaza":"","lat":26.216959,"lng":127.724687,"zip":"9030805"},{"town":"首里赤田町二丁目","koaza":"","lat":26.216011,"lng":127.723493,"zip":"9030813"},{"town":"首里鳥堀町四丁目","koaza":"","lat":26.219079,"lng":127.729971,"zip":"9030805"},{"town":"首里崎山町二丁目","koaza":"","lat":26.214904,"lng":127.723391,"zip":"9030814"},{"town":"首里赤田町一丁目","koaza":"","lat":26.216998,"lng":127.722082,"zip":"9030813"},{"town":"首里鳥堀町一丁目","koaza":"","lat":26.217538,"lng":127.723631,"zip":"9030805"},{"town":"首里崎山町一丁目","koaza":"","lat":26.214789,"lng":127.720976,"zip":"9030814"},{"town":"首里金城町四丁目","koaza":"","lat":26.212956,"lng":127.719276,"zip":"9030815"},{"town":"首里汀良町一丁目","koaza":"","lat":26.219909,"lng":127.722469,"zip":"9030806"},{"town":"首里当蔵町二丁目","koaza":"","lat":26.220132,"lng":127.720649,"zip":"9030812"},{"town":"首里当蔵町三丁目","koaza":"","lat":26.217548,"lng":127.719427,"zip":"9030812"},{"town":"首里当蔵町一丁目","koaza":"","lat":26.220379,"lng":127.718835,"zip":"9030812"},{"town":"首里池端町","koaza":"","lat":26.220371,"lng":127.716075,"zip":"9030824"},{"town":"首里大中町一丁目","koaza":"","lat":26.221628,"lng":127.71648,"zip":"9030823"},{"town":"首里大中町二丁目","koaza":"","lat":26.222685,"lng":127.714843,"zip":"9030823"},{"town":"首里山川町二丁目","koaza":"","lat":26.223549,"lng":127.71198,"zip":"9030825"},{"town":"首里金城町三丁目","koaza":"","lat":26.215094,"lng":127.716536,"zip":"9030815"},{"town":"首里金城町二丁目","koaza":"","lat":26.215815,"lng":127.71372,"zip":"9030815"},{"town":"首里金城町一丁目","koaza":"","lat":26.216898,"lng":127.716181,"zip":"9030815"},{"town":"首里真和志町一丁目","koaza":"","lat":26.219217,"lng":127.716857,"zip":"9030816"},{"town":"首里真和志町二丁目","koaza":"","lat":26.219529,"lng":127.713713,"zip":"9030816"},{"town":"首里山川町一丁目","koaza":"","lat":26.220663,"lng":127.712393,"zip":"9030825"},{"town":"繁多川三丁目","koaza":"","lat":26.214004,"lng":127.711466,"zip":"9020071"},{"town":"首里山川町三丁目","koaza":"","lat":26.220219,"lng":127.708793,"zip":"9030825"},{"town":"首里寒川町一丁目","koaza":"","lat":26.217332,"lng":127.711456,"zip":"9030826"},{"town":"首里寒川町二丁目","koaza":"","lat":26.218089,"lng":127.708823,"zip":"9030826"},{"town":"松川三丁目","koaza":"","lat":26.215961,"lng":127.707067,"zip":"9020062"},{"town":"字松川","koaza":"","lat":26.219469,"lng":127.705042,"zip":"9000000"},{"town":"おもろまち一丁目","koaza":"","lat":26.223619,"lng":127.694669,"zip":"9000006"},{"town":"おもろまち四丁目","koaza":"","lat":26.225571,"lng":127.696701,"zip":"9000006"},{"town":"松川一丁目","koaza":"","lat":26.214325,"lng":127.703179,"zip":"9020062"},{"town":"松川二丁目","koaza":"","lat":26.217009,"lng":127.702075,"zip":"9020062"},{"town":"字大道","koaza":"","lat":26.218866,"lng":127.699278,"zip":"9000000"},{"town":"安里三丁目","koaza":"","lat":26.220181,"lng":127.696607,"zip":"9020067"},{"town":"字安里","koaza":"","lat":26.21835,"lng":127.697251,"zip":"9000000"},{"town":"牧志二丁目","koaza":"","lat":26.218221,"lng":127.689529,"zip":"9000013"},{"town":"泊一丁目","koaza":"","lat":26.222385,"lng":127.689187,"zip":"9000012"},{"town":"牧志三丁目","koaza":"","lat":26.215224,"lng":127.689835,"zip":"9000013"},{"town":"安里二丁目","koaza":"","lat":26.21679,"lng":127.695192,"zip":"9020067"},{"town":"安里一丁目","koaza":"","lat":26.219079,"lng":127.693349,"zip":"9020067"},{"town":"辻三丁目","koaza":"","lat":26.220214,"lng":127.668078,"zip":"9000037"},{"town":"前島三丁目","koaza":"","lat":26.223433,"lng":127.682683,"zip":"9000016"},{"town":"前島二丁目","koaza":"","lat":26.222561,"lng":127.685193,"zip":"9000016"},{"town":"若狭二丁目","koaza":"","lat":26.2214,"lng":127.675852,"zip":"9000031"},{"town":"若狭三丁目","koaza":"","lat":26.223301,"lng":127.678483,"zip":"9000031"},{"town":"牧志一丁目","koaza":"","lat":26.21726,"lng":127.684835,"zip":"9000013"},{"town":"久茂地三丁目","koaza":"","lat":26.215476,"lng":127.682265,"zip":"9000015"},{"town":"前島一丁目","koaza":"","lat":26.221012,"lng":127.686655,"zip":"9000016"},{"town":"松山二丁目","koaza":"","lat":26.22033,"lng":127.680447,"zip":"9000032"},{"town":"久茂地二丁目","koaza":"","lat":26.217778,"lng":127.681503,"zip":"9000015"},{"town":"若狭一丁目","koaza":"","lat":26.220268,"lng":127.67284,"zip":"9000031"},{"town":"松山一丁目","koaza":"","lat":26.218487,"lng":127.678072,"zip":"9000032"},{"town":"久米一丁目","koaza":"","lat":26.215825,"lng":127.673038,"zip":"9000033"},{"town":"久茂地一丁目","koaza":"","lat":26.214432,"lng":127.67841,"zip":"9000015"},{"town":"久米二丁目","koaza":"","lat":26.216488,"lng":127.675962,"zip":"9000033"},{"town":"辻二丁目","koaza":"","lat":26.218293,"lng":127.670632,"zip":"9000037"},{"town":"辻一丁目","koaza":"","lat":26.216189,"lng":127.669835,"zip":"9000037"},{"town":"西三丁目","koaza":"","lat":26.217241,"lng":127.665343,"zip":"9000036"},{"town":"西二丁目","koaza":"","lat":26.213489,"lng":127.669228,"zip":"9000036"},{"town":"首里崎山町四丁目","koaza":"","lat":26.210518,"lng":127.721489,"zip":"9030814"},{"town":"識名四丁目","koaza":"","lat":26.20333,"lng":127.710612,"zip":"9020078"},{"town":"識名三丁目","koaza":"","lat":26.204746,"lng":127.70676,"zip":"9020078"},{"town":"字真地","koaza":"","lat":26.203259,"lng":127.719911,"zip":"9000000"},{"town":"繁多川二丁目","koaza":"","lat":26.211893,"lng":127.710643,"zip":"9020071"},{"town":"繁多川四丁目","koaza":"","lat":26.210929,"lng":127.71613,"zip":"9020071"},{"town":"繁多川一丁目","koaza":"","lat":26.212368,"lng":127.706248,"zip":"9020071"},{"town":"識名二丁目","koaza":"","lat":26.207269,"lng":127.710332,"zip":"9020078"},{"town":"繁多川五丁目","koaza":"","lat":26.209387,"lng":127.70987,"zip":"9020071"},{"town":"識名一丁目","koaza":"","lat":26.207251,"lng":127.704441,"zip":"9020078"},{"town":"三原三丁目","koaza":"","lat":26.20957,"lng":127.70247,"zip":"9020063"},{"town":"長田一丁目","koaza":"","lat":26.203349,"lng":127.700931,"zip":"9020077"},{"town":"三原二丁目","koaza":"","lat":26.212431,"lng":127.701975,"zip":"9020063"},{"town":"字与儀","koaza":"","lat":26.202522,"lng":127.694632,"zip":"9000000"},{"town":"字寄宮","koaza":"","lat":26.205012,"lng":127.698509,"zip":"9000000"},{"town":"与儀二丁目","koaza":"","lat":26.202408,"lng":127.691098,"zip":"9020076"},{"town":"寄宮二丁目","koaza":"","lat":26.208149,"lng":127.697331,"zip":"9020064"},{"town":"壺屋二丁目","koaza":"","lat":26.212732,"lng":127.694859,"zip":"9020065"},{"town":"寄宮三丁目","koaza":"","lat":26.208206,"lng":127.700507,"zip":"9020064"},{"town":"三原一丁目","koaza":"","lat":26.212696,"lng":127.697736,"zip":"9020063"},{"town":"松尾二丁目","koaza":"","lat":26.213522,"lng":127.686884,"zip":"9000014"},{"town":"樋川一丁目","koaza":"","lat":26.208335,"lng":127.688271,"zip":"9000022"},{"town":"与儀一丁目","koaza":"","lat":26.205883,"lng":127.69354,"zip":"9020076"},{"town":"寄宮一丁目","koaza":"","lat":26.208823,"lng":127.693932,"zip":"9020064"},{"town":"西一丁目","koaza":"","lat":26.212728,"lng":127.671779,"zip":"9000036"},{"town":"壺川二丁目","koaza":"","lat":26.203614,"lng":127.680599,"zip":"9000025"},{"town":"楚辺二丁目","koaza":"","lat":26.204095,"lng":127.686683,"zip":"9000023"},{"town":"壺川三丁目","koaza":"","lat":26.20659,"lng":127.678612,"zip":"9000025"},{"town":"松尾一丁目","koaza":"","lat":26.212784,"lng":127.683685,"zip":"9000014"},{"town":"楚辺一丁目","koaza":"","lat":26.208581,"lng":127.684452,"zip":"9000023"},{"town":"東町","koaza":"","lat":26.212136,"lng":127.674005,"zip":"9000034"},{"town":"泉崎二丁目","koaza":"","lat":26.209001,"lng":127.680472,"zip":"9000021"},{"town":"泉崎一丁目","koaza":"","lat":26.211983,"lng":127.678643,"zip":"9000021"},{"town":"奥武山町","koaza":"","lat":26.204514,"lng":127.675171,"zip":"9000026"},{"town":"旭町","koaza":"","lat":26.20947,"lng":127.676677,"zip":"9000029"},{"town":"通堂町","koaza":"","lat":26.211004,"lng":127.669708,"zip":"9000035"},{"town":"垣花町","koaza":"","lat":26.204944,"lng":127.671443,"zip":"9000028"},{"town":"金城一丁目","koaza":"","lat":26.203394,"lng":127.665944,"zip":"9010155"},{"town":"垣花町二丁目","koaza":"","lat":26.206773,"lng":127.66776,"zip":"9000028"},{"town":"垣花町一丁目","koaza":"","lat":26.207328,"lng":127.66917,"zip":"9000028"},{"town":"垣花町三丁目","koaza":"","lat":26.207118,"lng":127.666269,"zip":"9000028"},{"town":"住吉町二丁目","koaza":"","lat":26.209015,"lng":127.665661,"zip":"9010141"},{"town":"住吉町三丁目","koaza":"","lat":26.208701,"lng":127.663413,"zip":"9010141"},{"town":"住吉町一丁目","koaza":"","lat":26.21093,"lng":127.663238,"zip":"9010141"},{"town":"字鏡水","koaza":"","lat":26.210713,"lng":127.651985,"zip":"9000000"},{"town":"字識名","koaza":"","lat":26.202337,"lng":127.714924,"zip":"9000000"},{"town":"字上間","koaza":"","lat":26.197667,"lng":127.712709,"zip":"9000000"},{"town":"長田二丁目","koaza":"","lat":26.201725,"lng":127.704042,"zip":"9020077"},{"town":"上間一丁目","koaza":"","lat":26.200909,"lng":127.708851,"zip":"9020073"},{"town":"字仲井真","koaza":"","lat":26.194206,"lng":127.708342,"zip":"9000000"},{"town":"字国場","koaza":"","lat":26.197799,"lng":127.698947,"zip":"9000000"},{"town":"古波蔵三丁目","koaza":"","lat":26.199516,"lng":127.683699,"zip":"9000024"},{"town":"古波蔵四丁目","koaza":"","lat":26.195935,"lng":127.69096,"zip":"9000024"},{"town":"古波蔵二丁目","koaza":"","lat":26.199554,"lng":127.687997,"zip":"9000024"},{"town":"山下町","koaza":"","lat":26.203029,"lng":127.66948,"zip":"9000027"},{"town":"田原二丁目","koaza":"","lat":26.196595,"lng":127.670137,"zip":"9010156"},{"town":"小禄一丁目","koaza":"","lat":26.192719,"lng":127.679409,"zip":"9010152"},{"town":"鏡原町","koaza":"","lat":26.198096,"lng":127.678544,"zip":"9010151"},{"town":"字赤嶺","koaza":"","lat":26.192593,"lng":127.657705,"zip":"9000000"},{"town":"金城二丁目","koaza":"","lat":26.201877,"lng":127.66583,"zip":"9010155"},{"town":"田原一丁目","koaza":"","lat":26.200085,"lng":127.669759,"zip":"9010156"},{"town":"字田原","koaza":"","lat":26.195436,"lng":127.671351,"zip":"9000000"},{"town":"田原四丁目","koaza":"","lat":26.194426,"lng":127.669389,"zip":"9010156"},{"town":"金城五丁目","koaza":"","lat":26.197253,"lng":127.666225,"zip":"9010155"},{"town":"金城四丁目","koaza":"","lat":26.198419,"lng":127.663778,"zip":"9010155"},{"town":"田原三丁目","koaza":"","lat":26.195847,"lng":127.668098,"zip":"9010156"},{"town":"赤嶺一丁目","koaza":"","lat":26.1954,"lng":127.662876,"zip":"9010154"},{"town":"字安次嶺","koaza":"","lat":26.201843,"lng":127.657607,"zip":"9000000"},{"town":"金城三丁目","koaza":"","lat":26.200196,"lng":127.665452,"zip":"9010155"},{"town":"赤嶺二丁目","koaza":"","lat":26.194612,"lng":127.660397,"zip":"9010154"},{"town":"字大嶺","koaza":"","lat":26.197504,"lng":127.643212,"zip":"9000000"},{"town":"字高良","koaza":"","lat":26.190808,"lng":127.655684,"zip":"9000000"},{"town":"字当間","koaza":"","lat":26.199196,"lng":127.651429,"zip":"9000000"},{"town":"字小禄","koaza":"","lat":26.193409,"lng":127.671395,"zip":"9000000"},{"town":"字宇栄原","koaza":"","lat":26.184011,"lng":127.668221,"zip":"9000000"},{"town":"宇栄原二丁目","koaza":"","lat":26.189685,"lng":127.667061,"zip":"9010153"},{"town":"高良二丁目","koaza":"","lat":26.184035,"lng":127.662984,"zip":"9010145"},{"town":"高良一丁目","koaza":"","lat":26.18679,"lng":127.661037,"zip":"9010145"},{"town":"宇栄原三丁目","koaza":"","lat":26.188659,"lng":127.662598,"zip":"9010153"},{"town":"宇栄原一丁目","koaza":"","lat":26.192033,"lng":127.663488,"zip":"9010153"},{"town":"高良三丁目","koaza":"","lat":26.190247,"lng":127.659564,"zip":"9010145"},{"town":"宮城一丁目","koaza":"","lat":26.186538,"lng":127.657824,"zip":"9010147"},{"town":"具志二丁目","koaza":"","lat":26.182113,"lng":127.659451,"zip":"9010146"},{"town":"具志三丁目","koaza":"","lat":26.178901,"lng":127.657084,"zip":"9010146"},{"town":"具志一丁目","koaza":"","lat":26.1836,"lng":127.657766,"zip":"9010146"},{"town":"字宮城","koaza":"","lat":26.189661,"lng":127.65095,"zip":"9000000"},{"town":"字具志","koaza":"","lat":26.182482,"lng":127.651743,"zip":"9000000"},{"town":"樋川二丁目","koaza":"","lat":26.209868,"lng":127.690825,"zip":"9000022"},{"town":"壺屋一丁目","koaza":"","lat":26.21303,"lng":127.691621,"zip":"9020065"}]