[{"town":"井川町井内西","koaza":"","lat":33.995865,"lng":133.865767,"zip":"7794805"},{"town":"井川町井内東","koaza":"","lat":33.989875,"lng":133.898329,"zip":"7794804"},{"town":"井川町井関","koaza":"","lat":34.023918,"lng":133.877194,"zip":"7794802"},{"town":"井川町岩風呂","koaza":"","lat":34.031322,"lng":133.893616,"zip":"7780000"},{"town":"井川町大佐古","koaza":"","lat":34.023273,"lng":133.892577,"zip":"7794801"},{"town":"井川町岡野前","koaza":"","lat":34.026678,"lng":133.875304,"zip":"7794802"},{"town":"井川町片山","koaza":"","lat":34.027248,"lng":133.884263,"zip":"7794801"},{"town":"井川町御領田","koaza":"","lat":34.031101,"lng":133.874723,"zip":"7794802"},{"town":"井川町才長谷","koaza":"","lat":34.033201,"lng":133.890161,"zip":"7794801"},{"town":"井川町里川","koaza":"","lat":34.00651,"lng":133.845019,"zip":"7794807"},{"town":"井川町島","koaza":"","lat":34.033224,"lng":133.864484,"zip":"7794803"},{"town":"井川町タクミ田","koaza":"","lat":34.03125,"lng":133.867309,"zip":"7794803"},{"town":"井川町田中","koaza":"","lat":34.025724,"lng":133.861796,"zip":"7794803"},{"town":"井川町辻","koaza":"","lat":34.029334,"lng":133.87982,"zip":"7794801"},{"town":"井川町中岡","koaza":"","lat":34.027015,"lng":133.860312,"zip":"7794803"},{"town":"井川町西井川","koaza":"","lat":34.024945,"lng":133.843008,"zip":"7794806"},{"town":"井川町野津後","koaza":"","lat":34.027239,"lng":133.871001,"zip":"7794802"},{"town":"井川町野津後流","koaza":"","lat":34.032064,"lng":133.869498,"zip":"7794803"},{"town":"井川町八幡","koaza":"","lat":34.030858,"lng":133.861308,"zip":"7794803"},{"town":"井川町向坂","koaza":"","lat":34.024108,"lng":133.882493,"zip":"7794802"},{"town":"井川町吉岡","koaza":"","lat":34.026034,"lng":133.863935,"zip":"7794803"},{"town":"池田町イケミナミ","koaza":"","lat":34.024693,"lng":133.801436,"zip":"7780012"},{"town":"池田町イタノ","koaza":"","lat":34.024638,"lng":133.787792,"zip":"7780014"},{"town":"池田町ウヱノ","koaza":"","lat":34.030648,"lng":133.799974,"zip":"7780000"},{"town":"池田町ウヱマツ","koaza":"","lat":34.021771,"lng":133.809393,"zip":"7780000"},{"town":"池田町馬路","koaza":"","lat":34.01466,"lng":133.742541,"zip":"7785252"},{"town":"池田町ヲウトウ","koaza":"","lat":34.021278,"lng":133.804592,"zip":"7780000"},{"town":"池田町大利","koaza":"","lat":33.974832,"lng":133.812185,"zip":"7795164"},{"town":"池田町川崎","koaza":"","lat":33.943056,"lng":133.78329,"zip":"7795166"},{"town":"池田町クヤウジ","koaza":"","lat":34.022573,"lng":133.82351,"zip":"7780008"},{"town":"池田町佐野","koaza":"","lat":34.003744,"lng":133.703568,"zip":"7785253"},{"town":"池田町サラダ","koaza":"","lat":34.027272,"lng":133.808756,"zip":"7780003"},{"town":"池田町漆川","koaza":"","lat":33.980297,"lng":133.846825,"zip":"7795162"},{"town":"池田町シマ","koaza":"","lat":34.028746,"lng":133.817567,"zip":"7780005"},{"town":"池田町州津","koaza":"","lat":34.042694,"lng":133.84447,"zip":"7780020"},{"town":"池田町シンマチ","koaza":"","lat":34.025087,"lng":133.807643,"zip":"7780004"},{"town":"池田町シンヤマ","koaza":"","lat":34.022996,"lng":133.795965,"zip":"7780013"},{"town":"池田町トウゲ","koaza":"","lat":34.02655,"lng":133.827562,"zip":"7780006"},{"town":"池田町トウリン","koaza":"","lat":34.022032,"lng":133.818698,"zip":"7780000"},{"town":"池田町中津川","koaza":"","lat":33.982805,"lng":133.8237,"zip":"7795163"},{"town":"池田町中西","koaza":"","lat":34.005908,"lng":133.7965,"zip":"7795161"},{"town":"池田町西山","koaza":"","lat":34.055692,"lng":133.810934,"zip":"7780031"},{"town":"池田町白地","koaza":"","lat":34.030268,"lng":133.773755,"zip":"7785251"},{"town":"池田町ハヤシ","koaza":"","lat":34.023338,"lng":133.813238,"zip":"7780011"},{"town":"池田町マチ","koaza":"","lat":34.02884,"lng":133.80609,"zip":"7780002"},{"town":"池田町松尾","koaza":"","lat":33.94449,"lng":133.83709,"zip":"7780165"},{"town":"池田町ヤサン","koaza":"","lat":34.014991,"lng":133.813278,"zip":"7780009"},{"town":"池田町ヤマダ","koaza":"","lat":34.026235,"lng":133.822592,"zip":"7780007"},{"town":"西祖谷山村有瀬","koaza":"","lat":33.849663,"lng":133.806445,"zip":"7780103"},{"town":"西祖谷山村一宇","koaza":"","lat":33.896674,"lng":133.823041,"zip":"7780101"},{"town":"西祖谷山村今久保","koaza":"","lat":33.867478,"lng":133.822898,"zip":"7780102"},{"town":"西祖谷山村後山","koaza":"","lat":33.889522,"lng":133.789596,"zip":"7780105"},{"town":"西祖谷山村後山西","koaza":"","lat":33.895562,"lng":133.786383,"zip":"7780105"},{"town":"西祖谷山村後山向","koaza":"","lat":33.882193,"lng":133.78791,"zip":"7780105"},{"town":"西祖谷山村榎","koaza":"","lat":33.869538,"lng":133.777094,"zip":"7780104"},{"town":"西祖谷山村尾井ノ内","koaza":"","lat":33.888438,"lng":133.798824,"zip":"7780101"},{"town":"西祖谷山村小祖谷","koaza":"","lat":33.953701,"lng":133.895381,"zip":"7795172"},{"town":"西祖谷山村上吾橋","koaza":"","lat":33.871634,"lng":133.788334,"zip":"7780104"},{"town":"西祖谷山村閑定","koaza":"","lat":33.87784,"lng":133.844584,"zip":"7780102"},{"town":"西祖谷山村北浦山","koaza":"","lat":33.879608,"lng":133.800053,"zip":"7780000"},{"town":"西祖谷山村坂瀬","koaza":"","lat":33.936387,"lng":133.911608,"zip":"7795173"},{"town":"西祖谷山村重末","koaza":"","lat":33.871421,"lng":133.809419,"zip":"7780101"},{"town":"西祖谷山村下吾橋","koaza":"","lat":33.868103,"lng":133.788777,"zip":"7780104"},{"town":"西祖谷山村下名","koaza":"","lat":33.92855,"lng":133.875365,"zip":"7795171"},{"town":"西祖谷山村新道","koaza":"","lat":33.911886,"lng":133.771663,"zip":"7780000"},{"town":"西祖谷山村善徳","koaza":"","lat":33.895093,"lng":133.845045,"zip":"7780102"},{"town":"西祖谷山村田ノ内","koaza":"","lat":33.921406,"lng":133.806672,"zip":"7780101"},{"town":"西祖谷山村土日浦","koaza":"","lat":33.861315,"lng":133.786907,"zip":"7780104"},{"town":"西祖谷山村徳善","koaza":"","lat":33.882199,"lng":133.771646,"zip":"7780105"},{"town":"西祖谷山村徳善北","koaza":"","lat":33.886617,"lng":133.76916,"zip":"7780105"},{"town":"西祖谷山村徳善西","koaza":"","lat":33.884875,"lng":133.763674,"zip":"7780105"},{"town":"西祖谷山村戸ノ谷","koaza":"","lat":33.896506,"lng":133.805795,"zip":"7780101"},{"town":"西祖谷山村中尾","koaza":"","lat":33.86627,"lng":133.840704,"zip":"7780102"},{"town":"西祖谷山村西岡","koaza":"","lat":33.891863,"lng":133.776171,"zip":"7780105"},{"town":"西祖谷山村西岡向","koaza":"","lat":33.879054,"lng":133.781903,"zip":"7780000"},{"town":"西祖谷山村東西岡","koaza":"","lat":33.888314,"lng":133.779217,"zip":"7780105"},{"town":"西祖谷山村東山","koaza":"","lat":33.871398,"lng":133.799879,"zip":"7780104"},{"town":"西祖谷山村ふしろ山","koaza":"","lat":33.899748,"lng":133.767189,"zip":"7780000"},{"town":"西祖谷山村南山","koaza":"","lat":33.864871,"lng":133.798351,"zip":"7780104"},{"town":"西祖谷山村冥地","koaza":"","lat":33.883113,"lng":133.816871,"zip":"7780101"},{"town":"東祖谷阿佐","koaza":"","lat":33.848433,"lng":133.905951,"zip":"7780205"},{"town":"東祖谷今井","koaza":"","lat":33.878501,"lng":133.857302,"zip":"7780206"},{"town":"東祖谷大枝","koaza":"","lat":33.869076,"lng":133.895088,"zip":"7780204"},{"town":"東祖谷大西","koaza":"","lat":33.865887,"lng":133.887096,"zip":"7780204"},{"town":"東祖谷小川","koaza":"","lat":33.84256,"lng":133.890637,"zip":"7780205"},{"town":"東祖谷奥ノ井","koaza":"","lat":33.88035,"lng":133.917692,"zip":"7780000"},{"town":"東祖谷小島","koaza":"","lat":33.889961,"lng":133.881485,"zip":"7780206"},{"town":"東祖谷落合","koaza":"","lat":33.926082,"lng":133.951089,"zip":"7780202"},{"town":"東祖谷樫尾","koaza":"","lat":33.831054,"lng":133.880259,"zip":"7780205"},{"town":"東祖谷釜ケ谷","koaza":"","lat":33.863599,"lng":133.923857,"zip":"7780203"},{"town":"東祖谷京上","koaza":"","lat":33.870877,"lng":133.905274,"zip":"7780204"},{"town":"東祖谷九鬼","koaza":"","lat":33.873303,"lng":133.936273,"zip":"7780203"},{"town":"東祖谷久保","koaza":"","lat":33.856479,"lng":133.960327,"zip":"7780202"},{"town":"東祖谷栗枝渡","koaza":"","lat":33.882546,"lng":133.924391,"zip":"7780203"},{"town":"東祖谷古味","koaza":"","lat":33.838566,"lng":133.898774,"zip":"7780205"},{"town":"東祖谷下瀬","koaza":"","lat":33.877316,"lng":133.920643,"zip":"7780203"},{"town":"東祖谷菅生","koaza":"","lat":33.87218,"lng":134.005909,"zip":"7780201"},{"town":"東祖谷高野","koaza":"","lat":33.889755,"lng":133.859015,"zip":"7780206"},{"town":"東祖谷釣井","koaza":"","lat":33.865175,"lng":133.86344,"zip":"7780206"},{"town":"東祖谷中上","koaza":"","lat":33.878092,"lng":133.928883,"zip":"7780203"},{"town":"東祖谷新居屋","koaza":"","lat":33.853005,"lng":133.890059,"zip":"7780205"},{"town":"東祖谷西山","koaza":"","lat":33.84797,"lng":133.937182,"zip":"7780203"},{"town":"東祖谷林","koaza":"","lat":33.861729,"lng":133.911345,"zip":"7780203"},{"town":"東祖谷麦生土","koaza":"","lat":33.855966,"lng":133.902433,"zip":"7780205"},{"town":"東祖谷元井","koaza":"","lat":33.852356,"lng":133.856139,"zip":"7780205"},{"town":"東祖谷若林","koaza":"","lat":33.860449,"lng":133.895248,"zip":"7780204"},{"town":"東祖谷和田","koaza":"","lat":33.869636,"lng":133.875994,"zip":"7780206"},{"town":"三野町加茂野宮","koaza":"","lat":34.051388,"lng":133.989092,"zip":"7712302"},{"town":"三野町芝生","koaza":"","lat":34.04597,"lng":133.969154,"zip":"7712304"},{"town":"三野町清水","koaza":"","lat":34.049684,"lng":133.997224,"zip":"7712301"},{"town":"三野町勢力","koaza":"","lat":34.048238,"lng":133.978914,"zip":"7712303"},{"town":"三野町太刀野","koaza":"","lat":34.046006,"lng":133.95312,"zip":"7712305"},{"town":"三野町太刀野山","koaza":"","lat":34.08178,"lng":133.934924,"zip":"7712306"},{"town":"山城町相川","koaza":"","lat":33.98376,"lng":133.747351,"zip":"7795307"},{"town":"山城町赤谷","koaza":"","lat":33.941258,"lng":133.706756,"zip":"7795336"},{"town":"山城町粟山","koaza":"","lat":33.888036,"lng":133.689834,"zip":"7795328"},{"town":"山城町岩戸","koaza":"","lat":33.956829,"lng":133.740775,"zip":"7795314"},{"town":"山城町大川持","koaza":"","lat":33.964185,"lng":133.7522,"zip":"7795304"},{"town":"山城町大谷","koaza":"","lat":33.980082,"lng":133.708356,"zip":"7795342"},{"town":"山城町大月","koaza":"","lat":33.970685,"lng":133.709383,"zip":"7795347"},{"town":"山城町大野","koaza":"","lat":33.961857,"lng":133.708134,"zip":"7795333"},{"town":"山城町小川谷","koaza":"","lat":33.959371,"lng":133.697005,"zip":"7795332"},{"town":"山城町尾又","koaza":"","lat":33.927254,"lng":133.695348,"zip":"7795327"},{"town":"山城町上名","koaza":"","lat":33.871502,"lng":133.7514,"zip":"7795452"},{"town":"山城町国政","koaza":"","lat":33.951511,"lng":133.761071,"zip":"7795321"},{"town":"山城町黒川","koaza":"","lat":33.963104,"lng":133.733083,"zip":"7795313"},{"town":"山城町佐連","koaza":"","lat":33.975626,"lng":133.691597,"zip":"7785254"},{"town":"山城町重実","koaza":"","lat":33.941519,"lng":133.751055,"zip":"7795422"},{"town":"山城町柴川","koaza":"","lat":33.98382,"lng":133.724846,"zip":"7795343"},{"town":"山城町下川","koaza":"","lat":33.982832,"lng":133.780323,"zip":"7795303"},{"town":"山城町下名","koaza":"","lat":33.856376,"lng":133.763732,"zip":"7795453"},{"town":"山城町白川","koaza":"","lat":33.935559,"lng":133.732062,"zip":"7795324"},{"town":"山城町末貞","koaza":"","lat":33.955266,"lng":133.753372,"zip":"7795316"},{"town":"山城町瀬貝","koaza":"","lat":33.976828,"lng":133.719387,"zip":"7795345"},{"town":"山城町平野","koaza":"","lat":33.938216,"lng":133.687567,"zip":"7795337"},{"town":"山城町寺野","koaza":"","lat":33.973607,"lng":133.749796,"zip":"7795306"},{"town":"山城町中野","koaza":"","lat":33.94121,"lng":133.739786,"zip":"7795323"},{"town":"山城町西宇","koaza":"","lat":33.916798,"lng":133.748266,"zip":"7795451"},{"town":"山城町信正","koaza":"","lat":33.959752,"lng":133.720007,"zip":"7795334"},{"town":"山城町八千坊","koaza":"","lat":33.966802,"lng":133.728483,"zip":"7795312"},{"town":"山城町引地","koaza":"","lat":33.958218,"lng":133.750592,"zip":"7795315"},{"town":"山城町仏子","koaza":"","lat":33.923173,"lng":133.713292,"zip":"7795326"},{"town":"山城町政友","koaza":"","lat":33.973556,"lng":133.735876,"zip":"7795344"},{"town":"山城町光兼","koaza":"","lat":33.92796,"lng":133.721665,"zip":"7795325"},{"town":"山城町茂地","koaza":"","lat":33.964876,"lng":133.692993,"zip":"7795331"},{"town":"山城町大和川","koaza":"","lat":33.990167,"lng":133.76859,"zip":"7795301"},{"town":"山城町頼広","koaza":"","lat":33.948779,"lng":133.720867,"zip":"7795335"},{"town":"山城町若山","koaza":"","lat":33.990472,"lng":133.779262,"zip":"7795302"},{"town":"山城町脇","koaza":"","lat":33.968362,"lng":133.719978,"zip":"7795346"},{"town":"池田町白地","koaza":"本名","lat":34.009165,"lng":133.781477,"zip":"7785251"},{"town":"池田町中西","koaza":"サコダ","lat":34.009674,"lng":133.786798,"zip":"7795161"},{"town":"池田町中西","koaza":"西原","lat":34.009267,"lng":133.785704,"zip":"7795161"},{"town":"池田町中西","koaza":"ナガウチ","lat":34.00639,"lng":133.787239,"zip":"7795161"},{"town":"池田町中西","koaza":"フナト","lat":34.017702,"lng":133.786818,"zip":"7795161"},{"town":"池田町中西","koaza":"マガリタ","lat":34.012437,"lng":133.786133,"zip":"7795161"},{"town":"池田町中西","koaza":"ナガタ","lat":34.013601,"lng":133.786522,"zip":"7795161"},{"town":"池田町中西","koaza":"丸畠","lat":34.014709,"lng":133.787392,"zip":"7795161"},{"town":"池田町中西","koaza":"道ノ上","lat":34.011512,"lng":133.787152,"zip":"7795161"},{"town":"池田町中西","koaza":"ナガノ","lat":34.003621,"lng":133.788415,"zip":"7795161"},{"town":"池田町中西","koaza":"シバツク","lat":34.013695,"lng":133.787283,"zip":"7795161"},{"town":"池田町中西","koaza":"フロノタニ","lat":34.006835,"lng":133.789294,"zip":"7795161"},{"town":"池田町中西","koaza":"テンジン","lat":34.001656,"lng":133.790754,"zip":"7795161"},{"town":"池田町中西","koaza":"土井","lat":34.002854,"lng":133.790728,"zip":"7795161"},{"town":"池田町中西","koaza":"イバ","lat":33.998605,"lng":133.791082,"zip":"7795161"},{"town":"池田町中西","koaza":"ホリ","lat":34.005138,"lng":133.790895,"zip":"7795161"},{"town":"池田町中西","koaza":"コヤシキ","lat":34.003661,"lng":133.791201,"zip":"7795161"},{"town":"池田町中西","koaza":"タテイシ","lat":34.004987,"lng":133.792311,"zip":"7795161"},{"town":"池田町中西","koaza":"フジグロ","lat":34.008568,"lng":133.792523,"zip":"7795161"},{"town":"池田町中西","koaza":"ヒサゲ","lat":33.999453,"lng":133.795419,"zip":"7795161"},{"town":"池田町中西","koaza":"フルトノ","lat":34.002115,"lng":133.791347,"zip":"7795161"},{"town":"池田町中西","koaza":"ナシノキ","lat":33.996802,"lng":133.792228,"zip":"7795161"},{"town":"池田町中西","koaza":"タケノウチ","lat":34.00155,"lng":133.791965,"zip":"7795161"},{"town":"池田町中西","koaza":"サルガワ","lat":34.001683,"lng":133.793145,"zip":"7795161"},{"town":"池田町州津","koaza":"中津","lat":34.032716,"lng":133.823368,"zip":"7780020"},{"town":"池田町州津","koaza":"西端","lat":34.03463,"lng":133.830304,"zip":"7780020"},{"town":"池田町州津","koaza":"乳ノ木","lat":34.035789,"lng":133.833928,"zip":"7780020"},{"town":"池田町州津","koaza":"坂口","lat":34.036116,"lng":133.83314,"zip":"7780020"},{"town":"池田町州津","koaza":"井関","lat":34.037283,"lng":133.836762,"zip":"7780020"},{"town":"池田町州津","koaza":"滝端","lat":34.036394,"lng":133.83568,"zip":"7780020"},{"town":"池田町州津","koaza":"西ノ久保","lat":34.036245,"lng":133.839858,"zip":"7780020"},{"town":"池田町州津","koaza":"藤ノ井","lat":34.038559,"lng":133.843435,"zip":"7780020"},{"town":"池田町州津","koaza":"蔵谷","lat":34.044414,"lng":133.841228,"zip":"7780020"},{"town":"池田町州津","koaza":"堂面","lat":34.03563,"lng":133.84322,"zip":"7780020"},{"town":"池田町州津","koaza":"大深田","lat":34.038707,"lng":133.846647,"zip":"7780020"},{"town":"池田町州津","koaza":"大佐古","lat":34.042301,"lng":133.847136,"zip":"7780020"},{"town":"池田町州津","koaza":"片山","lat":34.037405,"lng":133.849126,"zip":"7780020"},{"town":"池田町州津","koaza":"宮ノ久保","lat":34.041275,"lng":133.851699,"zip":"7780020"},{"town":"池田町州津","koaza":"雛田","lat":34.03793,"lng":133.852528,"zip":"7780020"}]