[{"town":"鴨島町粟島","koaza":"","lat":34.072038,"lng":134.331353,"zip":"7760015"},{"town":"鴨島町飯尾","koaza":"","lat":34.052439,"lng":134.354537,"zip":"7760033"},{"town":"鴨島町牛島","koaza":"","lat":34.081502,"lng":134.387529,"zip":"7760001"},{"town":"鴨島町内原","koaza":"","lat":34.069726,"lng":134.36866,"zip":"7760003"},{"town":"鴨島町麻植塚","koaza":"","lat":34.070584,"lng":134.379189,"zip":"7760002"},{"town":"鴨島町上浦","koaza":"","lat":34.063073,"lng":134.395865,"zip":"7760037"},{"town":"鴨島町鴨島","koaza":"","lat":34.070982,"lng":134.35553,"zip":"7760010"},{"town":"鴨島町喜来","koaza":"","lat":34.075624,"lng":134.365588,"zip":"7760005"},{"town":"鴨島町山路","koaza":"","lat":34.053759,"lng":134.382369,"zip":"7760036"},{"town":"鴨島町敷地","koaza":"","lat":34.0475,"lng":134.341155,"zip":"7760031"},{"town":"鴨島町上下島","koaza":"","lat":34.068612,"lng":134.349686,"zip":"7760013"},{"town":"鴨島町知恵島","koaza":"","lat":34.079423,"lng":134.347819,"zip":"7760014"},{"town":"鴨島町中島","koaza":"","lat":34.066051,"lng":134.367242,"zip":"7760004"},{"town":"鴨島町西麻植","koaza":"","lat":34.066853,"lng":134.33813,"zip":"7760020"},{"town":"鴨島町樋山地","koaza":"","lat":34.039893,"lng":134.336663,"zip":"7760032"},{"town":"鴨島町森藤","koaza":"","lat":34.04609,"lng":134.365626,"zip":"7760035"},{"town":"川島町学","koaza":"","lat":34.05505,"lng":134.283847,"zip":"7793306"},{"town":"川島町川島","koaza":"","lat":34.065097,"lng":134.321837,"zip":"7793301"},{"town":"川島町桑村","koaza":"","lat":34.055754,"lng":134.313476,"zip":"7793303"},{"town":"川島町児島","koaza":"","lat":34.060325,"lng":134.289064,"zip":"7793305"},{"town":"川島町三ツ島","koaza":"","lat":34.062521,"lng":134.277421,"zip":"7793307"},{"town":"川島町宮島","koaza":"","lat":34.061552,"lng":134.315911,"zip":"7793304"},{"town":"川島町山田","koaza":"","lat":34.050131,"lng":134.331964,"zip":"7793302"},{"town":"美郷","koaza":"","lat":34.01411,"lng":134.28755,"zip":"7793501"},{"town":"山川町青木","koaza":"","lat":34.052944,"lng":134.242233,"zip":"7793407"},{"town":"山川町赤岩","koaza":"","lat":34.042583,"lng":134.245519,"zip":"7793407"},{"town":"山川町赤刎","koaza":"","lat":34.054295,"lng":134.205818,"zip":"7793405"},{"town":"山川町朝日","koaza":"","lat":34.045951,"lng":134.239943,"zip":"7793407"},{"town":"山川町安楽寺","koaza":"","lat":34.056203,"lng":134.245599,"zip":"7793407"},{"town":"山川町石堂","koaza":"","lat":34.040557,"lng":134.231257,"zip":"7793401"},{"town":"山川町伊瑞穂","koaza":"","lat":34.039436,"lng":134.200599,"zip":"7760000"},{"town":"山川町市久保","koaza":"","lat":34.063153,"lng":134.209396,"zip":"7793404"},{"town":"山川町一里塚","koaza":"","lat":34.063029,"lng":134.189943,"zip":"7793404"},{"town":"山川町井上","koaza":"","lat":34.041041,"lng":134.223204,"zip":"7793405"},{"town":"山川町井傍","koaza":"","lat":34.053659,"lng":134.207294,"zip":"7793405"},{"town":"山川町忌部","koaza":"","lat":34.059762,"lng":134.267303,"zip":"7793402"},{"town":"山川町川田忌部山","koaza":"","lat":34.05497,"lng":134.194378,"zip":"7760000"},{"town":"山川町忌部山","koaza":"","lat":34.051316,"lng":134.268636,"zip":"7793402"},{"town":"山川町岩戸","koaza":"","lat":34.057604,"lng":134.265656,"zip":"7793402"},{"town":"山川町牛ノ子尾","koaza":"","lat":34.040483,"lng":134.205215,"zip":"7793405"},{"town":"山川町浦山","koaza":"","lat":34.047726,"lng":134.260284,"zip":"7793407"},{"town":"山川町恵下","koaza":"","lat":34.039044,"lng":134.229897,"zip":"7793401"},{"town":"山川町榎谷","koaza":"","lat":34.015187,"lng":134.225822,"zip":"7793406"},{"town":"山川町大内","koaza":"","lat":34.026557,"lng":134.214685,"zip":"7793406"},{"town":"山川町大塚","koaza":"","lat":34.06199,"lng":134.229051,"zip":"7793404"},{"town":"山川町大藤谷","koaza":"","lat":34.051064,"lng":134.193667,"zip":"7793405"},{"town":"山川町大峯","koaza":"","lat":34.047828,"lng":134.210231,"zip":"7760000"},{"town":"山川町大室","koaza":"","lat":34.036234,"lng":134.212884,"zip":"7793405"},{"town":"山川町麻掛","koaza":"","lat":34.058917,"lng":134.193229,"zip":"7793404"},{"town":"山川町翁喜台","koaza":"","lat":34.05223,"lng":134.228989,"zip":"7793401"},{"town":"山川町奥川田","koaza":"","lat":34.038495,"lng":134.227079,"zip":"7793406"},{"town":"山川町奥野井","koaza":"","lat":34.004621,"lng":134.202514,"zip":"7793406"},{"town":"山川町奥原","koaza":"","lat":34.042514,"lng":134.21652,"zip":"7793405"},{"town":"山川町皆瀬","koaza":"","lat":34.022231,"lng":134.238432,"zip":"7793406"},{"town":"山川町槻原","koaza":"","lat":34.063573,"lng":134.203358,"zip":"7793404"},{"town":"山川町柿木谷","koaza":"","lat":34.050083,"lng":134.207219,"zip":"7793405"},{"town":"山川町楮本","koaza":"","lat":34.048362,"lng":134.197464,"zip":"7793405"},{"town":"山川町春日","koaza":"","lat":34.064478,"lng":134.232384,"zip":"7793403"},{"town":"山川町片岸","koaza":"","lat":34.053494,"lng":134.220878,"zip":"7793405"},{"town":"山川町川田","koaza":"","lat":34.061248,"lng":134.218831,"zip":"7793404"},{"town":"山川町川田赤岩","koaza":"","lat":34.042348,"lng":134.243032,"zip":"7760000"},{"town":"山川町川田市","koaza":"","lat":34.063402,"lng":134.207182,"zip":"7793404"},{"town":"山川町川田北島","koaza":"","lat":34.062008,"lng":134.224607,"zip":"7760000"},{"town":"山川町川田天神","koaza":"","lat":34.058196,"lng":134.219283,"zip":"7793404"},{"town":"山川町川田八幡","koaza":"","lat":34.046502,"lng":134.218146,"zip":"7793405"},{"town":"山川町川東","koaza":"","lat":34.044348,"lng":134.229494,"zip":"7793401"},{"town":"山川町祇園","koaza":"","lat":34.057859,"lng":134.249328,"zip":"7760000"},{"town":"山川町北島","koaza":"","lat":34.060411,"lng":134.230755,"zip":"7793404"},{"town":"山川町北須賀","koaza":"","lat":34.065606,"lng":134.255104,"zip":"7793403"},{"town":"山川町木戸口","koaza":"","lat":34.047249,"lng":134.19479,"zip":"7793405"},{"town":"山川町楠根地","koaza":"","lat":34.017216,"lng":134.21057,"zip":"7793406"},{"town":"山川町雲宮","koaza":"","lat":34.058047,"lng":134.258927,"zip":"7793402"},{"town":"山川町黒岩","koaza":"","lat":34.044298,"lng":134.20474,"zip":"7793405"},{"town":"山川町桑内","koaza":"","lat":34.021211,"lng":134.245539,"zip":"7793406"},{"town":"山川町桑ノ峯","koaza":"","lat":34.052551,"lng":134.21509,"zip":"7760000"},{"town":"山川町高頭","koaza":"","lat":34.049561,"lng":134.203122,"zip":"7793405"},{"town":"山川町御饌免","koaza":"","lat":34.045162,"lng":134.221485,"zip":"7793405"},{"town":"山川町御旅館","koaza":"","lat":34.048876,"lng":134.20058,"zip":"7793405"},{"town":"山川町権現谷","koaza":"","lat":34.054217,"lng":134.212424,"zip":"7793405"},{"town":"山川町境谷","koaza":"","lat":34.049192,"lng":134.243318,"zip":"7793407"},{"town":"山川町坂口","koaza":"","lat":34.054186,"lng":134.211174,"zip":"7793405"},{"town":"山川町坂田","koaza":"","lat":34.053739,"lng":134.251029,"zip":"7793407"},{"town":"山川町貞田","koaza":"","lat":34.056056,"lng":134.204129,"zip":"7793405"},{"town":"山川町小路","koaza":"","lat":34.044729,"lng":134.199752,"zip":"7793405"},{"town":"山川町新田谷","koaza":"","lat":34.047069,"lng":134.242913,"zip":"7793407"},{"town":"山川町季邦","koaza":"","lat":34.052392,"lng":134.234665,"zip":"7793407"},{"town":"山川町住吉","koaza":"","lat":34.049056,"lng":134.231442,"zip":"7793401"},{"town":"山川町諏訪","koaza":"","lat":34.064945,"lng":134.249489,"zip":"7793403"},{"town":"山川町瀬津","koaza":"","lat":34.057253,"lng":134.211326,"zip":"7793405"},{"town":"山川町建石","koaza":"","lat":34.047605,"lng":134.228049,"zip":"7793401"},{"town":"山川町田ノ浦","koaza":"","lat":34.043724,"lng":134.216467,"zip":"7793405"},{"town":"山川町塚穴","koaza":"","lat":34.051443,"lng":134.212504,"zip":"7793405"},{"town":"山川町土仏西向","koaza":"","lat":34.046778,"lng":134.213137,"zip":"7793405"},{"town":"山川町鼓山","koaza":"","lat":34.061606,"lng":134.192529,"zip":"7793404"},{"town":"山川町津由谷","koaza":"","lat":34.040426,"lng":134.239959,"zip":"7793407"},{"town":"山川町堤外","koaza":"","lat":34.064728,"lng":134.261941,"zip":"7793403"},{"town":"山川町堤内","koaza":"","lat":34.061448,"lng":134.256746,"zip":"7793402"},{"town":"山川町天王原","koaza":"","lat":34.050391,"lng":134.218668,"zip":"7793405"},{"town":"山川町天神","koaza":"","lat":34.062511,"lng":134.269057,"zip":"7793402"},{"town":"山川町天神佐古","koaza":"","lat":34.054774,"lng":134.21699,"zip":"7793405"},{"town":"山川町土橋","koaza":"","lat":34.055615,"lng":134.220178,"zip":"7793405"},{"town":"山川町土橋ノ上","koaza":"","lat":34.054486,"lng":134.213796,"zip":"7793405"},{"town":"山川町中須賀","koaza":"","lat":34.063009,"lng":134.266054,"zip":"7793402"},{"town":"山川町中ノ郷","koaza":"","lat":34.028407,"lng":134.207571,"zip":"7793405"},{"town":"山川町流","koaza":"","lat":34.057138,"lng":134.259519,"zip":"7793402"},{"town":"山川町鍋倉","koaza":"","lat":34.036807,"lng":134.201713,"zip":"7793405"},{"town":"山川町西久保","koaza":"","lat":34.059925,"lng":134.255669,"zip":"7793402"},{"town":"山川町西ノ原","koaza":"","lat":34.049528,"lng":134.23439,"zip":"7793407"},{"town":"山川町西野峯","koaza":"","lat":34.002385,"lng":134.23453,"zip":"7760000"},{"town":"山川町西麓","koaza":"","lat":34.05675,"lng":134.253692,"zip":"7793402"},{"town":"山川町野宮谷","koaza":"","lat":34.052884,"lng":134.209181,"zip":"7793405"},{"town":"山川町旗見","koaza":"","lat":34.036279,"lng":134.234158,"zip":"7793407"},{"town":"山川町八ヶ久保","koaza":"","lat":34.049813,"lng":134.205232,"zip":"7760000"},{"town":"山川町八幡","koaza":"","lat":34.062854,"lng":134.241988,"zip":"7793403"},{"town":"山川町馬場崎","koaza":"","lat":34.047982,"lng":134.224951,"zip":"7760000"},{"town":"山川町榛木原","koaza":"","lat":34.052016,"lng":134.216673,"zip":"7793405"},{"town":"山川町東麓","koaza":"","lat":34.051351,"lng":134.260737,"zip":"7793402"},{"town":"山川町東麦原","koaza":"","lat":34.047181,"lng":134.237771,"zip":"7793407"},{"town":"山川町引地","koaza":"","lat":34.056556,"lng":134.200858,"zip":"7793404"},{"town":"山川町久宗","koaza":"","lat":34.033584,"lng":134.224146,"zip":"7793406"},{"town":"山川町日知利子","koaza":"","lat":34.054727,"lng":134.198688,"zip":"7793404"},{"town":"山川町一ツ石","koaza":"","lat":34.041106,"lng":134.210279,"zip":"7793405"},{"town":"山川町平山","koaza":"","lat":34.055031,"lng":134.209372,"zip":"7793405"},{"town":"山川町日鷲谷","koaza":"","lat":34.030656,"lng":134.203415,"zip":"7793405"},{"town":"山川町藤生","koaza":"","lat":34.059902,"lng":134.197961,"zip":"7793404"},{"town":"山川町舟戸","koaza":"","lat":34.063296,"lng":134.197475,"zip":"7793404"},{"town":"山川町古城","koaza":"","lat":34.053456,"lng":134.244616,"zip":"7793407"},{"town":"山川町町","koaza":"","lat":34.048384,"lng":134.223137,"zip":"7793401"},{"town":"山川町馬見尾","koaza":"","lat":34.025401,"lng":134.2318,"zip":"7793406"},{"town":"山川町丸山","koaza":"","lat":34.042638,"lng":134.23939,"zip":"7793407"},{"town":"山川町三島","koaza":"","lat":34.064738,"lng":134.239754,"zip":"7793403"},{"town":"山川町宮北","koaza":"","lat":34.062321,"lng":134.26124,"zip":"7793402"},{"town":"山川町宮地","koaza":"","lat":34.052422,"lng":134.238551,"zip":"7793407"},{"town":"山川町宮島","koaza":"","lat":34.059946,"lng":134.261461,"zip":"7793402"},{"town":"山川町宮谷","koaza":"","lat":34.044054,"lng":134.214215,"zip":"7793405"},{"town":"山川町迎坂","koaza":"","lat":34.032593,"lng":134.238531,"zip":"7793407"},{"town":"山川町麦原","koaza":"","lat":34.045401,"lng":134.234275,"zip":"7793407"},{"town":"山川町向坂","koaza":"","lat":34.034589,"lng":134.247579,"zip":"7793407"},{"town":"山川町向原","koaza":"","lat":34.065251,"lng":134.212076,"zip":"7760000"},{"town":"山川町村雲","koaza":"","lat":34.056144,"lng":134.224422,"zip":"7793405"},{"town":"山川町茂草","koaza":"","lat":34.053254,"lng":134.202886,"zip":"7793405"},{"town":"山川町矢落","koaza":"","lat":34.043922,"lng":134.209813,"zip":"7793405"},{"town":"山川町山路","koaza":"","lat":34.057558,"lng":134.256188,"zip":"7793402"},{"town":"山川町山ノ神","koaza":"","lat":34.041018,"lng":134.234583,"zip":"7793407"},{"town":"山川町木綿麻山","koaza":"","lat":34.017348,"lng":134.193511,"zip":"7793405"},{"town":"山川町湯立","koaza":"","lat":34.057475,"lng":134.231133,"zip":"7793404"},{"town":"山川町横走","koaza":"","lat":34.037825,"lng":134.238409,"zip":"7793407"},{"town":"山川町若宮","koaza":"","lat":34.062122,"lng":134.245778,"zip":"7793403"},{"town":"山川町大須賀","koaza":"","lat":34.061523,"lng":134.233664,"zip":"7793404"},{"town":"山川町前川","koaza":"","lat":34.05943,"lng":134.24155,"zip":"7793403"},{"town":"鴨島町西麻植","koaza":"新田","lat":34.067821,"lng":134.33076,"zip":"7760020"},{"town":"鴨島町西麻植","koaza":"東禅寺","lat":34.065738,"lng":134.331285,"zip":"7760020"},{"town":"鴨島町西麻植","koaza":"麻植市","lat":34.069973,"lng":134.335082,"zip":"7760020"},{"town":"鴨島町西麻植","koaza":"田渕","lat":34.065261,"lng":134.336765,"zip":"7760020"},{"town":"鴨島町西麻植","koaza":"絵馬堂","lat":34.068626,"lng":134.33694,"zip":"7760020"},{"town":"鴨島町西麻植","koaza":"檀ノ原","lat":34.063661,"lng":134.337542,"zip":"7760020"},{"town":"川島町山田","koaza":"大塚","lat":34.053324,"lng":134.336838,"zip":"7793302"},{"town":"鴨島町西麻植","koaza":"中筋","lat":34.064942,"lng":134.343394,"zip":"7760020"},{"town":"鴨島町西麻植","koaza":"江川","lat":34.072127,"lng":134.344653,"zip":"7760020"},{"town":"鴨島町西麻植","koaza":"広畑","lat":34.069046,"lng":134.343317,"zip":"7760020"},{"town":"鴨島町西麻植","koaza":"青柳添番外","lat":34.074733,"lng":134.343437,"zip":"7760020"},{"town":"鴨島町西麻植","koaza":"西開","lat":34.070426,"lng":134.344316,"zip":"7760020"},{"town":"鴨島町西麻植","koaza":"大東","lat":34.065867,"lng":134.34635,"zip":"7760020"},{"town":"鴨島町西麻植","koaza":"青柳","lat":34.075733,"lng":134.346811,"zip":"7760020"},{"town":"鴨島町上下島","koaza":"呉島","lat":34.06908,"lng":134.34684,"zip":"7760013"},{"town":"鴨島町鴨島","koaza":"甲","lat":34.075432,"lng":134.353457,"zip":"7760010"},{"town":"鴨島町上下島","koaza":"松元","lat":34.069306,"lng":134.350994,"zip":"7760013"},{"town":"鴨島町中島","koaza":"大止","lat":34.069881,"lng":134.363037,"zip":"7760004"},{"town":"鴨島町麻植塚","koaza":"堂床南","lat":34.071184,"lng":134.377428,"zip":"7760002"},{"town":"鴨島町牛島","koaza":"四ツ屋","lat":34.082535,"lng":134.380826,"zip":"7760001"},{"town":"鴨島町麻植塚","koaza":"向麻山北","lat":34.070863,"lng":134.380196,"zip":"7760002"},{"town":"鴨島町牛島","koaza":"小原前","lat":34.072414,"lng":134.385684,"zip":"7760001"},{"town":"鴨島町牛島","koaza":"先須賀","lat":34.08569,"lng":134.392163,"zip":"7760001"}]