[{"town":"間新田町","koaza":"","lat":33.989727,"lng":134.642411,"zip":"7730024"},{"town":"赤石町","koaza":"","lat":33.982217,"lng":134.610531,"zip":"7730021"},{"town":"江田町","koaza":"","lat":34.020865,"lng":134.561284,"zip":"7730014"},{"town":"大林町","koaza":"","lat":33.97356,"lng":134.61655,"zip":"7730022"},{"town":"金磯町","koaza":"","lat":33.991943,"lng":134.603127,"zip":"7730007"},{"town":"神田瀬町","koaza":"","lat":34.008635,"lng":134.579676,"zip":"7730002"},{"town":"櫛渕町","koaza":"","lat":33.952821,"lng":134.584406,"zip":"7730000"},{"town":"小松島町","koaza":"","lat":34.012069,"lng":134.583757,"zip":"7730001"},{"town":"坂野町","koaza":"","lat":33.977943,"lng":134.63218,"zip":"7730023"},{"town":"芝生町","koaza":"","lat":33.993904,"lng":134.584303,"zip":"7730009"},{"town":"田浦町","koaza":"","lat":33.996233,"lng":134.554825,"zip":"7730012"},{"town":"立江町","koaza":"","lat":33.965855,"lng":134.600729,"zip":"7730017"},{"town":"田野町","koaza":"","lat":33.979236,"lng":134.584517,"zip":"7730008"},{"town":"中田町","koaza":"","lat":34.018106,"lng":134.581906,"zip":"7730015"},{"town":"豊浦町","koaza":"","lat":33.988491,"lng":134.614807,"zip":"7730019"},{"town":"中郷町","koaza":"","lat":34.010104,"lng":134.569344,"zip":"7730016"},{"town":"新居見町","koaza":"","lat":33.994601,"lng":134.566914,"zip":"7730011"},{"town":"日開野町","koaza":"","lat":34.000895,"lng":134.587191,"zip":"7730010"},{"town":"堀川町","koaza":"","lat":34.006533,"lng":134.582942,"zip":"7730004"},{"town":"前原町","koaza":"","lat":34.008767,"lng":134.559543,"zip":"7730013"},{"town":"松島町","koaza":"","lat":34.00806,"lng":134.584055,"zip":"7730003"},{"town":"南小松島町","koaza":"","lat":34.006509,"lng":134.588447,"zip":"7730005"},{"town":"横須町","koaza":"","lat":34.000583,"lng":134.594951,"zip":"7730006"},{"town":"和田島町","koaza":"","lat":33.998082,"lng":134.63915,"zip":"7730031"},{"town":"和田津開町","koaza":"","lat":33.984647,"lng":134.623683,"zip":"7730020"},{"town":"田浦町","koaza":"西原","lat":33.995279,"lng":134.552562,"zip":"7730012"},{"town":"田浦町","koaza":"中西","lat":33.99706,"lng":134.552627,"zip":"7730012"},{"town":"田浦町","koaza":"中村","lat":33.997848,"lng":134.555164,"zip":"7730012"},{"town":"田浦町","koaza":"東内","lat":33.993644,"lng":134.554495,"zip":"7730012"},{"town":"田浦町","koaza":"北原","lat":34.0031,"lng":134.553799,"zip":"7730012"},{"town":"田浦町","koaza":"矢三","lat":34.003391,"lng":134.554873,"zip":"7730012"},{"town":"田浦町","koaza":"泉川","lat":34.0053,"lng":134.557454,"zip":"7730012"},{"town":"前原町","koaza":"西","lat":34.006642,"lng":134.558157,"zip":"7730013"},{"town":"江田町","koaza":"敷地前","lat":34.018291,"lng":134.558325,"zip":"7730014"},{"town":"田浦町","koaza":"本村","lat":34.00114,"lng":134.557454,"zip":"7730012"},{"town":"田浦町","koaza":"今里","lat":34.002858,"lng":134.557997,"zip":"7730012"},{"town":"前原町","koaza":"川屋","lat":34.010281,"lng":134.558722,"zip":"7730013"},{"town":"前原町","koaza":"元村","lat":34.009543,"lng":134.559728,"zip":"7730013"},{"town":"田浦町","koaza":"大栗","lat":33.998432,"lng":134.561136,"zip":"7730012"},{"town":"江田町","koaza":"中道","lat":34.020207,"lng":134.560483,"zip":"7730014"},{"town":"前原町","koaza":"宮","lat":34.012425,"lng":134.560455,"zip":"7730013"},{"town":"田浦町","koaza":"妙蓮","lat":34.001883,"lng":134.560589,"zip":"7730012"},{"town":"前原町","koaza":"中川原","lat":34.011097,"lng":134.561122,"zip":"7730013"},{"town":"前原町","koaza":"開","lat":34.005069,"lng":134.561527,"zip":"7730013"},{"town":"前原町","koaza":"茶園","lat":34.007672,"lng":134.55989,"zip":"7730013"},{"town":"田浦町","koaza":"岩金","lat":34.000071,"lng":134.56432,"zip":"7730012"},{"town":"田浦町","koaza":"子安","lat":33.999351,"lng":134.561485,"zip":"7730012"},{"town":"江田町","koaza":"大江田","lat":34.014397,"lng":134.564293,"zip":"7730014"},{"town":"前原町","koaza":"福徳","lat":34.004084,"lng":134.561971,"zip":"7730013"},{"town":"櫛渕町","koaza":"萱原","lat":33.94559,"lng":134.575564,"zip":"7730000"},{"town":"新居見町","koaza":"山路","lat":33.996034,"lng":134.566615,"zip":"7730011"},{"town":"新居見町","koaza":"柳内","lat":33.998395,"lng":134.564679,"zip":"7730011"},{"town":"前原町","koaza":"弁財天","lat":34.007714,"lng":134.56292,"zip":"7730013"},{"town":"中郷町","koaza":"高田","lat":34.011289,"lng":134.56403,"zip":"7730016"},{"town":"前原町","koaza":"東","lat":34.012468,"lng":134.565479,"zip":"7730013"},{"town":"新居見町","koaza":"高内","lat":33.996486,"lng":134.564409,"zip":"7730011"},{"town":"前原町","koaza":"泉川","lat":34.006863,"lng":134.563372,"zip":"7730013"},{"town":"田浦町","koaza":"近里","lat":34.003359,"lng":134.566889,"zip":"7730012"},{"town":"新居見町","koaza":"西川","lat":33.999692,"lng":134.564707,"zip":"7730011"},{"town":"中郷町","koaza":"前田","lat":34.00673,"lng":134.566271,"zip":"7730016"},{"town":"江田町","koaza":"腰前","lat":34.017482,"lng":134.566392,"zip":"7730014"},{"town":"日開野町","koaza":"加々ミ松","lat":34.004572,"lng":134.566656,"zip":"7730010"},{"town":"新居見町","koaza":"蛭子","lat":33.99895,"lng":134.567302,"zip":"7730011"},{"town":"中郷町","koaza":"西久保","lat":34.012378,"lng":134.566583,"zip":"7730016"},{"town":"新居見町","koaza":"月待","lat":34.001196,"lng":134.567008,"zip":"7730011"},{"town":"中郷町","koaza":"露ノ本","lat":34.010447,"lng":134.56852,"zip":"7730016"},{"town":"中郷町","koaza":"長手","lat":34.010744,"lng":134.569824,"zip":"7730016"},{"town":"中郷町","koaza":"西野","lat":34.013885,"lng":134.570067,"zip":"7730016"},{"town":"新居見町","koaza":"東山下","lat":33.99636,"lng":134.568796,"zip":"7730011"},{"town":"新居見町","koaza":"片石","lat":33.996815,"lng":134.567557,"zip":"7730011"},{"town":"中田町","koaza":"出口","lat":34.015478,"lng":134.569182,"zip":"7730015"},{"town":"田野町","koaza":"恩山寺谷","lat":33.98524,"lng":134.580161,"zip":"7730008"},{"town":"芝生町","koaza":"西浦","lat":33.994309,"lng":134.576993,"zip":"7730009"},{"town":"新居見町","koaza":"柚木","lat":33.999631,"lng":134.568991,"zip":"7730011"},{"town":"中田町","koaza":"広見","lat":34.018798,"lng":134.569721,"zip":"7730015"},{"town":"新居見町","koaza":"義方","lat":33.99781,"lng":134.568924,"zip":"7730011"},{"town":"新居見町","koaza":"狭間","lat":33.997095,"lng":134.568741,"zip":"7730011"},{"town":"中郷町","koaza":"加藤","lat":34.008852,"lng":134.570963,"zip":"7730016"},{"town":"中田町","koaza":"池ノ内","lat":34.018622,"lng":134.572678,"zip":"7730015"},{"town":"中田町","koaza":"土持","lat":34.018392,"lng":134.569105,"zip":"7730015"},{"town":"日開野町","koaza":"宮免","lat":34.001957,"lng":134.571305,"zip":"7730010"},{"town":"櫛渕町","koaza":"山口","lat":33.947233,"lng":134.577255,"zip":"7730000"},{"town":"日開野町","koaza":"勝久","lat":34.004728,"lng":134.570087,"zip":"7730010"},{"town":"櫛渕町","koaza":"中田","lat":33.953313,"lng":134.576495,"zip":"7730000"},{"town":"櫛渕町","koaza":"宮ノ内","lat":33.957967,"lng":134.574172,"zip":"7730000"},{"town":"中田町","koaza":"狭間","lat":34.015982,"lng":134.57144,"zip":"7730015"},{"town":"日開野町","koaza":"時信","lat":34.002756,"lng":134.572311,"zip":"7730010"},{"town":"中郷町","koaza":"泰地","lat":34.012321,"lng":134.572086,"zip":"7730016"},{"town":"中郷町","koaza":"桜馬場","lat":34.013058,"lng":134.573852,"zip":"7730016"},{"town":"中田町","koaza":"西山","lat":34.01824,"lng":134.571428,"zip":"7730015"},{"town":"櫛渕町","koaza":"奥条","lat":33.947196,"lng":134.570971,"zip":"7730000"},{"town":"小松島町","koaza":"領田","lat":34.004966,"lng":134.573532,"zip":"7730001"},{"town":"櫛渕町","koaza":"二反田","lat":33.955355,"lng":134.572947,"zip":"7730000"},{"town":"中田町","koaza":"中筋","lat":34.015864,"lng":134.573298,"zip":"7730015"},{"town":"新居見町","koaza":"蓮花寺","lat":33.994382,"lng":134.57202,"zip":"7730011"},{"town":"小松島町","koaza":"喜来","lat":34.004494,"lng":134.573817,"zip":"7730001"},{"town":"日開野町","koaza":"宗人屋敷","lat":33.996874,"lng":134.574751,"zip":"7730010"},{"town":"小松島町","koaza":"菖蒲田","lat":34.006004,"lng":134.573651,"zip":"7730001"},{"town":"日開野町","koaza":"川村塚","lat":34.000355,"lng":134.573096,"zip":"7730010"},{"town":"中郷町","koaza":"県前","lat":34.009645,"lng":134.574128,"zip":"7730016"},{"town":"中郷町","koaza":"豊ノ本","lat":34.011594,"lng":134.57398,"zip":"7730016"},{"town":"中郷町","koaza":"大瀬町","lat":34.007715,"lng":134.576313,"zip":"7730016"},{"town":"日開野町","koaza":"末次","lat":34.003092,"lng":134.575326,"zip":"7730010"},{"town":"櫛渕町","koaza":"植松","lat":33.958529,"lng":134.575157,"zip":"7730000"},{"town":"中田町","koaza":"奥林","lat":34.015475,"lng":134.574254,"zip":"7730015"},{"town":"中田町","koaza":"東山","lat":34.017768,"lng":134.585476,"zip":"7730015"},{"town":"櫛渕町","koaza":"湯谷","lat":33.963113,"lng":134.581745,"zip":"7730000"},{"town":"日開野町","koaza":"弥三次","lat":34.002834,"lng":134.577226,"zip":"7730010"},{"town":"小松島町","koaza":"門田","lat":34.006253,"lng":134.577909,"zip":"7730001"},{"town":"田野町","koaza":"溝ノ木","lat":33.974534,"lng":134.590218,"zip":"7730008"},{"town":"日開野町","koaza":"崎田","lat":34.00112,"lng":134.57586,"zip":"7730010"},{"town":"日開野町","koaza":"加々ませ","lat":34.00136,"lng":134.576712,"zip":"7730010"},{"town":"中田町","koaza":"千代ケ原","lat":34.016038,"lng":134.576792,"zip":"7730015"},{"town":"日開野町","koaza":"泉川","lat":34.005308,"lng":134.576703,"zip":"7730010"},{"town":"櫛渕町","koaza":"左近田","lat":33.950879,"lng":134.577875,"zip":"7730000"},{"town":"中田町","koaza":"原ノ下","lat":34.014384,"lng":134.576827,"zip":"7730015"},{"town":"小松島町","koaza":"馬場ノ本","lat":34.012248,"lng":134.577606,"zip":"7730001"},{"town":"中田町","koaza":"寺前","lat":34.017815,"lng":134.57844,"zip":"7730015"},{"town":"中田町","koaza":"内開","lat":34.014634,"lng":134.578824,"zip":"7730015"},{"town":"櫛渕町","koaza":"諏訪","lat":33.955074,"lng":134.580306,"zip":"7730000"},{"town":"日開野町","koaza":"三反地","lat":34.00365,"lng":134.578482,"zip":"7730010"},{"town":"中田町","koaza":"蛭子ノ本","lat":34.016785,"lng":134.581047,"zip":"7730015"},{"town":"日開野町","koaza":"川田","lat":34.005448,"lng":134.58012,"zip":"7730010"},{"town":"芝生町","koaza":"西居屋敷","lat":33.994138,"lng":134.581102,"zip":"7730009"},{"town":"日開野町","koaza":"北開","lat":34.00642,"lng":134.579359,"zip":"7730010"},{"town":"櫛渕町","koaza":"太田","lat":33.953365,"lng":134.58018,"zip":"7730000"},{"town":"芝生町","koaza":"花谷","lat":33.99292,"lng":134.579072,"zip":"7730009"},{"town":"小松島町","koaza":"若井崎","lat":34.013387,"lng":134.581779,"zip":"7730001"},{"town":"日開野町","koaza":"破閑道","lat":34.002302,"lng":134.582202,"zip":"7730010"},{"town":"芝生町","koaza":"網干","lat":34.000131,"lng":134.582588,"zip":"7730009"},{"town":"日開野町","koaza":"堤花","lat":34.00441,"lng":134.580412,"zip":"7730010"},{"town":"櫛渕町","koaza":"木原","lat":33.949415,"lng":134.583106,"zip":"7730000"},{"town":"櫛渕町","koaza":"喰味谷","lat":33.956879,"lng":134.580069,"zip":"7730000"},{"town":"小松島町","koaza":"西堀川","lat":34.005814,"lng":134.581083,"zip":"7730001"},{"town":"田野町","koaza":"鳥居本","lat":33.974965,"lng":134.586928,"zip":"7730008"},{"town":"芝生町","koaza":"狭間","lat":33.995342,"lng":134.582994,"zip":"7730009"},{"town":"小松島町","koaza":"房浜","lat":34.011047,"lng":134.582626,"zip":"7730001"},{"town":"田野町","koaza":"中須","lat":33.984594,"lng":134.584785,"zip":"7730008"},{"town":"中田町","koaza":"新開","lat":34.01474,"lng":134.582914,"zip":"7730015"},{"town":"櫛渕町","koaza":"北佃","lat":33.954164,"lng":134.584026,"zip":"7730000"},{"town":"中田町","koaza":"上浜田","lat":34.016927,"lng":134.584183,"zip":"7730015"},{"town":"櫛渕町","koaza":"湊","lat":33.955861,"lng":134.583451,"zip":"7730000"},{"town":"芝生町","koaza":"宮ノ後","lat":33.993175,"lng":134.583013,"zip":"7730009"},{"town":"芝生町","koaza":"宮ノ前","lat":33.991753,"lng":134.584884,"zip":"7730009"},{"town":"田野町","koaza":"仮家","lat":33.98171,"lng":134.585132,"zip":"7730008"},{"town":"日開野町","koaza":"井理守","lat":34.00531,"lng":134.583926,"zip":"7730010"},{"town":"芝生町","koaza":"東居屋敷","lat":33.995372,"lng":134.584691,"zip":"7730009"},{"town":"小松島町","koaza":"井利ノ口","lat":34.01166,"lng":134.58463,"zip":"7730001"},{"town":"田野町","koaza":"平田","lat":33.986643,"lng":134.583472,"zip":"7730008"},{"town":"中田町","koaza":"浜田","lat":34.015541,"lng":134.58501,"zip":"7730015"},{"town":"日開野町","koaza":"高須","lat":34.002514,"lng":134.585178,"zip":"7730010"},{"town":"中田町","koaza":"山ノ神","lat":34.018344,"lng":134.584753,"zip":"7730015"},{"town":"田野町","koaza":"月ノ輪","lat":33.988163,"lng":134.585833,"zip":"7730008"},{"town":"小松島町","koaza":"外開","lat":34.010274,"lng":134.5856,"zip":"7730001"},{"town":"田野町","koaza":"谷奥","lat":33.982659,"lng":134.584587,"zip":"7730008"},{"town":"櫛渕町","koaza":"藤ケ崎","lat":33.95744,"lng":134.586232,"zip":"7730000"},{"town":"櫛渕町","koaza":"大郷領","lat":33.953105,"lng":134.585204,"zip":"7730000"},{"town":"櫛渕町","koaza":"佐山","lat":33.948963,"lng":134.586658,"zip":"7730000"},{"town":"田野町","koaza":"宮ノ下","lat":33.978926,"lng":134.588441,"zip":"7730008"},{"town":"小松島町","koaza":"北浜","lat":34.014464,"lng":134.587211,"zip":"7730001"},{"town":"芝生町","koaza":"内開","lat":33.995382,"lng":134.585847,"zip":"7730009"},{"town":"小松島町","koaza":"東堀川","lat":34.005601,"lng":134.584595,"zip":"7730001"},{"town":"日開野町","koaza":"行地","lat":34.00062,"lng":134.589431,"zip":"7730010"},{"town":"芝生町","koaza":"横須","lat":33.999159,"lng":134.586635,"zip":"7730009"},{"town":"小松島町","koaza":"高須","lat":34.004989,"lng":134.586958,"zip":"7730001"},{"town":"芝生町","koaza":"赤石","lat":33.995859,"lng":134.588689,"zip":"7730009"},{"town":"小松島町","koaza":"新港","lat":34.011488,"lng":134.587854,"zip":"7730001"},{"town":"櫛渕町","koaza":"関免","lat":33.954966,"lng":134.585574,"zip":"7730000"},{"town":"小松島町","koaza":"北開","lat":34.010865,"lng":134.585414,"zip":"7730001"},{"town":"田野町","koaza":"本村","lat":33.983695,"lng":134.587863,"zip":"7730008"},{"town":"櫛渕町","koaza":"大谷","lat":33.963331,"lng":134.587814,"zip":"7730000"},{"town":"田野町","koaza":"奥角","lat":33.974114,"lng":134.585999,"zip":"7730008"},{"town":"中田町","koaza":"脇谷","lat":34.01689,"lng":134.588628,"zip":"7730015"},{"town":"小松島町","koaza":"網渕","lat":34.010679,"lng":134.586292,"zip":"7730001"},{"town":"小松島町","koaza":"南開","lat":34.002321,"lng":134.588928,"zip":"7730001"},{"town":"櫛渕町","koaza":"数延","lat":33.957969,"lng":134.588474,"zip":"7730000"},{"town":"櫛渕町","koaza":"東谷","lat":33.962139,"lng":134.592248,"zip":"7730000"},{"town":"小松島町","koaza":"中筋","lat":34.004188,"lng":134.589044,"zip":"7730001"},{"town":"田野町","koaza":"赤石中","lat":33.987517,"lng":134.58895,"zip":"7730008"},{"town":"立江町","koaza":"中山","lat":33.967354,"lng":134.595306,"zip":"7730017"},{"town":"櫛渕町","koaza":"新作","lat":33.950143,"lng":134.592325,"zip":"7730000"},{"town":"田野町","koaza":"高田","lat":33.98295,"lng":134.594511,"zip":"7730008"},{"town":"櫛渕町","koaza":"久友","lat":33.956985,"lng":134.590148,"zip":"7730000"},{"town":"櫛渕町","koaza":"間町","lat":33.960304,"lng":134.589861,"zip":"7730000"},{"town":"田野町","koaza":"赤石南","lat":33.984879,"lng":134.594356,"zip":"7730008"},{"town":"小松島町","koaza":"元根井","lat":34.014944,"lng":134.590482,"zip":"7730001"},{"town":"小松島町","koaza":"今開","lat":34.003764,"lng":134.590452,"zip":"7730001"},{"town":"中田町","koaza":"根井","lat":34.017095,"lng":134.592841,"zip":"7730015"},{"town":"立江町","koaza":"高田","lat":33.970508,"lng":134.593295,"zip":"7730017"},{"town":"田野町","koaza":"赤石北","lat":33.991848,"lng":134.59499,"zip":"7730008"},{"town":"立江町","koaza":"中ノ坪","lat":33.960044,"lng":134.596586,"zip":"7730017"},{"town":"櫛渕町","koaza":"小松","lat":33.962006,"lng":134.59591,"zip":"7730000"},{"town":"櫛渕町","koaza":"外開","lat":33.952999,"lng":134.598247,"zip":"7730000"},{"town":"立江町","koaza":"鍋寺","lat":33.962826,"lng":134.60098,"zip":"7730017"},{"town":"立江町","koaza":"炭屋ケ谷","lat":33.976494,"lng":134.599628,"zip":"7730017"},{"town":"立江町","koaza":"野神","lat":33.953078,"lng":134.5998,"zip":"7730017"},{"town":"立江町","koaza":"大田ノ浦","lat":33.978296,"lng":134.600139,"zip":"7730017"},{"town":"立江町","koaza":"江ノ上","lat":33.968217,"lng":134.601138,"zip":"7730017"},{"town":"田野町","koaza":"勢合","lat":33.98392,"lng":134.602307,"zip":"7730008"},{"town":"立江町","koaza":"清水","lat":33.965653,"lng":134.602924,"zip":"7730017"},{"town":"立江町","koaza":"松塚","lat":33.971669,"lng":134.601285,"zip":"7730017"},{"town":"立江町","koaza":"小田ノ浦","lat":33.97912,"lng":134.602835,"zip":"7730017"},{"town":"立江町","koaza":"松本","lat":33.968519,"lng":134.602462,"zip":"7730017"},{"town":"立江町","koaza":"大吉","lat":33.962989,"lng":134.603257,"zip":"7730017"},{"town":"立江町","koaza":"豊田","lat":33.962113,"lng":134.605464,"zip":"7730017"},{"town":"立江町","koaza":"黒岩","lat":33.976291,"lng":134.60544,"zip":"7730017"},{"town":"立江町","koaza":"南山","lat":33.951771,"lng":134.60761,"zip":"7730017"},{"town":"立江町","koaza":"塩瀬","lat":33.967992,"lng":134.603054,"zip":"7730017"},{"town":"立江町","koaza":"新開","lat":33.974366,"lng":134.606237,"zip":"7730017"},{"town":"立江町","koaza":"柳ノ内","lat":33.964292,"lng":134.605617,"zip":"7730017"},{"town":"立江町","koaza":"玉田","lat":33.972383,"lng":134.606197,"zip":"7730017"},{"town":"立江町","koaza":"万代","lat":33.967356,"lng":134.604964,"zip":"7730017"},{"town":"立江町","koaza":"金岡","lat":33.969029,"lng":134.605624,"zip":"7730017"},{"town":"立江町","koaza":"青木","lat":33.957974,"lng":134.606877,"zip":"7730017"},{"town":"立江町","koaza":"北城","lat":33.971377,"lng":134.605983,"zip":"7730017"},{"town":"立江町","koaza":"東金岡","lat":33.969924,"lng":134.606177,"zip":"7730017"},{"town":"立江町","koaza":"若松","lat":33.968893,"lng":134.606886,"zip":"7730017"},{"town":"立江町","koaza":"青森","lat":33.975967,"lng":134.608149,"zip":"7730017"},{"town":"立江町","koaza":"南田頭","lat":33.96615,"lng":134.607721,"zip":"7730017"},{"town":"立江町","koaza":"北田頭","lat":33.967256,"lng":134.607983,"zip":"7730017"},{"town":"立江町","koaza":"露ノ本","lat":33.964067,"lng":134.608392,"zip":"7730017"},{"town":"立江町","koaza":"宮前","lat":33.973355,"lng":134.608125,"zip":"7730017"},{"town":"立江町","koaza":"前田","lat":33.970822,"lng":134.607928,"zip":"7730017"},{"town":"立江町","koaza":"株木","lat":33.970349,"lng":134.609151,"zip":"7730017"},{"town":"大林町","koaza":"森ノ本","lat":33.977908,"lng":134.610825,"zip":"7730022"},{"town":"立江町","koaza":"馬渕","lat":33.964203,"lng":134.611283,"zip":"7730017"},{"town":"大林町","koaza":"岩戸","lat":33.972562,"lng":134.613328,"zip":"7730022"},{"town":"大林町","koaza":"宮免","lat":33.968436,"lng":134.61311,"zip":"7730022"},{"town":"大林町","koaza":"金岡","lat":33.980102,"lng":134.61347,"zip":"7730022"},{"town":"大林町","koaza":"宮ノ本","lat":33.976004,"lng":134.614745,"zip":"7730022"},{"town":"大林町","koaza":"中村","lat":33.966873,"lng":134.616145,"zip":"7730022"},{"town":"大林町","koaza":"中新田","lat":33.969466,"lng":134.615611,"zip":"7730022"},{"town":"赤石町","koaza":"緑松","lat":33.982643,"lng":134.618641,"zip":"7730021"},{"town":"大林町","koaza":"立光地","lat":33.971408,"lng":134.617341,"zip":"7730022"},{"town":"大林町","koaza":"金島","lat":33.980966,"lng":134.618026,"zip":"7730022"},{"town":"大林町","koaza":"鎌須","lat":33.979343,"lng":134.617249,"zip":"7730022"},{"town":"大林町","koaza":"本村","lat":33.974606,"lng":134.619709,"zip":"7730022"},{"town":"大林町","koaza":"中津","lat":33.978356,"lng":134.61911,"zip":"7730022"},{"town":"大林町","koaza":"高橋","lat":33.967605,"lng":134.618388,"zip":"7730022"},{"town":"大林町","koaza":"戸井ノ内","lat":33.969738,"lng":134.620162,"zip":"7730022"},{"town":"大林町","koaza":"蛭子免","lat":33.98125,"lng":134.620754,"zip":"7730022"},{"town":"大林町","koaza":"北浦","lat":33.977686,"lng":134.621119,"zip":"7730022"},{"town":"和田津開町","koaza":"屋敷ノ西","lat":33.984203,"lng":134.622553,"zip":"7730020"},{"town":"大林町","koaza":"石見川","lat":33.97281,"lng":134.622277,"zip":"7730022"},{"town":"坂野町","koaza":"大原","lat":33.981848,"lng":134.623428,"zip":"7730023"},{"town":"坂野町","koaza":"鸛ノ巣","lat":33.983661,"lng":134.623457,"zip":"7730023"},{"town":"坂野町","koaza":"大塚","lat":33.974739,"lng":134.624568,"zip":"7730023"},{"town":"坂野町","koaza":"苅屋","lat":33.981466,"lng":134.625598,"zip":"7730023"},{"town":"和田津開町","koaza":"居屋敷","lat":33.984628,"lng":134.624572,"zip":"7730020"},{"town":"和田島町","koaza":"西林","lat":34.001634,"lng":134.631959,"zip":"7730031"},{"town":"坂野町","koaza":"か里や開","lat":33.983216,"lng":134.625561,"zip":"7730023"},{"town":"和田津開町","koaza":"ヒガシ","lat":33.986336,"lng":134.628183,"zip":"7730020"},{"town":"坂野町","koaza":"吐田","lat":33.984948,"lng":134.62681,"zip":"7730023"},{"town":"坂野町","koaza":"島の内","lat":33.982366,"lng":134.628566,"zip":"7730023"},{"town":"坂野町","koaza":"楠ノ下","lat":33.976423,"lng":134.629351,"zip":"7730023"},{"town":"坂野町","koaza":"ミぞ口","lat":33.966639,"lng":134.63045,"zip":"7730023"},{"town":"坂野町","koaza":"田中","lat":33.977678,"lng":134.628564,"zip":"7730023"},{"town":"坂野町","koaza":"柳田","lat":33.973282,"lng":134.6292,"zip":"7730023"},{"town":"和田津開町","koaza":"東土手添","lat":33.987795,"lng":134.628585,"zip":"7730020"},{"town":"坂野町","koaza":"湊","lat":33.985677,"lng":134.628165,"zip":"7730023"},{"town":"坂野町","koaza":"相久","lat":33.969015,"lng":134.6305,"zip":"7730023"},{"town":"和田島町","koaza":"松田新田","lat":33.991272,"lng":134.635297,"zip":"7730031"},{"town":"坂野町","koaza":"原京","lat":33.977054,"lng":134.632318,"zip":"7730023"},{"town":"坂野町","koaza":"種井","lat":33.980821,"lng":134.630244,"zip":"7730023"},{"town":"坂野町","koaza":"平田","lat":33.979015,"lng":134.63212,"zip":"7730023"},{"town":"坂野町","koaza":"風穴","lat":33.983803,"lng":134.630567,"zip":"7730023"},{"town":"坂野町","koaza":"湊ノ下","lat":33.985874,"lng":134.631548,"zip":"7730023"},{"town":"坂野町","koaza":"松の","lat":33.982927,"lng":134.631036,"zip":"7730023"},{"town":"坂野町","koaza":"太郎丸","lat":33.97202,"lng":134.631219,"zip":"7730023"},{"town":"坂野町","koaza":"北大久保","lat":33.985664,"lng":134.632754,"zip":"7730023"},{"town":"坂野町","koaza":"楠木","lat":33.976263,"lng":134.631353,"zip":"7730023"},{"town":"坂野町","koaza":"黒地","lat":33.965387,"lng":134.633733,"zip":"7730023"},{"town":"坂野町","koaza":"根上り","lat":33.981973,"lng":134.632471,"zip":"7730023"},{"town":"坂野町","koaza":"中合","lat":33.97245,"lng":134.632874,"zip":"7730023"},{"town":"坂野町","koaza":"シヅ田","lat":33.974667,"lng":134.634934,"zip":"7730023"},{"town":"和田島町","koaza":"西浜手","lat":33.999133,"lng":134.632924,"zip":"7730031"},{"town":"坂野町","koaza":"目佐","lat":33.967355,"lng":134.633441,"zip":"7730023"},{"town":"和田島町","koaza":"浜塚","lat":33.993204,"lng":134.635081,"zip":"7730031"},{"town":"坂野町","koaza":"野神","lat":33.982291,"lng":134.633757,"zip":"7730023"},{"town":"坂野町","koaza":"大場","lat":33.969967,"lng":134.63514,"zip":"7730023"},{"town":"和田島町","koaza":"平見","lat":33.997351,"lng":134.634046,"zip":"7730031"},{"town":"間新田町","koaza":"ヤケ木","lat":33.990357,"lng":134.641042,"zip":"7730024"},{"town":"坂野町","koaza":"大野溜","lat":33.984672,"lng":134.634491,"zip":"7730023"},{"town":"坂野町","koaza":"南大久保","lat":33.98433,"lng":134.633457,"zip":"7730023"},{"town":"坂野町","koaza":"加喜内","lat":33.97598,"lng":134.634392,"zip":"7730023"},{"town":"坂野町","koaza":"立花","lat":33.978802,"lng":134.634549,"zip":"7730023"},{"town":"坂野町","koaza":"春日","lat":33.971659,"lng":134.634977,"zip":"7730023"},{"town":"坂野町","koaza":"細野","lat":33.979513,"lng":134.634551,"zip":"7730023"},{"town":"坂野町","koaza":"竹のはな","lat":33.973586,"lng":134.635051,"zip":"7730023"},{"town":"坂野町","koaza":"大久保","lat":33.982885,"lng":134.636205,"zip":"7730023"},{"town":"坂野町","koaza":"松コロ","lat":33.979365,"lng":134.636533,"zip":"7730023"},{"town":"坂野町","koaza":"大野","lat":33.984714,"lng":134.635241,"zip":"7730023"},{"town":"坂野町","koaza":"中岸","lat":33.985598,"lng":134.636083,"zip":"7730023"},{"town":"和田島町","koaza":"塚の間","lat":33.996044,"lng":134.636277,"zip":"7730031"},{"town":"和田島町","koaza":"浜田","lat":34.002619,"lng":134.636748,"zip":"7730031"},{"town":"坂野町","koaza":"シヤウ内","lat":33.971615,"lng":134.636158,"zip":"7730023"},{"town":"坂野町","koaza":"宮ノ東","lat":33.969774,"lng":134.637244,"zip":"7730023"},{"town":"和田島町","koaza":"勢以元","lat":34.000735,"lng":134.638422,"zip":"7730031"},{"town":"坂野町","koaza":"手塚","lat":33.98208,"lng":134.638011,"zip":"7730023"},{"town":"坂野町","koaza":"岡ノ下","lat":33.980369,"lng":134.637645,"zip":"7730023"},{"town":"和田島町","koaza":"山のはな","lat":33.995532,"lng":134.638941,"zip":"7730031"},{"town":"坂野町","koaza":"千田塚","lat":33.984833,"lng":134.63797,"zip":"7730023"},{"town":"和田島町","koaza":"前塩田","lat":33.994283,"lng":134.640001,"zip":"7730031"},{"town":"坂野町","koaza":"向原","lat":33.971378,"lng":134.637704,"zip":"7730023"},{"town":"坂野町","koaza":"中道","lat":33.985614,"lng":134.638792,"zip":"7730023"},{"town":"坂野町","koaza":"林崎","lat":33.983583,"lng":134.638279,"zip":"7730023"},{"town":"坂野町","koaza":"経塚","lat":33.980344,"lng":134.639571,"zip":"7730023"},{"town":"坂野町","koaza":"天神東","lat":33.979017,"lng":134.63977,"zip":"7730023"},{"town":"和田島町","koaza":"明神北","lat":33.997879,"lng":134.641069,"zip":"7730031"},{"town":"坂野町","koaza":"尾道","lat":33.982448,"lng":134.639913,"zip":"7730023"},{"town":"和田島町","koaza":"外開","lat":34.001231,"lng":134.642694,"zip":"7730031"},{"town":"坂野町","koaza":"楠塚","lat":33.983886,"lng":134.641738,"zip":"7730023"},{"town":"和田島町","koaza":"明神東","lat":33.998911,"lng":134.643864,"zip":"7730031"},{"town":"坂野町","koaza":"豊田","lat":33.979721,"lng":134.641196,"zip":"7730023"},{"town":"坂野町","koaza":"本道","lat":33.98638,"lng":134.642669,"zip":"7730023"},{"town":"坂野町","koaza":"境野","lat":33.98085,"lng":134.641851,"zip":"7730023"},{"town":"和田島町","koaza":"元開","lat":33.994233,"lng":134.642531,"zip":"7730031"},{"town":"坂野町","koaza":"紫蘭墾","lat":33.98196,"lng":134.642839,"zip":"7730023"},{"town":"坂野町","koaza":"野房","lat":33.984811,"lng":134.642923,"zip":"7730023"},{"town":"坂野町","koaza":"天神前","lat":33.978204,"lng":134.64174,"zip":"7730023"},{"town":"坂野町","koaza":"東溜り","lat":33.983571,"lng":134.643833,"zip":"7730023"},{"town":"和田島町","koaza":"東新開","lat":33.996448,"lng":134.645686,"zip":"7730031"},{"town":"坂野町","koaza":"浜田","lat":33.985516,"lng":134.645672,"zip":"7730023"},{"town":"坂野町","koaza":"高塚","lat":33.988461,"lng":134.645624,"zip":"7730023"},{"town":"坂野町","koaza":"神長","lat":33.984864,"lng":134.646614,"zip":"7730023"},{"town":"和田島町","koaza":"東浜手","lat":33.991934,"lng":134.648745,"zip":"7730031"},{"town":"小松島町","koaza":"港口","lat":34.008399,"lng":134.591144,"zip":"7730001"},{"town":"松島町","koaza":"松島","lat":34.008938,"lng":134.584212,"zip":"7730003"},{"town":"立江町","koaza":"赤石","lat":33.980157,"lng":134.606413,"zip":"7730017"},{"town":"坂野町","koaza":"森安","lat":33.980437,"lng":134.625203,"zip":"7730023"},{"town":"坂野町","koaza":"時宗","lat":33.977572,"lng":134.623408,"zip":"7730023"},{"town":"坂野町","koaza":"のより","lat":33.980288,"lng":134.627164,"zip":"7730023"},{"town":"坂野町","koaza":"八幡ノ内","lat":33.978241,"lng":134.62757,"zip":"7730023"},{"town":"坂野町","koaza":"西畑","lat":33.97715,"lng":134.626112,"zip":"7730023"},{"town":"坂野町","koaza":"工の内","lat":33.978336,"lng":134.624018,"zip":"7730023"}]