[{"town":"泉谷","koaza":"","lat":34.148493,"lng":134.384029,"zip":"7711310"},{"town":"鍛冶屋原","koaza":"","lat":34.119296,"lng":134.397489,"zip":"7711301"},{"town":"上六條","koaza":"","lat":34.107934,"lng":134.430912,"zip":"7711345"},{"town":"神宅","koaza":"","lat":34.14517,"lng":134.41107,"zip":"7711320"},{"town":"佐藤塚","koaza":"","lat":34.110799,"lng":134.445429,"zip":"7711342"},{"town":"椎本","koaza":"","lat":34.117088,"lng":134.435875,"zip":"7711343"},{"town":"七條","koaza":"","lat":34.117314,"lng":134.409234,"zip":"7711302"},{"town":"下六條","koaza":"","lat":34.109309,"lng":134.43665,"zip":"7711344"},{"town":"瀬部","koaza":"","lat":34.097769,"lng":134.402945,"zip":"7711350"},{"town":"第十新田","koaza":"","lat":34.108211,"lng":134.450442,"zip":"7711341"},{"town":"高磯","koaza":"","lat":34.107107,"lng":134.425623,"zip":"7711346"},{"town":"高瀬","koaza":"","lat":34.103015,"lng":134.417098,"zip":"7711347"},{"town":"西分","koaza":"","lat":34.12458,"lng":134.426391,"zip":"7711330"},{"town":"引野","koaza":"","lat":34.125166,"lng":134.388739,"zip":"7711311"}]