[{"town":"犬伏","koaza":"","lat":34.150647,"lng":134.44979,"zip":"7790108"},{"town":"大坂","koaza":"","lat":34.173449,"lng":134.446952,"zip":"7790101"},{"town":"大寺","koaza":"","lat":34.138613,"lng":134.464261,"zip":"7790106"},{"town":"川端","koaza":"","lat":34.154679,"lng":134.477734,"zip":"7790103"},{"town":"黒谷","koaza":"","lat":34.152018,"lng":134.425615,"zip":"7790113"},{"town":"下庄","koaza":"","lat":34.123305,"lng":134.452437,"zip":"7790118"},{"town":"唐園","koaza":"","lat":34.126121,"lng":134.44565,"zip":"7790116"},{"town":"中久保","koaza":"","lat":34.118209,"lng":134.447079,"zip":"7790117"},{"town":"那東","koaza":"","lat":34.144962,"lng":134.441805,"zip":"7790111"},{"town":"西中富","koaza":"","lat":34.12283,"lng":134.464301,"zip":"7790119"},{"town":"吹田","koaza":"","lat":34.152454,"lng":134.462151,"zip":"7790104"},{"town":"古城","koaza":"","lat":34.132933,"lng":134.450682,"zip":"7790107"},{"town":"松谷","koaza":"","lat":34.150871,"lng":134.435575,"zip":"7790112"},{"town":"矢武","koaza":"","lat":34.126736,"lng":134.435791,"zip":"7790115"},{"town":"羅漢","koaza":"","lat":34.133558,"lng":134.432352,"zip":"7790114"}]