[{"town":"江尻","koaza":"","lat":34.123502,"lng":134.555672,"zip":"7710205"},{"town":"北村","koaza":"","lat":34.137255,"lng":134.551769,"zip":"7710201"},{"town":"新喜来","koaza":"","lat":34.132846,"lng":134.541089,"zip":"7710207"},{"town":"鯛浜","koaza":"","lat":34.115003,"lng":134.548149,"zip":"7710204"},{"town":"高房","koaza":"","lat":34.124213,"lng":134.543784,"zip":"7710206"},{"town":"太郎八須","koaza":"","lat":34.137688,"lng":134.566031,"zip":"7710202"},{"town":"中村","koaza":"","lat":34.127709,"lng":134.553152,"zip":"7710203"},{"town":"高房","koaza":"勝瑞境","lat":34.129796,"lng":134.531685,"zip":"7710206"},{"town":"高房","koaza":"堤下","lat":34.127784,"lng":134.531355,"zip":"7710206"},{"town":"高房","koaza":"居内","lat":34.127089,"lng":134.533703,"zip":"7710206"},{"town":"高房","koaza":"八丁野西","lat":34.132923,"lng":134.535593,"zip":"7710206"},{"town":"高房","koaza":"百居内","lat":34.119086,"lng":134.537224,"zip":"7710206"},{"town":"高房","koaza":"百堤外","lat":34.117017,"lng":134.536975,"zip":"7710206"},{"town":"高房","koaza":"百庵ノ前","lat":34.120625,"lng":134.538011,"zip":"7710206"},{"town":"中村","koaza":"八丁野","lat":34.131196,"lng":134.536301,"zip":"7710203"},{"town":"高房","koaza":"百川田","lat":34.120394,"lng":134.53981,"zip":"7710206"},{"town":"高房","koaza":"八丁野東","lat":34.129632,"lng":134.54074,"zip":"7710206"},{"town":"高房","koaza":"百北","lat":34.123779,"lng":134.539934,"zip":"7710206"},{"town":"高房","koaza":"百広花","lat":34.11649,"lng":134.538701,"zip":"7710206"},{"town":"新喜来","koaza":"上竿","lat":34.13604,"lng":134.539417,"zip":"7710207"},{"town":"新喜来","koaza":"二分","lat":34.138492,"lng":134.541369,"zip":"7710207"},{"town":"新喜来","koaza":"砂原","lat":34.132935,"lng":134.538676,"zip":"7710207"},{"town":"江尻","koaza":"中須賀","lat":34.121341,"lng":134.540306,"zip":"7710205"},{"town":"中村","koaza":"江口","lat":34.123997,"lng":134.541625,"zip":"7710203"},{"town":"新喜来","koaza":"中竿","lat":34.135237,"lng":134.540622,"zip":"7710207"},{"town":"鯛浜","koaza":"大西","lat":34.114443,"lng":134.543132,"zip":"7710204"},{"town":"新喜来","koaza":"南ハリ","lat":34.131276,"lng":134.542603,"zip":"7710207"},{"town":"鯛浜","koaza":"向","lat":34.11802,"lng":134.544254,"zip":"7710204"},{"town":"新喜来","koaza":"下竿","lat":34.135013,"lng":134.541182,"zip":"7710207"},{"town":"高房","koaza":"東中道","lat":34.125248,"lng":134.542896,"zip":"7710206"},{"town":"新喜来","koaza":"江古川","lat":34.134424,"lng":134.541957,"zip":"7710207"},{"town":"江尻","koaza":"宮ノ本","lat":34.120501,"lng":134.543127,"zip":"7710205"},{"town":"新喜来","koaza":"ヒカタ","lat":34.138441,"lng":134.542872,"zip":"7710207"},{"town":"高房","koaza":"東川田","lat":34.12493,"lng":134.545436,"zip":"7710206"},{"town":"江尻","koaza":"山王宮","lat":34.122042,"lng":134.543198,"zip":"7710205"},{"town":"新喜来","koaza":"北ハリ","lat":34.134898,"lng":134.543372,"zip":"7710207"},{"town":"高房","koaza":"東野神本","lat":34.124175,"lng":134.544855,"zip":"7710206"},{"town":"高房","koaza":"東堤下","lat":34.126094,"lng":134.542348,"zip":"7710206"},{"town":"新喜来","koaza":"南古田","lat":34.128176,"lng":134.545773,"zip":"7710207"},{"town":"江尻","koaza":"妙蛇池","lat":34.119702,"lng":134.546777,"zip":"7710205"},{"town":"鯛浜","koaza":"西ノ須","lat":34.11342,"lng":134.547432,"zip":"7710204"},{"town":"鯛浜","koaza":"西中野","lat":34.117784,"lng":134.547437,"zip":"7710204"},{"town":"新喜来","koaza":"北古田","lat":34.138462,"lng":134.545878,"zip":"7710207"},{"town":"北村","koaza":"西久保","lat":34.138088,"lng":134.54744,"zip":"7710201"},{"town":"北村","koaza":"西蛭子","lat":34.13386,"lng":134.549184,"zip":"7710201"},{"town":"江尻","koaza":"旭光","lat":34.121683,"lng":134.546735,"zip":"7710205"},{"town":"中村","koaza":"城屋敷","lat":34.131189,"lng":134.547809,"zip":"7710203"},{"town":"北村","koaza":"千田ノ木","lat":34.133058,"lng":134.54884,"zip":"7710201"},{"town":"江尻","koaza":"柳池","lat":34.122778,"lng":134.547456,"zip":"7710205"},{"town":"中村","koaza":"寺裏","lat":34.129433,"lng":134.548607,"zip":"7710203"},{"town":"中村","koaza":"東開","lat":34.123813,"lng":134.547472,"zip":"7710203"},{"town":"中村","koaza":"竹ノ下","lat":34.128581,"lng":134.548574,"zip":"7710203"},{"town":"中村","koaza":"上地","lat":34.125688,"lng":134.548127,"zip":"7710203"},{"town":"北村","koaza":"神屋敷","lat":34.136966,"lng":134.549392,"zip":"7710201"},{"town":"北村","koaza":"水神原","lat":34.138953,"lng":134.551238,"zip":"7710201"},{"town":"中村","koaza":"長池","lat":34.124793,"lng":134.550206,"zip":"7710203"},{"town":"江尻","koaza":"松堂","lat":34.122053,"lng":134.549942,"zip":"7710205"},{"town":"江尻","koaza":"夷ノ本","lat":34.12088,"lng":134.55006,"zip":"7710205"},{"town":"鯛浜","koaza":"かや","lat":34.117257,"lng":134.549623,"zip":"7710204"},{"town":"中村","koaza":"宮北裏","lat":34.12622,"lng":134.55027,"zip":"7710203"},{"town":"中村","koaza":"前田道添","lat":34.126208,"lng":134.548613,"zip":"7710203"},{"town":"中村","koaza":"田処","lat":34.130932,"lng":134.549748,"zip":"7710203"},{"town":"北村","koaza":"ハトノモト","lat":34.140408,"lng":134.550057,"zip":"7710201"},{"town":"鯛浜","koaza":"川久保","lat":34.112999,"lng":134.554008,"zip":"7710204"},{"town":"中村","koaza":"御供田","lat":34.130428,"lng":134.551268,"zip":"7710203"},{"town":"中村","koaza":"江ノ向","lat":34.128458,"lng":134.550915,"zip":"7710203"},{"town":"太郎八須","koaza":"新堀","lat":34.139426,"lng":134.55248,"zip":"7710202"},{"town":"江尻","koaza":"小分","lat":34.120681,"lng":134.5525,"zip":"7710205"},{"town":"江尻","koaza":"松ノ本","lat":34.123252,"lng":134.554794,"zip":"7710205"},{"town":"鯛浜","koaza":"原","lat":34.114346,"lng":134.555494,"zip":"7710204"},{"town":"鯛浜","koaza":"中須","lat":34.119782,"lng":134.553374,"zip":"7710204"},{"town":"中村","koaza":"蛇池","lat":34.125356,"lng":134.553384,"zip":"7710203"},{"town":"中村","koaza":"日開野","lat":34.127827,"lng":134.552589,"zip":"7710203"},{"town":"北村","koaza":"壱町四反地","lat":34.13481,"lng":134.55389,"zip":"7710201"},{"town":"中村","koaza":"稗畑","lat":34.130771,"lng":134.552632,"zip":"7710203"},{"town":"中村","koaza":"明神下","lat":34.124532,"lng":134.554432,"zip":"7710203"},{"town":"鯛浜","koaza":"外野","lat":34.110178,"lng":134.556369,"zip":"7710204"},{"town":"北村","koaza":"三町地","lat":34.131985,"lng":134.55605,"zip":"7710201"},{"town":"中村","koaza":"与今田","lat":34.131298,"lng":134.555595,"zip":"7710203"},{"town":"江尻","koaza":"内中須","lat":34.121967,"lng":134.555596,"zip":"7710205"},{"town":"中村","koaza":"野畑","lat":34.130161,"lng":134.556175,"zip":"7710203"},{"town":"北村","koaza":"大黒","lat":34.138888,"lng":134.556553,"zip":"7710201"},{"town":"北村","koaza":"鍋井","lat":34.140917,"lng":134.558698,"zip":"7710201"},{"town":"北村","koaza":"新川屋","lat":34.136337,"lng":134.555491,"zip":"7710201"},{"town":"中村","koaza":"福神","lat":34.126904,"lng":134.558263,"zip":"7710203"},{"town":"中村","koaza":"中内","lat":34.129033,"lng":134.556159,"zip":"7710203"},{"town":"中村","koaza":"樫切","lat":34.125204,"lng":134.556796,"zip":"7710203"},{"town":"太郎八須","koaza":"五反地","lat":34.135175,"lng":134.557102,"zip":"7710202"},{"town":"中村","koaza":"外川也","lat":34.131049,"lng":134.558631,"zip":"7710203"},{"town":"北村","koaza":"東蛭子","lat":34.138081,"lng":134.56171,"zip":"7710201"},{"town":"太郎八須","koaza":"長岸開","lat":34.13764,"lng":134.559144,"zip":"7710202"},{"town":"江尻","koaza":"川中須","lat":34.126116,"lng":134.559332,"zip":"7710205"},{"town":"中村","koaza":"西ノ瀬","lat":34.131378,"lng":134.561612,"zip":"7710203"},{"town":"太郎八須","koaza":"備後江家","lat":34.135254,"lng":134.560815,"zip":"7710202"},{"town":"中村","koaza":"本須","lat":34.126681,"lng":134.56222,"zip":"7710203"},{"town":"中村","koaza":"東堤ノ内","lat":34.127337,"lng":134.560173,"zip":"7710203"},{"town":"中村","koaza":"前須","lat":34.126114,"lng":134.563183,"zip":"7710203"},{"town":"太郎八須","koaza":"西ノ川","lat":34.138992,"lng":134.563582,"zip":"7710202"},{"town":"中村","koaza":"出須","lat":34.132024,"lng":134.56516,"zip":"7710203"},{"town":"太郎八須","koaza":"西ノ瀬","lat":34.136259,"lng":134.563363,"zip":"7710202"},{"town":"北村","koaza":"大開","lat":34.133961,"lng":134.563487,"zip":"7710201"},{"town":"中村","koaza":"中須","lat":34.129518,"lng":134.56445,"zip":"7710203"},{"town":"太郎八須","koaza":"中須","lat":34.138493,"lng":134.564876,"zip":"7710202"},{"town":"太郎八須","koaza":"鍋川","lat":34.136222,"lng":134.56565,"zip":"7710202"},{"town":"中村","koaza":"井利ノ口","lat":34.127672,"lng":134.565341,"zip":"7710203"},{"town":"中村","koaza":"東中須","lat":34.130677,"lng":134.566919,"zip":"7710203"},{"town":"中村","koaza":"岸ノ上","lat":34.128965,"lng":134.568399,"zip":"7710203"},{"town":"太郎八須","koaza":"外開","lat":34.138787,"lng":134.567728,"zip":"7710202"},{"town":"中村","koaza":"河原","lat":34.130826,"lng":134.570253,"zip":"7710203"},{"town":"中村","koaza":"鍬ノ先","lat":34.130602,"lng":134.572181,"zip":"7710203"},{"town":"太郎八須","koaza":"宮ノ西","lat":34.140952,"lng":134.563842,"zip":"7710202"},{"town":"中村","koaza":"西川向","lat":34.131855,"lng":134.565922,"zip":"7710203"},{"town":"太郎八須","koaza":"新開","lat":34.141446,"lng":134.561782,"zip":"7710202"},{"town":"太郎八須","koaza":"惣野","lat":34.141984,"lng":134.562723,"zip":"7710202"},{"town":"中村","koaza":"川田","lat":34.124582,"lng":134.546123,"zip":"7710203"},{"town":"高房","koaza":"川ノ上","lat":34.126774,"lng":134.535906,"zip":"7710206"},{"town":"中村","koaza":"牛飼原","lat":34.126833,"lng":134.56689,"zip":"7710203"}]