[{"town":"笹木野","koaza":"","lat":34.131863,"lng":134.58406,"zip":"7710219"},{"town":"住吉","koaza":"","lat":34.131866,"lng":134.592827,"zip":"7710218"},{"town":"豊岡","koaza":"","lat":34.124418,"lng":134.603373,"zip":"7710215"},{"town":"豊中","koaza":"","lat":34.124126,"lng":134.598983,"zip":"7710217"},{"town":"豊久","koaza":"","lat":34.137688,"lng":134.611699,"zip":"7710213"},{"town":"長岸","koaza":"","lat":34.145453,"lng":134.564991,"zip":"7710211"},{"town":"中喜来","koaza":"","lat":34.14667,"lng":134.580544,"zip":"7710212"},{"town":"長原","koaza":"","lat":34.113981,"lng":134.601558,"zip":"7710216"},{"town":"広島","koaza":"","lat":34.137563,"lng":134.577702,"zip":"7710220"},{"town":"満穂","koaza":"","lat":34.135975,"lng":134.599404,"zip":"7710214"},{"town":"広島","koaza":"西川向","lat":34.133264,"lng":134.565913,"zip":"7710220"},{"town":"広島","koaza":"北ノ川","lat":34.134652,"lng":134.56997,"zip":"7710220"},{"town":"広島","koaza":"南ノ川","lat":34.132795,"lng":134.56906,"zip":"7710220"},{"town":"広島","koaza":"丸須","lat":34.137761,"lng":134.569376,"zip":"7710220"},{"town":"広島","koaza":"南川向","lat":34.13219,"lng":134.572378,"zip":"7710220"},{"town":"中喜来","koaza":"南かうや中ノ越","lat":34.144826,"lng":134.57153,"zip":"7710212"},{"town":"中喜来","koaza":"南かうや北ノ越","lat":34.145517,"lng":134.574145,"zip":"7710212"},{"town":"中喜来","koaza":"南かうや南ノ越","lat":34.143748,"lng":134.571045,"zip":"7710212"},{"town":"広島","koaza":"古屋敷","lat":34.132992,"lng":134.570298,"zip":"7710220"},{"town":"中喜来","koaza":"なだ","lat":34.153095,"lng":134.571089,"zip":"7710212"},{"town":"中喜来","koaza":"北渕","lat":34.151867,"lng":134.571557,"zip":"7710212"},{"town":"中喜来","koaza":"南渕","lat":34.150284,"lng":134.571943,"zip":"7710212"},{"town":"中喜来","koaza":"中かうや","lat":34.146338,"lng":134.572796,"zip":"7710212"},{"town":"広島","koaza":"宮ノ後","lat":34.133687,"lng":134.571646,"zip":"7710220"},{"town":"中喜来","koaza":"北かうや","lat":34.147329,"lng":134.573681,"zip":"7710212"},{"town":"中喜来","koaza":"中須","lat":34.144943,"lng":134.57447,"zip":"7710212"},{"town":"広島","koaza":"北川向一ノ越","lat":34.138173,"lng":134.575045,"zip":"7710220"},{"town":"広島","koaza":"宮ノ前","lat":34.133622,"lng":134.573151,"zip":"7710220"},{"town":"中喜来","koaza":"北境","lat":34.153877,"lng":134.575231,"zip":"7710212"},{"town":"中喜来","koaza":"前原西一番越","lat":34.141973,"lng":134.573915,"zip":"7710212"},{"town":"中喜来","koaza":"前原西三番越","lat":34.141331,"lng":134.575316,"zip":"7710212"},{"town":"中喜来","koaza":"前原西二番越","lat":34.143141,"lng":134.575146,"zip":"7710212"},{"town":"広島","koaza":"小ハリ","lat":34.133983,"lng":134.576225,"zip":"7710220"},{"town":"中喜来","koaza":"小張","lat":34.149651,"lng":134.577054,"zip":"7710212"},{"town":"広島","koaza":"北川向三ノ越","lat":34.136284,"lng":134.576261,"zip":"7710220"},{"town":"広島","koaza":"北川向二ノ越","lat":34.138869,"lng":134.57903,"zip":"7710220"},{"town":"中喜来","koaza":"前原東二番越","lat":34.144413,"lng":134.578011,"zip":"7710212"},{"town":"中喜来","koaza":"南張","lat":34.148623,"lng":134.577418,"zip":"7710212"},{"town":"中喜来","koaza":"前原西四番越","lat":34.141273,"lng":134.576468,"zip":"7710212"},{"town":"中喜来","koaza":"中組","lat":34.147012,"lng":134.576305,"zip":"7710212"},{"town":"広島","koaza":"浜ノ須","lat":34.131759,"lng":134.576543,"zip":"7710220"},{"town":"広島","koaza":"北ハリ","lat":34.134703,"lng":134.577155,"zip":"7710220"},{"town":"中喜来","koaza":"前原東三番越","lat":34.143513,"lng":134.577654,"zip":"7710212"},{"town":"中喜来","koaza":"東組","lat":34.147487,"lng":134.57729,"zip":"7710212"},{"town":"中喜来","koaza":"前原東四番越","lat":34.143371,"lng":134.578917,"zip":"7710212"},{"town":"広島","koaza":"中ハリ","lat":34.133787,"lng":134.577697,"zip":"7710220"},{"town":"広島","koaza":"南ハリ","lat":34.132576,"lng":134.577572,"zip":"7710220"},{"town":"中喜来","koaza":"前原東五番越","lat":34.142849,"lng":134.57922,"zip":"7710212"},{"town":"中喜来","koaza":"前原西五番越","lat":34.141199,"lng":134.577536,"zip":"7710212"},{"town":"中喜来","koaza":"前原東六番越","lat":34.141528,"lng":134.578055,"zip":"7710212"},{"town":"中喜来","koaza":"前原東七番越","lat":34.141413,"lng":134.579677,"zip":"7710212"},{"town":"広島","koaza":"東裏","lat":34.13261,"lng":134.57988,"zip":"7710220"},{"town":"中喜来","koaza":"宮前二番越","lat":34.145782,"lng":134.579736,"zip":"7710212"},{"town":"中喜来","koaza":"宮前三番越","lat":34.144771,"lng":134.580782,"zip":"7710212"},{"town":"広島","koaza":"一番越","lat":34.134523,"lng":134.579747,"zip":"7710220"},{"town":"中喜来","koaza":"牛飼野東ノ越","lat":34.149989,"lng":134.580407,"zip":"7710212"},{"town":"中喜来","koaza":"宮前一番越","lat":34.146266,"lng":134.579328,"zip":"7710212"},{"town":"中喜来","koaza":"牛飼野西ノ越","lat":34.150354,"lng":134.579626,"zip":"7710212"},{"town":"中喜来","koaza":"蔵野","lat":34.146495,"lng":134.58202,"zip":"7710212"},{"town":"広島","koaza":"二番越","lat":34.135029,"lng":134.580828,"zip":"7710220"},{"town":"中喜来","koaza":"中瀬西ノ越","lat":34.150022,"lng":134.581383,"zip":"7710212"},{"town":"中喜来","koaza":"十人歩","lat":34.15267,"lng":134.581178,"zip":"7710212"},{"town":"広島","koaza":"北川向四ノ越","lat":34.14278,"lng":134.580783,"zip":"7710220"},{"town":"広島","koaza":"三番越","lat":34.135871,"lng":134.581667,"zip":"7710220"},{"town":"笹木野","koaza":"八上","lat":34.13138,"lng":134.584021,"zip":"7710219"},{"town":"中喜来","koaza":"中瀬中ノ越","lat":34.149955,"lng":134.582652,"zip":"7710212"},{"town":"広島","koaza":"四番越","lat":34.137505,"lng":134.583204,"zip":"7710220"},{"town":"笹木野","koaza":"灘","lat":34.134945,"lng":134.583234,"zip":"7710219"},{"town":"笹木野","koaza":"北上","lat":34.134829,"lng":134.584943,"zip":"7710219"},{"town":"中喜来","koaza":"中瀬堤外","lat":34.150708,"lng":134.583847,"zip":"7710212"},{"town":"中喜来","koaza":"群恵","lat":34.140747,"lng":134.589533,"zip":"7710212"},{"town":"笹木野","koaza":"八下","lat":34.131703,"lng":134.586324,"zip":"7710219"},{"town":"広島","koaza":"鍬ノ先","lat":34.137196,"lng":134.585418,"zip":"7710220"},{"town":"中喜来","koaza":"稲本","lat":34.144581,"lng":134.591256,"zip":"7710212"},{"town":"笹木野","koaza":"山上","lat":34.12908,"lng":134.587622,"zip":"7710219"},{"town":"笹木野","koaza":"八北開拓","lat":34.138599,"lng":134.593528,"zip":"7710219"},{"town":"笹木野","koaza":"八山開拓","lat":34.127981,"lng":134.590337,"zip":"7710219"},{"town":"笹木野","koaza":"北前","lat":34.132792,"lng":134.587588,"zip":"7710219"},{"town":"笹木野","koaza":"山下","lat":34.130685,"lng":134.58773,"zip":"7710219"},{"town":"中喜来","koaza":"堤外","lat":34.13892,"lng":134.588511,"zip":"7710212"},{"town":"住吉","koaza":"住吉開拓","lat":34.129567,"lng":134.593287,"zip":"7710218"},{"town":"中喜来","koaza":"群恵番外","lat":34.139759,"lng":134.589435,"zip":"7710212"},{"town":"笹木野","koaza":"山南","lat":34.121846,"lng":134.594221,"zip":"7710219"},{"town":"満穂","koaza":"満穂開拓","lat":34.13868,"lng":134.60075,"zip":"7710214"},{"town":"笹木野","koaza":"山東","lat":34.124081,"lng":134.596548,"zip":"7710219"},{"town":"中喜来","koaza":"福有","lat":34.144823,"lng":134.595254,"zip":"7710212"},{"town":"中喜来","koaza":"福有開拓","lat":34.144777,"lng":134.599447,"zip":"7710212"},{"town":"豊中","koaza":"豊年","lat":34.127152,"lng":134.597698,"zip":"7710217"},{"town":"豊岡","koaza":"芦田鶴","lat":34.123785,"lng":134.603444,"zip":"7710215"},{"town":"豊岡","koaza":"小金洲","lat":34.118265,"lng":134.601007,"zip":"7710215"},{"town":"豊岡","koaza":"豊岡開拓","lat":34.132248,"lng":134.604995,"zip":"7710215"},{"town":"豊岡","koaza":"鴨洲","lat":34.125702,"lng":134.60303,"zip":"7710215"},{"town":"豊久","koaza":"豊久開拓","lat":34.1418,"lng":134.607941,"zip":"7710213"},{"town":"豊岡","koaza":"山ノ手","lat":34.122811,"lng":134.605208,"zip":"7710215"},{"town":"豊久","koaza":"朝日野","lat":34.135851,"lng":134.615006,"zip":"7710213"},{"town":"中喜来","koaza":"牛飼野堤外","lat":34.147127,"lng":134.581111,"zip":"7710212"}]