[{"town":"赤松","koaza":"","lat":33.76781,"lng":134.481044,"zip":"7792301"},{"town":"阿部","koaza":"","lat":33.793318,"lng":134.634478,"zip":"7792106"},{"town":"伊座利","koaza":"","lat":33.807791,"lng":134.666972,"zip":"7792107"},{"town":"恵比須浜","koaza":"","lat":33.74465,"lng":134.555686,"zip":"7792303"},{"town":"奥河内","koaza":"","lat":33.726324,"lng":134.520623,"zip":"7792305"},{"town":"木岐","koaza":"","lat":33.75584,"lng":134.564391,"zip":"7792108"},{"town":"北河内","koaza":"","lat":33.773144,"lng":134.538224,"zip":"7792302"},{"town":"志和岐","koaza":"","lat":33.78141,"lng":134.609397,"zip":"7792105"},{"town":"田井","koaza":"","lat":33.776748,"lng":134.578739,"zip":"7792109"},{"town":"西河内","koaza":"","lat":33.742573,"lng":134.503448,"zip":"7792306"},{"town":"西の地","koaza":"","lat":33.781692,"lng":134.597112,"zip":"7792103"},{"town":"西由岐","koaza":"","lat":33.771519,"lng":134.59008,"zip":"7792101"},{"town":"東由岐","koaza":"","lat":33.770586,"lng":134.597453,"zip":"7792104"},{"town":"日和佐浦","koaza":"","lat":33.72658,"lng":134.538485,"zip":"7792304"},{"town":"港町","koaza":"","lat":33.773413,"lng":134.592918,"zip":"7792102"},{"town":"山河内","koaza":"","lat":33.717306,"lng":134.477029,"zip":"7792307"},{"town":"奥河内","koaza":"奥潟","lat":33.71875,"lng":134.511884,"zip":"7792305"},{"town":"奥河内","koaza":"櫛ケ谷","lat":33.720485,"lng":134.532301,"zip":"7792305"},{"town":"奥河内","koaza":"寺前","lat":33.7324,"lng":134.528934,"zip":"7792305"},{"town":"奥河内","koaza":"弁才天","lat":33.724311,"lng":134.529666,"zip":"7792305"},{"town":"西河内","koaza":"月輪","lat":33.736804,"lng":134.523967,"zip":"7792306"},{"town":"北河内","koaza":"本村","lat":33.746145,"lng":134.532457,"zip":"7792302"},{"town":"西河内","koaza":"大久保","lat":33.739554,"lng":134.52983,"zip":"7792306"},{"town":"奥河内","koaza":"井ノ上","lat":33.739277,"lng":134.536067,"zip":"7792305"},{"town":"奥河内","koaza":"本村","lat":33.733819,"lng":134.535318,"zip":"7792305"}]