[{"town":"相川","koaza":"","lat":33.644928,"lng":134.256324,"zip":"7750415"},{"town":"浅川","koaza":"","lat":33.655742,"lng":134.363858,"zip":"7750101"},{"town":"大井","koaza":"","lat":33.634546,"lng":134.324724,"zip":"7750310"},{"town":"大里","koaza":"","lat":33.610542,"lng":134.364359,"zip":"7750203"},{"town":"小川","koaza":"","lat":33.698309,"lng":134.320284,"zip":"7750412"},{"town":"奥浦","koaza":"","lat":33.593125,"lng":134.353066,"zip":"7750302"},{"town":"尾崎","koaza":"","lat":33.563788,"lng":134.273947,"zip":"7750504"},{"town":"角坂","koaza":"","lat":33.574297,"lng":134.261122,"zip":"7750506"},{"town":"久尾","koaza":"","lat":33.621266,"lng":134.196299,"zip":"7750511"},{"town":"芥附","koaza":"","lat":33.57697,"lng":134.279654,"zip":"7750505"},{"town":"櫛川","koaza":"","lat":33.601161,"lng":134.293435,"zip":"7750306"},{"town":"久保","koaza":"","lat":33.57378,"lng":134.30051,"zip":"7750502"},{"town":"神野","koaza":"","lat":33.661678,"lng":134.320709,"zip":"7750413"},{"town":"小谷","koaza":"","lat":33.599313,"lng":134.250963,"zip":"7750508"},{"town":"塩深","koaza":"","lat":33.565323,"lng":134.245808,"zip":"7750509"},{"town":"宍喰浦","koaza":"","lat":33.566511,"lng":134.305973,"zip":"7750513"},{"town":"芝","koaza":"","lat":33.603812,"lng":134.325177,"zip":"7750307"},{"town":"四方原","koaza":"","lat":33.614031,"lng":134.347897,"zip":"7750202"},{"town":"熟田","koaza":"","lat":33.627838,"lng":134.332924,"zip":"7750206"},{"town":"高園","koaza":"","lat":33.596606,"lng":134.341811,"zip":"7750303"},{"town":"多良","koaza":"","lat":33.608272,"lng":134.33997,"zip":"7750204"},{"town":"富田","koaza":"","lat":33.619025,"lng":134.316414,"zip":"7750309"},{"town":"鞆浦","koaza":"","lat":33.59046,"lng":134.359766,"zip":"7750301"},{"town":"中山","koaza":"","lat":33.601434,"lng":134.316794,"zip":"7750305"},{"town":"野江","koaza":"","lat":33.595564,"lng":134.327223,"zip":"7750304"},{"town":"日比原","koaza":"","lat":33.56959,"lng":134.28872,"zip":"7750503"},{"town":"平井","koaza":"","lat":33.686374,"lng":134.225711,"zip":"7750411"},{"town":"広岡","koaza":"","lat":33.578094,"lng":134.267983,"zip":"7750507"},{"town":"船津","koaza":"","lat":33.577077,"lng":134.209451,"zip":"7750510"},{"town":"吉田","koaza":"","lat":33.611306,"lng":134.318791,"zip":"7750308"},{"town":"吉野","koaza":"","lat":33.611613,"lng":134.329608,"zip":"7750205"},{"town":"若松","koaza":"","lat":33.647105,"lng":134.316976,"zip":"7750414"}]