[{"town":"阿井","koaza":"","lat":33.84588,"lng":134.473371,"zip":"7715207"},{"town":"相名","koaza":"","lat":33.828439,"lng":134.427991,"zip":"7715323"},{"town":"朝生","koaza":"","lat":33.833233,"lng":134.488953,"zip":"7715401"},{"town":"阿津江","koaza":"","lat":33.847906,"lng":134.295148,"zip":"7716101"},{"town":"鮎川","koaza":"","lat":33.828141,"lng":134.480248,"zip":"7715403"},{"town":"出羽","koaza":"","lat":33.850594,"lng":134.332806,"zip":"7716103"},{"town":"井ノ谷","koaza":"","lat":33.843132,"lng":134.431052,"zip":"7715324"},{"town":"入野","koaza":"","lat":33.820061,"lng":134.455434,"zip":"7715405"},{"town":"岩倉","koaza":"","lat":33.843082,"lng":134.138317,"zip":"7716118"},{"town":"請ノ谷","koaza":"","lat":33.817688,"lng":134.428481,"zip":"7715328"},{"town":"牛輪","koaza":"","lat":33.825941,"lng":134.467197,"zip":"7715404"},{"town":"臼ヶ谷","koaza":"","lat":33.821939,"lng":134.378744,"zip":"7715200"},{"town":"内山","koaza":"","lat":33.850075,"lng":134.413098,"zip":"7715326"},{"town":"馬路","koaza":"","lat":33.853207,"lng":134.458748,"zip":"7715321"},{"town":"榎谷","koaza":"","lat":33.847594,"lng":134.453538,"zip":"7715320"},{"town":"大久保","koaza":"","lat":33.802194,"lng":134.45029,"zip":"7715410"},{"town":"大戸","koaza":"","lat":33.796326,"lng":134.342609,"zip":"7715516"},{"town":"大殿","koaza":"","lat":33.803791,"lng":134.289093,"zip":"7716322"},{"town":"小畠","koaza":"","lat":33.870388,"lng":134.228846,"zip":"7716115"},{"town":"音谷","koaza":"","lat":33.812403,"lng":134.396297,"zip":"7715501"},{"town":"雄","koaza":"","lat":33.800715,"lng":134.498196,"zip":"7715407"},{"town":"海川","koaza":"","lat":33.758691,"lng":134.252115,"zip":"7716328"},{"town":"蔭谷","koaza":"","lat":33.768842,"lng":134.423927,"zip":"7715413"},{"town":"掛盤","koaza":"","lat":33.862105,"lng":134.284707,"zip":"7716107"},{"town":"川成","koaza":"","lat":33.856905,"lng":134.202731,"zip":"7716117"},{"town":"川俣","koaza":"","lat":33.751066,"lng":134.34555,"zip":"7715515"},{"town":"木頭","koaza":"","lat":33.821494,"lng":134.308053,"zip":"7716105"},{"town":"木頭出原","koaza":"","lat":33.760573,"lng":134.21549,"zip":"7716402"},{"town":"木頭折宇","koaza":"","lat":33.753743,"lng":134.145713,"zip":"7716511"},{"town":"木頭北川","koaza":"","lat":33.77911,"lng":134.086306,"zip":"7716512"},{"town":"木頭助","koaza":"","lat":33.808851,"lng":134.205269,"zip":"7716401"},{"town":"木頭西宇","koaza":"","lat":33.769593,"lng":134.171817,"zip":"7716405"},{"town":"木頭南宇","koaza":"","lat":33.773499,"lng":134.187522,"zip":"7716404"},{"town":"木頭名","koaza":"","lat":33.847004,"lng":134.308845,"zip":"7716102"},{"town":"木頭和無田","koaza":"","lat":33.776144,"lng":134.194094,"zip":"7716403"},{"town":"小泉","koaza":"","lat":33.862109,"lng":134.295078,"zip":"7716111"},{"town":"御所谷","koaza":"","lat":33.78932,"lng":134.294026,"zip":"7716324"},{"town":"小仁宇","koaza":"","lat":33.852289,"lng":134.489897,"zip":"7715209"},{"town":"小計","koaza":"","lat":33.801891,"lng":134.374456,"zip":"7715512"},{"town":"小浜","koaza":"","lat":33.808052,"lng":134.368408,"zip":"7715503"},{"town":"坂州","koaza":"","lat":33.828079,"lng":134.291671,"zip":"7716106"},{"town":"桜谷","koaza":"","lat":33.806085,"lng":134.380641,"zip":"7715502"},{"town":"沢谷","koaza":"","lat":33.888638,"lng":134.283467,"zip":"7716114"},{"town":"丈ヶ谷","koaza":"","lat":33.768262,"lng":134.308316,"zip":"7715200"},{"town":"菖蒲","koaza":"","lat":33.83692,"lng":134.360332,"zip":"7715507"},{"town":"白石","koaza":"","lat":33.816008,"lng":134.262291,"zip":"7716323"},{"town":"高野","koaza":"","lat":33.864106,"lng":134.301963,"zip":"7716112"},{"town":"竹ヶ谷","koaza":"","lat":33.842023,"lng":134.384042,"zip":"7715200"},{"town":"谷内","koaza":"","lat":33.830951,"lng":134.447438,"zip":"7715322"},{"town":"寺内","koaza":"","lat":33.872553,"lng":134.311743,"zip":"7716113"},{"town":"当山","koaza":"","lat":33.838854,"lng":134.313412,"zip":"7716104"},{"town":"土佐","koaza":"","lat":33.858877,"lng":134.493305,"zip":"7715202"},{"town":"長安","koaza":"","lat":33.814383,"lng":134.356861,"zip":"7715505"},{"town":"中山","koaza":"","lat":33.858722,"lng":134.533982,"zip":"7715204"},{"town":"成瀬","koaza":"","lat":33.77878,"lng":134.274803,"zip":"7716327"},{"town":"仁宇","koaza":"","lat":33.859155,"lng":134.472799,"zip":"7715208"},{"town":"西納","koaza":"","lat":33.83238,"lng":134.408194,"zip":"7715327"},{"town":"延野","koaza":"","lat":33.819214,"lng":134.47745,"zip":"7715406"},{"town":"拝宮","koaza":"","lat":33.822547,"lng":134.329511,"zip":"7715518"},{"town":"鉢","koaza":"","lat":33.790632,"lng":134.462665,"zip":"7715409"},{"town":"花瀬","koaza":"","lat":33.796922,"lng":134.393285,"zip":"7715532"},{"town":"日浦","koaza":"","lat":33.802026,"lng":134.406438,"zip":"7715531"},{"town":"東尾","koaza":"","lat":33.839914,"lng":134.347734,"zip":"7715508"},{"town":"桧曽根","koaza":"","lat":33.826258,"lng":134.362642,"zip":"7715506"},{"town":"日真","koaza":"","lat":33.806659,"lng":134.329064,"zip":"7715517"},{"town":"平谷","koaza":"","lat":33.793314,"lng":134.316931,"zip":"7716321"},{"town":"平野","koaza":"","lat":33.846471,"lng":134.443753,"zip":"7715325"},{"town":"深森","koaza":"","lat":33.771755,"lng":134.364204,"zip":"7715514"},{"town":"府殿","koaza":"","lat":33.781244,"lng":134.289165,"zip":"7716326"},{"town":"古屋","koaza":"","lat":33.795018,"lng":134.359931,"zip":"7715513"},{"town":"朴野","koaza":"","lat":33.80058,"lng":134.425887,"zip":"7715412"},{"town":"水崎","koaza":"","lat":33.775708,"lng":134.384397,"zip":"7715511"},{"town":"百合","koaza":"","lat":33.841863,"lng":134.490871,"zip":"7715206"},{"town":"百合谷","koaza":"","lat":33.827793,"lng":134.506649,"zip":"7715205"},{"town":"簗ノ上","koaza":"","lat":33.822459,"lng":134.496353,"zip":"7715402"},{"town":"横石","koaza":"","lat":33.78675,"lng":134.442265,"zip":"7715411"},{"town":"横谷","koaza":"","lat":33.854211,"lng":134.243606,"zip":"7716116"},{"town":"吉野","koaza":"","lat":33.808386,"lng":134.466117,"zip":"7715408"},{"town":"和食","koaza":"","lat":33.858989,"lng":134.49934,"zip":"7715201"},{"town":"和食郷","koaza":"","lat":33.850357,"lng":134.504301,"zip":"7715203"}]