[{"town":"阿瀬比町","koaza":"","lat":33.86792,"lng":134.559551,"zip":"7791404"},{"town":"新野町","koaza":"","lat":33.834152,"lng":134.562692,"zip":"7791510"},{"town":"伊島町","koaza":"","lat":33.848893,"lng":134.813874,"zip":"7741760"},{"town":"内原町","koaza":"","lat":33.879876,"lng":134.628744,"zip":"7791401"},{"town":"大井町","koaza":"","lat":33.90085,"lng":134.494201,"zip":"7715177"},{"town":"大潟町","koaza":"","lat":33.88405,"lng":134.665924,"zip":"7740022"},{"town":"大田井町","koaza":"","lat":33.879162,"lng":134.485607,"zip":"7715176"},{"town":"学原町","koaza":"","lat":33.911141,"lng":134.666017,"zip":"7740014"},{"town":"上大野町","koaza":"","lat":33.933861,"lng":134.578751,"zip":"7740049"},{"town":"上中町","koaza":"","lat":33.93314,"lng":134.62343,"zip":"7740044"},{"town":"加茂町","koaza":"","lat":33.898479,"lng":134.552426,"zip":"7715173"},{"town":"楠根町","koaza":"","lat":33.931027,"lng":134.56073,"zip":"7715170"},{"town":"熊谷町","koaza":"","lat":33.907449,"lng":134.578934,"zip":"7715171"},{"town":"黒津地町","koaza":"","lat":33.92998,"lng":134.683655,"zip":"7740006"},{"town":"桑野町","koaza":"","lat":33.872063,"lng":134.614164,"zip":"7791402"},{"town":"才見町","koaza":"","lat":33.910859,"lng":134.678747,"zip":"7740015"},{"town":"西路見町","koaza":"","lat":33.924399,"lng":134.674386,"zip":"7740009"},{"town":"十八女町","koaza":"","lat":33.910126,"lng":134.535492,"zip":"7715178"},{"town":"下大野町","koaza":"","lat":33.920679,"lng":134.595692,"zip":"7740047"},{"town":"水井町","koaza":"","lat":33.896688,"lng":134.51939,"zip":"7715174"},{"town":"住吉町","koaza":"","lat":33.932237,"lng":134.671084,"zip":"7740041"},{"town":"宝田町","koaza":"","lat":33.91812,"lng":134.640513,"zip":"7740045"},{"town":"辰己町","koaza":"","lat":33.934125,"lng":134.689709,"zip":"7740000"},{"town":"津乃峰町","koaza":"","lat":33.888574,"lng":134.65052,"zip":"7740021"},{"town":"椿町","koaza":"","lat":33.825273,"lng":134.686268,"zip":"7791750"},{"town":"椿泊町","koaza":"","lat":33.844744,"lng":134.708873,"zip":"7791740"},{"town":"出来町","koaza":"","lat":33.9291,"lng":134.678971,"zip":"7740007"},{"town":"富岡町","koaza":"","lat":33.915247,"lng":134.657253,"zip":"7740030"},{"town":"豊益町","koaza":"","lat":33.925942,"lng":134.700081,"zip":"7740002"},{"town":"長生町","koaza":"","lat":33.905911,"lng":134.616167,"zip":"7740046"},{"town":"中大野町","koaza":"","lat":33.928684,"lng":134.588787,"zip":"7740048"},{"town":"那賀川町赤池","koaza":"","lat":33.941853,"lng":134.660706,"zip":"7791242"},{"town":"那賀川町今津浦","koaza":"","lat":33.961854,"lng":134.657692,"zip":"7791114"},{"town":"那賀川町色ケ島","koaza":"","lat":33.965848,"lng":134.657635,"zip":"7791112"},{"town":"那賀川町江野島","koaza":"","lat":33.975697,"lng":134.653539,"zip":"7791111"},{"town":"那賀川町上福井","koaza":"","lat":33.950148,"lng":134.678342,"zip":"7791243"},{"town":"那賀川町苅屋","koaza":"","lat":33.950614,"lng":134.660845,"zip":"7791235"},{"town":"那賀川町北中島","koaza":"","lat":33.945951,"lng":134.668794,"zip":"7791246"},{"town":"那賀川町黒地","koaza":"","lat":33.962587,"lng":134.637999,"zip":"7791121"},{"town":"那賀川町小延","koaza":"","lat":33.969645,"lng":134.6469,"zip":"7791116"},{"town":"那賀川町敷地","koaza":"","lat":33.964915,"lng":134.649277,"zip":"7791115"},{"town":"那賀川町島尻","koaza":"","lat":33.975245,"lng":134.644786,"zip":"7791117"},{"town":"那賀川町大京原","koaza":"","lat":33.941533,"lng":134.649391,"zip":"7791233"},{"town":"那賀川町工地","koaza":"","lat":33.953881,"lng":134.666128,"zip":"7791236"},{"town":"那賀川町手島","koaza":"","lat":33.955105,"lng":134.652017,"zip":"7791123"},{"town":"那賀川町中島","koaza":"","lat":33.940972,"lng":134.674036,"zip":"7791245"},{"town":"那賀川町西原","koaza":"","lat":33.945024,"lng":134.639024,"zip":"7791232"},{"town":"那賀川町原","koaza":"","lat":33.948388,"lng":134.635355,"zip":"7791231"},{"town":"那賀川町日向","koaza":"","lat":33.958679,"lng":134.648272,"zip":"7791119"},{"town":"那賀川町古津","koaza":"","lat":33.95073,"lng":134.652813,"zip":"7791234"},{"town":"那賀川町芳崎","koaza":"","lat":33.958772,"lng":134.665924,"zip":"7791113"},{"town":"那賀川町三栗","koaza":"","lat":33.944298,"lng":134.656305,"zip":"7791241"},{"town":"那賀川町みどり台","koaza":"","lat":33.954926,"lng":134.685161,"zip":"7791244"},{"town":"那賀川町八幡","koaza":"","lat":33.956746,"lng":134.642827,"zip":"7791122"},{"town":"那賀川町豊香野","koaza":"","lat":33.966634,"lng":134.648466,"zip":"7791118"},{"town":"中林町","koaza":"","lat":33.905455,"lng":134.689694,"zip":"7740016"},{"town":"七見町","koaza":"","lat":33.922036,"lng":134.678655,"zip":"7740012"},{"town":"羽ノ浦町岩脇","koaza":"","lat":33.946513,"lng":134.614746,"zip":"7791107"},{"town":"羽ノ浦町春日野","koaza":"","lat":33.960049,"lng":134.617434,"zip":"7791103"},{"town":"羽ノ浦町古毛","koaza":"","lat":33.944942,"lng":134.588011,"zip":"7791109"},{"town":"羽ノ浦町中庄","koaza":"","lat":33.95803,"lng":134.63306,"zip":"7791101"},{"town":"羽ノ浦町西春日野","koaza":"","lat":33.955599,"lng":134.61293,"zip":"7791104"},{"town":"羽ノ浦町古庄","koaza":"","lat":33.943543,"lng":134.628098,"zip":"7791105"},{"town":"羽ノ浦町宮倉","koaza":"","lat":33.960641,"lng":134.623292,"zip":"7791102"},{"town":"羽ノ浦町明見","koaza":"","lat":33.943267,"lng":134.601333,"zip":"7791108"},{"town":"原ケ崎町","koaza":"","lat":33.931321,"lng":134.678012,"zip":"7740008"},{"town":"畭町","koaza":"","lat":33.920588,"lng":134.694322,"zip":"7740003"},{"town":"日開野町","koaza":"","lat":33.917689,"lng":134.676117,"zip":"7740013"},{"town":"深瀬町","koaza":"","lat":33.924005,"lng":134.541422,"zip":"7715179"},{"town":"福井町","koaza":"","lat":33.823071,"lng":134.612821,"zip":"7791620"},{"town":"福村町","koaza":"","lat":33.924878,"lng":134.692245,"zip":"7740004"},{"town":"細野町","koaza":"","lat":33.881506,"lng":134.506844,"zip":"7715175"},{"town":"見能林町","koaza":"","lat":33.898994,"lng":134.66805,"zip":"7740017"},{"town":"向原町","koaza":"","lat":33.929205,"lng":134.688965,"zip":"7740005"},{"town":"柳島町","koaza":"","lat":33.932556,"lng":134.645123,"zip":"7740043"},{"town":"山口町","koaza":"","lat":33.871033,"lng":134.583789,"zip":"7791403"},{"town":"横見町","koaza":"","lat":33.93071,"lng":134.659359,"zip":"7740042"},{"town":"吉井町","koaza":"","lat":33.911451,"lng":134.56499,"zip":"7715172"},{"town":"領家町","koaza":"","lat":33.924393,"lng":134.668509,"zip":"7740011"},{"town":"橘町","koaza":"","lat":33.863522,"lng":134.627801,"zip":"7791631"},{"town":"上大野町","koaza":"萱原","lat":33.9433,"lng":134.576138,"zip":"7740049"},{"town":"長生町","koaza":"角ノ谷","lat":33.893099,"lng":134.599297,"zip":"7740046"},{"town":"羽ノ浦町古毛","koaza":"萱原","lat":33.942256,"lng":134.575943,"zip":"7791109"},{"town":"上大野町","koaza":"西谷","lat":33.934614,"lng":134.575719,"zip":"7740049"},{"town":"上大野町","koaza":"小山田","lat":33.92713,"lng":134.578474,"zip":"7740049"},{"town":"上大野町","koaza":"久留米田","lat":33.932358,"lng":134.577383,"zip":"7740049"},{"town":"上大野町","koaza":"成国","lat":33.937145,"lng":134.579064,"zip":"7740049"},{"town":"羽ノ浦町古毛","koaza":"覗石","lat":33.944563,"lng":134.581715,"zip":"7791109"},{"town":"上大野町","koaza":"清松","lat":33.9368,"lng":134.580812,"zip":"7740049"},{"town":"上大野町","koaza":"南浦","lat":33.938043,"lng":134.58021,"zip":"7740049"},{"town":"上大野町","koaza":"大山田","lat":33.928479,"lng":134.58353,"zip":"7740049"},{"town":"上大野町","koaza":"池之内","lat":33.933722,"lng":134.581789,"zip":"7740049"},{"town":"上大野町","koaza":"別所","lat":33.932379,"lng":134.581538,"zip":"7740049"},{"town":"上大野町","koaza":"城之内","lat":33.935458,"lng":134.583851,"zip":"7740049"},{"town":"上大野町","koaza":"南豊年","lat":33.938266,"lng":134.58168,"zip":"7740049"},{"town":"上大野町","koaza":"中川原","lat":33.936306,"lng":134.583822,"zip":"7740049"},{"town":"上大野町","koaza":"須賀","lat":33.934222,"lng":134.58705,"zip":"7740049"},{"town":"中大野町","koaza":"大坪","lat":33.938957,"lng":134.586789,"zip":"7740048"},{"town":"羽ノ浦町古毛","koaza":"小谷口","lat":33.945569,"lng":134.58881,"zip":"7791109"},{"town":"下大野町","koaza":"橋川","lat":33.913001,"lng":134.592033,"zip":"7740047"},{"town":"中大野町","koaza":"北傍示","lat":33.934244,"lng":134.590483,"zip":"7740048"},{"town":"羽ノ浦町古毛","koaza":"上須賀","lat":33.943697,"lng":134.587994,"zip":"7791109"},{"town":"羽ノ浦町古毛","koaza":"大須賀","lat":33.94336,"lng":134.592662,"zip":"7791109"},{"town":"下大野町","koaza":"畑田","lat":33.924198,"lng":134.593999,"zip":"7740047"},{"town":"羽ノ浦町古毛","koaza":"中須賀","lat":33.945188,"lng":134.595199,"zip":"7791109"},{"town":"羽ノ浦町古毛","koaza":"前須賀","lat":33.941892,"lng":134.596192,"zip":"7791109"},{"town":"羽ノ浦町古毛","koaza":"車田","lat":33.945702,"lng":134.593904,"zip":"7791109"},{"town":"長生町","koaza":"堂谷","lat":33.898634,"lng":134.597907,"zip":"7740046"},{"town":"下大野町","koaza":"小野","lat":33.930831,"lng":134.595031,"zip":"7740047"},{"town":"下大野町","koaza":"三条","lat":33.934566,"lng":134.595926,"zip":"7740047"},{"town":"羽ノ浦町古毛","koaza":"三百歩","lat":33.947848,"lng":134.59826,"zip":"7791109"},{"town":"下大野町","koaza":"薮呂","lat":33.927016,"lng":134.598697,"zip":"7740047"},{"town":"長生町","koaza":"椎木谷","lat":33.91304,"lng":134.603535,"zip":"7740046"},{"town":"下大野町","koaza":"延田井","lat":33.929236,"lng":134.597927,"zip":"7740047"},{"town":"長生町","koaza":"西山崎","lat":33.914002,"lng":134.602798,"zip":"7740046"},{"town":"羽ノ浦町古毛","koaza":"小須賀","lat":33.942879,"lng":134.597238,"zip":"7791109"},{"town":"下大野町","koaza":"松ノ本","lat":33.93225,"lng":134.599895,"zip":"7740047"},{"town":"長生町","koaza":"古地","lat":33.909385,"lng":134.610203,"zip":"7740046"},{"town":"下大野町","koaza":"太平","lat":33.935061,"lng":134.601351,"zip":"7740047"},{"town":"長生町","koaza":"南川","lat":33.894882,"lng":134.601519,"zip":"7740046"},{"town":"羽ノ浦町古毛","koaza":"細谷","lat":33.946655,"lng":134.600225,"zip":"7791109"},{"town":"長生町","koaza":"明谷中沢","lat":33.897948,"lng":134.604417,"zip":"7740046"},{"town":"下大野町","koaza":"楠ノキ","lat":33.930788,"lng":134.601591,"zip":"7740047"},{"town":"羽ノ浦町岩脇","koaza":"松ノ本","lat":33.944348,"lng":134.604966,"zip":"7791107"},{"town":"長生町","koaza":"鬼太郎","lat":33.911757,"lng":134.601954,"zip":"7740046"},{"town":"下大野町","koaza":"羽坂","lat":33.926298,"lng":134.605862,"zip":"7740047"},{"town":"長生町","koaza":"久保田","lat":33.911312,"lng":134.603852,"zip":"7740046"},{"town":"長生町","koaza":"二又谷","lat":33.912386,"lng":134.601809,"zip":"7740046"},{"town":"長生町","koaza":"山ノ神","lat":33.914547,"lng":134.603216,"zip":"7740046"},{"town":"下大野町","koaza":"大橋","lat":33.928912,"lng":134.607833,"zip":"7740047"},{"town":"下大野町","koaza":"柴根","lat":33.931125,"lng":134.605284,"zip":"7740047"},{"town":"下大野町","koaza":"渡り上り","lat":33.933971,"lng":134.609749,"zip":"7740047"},{"town":"長生町","koaza":"谷々","lat":33.915078,"lng":134.604311,"zip":"7740046"},{"town":"長生町","koaza":"三倉中ノ谷","lat":33.916106,"lng":134.604922,"zip":"7740046"},{"town":"長生町","koaza":"善入谷","lat":33.920159,"lng":134.606241,"zip":"7740046"},{"town":"長生町","koaza":"池ノ内","lat":33.914294,"lng":134.60456,"zip":"7740046"},{"town":"下大野町","koaza":"五反畑","lat":33.932756,"lng":134.605927,"zip":"7740047"},{"town":"長生町","koaza":"善入","lat":33.917392,"lng":134.605315,"zip":"7740046"},{"town":"長生町","koaza":"次郎丸","lat":33.914176,"lng":134.605631,"zip":"7740046"},{"town":"羽ノ浦町岩脇","koaza":"阿千田","lat":33.946401,"lng":134.609438,"zip":"7791107"},{"town":"長生町","koaza":"坊ノ前","lat":33.915277,"lng":134.605496,"zip":"7740046"},{"town":"長生町","koaza":"丸山","lat":33.912921,"lng":134.605384,"zip":"7740046"},{"town":"長生町","koaza":"淵首","lat":33.913437,"lng":134.605307,"zip":"7740046"},{"town":"羽ノ浦町岩脇","koaza":"宮ノ下","lat":33.944409,"lng":134.607717,"zip":"7791107"},{"town":"長生町","koaza":"岩ノ下","lat":33.893842,"lng":134.611257,"zip":"7740046"},{"town":"羽ノ浦町岩脇","koaza":"原平","lat":33.942793,"lng":134.608792,"zip":"7791107"},{"town":"長生町","koaza":"神子ノ下","lat":33.916077,"lng":134.606564,"zip":"7740046"},{"town":"長生町","koaza":"西天満","lat":33.911273,"lng":134.606685,"zip":"7740046"},{"town":"長生町","koaza":"西山","lat":33.898477,"lng":134.611638,"zip":"7740046"},{"town":"長生町","koaza":"松尾","lat":33.918739,"lng":134.606281,"zip":"7740046"},{"town":"長生町","koaza":"高座","lat":33.917127,"lng":134.606619,"zip":"7740046"},{"town":"長生町","koaza":"山崎","lat":33.915145,"lng":134.607171,"zip":"7740046"},{"town":"長生町","koaza":"山脇","lat":33.913404,"lng":134.608106,"zip":"7740046"},{"town":"羽ノ浦町岩脇","koaza":"猪ノ谷","lat":33.945594,"lng":134.60807,"zip":"7791107"},{"town":"長生町","koaza":"張","lat":33.919101,"lng":134.609279,"zip":"7740046"},{"town":"長生町","koaza":"暮橋","lat":33.916403,"lng":134.608081,"zip":"7740046"},{"town":"長生町","koaza":"北浦","lat":33.895136,"lng":134.609736,"zip":"7740046"},{"town":"長生町","koaza":"四斗代","lat":33.915338,"lng":134.607904,"zip":"7740046"},{"town":"長生町","koaza":"東天満","lat":33.911535,"lng":134.607918,"zip":"7740046"},{"town":"長生町","koaza":"北内","lat":33.911116,"lng":134.611346,"zip":"7740046"},{"town":"長生町","koaza":"租ケ谷","lat":33.904597,"lng":134.612087,"zip":"7740046"},{"town":"羽ノ浦町岩脇","koaza":"奥ノ谷","lat":33.949235,"lng":134.613723,"zip":"7791107"},{"town":"長生町","koaza":"宮内","lat":33.920833,"lng":134.618077,"zip":"7740046"},{"town":"羽ノ浦町岩脇","koaza":"上平","lat":33.946087,"lng":134.612607,"zip":"7791107"},{"town":"上中町","koaza":"南島","lat":33.934471,"lng":134.619219,"zip":"7740044"},{"town":"長生町","koaza":"坪井","lat":33.909929,"lng":134.610724,"zip":"7740046"},{"town":"長生町","koaza":"柳ケ坪","lat":33.911068,"lng":134.613024,"zip":"7740046"},{"town":"羽ノ浦町宮倉","koaza":"橋ノ本","lat":33.956475,"lng":134.615815,"zip":"7791102"},{"town":"羽ノ浦町岩脇","koaza":"西園","lat":33.943035,"lng":134.612442,"zip":"7791107"},{"town":"長生町","koaza":"下小原","lat":33.895768,"lng":134.617452,"zip":"7740046"},{"town":"羽ノ浦町岩脇","koaza":"ヌクミ","lat":33.947543,"lng":134.614035,"zip":"7791107"},{"town":"長生町","koaza":"西方","lat":33.922513,"lng":134.620086,"zip":"7740046"},{"town":"長生町","koaza":"北平岡","lat":33.91002,"lng":134.614673,"zip":"7740046"},{"town":"橘町","koaza":"六反地","lat":33.857466,"lng":134.617637,"zip":"7791631"},{"town":"橘町","koaza":"壱升ケ森","lat":33.849662,"lng":134.614576,"zip":"7791631"},{"town":"長生町","koaza":"原田","lat":33.896037,"lng":134.614587,"zip":"7740046"},{"town":"長生町","koaza":"間谷","lat":33.906787,"lng":134.616959,"zip":"7740046"},{"town":"羽ノ浦町岩脇","koaza":"中地","lat":33.945584,"lng":134.616657,"zip":"7791107"},{"town":"上中町","koaza":"岡","lat":33.929616,"lng":134.620554,"zip":"7740044"},{"town":"橘町","koaza":"家の前","lat":33.853764,"lng":134.619223,"zip":"7791631"},{"town":"羽ノ浦町岩脇","koaza":"高地","lat":33.943994,"lng":134.616552,"zip":"7791107"},{"town":"羽ノ浦町岩脇","koaza":"町筋","lat":33.942096,"lng":134.616659,"zip":"7791107"},{"town":"長生町","koaza":"五反地","lat":33.910122,"lng":134.617117,"zip":"7740046"},{"town":"羽ノ浦町岩脇","koaza":"神代地","lat":33.949169,"lng":134.618368,"zip":"7791107"},{"town":"長生町","koaza":"恋田","lat":33.908871,"lng":134.616426,"zip":"7740046"},{"town":"長生町","koaza":"川そ","lat":33.903106,"lng":134.616191,"zip":"7740046"},{"town":"羽ノ浦町宮倉","koaza":"太田","lat":33.963991,"lng":134.620235,"zip":"7791102"},{"town":"羽ノ浦町宮倉","koaza":"高田","lat":33.956822,"lng":134.616554,"zip":"7791102"},{"town":"長生町","koaza":"南平岡","lat":33.908075,"lng":134.617147,"zip":"7740046"},{"town":"長生町","koaza":"諏訪ノ端","lat":33.906626,"lng":134.617404,"zip":"7740046"},{"town":"羽ノ浦町岩脇","koaza":"弐反地","lat":33.948335,"lng":134.620834,"zip":"7791107"},{"town":"長生町","koaza":"段","lat":33.89787,"lng":134.618216,"zip":"7740046"},{"town":"長生町","koaza":"楠ノ元","lat":33.909357,"lng":134.618733,"zip":"7740046"},{"town":"羽ノ浦町岩脇","koaza":"七反地","lat":33.944979,"lng":134.619809,"zip":"7791107"},{"town":"羽ノ浦町宮倉","koaza":"沢田","lat":33.955476,"lng":134.619279,"zip":"7791102"},{"town":"羽ノ浦町岩脇","koaza":"姥ケ原","lat":33.943524,"lng":134.619901,"zip":"7791107"},{"town":"長生町","koaza":"松ノ元","lat":33.907104,"lng":134.618945,"zip":"7740046"},{"town":"長生町","koaza":"平田","lat":33.911168,"lng":134.620751,"zip":"7740046"},{"town":"長生町","koaza":"南山","lat":33.895399,"lng":134.618942,"zip":"7740046"},{"town":"長生町","koaza":"権現池","lat":33.903464,"lng":134.618667,"zip":"7740046"},{"town":"羽ノ浦町宮倉","koaza":"日開元","lat":33.963,"lng":134.620639,"zip":"7791102"},{"town":"長生町","koaza":"上荒井楠ノ前","lat":33.908549,"lng":134.619536,"zip":"7740046"},{"town":"長生町","koaza":"川ハタ","lat":33.905604,"lng":134.622902,"zip":"7740046"},{"town":"羽ノ浦町宮倉","koaza":"本村居内","lat":33.965178,"lng":134.622656,"zip":"7791102"},{"town":"羽ノ浦町宮倉","koaza":"恵田","lat":33.958203,"lng":134.621092,"zip":"7791102"},{"town":"長生町","koaza":"七見通","lat":33.903296,"lng":134.61945,"zip":"7740046"},{"town":"羽ノ浦町宮倉","koaza":"芝生","lat":33.96139,"lng":134.621669,"zip":"7791102"},{"town":"長生町","koaza":"北千足","lat":33.913567,"lng":134.620507,"zip":"7740046"},{"town":"羽ノ浦町古庄","koaza":"大道ノ西","lat":33.94215,"lng":134.621279,"zip":"7791105"},{"town":"長生町","koaza":"北貝ケ原","lat":33.916857,"lng":134.621456,"zip":"7740046"},{"town":"長生町","koaza":"大原楠ノ前","lat":33.907623,"lng":134.620025,"zip":"7740046"},{"town":"長生町","koaza":"滝ノ下","lat":33.903648,"lng":134.621243,"zip":"7740046"},{"town":"羽ノ浦町宮倉","koaza":"大木","lat":33.953688,"lng":134.621484,"zip":"7791102"},{"town":"長生町","koaza":"中大津","lat":33.908809,"lng":134.620693,"zip":"7740046"},{"town":"長生町","koaza":"荒井股","lat":33.909928,"lng":134.620733,"zip":"7740046"},{"town":"羽ノ浦町宮倉","koaza":"背戸田","lat":33.966478,"lng":134.623707,"zip":"7791102"},{"town":"羽ノ浦町宮倉","koaza":"原ノ内","lat":33.962595,"lng":134.623651,"zip":"7791102"},{"town":"橘町","koaza":"大坪","lat":33.859131,"lng":134.621398,"zip":"7791631"},{"town":"橘町","koaza":"日開谷","lat":33.855182,"lng":134.621856,"zip":"7791631"},{"town":"長生町","koaza":"南貝ケ原","lat":33.914612,"lng":134.622426,"zip":"7740046"},{"town":"羽ノ浦町宮倉","koaza":"山崎","lat":33.958532,"lng":134.622037,"zip":"7791102"},{"town":"羽ノ浦町中庄","koaza":"上ナカレ","lat":33.954613,"lng":134.624137,"zip":"7791101"},{"town":"羽ノ浦町古庄","koaza":"大坪原","lat":33.944391,"lng":134.625915,"zip":"7791105"},{"town":"長生町","koaza":"大津田","lat":33.911207,"lng":134.62218,"zip":"7740046"},{"town":"長生町","koaza":"門田","lat":33.906724,"lng":134.623296,"zip":"7740046"},{"town":"羽ノ浦町宮倉","koaza":"ながれ","lat":33.959955,"lng":134.622266,"zip":"7791102"},{"town":"羽ノ浦町中庄","koaza":"中屋","lat":33.952409,"lng":134.622746,"zip":"7791101"},{"town":"羽ノ浦町岩脇","koaza":"中須","lat":33.946389,"lng":134.623035,"zip":"7791107"},{"town":"長生町","koaza":"長田","lat":33.90862,"lng":134.623059,"zip":"7740046"},{"town":"長生町","koaza":"南千足","lat":33.912414,"lng":134.623154,"zip":"7740046"},{"town":"羽ノ浦町宮倉","koaza":"前田","lat":33.964308,"lng":134.624466,"zip":"7791102"},{"town":"羽ノ浦町宮倉","koaza":"南浦","lat":33.957444,"lng":134.623636,"zip":"7791102"},{"town":"羽ノ浦町古庄","koaza":"古野神","lat":33.942059,"lng":134.623296,"zip":"7791105"},{"town":"長生町","koaza":"馬こし","lat":33.909818,"lng":134.623332,"zip":"7740046"},{"town":"羽ノ浦町岩脇","koaza":"紫衣池","lat":33.948926,"lng":134.625699,"zip":"7791107"},{"town":"羽ノ浦町古庄","koaza":"中川原","lat":33.945764,"lng":134.62575,"zip":"7791105"},{"town":"橘町","koaza":"土井崎","lat":33.851358,"lng":134.625974,"zip":"7791631"},{"town":"羽ノ浦町宮倉","koaza":"羽ノ浦居内","lat":33.959133,"lng":134.625086,"zip":"7791102"},{"town":"長生町","koaza":"中久保","lat":33.916242,"lng":134.623743,"zip":"7740046"},{"town":"橘町","koaza":"中尾","lat":33.86374,"lng":134.62731,"zip":"7791631"},{"town":"羽ノ浦町中庄","koaza":"砂川原","lat":33.953001,"lng":134.625297,"zip":"7791101"},{"town":"羽ノ浦町中庄","koaza":"蔵ノホケ","lat":33.953814,"lng":134.625493,"zip":"7791101"},{"town":"羽ノ浦町中庄","koaza":"川原畑","lat":33.951221,"lng":134.625398,"zip":"7791101"},{"town":"上中町","koaza":"中原","lat":33.932641,"lng":134.628605,"zip":"7740044"},{"town":"羽ノ浦町古庄","koaza":"張ノ下","lat":33.944909,"lng":134.625036,"zip":"7791105"},{"town":"長生町","koaza":"うその口","lat":33.909078,"lng":134.624392,"zip":"7740046"},{"town":"羽ノ浦町中庄","koaza":"原ノ内","lat":33.96221,"lng":134.625676,"zip":"7791101"},{"town":"長生町","koaza":"塩免","lat":33.910981,"lng":134.625884,"zip":"7740046"},{"town":"羽ノ浦町中庄","koaza":"市","lat":33.958792,"lng":134.626701,"zip":"7791101"},{"town":"羽ノ浦町古庄","koaza":"野神ノ本","lat":33.942075,"lng":134.625471,"zip":"7791105"},{"town":"羽ノ浦町中庄","koaza":"鴻ノ袖","lat":33.965096,"lng":134.626112,"zip":"7791101"},{"town":"羽ノ浦町中庄","koaza":"千田池","lat":33.965323,"lng":134.629294,"zip":"7791101"},{"town":"長生町","koaza":"寿嘉","lat":33.907624,"lng":134.625887,"zip":"7740046"},{"town":"羽ノ浦町中庄","koaza":"洲崎","lat":33.950135,"lng":134.626608,"zip":"7791101"},{"town":"羽ノ浦町中庄","koaza":"高田原","lat":33.952311,"lng":134.626103,"zip":"7791101"},{"town":"長生町","koaza":"領田","lat":33.920448,"lng":134.626398,"zip":"7740046"},{"town":"長生町","koaza":"本庄市","lat":33.914543,"lng":134.625563,"zip":"7740046"},{"town":"長生町","koaza":"ヲコキ","lat":33.913331,"lng":134.626733,"zip":"7740046"},{"town":"橘町","koaza":"塩田","lat":33.860082,"lng":134.629335,"zip":"7791631"},{"town":"長生町","koaza":"出屋敷","lat":33.91539,"lng":134.626579,"zip":"7740046"},{"town":"羽ノ浦町中庄","koaza":"段上","lat":33.962762,"lng":134.627679,"zip":"7791101"},{"town":"長生町","koaza":"赤坂","lat":33.908414,"lng":134.628791,"zip":"7740046"},{"town":"羽ノ浦町古庄","koaza":"二輛車","lat":33.943441,"lng":134.626875,"zip":"7791105"},{"town":"羽ノ浦町中庄","koaza":"京満","lat":33.955189,"lng":134.627002,"zip":"7791101"},{"town":"羽ノ浦町古庄","koaza":"宮ノ後","lat":33.947195,"lng":134.628907,"zip":"7791105"},{"town":"羽ノ浦町古庄","koaza":"中相","lat":33.941891,"lng":134.626826,"zip":"7791105"},{"town":"長生町","koaza":"平久保","lat":33.913794,"lng":134.627867,"zip":"7740046"},{"town":"長生町","koaza":"北門","lat":33.920199,"lng":134.627342,"zip":"7740046"},{"town":"羽ノ浦町中庄","koaza":"梶島","lat":33.951206,"lng":134.629108,"zip":"7791101"},{"town":"橘町","koaza":"南新田","lat":33.856023,"lng":134.629371,"zip":"7791631"},{"town":"長生町","koaza":"海部屋敷","lat":33.918547,"lng":134.629578,"zip":"7740046"},{"town":"長生町","koaza":"松道","lat":33.915322,"lng":134.628004,"zip":"7740046"},{"town":"羽ノ浦町中庄","koaza":"原婦知","lat":33.958228,"lng":134.628001,"zip":"7791101"},{"town":"羽ノ浦町古庄","koaza":"葭ノ本","lat":33.943246,"lng":134.629513,"zip":"7791105"},{"town":"長生町","koaza":"東地","lat":33.906286,"lng":134.629326,"zip":"7740046"},{"town":"羽ノ浦町中庄","koaza":"中分","lat":33.961767,"lng":134.628591,"zip":"7791101"},{"town":"羽ノ浦町中庄","koaza":"ハタイ","lat":33.955891,"lng":134.629396,"zip":"7791101"},{"town":"羽ノ浦町中庄","koaza":"なかれ","lat":33.956813,"lng":134.628833,"zip":"7791101"},{"town":"羽ノ浦町中庄","koaza":"神木","lat":33.960055,"lng":134.629611,"zip":"7791101"},{"town":"宝田町","koaza":"平岡","lat":33.928255,"lng":134.632551,"zip":"7740045"},{"town":"橘町","koaza":"大浦","lat":33.872034,"lng":134.633889,"zip":"7791631"},{"town":"羽ノ浦町古庄","koaza":"宮ノ前","lat":33.944547,"lng":134.631094,"zip":"7791105"},{"town":"長生町","koaza":"油免","lat":33.912888,"lng":134.629645,"zip":"7740046"},{"town":"羽ノ浦町中庄","koaza":"宮ノ前","lat":33.96378,"lng":134.629786,"zip":"7791101"},{"town":"羽ノ浦町中庄","koaza":"若柳","lat":33.95307,"lng":134.630256,"zip":"7791101"},{"town":"羽ノ浦町中庄","koaza":"やたけ","lat":33.95931,"lng":134.630782,"zip":"7791101"},{"town":"長生町","koaza":"舟田","lat":33.916275,"lng":134.630159,"zip":"7740046"},{"town":"長生町","koaza":"川田","lat":33.917842,"lng":134.631702,"zip":"7740046"},{"town":"羽ノ浦町中庄","koaza":"とい添","lat":33.960893,"lng":134.630619,"zip":"7791101"},{"town":"羽ノ浦町古庄","koaza":"高畭","lat":33.941333,"lng":134.630523,"zip":"7791105"},{"town":"宝田町","koaza":"大久保","lat":33.926578,"lng":134.635385,"zip":"7740045"},{"town":"長生町","koaza":"口ノ岩戸","lat":33.901345,"lng":134.631192,"zip":"7740046"},{"town":"長生町","koaza":"寺ノ前","lat":33.909889,"lng":134.632676,"zip":"7740046"},{"town":"宝田町","koaza":"宝田","lat":33.921784,"lng":134.63101,"zip":"7740045"},{"town":"長生町","koaza":"舟付","lat":33.914095,"lng":134.631552,"zip":"7740046"},{"town":"羽ノ浦町中庄","koaza":"中塚","lat":33.950133,"lng":134.630966,"zip":"7791101"},{"town":"羽ノ浦町中庄","koaza":"川ノ東","lat":33.963007,"lng":134.630468,"zip":"7791101"},{"town":"長生町","koaza":"水ケ谷","lat":33.903027,"lng":134.631516,"zip":"7740046"},{"town":"羽ノ浦町中庄","koaza":"黒松","lat":33.958935,"lng":134.632125,"zip":"7791101"},{"town":"羽ノ浦町古庄","koaza":"腰前","lat":33.946731,"lng":134.630952,"zip":"7791105"},{"town":"羽ノ浦町中庄","koaza":"西角","lat":33.955314,"lng":134.63234,"zip":"7791101"},{"town":"羽ノ浦町古庄","koaza":"宮ノ東","lat":33.945714,"lng":134.631987,"zip":"7791105"},{"town":"羽ノ浦町中庄","koaza":"中塚後","lat":33.95181,"lng":134.631591,"zip":"7791101"},{"town":"羽ノ浦町古庄","koaza":"金住下り","lat":33.943081,"lng":134.631795,"zip":"7791105"},{"town":"羽ノ浦町中庄","koaza":"平安寺後","lat":33.961985,"lng":134.631013,"zip":"7791101"},{"town":"宝田町","koaza":"吉富士","lat":33.923649,"lng":134.631093,"zip":"7740045"},{"town":"長生町","koaza":"宝田","lat":33.91971,"lng":134.631837,"zip":"7740046"},{"town":"宝田町","koaza":"梅の本","lat":33.921854,"lng":134.633316,"zip":"7740045"},{"town":"長生町","koaza":"露木","lat":33.916039,"lng":134.63181,"zip":"7740046"},{"town":"羽ノ浦町古庄","koaza":"下向","lat":33.941745,"lng":134.632942,"zip":"7791105"},{"town":"羽ノ浦町中庄","koaza":"トキ内","lat":33.953693,"lng":134.633614,"zip":"7791101"},{"town":"羽ノ浦町中庄","koaza":"平安寺前","lat":33.961476,"lng":134.632819,"zip":"7791101"},{"town":"羽ノ浦町古庄","koaza":"張ノ上","lat":33.94527,"lng":134.634258,"zip":"7791105"},{"town":"羽ノ浦町中庄","koaza":"新ノ池","lat":33.956459,"lng":134.634407,"zip":"7791101"},{"town":"羽ノ浦町古庄","koaza":"金住川原","lat":33.943844,"lng":134.632424,"zip":"7791105"},{"town":"羽ノ浦町中庄","koaza":"こしまえ","lat":33.949611,"lng":134.63356,"zip":"7791101"},{"town":"羽ノ浦町中庄","koaza":"かわら池","lat":33.952258,"lng":134.633913,"zip":"7791101"},{"town":"宝田町","koaza":"今市柳タイ","lat":33.93416,"lng":134.634155,"zip":"7740045"},{"town":"宝田町","koaza":"市場","lat":33.91907,"lng":134.634158,"zip":"7740045"},{"town":"羽ノ浦町中庄","koaza":"びわくぼ","lat":33.9514,"lng":134.635555,"zip":"7791101"},{"town":"長生町","koaza":"竹瀬","lat":33.901249,"lng":134.633261,"zip":"7740046"},{"town":"柳島町","koaza":"南別当","lat":33.935207,"lng":134.634738,"zip":"7740043"},{"town":"橘町","koaza":"江ノ浦","lat":33.875698,"lng":134.637294,"zip":"7791631"},{"town":"宝田町","koaza":"今市上ノ原","lat":33.930672,"lng":134.634921,"zip":"7740045"},{"town":"長生町","koaza":"宮ノ本","lat":33.914709,"lng":134.63445,"zip":"7740046"},{"town":"橘町","koaza":"幸田","lat":33.87011,"lng":134.633579,"zip":"7791631"},{"town":"宝田町","koaza":"中友","lat":33.917984,"lng":134.63613,"zip":"7740045"},{"town":"柳島町","koaza":"六反地","lat":33.936843,"lng":134.637512,"zip":"7740043"},{"town":"長生町","koaza":"東谷","lat":33.898625,"lng":134.638846,"zip":"7740046"},{"town":"宝田町","koaza":"今市西の口","lat":33.930102,"lng":134.637143,"zip":"7740045"},{"town":"羽ノ浦町中庄","koaza":"大知渕","lat":33.953974,"lng":134.637052,"zip":"7791101"},{"town":"宝田町","koaza":"日の本","lat":33.925911,"lng":134.637492,"zip":"7740045"},{"town":"羽ノ浦町中庄","koaza":"池ノ上","lat":33.956601,"lng":134.636246,"zip":"7791101"},{"town":"宝田町","koaza":"久保田","lat":33.92155,"lng":134.637992,"zip":"7740045"},{"town":"宝田町","koaza":"今市山の北","lat":33.931688,"lng":134.638742,"zip":"7740045"},{"town":"羽ノ浦町中庄","koaza":"小平畭","lat":33.95518,"lng":134.63929,"zip":"7791101"},{"town":"羽ノ浦町中庄","koaza":"川ノ上","lat":33.953455,"lng":134.638881,"zip":"7791101"},{"town":"長生町","koaza":"戸崎","lat":33.915463,"lng":134.636622,"zip":"7740046"},{"town":"津乃峰町","koaza":"西分","lat":33.886701,"lng":134.644354,"zip":"7740021"},{"town":"橘町","koaza":"中浦","lat":33.873213,"lng":134.637767,"zip":"7791631"},{"town":"柳島町","koaza":"中川原","lat":33.930455,"lng":134.645264,"zip":"7740043"},{"town":"宝田町","koaza":"今市中新開","lat":33.925994,"lng":134.640478,"zip":"7740045"},{"town":"福井町","koaza":"袴","lat":33.861518,"lng":134.642194,"zip":"7791620"},{"town":"柳島町","koaza":"外萩","lat":33.935499,"lng":134.639199,"zip":"7740043"},{"town":"羽ノ浦町中庄","koaza":"なかあい","lat":33.951976,"lng":134.638375,"zip":"7791101"},{"town":"橘町","koaza":"西浜","lat":33.872687,"lng":134.640769,"zip":"7791631"},{"town":"羽ノ浦町中庄","koaza":"ミタテフ","lat":33.956167,"lng":134.6383,"zip":"7791101"},{"town":"宝田町","koaza":"今市西ヤシキ","lat":33.928747,"lng":134.638563,"zip":"7740045"},{"town":"宝田町","koaza":"東の一","lat":33.922034,"lng":134.640522,"zip":"7740045"},{"town":"橘町","koaza":"荒神ノ上","lat":33.877044,"lng":134.640652,"zip":"7791631"},{"town":"橘町","koaza":"西浦","lat":33.873228,"lng":134.640642,"zip":"7791631"},{"town":"橘町","koaza":"久保","lat":33.874652,"lng":134.640838,"zip":"7791631"},{"town":"宝田町","koaza":"今市前ケ原","lat":33.927785,"lng":134.639988,"zip":"7740045"},{"town":"宝田町","koaza":"今市中ヤシキ","lat":33.929723,"lng":134.639737,"zip":"7740045"},{"town":"羽ノ浦町中庄","koaza":"花ノ池","lat":33.95482,"lng":134.639793,"zip":"7791101"},{"town":"津乃峰町","koaza":"中分","lat":33.885259,"lng":134.649069,"zip":"7740021"},{"town":"宝田町","koaza":"出口","lat":33.917804,"lng":134.643161,"zip":"7740045"},{"town":"橘町","koaza":"豊浜","lat":33.872231,"lng":134.641789,"zip":"7791631"},{"town":"羽ノ浦町中庄","koaza":"大久保","lat":33.951874,"lng":134.6424,"zip":"7791101"},{"town":"羽ノ浦町中庄","koaza":"壱本木","lat":33.95348,"lng":134.641593,"zip":"7791101"},{"town":"宝田町","koaza":"荒井","lat":33.925382,"lng":134.642243,"zip":"7740045"},{"town":"宝田町","koaza":"今市東ヤシキ","lat":33.929304,"lng":134.641378,"zip":"7740045"},{"town":"柳島町","koaza":"小原前","lat":33.936256,"lng":134.640701,"zip":"7740043"},{"town":"橘町","koaza":"汐谷","lat":33.875432,"lng":134.642118,"zip":"7791631"},{"town":"柳島町","koaza":"蛭子前","lat":33.936919,"lng":134.643605,"zip":"7740043"},{"town":"宝田町","koaza":"郡","lat":33.921202,"lng":134.643637,"zip":"7740045"},{"town":"橘町","koaza":"東中浜","lat":33.875253,"lng":134.645734,"zip":"7791631"},{"town":"宝田町","koaza":"今市イシン坊","lat":33.92256,"lng":134.643673,"zip":"7740045"},{"town":"柳島町","koaza":"権ノ神","lat":33.934528,"lng":134.642923,"zip":"7740043"},{"town":"柳島町","koaza":"宮ノ前","lat":33.936541,"lng":134.645349,"zip":"7740043"},{"town":"柳島町","koaza":"柳ノ花","lat":33.936183,"lng":134.643999,"zip":"7740043"},{"town":"羽ノ浦町中庄","koaza":"下久保","lat":33.952159,"lng":134.643453,"zip":"7791101"},{"town":"宝田町","koaza":"井関","lat":33.914034,"lng":134.643818,"zip":"7740045"},{"town":"柳島町","koaza":"八剣","lat":33.932037,"lng":134.645511,"zip":"7740043"},{"town":"橘町","koaza":"汐谷山","lat":33.877777,"lng":134.646198,"zip":"7791631"},{"town":"見能林町","koaza":"猫谷","lat":33.899975,"lng":134.653267,"zip":"7740017"},{"town":"宝田町","koaza":"今市金剛寺","lat":33.926695,"lng":134.646125,"zip":"7740045"},{"town":"宝田町","koaza":"今市久世ケ瀬","lat":33.927958,"lng":134.645818,"zip":"7740045"},{"town":"津乃峰町","koaza":"東分","lat":33.889444,"lng":134.651783,"zip":"7740021"},{"town":"柳島町","koaza":"北条","lat":33.934196,"lng":134.646733,"zip":"7740043"},{"town":"柳島町","koaza":"里ノ前","lat":33.935245,"lng":134.64554,"zip":"7740043"},{"town":"柳島町","koaza":"宮ノ北","lat":33.938068,"lng":134.644771,"zip":"7740043"},{"town":"見能林町","koaza":"いもじ原","lat":33.902856,"lng":134.647995,"zip":"7740017"},{"town":"宝田町","koaza":"川原","lat":33.923108,"lng":134.648664,"zip":"7740045"},{"town":"橘町","koaza":"幸野","lat":33.879079,"lng":134.649993,"zip":"7791631"},{"town":"見能林町","koaza":"三谷","lat":33.900858,"lng":134.648409,"zip":"7740017"},{"town":"柳島町","koaza":"南高川原","lat":33.928374,"lng":134.647938,"zip":"7740043"},{"town":"那賀川町手島","koaza":"中塚","lat":33.952616,"lng":134.648626,"zip":"7791123"},{"town":"柳島町","koaza":"蛭子面","lat":33.935168,"lng":134.648017,"zip":"7740043"},{"town":"富岡町","koaza":"そうず谷","lat":33.916636,"lng":134.648972,"zip":"7740030"},{"town":"柳島町","koaza":"高川原","lat":33.93071,"lng":134.649863,"zip":"7740043"},{"town":"那賀川町手島","koaza":"長宝地","lat":33.95632,"lng":134.650335,"zip":"7791123"},{"town":"那賀川町手島","koaza":"三反地","lat":33.953112,"lng":134.649722,"zip":"7791123"},{"town":"柳島町","koaza":"霜ケ谷","lat":33.932639,"lng":134.647658,"zip":"7740043"},{"town":"富岡町","koaza":"庄境","lat":33.918253,"lng":134.648274,"zip":"7740030"},{"town":"富岡町","koaza":"西池田","lat":33.912459,"lng":134.654725,"zip":"7740030"},{"town":"富岡町","koaza":"小山本","lat":33.91753,"lng":134.650107,"zip":"7740030"},{"town":"那賀川町八幡","koaza":"高原","lat":33.957981,"lng":134.648824,"zip":"7791122"},{"town":"富岡町","koaza":"小山","lat":33.919236,"lng":134.652184,"zip":"7740030"},{"town":"那賀川町今津浦","koaza":"白石","lat":33.958285,"lng":134.650169,"zip":"7791114"},{"town":"見能林町","koaza":"白かい谷","lat":33.90322,"lng":134.652584,"zip":"7740017"},{"town":"横見町","koaza":"畑中上","lat":33.932627,"lng":134.652117,"zip":"7740042"},{"town":"津乃峰町","koaza":"戎山","lat":33.885326,"lng":134.652438,"zip":"7740021"},{"town":"富岡町","koaza":"第住町","lat":33.920054,"lng":134.652023,"zip":"7740030"},{"town":"富岡町","koaza":"あ王谷","lat":33.917538,"lng":134.652441,"zip":"7740030"},{"town":"津乃峰町","koaza":"長浜","lat":33.891468,"lng":134.657403,"zip":"7740021"},{"town":"富岡町","koaza":"西仲町","lat":33.920927,"lng":134.652284,"zip":"7740030"},{"town":"那賀川町色ケ島","koaza":"向原","lat":33.96557,"lng":134.652487,"zip":"7791112"},{"town":"横見町","koaza":"高川原","lat":33.927226,"lng":134.652637,"zip":"7740042"},{"town":"富岡町","koaza":"西新町","lat":33.922031,"lng":134.652345,"zip":"7740030"},{"town":"富岡町","koaza":"寿通","lat":33.918337,"lng":134.65246,"zip":"7740030"},{"town":"那賀川町手島","koaza":"中湯","lat":33.955488,"lng":134.649882,"zip":"7791123"},{"town":"那賀川町手島","koaza":"はり","lat":33.95456,"lng":134.652321,"zip":"7791123"},{"town":"那賀川町手島","koaza":"辰ケ池","lat":33.957457,"lng":134.652185,"zip":"7791123"},{"town":"横見町","koaza":"上畭","lat":33.936073,"lng":134.652205,"zip":"7740042"},{"town":"横見町","koaza":"畑中前","lat":33.931094,"lng":134.654747,"zip":"7740042"},{"town":"富岡町","koaza":"中川原","lat":33.924679,"lng":134.653095,"zip":"7740030"},{"town":"横見町","koaza":"下畭","lat":33.935515,"lng":134.654353,"zip":"7740042"},{"town":"見能林町","koaza":"かご谷","lat":33.9031,"lng":134.654512,"zip":"7740017"},{"town":"那賀川町今津浦","koaza":"松久保","lat":33.958976,"lng":134.65342,"zip":"7791114"},{"town":"富岡町","koaza":"車ノ口","lat":33.922977,"lng":134.652485,"zip":"7740030"},{"town":"富岡町","koaza":"東仲町","lat":33.921388,"lng":134.653846,"zip":"7740030"},{"town":"富岡町","koaza":"東新町","lat":33.922337,"lng":134.653789,"zip":"7740030"},{"town":"那賀川町色ケ島","koaza":"野上","lat":33.964937,"lng":134.657684,"zip":"7791112"},{"town":"横見町","koaza":"畑中下","lat":33.931915,"lng":134.6533,"zip":"7740042"},{"town":"富岡町","koaza":"西石塚","lat":33.919393,"lng":134.653911,"zip":"7740030"},{"town":"那賀川町手島","koaza":"榎瀬","lat":33.956756,"lng":134.654609,"zip":"7791123"},{"town":"那賀川町手島","koaza":"七條塚","lat":33.954194,"lng":134.654314,"zip":"7791123"},{"town":"那賀川町今津浦","koaza":"宮面","lat":33.96241,"lng":134.654188,"zip":"7791114"},{"town":"横見町","koaza":"中川原","lat":33.924455,"lng":134.655767,"zip":"7740042"},{"town":"見能林町","koaza":"岩崎","lat":33.900645,"lng":134.65708,"zip":"7740017"},{"town":"那賀川町今津浦","koaza":"免許","lat":33.960001,"lng":134.657635,"zip":"7791114"},{"town":"見能林町","koaza":"高道","lat":33.903306,"lng":134.655186,"zip":"7740017"},{"town":"那賀川町色ケ島","koaza":"大久保","lat":33.967092,"lng":134.657677,"zip":"7791112"},{"town":"富岡町","koaza":"内町","lat":33.921615,"lng":134.655196,"zip":"7740030"},{"town":"富岡町","koaza":"玉塚","lat":33.919138,"lng":134.657219,"zip":"7740030"},{"town":"富岡町","koaza":"トノ町","lat":33.92052,"lng":134.657567,"zip":"7740030"},{"town":"横見町","koaza":"前長岡","lat":33.930035,"lng":134.657556,"zip":"7740042"},{"town":"横見町","koaza":"上木戸","lat":33.927155,"lng":134.65627,"zip":"7740042"},{"town":"横見町","koaza":"願能地西","lat":33.924694,"lng":134.656851,"zip":"7740042"},{"town":"那賀川町今津浦","koaza":"有田津","lat":33.957438,"lng":134.656525,"zip":"7791114"},{"town":"津乃峰町","koaza":"新浜","lat":33.885154,"lng":134.661739,"zip":"7740021"},{"town":"横見町","koaza":"長岡","lat":33.933865,"lng":134.657703,"zip":"7740042"},{"town":"見能林町","koaza":"青木","lat":33.895476,"lng":134.663776,"zip":"7740017"},{"town":"那賀川町今津浦","koaza":"東野神","lat":33.961982,"lng":134.658945,"zip":"7791114"},{"town":"富岡町","koaza":"西池田口","lat":33.916399,"lng":134.657422,"zip":"7740030"},{"town":"富岡町","koaza":"東池田","lat":33.914154,"lng":134.657594,"zip":"7740030"},{"town":"横見町","koaza":"下木戸","lat":33.928672,"lng":134.658796,"zip":"7740042"},{"town":"富岡町","koaza":"東池田口","lat":33.916686,"lng":134.658402,"zip":"7740030"},{"town":"見能林町","koaza":"花谷","lat":33.903357,"lng":134.661019,"zip":"7740017"},{"town":"富岡町","koaza":"木松","lat":33.91834,"lng":134.659168,"zip":"7740030"},{"town":"見能林町","koaza":"築溜","lat":33.901599,"lng":134.663021,"zip":"7740017"},{"town":"横見町","koaza":"願能地東","lat":33.925393,"lng":134.659699,"zip":"7740042"},{"town":"那賀川町色ケ島","koaza":"網干","lat":33.965497,"lng":134.660536,"zip":"7791112"},{"town":"那賀川町色ケ島","koaza":"民養","lat":33.964404,"lng":134.659155,"zip":"7791112"},{"town":"横見町","koaza":"長岡東","lat":33.931434,"lng":134.659683,"zip":"7740042"},{"town":"那賀川町上福井","koaza":"高福井","lat":33.947209,"lng":134.661222,"zip":"7791243"},{"town":"那賀川町色ケ島","koaza":"塩ケ崎","lat":33.967324,"lng":134.661134,"zip":"7791112"},{"town":"富岡町","koaza":"あ石","lat":33.918452,"lng":134.662003,"zip":"7740030"},{"town":"富岡町","koaza":"今福寺","lat":33.919319,"lng":134.661862,"zip":"7740030"},{"town":"富岡町","koaza":"滝の下","lat":33.91611,"lng":134.66356,"zip":"7740030"},{"town":"那賀川町今津浦","koaza":"網干","lat":33.963059,"lng":134.660473,"zip":"7791114"},{"town":"富岡町","koaza":"南向","lat":33.917225,"lng":134.663109,"zip":"7740030"},{"town":"那賀川町上福井","koaza":"堂免","lat":33.944724,"lng":134.662397,"zip":"7791243"},{"town":"富岡町","koaza":"北通","lat":33.92136,"lng":134.662411,"zip":"7740030"},{"town":"横見町","koaza":"北裏","lat":33.928385,"lng":134.661745,"zip":"7740042"},{"town":"富岡町","koaza":"佃町","lat":33.921695,"lng":134.660853,"zip":"7740030"},{"town":"見能林町","koaza":"築溜枕","lat":33.902195,"lng":134.662018,"zip":"7740017"},{"town":"横見町","koaza":"前田","lat":33.926065,"lng":134.665302,"zip":"7740042"},{"town":"見能林町","koaza":"南勘高","lat":33.904521,"lng":134.664742,"zip":"7740017"},{"town":"見能林町","koaza":"北勘高","lat":33.907417,"lng":134.664138,"zip":"7740017"},{"town":"横見町","koaza":"浜田","lat":33.933327,"lng":134.663483,"zip":"7740042"},{"town":"横見町","koaza":"豊田","lat":33.930778,"lng":134.663098,"zip":"7740042"},{"town":"那賀川町上福井","koaza":"橋本","lat":33.947661,"lng":134.663279,"zip":"7791243"},{"town":"横見町","koaza":"五反地","lat":33.927973,"lng":134.666591,"zip":"7740042"},{"town":"領家町","koaza":"本荘ケ内","lat":33.923015,"lng":134.665329,"zip":"7740011"},{"town":"見能林町","koaza":"下志んじやく","lat":33.899308,"lng":134.665023,"zip":"7740017"},{"town":"領家町","koaza":"走寄","lat":33.920539,"lng":134.664591,"zip":"7740011"},{"town":"見能林町","koaza":"大坪","lat":33.90091,"lng":134.665308,"zip":"7740017"},{"town":"那賀川町上福井","koaza":"西ノ口","lat":33.948453,"lng":134.667172,"zip":"7791243"},{"town":"領家町","koaza":"室ノ内","lat":33.923623,"lng":134.665564,"zip":"7740011"},{"town":"学原町","koaza":"山本","lat":33.914693,"lng":134.665111,"zip":"7740014"},{"town":"横見町","koaza":"蛭子面","lat":33.931909,"lng":134.665879,"zip":"7740042"},{"town":"学原町","koaza":"中西","lat":33.914423,"lng":134.666181,"zip":"7740014"},{"town":"日開野町","koaza":"西居内","lat":33.91773,"lng":134.666367,"zip":"7740013"},{"town":"日開野町","koaza":"筒路","lat":33.919439,"lng":134.667381,"zip":"7740013"},{"town":"領家町","koaza":"土倉","lat":33.920911,"lng":134.668766,"zip":"7740011"},{"town":"学原町","koaza":"烏帽子池","lat":33.913051,"lng":134.666187,"zip":"7740014"},{"town":"住吉町","koaza":"西畭","lat":33.932937,"lng":134.666087,"zip":"7740041"},{"town":"見能林町","koaza":"ふちう","lat":33.900425,"lng":134.666195,"zip":"7740017"},{"town":"見能林町","koaza":"勘高原","lat":33.906572,"lng":134.667851,"zip":"7740017"},{"town":"学原町","koaza":"下水田","lat":33.91032,"lng":134.667175,"zip":"7740014"},{"town":"才見町","koaza":"三本松","lat":33.915316,"lng":134.667572,"zip":"7740015"},{"town":"見能林町","koaza":"滝ノ下","lat":33.902092,"lng":134.666188,"zip":"7740017"},{"town":"学原町","koaza":"大深田","lat":33.915098,"lng":134.666145,"zip":"7740014"},{"town":"見能林町","koaza":"清水山ノ東","lat":33.903364,"lng":134.667676,"zip":"7740017"},{"town":"領家町","koaza":"火屋ケ原","lat":33.922272,"lng":134.667457,"zip":"7740011"},{"town":"見能林町","koaza":"南林","lat":33.891293,"lng":134.676354,"zip":"7740017"},{"town":"見能林町","koaza":"下かうや","lat":33.898844,"lng":134.666556,"zip":"7740017"},{"town":"日開野町","koaza":"谷田","lat":33.916543,"lng":134.670271,"zip":"7740013"},{"town":"見能林町","koaza":"志んじやく","lat":33.902424,"lng":134.667829,"zip":"7740017"},{"town":"学原町","koaza":"居内","lat":33.913033,"lng":134.666562,"zip":"7740014"},{"town":"領家町","koaza":"船倉","lat":33.925149,"lng":134.667964,"zip":"7740011"},{"town":"住吉町","koaza":"北久保","lat":33.92857,"lng":134.667066,"zip":"7740041"},{"town":"見能林町","koaza":"大作半","lat":33.904524,"lng":134.668373,"zip":"7740017"},{"town":"見能林町","koaza":"中かうや","lat":33.899554,"lng":134.667226,"zip":"7740017"},{"town":"領家町","koaza":"浜田","lat":33.923702,"lng":134.668018,"zip":"7740011"},{"town":"領家町","koaza":"横枕","lat":33.921972,"lng":134.66839,"zip":"7740011"},{"town":"見能林町","koaza":"上かうや","lat":33.900875,"lng":134.668653,"zip":"7740017"},{"town":"学原町","koaza":"前田","lat":33.911778,"lng":134.667515,"zip":"7740014"},{"town":"住吉町","koaza":"横見境","lat":33.928543,"lng":134.667768,"zip":"7740041"},{"town":"学原町","koaza":"松ノ久保","lat":33.913092,"lng":134.668002,"zip":"7740014"},{"town":"住吉町","koaza":"南久保","lat":33.929676,"lng":134.668733,"zip":"7740041"},{"town":"見能林町","koaza":"林崎","lat":33.893836,"lng":134.670543,"zip":"7740017"},{"town":"日開野町","koaza":"中居内","lat":33.917997,"lng":134.668954,"zip":"7740013"},{"town":"住吉町","koaza":"元久保","lat":33.932,"lng":134.668131,"zip":"7740041"},{"town":"学原町","koaza":"深田","lat":33.910302,"lng":134.668737,"zip":"7740014"},{"town":"住吉町","koaza":"中筋","lat":33.932143,"lng":134.668698,"zip":"7740041"},{"town":"日開野町","koaza":"宮原","lat":33.920295,"lng":134.67019,"zip":"7740013"},{"town":"見能林町","koaza":"西石仏","lat":33.903019,"lng":134.668589,"zip":"7740017"},{"town":"見能林町","koaza":"東石仏","lat":33.902504,"lng":134.669425,"zip":"7740017"},{"town":"才見町","koaza":"荒井ケ内","lat":33.915887,"lng":134.669819,"zip":"7740015"},{"town":"領家町","koaza":"高原","lat":33.924589,"lng":134.670324,"zip":"7740011"},{"town":"領家町","koaza":"天神前","lat":33.926905,"lng":134.67044,"zip":"7740011"},{"town":"見能林町","koaza":"堤ノ内","lat":33.907189,"lng":134.668781,"zip":"7740017"},{"town":"才見町","koaza":"亀ノ内","lat":33.912629,"lng":134.670078,"zip":"7740015"},{"town":"学原町","koaza":"壱丁地","lat":33.91154,"lng":134.669576,"zip":"7740014"},{"town":"住吉町","koaza":"大原","lat":33.932854,"lng":134.669313,"zip":"7740041"},{"town":"見能林町","koaza":"北野","lat":33.90606,"lng":134.670394,"zip":"7740017"},{"town":"学原町","koaza":"上カヤ野","lat":33.90746,"lng":134.669245,"zip":"7740014"},{"town":"見能林町","koaza":"九反ケ坪","lat":33.903149,"lng":134.670642,"zip":"7740017"},{"town":"住吉町","koaza":"六反地","lat":33.932575,"lng":134.670214,"zip":"7740041"},{"town":"見能林町","koaza":"どぶ石","lat":33.903333,"lng":134.669896,"zip":"7740017"},{"town":"見能林町","koaza":"念仏免","lat":33.90227,"lng":134.669886,"zip":"7740017"},{"town":"見能林町","koaza":"西内","lat":33.901409,"lng":134.670875,"zip":"7740017"},{"town":"見能林町","koaza":"貞成","lat":33.897915,"lng":134.670366,"zip":"7740017"},{"town":"領家町","koaza":"野神","lat":33.924893,"lng":134.671283,"zip":"7740011"},{"town":"那賀川町上福井","koaza":"下ノ川","lat":33.948805,"lng":134.67505,"zip":"7791243"},{"town":"那賀川町上福井","koaza":"藤島","lat":33.951031,"lng":134.673354,"zip":"7791243"},{"town":"学原町","koaza":"三度川原","lat":33.910706,"lng":134.670962,"zip":"7740014"},{"town":"住吉町","koaza":"須サキ","lat":33.932667,"lng":134.670567,"zip":"7740041"},{"town":"見能林町","koaza":"長池ノ北","lat":33.899898,"lng":134.671633,"zip":"7740017"},{"town":"領家町","koaza":"長田","lat":33.919921,"lng":134.670874,"zip":"7740011"},{"town":"領家町","koaza":"万石","lat":33.92177,"lng":134.671903,"zip":"7740011"},{"town":"見能林町","koaza":"境","lat":33.89739,"lng":134.671854,"zip":"7740017"},{"town":"見能林町","koaza":"西添","lat":33.900933,"lng":134.672165,"zip":"7740017"},{"town":"才見町","koaza":"平野","lat":33.911794,"lng":134.671731,"zip":"7740015"},{"town":"日開野町","koaza":"九反ケ坪","lat":33.921135,"lng":134.673056,"zip":"7740013"},{"town":"西路見町","koaza":"堤外","lat":33.928356,"lng":134.675103,"zip":"7740009"},{"town":"才見町","koaza":"細田","lat":33.913042,"lng":134.671919,"zip":"7740015"},{"town":"那賀川町上福井","koaza":"南川渕","lat":33.948432,"lng":134.686198,"zip":"7791243"},{"town":"見能林町","koaza":"小山ノ北","lat":33.903563,"lng":134.671488,"zip":"7740017"},{"town":"見能林町","koaza":"中村","lat":33.898642,"lng":134.671719,"zip":"7740017"},{"town":"見能林町","koaza":"六々","lat":33.90776,"lng":134.673022,"zip":"7740017"},{"town":"才見町","koaza":"石橋","lat":33.91573,"lng":134.672306,"zip":"7740015"},{"town":"見能林町","koaza":"寺ノ前","lat":33.902892,"lng":134.672526,"zip":"7740017"},{"town":"日開野町","koaza":"南居内","lat":33.918091,"lng":134.67413,"zip":"7740013"},{"town":"西路見町","koaza":"元村","lat":33.926078,"lng":134.674616,"zip":"7740009"},{"town":"領家町","koaza":"高田","lat":33.923967,"lng":134.67211,"zip":"7740011"},{"town":"見能林町","koaza":"柏野","lat":33.901779,"lng":134.672282,"zip":"7740017"},{"town":"領家町","koaza":"天神原","lat":33.928351,"lng":134.672335,"zip":"7740011"},{"town":"西路見町","koaza":"川","lat":33.922429,"lng":134.673604,"zip":"7740009"},{"town":"日開野町","koaza":"居内","lat":33.918926,"lng":134.673234,"zip":"7740013"},{"town":"見能林町","koaza":"東野","lat":33.900338,"lng":134.673685,"zip":"7740017"},{"town":"才見町","koaza":"弐反地","lat":33.912462,"lng":134.67325,"zip":"7740015"},{"town":"見能林町","koaza":"東浦","lat":33.902209,"lng":134.673014,"zip":"7740017"},{"town":"才見町","koaza":"田中","lat":33.91405,"lng":134.6737,"zip":"7740015"},{"town":"才見町","koaza":"屋那婆","lat":33.916942,"lng":134.675814,"zip":"7740015"},{"town":"才見町","koaza":"藤田前","lat":33.914148,"lng":134.67512,"zip":"7740015"},{"town":"七見町","koaza":"上川田","lat":33.922322,"lng":134.674618,"zip":"7740012"},{"town":"七見町","koaza":"南高田","lat":33.92176,"lng":134.675219,"zip":"7740012"},{"town":"日開野町","koaza":"竹ノハナ","lat":33.91896,"lng":134.675023,"zip":"7740013"},{"town":"七見町","koaza":"筑前","lat":33.922528,"lng":134.67529,"zip":"7740012"},{"town":"才見町","koaza":"野中","lat":33.914297,"lng":134.676034,"zip":"7740015"},{"town":"才見町","koaza":"牛屋崎","lat":33.908292,"lng":134.67797,"zip":"7740015"},{"town":"那賀川町上福井","koaza":"元畭","lat":33.951642,"lng":134.678943,"zip":"7791243"},{"town":"原ケ崎町","koaza":"居屋敷","lat":33.931629,"lng":134.677819,"zip":"7740008"},{"town":"七見町","koaza":"上浜田","lat":33.920839,"lng":134.676338,"zip":"7740012"},{"town":"七見町","koaza":"松木","lat":33.922331,"lng":134.676776,"zip":"7740012"},{"town":"西路見町","koaza":"江川","lat":33.927597,"lng":134.676939,"zip":"7740009"},{"town":"才見町","koaza":"古りき","lat":33.912732,"lng":134.676447,"zip":"7740015"},{"town":"原ケ崎町","koaza":"堀川床","lat":33.930546,"lng":134.67717,"zip":"7740008"},{"town":"七見町","koaza":"中居内","lat":33.922546,"lng":134.678023,"zip":"7740012"},{"town":"才見町","koaza":"木戸張","lat":33.912524,"lng":134.679416,"zip":"7740015"},{"town":"原ケ崎町","koaza":"堤内","lat":33.930427,"lng":134.678106,"zip":"7740008"},{"town":"七見町","koaza":"野々ケ門","lat":33.920435,"lng":134.678317,"zip":"7740012"},{"town":"才見町","koaza":"光の大地","lat":33.915396,"lng":134.678809,"zip":"7740015"},{"town":"七見町","koaza":"東居内","lat":33.922602,"lng":134.680258,"zip":"7740012"},{"town":"向原町","koaza":"天羽畭","lat":33.927813,"lng":134.680952,"zip":"7740005"},{"town":"向原町","koaza":"向原","lat":33.929043,"lng":134.681025,"zip":"7740005"},{"town":"才見町","koaza":"中之坪","lat":33.916024,"lng":134.680536,"zip":"7740015"},{"town":"才見町","koaza":"下水門","lat":33.908766,"lng":134.680563,"zip":"7740015"},{"town":"七見町","koaza":"半五分","lat":33.922424,"lng":134.680749,"zip":"7740012"},{"town":"黒津地町","koaza":"末広","lat":33.929973,"lng":134.68137,"zip":"7740006"},{"town":"中林町","koaza":"南林","lat":33.897831,"lng":134.6828,"zip":"7740016"},{"town":"才見町","koaza":"戸留","lat":33.909492,"lng":134.682771,"zip":"7740015"},{"town":"中林町","koaza":"大切","lat":33.899155,"lng":134.684655,"zip":"7740016"},{"town":"黒津地町","koaza":"戎野","lat":33.93009,"lng":134.68275,"zip":"7740006"},{"town":"才見町","koaza":"旭越山","lat":33.913677,"lng":134.683051,"zip":"7740015"},{"town":"中林町","koaza":"堤ノ内","lat":33.90136,"lng":134.684332,"zip":"7740016"},{"town":"七見町","koaza":"次郎右エ門池","lat":33.919428,"lng":134.68309,"zip":"7740012"},{"town":"黒津地町","koaza":"新弥開","lat":33.928736,"lng":134.684273,"zip":"7740006"},{"town":"才見町","koaza":"山地","lat":33.912405,"lng":134.684048,"zip":"7740015"},{"town":"畭町","koaza":"新はり","lat":33.924678,"lng":134.688243,"zip":"7740003"},{"town":"中林町","koaza":"山ノ下","lat":33.902837,"lng":134.684887,"zip":"7740016"},{"town":"七見町","koaza":"下川田","lat":33.919711,"lng":134.684288,"zip":"7740012"},{"town":"西路見町","koaza":"重持","lat":33.927322,"lng":134.683864,"zip":"7740009"},{"town":"才見町","koaza":"米島","lat":33.914182,"lng":134.684944,"zip":"7740015"},{"town":"日開野町","koaza":"島原","lat":33.915929,"lng":134.685069,"zip":"7740013"},{"town":"向原町","koaza":"下ノ浜","lat":33.928302,"lng":134.689256,"zip":"7740005"},{"town":"中林町","koaza":"松ノ内","lat":33.905211,"lng":134.685861,"zip":"7740016"},{"town":"黒津地町","koaza":"山下","lat":33.929894,"lng":134.685047,"zip":"7740006"},{"town":"黒津地町","koaza":"中地","lat":33.929755,"lng":134.685555,"zip":"7740006"},{"town":"中林町","koaza":"カウシ山","lat":33.907136,"lng":134.686725,"zip":"7740016"},{"town":"中林町","koaza":"原","lat":33.902087,"lng":134.686561,"zip":"7740016"},{"town":"中林町","koaza":"中塚","lat":33.910201,"lng":134.686203,"zip":"7740016"},{"town":"中林町","koaza":"古浜","lat":33.909188,"lng":134.688152,"zip":"7740016"},{"town":"西路見町","koaza":"内作り","lat":33.920932,"lng":134.690527,"zip":"7740009"},{"town":"福村町","koaza":"北筋","lat":33.926913,"lng":134.690944,"zip":"7740004"},{"town":"中林町","koaza":"浜戸","lat":33.910036,"lng":134.688044,"zip":"7740016"},{"town":"畭町","koaza":"亀崎","lat":33.917978,"lng":134.694767,"zip":"7740003"},{"town":"中林町","koaza":"畠田","lat":33.912783,"lng":134.689372,"zip":"7740016"},{"town":"中林町","koaza":"長尾","lat":33.904673,"lng":134.689165,"zip":"7740016"},{"town":"中林町","koaza":"大久保","lat":33.906328,"lng":134.688754,"zip":"7740016"},{"town":"中林町","koaza":"大浜","lat":33.903742,"lng":134.691488,"zip":"7740016"},{"town":"中林町","koaza":"八反地","lat":33.907873,"lng":134.689141,"zip":"7740016"},{"town":"中林町","koaza":"サンライズヒル","lat":33.90662,"lng":134.691009,"zip":"7740016"},{"town":"中林町","koaza":"西ノ前","lat":33.910347,"lng":134.690453,"zip":"7740016"},{"town":"福村町","koaza":"南筋","lat":33.924723,"lng":134.693025,"zip":"7740004"},{"town":"中林町","koaza":"大明神","lat":33.913371,"lng":134.691875,"zip":"7740016"},{"town":"中林町","koaza":"横手","lat":33.909766,"lng":134.690884,"zip":"7740016"},{"town":"中林町","koaza":"青イハリ","lat":33.90966,"lng":134.692501,"zip":"7740016"},{"town":"中林町","koaza":"林崎","lat":33.91253,"lng":134.694033,"zip":"7740016"},{"town":"中林町","koaza":"吉ケ内","lat":33.91089,"lng":134.694017,"zip":"7740016"},{"town":"中林町","koaza":"前地","lat":33.910862,"lng":134.697108,"zip":"7740016"},{"town":"中林町","koaza":"平山","lat":33.907922,"lng":134.694777,"zip":"7740016"},{"town":"畭町","koaza":"三田","lat":33.920244,"lng":134.696028,"zip":"7740003"},{"town":"中林町","koaza":"北","lat":33.912341,"lng":134.695295,"zip":"7740016"},{"town":"中林町","koaza":"東","lat":33.911969,"lng":134.698823,"zip":"7740016"},{"town":"学原町","koaza":"上水田","lat":33.911213,"lng":134.663345,"zip":"7740014"},{"town":"才見町","koaza":"浜田","lat":33.910058,"lng":134.672958,"zip":"7740015"},{"town":"長生町","koaza":"おわた","lat":33.913147,"lng":134.637168,"zip":"7740046"},{"town":"才見町","koaza":"高池","lat":33.909832,"lng":134.671969,"zip":"7740015"},{"town":"那賀川町八幡","koaza":"石塚","lat":33.955415,"lng":134.646625,"zip":"7791122"},{"town":"那賀川町今津浦","koaza":"諏訪面","lat":33.96065,"lng":134.652675,"zip":"7791114"},{"town":"那賀川町手島","koaza":"下塚","lat":33.95361,"lng":134.651038,"zip":"7791123"},{"town":"那賀川町今津浦","koaza":"喜来","lat":33.961334,"lng":134.652395,"zip":"7791114"}]