[{"town":"阿波町赤坂","koaza":"","lat":34.087666,"lng":134.197851,"zip":"7711705"},{"town":"阿波町医王寺","koaza":"","lat":34.080831,"lng":134.216466,"zip":"7711705"},{"town":"阿波町伊沢市","koaza":"","lat":34.072678,"lng":134.24829,"zip":"7711701"},{"town":"阿波町伊沢田","koaza":"","lat":34.075988,"lng":134.232018,"zip":"7711703"},{"town":"阿波町伊沢谷東縁","koaza":"","lat":34.129724,"lng":134.230907,"zip":"7711704"},{"town":"阿波町伊勢","koaza":"","lat":34.093803,"lng":134.248607,"zip":"7711702"},{"town":"阿波町井出口","koaza":"","lat":34.102559,"lng":134.241392,"zip":"7711702"},{"town":"阿波町糸下","koaza":"","lat":34.11213,"lng":134.215478,"zip":"7711704"},{"town":"阿波町稲荷","koaza":"","lat":34.083148,"lng":134.246567,"zip":"7711702"},{"town":"阿波町芋場","koaza":"","lat":34.113866,"lng":134.229749,"zip":"7711704"},{"town":"阿波町居屋敷","koaza":"","lat":34.076175,"lng":134.21827,"zip":"7711705"},{"town":"阿波町岩津","koaza":"","lat":34.067252,"lng":134.193305,"zip":"7711706"},{"town":"阿波町植桜","koaza":"","lat":34.06895,"lng":134.186086,"zip":"7711706"},{"town":"阿波町姥ケ懐","koaza":"","lat":34.105772,"lng":134.229581,"zip":"7711700"},{"town":"阿波町梅川内","koaza":"","lat":34.079138,"lng":134.200942,"zip":"7711705"},{"town":"阿波町梅ノ木原","koaza":"","lat":34.103709,"lng":134.223913,"zip":"7711704"},{"town":"阿波町梅ノ東","koaza":"","lat":34.106256,"lng":134.226739,"zip":"7711704"},{"town":"阿波町王地","koaza":"","lat":34.080949,"lng":134.253152,"zip":"7711701"},{"town":"阿波町王子川","koaza":"","lat":34.083074,"lng":134.20151,"zip":"7711705"},{"town":"阿波町王地南","koaza":"","lat":34.077228,"lng":134.252664,"zip":"7711701"},{"town":"阿波町大久保","koaza":"","lat":34.131251,"lng":134.236896,"zip":"7711702"},{"town":"阿波町大坪","koaza":"","lat":34.079797,"lng":134.244149,"zip":"7711701"},{"town":"阿波町大原","koaza":"","lat":34.078816,"lng":134.247809,"zip":"7711701"},{"town":"阿波町大道北","koaza":"","lat":34.074322,"lng":134.230885,"zip":"7711703"},{"town":"阿波町大道南","koaza":"","lat":34.076538,"lng":134.246021,"zip":"7711701"},{"town":"阿波町岡地","koaza":"","lat":34.080172,"lng":134.233306,"zip":"7711703"},{"town":"阿波町小倉","koaza":"","lat":34.092972,"lng":134.217163,"zip":"7711704"},{"town":"阿波町乙岩津","koaza":"","lat":34.065697,"lng":134.192887,"zip":"7711706"},{"town":"阿波町柏谷左右","koaza":"","lat":34.108441,"lng":134.233213,"zip":"7711702"},{"town":"阿波町勝命","koaza":"","lat":34.076173,"lng":134.268561,"zip":"7711701"},{"town":"阿波町勝命北","koaza":"","lat":34.084097,"lng":134.267393,"zip":"7711701"},{"town":"阿波町勝行","koaza":"","lat":34.086268,"lng":134.252128,"zip":"7711700"},{"town":"阿波町亀底","koaza":"","lat":34.135456,"lng":134.220635,"zip":"7711704"},{"town":"阿波町川久保","koaza":"","lat":34.071526,"lng":134.220106,"zip":"7711705"},{"town":"阿波町川添","koaza":"","lat":34.088371,"lng":134.238313,"zip":"7711702"},{"town":"阿波町北内谷南","koaza":"","lat":34.114646,"lng":134.242417,"zip":"7711700"},{"town":"阿波町北岡","koaza":"","lat":34.07058,"lng":134.189618,"zip":"7711706"},{"town":"阿波町北久保","koaza":"","lat":34.121106,"lng":134.220452,"zip":"7711704"},{"town":"阿波町北五味知","koaza":"","lat":34.09619,"lng":134.234355,"zip":"7711704"},{"town":"阿波町北柴生","koaza":"","lat":34.093426,"lng":134.227138,"zip":"7711703"},{"town":"阿波町北整理","koaza":"","lat":34.07729,"lng":134.198751,"zip":"7711705"},{"town":"阿波町北西谷","koaza":"","lat":34.080151,"lng":134.193094,"zip":"7711706"},{"town":"阿波町北ノ名","koaza":"","lat":34.094915,"lng":134.246349,"zip":"7711702"},{"town":"阿波町北原","koaza":"","lat":34.083912,"lng":134.230013,"zip":"7711703"},{"town":"阿波町北正広","koaza":"","lat":34.102891,"lng":134.21893,"zip":"7711704"},{"town":"阿波町北山","koaza":"","lat":34.091614,"lng":134.190676,"zip":"7711705"},{"town":"阿波町庚申原","koaza":"","lat":34.081137,"lng":134.249379,"zip":"7711701"},{"town":"阿波町五明","koaza":"","lat":34.08157,"lng":134.203805,"zip":"7711705"},{"town":"阿波町桜ノ岡","koaza":"","lat":34.092166,"lng":134.205506,"zip":"7711705"},{"town":"阿波町寒風","koaza":"","lat":34.104271,"lng":134.199723,"zip":"7711705"},{"town":"阿波町山王","koaza":"","lat":34.10099,"lng":134.246854,"zip":"7711702"},{"town":"阿波町三本柳","koaza":"","lat":34.068983,"lng":134.215764,"zip":"7711706"},{"town":"阿波町四歩一","koaza":"","lat":34.090386,"lng":134.248046,"zip":"7711702"},{"town":"阿波町下喜来","koaza":"","lat":34.094537,"lng":134.266827,"zip":"7711701"},{"town":"阿波町下喜来南","koaza":"","lat":34.088769,"lng":134.268301,"zip":"7711701"},{"town":"阿波町下原","koaza":"","lat":34.095343,"lng":134.237354,"zip":"7711702"},{"town":"阿波町十善地","koaza":"","lat":34.085323,"lng":134.211814,"zip":"7711705"},{"town":"阿波町新開","koaza":"","lat":34.078202,"lng":134.240908,"zip":"7711701"},{"town":"阿波町真福寺","koaza":"","lat":34.085291,"lng":134.218607,"zip":"7711703"},{"town":"阿波町清原","koaza":"","lat":34.08794,"lng":134.261089,"zip":"7711701"},{"town":"阿波町善地","koaza":"","lat":34.079891,"lng":134.206856,"zip":"7711705"},{"town":"阿波町大次郎","koaza":"","lat":34.082672,"lng":134.24252,"zip":"7711702"},{"town":"阿波町高垣","koaza":"","lat":34.075978,"lng":134.213781,"zip":"7711705"},{"town":"阿波町立割","koaza":"","lat":34.128887,"lng":134.219787,"zip":"7711704"},{"town":"阿波町谷口","koaza":"","lat":34.108512,"lng":134.238943,"zip":"7711702"},{"town":"阿波町谷島","koaza":"","lat":34.0793,"lng":134.259017,"zip":"7711701"},{"town":"阿波町谷島北","koaza":"","lat":34.081581,"lng":134.257597,"zip":"7711701"},{"town":"阿波町綱懸","koaza":"","lat":34.084485,"lng":134.225651,"zip":"7711703"},{"town":"阿波町寺サコ","koaza":"","lat":34.08092,"lng":134.246611,"zip":"7711702"},{"town":"阿波町天西山","koaza":"","lat":34.110049,"lng":134.248977,"zip":"7711702"},{"town":"阿波町東条","koaza":"","lat":34.08139,"lng":134.222435,"zip":"7711703"},{"town":"阿波町栩ケ窪","koaza":"","lat":34.101684,"lng":134.20669,"zip":"7711705"},{"town":"阿波町中川原","koaza":"","lat":34.071196,"lng":134.202347,"zip":"7711706"},{"town":"阿波町中坪","koaza":"","lat":34.076546,"lng":134.210377,"zip":"7711706"},{"town":"阿波町中長峰","koaza":"","lat":34.079302,"lng":134.185492,"zip":"7711706"},{"town":"阿波町中原","koaza":"","lat":34.079795,"lng":134.229747,"zip":"7711703"},{"town":"阿波町西柴生","koaza":"","lat":34.09342,"lng":134.224155,"zip":"7711703"},{"town":"阿波町西島","koaza":"","lat":34.07179,"lng":134.191098,"zip":"7711706"},{"town":"阿波町西清原","koaza":"","lat":34.08458,"lng":134.258866,"zip":"7711701"},{"town":"阿波町西整理","koaza":"","lat":34.072713,"lng":134.195087,"zip":"7711706"},{"town":"阿波町西長峰","koaza":"","lat":34.078218,"lng":134.181338,"zip":"7711706"},{"town":"阿波町西ノ岡","koaza":"","lat":34.103162,"lng":134.234295,"zip":"7711702"},{"town":"阿波町西林","koaza":"","lat":34.067671,"lng":134.188638,"zip":"7711706"},{"town":"阿波町西原","koaza":"","lat":34.07056,"lng":134.226815,"zip":"7711703"},{"town":"阿波町西正広","koaza":"","lat":34.096918,"lng":134.213455,"zip":"7711704"},{"town":"阿波町野神","koaza":"","lat":34.085178,"lng":134.253947,"zip":"7711702"},{"town":"阿波町八丁原","koaza":"","lat":34.100748,"lng":134.228993,"zip":"7711704"},{"town":"阿波町馬場","koaza":"","lat":34.078347,"lng":134.195743,"zip":"7711705"},{"town":"阿波町東川原","koaza":"","lat":34.071544,"lng":134.206144,"zip":"7711706"},{"town":"阿波町東柴生","koaza":"","lat":34.093425,"lng":134.230121,"zip":"7711703"},{"town":"阿波町東島","koaza":"","lat":34.070481,"lng":134.200453,"zip":"7711706"},{"town":"阿波町東整理","koaza":"","lat":34.075618,"lng":134.202402,"zip":"7711706"},{"town":"阿波町東長峰","koaza":"","lat":34.083427,"lng":134.187435,"zip":"7711706"},{"town":"阿波町東原","koaza":"","lat":34.084929,"lng":134.234777,"zip":"7711703"},{"town":"阿波町東正広","koaza":"","lat":34.097054,"lng":134.221693,"zip":"7711704"},{"town":"阿波町東村","koaza":"","lat":34.068266,"lng":134.19889,"zip":"7711706"},{"town":"阿波町引地","koaza":"","lat":34.154069,"lng":134.227691,"zip":"7711704"},{"town":"阿波町久原","koaza":"","lat":34.082481,"lng":134.238168,"zip":"7711702"},{"town":"阿波町日吉谷","koaza":"","lat":34.082497,"lng":134.195224,"zip":"7711705"},{"town":"阿波町広野","koaza":"","lat":34.119095,"lng":134.228805,"zip":"7711704"},{"town":"阿波町平川原北","koaza":"","lat":34.09034,"lng":134.274003,"zip":"7711701"},{"town":"阿波町平川原南","koaza":"","lat":34.076496,"lng":134.274041,"zip":"7711701"},{"town":"阿波町本町","koaza":"","lat":34.089435,"lng":134.242395,"zip":"7711702"},{"town":"阿波町本安","koaza":"","lat":34.088239,"lng":134.248912,"zip":"7711702"},{"town":"阿波町前島","koaza":"","lat":34.070758,"lng":134.233162,"zip":"7711703"},{"town":"阿波町真重","koaza":"","lat":34.141155,"lng":134.228069,"zip":"7711704"},{"town":"阿波町松川内","koaza":"","lat":34.078516,"lng":134.202805,"zip":"7711705"},{"town":"阿波町丸山","koaza":"","lat":34.077971,"lng":134.225417,"zip":"7711703"},{"town":"阿波町南川原","koaza":"","lat":34.067916,"lng":134.204383,"zip":"7711706"},{"town":"阿波町南五味知","koaza":"","lat":34.090572,"lng":134.234715,"zip":"7711704"},{"town":"阿波町南柴生","koaza":"","lat":34.087085,"lng":134.229013,"zip":"7711703"},{"town":"阿波町南整理","koaza":"","lat":34.070903,"lng":134.198504,"zip":"7711706"},{"town":"阿波町南谷島","koaza":"","lat":34.074107,"lng":134.259962,"zip":"7711701"},{"town":"阿波町南西谷","koaza":"","lat":34.074793,"lng":134.191749,"zip":"7711706"},{"town":"阿波町明地谷","koaza":"","lat":34.106694,"lng":134.219206,"zip":"7711700"},{"town":"阿波町元町","koaza":"","lat":34.074912,"lng":134.238347,"zip":"7711704"},{"town":"阿波町森沢","koaza":"","lat":34.085411,"lng":134.248494,"zip":"7711702"},{"town":"阿波町安政","koaza":"","lat":34.086536,"lng":134.242263,"zip":"7711702"},{"town":"阿波町山尻","koaza":"","lat":34.100803,"lng":134.249429,"zip":"7711702"},{"town":"阿波町山ノ神","koaza":"","lat":34.098118,"lng":134.22994,"zip":"7711704"},{"town":"阿波町早田","koaza":"","lat":34.095686,"lng":134.241324,"zip":"7711702"},{"town":"市場町市場","koaza":"","lat":34.091869,"lng":134.28242,"zip":"7711602"},{"town":"市場町伊月","koaza":"","lat":34.088896,"lng":134.324456,"zip":"7711626"},{"town":"市場町犬墓","koaza":"","lat":34.139724,"lng":134.251827,"zip":"7711714"},{"town":"市場町大影","koaza":"","lat":34.171465,"lng":134.232517,"zip":"7711615"},{"town":"市場町大野島","koaza":"","lat":34.087214,"lng":134.312328,"zip":"7711627"},{"town":"市場町大俣","koaza":"","lat":34.10079,"lng":134.25663,"zip":"7711613"},{"town":"市場町尾開","koaza":"","lat":34.114786,"lng":134.291861,"zip":"7711621"},{"town":"市場町香美","koaza":"","lat":34.081394,"lng":134.290223,"zip":"7711611"},{"town":"市場町上喜来","koaza":"","lat":34.107001,"lng":134.269203,"zip":"7711612"},{"town":"市場町切幡","koaza":"","lat":34.104623,"lng":134.300166,"zip":"7711623"},{"town":"市場町興崎","koaza":"","lat":34.095529,"lng":134.29249,"zip":"7711622"},{"town":"市場町日開谷","koaza":"","lat":34.147393,"lng":134.281549,"zip":"7711616"},{"town":"市場町山野上","koaza":"","lat":34.089692,"lng":134.302559,"zip":"7711624"},{"town":"市場町八幡","koaza":"","lat":34.090318,"lng":134.314863,"zip":"7711625"},{"town":"土成町秋月","koaza":"","lat":34.10537,"lng":134.315726,"zip":"7711501"},{"town":"土成町浦池","koaza":"","lat":34.129003,"lng":134.315246,"zip":"7711503"},{"town":"土成町郡","koaza":"","lat":34.092315,"lng":134.333952,"zip":"7711505"},{"town":"土成町高尾","koaza":"","lat":34.13256,"lng":134.370056,"zip":"7711509"},{"town":"土成町土成","koaza":"","lat":34.1199,"lng":134.333861,"zip":"7711506"},{"town":"土成町成当","koaza":"","lat":34.10498,"lng":134.324509,"zip":"7711504"},{"town":"土成町水田","koaza":"","lat":34.104239,"lng":134.319805,"zip":"7711502"},{"town":"土成町宮川内","koaza":"","lat":34.1466,"lng":134.336351,"zip":"7711508"},{"town":"土成町吉田","koaza":"","lat":34.116641,"lng":134.351025,"zip":"7711507"},{"town":"吉野町柿原","koaza":"","lat":34.095321,"lng":134.352975,"zip":"7711401"},{"town":"吉野町五条","koaza":"","lat":34.107687,"lng":134.396322,"zip":"7711403"},{"town":"吉野町西条","koaza":"","lat":34.101938,"lng":134.379881,"zip":"7711402"}]