[{"town":"大麻町池谷","koaza":"","lat":34.161483,"lng":134.527846,"zip":"7790303"},{"town":"大麻町市場","koaza":"","lat":34.13958,"lng":134.53171,"zip":"7790315"},{"town":"大麻町牛屋島","koaza":"","lat":34.152495,"lng":134.549016,"zip":"7790311"},{"town":"大麻町大谷","koaza":"","lat":34.174391,"lng":134.537419,"zip":"7790302"},{"town":"大麻町川崎","koaza":"","lat":34.141706,"lng":134.52149,"zip":"7790223"},{"town":"大麻町高畑","koaza":"","lat":34.151108,"lng":134.531843,"zip":"7790305"},{"town":"大麻町津慈","koaza":"","lat":34.142162,"lng":134.513741,"zip":"7790224"},{"town":"大麻町中馬詰","koaza":"","lat":34.142153,"lng":134.543845,"zip":"7790313"},{"town":"大麻町西馬詰","koaza":"","lat":34.144201,"lng":134.538673,"zip":"7790314"},{"town":"大麻町萩原","koaza":"","lat":34.15634,"lng":134.516741,"zip":"7790221"},{"town":"大麻町板東","koaza":"","lat":34.180664,"lng":134.516427,"zip":"7790234"},{"town":"大麻町東馬詰","koaza":"","lat":34.145176,"lng":134.552024,"zip":"7790312"},{"town":"大麻町桧","koaza":"","lat":34.164402,"lng":134.491876,"zip":"7720000"},{"town":"大麻町姫田","koaza":"","lat":34.170327,"lng":134.554004,"zip":"7790301"},{"town":"大麻町松村","koaza":"","lat":34.153366,"lng":134.538575,"zip":"7790304"},{"town":"大麻町三俣","koaza":"","lat":34.145153,"lng":134.527408,"zip":"7790222"},{"town":"大津町大代","koaza":"","lat":34.173277,"lng":134.564237,"zip":"7720041"},{"town":"大津町木津野","koaza":"","lat":34.164654,"lng":134.587606,"zip":"7720031"},{"town":"大津町大幸","koaza":"","lat":34.15632,"lng":134.556404,"zip":"7720044"},{"town":"大津町段関","koaza":"","lat":34.15796,"lng":134.566118,"zip":"7720043"},{"town":"大津町徳長","koaza":"","lat":34.153378,"lng":134.59919,"zip":"7720034"},{"town":"大津町長江","koaza":"","lat":34.154122,"lng":134.606391,"zip":"7720033"},{"town":"大津町備前島","koaza":"","lat":34.159177,"lng":134.580916,"zip":"7720042"},{"town":"大津町矢倉","koaza":"","lat":34.152347,"lng":134.588831,"zip":"7720035"},{"town":"大津町吉永","koaza":"","lat":34.164085,"lng":134.599281,"zip":"7720032"},{"town":"北灘町粟田","koaza":"","lat":34.215902,"lng":134.537719,"zip":"7710372"},{"town":"北灘町大浦","koaza":"","lat":34.21555,"lng":134.526799,"zip":"7710373"},{"town":"北灘町大須","koaza":"","lat":34.199525,"lng":134.44946,"zip":"7710377"},{"town":"北灘町折野","koaza":"","lat":34.200778,"lng":134.476505,"zip":"7710376"},{"town":"北灘町櫛木","koaza":"","lat":34.209072,"lng":134.554285,"zip":"7710371"},{"town":"北灘町碁浦","koaza":"","lat":34.204004,"lng":134.441596,"zip":"7710378"},{"town":"北灘町宿毛谷","koaza":"","lat":34.21956,"lng":134.517606,"zip":"7710374"},{"town":"北灘町鳥ケ丸","koaza":"","lat":34.2213,"lng":134.507884,"zip":"7710375"},{"town":"里浦町粟津","koaza":"","lat":34.158189,"lng":134.611853,"zip":"7720022"},{"town":"里浦町里浦","koaza":"","lat":34.162536,"lng":134.625318,"zip":"7720021"},{"town":"瀬戸町明神","koaza":"","lat":34.203747,"lng":134.577031,"zip":"7720060"},{"town":"瀬戸町大島田","koaza":"","lat":34.244503,"lng":134.606849,"zip":"7710367"},{"town":"瀬戸町北泊","koaza":"","lat":34.23181,"lng":134.576659,"zip":"7710362"},{"town":"瀬戸町小島田","koaza":"","lat":34.228676,"lng":134.595176,"zip":"7710365"},{"town":"瀬戸町堂浦","koaza":"","lat":34.219437,"lng":134.580045,"zip":"7710361"},{"town":"瀬戸町中島田","koaza":"","lat":34.237318,"lng":134.600104,"zip":"7710366"},{"town":"瀬戸町湊谷","koaza":"","lat":34.232664,"lng":134.568479,"zip":"7710363"},{"town":"瀬戸町撫佐","koaza":"","lat":34.232156,"lng":134.605123,"zip":"7710369"},{"town":"瀬戸町室","koaza":"","lat":34.239858,"lng":134.613631,"zip":"7710368"},{"town":"鳴門町高島","koaza":"","lat":34.207,"lng":134.595692,"zip":"7720051"},{"town":"鳴門町土佐泊浦","koaza":"","lat":34.212991,"lng":134.626253,"zip":"7720053"},{"town":"鳴門町三ツ石","koaza":"","lat":34.20307,"lng":134.611781,"zip":"7720052"},{"town":"撫養町大桑島","koaza":"","lat":34.186675,"lng":134.608989,"zip":"7720011"},{"town":"撫養町岡崎","koaza":"","lat":34.18294,"lng":134.620537,"zip":"7720013"},{"town":"撫養町北浜","koaza":"","lat":34.180832,"lng":134.614127,"zip":"7720015"},{"town":"撫養町木津","koaza":"","lat":34.181733,"lng":134.58064,"zip":"7720004"},{"town":"撫養町黒崎","koaza":"","lat":34.188045,"lng":134.593801,"zip":"7720001"},{"town":"撫養町小桑島","koaza":"","lat":34.181759,"lng":134.607208,"zip":"7720012"},{"town":"撫養町斎田","koaza":"","lat":34.179808,"lng":134.597173,"zip":"7720002"},{"town":"撫養町立岩","koaza":"","lat":34.171098,"lng":134.617511,"zip":"7720017"},{"town":"撫養町林崎","koaza":"","lat":34.177778,"lng":134.614941,"zip":"7720016"},{"town":"撫養町弁財天","koaza":"","lat":34.181684,"lng":134.618533,"zip":"7720014"},{"town":"撫養町南浜","koaza":"","lat":34.169459,"lng":134.609343,"zip":"7720003"},{"town":"大麻町桧","koaza":"谷口","lat":34.155562,"lng":134.486347,"zip":"7720000"},{"town":"大麻町桧","koaza":"コモガ池","lat":34.148504,"lng":134.491848,"zip":"7720000"},{"town":"大麻町桧","koaza":"山下","lat":34.151248,"lng":134.487429,"zip":"7720000"},{"town":"大麻町桧","koaza":"六反田","lat":34.152222,"lng":134.489548,"zip":"7720000"},{"town":"大麻町桧","koaza":"西谷山","lat":34.159427,"lng":134.488426,"zip":"7720000"},{"town":"大麻町桧","koaza":"ダンノ上","lat":34.154297,"lng":134.49097,"zip":"7720000"},{"town":"大麻町桧","koaza":"西山田","lat":34.158865,"lng":134.491578,"zip":"7720000"},{"town":"大麻町桧","koaza":"道ノ南","lat":34.153013,"lng":134.492817,"zip":"7720000"},{"town":"大麻町桧","koaza":"椎尾谷","lat":34.166787,"lng":134.492951,"zip":"7720000"},{"town":"大麻町桧","koaza":"道ノ北","lat":34.155798,"lng":134.493913,"zip":"7720000"},{"town":"大麻町桧","koaza":"中山田","lat":34.159212,"lng":134.49342,"zip":"7720000"},{"town":"大麻町桧","koaza":"丸山","lat":34.159806,"lng":134.494315,"zip":"7720000"},{"town":"大麻町桧","koaza":"石地","lat":34.150883,"lng":134.494094,"zip":"7720000"},{"town":"大麻町桧","koaza":"尾山谷","lat":34.158869,"lng":134.495121,"zip":"7720000"},{"town":"大麻町桧","koaza":"栗ノ木","lat":34.151144,"lng":134.495962,"zip":"7720000"},{"town":"大麻町桧","koaza":"東バリ","lat":34.154149,"lng":134.497065,"zip":"7720000"},{"town":"大麻町桧","koaza":"宮ノ西","lat":34.149049,"lng":134.495648,"zip":"7720000"},{"town":"大麻町桧","koaza":"野神ノ北","lat":34.156759,"lng":134.497041,"zip":"7720000"},{"town":"大麻町桧","koaza":"宮ノ北","lat":34.150719,"lng":134.497639,"zip":"7720000"},{"town":"大麻町桧","koaza":"川原バ","lat":34.148786,"lng":134.497876,"zip":"7720000"},{"town":"大麻町桧","koaza":"東山田","lat":34.160709,"lng":134.498234,"zip":"7720000"},{"town":"大麻町板東","koaza":"永井","lat":34.154421,"lng":134.500375,"zip":"7790234"},{"town":"大麻町板東","koaza":"西山田","lat":34.158963,"lng":134.500437,"zip":"7790234"},{"town":"大麻町板東","koaza":"広塚","lat":34.169457,"lng":134.504662,"zip":"7790234"},{"town":"大麻町板東","koaza":"采女","lat":34.155883,"lng":134.502565,"zip":"7790234"},{"town":"大麻町板東","koaza":"塚鼻","lat":34.161706,"lng":134.503951,"zip":"7790234"},{"town":"大麻町板東","koaza":"北条","lat":34.158165,"lng":134.504213,"zip":"7790234"},{"town":"大麻町板東","koaza":"ツブロギ","lat":34.147485,"lng":134.504151,"zip":"7790234"},{"town":"大麻町板東","koaza":"国木","lat":34.152026,"lng":134.503456,"zip":"7790234"},{"town":"大麻町板東","koaza":"宝蔵","lat":34.154205,"lng":134.505282,"zip":"7790234"},{"town":"大麻町板東","koaza":"松木","lat":34.151892,"lng":134.504607,"zip":"7790234"},{"town":"大麻町板東","koaza":"西平草","lat":34.165161,"lng":134.504527,"zip":"7790234"},{"town":"大麻町板東","koaza":"東平草","lat":34.165506,"lng":134.50653,"zip":"7790234"},{"town":"大麻町板東","koaza":"市田","lat":34.145296,"lng":134.507004,"zip":"7790234"},{"town":"大麻町板東","koaza":"東山田","lat":34.158056,"lng":134.507385,"zip":"7790234"},{"town":"大麻町板東","koaza":"辻見堂","lat":34.154438,"lng":134.506694,"zip":"7790234"},{"town":"大麻町板東","koaza":"浄土寺","lat":34.159875,"lng":134.508314,"zip":"7790234"},{"town":"大麻町板東","koaza":"藤ノ木","lat":34.152034,"lng":134.507389,"zip":"7790234"},{"town":"大麻町板東","koaza":"大林","lat":34.154583,"lng":134.508736,"zip":"7790234"},{"town":"大麻町板東","koaza":"中谷","lat":34.178109,"lng":134.511754,"zip":"7790234"},{"town":"大麻町萩原","koaza":"西山田","lat":34.157453,"lng":134.510674,"zip":"7790221"},{"town":"大麻町板東","koaza":"牛ノ宮東","lat":34.154506,"lng":134.509863,"zip":"7790234"},{"town":"大麻町板東","koaza":"八幡","lat":34.151161,"lng":134.512815,"zip":"7790234"},{"town":"大麻町萩原","koaza":"川原ノ上","lat":34.153215,"lng":134.512647,"zip":"7790221"},{"town":"大麻町萩原","koaza":"アコメン","lat":34.154288,"lng":134.513945,"zip":"7790221"},{"town":"大麻町萩原","koaza":"姥ケ懐","lat":34.152456,"lng":134.514576,"zip":"7790221"},{"town":"大麻町萩原","koaza":"東山田","lat":34.156317,"lng":134.514407,"zip":"7790221"},{"town":"大麻町萩原","koaza":"柳","lat":34.153961,"lng":134.516982,"zip":"7790221"},{"town":"大麻町萩原","koaza":"山ノ下","lat":34.154667,"lng":134.520656,"zip":"7790221"},{"town":"大麻町川崎","koaza":"中筋","lat":34.137842,"lng":134.519999,"zip":"7790223"},{"town":"大麻町川崎","koaza":"勝瑞境","lat":34.137447,"lng":134.518152,"zip":"7790223"},{"town":"大麻町市場","koaza":"川向三","lat":34.135469,"lng":134.523933,"zip":"7790315"},{"town":"大麻町池谷","koaza":"浜田","lat":34.152617,"lng":134.525592,"zip":"7790303"},{"town":"大麻町三俣","koaza":"鍛治ケ西","lat":34.147029,"lng":134.525712,"zip":"7790222"},{"town":"大麻町三俣","koaza":"香免","lat":34.149633,"lng":134.528666,"zip":"7790222"},{"town":"大麻町池谷","koaza":"土池","lat":34.151316,"lng":134.527432,"zip":"7790303"},{"town":"大麻町市場","koaza":"大西","lat":34.138913,"lng":134.527618,"zip":"7790315"},{"town":"大麻町三俣","koaza":"走り出","lat":34.143461,"lng":134.526292,"zip":"7790222"},{"town":"大麻町三俣","koaza":"前野","lat":34.140497,"lng":134.528119,"zip":"7790222"},{"town":"大麻町市場","koaza":"川縁","lat":34.138523,"lng":134.526187,"zip":"7790315"},{"town":"大麻町池谷","koaza":"中内","lat":34.156066,"lng":134.526344,"zip":"7790303"},{"town":"大麻町市場","koaza":"川向一","lat":34.133013,"lng":134.526711,"zip":"7790315"},{"town":"大麻町三俣","koaza":"中道","lat":34.143658,"lng":134.528307,"zip":"7790222"},{"town":"大麻町市場","koaza":"井利の本","lat":34.137904,"lng":134.528166,"zip":"7790315"},{"town":"大麻町市場","koaza":"中筋","lat":34.13675,"lng":134.529235,"zip":"7790315"},{"town":"大麻町池谷","koaza":"長田","lat":34.155858,"lng":134.530199,"zip":"7790303"},{"town":"大麻町市場","koaza":"川向二","lat":34.133862,"lng":134.527365,"zip":"7790315"},{"town":"大麻町高畑","koaza":"居屋敷","lat":34.153053,"lng":134.530923,"zip":"7790305"},{"town":"大麻町市場","koaza":"居屋敷","lat":34.135587,"lng":134.531022,"zip":"7790315"},{"town":"大麻町高畑","koaza":"北浦","lat":34.154911,"lng":134.53203,"zip":"7790305"},{"town":"大麻町池谷","koaza":"柳の本","lat":34.156578,"lng":134.532717,"zip":"7790303"},{"town":"大麻町市場","koaza":"小桑木","lat":34.137369,"lng":134.530998,"zip":"7790315"},{"town":"大麻町市場","koaza":"砂原","lat":34.134328,"lng":134.532462,"zip":"7790315"},{"town":"大麻町市場","koaza":"王子","lat":34.140853,"lng":134.533113,"zip":"7790315"},{"town":"大麻町市場","koaza":"大道","lat":34.135619,"lng":134.533614,"zip":"7790315"},{"town":"大麻町市場","koaza":"大堀","lat":34.13762,"lng":134.533536,"zip":"7790315"},{"town":"大麻町池谷","koaza":"東谷","lat":34.156713,"lng":134.531741,"zip":"7790303"},{"town":"大麻町池谷","koaza":"大石","lat":34.159041,"lng":134.535956,"zip":"7790303"},{"town":"大麻町松村","koaza":"土井","lat":34.155825,"lng":134.535447,"zip":"7790304"},{"town":"大麻町市場","koaza":"東川渕","lat":34.140563,"lng":134.535127,"zip":"7790315"},{"town":"大麻町市場","koaza":"惣助門","lat":34.142061,"lng":134.534896,"zip":"7790315"},{"town":"大麻町市場","koaza":"東畑","lat":34.137634,"lng":134.536313,"zip":"7790315"},{"town":"大麻町松村","koaza":"竹添","lat":34.151814,"lng":134.535507,"zip":"7790304"},{"town":"大麻町西馬詰","koaza":"大ホリケ","lat":34.143678,"lng":134.537077,"zip":"7790314"},{"town":"大麻町市場","koaza":"居内","lat":34.136275,"lng":134.53595,"zip":"7790315"},{"town":"大麻町西馬詰","koaza":"スバナ","lat":34.142319,"lng":134.538416,"zip":"7790314"},{"town":"大麻町市場","koaza":"東原","lat":34.136194,"lng":134.537418,"zip":"7790315"},{"town":"大麻町市場","koaza":"大畑","lat":34.139728,"lng":134.538452,"zip":"7790315"},{"town":"大麻町松村","koaza":"吉井","lat":34.155206,"lng":134.537711,"zip":"7790304"},{"town":"大麻町大谷","koaza":"椢原","lat":34.168049,"lng":134.539055,"zip":"7790302"},{"town":"大麻町大谷","koaza":"中通","lat":34.159926,"lng":134.538272,"zip":"7790302"},{"town":"大麻町大谷","koaza":"山田","lat":34.163195,"lng":134.538549,"zip":"7790302"},{"town":"大麻町松村","koaza":"松ノ元","lat":34.151097,"lng":134.540325,"zip":"7790304"},{"town":"大麻町大谷","koaza":"道の上","lat":34.162353,"lng":134.539364,"zip":"7790302"},{"town":"大麻町西馬詰","koaza":"杉堂","lat":34.141177,"lng":134.539744,"zip":"7790314"},{"town":"大麻町大谷","koaza":"中筋","lat":34.159388,"lng":134.540352,"zip":"7790302"},{"town":"大麻町大谷","koaza":"西台","lat":34.160035,"lng":134.540287,"zip":"7790302"},{"town":"大麻町中馬詰","koaza":"居屋敷","lat":34.142659,"lng":134.540853,"zip":"7790313"},{"town":"大麻町東馬詰","koaza":"泉の尻","lat":34.146608,"lng":134.543195,"zip":"7790312"},{"town":"大麻町大谷","koaza":"東山谷","lat":34.169182,"lng":134.542644,"zip":"7790302"},{"town":"大麻町東馬詰","koaza":"野中","lat":34.14593,"lng":134.541919,"zip":"7790312"},{"town":"大麻町大谷","koaza":"井利の肩","lat":34.161906,"lng":134.54184,"zip":"7790302"},{"town":"大麻町大谷","koaza":"竹の下","lat":34.160169,"lng":134.542956,"zip":"7790302"},{"town":"大麻町大谷","koaza":"久原","lat":34.161513,"lng":134.54317,"zip":"7790302"},{"town":"大麻町牛屋島","koaza":"中須賀","lat":34.152493,"lng":134.545718,"zip":"7790311"},{"town":"大麻町大谷","koaza":"森崎","lat":34.159035,"lng":134.544553,"zip":"7790302"},{"town":"大麻町東馬詰","koaza":"南開","lat":34.143494,"lng":134.549133,"zip":"7790312"},{"town":"大麻町姫田","koaza":"森崎","lat":34.160023,"lng":134.546922,"zip":"7790301"},{"town":"大麻町大谷","koaza":"倉谷","lat":34.195846,"lng":134.549836,"zip":"7790302"},{"town":"大麻町姫田","koaza":"久原","lat":34.163056,"lng":134.546196,"zip":"7790301"},{"town":"大麻町牛屋島","koaza":"西窪","lat":34.150787,"lng":134.547538,"zip":"7790311"},{"town":"大麻町姫田","koaza":"里","lat":34.159852,"lng":134.549725,"zip":"7790301"},{"town":"大麻町姫田","koaza":"池","lat":34.161893,"lng":134.54964,"zip":"7790301"},{"town":"大麻町牛屋島","koaza":"川渕","lat":34.156189,"lng":134.549253,"zip":"7790311"},{"town":"大麻町東馬詰","koaza":"破戸の元","lat":34.140968,"lng":134.549363,"zip":"7790312"},{"town":"大麻町牛屋島","koaza":"堀ノ内","lat":34.149716,"lng":134.549244,"zip":"7790311"},{"town":"大麻町姫田","koaza":"大森","lat":34.164464,"lng":134.549988,"zip":"7790301"},{"town":"大麻町牛屋島","koaza":"中北","lat":34.153429,"lng":134.551271,"zip":"7790311"},{"town":"大麻町姫田","koaza":"中塚","lat":34.161281,"lng":134.555926,"zip":"7790301"},{"town":"大麻町姫田","koaza":"ミセチ","lat":34.161644,"lng":134.552511,"zip":"7790301"},{"town":"大麻町牛屋島","koaza":"中須","lat":34.149074,"lng":134.552753,"zip":"7790311"},{"town":"大麻町東馬詰","koaza":"辰巳","lat":34.14163,"lng":134.553475,"zip":"7790312"},{"town":"大麻町姫田","koaza":"半丈","lat":34.166057,"lng":134.55289,"zip":"7790301"},{"town":"大津町大幸","koaza":"野神","lat":34.15527,"lng":134.552953,"zip":"7720044"},{"town":"大麻町東馬詰","koaza":"諏訪の元","lat":34.145383,"lng":134.553445,"zip":"7790312"},{"town":"大麻町姫田","koaza":"川田","lat":34.162232,"lng":134.554435,"zip":"7790301"},{"town":"大麻町東馬詰","koaza":"壱番越","lat":34.14439,"lng":134.555773,"zip":"7790312"},{"town":"大麻町東馬詰","koaza":"孫中須","lat":34.147249,"lng":134.555879,"zip":"7790312"},{"town":"大津町大幸","koaza":"若宮ノ本","lat":34.15375,"lng":134.554216,"zip":"7720044"},{"town":"大麻町東馬詰","koaza":"寅開","lat":34.146113,"lng":134.557074,"zip":"7790312"},{"town":"大麻町姫田","koaza":"久保ノ内","lat":34.166183,"lng":134.555834,"zip":"7790301"},{"town":"大麻町牛屋島","koaza":"大浜","lat":34.150421,"lng":134.552976,"zip":"7790311"},{"town":"大津町大幸","koaza":"平塚","lat":34.156636,"lng":134.553847,"zip":"7720044"},{"town":"大麻町姫田","koaza":"西百地","lat":34.163448,"lng":134.556372,"zip":"7790301"},{"town":"大津町大幸","koaza":"松ノ下","lat":34.153078,"lng":134.555615,"zip":"7720044"},{"town":"大麻町姫田","koaza":"カウ田","lat":34.162531,"lng":134.556589,"zip":"7790301"},{"town":"大麻町東馬詰","koaza":"弐番越","lat":34.143641,"lng":134.557278,"zip":"7790312"},{"town":"大麻町姫田","koaza":"新田","lat":34.162071,"lng":134.558447,"zip":"7790301"},{"town":"大津町大幸","koaza":"大将軍の越","lat":34.16168,"lng":134.560499,"zip":"7720044"},{"town":"大津町大幸","koaza":"長畑","lat":34.153544,"lng":134.557898,"zip":"7720044"},{"town":"大麻町姫田","koaza":"下久保","lat":34.165059,"lng":134.558755,"zip":"7790301"},{"town":"大麻町姫田","koaza":"東百地","lat":34.163728,"lng":134.558777,"zip":"7790301"},{"town":"大麻町東馬詰","koaza":"参番越","lat":34.145951,"lng":134.553515,"zip":"7790312"},{"town":"大麻町姫田","koaza":"小森山路","lat":34.166906,"lng":134.55529,"zip":"7790301"},{"town":"大麻町姫田","koaza":"鴨","lat":34.164425,"lng":134.560426,"zip":"7790301"},{"town":"大麻町姫田","koaza":"塩田","lat":34.163535,"lng":134.561594,"zip":"7790301"},{"town":"大津町大幸","koaza":"井利ノ口","lat":34.1527,"lng":134.561339,"zip":"7720044"},{"town":"大津町大幸","koaza":"北江ノ越","lat":34.161855,"lng":134.561371,"zip":"7720044"},{"town":"大麻町姫田","koaza":"小森下","lat":34.165641,"lng":134.561463,"zip":"7790301"},{"town":"大麻町姫田","koaza":"北長田","lat":34.168269,"lng":134.563196,"zip":"7790301"},{"town":"大津町大幸","koaza":"蒲ノ本","lat":34.153293,"lng":134.56226,"zip":"7720044"},{"town":"大津町段関","koaza":"中間墾","lat":34.159208,"lng":134.562824,"zip":"7720043"},{"town":"大麻町牛屋島","koaza":"小松原","lat":34.150843,"lng":134.557325,"zip":"7790311"},{"town":"大津町段関","koaza":"西","lat":34.161905,"lng":134.563106,"zip":"7720043"},{"town":"大津町大幸","koaza":"色面","lat":34.152406,"lng":134.563876,"zip":"7720044"},{"town":"大津町段関","koaza":"宝蔵","lat":34.15327,"lng":134.564969,"zip":"7720043"},{"town":"大津町大幸","koaza":"関ノ下","lat":34.149774,"lng":134.567602,"zip":"7720044"},{"town":"大津町段関","koaza":"沖野","lat":34.152571,"lng":134.567454,"zip":"7720043"},{"town":"瀬戸町北泊","koaza":"小海","lat":34.220896,"lng":134.566795,"zip":"7710362"},{"town":"大津町段関","koaza":"高森屋","lat":34.154392,"lng":134.567584,"zip":"7720043"},{"town":"大津町段関","koaza":"東","lat":34.162494,"lng":134.566226,"zip":"7720043"},{"town":"大津町段関","koaza":"大通","lat":34.156013,"lng":134.568012,"zip":"7720043"},{"town":"大津町段関","koaza":"中の越","lat":34.156849,"lng":134.568883,"zip":"7720043"},{"town":"瀬戸町明神","koaza":"中山","lat":34.19886,"lng":134.570871,"zip":"7720060"},{"town":"瀬戸町堂浦","koaza":"日出","lat":34.230534,"lng":134.572569,"zip":"7710361"},{"town":"瀬戸町堂浦","koaza":"本浦上","lat":34.205675,"lng":134.569493,"zip":"7710361"},{"town":"瀬戸町堂浦","koaza":"本浦中","lat":34.20699,"lng":134.573101,"zip":"7710361"},{"town":"瀬戸町北泊","koaza":"北泊","lat":34.234061,"lng":134.586459,"zip":"7710362"},{"town":"瀬戸町堂浦","koaza":"大日出","lat":34.225231,"lng":134.577377,"zip":"7710361"},{"town":"瀬戸町明神","koaza":"菅谷","lat":34.205038,"lng":134.574409,"zip":"7720060"},{"town":"瀬戸町堂浦","koaza":"本浦下","lat":34.210312,"lng":134.576735,"zip":"7710361"},{"town":"大津町大代","koaza":"西ノ須","lat":34.1557,"lng":134.579149,"zip":"7720041"},{"town":"瀬戸町明神","koaza":"馬越","lat":34.210022,"lng":134.576408,"zip":"7720060"},{"town":"瀬戸町明神","koaza":"下本城","lat":34.208967,"lng":134.578922,"zip":"7720060"},{"town":"瀬戸町明神","koaza":"上本城","lat":34.211605,"lng":134.579615,"zip":"7720060"},{"town":"瀬戸町堂浦","koaza":"地廻り壱","lat":34.213166,"lng":134.581937,"zip":"7710361"},{"town":"瀬戸町明神","koaza":"丸山","lat":34.206252,"lng":134.581255,"zip":"7720060"},{"town":"大津町矢倉","koaza":"北","lat":34.154803,"lng":134.583966,"zip":"7720035"},{"town":"大津町備前島","koaza":"横丁ノ越","lat":34.160422,"lng":134.580635,"zip":"7720042"},{"town":"瀬戸町明神","koaza":"越浦","lat":34.202314,"lng":134.581605,"zip":"7720060"},{"town":"瀬戸町明神","koaza":"鳴谷","lat":34.201337,"lng":134.58406,"zip":"7720060"},{"town":"大津町木津野","koaza":"中の越","lat":34.159063,"lng":134.584492,"zip":"7720031"},{"town":"大津町木津野","koaza":"西玉渕","lat":34.163376,"lng":134.584175,"zip":"7720031"},{"town":"大津町矢倉","koaza":"南","lat":34.151016,"lng":134.585335,"zip":"7720035"},{"town":"大津町木津野","koaza":"日加志の越","lat":34.161465,"lng":134.586015,"zip":"7720031"},{"town":"大津町矢倉","koaza":"弐ノ越","lat":34.155458,"lng":134.586374,"zip":"7720035"},{"town":"瀬戸町堂浦","koaza":"地廻り弐","lat":34.219018,"lng":134.58641,"zip":"7710361"},{"town":"大津町木津野","koaza":"前の越","lat":34.166005,"lng":134.586878,"zip":"7720031"},{"town":"大津町矢倉","koaza":"参の越","lat":34.155922,"lng":134.587632,"zip":"7720035"},{"town":"瀬戸町堂浦","koaza":"地廻り参","lat":34.223126,"lng":134.588331,"zip":"7710361"},{"town":"大津町木津野","koaza":"加満の越","lat":34.161444,"lng":134.588162,"zip":"7720031"},{"town":"大津町矢倉","koaza":"裏","lat":34.159028,"lng":134.588127,"zip":"7720035"},{"town":"瀬戸町明神","koaza":"板屋島","lat":34.200226,"lng":134.587224,"zip":"7720060"},{"town":"大津町木津野","koaza":"北の越","lat":34.168487,"lng":134.589267,"zip":"7720031"},{"town":"撫養町黒崎","koaza":"八幡","lat":34.183877,"lng":134.594892,"zip":"7720001"},{"town":"大津町木津野","koaza":"仲ノ越","lat":34.165984,"lng":134.588997,"zip":"7720031"},{"town":"大津町木津野","koaza":"野神ノ越","lat":34.164661,"lng":134.589544,"zip":"7720031"},{"town":"鳴門町高島","koaza":"山路","lat":34.203516,"lng":134.598825,"zip":"7720051"},{"town":"鳴門町高島","koaza":"竹島","lat":34.208731,"lng":134.590621,"zip":"7720051"},{"town":"鳴門町高島","koaza":"浜中","lat":34.204549,"lng":134.590972,"zip":"7720051"},{"town":"大津町矢倉","koaza":"四の越","lat":34.155668,"lng":134.589104,"zip":"7720035"},{"town":"大津町矢倉","koaza":"五の越","lat":34.158319,"lng":134.589951,"zip":"7720035"},{"town":"瀬戸町堂浦","koaza":"阿波井","lat":34.224301,"lng":134.593192,"zip":"7710361"},{"town":"大津町木津野","koaza":"四丁野","lat":34.159856,"lng":134.590638,"zip":"7720031"},{"town":"撫養町黒崎","koaza":"磯崎","lat":34.192593,"lng":134.594128,"zip":"7720001"},{"town":"大津町矢倉","koaza":"西の越","lat":34.146444,"lng":134.591681,"zip":"7720035"},{"town":"大津町木津野","koaza":"籔の内","lat":34.169869,"lng":134.591586,"zip":"7720031"},{"town":"鳴門町高島","koaza":"南","lat":34.201568,"lng":134.594372,"zip":"7720051"},{"town":"大津町矢倉","koaza":"六ノ越","lat":34.155774,"lng":134.593125,"zip":"7720035"},{"town":"大津町木津野","koaza":"西辰巳","lat":34.160217,"lng":134.591887,"zip":"7720031"},{"town":"撫養町黒崎","koaza":"清水","lat":34.189968,"lng":134.594006,"zip":"7720001"},{"town":"瀬戸町中島田","koaza":"西田","lat":34.234412,"lng":134.594885,"zip":"7710366"},{"town":"瀬戸町小島田","koaza":"船隠","lat":34.225625,"lng":134.593435,"zip":"7710365"},{"town":"鳴門町高島","koaza":"北","lat":34.205806,"lng":134.595767,"zip":"7720051"},{"town":"大津町木津野","koaza":"養父の内","lat":34.170246,"lng":134.594579,"zip":"7720031"},{"town":"大津町矢倉","koaza":"東堤","lat":34.156041,"lng":134.593484,"zip":"7720035"},{"town":"撫養町南浜","koaza":"蛭子前西","lat":34.17312,"lng":134.594699,"zip":"7720003"},{"town":"大津町矢倉","koaza":"東の越","lat":34.148046,"lng":134.593146,"zip":"7720035"},{"town":"瀬戸町中島田","koaza":"北田","lat":34.238834,"lng":134.595364,"zip":"7710366"},{"town":"瀬戸町明神","koaza":"弐軒家","lat":34.19518,"lng":134.594085,"zip":"7720060"},{"town":"瀬戸町中島田","koaza":"飛越","lat":34.241432,"lng":134.597754,"zip":"7710366"},{"town":"大津町徳長","koaza":"東浦ノ越","lat":34.153037,"lng":134.59452,"zip":"7720034"},{"town":"大津町徳長","koaza":"前浦ノ越","lat":34.152168,"lng":134.594674,"zip":"7720034"},{"town":"大津町徳長","koaza":"川向西ノ越","lat":34.148932,"lng":134.594603,"zip":"7720034"},{"town":"大津町吉永","koaza":"前の越","lat":34.162664,"lng":134.596341,"zip":"7720032"},{"town":"瀬戸町小島田","koaza":"馬越","lat":34.22811,"lng":134.59557,"zip":"7710365"},{"town":"撫養町斎田","koaza":"見白","lat":34.18268,"lng":134.592251,"zip":"7720002"},{"town":"瀬戸町中島田","koaza":"根木谷","lat":34.233097,"lng":134.600286,"zip":"7710366"},{"town":"大津町徳長","koaza":"榎ケ江ノ越","lat":34.159782,"lng":134.599568,"zip":"7720034"},{"town":"撫養町黒崎","koaza":"宮津","lat":34.186222,"lng":134.595425,"zip":"7720001"},{"town":"瀬戸町中島田","koaza":"東山","lat":34.229386,"lng":134.600752,"zip":"7710366"},{"town":"瀬戸町中島田","koaza":"中島","lat":34.234246,"lng":134.597388,"zip":"7710366"},{"town":"瀬戸町中島田","koaza":"大畑","lat":34.235538,"lng":134.597531,"zip":"7710366"},{"town":"撫養町黒崎","koaza":"松島","lat":34.188763,"lng":134.599805,"zip":"7720001"},{"town":"大津町吉永","koaza":"中之越","lat":34.166257,"lng":134.597586,"zip":"7720032"},{"town":"撫養町斎田","koaza":"塚穴","lat":34.180531,"lng":134.597723,"zip":"7720002"},{"town":"大津町徳長","koaza":"参番ノ越","lat":34.152494,"lng":134.600436,"zip":"7720034"},{"town":"撫養町斎田","koaza":"浜端西","lat":34.181164,"lng":134.600321,"zip":"7720002"},{"town":"撫養町南浜","koaza":"馬目木","lat":34.172534,"lng":134.596326,"zip":"7720003"},{"town":"鳴門町三ツ石","koaza":"江尻山","lat":34.198811,"lng":134.606523,"zip":"7720052"},{"town":"鳴門町高島","koaza":"中島","lat":34.205541,"lng":134.601923,"zip":"7720051"},{"town":"大津町徳長","koaza":"前ノ越","lat":34.151069,"lng":134.600844,"zip":"7720034"},{"town":"撫養町斎田","koaza":"大池","lat":34.180078,"lng":134.598992,"zip":"7720002"},{"town":"撫養町斎田","koaza":"西発","lat":34.171077,"lng":134.601334,"zip":"7720002"},{"town":"撫養町斎田","koaza":"浜端北","lat":34.181578,"lng":134.601188,"zip":"7720002"},{"town":"撫養町斎田","koaza":"北浜","lat":34.180891,"lng":134.603593,"zip":"7720002"},{"town":"撫養町南浜","koaza":"権現","lat":34.173887,"lng":134.602423,"zip":"7720003"},{"town":"撫養町南浜","koaza":"蛭子前東","lat":34.174989,"lng":134.603944,"zip":"7720003"},{"town":"瀬戸町大島田","koaza":"前山","lat":34.244041,"lng":134.601767,"zip":"7710367"},{"town":"撫養町斎田","koaza":"岩崎","lat":34.176738,"lng":134.601867,"zip":"7720002"},{"town":"撫養町大桑島","koaza":"蛭子山","lat":34.186994,"lng":134.603673,"zip":"7720011"},{"town":"瀬戸町大島田","koaza":"水木原","lat":34.240196,"lng":134.605806,"zip":"7710367"},{"town":"大津町徳長","koaza":"東ノ越","lat":34.156162,"lng":134.602985,"zip":"7720034"},{"town":"大津町長江","koaza":"大手外","lat":34.14991,"lng":134.603417,"zip":"7720033"},{"town":"撫養町小桑島","koaza":"西浜","lat":34.184105,"lng":134.603009,"zip":"7720012"},{"town":"撫養町大桑島","koaza":"北ノ浜","lat":34.189276,"lng":134.603819,"zip":"7720011"},{"town":"撫養町斎田","koaza":"浜端南","lat":34.177006,"lng":134.604026,"zip":"7720002"},{"town":"瀬戸町大島田","koaza":"上畑","lat":34.243443,"lng":134.603531,"zip":"7710367"},{"town":"撫養町小桑島","koaza":"前浜","lat":34.180021,"lng":134.606574,"zip":"7720012"},{"town":"撫養町斎田","koaza":"東発","lat":34.171213,"lng":134.605181,"zip":"7720002"},{"town":"撫養町南浜","koaza":"東浜","lat":34.171546,"lng":134.608623,"zip":"7720003"},{"town":"撫養町南浜","koaza":"浜田","lat":34.171591,"lng":134.606496,"zip":"7720003"},{"town":"撫養町小桑島","koaza":"西","lat":34.183531,"lng":134.605743,"zip":"7720012"},{"town":"瀬戸町大島田","koaza":"下畑","lat":34.246074,"lng":134.60589,"zip":"7710367"},{"town":"撫養町大桑島","koaza":"北之組","lat":34.189211,"lng":134.6049,"zip":"7720011"},{"town":"瀬戸町撫佐","koaza":"本村","lat":34.235289,"lng":134.610688,"zip":"7710369"},{"town":"撫養町大桑島","koaza":"中之組","lat":34.186768,"lng":134.605173,"zip":"7720011"},{"town":"撫養町斎田","koaza":"大堤","lat":34.177447,"lng":134.607072,"zip":"7720002"},{"town":"撫養町小桑島","koaza":"前組","lat":34.18143,"lng":134.607761,"zip":"7720012"},{"town":"鳴門町三ツ石","koaza":"八軒浜","lat":34.202234,"lng":134.607646,"zip":"7720052"},{"town":"鳴門町三ツ石","koaza":"南大手","lat":34.196822,"lng":134.608328,"zip":"7720052"},{"town":"撫養町南浜","koaza":"大工野","lat":34.163475,"lng":134.607443,"zip":"7720003"},{"town":"撫養町大桑島","koaza":"大谷","lat":34.187955,"lng":134.606909,"zip":"7720011"},{"town":"大津町長江","koaza":"東大黒","lat":34.15294,"lng":134.607429,"zip":"7720033"},{"town":"撫養町大桑島","koaza":"与三左谷","lat":34.184168,"lng":134.608374,"zip":"7720011"},{"town":"鳴門町三ツ石","koaza":"芙蓉山下","lat":34.202462,"lng":134.610191,"zip":"7720052"},{"town":"撫養町小桑島","koaza":"日向谷","lat":34.182376,"lng":134.60844,"zip":"7720012"},{"town":"里浦町粟津","koaza":"西浜","lat":34.15379,"lng":134.611067,"zip":"7720022"},{"town":"瀬戸町撫佐","koaza":"前山","lat":34.232496,"lng":134.615279,"zip":"7710369"},{"town":"里浦町粟津","koaza":"中島","lat":34.152543,"lng":134.612418,"zip":"7720022"},{"town":"撫養町大桑島","koaza":"濘岩","lat":34.185874,"lng":134.609043,"zip":"7720011"},{"town":"里浦町粟津","koaza":"西開","lat":34.164143,"lng":134.614943,"zip":"7720022"},{"town":"撫養町大桑島","koaza":"濘岩浜","lat":34.184887,"lng":134.613038,"zip":"7720011"},{"town":"撫養町林崎","koaza":"北殿町","lat":34.177991,"lng":134.616372,"zip":"7720016"},{"town":"撫養町北浜","koaza":"宮の西","lat":34.179573,"lng":134.613193,"zip":"7720015"},{"town":"撫養町林崎","koaza":"南殿町","lat":34.17664,"lng":134.613537,"zip":"7720016"},{"town":"瀬戸町撫佐","koaza":"口ノ谷","lat":34.238498,"lng":134.613824,"zip":"7710369"},{"town":"里浦町里浦","koaza":"中島","lat":34.151032,"lng":134.61269,"zip":"7720021"},{"town":"撫養町立岩","koaza":"七枚","lat":34.173843,"lng":134.61433,"zip":"7720017"},{"town":"瀬戸町室","koaza":"本村","lat":34.24486,"lng":134.614157,"zip":"7710368"},{"town":"瀬戸町大島田","koaza":"中山","lat":34.242232,"lng":134.612224,"zip":"7710367"},{"town":"撫養町立岩","koaza":"四枚","lat":34.167376,"lng":134.614349,"zip":"7720017"},{"town":"鳴門町土佐泊浦","koaza":"大毛","lat":34.222946,"lng":134.629273,"zip":"7720053"},{"town":"撫養町北浜","koaza":"宮の東","lat":34.180717,"lng":134.615723,"zip":"7720015"},{"town":"撫養町立岩","koaza":"六枚","lat":34.171029,"lng":134.616069,"zip":"7720017"},{"town":"撫養町立岩","koaza":"内田","lat":34.176748,"lng":134.617843,"zip":"7720017"},{"town":"里浦町里浦","koaza":"恵美寿","lat":34.15096,"lng":134.616583,"zip":"7720021"},{"town":"瀬戸町室","koaza":"田ノ浦","lat":34.235696,"lng":134.616499,"zip":"7710368"},{"town":"撫養町弁財天","koaza":"派名","lat":34.183269,"lng":134.617941,"zip":"7720014"},{"town":"撫養町立岩","koaza":"元地","lat":34.173176,"lng":134.618475,"zip":"7720017"},{"town":"撫養町弁財天","koaza":"ハマ","lat":34.181384,"lng":134.617281,"zip":"7720014"},{"town":"撫養町弁財天","koaza":"本丁","lat":34.178284,"lng":134.616127,"zip":"7720014"},{"town":"撫養町岡崎","koaza":"二等道路西","lat":34.1836,"lng":134.619253,"zip":"7720013"},{"town":"撫養町弁財天","koaza":"三ツ井丁","lat":34.181365,"lng":134.61903,"zip":"7720014"},{"town":"撫養町立岩","koaza":"五枚","lat":34.166777,"lng":134.620975,"zip":"7720017"},{"town":"鳴門町土佐泊浦","koaza":"土佐泊","lat":34.190052,"lng":134.620774,"zip":"7720053"},{"town":"鳴門町土佐泊浦","koaza":"大谷","lat":34.201652,"lng":134.621403,"zip":"7720053"},{"town":"里浦町里浦","koaza":"大久保","lat":34.160828,"lng":134.620661,"zip":"7720021"},{"town":"撫養町岡崎","koaza":"二等道路東","lat":34.181399,"lng":134.621753,"zip":"7720013"},{"town":"撫養町立岩","koaza":"芥原","lat":34.172761,"lng":134.621847,"zip":"7720017"},{"town":"里浦町里浦","koaza":"小高塚","lat":34.163278,"lng":134.625194,"zip":"7720021"},{"town":"里浦町里浦","koaza":"花面","lat":34.175276,"lng":134.625187,"zip":"7720021"},{"town":"里浦町里浦","koaza":"梅原","lat":34.159839,"lng":134.622387,"zip":"7720021"},{"town":"鳴門町土佐泊浦","koaza":"高砂","lat":34.198809,"lng":134.623695,"zip":"7720053"},{"town":"鳴門町土佐泊浦","koaza":"黒山","lat":34.21078,"lng":134.625887,"zip":"7720053"},{"town":"鳴門町土佐泊浦","koaza":"脇口","lat":34.194128,"lng":134.622729,"zip":"7720053"},{"town":"里浦町里浦","koaza":"西浜","lat":34.166526,"lng":134.626352,"zip":"7720021"},{"town":"里浦町里浦","koaza":"坂田","lat":34.175372,"lng":134.630434,"zip":"7720021"},{"town":"里浦町里浦","koaza":"平松","lat":34.174344,"lng":134.632604,"zip":"7720021"},{"town":"里浦町里浦","koaza":"片桐","lat":34.170723,"lng":134.631232,"zip":"7720021"},{"town":"鳴門町土佐泊浦","koaza":"福池","lat":34.234068,"lng":134.638684,"zip":"7720053"},{"town":"大麻町桧","koaza":"笠籠谷","lat":34.15871,"lng":134.490505,"zip":"7720000"},{"town":"大麻町板東","koaza":"鍛治屋川","lat":34.151982,"lng":134.50058,"zip":"7790234"},{"town":"大麻町三俣","koaza":"津久田","lat":34.142061,"lng":134.529308,"zip":"7790222"},{"town":"大津町木津野","koaza":"裏の越","lat":34.166774,"lng":134.585575,"zip":"7720031"},{"town":"大津町木津野","koaza":"北川縁","lat":34.169275,"lng":134.587917,"zip":"7720031"},{"town":"瀬戸町明神","koaza":"楠谷","lat":34.196916,"lng":134.592755,"zip":"7720060"},{"town":"瀬戸町明神","koaza":"水汲谷","lat":34.198347,"lng":134.590211,"zip":"7720060"},{"town":"大津町長江","koaza":"北蛭子","lat":34.160991,"lng":134.609075,"zip":"7720033"},{"town":"大津町長江","koaza":"西蛭子","lat":34.160848,"lng":134.60784,"zip":"7720033"},{"town":"大津町長江","koaza":"東蛭子","lat":34.158189,"lng":134.607762,"zip":"7720033"},{"town":"大津町徳長","koaza":"水神ノ越","lat":34.149503,"lng":134.602043,"zip":"7720034"},{"town":"大津町矢倉","koaza":"六反野","lat":34.148373,"lng":134.593662,"zip":"7720035"},{"town":"大津町矢倉","koaza":"浜手","lat":34.148732,"lng":134.592282,"zip":"7720035"},{"town":"大津町徳長","koaza":"野神浦ノ越","lat":34.155879,"lng":134.596043,"zip":"7720034"},{"town":"大津町徳長","koaza":"西ノ越","lat":34.153972,"lng":134.594395,"zip":"7720034"},{"town":"大津町木津野","koaza":"蒲の越","lat":34.163617,"lng":134.587032,"zip":"7720031"},{"town":"大津町木津野","koaza":"喜多川縁","lat":34.164866,"lng":134.584308,"zip":"7720031"},{"town":"大津町木津野","koaza":"堤の内","lat":34.163611,"lng":134.585817,"zip":"7720031"},{"town":"大津町木津野","koaza":"内田","lat":34.168254,"lng":134.592696,"zip":"7720031"},{"town":"大津町木津野","koaza":"東川田","lat":34.17067,"lng":134.591145,"zip":"7720031"},{"town":"大麻町萩原","koaza":"カ子ガ谷","lat":34.15847,"lng":134.516211,"zip":"7790221"},{"town":"大麻町松村","koaza":"川ノ上","lat":34.155257,"lng":134.539977,"zip":"7790304"},{"town":"大麻町松村","koaza":"羽坂","lat":34.15253,"lng":134.539659,"zip":"7790304"},{"town":"大麻町西馬詰","koaza":"橋ノ本","lat":34.145316,"lng":134.540506,"zip":"7790314"},{"town":"大麻町中馬詰","koaza":"堂免","lat":34.146516,"lng":134.538898,"zip":"7790313"},{"town":"大麻町中馬詰","koaza":"戎免","lat":34.142045,"lng":134.542695,"zip":"7790313"},{"town":"大津町大幸","koaza":"馬目木","lat":34.154512,"lng":134.556146,"zip":"7720044"},{"town":"大麻町市場","koaza":"喜来前","lat":34.138437,"lng":134.533057,"zip":"7790315"},{"town":"大麻町市場","koaza":"喜来屋敷","lat":34.1392,"lng":134.532418,"zip":"7790315"},{"town":"大麻町市場","koaza":"大坪","lat":34.141064,"lng":134.531429,"zip":"7790315"},{"town":"大麻町板東","koaza":"拾八","lat":34.149822,"lng":134.515849,"zip":"7790234"},{"town":"大麻町板東","koaza":"坂田","lat":34.148597,"lng":134.517508,"zip":"7790234"},{"town":"大麻町萩原","koaza":"宮前","lat":34.15414,"lng":134.521978,"zip":"7790221"},{"town":"大麻町池谷","koaza":"西谷","lat":34.155051,"lng":134.524952,"zip":"7790303"},{"town":"大麻町高畑","koaza":"前","lat":34.152464,"lng":134.533147,"zip":"7790305"},{"town":"大麻町池谷","koaza":"助ケ谷","lat":34.157331,"lng":134.530367,"zip":"7790303"},{"town":"大麻町姫田","koaza":"内田","lat":34.160661,"lng":134.548042,"zip":"7790301"},{"town":"大麻町姫田","koaza":"大人","lat":34.161013,"lng":134.550632,"zip":"7790301"},{"town":"大麻町姫田","koaza":"西溝添","lat":34.163006,"lng":134.5519,"zip":"7790301"},{"town":"大麻町東馬詰","koaza":"天神免","lat":34.149695,"lng":134.546852,"zip":"7790312"},{"town":"大麻町大谷","koaza":"前場","lat":34.157088,"lng":134.540231,"zip":"7790302"},{"town":"大麻町大谷","koaza":"宮の元","lat":34.160758,"lng":134.537329,"zip":"7790302"},{"town":"大麻町姫田","koaza":"庄堺","lat":34.166404,"lng":134.564161,"zip":"7790301"},{"town":"里浦町粟津","koaza":"堤外","lat":34.150603,"lng":134.610217,"zip":"7720022"},{"town":"大津町徳長","koaza":"東前ノ越","lat":34.153018,"lng":134.604131,"zip":"7720034"},{"town":"大津町徳長","koaza":"四番越","lat":34.153582,"lng":134.601815,"zip":"7720034"},{"town":"大津町徳長","koaza":"川向東ノ越","lat":34.14794,"lng":134.597886,"zip":"7720034"},{"town":"大津町木津野","koaza":"東辰巳","lat":34.160794,"lng":134.593237,"zip":"7720031"},{"town":"大津町木津野","koaza":"堤外","lat":34.16077,"lng":134.594222,"zip":"7720031"},{"town":"大津町矢倉","koaza":"西開","lat":34.147545,"lng":134.58988,"zip":"7720035"},{"town":"大津町矢倉","koaza":"中の越","lat":34.147221,"lng":134.592736,"zip":"7720035"},{"town":"撫養町立岩","koaza":"原田","lat":34.177208,"lng":134.623515,"zip":"7720017"},{"town":"瀬戸町明神","koaza":"張","lat":34.206931,"lng":134.567131,"zip":"7720060"},{"town":"瀬戸町堂浦","koaza":"浦代","lat":34.220962,"lng":134.57854,"zip":"7710361"},{"town":"大麻町大谷","koaza":"川原尻","lat":34.158027,"lng":134.539002,"zip":"7790302"},{"town":"大麻町大谷","koaza":"西山谷","lat":34.161398,"lng":134.534424,"zip":"7790302"},{"town":"大麻町東馬詰","koaza":"東五反野","lat":34.146132,"lng":134.553033,"zip":"7790312"},{"town":"大麻町東馬詰","koaza":"小中須","lat":34.147197,"lng":134.553919,"zip":"7790312"},{"town":"大麻町牛屋島","koaza":"松ノ内","lat":34.154099,"lng":134.549034,"zip":"7790311"},{"town":"大麻町牛屋島","koaza":"堂ノ前","lat":34.151904,"lng":134.549583,"zip":"7790311"},{"town":"大麻町東馬詰","koaza":"西五反野","lat":34.145136,"lng":134.548137,"zip":"7790312"},{"town":"大麻町大谷","koaza":"東山田","lat":34.163405,"lng":134.542493,"zip":"7790302"},{"town":"大麻町大谷","koaza":"西川田","lat":34.155943,"lng":134.541219,"zip":"7790302"},{"town":"大麻町姫田","koaza":"木場前","lat":34.157932,"lng":134.547685,"zip":"7790301"},{"town":"大麻町大谷","koaza":"石園","lat":34.156727,"lng":134.541173,"zip":"7790302"},{"town":"大麻町大谷","koaza":"犬ケ谷","lat":34.158317,"lng":134.54176,"zip":"7790302"},{"town":"大津町大幸","koaza":"渕の上","lat":34.157537,"lng":134.551204,"zip":"7720044"},{"town":"大津町大幸","koaza":"井利ノ口外","lat":34.151752,"lng":134.557611,"zip":"7720044"},{"town":"大津町大幸","koaza":"塩田","lat":34.15204,"lng":134.555326,"zip":"7720044"},{"town":"大麻町大谷","koaza":"今内谷","lat":34.189463,"lng":134.552102,"zip":"7790302"},{"town":"大麻町大谷","koaza":"ふか谷","lat":34.186527,"lng":134.552036,"zip":"7790302"},{"town":"大麻町大谷","koaza":"さぶ風谷","lat":34.187529,"lng":134.555661,"zip":"7790302"},{"town":"大麻町大谷","koaza":"伊屋ケ谷","lat":34.175466,"lng":134.542974,"zip":"7790302"},{"town":"大麻町大谷","koaza":"秋尾谷","lat":34.169551,"lng":134.540172,"zip":"7790302"},{"town":"大麻町大谷","koaza":"蔵の内","lat":34.159066,"lng":134.543198,"zip":"7790302"},{"town":"大麻町大谷","koaza":"上浜上","lat":34.157207,"lng":134.544257,"zip":"7790302"},{"town":"大麻町大谷","koaza":"帆崎","lat":34.156666,"lng":134.543001,"zip":"7790302"},{"town":"大麻町板東","koaza":"奥屋敷","lat":34.195831,"lng":134.523154,"zip":"7790234"},{"town":"大麻町板東","koaza":"樋殿谷","lat":34.186745,"lng":134.527529,"zip":"7790234"},{"town":"大麻町板東","koaza":"下板ケ谷","lat":34.195755,"lng":134.509629,"zip":"7790234"},{"town":"大麻町大谷","koaza":"牛頭谷","lat":34.172682,"lng":134.541685,"zip":"7790302"},{"town":"大麻町板東","koaza":"山伏原","lat":34.163047,"lng":134.507687,"zip":"7790234"},{"town":"大津町矢倉","koaza":"中開","lat":34.148755,"lng":134.590884,"zip":"7720035"},{"town":"大津町長江","koaza":"西大黒","lat":34.152415,"lng":134.605833,"zip":"7720033"},{"town":"大津町長江","koaza":"地蔵元","lat":34.153639,"lng":134.605211,"zip":"7720033"},{"town":"撫養町黒崎","koaza":"小谷","lat":34.182672,"lng":134.594548,"zip":"7720001"},{"town":"大麻町大谷","koaza":"下田","lat":34.179012,"lng":134.546969,"zip":"7790302"},{"town":"大津町長江","koaza":"上須野","lat":34.161108,"lng":134.605828,"zip":"7720033"},{"town":"大津町木津野","koaza":"池ノ内","lat":34.168282,"lng":134.600716,"zip":"7720031"},{"town":"瀬戸町小島田","koaza":"上戸","lat":34.228734,"lng":134.592656,"zip":"7710365"},{"town":"大津町大幸","koaza":"田渕","lat":34.151055,"lng":134.564021,"zip":"7720044"},{"town":"大津町矢倉","koaza":"堤外","lat":34.150103,"lng":134.593545,"zip":"7720035"}]