[{"town":"明辺","koaza":"","lat":35.416527,"lng":134.395295,"zip":"6800302"},{"town":"麻生","koaza":"","lat":35.401973,"lng":134.346356,"zip":"6800305"},{"town":"池田","koaza":"","lat":35.412555,"lng":134.236193,"zip":"6800452"},{"town":"井古","koaza":"","lat":35.428394,"lng":134.273653,"zip":"6800425"},{"town":"石田百井","koaza":"","lat":35.404197,"lng":134.22852,"zip":"6800454"},{"town":"市谷","koaza":"","lat":35.394681,"lng":134.27896,"zip":"6800442"},{"town":"市場","koaza":"","lat":35.413749,"lng":134.320791,"zip":"6800311"},{"town":"稲荷","koaza":"","lat":35.430031,"lng":134.265745,"zip":"6800424"},{"town":"岩渕","koaza":"","lat":35.355544,"lng":134.322359,"zip":"6800400"},{"town":"延命寺","koaza":"","lat":35.426142,"lng":134.293177,"zip":"6800434"},{"town":"大江","koaza":"","lat":35.322385,"lng":134.294427,"zip":"6800416"},{"town":"大坪","koaza":"","lat":35.428885,"lng":134.282887,"zip":"6800435"},{"town":"奥谷","koaza":"","lat":35.41669,"lng":134.265306,"zip":"6800427"},{"town":"奥野","koaza":"","lat":35.322571,"lng":134.350382,"zip":"6800543"},{"town":"落岩","koaza":"","lat":35.403522,"lng":134.377187,"zip":"6800303"},{"town":"下坂","koaza":"","lat":35.420176,"lng":134.270613,"zip":"6800426"},{"town":"皆原","koaza":"","lat":35.356267,"lng":134.340901,"zip":"6800533"},{"town":"柿原","koaza":"","lat":35.328837,"lng":134.324533,"zip":"6800545"},{"town":"覚王寺","koaza":"","lat":35.423514,"lng":134.329598,"zip":"6800312"},{"town":"鍛冶屋","koaza":"","lat":35.347275,"lng":134.345948,"zip":"6800534"},{"town":"門尾","koaza":"","lat":35.424839,"lng":134.257863,"zip":"6800422"},{"town":"上津黒","koaza":"","lat":35.400844,"lng":134.313741,"zip":"6800313"},{"town":"上野","koaza":"","lat":35.395641,"lng":134.260937,"zip":"6800401"},{"town":"上峰寺","koaza":"","lat":35.441119,"lng":134.278372,"zip":"6800432"},{"town":"北山","koaza":"","lat":35.365185,"lng":134.354705,"zip":"6800601"},{"town":"日下部","koaza":"","lat":35.374636,"lng":134.287318,"zip":"6800526"},{"town":"国中","koaza":"","lat":35.39635,"lng":134.224623,"zip":"6800457"},{"town":"久能寺","koaza":"","lat":35.402552,"lng":134.248059,"zip":"6800451"},{"town":"郡家","koaza":"","lat":35.408146,"lng":134.255819,"zip":"6800443"},{"town":"郡家殿","koaza":"","lat":35.394558,"lng":134.297572,"zip":"6800443"},{"town":"小別府","koaza":"","lat":35.375369,"lng":134.328868,"zip":"6800523"},{"town":"才代","koaza":"","lat":35.353197,"lng":134.313846,"zip":"6800531"},{"town":"坂田","koaza":"","lat":35.380374,"lng":134.239049,"zip":"6800473"},{"town":"桜ヶ丘","koaza":"","lat":35.374069,"lng":134.303537,"zip":"6800527"},{"town":"佐崎","koaza":"","lat":35.320889,"lng":134.338486,"zip":"6800544"},{"town":"篠波","koaza":"","lat":35.431828,"lng":134.307897,"zip":"6800316"},{"town":"塩上","koaza":"","lat":35.363013,"lng":134.251324,"zip":"6800413"},{"town":"重枝","koaza":"","lat":35.367673,"lng":134.350251,"zip":"6800606"},{"town":"志子部","koaza":"","lat":35.350849,"lng":134.29704,"zip":"6800407"},{"town":"志谷","koaza":"","lat":35.378909,"lng":134.364608,"zip":"6800612"},{"town":"島","koaza":"","lat":35.356183,"lng":134.350731,"zip":"6800605"},{"town":"下門尾","koaza":"","lat":35.422612,"lng":134.250119,"zip":"6800421"},{"town":"下津黒","koaza":"","lat":35.414546,"lng":134.306455,"zip":"6800314"},{"town":"下野","koaza":"","lat":35.331565,"lng":134.259724,"zip":"6800415"},{"town":"下濃","koaza":"","lat":35.396418,"lng":134.254002,"zip":"6800472"},{"town":"下峰寺","koaza":"","lat":35.435652,"lng":134.270933,"zip":"6800431"},{"town":"新興寺","koaza":"","lat":35.376335,"lng":134.319734,"zip":"6800522"},{"town":"清徳","koaza":"","lat":35.337245,"lng":134.345841,"zip":"6800541"},{"town":"大門","koaza":"","lat":35.386897,"lng":134.30241,"zip":"6800445"},{"town":"徳丸","koaza":"","lat":35.369729,"lng":134.335287,"zip":"6800607"},{"town":"富枝","koaza":"","lat":35.367823,"lng":134.360247,"zip":"6800611"},{"town":"中","koaza":"","lat":35.373125,"lng":134.368461,"zip":"6800614"},{"town":"西谷","koaza":"","lat":35.359001,"lng":134.277658,"zip":"6800408"},{"town":"西御門","koaza":"","lat":35.402088,"lng":134.277148,"zip":"6800441"},{"town":"野町","koaza":"","lat":35.397707,"lng":134.329013,"zip":"6800306"},{"town":"橋本","koaza":"","lat":35.348972,"lng":134.24945,"zip":"6800414"},{"town":"土師百井","koaza":"","lat":35.40799,"lng":134.231824,"zip":"6800455"},{"town":"花","koaza":"","lat":35.386277,"lng":134.283861,"zip":"6800444"},{"town":"花原","koaza":"","lat":35.409616,"lng":134.29011,"zip":"6800437"},{"town":"隼福","koaza":"","lat":35.388236,"lng":134.277469,"zip":"6800402"},{"town":"隼郡家","koaza":"","lat":35.388913,"lng":134.261095,"zip":"6800405"},{"town":"稗谷","koaza":"","lat":35.389399,"lng":134.372099,"zip":"6800613"},{"town":"東","koaza":"","lat":35.360224,"lng":134.328421,"zip":"6800532"},{"town":"日田","koaza":"","lat":35.353071,"lng":134.361504,"zip":"6800603"},{"town":"姫路","koaza":"","lat":35.428849,"lng":134.40118,"zip":"6800301"},{"town":"福井","koaza":"","lat":35.383901,"lng":134.275237,"zip":"6800403"},{"town":"福地","koaza":"","lat":35.414937,"lng":134.338749,"zip":"6800307"},{"town":"福本","koaza":"","lat":35.41806,"lng":134.244751,"zip":"6800462"},{"town":"船岡","koaza":"","lat":35.393452,"lng":134.242098,"zip":"6800471"},{"town":"船岡殿","koaza":"","lat":35.368746,"lng":134.241334,"zip":"6800411"},{"town":"別府","koaza":"","lat":35.41639,"lng":134.298958,"zip":"6800315"},{"town":"堀越","koaza":"","lat":35.429459,"lng":134.259234,"zip":"6800423"},{"town":"万代寺","koaza":"","lat":35.403261,"lng":134.238989,"zip":"6800453"},{"town":"三浦","koaza":"","lat":35.349266,"lng":134.32647,"zip":"6800536"},{"town":"見槻","koaza":"","lat":35.368178,"lng":134.281851,"zip":"6800406"},{"town":"見槻中","koaza":"","lat":35.382802,"lng":134.263591,"zip":"6800404"},{"town":"水口","koaza":"","lat":35.362811,"lng":134.262592,"zip":"6800412"},{"town":"南","koaza":"","lat":35.358273,"lng":134.353551,"zip":"6800604"},{"town":"宮谷","koaza":"","lat":35.413803,"lng":134.26047,"zip":"6800463"},{"town":"三山口","koaza":"","lat":35.347803,"lng":134.336774,"zip":"6800535"},{"town":"妻鹿野","koaza":"","lat":35.409915,"lng":134.427669,"zip":"6800400"},{"town":"茂田","koaza":"","lat":35.360413,"lng":134.307341,"zip":"6800524"},{"town":"茂谷","koaza":"","lat":35.329658,"lng":134.354374,"zip":"6800542"},{"town":"安井宿","koaza":"","lat":35.377049,"lng":134.305841,"zip":"6800521"},{"town":"山路","koaza":"","lat":35.421208,"lng":134.287786,"zip":"6800436"},{"town":"山志谷","koaza":"","lat":35.382007,"lng":134.349359,"zip":"6800304"},{"town":"山田","koaza":"","lat":35.418414,"lng":134.279603,"zip":"6800438"},{"town":"山上","koaza":"","lat":35.438741,"lng":134.295572,"zip":"6800433"},{"town":"用呂","koaza":"","lat":35.365071,"lng":134.38312,"zip":"6800602"},{"town":"横田","koaza":"","lat":35.366904,"lng":134.29898,"zip":"6800525"},{"town":"横地","koaza":"","lat":35.388197,"lng":134.387546,"zip":"6800400"},{"town":"米岡","koaza":"","lat":35.406695,"lng":134.222522,"zip":"6800456"},{"town":"破岩","koaza":"","lat":35.397741,"lng":134.234749,"zip":"6800474"}]