[{"town":"大字赤松","koaza":"","lat":35.360758,"lng":134.407564,"zip":"6800700"},{"town":"大字浅井","koaza":"","lat":35.339632,"lng":134.406613,"zip":"6800700"},{"town":"大字糸白見","koaza":"","lat":35.323741,"lng":134.413214,"zip":"6800700"},{"town":"大字岩屋堂","koaza":"","lat":35.308713,"lng":134.448965,"zip":"6800700"},{"town":"大字大炊","koaza":"","lat":35.330455,"lng":134.412923,"zip":"6800700"},{"town":"大字大野","koaza":"","lat":35.297724,"lng":134.452702,"zip":"6800700"},{"town":"大字落折","koaza":"","lat":35.297333,"lng":134.486676,"zip":"6800700"},{"town":"大字小船","koaza":"","lat":35.300878,"lng":134.462617,"zip":"6800700"},{"town":"大字岸野","koaza":"","lat":35.329862,"lng":134.403087,"zip":"6800700"},{"town":"大字来見野","koaza":"","lat":35.376439,"lng":134.403712,"zip":"6800700"},{"town":"大字香田","koaza":"","lat":35.335765,"lng":134.414087,"zip":"6800700"},{"town":"大字須澄","koaza":"","lat":35.310697,"lng":134.422888,"zip":"6800700"},{"town":"大字高野","koaza":"","lat":35.353631,"lng":134.380317,"zip":"6800700"},{"town":"大字つく米","koaza":"","lat":35.362029,"lng":134.48925,"zip":"6800700"},{"town":"大字長砂","koaza":"","lat":35.336117,"lng":134.424606,"zip":"6800700"},{"town":"大字中原","koaza":"","lat":35.28672,"lng":134.452766,"zip":"6800700"},{"town":"大字根安","koaza":"","lat":35.322648,"lng":134.440092,"zip":"6800700"},{"town":"大字渕見","koaza":"","lat":35.352692,"lng":134.451365,"zip":"6800700"},{"town":"大字三倉","koaza":"","lat":35.337762,"lng":134.391621,"zip":"6800700"},{"town":"大字茗荷谷","koaza":"","lat":35.343136,"lng":134.474572,"zip":"6800700"},{"town":"大字諸鹿","koaza":"","lat":35.407333,"lng":134.45952,"zip":"6800700"},{"town":"大字屋堂羅","koaza":"","lat":35.356717,"lng":134.433962,"zip":"6800700"},{"town":"大字湯原","koaza":"","lat":35.339008,"lng":134.435097,"zip":"6800700"},{"town":"大字吉川","koaza":"","lat":35.26865,"lng":134.412604,"zip":"6800700"},{"town":"大字若桜","koaza":"","lat":35.344785,"lng":134.38954,"zip":"6800700"}]