[{"town":"大字相谷","koaza":"","lat":35.574484,"lng":134.351301,"zip":"6810000"},{"town":"大字相山","koaza":"","lat":35.531878,"lng":134.372284,"zip":"6810000"},{"town":"大字網代","koaza":"","lat":35.587661,"lng":134.296642,"zip":"6810000"},{"town":"大字洗井","koaza":"","lat":35.503493,"lng":134.397752,"zip":"6810000"},{"town":"大字荒金","koaza":"","lat":35.514617,"lng":134.361626,"zip":"6810000"},{"town":"大字池谷","koaza":"","lat":35.520523,"lng":134.333539,"zip":"6810000"},{"town":"大字岩井","koaza":"","lat":35.550874,"lng":134.363586,"zip":"6810000"},{"town":"大字岩常","koaza":"","lat":35.545717,"lng":134.319159,"zip":"6810000"},{"town":"大字岩本","koaza":"","lat":35.573197,"lng":134.309532,"zip":"6810000"},{"town":"大字院内","koaza":"","lat":35.528905,"lng":134.346561,"zip":"6810000"},{"town":"大字宇治","koaza":"","lat":35.566547,"lng":134.364373,"zip":"6810000"},{"town":"大字浦富","koaza":"","lat":35.581898,"lng":134.326636,"zip":"6810000"},{"town":"大字延興寺","koaza":"","lat":35.509936,"lng":134.333617,"zip":"6810000"},{"town":"大字大坂","koaza":"","lat":35.492093,"lng":134.361523,"zip":"6810000"},{"town":"大字太田","koaza":"","lat":35.559964,"lng":134.32269,"zip":"6810000"},{"town":"大字大谷","koaza":"","lat":35.567612,"lng":134.297608,"zip":"6810000"},{"town":"大字大羽尾","koaza":"","lat":35.604046,"lng":134.343372,"zip":"6810000"},{"town":"大字小田","koaza":"","lat":35.494441,"lng":134.345834,"zip":"6810000"},{"town":"大字恩志","koaza":"","lat":35.555344,"lng":134.343569,"zip":"6810000"},{"town":"大字蒲生","koaza":"","lat":35.522647,"lng":134.397377,"zip":"6810000"},{"town":"大字唐川","koaza":"","lat":35.487708,"lng":134.324335,"zip":"6810000"},{"town":"大字河崎","koaza":"","lat":35.562015,"lng":134.329517,"zip":"6810000"},{"town":"大字銀山","koaza":"","lat":35.50968,"lng":134.387548,"zip":"6810000"},{"town":"大字陸上","koaza":"","lat":35.590259,"lng":134.38157,"zip":"6810000"},{"town":"大字黒谷","koaza":"","lat":35.513189,"lng":134.345195,"zip":"6810000"},{"town":"大字小羽尾","koaza":"","lat":35.595232,"lng":134.349436,"zip":"6810000"},{"town":"大字白地","koaza":"","lat":35.541331,"lng":134.398808,"zip":"6810000"},{"town":"大字高住","koaza":"","lat":35.541168,"lng":134.343914,"zip":"6810000"},{"town":"大字高山","koaza":"","lat":35.567618,"lng":134.343206,"zip":"6810000"},{"town":"大字田後","koaza":"","lat":35.591042,"lng":134.309406,"zip":"6810000"},{"town":"大字田河内","koaza":"","lat":35.574199,"lng":134.379922,"zip":"6810000"},{"town":"大字長郷","koaza":"","lat":35.532203,"lng":134.332771,"zip":"6810000"},{"town":"大字外邑","koaza":"","lat":35.493701,"lng":134.333819,"zip":"6810000"},{"town":"大字鳥越","koaza":"","lat":35.490052,"lng":134.41959,"zip":"6810000"},{"town":"大字長谷","koaza":"","lat":35.555224,"lng":134.399916,"zip":"6810000"},{"town":"大字新井","koaza":"","lat":35.565797,"lng":134.332567,"zip":"6810000"},{"town":"大字馬場","koaza":"","lat":35.531325,"lng":134.380897,"zip":"6810000"},{"town":"大字本庄","koaza":"","lat":35.560614,"lng":134.315334,"zip":"6810000"},{"town":"大字牧谷","koaza":"","lat":35.591121,"lng":134.338832,"zip":"6810000"},{"town":"大字真名","koaza":"","lat":35.542954,"lng":134.368767,"zip":"6810000"}]