[{"town":"阿毘縁","koaza":"","lat":35.200062,"lng":133.193516,"zip":"6895551"},{"town":"印賀","koaza":"","lat":35.237352,"lng":133.28767,"zip":"6895531"},{"town":"折渡","koaza":"","lat":35.237005,"lng":133.24729,"zip":"6895534"},{"town":"笠木","koaza":"","lat":35.160129,"lng":133.22413,"zip":"6895543"},{"town":"霞","koaza":"","lat":35.158715,"lng":133.303151,"zip":"6895212"},{"town":"神戸上","koaza":"","lat":35.132729,"lng":133.38375,"zip":"6895662"},{"town":"上石見","koaza":"","lat":35.117029,"lng":133.361295,"zip":"6895663"},{"town":"上萩山","koaza":"","lat":35.141,"lng":133.18163,"zip":"6895223"},{"town":"神福","koaza":"","lat":35.106222,"lng":133.294921,"zip":"6895672"},{"town":"河上","koaza":"","lat":35.127347,"lng":133.236064,"zip":"6895221"},{"town":"佐木谷","koaza":"","lat":35.201307,"lng":133.269689,"zip":"6895541"},{"town":"下阿毘縁","koaza":"","lat":35.215208,"lng":133.217963,"zip":"6895552"},{"town":"下石見","koaza":"","lat":35.146852,"lng":133.332209,"zip":"6895665"},{"town":"生山","koaza":"","lat":35.174109,"lng":133.318216,"zip":"6895211"},{"town":"菅沢","koaza":"","lat":35.236308,"lng":133.320191,"zip":"6895532"},{"town":"宝谷","koaza":"","lat":35.222548,"lng":133.274555,"zip":"6895533"},{"town":"多里","koaza":"","lat":35.116624,"lng":133.185329,"zip":"6895224"},{"town":"茶屋","koaza":"","lat":35.186568,"lng":133.22157,"zip":"6895544"},{"town":"豊栄","koaza":"","lat":35.082636,"lng":133.260523,"zip":"6895673"},{"town":"中石見","koaza":"","lat":35.119998,"lng":133.340938,"zip":"6895664"},{"town":"新屋","koaza":"","lat":35.09402,"lng":133.170987,"zip":"6895225"},{"town":"萩原","koaza":"","lat":35.125564,"lng":133.207415,"zip":"6895222"},{"town":"花口","koaza":"","lat":35.156636,"lng":133.380554,"zip":"6895661"},{"town":"福寿実","koaza":"","lat":35.206672,"lng":133.245934,"zip":"6895545"},{"town":"福塚","koaza":"","lat":35.124572,"lng":133.299059,"zip":"6895671"},{"town":"福万来","koaza":"","lat":35.184907,"lng":133.270526,"zip":"6895542"},{"town":"丸山","koaza":"","lat":35.147925,"lng":133.286507,"zip":"6895213"},{"town":"三栄","koaza":"","lat":35.149854,"lng":133.273321,"zip":"6895214"},{"town":"宮内","koaza":"","lat":35.137388,"lng":133.248812,"zip":"6895216"},{"town":"三吉","koaza":"","lat":35.127729,"lng":133.317663,"zip":"6895666"},{"town":"矢戸","koaza":"","lat":35.159221,"lng":133.255851,"zip":"6895215"},{"town":"湯河","koaza":"","lat":35.094704,"lng":133.221445,"zip":"6895226"}]