[{"town":"秋縄","koaza":"","lat":35.187968,"lng":133.449651,"zip":"6894515"},{"town":"板井原","koaza":"","lat":35.211465,"lng":133.494929,"zip":"6894513"},{"town":"榎市","koaza":"","lat":35.21026,"lng":133.422508,"zip":"6894523"},{"town":"小河内","koaza":"","lat":35.206336,"lng":133.361918,"zip":"6895136"},{"town":"貝原","koaza":"","lat":35.25024,"lng":133.458555,"zip":"6894501"},{"town":"門谷","koaza":"","lat":35.187031,"lng":133.430554,"zip":"6894516"},{"town":"上菅","koaza":"","lat":35.177199,"lng":133.342299,"zip":"6895137"},{"town":"金持","koaza":"","lat":35.22191,"lng":133.463703,"zip":"6894512"},{"town":"久住","koaza":"","lat":35.239843,"lng":133.366503,"zip":"6895132"},{"town":"黒坂","koaza":"","lat":35.215769,"lng":133.376047,"zip":"6895131"},{"town":"高尾","koaza":"","lat":35.225249,"lng":133.443809,"zip":"6894511"},{"town":"小原","koaza":"","lat":35.197728,"lng":133.408851,"zip":"6894525"},{"town":"下榎","koaza":"","lat":35.231499,"lng":133.409148,"zip":"6894526"},{"town":"下黒坂","koaza":"","lat":35.226151,"lng":133.390226,"zip":"6895133"},{"town":"下菅","koaza":"","lat":35.20715,"lng":133.393406,"zip":"6895134"},{"town":"津地","koaza":"","lat":35.247256,"lng":133.42259,"zip":"6894521"},{"town":"中菅","koaza":"","lat":35.183296,"lng":133.378089,"zip":"6895135"},{"town":"濁谷","koaza":"","lat":35.206335,"lng":133.441343,"zip":"6894517"},{"town":"根雨","koaza":"","lat":35.236872,"lng":133.445375,"zip":"6894503"},{"town":"野田","koaza":"","lat":35.251732,"lng":133.434121,"zip":"6894504"},{"town":"福長","koaza":"","lat":35.196248,"lng":133.323978,"zip":"6895137"},{"town":"舟場","koaza":"","lat":35.257451,"lng":133.445084,"zip":"6894505"},{"town":"別所","koaza":"","lat":35.196649,"lng":133.421239,"zip":"6894524"},{"town":"本郷","koaza":"","lat":35.22136,"lng":133.417856,"zip":"6894522"},{"town":"三谷","koaza":"","lat":35.239705,"lng":133.458857,"zip":"6894502"},{"town":"三土","koaza":"","lat":35.192849,"lng":133.468861,"zip":"6894514"},{"town":"安原","koaza":"","lat":35.241569,"lng":133.407443,"zip":"6894527"}]