[{"town":"大字赤碕","koaza":"","lat":35.511335,"lng":133.642221,"zip":"6892300"},{"town":"大字出上","koaza":"","lat":35.501377,"lng":133.632449,"zip":"6892300"},{"town":"大字梅田","koaza":"","lat":35.506839,"lng":133.604572,"zip":"6892300"},{"town":"大字浦安","koaza":"","lat":35.489628,"lng":133.692161,"zip":"6892300"},{"town":"大字大杉","koaza":"","lat":35.448745,"lng":133.676708,"zip":"6892300"},{"town":"大字逢束","koaza":"","lat":35.5011,"lng":133.704603,"zip":"6892300"},{"town":"大字大父","koaza":"","lat":35.420886,"lng":133.619445,"zip":"6892300"},{"town":"大字尾張","koaza":"","lat":35.478056,"lng":133.603581,"zip":"6892300"},{"town":"大字笠見","koaza":"","lat":35.480654,"lng":133.668733,"zip":"6892300"},{"town":"大字勝田","koaza":"","lat":35.496311,"lng":133.635001,"zip":"6892300"},{"town":"大字金屋","koaza":"","lat":35.474205,"lng":133.714208,"zip":"6892300"},{"town":"大字上伊勢","koaza":"","lat":35.487557,"lng":133.700883,"zip":"6892300"},{"town":"大字公文","koaza":"","lat":35.463438,"lng":133.690826,"zip":"6892300"},{"town":"大字倉坂","koaza":"","lat":35.450793,"lng":133.651287,"zip":"6892300"},{"town":"大字釛","koaza":"","lat":35.470961,"lng":133.696623,"zip":"6892300"},{"town":"大字佐崎","koaza":"","lat":35.485826,"lng":133.624685,"zip":"6892300"},{"town":"大字三本杉","koaza":"","lat":35.412782,"lng":133.650983,"zip":"6892300"},{"town":"大字下伊勢","koaza":"","lat":35.494001,"lng":133.70048,"zip":"6892300"},{"town":"大字下大江","koaza":"","lat":35.476815,"lng":133.69929,"zip":"6892300"},{"town":"大字杉地","koaza":"","lat":35.444469,"lng":133.686624,"zip":"6892300"},{"town":"大字杉下","koaza":"","lat":35.466139,"lng":133.709915,"zip":"6892300"},{"town":"大字太一垣","koaza":"","lat":35.477521,"lng":133.610369,"zip":"6892300"},{"town":"大字高岡","koaza":"","lat":35.454595,"lng":133.633481,"zip":"6892300"},{"town":"大字竹内","koaza":"","lat":35.474974,"lng":133.634189,"zip":"6892300"},{"town":"大字田越","koaza":"","lat":35.481307,"lng":133.678388,"zip":"6892300"},{"town":"大字槻下","koaza":"","lat":35.489909,"lng":133.714982,"zip":"6892300"},{"town":"大字徳万","koaza":"","lat":35.50108,"lng":133.693987,"zip":"6892300"},{"town":"大字中尾","koaza":"","lat":35.492418,"lng":133.707115,"zip":"6892300"},{"town":"大字中津原","koaza":"","lat":35.380329,"lng":133.616253,"zip":"6892300"},{"town":"大字中村","koaza":"","lat":35.452362,"lng":133.610395,"zip":"6892300"},{"town":"大字西宮","koaza":"","lat":35.488057,"lng":133.634837,"zip":"6892300"},{"town":"大字野井倉","koaza":"","lat":35.389761,"lng":133.617972,"zip":"6892300"},{"town":"大字野田","koaza":"","lat":35.431434,"lng":133.650781,"zip":"6892300"},{"town":"大字箆津","koaza":"","lat":35.509276,"lng":133.610646,"zip":"6892300"},{"town":"大字八反田","koaza":"","lat":35.437016,"lng":133.68768,"zip":"6892300"},{"town":"大字福永","koaza":"","lat":35.440077,"lng":133.648889,"zip":"6892300"},{"town":"大字古長","koaza":"","lat":35.432846,"lng":133.66857,"zip":"6892300"},{"town":"大字別所","koaza":"","lat":35.494025,"lng":133.652807,"zip":"6892300"},{"town":"大字別宮","koaza":"","lat":35.405957,"lng":133.628933,"zip":"6892300"},{"town":"大字保","koaza":"","lat":35.497086,"lng":133.68856,"zip":"6892300"},{"town":"大字法万","koaza":"","lat":35.444875,"lng":133.697729,"zip":"6892300"},{"town":"大字松谷","koaza":"","lat":35.496139,"lng":133.6454,"zip":"6892300"},{"town":"大字丸尾","koaza":"","lat":35.503228,"lng":133.687192,"zip":"6892300"},{"town":"大字光","koaza":"","lat":35.493565,"lng":133.613609,"zip":"6892300"},{"town":"大字光好","koaza":"","lat":35.459245,"lng":133.695774,"zip":"6892300"},{"town":"大字三保","koaza":"","lat":35.48275,"lng":133.689904,"zip":"6892300"},{"town":"大字宮木","koaza":"","lat":35.465158,"lng":133.630897,"zip":"6892300"},{"town":"大字宮場","koaza":"","lat":35.432929,"lng":133.683384,"zip":"6892300"},{"town":"大字美好","koaza":"","lat":35.474605,"lng":133.687642,"zip":"6892300"},{"town":"大字森藤","koaza":"","lat":35.455875,"lng":133.707083,"zip":"6892300"},{"town":"大字矢下","koaza":"","lat":35.428096,"lng":133.674488,"zip":"6892300"},{"town":"大字八橋","koaza":"","lat":35.476728,"lng":133.653455,"zip":"6892300"},{"town":"大字山川","koaza":"","lat":35.426334,"lng":133.602619,"zip":"6892300"},{"town":"大字山田","koaza":"","lat":35.461321,"lng":133.683389,"zip":"6892300"},{"town":"大字八幡","koaza":"","lat":35.511757,"lng":133.624158,"zip":"6892300"},{"town":"大字湯坂","koaza":"","lat":35.499706,"lng":133.607861,"zip":"6892300"}]