[{"town":"岩坪","koaza":"","lat":35.461787,"lng":133.729449,"zip":"6892216"},{"town":"江北","koaza":"","lat":35.491419,"lng":133.84298,"zip":"6892101"},{"town":"大島","koaza":"","lat":35.472072,"lng":133.766719,"zip":"6892206"},{"town":"大谷","koaza":"","lat":35.486955,"lng":133.728305,"zip":"6892223"},{"town":"上種","koaza":"","lat":35.446181,"lng":133.730754,"zip":"6892213"},{"town":"亀谷","koaza":"","lat":35.468553,"lng":133.747062,"zip":"6892211"},{"town":"北尾","koaza":"","lat":35.477944,"lng":133.809356,"zip":"6892114"},{"town":"国坂","koaza":"","lat":35.490582,"lng":133.826703,"zip":"6892102"},{"town":"下種","koaza":"","lat":35.457415,"lng":133.741998,"zip":"6892212"},{"town":"下神","koaza":"","lat":35.490251,"lng":133.80585,"zip":"6892105"},{"town":"瀬戸","koaza":"","lat":35.481327,"lng":133.773135,"zip":"6892205"},{"town":"田井","koaza":"","lat":35.490343,"lng":133.818134,"zip":"6892103"},{"town":"妻波","koaza":"","lat":35.482939,"lng":133.735991,"zip":"6892224"},{"town":"西園","koaza":"","lat":35.492845,"lng":133.769438,"zip":"6892201"},{"town":"西高尾","koaza":"","lat":35.444504,"lng":133.707784,"zip":"6892215"},{"town":"西穂波","koaza":"","lat":35.475658,"lng":133.758568,"zip":"6892207"},{"town":"土下","koaza":"","lat":35.468764,"lng":133.822392,"zip":"6892111"},{"town":"原","koaza":"","lat":35.477199,"lng":133.780972,"zip":"6892203"},{"town":"東園","koaza":"","lat":35.491983,"lng":133.783426,"zip":"6892202"},{"town":"東高尾","koaza":"","lat":35.433478,"lng":133.705759,"zip":"6892214"},{"town":"北条島","koaza":"","lat":35.471261,"lng":133.815628,"zip":"6892112"},{"town":"穂波","koaza":"","lat":35.470476,"lng":133.780657,"zip":"6892204"},{"town":"曲","koaza":"","lat":35.474414,"lng":133.79526,"zip":"6892115"},{"town":"松神","koaza":"","lat":35.490877,"lng":133.795521,"zip":"6892106"},{"town":"六尾","koaza":"","lat":35.483267,"lng":133.759241,"zip":"6892208"},{"town":"弓原","koaza":"","lat":35.491376,"lng":133.814127,"zip":"6892104"},{"town":"由良宿","koaza":"","lat":35.488015,"lng":133.751786,"zip":"6892221"},{"town":"米里","koaza":"","lat":35.465153,"lng":133.810932,"zip":"6892113"},{"town":"北尾","koaza":"泙町","lat":35.481072,"lng":133.813512,"zip":"6892114"}]