[{"town":"大字赤池","koaza":"","lat":35.496616,"lng":133.877086,"zip":"6820700"},{"town":"大字旭","koaza":"","lat":35.467692,"lng":133.900408,"zip":"6820700"},{"town":"大字石脇","koaza":"","lat":35.512477,"lng":133.953941,"zip":"6820700"},{"town":"大字羽衣石","koaza":"","lat":35.438905,"lng":133.891576,"zip":"6820700"},{"town":"大字宇谷","koaza":"","lat":35.499263,"lng":133.913539,"zip":"6820700"},{"town":"大字宇野","koaza":"","lat":35.502026,"lng":133.895837,"zip":"6820700"},{"town":"大字漆原","koaza":"","lat":35.482669,"lng":133.934506,"zip":"6820700"},{"town":"大字小鹿谷","koaza":"","lat":35.45348,"lng":133.901615,"zip":"6820700"},{"town":"大字方面","koaza":"","lat":35.449852,"lng":133.925879,"zip":"6820700"},{"town":"大字門田","koaza":"","lat":35.464161,"lng":133.870864,"zip":"6820700"},{"town":"大字上浅津","koaza":"","lat":35.481211,"lng":133.879314,"zip":"6820700"},{"town":"大字上橋津","koaza":"","lat":35.50017,"lng":133.882915,"zip":"6820700"},{"town":"大字川上","koaza":"","lat":35.456163,"lng":133.933733,"zip":"6820700"},{"town":"大字北福","koaza":"","lat":35.489177,"lng":133.933338,"zip":"6820700"},{"town":"大字国信","koaza":"","lat":35.452235,"lng":133.908384,"zip":"6820700"},{"town":"大字小浜","koaza":"","lat":35.515078,"lng":133.964418,"zip":"6820700"},{"town":"大字佐美","koaza":"","lat":35.448167,"lng":133.864258,"zip":"6820700"},{"town":"大字下浅津","koaza":"","lat":35.487134,"lng":133.881987,"zip":"6820700"},{"town":"大字白石","koaza":"","lat":35.467986,"lng":133.934321,"zip":"6820700"},{"town":"大字園","koaza":"","lat":35.498217,"lng":133.940221,"zip":"6820700"},{"town":"大字高辻","koaza":"","lat":35.458856,"lng":133.914264,"zip":"6820700"},{"town":"大字田後","koaza":"","lat":35.481791,"lng":133.856066,"zip":"6820700"},{"town":"大字田畑","koaza":"","lat":35.461615,"lng":133.908571,"zip":"6820700"},{"town":"大字中興寺","koaza":"","lat":35.471087,"lng":133.90976,"zip":"6820700"},{"town":"大字筒地","koaza":"","lat":35.500809,"lng":133.954807,"zip":"6820700"},{"town":"大字泊","koaza":"","lat":35.513078,"lng":133.942475,"zip":"6820700"},{"town":"大字長江","koaza":"","lat":35.472087,"lng":133.871732,"zip":"6820700"},{"town":"大字長和田","koaza":"","lat":35.462666,"lng":133.879837,"zip":"6820700"},{"town":"大字野方","koaza":"","lat":35.47134,"lng":133.920315,"zip":"6820700"},{"town":"大字野花","koaza":"","lat":35.452267,"lng":133.889709,"zip":"6820700"},{"town":"大字橋津","koaza":"","lat":35.502585,"lng":133.876024,"zip":"6820700"},{"town":"大字埴見","koaza":"","lat":35.445937,"lng":133.873837,"zip":"6820700"},{"town":"大字原","koaza":"","lat":35.497528,"lng":133.926066,"zip":"6820700"},{"town":"大字はわい温泉","koaza":"","lat":35.476839,"lng":133.885529,"zip":"6820700"},{"town":"大字引地","koaza":"","lat":35.464132,"lng":133.895254,"zip":"6820700"},{"town":"大字久留","koaza":"","lat":35.492923,"lng":133.871503,"zip":"6820700"},{"town":"大字久見","koaza":"","lat":35.465389,"lng":133.907941,"zip":"6820700"},{"town":"大字藤津","koaza":"","lat":35.483971,"lng":133.906513,"zip":"6820700"},{"town":"大字別所","koaza":"","lat":35.440608,"lng":133.922538,"zip":"6820700"},{"town":"大字方地","koaza":"","lat":35.475294,"lng":133.942039,"zip":"6820700"},{"town":"大字松崎","koaza":"","lat":35.474063,"lng":133.904342,"zip":"6820700"},{"town":"大字水下","koaza":"","lat":35.48705,"lng":133.871288,"zip":"6820700"},{"town":"大字光吉","koaza":"","lat":35.491429,"lng":133.878235,"zip":"6820700"},{"town":"大字南谷","koaza":"","lat":35.493401,"lng":133.886382,"zip":"6820700"},{"town":"大字宮内","koaza":"","lat":35.488311,"lng":133.900604,"zip":"6820700"},{"town":"大字龍島","koaza":"","lat":35.469384,"lng":133.897662,"zip":"6820700"},{"town":"はわい長瀬","koaza":"","lat":35.492441,"lng":133.861283,"zip":"6820722"}]