[{"town":"青木","koaza":"","lat":35.3954,"lng":133.364157,"zip":"6830252"},{"town":"赤井手","koaza":"","lat":35.418369,"lng":133.396299,"zip":"6893515"},{"town":"朝日町","koaza":"","lat":35.432213,"lng":133.330916,"zip":"6830813"},{"town":"愛宕町","koaza":"","lat":35.420385,"lng":133.330078,"zip":"6830046"},{"town":"安倍","koaza":"","lat":35.443857,"lng":133.303743,"zip":"6830846"},{"town":"石井","koaza":"","lat":35.406142,"lng":133.34263,"zip":"6830021"},{"town":"泉","koaza":"","lat":35.427129,"lng":133.423129,"zip":"6893512"},{"town":"一部","koaza":"","lat":35.408254,"lng":133.395364,"zip":"6893533"},{"town":"今在家","koaza":"","lat":35.425044,"lng":133.392398,"zip":"6893542"},{"town":"岩倉町","koaza":"","lat":35.4324,"lng":133.327673,"zip":"6830833"},{"town":"陰田町","koaza":"","lat":35.407428,"lng":133.329537,"zip":"6830027"},{"town":"内町","koaza":"","lat":35.429069,"lng":133.317662,"zip":"6830834"},{"town":"浦津","koaza":"","lat":35.423186,"lng":133.376302,"zip":"6893544"},{"town":"榎原","koaza":"","lat":35.393007,"lng":133.354883,"zip":"6830257"},{"town":"大崎","koaza":"","lat":35.468261,"lng":133.258943,"zip":"6830104"},{"town":"大篠津町","koaza":"","lat":35.491172,"lng":133.253284,"zip":"6830101"},{"town":"大谷町","koaza":"","lat":35.415075,"lng":133.336361,"zip":"6830045"},{"town":"大袋","koaza":"","lat":35.38638,"lng":133.357111,"zip":"6830256"},{"town":"岡成","koaza":"","lat":35.418912,"lng":133.42797,"zip":"6893513"},{"town":"奥谷","koaza":"","lat":35.408883,"lng":133.347033,"zip":"6830016"},{"town":"尾高","koaza":"","lat":35.420479,"lng":133.408873,"zip":"6893514"},{"town":"尾高町","koaza":"","lat":35.432471,"lng":133.329638,"zip":"6830814"},{"town":"皆生一丁目","koaza":"","lat":35.444017,"lng":133.365117,"zip":"6830003"},{"town":"皆生二丁目","koaza":"","lat":35.44527,"lng":133.367583,"zip":"6830003"},{"town":"皆生三丁目","koaza":"","lat":35.447148,"lng":133.364124,"zip":"6830003"},{"town":"皆生四丁目","koaza":"","lat":35.448215,"lng":133.362315,"zip":"6830003"},{"town":"皆生五丁目","koaza":"","lat":35.448752,"lng":133.358614,"zip":"6830003"},{"town":"皆生六丁目","koaza":"","lat":35.452059,"lng":133.36029,"zip":"6830003"},{"town":"皆生温泉一丁目","koaza":"","lat":35.455242,"lng":133.35848,"zip":"6830001"},{"town":"皆生温泉二丁目","koaza":"","lat":35.454268,"lng":133.363451,"zip":"6830001"},{"town":"皆生温泉三丁目","koaza":"","lat":35.457538,"lng":133.365849,"zip":"6830001"},{"town":"皆生温泉四丁目","koaza":"","lat":35.458395,"lng":133.357593,"zip":"6830001"},{"town":"皆生新田一丁目","koaza":"","lat":35.451216,"lng":133.363659,"zip":"6830002"},{"town":"皆生新田二丁目","koaza":"","lat":35.45036,"lng":133.368969,"zip":"6830002"},{"town":"皆生新田三丁目","koaza":"","lat":35.454799,"lng":133.36985,"zip":"6830002"},{"town":"角盤町一丁目","koaza":"","lat":35.430973,"lng":133.334779,"zip":"6830812"},{"town":"角盤町二丁目","koaza":"","lat":35.433258,"lng":133.332499,"zip":"6830812"},{"town":"角盤町三丁目","koaza":"","lat":35.435302,"lng":133.329228,"zip":"6830812"},{"town":"角盤町四丁目","koaza":"","lat":35.437378,"lng":133.32728,"zip":"6830812"},{"town":"兼久","koaza":"","lat":35.405285,"lng":133.36137,"zip":"6830251"},{"town":"上安曇","koaza":"","lat":35.383414,"lng":133.36465,"zip":"6830255"},{"town":"上後藤一丁目","koaza":"","lat":35.443079,"lng":133.319774,"zip":"6830841"},{"town":"上後藤二丁目","koaza":"","lat":35.444176,"lng":133.320974,"zip":"6830841"},{"town":"上後藤三丁目","koaza":"","lat":35.446935,"lng":133.319581,"zip":"6830841"},{"town":"上後藤四丁目","koaza":"","lat":35.444653,"lng":133.317027,"zip":"6830841"},{"town":"上後藤五丁目","koaza":"","lat":35.446447,"lng":133.315162,"zip":"6830841"},{"town":"上後藤六丁目","koaza":"","lat":35.447437,"lng":133.31136,"zip":"6830841"},{"town":"上後藤七丁目","koaza":"","lat":35.449011,"lng":133.313129,"zip":"6830841"},{"town":"上後藤八丁目","koaza":"","lat":35.449102,"lng":133.315591,"zip":"6830841"},{"town":"上新印","koaza":"","lat":35.411045,"lng":133.389488,"zip":"6893532"},{"town":"上福原","koaza":"","lat":35.439603,"lng":133.359083,"zip":"6830004"},{"town":"上福原一丁目","koaza":"","lat":35.443193,"lng":133.362899,"zip":"6830004"},{"town":"上福原二丁目","koaza":"","lat":35.444628,"lng":133.358545,"zip":"6830004"},{"town":"上福原三丁目","koaza":"","lat":35.445455,"lng":133.353535,"zip":"6830004"},{"town":"上福原四丁目","koaza":"","lat":35.448608,"lng":133.35505,"zip":"6830004"},{"town":"上福原五丁目","koaza":"","lat":35.449375,"lng":133.35327,"zip":"6830004"},{"town":"上福原六丁目","koaza":"","lat":35.453017,"lng":133.357308,"zip":"6830004"},{"town":"上福原七丁目","koaza":"","lat":35.454922,"lng":133.354134,"zip":"6830004"},{"town":"加茂町一丁目","koaza":"","lat":35.428704,"lng":133.329279,"zip":"6830823"},{"town":"加茂町二丁目","koaza":"","lat":35.427545,"lng":133.329244,"zip":"6830823"},{"town":"蚊屋","koaza":"","lat":35.426584,"lng":133.38418,"zip":"6893543"},{"town":"河岡","koaza":"","lat":35.410006,"lng":133.401406,"zip":"6893521"},{"town":"河崎","koaza":"","lat":35.459101,"lng":133.30546,"zip":"6830852"},{"town":"勝田町","koaza":"","lat":35.432496,"lng":133.345139,"zip":"6830051"},{"town":"観音寺","koaza":"","lat":35.420468,"lng":133.361101,"zip":"6830007"},{"town":"観音寺新町一丁目","koaza":"","lat":35.424818,"lng":133.356706,"zip":"6830009"},{"town":"観音寺新町二丁目","koaza":"","lat":35.422464,"lng":133.358572,"zip":"6830009"},{"town":"観音寺新町三丁目","koaza":"","lat":35.42512,"lng":133.359566,"zip":"6830009"},{"town":"観音寺新町四丁目","koaza":"","lat":35.42512,"lng":133.361574,"zip":"6830009"},{"town":"観音寺新町五丁目","koaza":"","lat":35.422979,"lng":133.362542,"zip":"6830009"},{"town":"祇園町一丁目","koaza":"","lat":35.422088,"lng":133.327685,"zip":"6830047"},{"town":"祇園町二丁目","koaza":"","lat":35.418311,"lng":133.32516,"zip":"6830047"},{"town":"義方町","koaza":"","lat":35.438814,"lng":133.32334,"zip":"6830844"},{"town":"錦海町一丁目","koaza":"","lat":35.417411,"lng":133.321506,"zip":"6830825"},{"town":"錦海町二丁目","koaza":"","lat":35.414968,"lng":133.320212,"zip":"6830825"},{"town":"錦海町三丁目","koaza":"","lat":35.417942,"lng":133.318294,"zip":"6830825"},{"town":"日下","koaza":"","lat":35.403701,"lng":133.427521,"zip":"6893522"},{"town":"車尾","koaza":"","lat":35.428537,"lng":133.352892,"zip":"6830006"},{"town":"車尾一丁目","koaza":"","lat":35.432375,"lng":133.348703,"zip":"6830006"},{"town":"車尾二丁目","koaza":"","lat":35.43157,"lng":133.354052,"zip":"6830006"},{"town":"車尾三丁目","koaza":"","lat":35.433993,"lng":133.357142,"zip":"6830006"},{"town":"車尾四丁目","koaza":"","lat":35.434355,"lng":133.360808,"zip":"6830006"},{"town":"車尾五丁目","koaza":"","lat":35.43094,"lng":133.359616,"zip":"6830006"},{"town":"車尾六丁目","koaza":"","lat":35.4301,"lng":133.364096,"zip":"6830006"},{"town":"車尾七丁目","koaza":"","lat":35.433996,"lng":133.364928,"zip":"6830006"},{"town":"車尾南一丁目","koaza":"","lat":35.426773,"lng":133.35733,"zip":"6830008"},{"town":"車尾南二丁目","koaza":"","lat":35.42607,"lng":133.364471,"zip":"6830008"},{"town":"熊党","koaza":"","lat":35.430487,"lng":133.375646,"zip":"6893546"},{"town":"久米町","koaza":"","lat":35.425452,"lng":133.32545,"zip":"6830824"},{"town":"糀町一丁目","koaza":"","lat":35.428003,"lng":133.337969,"zip":"6830054"},{"town":"糀町二丁目","koaza":"","lat":35.429664,"lng":133.337024,"zip":"6830054"},{"town":"紺屋町","koaza":"","lat":35.428965,"lng":133.333702,"zip":"6830062"},{"town":"古豊千","koaza":"","lat":35.415746,"lng":133.372977,"zip":"6893537"},{"town":"三本松一丁目","koaza":"","lat":35.440587,"lng":133.324312,"zip":"6830842"},{"town":"三本松二丁目","koaza":"","lat":35.442352,"lng":133.324002,"zip":"6830842"},{"town":"三本松三丁目","koaza":"","lat":35.444203,"lng":133.323884,"zip":"6830842"},{"town":"三本松四丁目","koaza":"","lat":35.445678,"lng":133.323757,"zip":"6830842"},{"town":"塩町","koaza":"","lat":35.423892,"lng":133.331415,"zip":"6830042"},{"town":"下安曇","koaza":"","lat":35.389218,"lng":133.365679,"zip":"6830253"},{"town":"下新印","koaza":"","lat":35.418079,"lng":133.383719,"zip":"6893531"},{"town":"下郷","koaza":"","lat":35.430308,"lng":133.401938,"zip":"6893511"},{"town":"昭和町","koaza":"","lat":35.426908,"lng":133.34202,"zip":"6830037"},{"town":"新開一丁目","koaza":"","lat":35.455208,"lng":133.351341,"zip":"6830801"},{"town":"新開二丁目","koaza":"","lat":35.455817,"lng":133.348761,"zip":"6830801"},{"town":"新開三丁目","koaza":"","lat":35.45933,"lng":133.350769,"zip":"6830801"},{"town":"新開四丁目","koaza":"","lat":35.460728,"lng":133.343779,"zip":"6830801"},{"town":"新開五丁目","koaza":"","lat":35.456403,"lng":133.345499,"zip":"6830801"},{"town":"新開六丁目","koaza":"","lat":35.457192,"lng":133.34255,"zip":"6830801"},{"town":"新開七丁目","koaza":"","lat":35.457988,"lng":133.338948,"zip":"6830801"},{"town":"末広町","koaza":"","lat":35.421991,"lng":133.332762,"zip":"6830043"},{"town":"諏訪","koaza":"","lat":35.391009,"lng":133.385032,"zip":"6830013"},{"town":"石州府","koaza":"","lat":35.393907,"lng":133.417495,"zip":"6893524"},{"town":"大工町","koaza":"","lat":35.42294,"lng":133.331166,"zip":"6830044"},{"town":"高島","koaza":"","lat":35.409713,"lng":133.383194,"zip":"6893536"},{"town":"立町一丁目","koaza":"","lat":35.433388,"lng":133.326852,"zip":"6830832"},{"town":"立町二丁目","koaza":"","lat":35.433684,"lng":133.325618,"zip":"6830832"},{"town":"立町三丁目","koaza":"","lat":35.435988,"lng":133.325738,"zip":"6830832"},{"town":"立町四丁目","koaza":"","lat":35.437714,"lng":133.324534,"zip":"6830832"},{"town":"茶町","koaza":"","lat":35.424717,"lng":133.332246,"zip":"6830041"},{"town":"寺町","koaza":"","lat":35.434451,"lng":133.327897,"zip":"6830831"},{"town":"天神町一丁目","koaza":"","lat":35.431327,"lng":133.327396,"zip":"6830821"},{"town":"天神町二丁目","koaza":"","lat":35.43199,"lng":133.325979,"zip":"6830821"},{"town":"道笑町一丁目","koaza":"","lat":35.426914,"lng":133.33499,"zip":"6830064"},{"town":"道笑町二丁目","koaza":"","lat":35.426315,"lng":133.337375,"zip":"6830064"},{"town":"道笑町三丁目","koaza":"","lat":35.425297,"lng":133.340588,"zip":"6830064"},{"town":"道笑町四丁目","koaza":"","lat":35.423813,"lng":133.346083,"zip":"6830064"},{"town":"富益町","koaza":"","lat":35.474099,"lng":133.281836,"zip":"6830103"},{"town":"永江","koaza":"","lat":35.396306,"lng":133.370058,"zip":"6830014"},{"town":"中島一丁目","koaza":"","lat":35.437053,"lng":133.351169,"zip":"6830005"},{"town":"中島二丁目","koaza":"","lat":35.434704,"lng":133.352209,"zip":"6830005"},{"town":"長砂町","koaza":"","lat":35.421143,"lng":133.351212,"zip":"6830033"},{"town":"中町","koaza":"","lat":35.429334,"lng":133.330391,"zip":"6830822"},{"town":"奈喜良","koaza":"","lat":35.399778,"lng":133.339286,"zip":"6830022"},{"town":"灘町一丁目","koaza":"","lat":35.429871,"lng":133.317231,"zip":"6830835"},{"town":"灘町二丁目","koaza":"","lat":35.434581,"lng":133.323536,"zip":"6830835"},{"town":"灘町三丁目","koaza":"","lat":35.431683,"lng":133.316957,"zip":"6830835"},{"town":"新山","koaza":"","lat":35.388969,"lng":133.321609,"zip":"6830026"},{"town":"錦町一丁目","koaza":"","lat":35.43514,"lng":133.334044,"zip":"6830811"},{"town":"錦町二丁目","koaza":"","lat":35.436909,"lng":133.33196,"zip":"6830811"},{"town":"錦町三丁目","koaza":"","lat":35.439083,"lng":133.327668,"zip":"6830811"},{"town":"西倉吉町","koaza":"","lat":35.43087,"lng":133.330172,"zip":"6830816"},{"town":"西町","koaza":"","lat":35.427603,"lng":133.31949,"zip":"6830826"},{"town":"西福原","koaza":"","lat":35.437144,"lng":133.33963,"zip":"6830805"},{"town":"西福原一丁目","koaza":"","lat":35.439658,"lng":133.338539,"zip":"6830805"},{"town":"西福原二丁目","koaza":"","lat":35.440999,"lng":133.339947,"zip":"6830805"},{"town":"西福原三丁目","koaza":"","lat":35.442272,"lng":133.343499,"zip":"6830805"},{"town":"西福原四丁目","koaza":"","lat":35.443561,"lng":133.339567,"zip":"6830805"},{"town":"西福原五丁目","koaza":"","lat":35.445912,"lng":133.340712,"zip":"6830805"},{"town":"西福原六丁目","koaza":"","lat":35.448439,"lng":133.340384,"zip":"6830805"},{"town":"西福原七丁目","koaza":"","lat":35.451482,"lng":133.3441,"zip":"6830805"},{"town":"西福原八丁目","koaza":"","lat":35.452324,"lng":133.341039,"zip":"6830805"},{"town":"西福原九丁目","koaza":"","lat":35.453387,"lng":133.337961,"zip":"6830805"},{"town":"二本木","koaza":"","lat":35.441246,"lng":133.388991,"zip":"6893541"},{"town":"博労町一丁目","koaza":"","lat":35.430485,"lng":133.338853,"zip":"6830052"},{"town":"博労町二丁目","koaza":"","lat":35.430979,"lng":133.341385,"zip":"6830052"},{"town":"博労町三丁目","koaza":"","lat":35.433658,"lng":133.338908,"zip":"6830052"},{"town":"博労町四丁目","koaza":"","lat":35.435304,"lng":133.341585,"zip":"6830052"},{"town":"橋本","koaza":"","lat":35.396197,"lng":133.350251,"zip":"6830023"},{"town":"旗ヶ崎","koaza":"","lat":35.432942,"lng":133.311163,"zip":"6830845"},{"town":"旗ヶ崎一丁目","koaza":"","lat":35.438877,"lng":133.319055,"zip":"6830845"},{"town":"旗ヶ崎二丁目","koaza":"","lat":35.436872,"lng":133.316563,"zip":"6830845"},{"town":"旗ヶ崎三丁目","koaza":"","lat":35.441143,"lng":133.317031,"zip":"6830845"},{"town":"旗ヶ崎四丁目","koaza":"","lat":35.441945,"lng":133.314614,"zip":"6830845"},{"town":"旗ヶ崎五丁目","koaza":"","lat":35.443173,"lng":133.312412,"zip":"6830845"},{"town":"旗ヶ崎六丁目","koaza":"","lat":35.438665,"lng":133.312363,"zip":"6830845"},{"town":"旗ヶ崎七丁目","koaza":"","lat":35.439338,"lng":133.307811,"zip":"6830845"},{"town":"旗ヶ崎八丁目","koaza":"","lat":35.442847,"lng":133.308713,"zip":"6830845"},{"town":"旗ヶ崎九丁目","koaza":"","lat":35.445209,"lng":133.309835,"zip":"6830845"},{"town":"花園町","koaza":"","lat":35.436123,"lng":133.3216,"zip":"6830836"},{"town":"東倉吉町","koaza":"","lat":35.430406,"lng":133.331681,"zip":"6830815"},{"town":"東町","koaza":"","lat":35.425675,"lng":133.331102,"zip":"6830067"},{"town":"東福原一丁目","koaza":"","lat":35.436391,"lng":133.344392,"zip":"6830802"},{"town":"東福原二丁目","koaza":"","lat":35.437775,"lng":133.346171,"zip":"6830802"},{"town":"東福原三丁目","koaza":"","lat":35.441275,"lng":133.345565,"zip":"6830802"},{"town":"東福原四丁目","koaza":"","lat":35.442051,"lng":133.348309,"zip":"6830802"},{"town":"東福原五丁目","koaza":"","lat":35.444515,"lng":133.34537,"zip":"6830802"},{"town":"東福原六丁目","koaza":"","lat":35.446339,"lng":133.347012,"zip":"6830802"},{"town":"東福原七丁目","koaza":"","lat":35.449955,"lng":133.350227,"zip":"6830802"},{"town":"東福原八丁目","koaza":"","lat":35.45073,"lng":133.347218,"zip":"6830802"},{"town":"東山町","koaza":"","lat":35.429793,"lng":133.345264,"zip":"6830031"},{"town":"東八幡","koaza":"","lat":35.403512,"lng":133.390311,"zip":"6893535"},{"town":"彦名新田","koaza":"","lat":35.449022,"lng":133.272556,"zip":"6830855"},{"town":"彦名町","koaza":"","lat":35.45199,"lng":133.284083,"zip":"6830854"},{"town":"日ノ出町一丁目","koaza":"","lat":35.437613,"lng":133.337989,"zip":"6830803"},{"town":"日ノ出町二丁目","koaza":"","lat":35.438149,"lng":133.334577,"zip":"6830803"},{"town":"日野町","koaza":"","lat":35.425702,"lng":133.333603,"zip":"6830066"},{"town":"日原","koaza":"","lat":35.408207,"lng":133.356542,"zip":"6830015"},{"town":"福市","koaza":"","lat":35.408093,"lng":133.36974,"zip":"6830011"},{"town":"福万","koaza":"","lat":35.39779,"lng":133.424341,"zip":"6893523"},{"town":"冨士見町","koaza":"","lat":35.433447,"lng":133.336519,"zip":"6830055"},{"town":"冨士見町一丁目","koaza":"","lat":35.43161,"lng":133.337604,"zip":"6830055"},{"town":"冨士見町二丁目","koaza":"","lat":35.432521,"lng":133.335016,"zip":"6830055"},{"town":"古市","koaza":"","lat":35.384854,"lng":133.329795,"zip":"6830025"},{"town":"別所","koaza":"","lat":35.38649,"lng":133.375647,"zip":"6830254"},{"town":"法勝寺町","koaza":"","lat":35.428222,"lng":133.334882,"zip":"6830063"},{"town":"万能町","koaza":"","lat":35.425125,"lng":133.335005,"zip":"6830065"},{"town":"水浜","koaza":"","lat":35.402166,"lng":133.397164,"zip":"6893534"},{"town":"三旗町","koaza":"","lat":35.440277,"lng":133.321359,"zip":"6830843"},{"town":"美吉","koaza":"","lat":35.418797,"lng":133.343981,"zip":"6830034"},{"town":"宗像","koaza":"","lat":35.413059,"lng":133.355999,"zip":"6830017"},{"town":"明治町","koaza":"","lat":35.424206,"lng":133.334428,"zip":"6830053"},{"town":"目久美町","koaza":"","lat":35.417889,"lng":133.338496,"zip":"6830035"},{"town":"弥生町","koaza":"","lat":35.422999,"lng":133.336415,"zip":"6830036"},{"town":"八幡","koaza":"","lat":35.399706,"lng":133.385846,"zip":"6830012"},{"town":"陽田町","koaza":"","lat":35.427036,"lng":133.347666,"zip":"6830032"},{"town":"吉岡","koaza":"","lat":35.429358,"lng":133.369953,"zip":"6893545"},{"town":"吉谷","koaza":"","lat":35.388823,"lng":133.339473,"zip":"6830024"},{"town":"葭津","koaza":"","lat":35.477369,"lng":133.241262,"zip":"6830105"},{"town":"四日市町","koaza":"","lat":35.42959,"lng":133.332388,"zip":"6830061"},{"town":"淀江町稲吉","koaza":"","lat":35.436967,"lng":133.462195,"zip":"6893412"},{"town":"淀江町今津","koaza":"","lat":35.465938,"lng":133.431659,"zip":"6893401"},{"town":"淀江町小波","koaza":"","lat":35.440662,"lng":133.408838,"zip":"6893423"},{"town":"淀江町佐陀","koaza":"","lat":35.443063,"lng":133.395267,"zip":"6893425"},{"town":"淀江町高井谷","koaza":"","lat":35.436317,"lng":133.44001,"zip":"6893418"},{"town":"淀江町富繁","koaza":"","lat":35.441059,"lng":133.430589,"zip":"6893415"},{"town":"淀江町中西尾","koaza":"","lat":35.436588,"lng":133.433827,"zip":"6893417"},{"town":"淀江町中間","koaza":"","lat":35.44292,"lng":133.402231,"zip":"6893424"},{"town":"淀江町西尾原","koaza":"","lat":35.429907,"lng":133.435662,"zip":"6893414"},{"town":"淀江町西原","koaza":"","lat":35.449965,"lng":133.422257,"zip":"6893403"},{"town":"淀江町平岡","koaza":"","lat":35.434053,"lng":133.424801,"zip":"6893422"},{"town":"淀江町福井","koaza":"","lat":35.445926,"lng":133.429495,"zip":"6893416"},{"town":"淀江町福岡","koaza":"","lat":35.453503,"lng":133.44607,"zip":"6893411"},{"town":"淀江町福頼","koaza":"","lat":35.440658,"lng":133.424981,"zip":"6893421"},{"town":"淀江町本宮","koaza":"","lat":35.422233,"lng":133.453404,"zip":"6893413"},{"town":"淀江町淀江","koaza":"","lat":35.457801,"lng":133.430488,"zip":"6893402"},{"town":"米原","koaza":"","lat":35.439591,"lng":133.330876,"zip":"6830804"},{"town":"米原一丁目","koaza":"","lat":35.441993,"lng":133.327561,"zip":"6830804"},{"town":"米原二丁目","koaza":"","lat":35.443023,"lng":133.329414,"zip":"6830804"},{"town":"米原三丁目","koaza":"","lat":35.440333,"lng":133.333389,"zip":"6830804"},{"town":"米原四丁目","koaza":"","lat":35.441901,"lng":133.334494,"zip":"6830804"},{"town":"米原五丁目","koaza":"","lat":35.444801,"lng":133.329088,"zip":"6830804"},{"town":"米原六丁目","koaza":"","lat":35.444786,"lng":133.335937,"zip":"6830804"},{"town":"米原七丁目","koaza":"","lat":35.445925,"lng":133.332076,"zip":"6830804"},{"town":"米原八丁目","koaza":"","lat":35.448232,"lng":133.333456,"zip":"6830804"},{"town":"米原九丁目","koaza":"","lat":35.448524,"lng":133.328718,"zip":"6830804"},{"town":"夜見町","koaza":"","lat":35.464619,"lng":133.296185,"zip":"6830851"},{"town":"流通町","koaza":"","lat":35.429474,"lng":133.396243,"zip":"6893547"},{"town":"両三柳","koaza":"","lat":35.457198,"lng":133.324628,"zip":"6830853"},{"town":"和田町","koaza":"","lat":35.48503,"lng":133.269376,"zip":"6830102"},{"town":"両三柳","koaza":"大沢","lat":35.449682,"lng":133.32293,"zip":"6830853"},{"town":"二本木","koaza":"海川","lat":35.440552,"lng":133.387776,"zip":"6893541"}]