[{"town":"赤坂","koaza":"","lat":35.513983,"lng":133.580268,"zip":"6893111"},{"town":"赤松","koaza":"","lat":35.415734,"lng":133.476691,"zip":"6893319"},{"town":"稲光","koaza":"","lat":35.476927,"lng":133.449148,"zip":"6893334"},{"town":"今在家","koaza":"","lat":35.439906,"lng":133.501691,"zip":"6893314"},{"town":"石井垣","koaza":"","lat":35.509523,"lng":133.584938,"zip":"6893102"},{"town":"上野","koaza":"","lat":35.488909,"lng":133.462339,"zip":"6893302"},{"town":"上市","koaza":"","lat":35.518711,"lng":133.562502,"zip":"6893124"},{"town":"大塚","koaza":"","lat":35.492843,"lng":133.469198,"zip":"6893226"},{"town":"岡","koaza":"","lat":35.523281,"lng":133.558684,"zip":"6893121"},{"town":"押平","koaza":"","lat":35.483378,"lng":133.475836,"zip":"6893225"},{"town":"加茂","koaza":"","lat":35.464673,"lng":133.528825,"zip":"6893214"},{"town":"神原","koaza":"","lat":35.471059,"lng":133.478202,"zip":"6893305"},{"town":"清原","koaza":"","lat":35.474444,"lng":133.462892,"zip":"6893308"},{"town":"國信","koaza":"","lat":35.489483,"lng":133.450252,"zip":"6893200"},{"town":"倉谷","koaza":"","lat":35.488055,"lng":133.541711,"zip":"6893202"},{"town":"小竹","koaza":"","lat":35.491603,"lng":133.532692,"zip":"6893203"},{"town":"古御堂","koaza":"","lat":35.489199,"lng":133.487881,"zip":"6893222"},{"town":"栄田","koaza":"","lat":35.514092,"lng":133.596082,"zip":"6893115"},{"town":"佐摩","koaza":"","lat":35.444264,"lng":133.494136,"zip":"6893313"},{"town":"塩津","koaza":"","lat":35.524255,"lng":133.568657,"zip":"6893122"},{"town":"下市","koaza":"","lat":35.486975,"lng":133.55743,"zip":"6893125"},{"town":"下甲","koaza":"","lat":35.516497,"lng":133.575762,"zip":"6893112"},{"town":"荘田","koaza":"","lat":35.46842,"lng":133.460973,"zip":"6893323"},{"town":"上萬","koaza":"","lat":35.478011,"lng":133.440247,"zip":"6893200"},{"town":"末長","koaza":"","lat":35.480903,"lng":133.454302,"zip":"6893332"},{"town":"末吉","koaza":"","lat":35.484211,"lng":133.443954,"zip":"6893331"},{"town":"住吉","koaza":"","lat":35.51166,"lng":133.568778,"zip":"6893123"},{"town":"退休寺","koaza":"","lat":35.497137,"lng":133.573516,"zip":"6893133"},{"town":"大山","koaza":"","lat":35.379429,"lng":133.541648,"zip":"6893318"},{"town":"高田","koaza":"","lat":35.460345,"lng":133.508435,"zip":"6893224"},{"town":"高橋","koaza":"","lat":35.463666,"lng":133.564698,"zip":"6893134"},{"town":"鈑戸","koaza":"","lat":35.419108,"lng":133.518941,"zip":"6893317"},{"town":"田中","koaza":"","lat":35.52103,"lng":133.596932,"zip":"6893114"},{"town":"茶畑","koaza":"","lat":35.481808,"lng":133.487532,"zip":"6893223"},{"town":"潮音寺","koaza":"","lat":35.516396,"lng":133.5867,"zip":"6893101"},{"town":"束積","koaza":"","lat":35.495785,"lng":133.591565,"zip":"6893105"},{"town":"唐王","koaza":"","lat":35.476111,"lng":133.457425,"zip":"6893333"},{"town":"所子","koaza":"","lat":35.48168,"lng":133.46773,"zip":"6893303"},{"town":"殿河内","koaza":"","lat":35.474017,"lng":133.564476,"zip":"6893135"},{"town":"富岡","koaza":"","lat":35.466078,"lng":133.445891,"zip":"6893325"},{"town":"富長","koaza":"","lat":35.497834,"lng":133.483011,"zip":"6893221"},{"town":"豊成","koaza":"","lat":35.494999,"lng":133.544225,"zip":"6893201"},{"town":"豊房","koaza":"","lat":35.432669,"lng":133.537153,"zip":"6893316"},{"town":"長田","koaza":"","lat":35.451846,"lng":133.470587,"zip":"6893322"},{"town":"中高","koaza":"","lat":35.468364,"lng":133.474544,"zip":"6893306"},{"town":"長野","koaza":"","lat":35.517203,"lng":133.545318,"zip":"6893136"},{"town":"名和","koaza":"","lat":35.500259,"lng":133.499357,"zip":"6893212"},{"town":"西坪","koaza":"","lat":35.505152,"lng":133.510327,"zip":"6893205"},{"town":"野田","koaza":"","lat":35.469868,"lng":133.467488,"zip":"6893307"},{"town":"羽田井","koaza":"","lat":35.441265,"lng":133.578818,"zip":"6893106"},{"town":"東坪","koaza":"","lat":35.492019,"lng":133.522408,"zip":"6893204"},{"town":"樋口","koaza":"","lat":35.503601,"lng":133.583539,"zip":"6893103"},{"town":"平","koaza":"","lat":35.464099,"lng":133.47955,"zip":"6893321"},{"town":"平木","koaza":"","lat":35.475341,"lng":133.471767,"zip":"6893304"},{"town":"平田","koaza":"","lat":35.478132,"lng":133.435379,"zip":"6893336"},{"town":"福尾","koaza":"","lat":35.494174,"lng":133.458423,"zip":"6893301"},{"town":"坊領","koaza":"","lat":35.458178,"lng":133.493751,"zip":"6893312"},{"town":"前","koaza":"","lat":35.438554,"lng":133.508286,"zip":"6893315"},{"town":"松河原","koaza":"","lat":35.465944,"lng":133.551041,"zip":"6893132"},{"town":"御来屋","koaza":"","lat":35.509334,"lng":133.496896,"zip":"6893211"},{"town":"御崎","koaza":"","lat":35.527938,"lng":133.589344,"zip":"6893113"},{"town":"宮内","koaza":"","lat":35.44931,"lng":133.486972,"zip":"6893311"},{"town":"妻木","koaza":"","lat":35.467943,"lng":133.452737,"zip":"6893324"},{"town":"門前","koaza":"","lat":35.479986,"lng":133.501718,"zip":"6893213"},{"town":"八重","koaza":"","lat":35.499895,"lng":133.598645,"zip":"6893104"},{"town":"保田","koaza":"","lat":35.472065,"lng":133.433139,"zip":"6893327"},{"town":"安原","koaza":"","lat":35.465594,"lng":133.438704,"zip":"6893326"}]