[{"town":"阿賀","koaza":"","lat":35.355762,"lng":133.337396,"zip":"6830322"},{"town":"浅井","koaza":"","lat":35.36012,"lng":133.365021,"zip":"6830227"},{"town":"朝金","koaza":"","lat":35.348558,"lng":133.38877,"zip":"6830216"},{"town":"池野","koaza":"","lat":35.333149,"lng":133.401789,"zip":"6830218"},{"town":"市山","koaza":"","lat":35.360446,"lng":133.375905,"zip":"6830222"},{"town":"井上","koaza":"","lat":35.348277,"lng":133.369811,"zip":"6830223"},{"town":"猪小路","koaza":"","lat":35.356293,"lng":133.308573,"zip":"6830367"},{"town":"大木屋","koaza":"","lat":35.248963,"lng":133.346136,"zip":"6830345"},{"town":"荻名","koaza":"","lat":35.363775,"lng":133.394577,"zip":"6830215"},{"town":"落合","koaza":"","lat":35.336733,"lng":133.335556,"zip":"6830337"},{"town":"掛相","koaza":"","lat":35.335701,"lng":133.35262,"zip":"6830331"},{"town":"金田","koaza":"","lat":35.34091,"lng":133.381117,"zip":"6830224"},{"town":"上中谷","koaza":"","lat":35.279389,"lng":133.336758,"zip":"6830344"},{"town":"鴨部","koaza":"","lat":35.325046,"lng":133.325347,"zip":"6830341"},{"town":"北方","koaza":"","lat":35.362492,"lng":133.31995,"zip":"6830361"},{"town":"絹屋","koaza":"","lat":35.333708,"lng":133.303222,"zip":"6830364"},{"town":"伐株","koaza":"","lat":35.310857,"lng":133.306783,"zip":"6830356"},{"town":"境","koaza":"","lat":35.38222,"lng":133.345674,"zip":"6830311"},{"town":"清水川","koaza":"","lat":35.363838,"lng":133.341277,"zip":"6830321"},{"town":"下中谷","koaza":"","lat":35.292968,"lng":133.312439,"zip":"6830343"},{"town":"高姫","koaza":"","lat":35.34903,"lng":133.357007,"zip":"6830226"},{"town":"武信","koaza":"","lat":35.319247,"lng":133.312272,"zip":"6830354"},{"town":"田住","koaza":"","lat":35.368461,"lng":133.381329,"zip":"6830214"},{"town":"鶴田","koaza":"","lat":35.34784,"lng":133.410552,"zip":"6830217"},{"town":"寺内","koaza":"","lat":35.361821,"lng":133.352982,"zip":"6830202"},{"town":"天萬","koaza":"","lat":35.372791,"lng":133.361175,"zip":"6830300"},{"town":"道河内","koaza":"","lat":35.317969,"lng":133.298943,"zip":"6830355"},{"town":"東上","koaza":"","lat":35.285492,"lng":133.367072,"zip":"6830334"},{"town":"徳長","koaza":"","lat":35.328784,"lng":133.312544,"zip":"6830353"},{"town":"中","koaza":"","lat":35.314576,"lng":133.346438,"zip":"6830335"},{"town":"鍋倉","koaza":"","lat":35.342368,"lng":133.307539,"zip":"6830365"},{"town":"西","koaza":"","lat":35.343783,"lng":133.316754,"zip":"6830363"},{"town":"西町","koaza":"","lat":35.37996,"lng":133.336365,"zip":"6830302"},{"town":"能竹","koaza":"","lat":35.317562,"lng":133.329987,"zip":"6830342"},{"town":"馬佐良","koaza":"","lat":35.326387,"lng":133.361377,"zip":"6830332"},{"town":"馬場","koaza":"","lat":35.334523,"lng":133.318267,"zip":"6830352"},{"town":"原","koaza":"","lat":35.351296,"lng":133.317573,"zip":"6830362"},{"town":"東町","koaza":"","lat":35.379259,"lng":133.339032,"zip":"6830301"},{"town":"福里","koaza":"","lat":35.370061,"lng":133.355822,"zip":"6830204"},{"town":"福成","koaza":"","lat":35.371637,"lng":133.332303,"zip":"6830312"},{"town":"福頼","koaza":"","lat":35.328652,"lng":133.342286,"zip":"6830336"},{"town":"法勝寺","koaza":"","lat":35.343914,"lng":133.334789,"zip":"6830351"},{"town":"円山","koaza":"","lat":35.377963,"lng":133.367088,"zip":"6830211"},{"town":"御内谷","koaza":"","lat":35.336109,"lng":133.371001,"zip":"6830225"},{"town":"三崎","koaza":"","lat":35.374508,"lng":133.351932,"zip":"6830203"},{"town":"宮前","koaza":"","lat":35.367392,"lng":133.367975,"zip":"6830221"},{"town":"諸木","koaza":"","lat":35.374626,"lng":133.370559,"zip":"6830212"},{"town":"八金","koaza":"","lat":35.315064,"lng":133.368294,"zip":"6830333"},{"town":"倭","koaza":"","lat":35.350242,"lng":133.327509,"zip":"6830323"},{"town":"与一谷","koaza":"","lat":35.343627,"lng":133.300223,"zip":"6830366"}]