[{"town":"岩立","koaza":"","lat":35.36394,"lng":133.485436,"zip":"6894214"},{"town":"岩屋谷","koaza":"","lat":35.377451,"lng":133.378693,"zip":"6894123"},{"town":"上野","koaza":"","lat":35.361526,"lng":133.441576,"zip":"6894212"},{"town":"宇代","koaza":"","lat":35.339641,"lng":133.427431,"zip":"6894207"},{"town":"遠藤","koaza":"","lat":35.398939,"lng":133.399558,"zip":"6894134"},{"town":"大内","koaza":"","lat":35.359761,"lng":133.50957,"zip":"6894215"},{"town":"大江","koaza":"","lat":35.354594,"lng":133.432932,"zip":"6894211"},{"town":"大倉","koaza":"","lat":35.335878,"lng":133.463036,"zip":"6894205"},{"town":"大坂","koaza":"","lat":35.326373,"lng":133.478372,"zip":"6894226"},{"town":"大瀧","koaza":"","lat":35.336538,"lng":133.500512,"zip":"6894100"},{"town":"大殿","koaza":"","lat":35.388316,"lng":133.395696,"zip":"6894121"},{"town":"大原","koaza":"","lat":35.382762,"lng":133.455397,"zip":"6894102"},{"town":"押口","koaza":"","lat":35.390016,"lng":133.410917,"zip":"6894135"},{"town":"小野","koaza":"","lat":35.35837,"lng":133.421116,"zip":"6894113"},{"town":"金廻","koaza":"","lat":35.374142,"lng":133.411734,"zip":"6894100"},{"town":"金屋谷","koaza":"","lat":35.367419,"lng":133.463469,"zip":"6894213"},{"town":"上細見","koaza":"","lat":35.362501,"lng":133.428212,"zip":"6894112"},{"town":"岸本","koaza":"","lat":35.383874,"lng":133.415207,"zip":"6894132"},{"town":"貴住","koaza":"","lat":35.345942,"lng":133.442798,"zip":"6894203"},{"town":"清原","koaza":"","lat":35.371106,"lng":133.434762,"zip":"6894111"},{"town":"久古","koaza":"","lat":35.382771,"lng":133.426602,"zip":"6894105"},{"town":"口別所","koaza":"","lat":35.378483,"lng":133.418479,"zip":"6894106"},{"town":"小林","koaza":"","lat":35.381375,"lng":133.494442,"zip":"6894101"},{"town":"小町","koaza":"","lat":35.364755,"lng":133.409893,"zip":"6894115"},{"town":"坂長","koaza":"","lat":35.377075,"lng":133.395989,"zip":"6894122"},{"town":"三部","koaza":"","lat":35.307713,"lng":133.432766,"zip":"6894246"},{"town":"荘","koaza":"","lat":35.314197,"lng":133.454894,"zip":"6894243"},{"town":"白水","koaza":"","lat":35.32334,"lng":133.453342,"zip":"6894225"},{"town":"須村","koaza":"","lat":35.390409,"lng":133.444256,"zip":"6894107"},{"town":"添谷","koaza":"","lat":35.350458,"lng":133.466859,"zip":"6894217"},{"town":"立岩","koaza":"","lat":35.364243,"lng":133.423535,"zip":"6894114"},{"town":"谷川","koaza":"","lat":35.340908,"lng":133.445552,"zip":"6894204"},{"town":"父原","koaza":"","lat":35.310583,"lng":133.446301,"zip":"6894244"},{"town":"栃原","koaza":"","lat":35.330137,"lng":133.50022,"zip":"6894223"},{"town":"富江","koaza":"","lat":35.333894,"lng":133.47959,"zip":"6894221"},{"town":"中祖","koaza":"","lat":35.328667,"lng":133.422692,"zip":"6894241"},{"town":"長山","koaza":"","lat":35.353263,"lng":133.442583,"zip":"6894202"},{"town":"二部","koaza":"","lat":35.288084,"lng":133.433195,"zip":"6894233"},{"town":"根雨原","koaza":"","lat":35.318312,"lng":133.467179,"zip":"6894224"},{"town":"畑池","koaza":"","lat":35.275662,"lng":133.420066,"zip":"6894234"},{"town":"番原","koaza":"","lat":35.37915,"lng":133.436045,"zip":"6894104"},{"town":"福居","koaza":"","lat":35.302174,"lng":133.394109,"zip":"6894237"},{"town":"福岡","koaza":"","lat":35.256069,"lng":133.385992,"zip":"6894235"},{"town":"福岡原","koaza":"","lat":35.390051,"lng":133.428059,"zip":"6894136"},{"town":"福兼","koaza":"","lat":35.34853,"lng":133.500183,"zip":"6894216"},{"town":"福島","koaza":"","lat":35.304605,"lng":133.411678,"zip":"6894232"},{"town":"福吉","koaza":"","lat":35.315425,"lng":133.411424,"zip":"6894245"},{"town":"船越","koaza":"","lat":35.315972,"lng":133.396892,"zip":"6894231"},{"town":"古市","koaza":"","lat":35.324136,"lng":133.434172,"zip":"6894242"},{"town":"真野","koaza":"","lat":35.375034,"lng":133.456319,"zip":"6894103"},{"town":"丸山","koaza":"","lat":35.391952,"lng":133.482616,"zip":"6894108"},{"town":"溝口","koaza":"","lat":35.346242,"lng":133.432426,"zip":"6894201"},{"town":"宮原","koaza":"","lat":35.329353,"lng":133.447037,"zip":"6894206"},{"town":"焼杉","koaza":"","lat":35.284926,"lng":133.391865,"zip":"6894236"},{"town":"吉定","koaza":"","lat":35.372439,"lng":133.4181,"zip":"6894131"},{"town":"吉長","koaza":"","lat":35.39059,"lng":133.404443,"zip":"6894133"}]