[{"town":"相生町一丁目","koaza":"","lat":35.508259,"lng":134.228615,"zip":"6800805"},{"town":"相生町二丁目","koaza":"","lat":35.507485,"lng":134.226544,"zip":"6800805"},{"town":"相生町三丁目","koaza":"","lat":35.509221,"lng":134.227255,"zip":"6800805"},{"town":"相生町四丁目","koaza":"","lat":35.511556,"lng":134.22758,"zip":"6800805"},{"town":"青葉町一丁目","koaza":"","lat":35.512845,"lng":134.227815,"zip":"6800802"},{"town":"青葉町二丁目","koaza":"","lat":35.515285,"lng":134.22533,"zip":"6800802"},{"town":"青葉町三丁目","koaza":"","lat":35.51634,"lng":134.22381,"zip":"6800802"},{"town":"青谷町青谷","koaza":"","lat":35.519442,"lng":134.001689,"zip":"6890501"},{"town":"青谷町井手","koaza":"","lat":35.518872,"lng":133.98366,"zip":"6890535"},{"town":"青谷町大坪","koaza":"","lat":35.490764,"lng":134.009536,"zip":"6890518"},{"town":"青谷町奥崎","koaza":"","lat":35.501503,"lng":134.006975,"zip":"6890519"},{"town":"青谷町小畑","koaza":"","lat":35.439708,"lng":134.00688,"zip":"6890516"},{"town":"青谷町紙屋","koaza":"","lat":35.465122,"lng":133.971843,"zip":"6890526"},{"town":"青谷町亀尻","koaza":"","lat":35.502407,"lng":133.987113,"zip":"6890522"},{"town":"青谷町河原","koaza":"","lat":35.463054,"lng":134.018569,"zip":"6890515"},{"town":"青谷町北河原","koaza":"","lat":35.497423,"lng":133.977807,"zip":"6890532"},{"town":"青谷町絹見","koaza":"","lat":35.492208,"lng":133.962071,"zip":"6890533"},{"town":"青谷町楠根","koaza":"","lat":35.458181,"lng":133.962516,"zip":"6890527"},{"town":"青谷町蔵内","koaza":"","lat":35.480459,"lng":134.023629,"zip":"6890513"},{"town":"青谷町桑原","koaza":"","lat":35.437315,"lng":133.963327,"zip":"6890529"},{"town":"青谷町栄町","koaza":"","lat":35.505499,"lng":133.984514,"zip":"6890537"},{"town":"青谷町澄水","koaza":"","lat":35.444152,"lng":133.980349,"zip":"6890528"},{"town":"青谷町田原谷","koaza":"","lat":35.476904,"lng":133.96466,"zip":"6890525"},{"town":"青谷町露谷","koaza":"","lat":35.498001,"lng":133.995383,"zip":"6890521"},{"town":"青谷町長和瀬","koaza":"","lat":35.511566,"lng":133.973443,"zip":"6890536"},{"town":"青谷町鳴瀧","koaza":"","lat":35.487536,"lng":133.974054,"zip":"6800000"},{"town":"青谷町八葉寺","koaza":"","lat":35.452085,"lng":133.992772,"zip":"6890524"},{"town":"青谷町早牛","koaza":"","lat":35.472282,"lng":134.006162,"zip":"6890517"},{"town":"青谷町山田","koaza":"","lat":35.485501,"lng":133.991364,"zip":"6890523"},{"town":"青谷町山根","koaza":"","lat":35.474429,"lng":134.01802,"zip":"6890514"},{"town":"青谷町養郷","koaza":"","lat":35.503648,"lng":134.016824,"zip":"6890512"},{"town":"青谷町吉川","koaza":"","lat":35.510244,"lng":133.98691,"zip":"6890534"},{"town":"青谷町善田","koaza":"","lat":35.501729,"lng":134.000908,"zip":"6890511"},{"town":"秋里","koaza":"","lat":35.51772,"lng":134.213712,"zip":"6800902"},{"town":"赤子田","koaza":"","lat":35.427938,"lng":134.200319,"zip":"6801146"},{"town":"朝月","koaza":"","lat":35.462851,"lng":134.198562,"zip":"6801166"},{"town":"有富","koaza":"","lat":35.448397,"lng":134.163941,"zip":"6801176"},{"town":"猪子","koaza":"","lat":35.443766,"lng":134.177791,"zip":"6801164"},{"town":"今町一丁目","koaza":"","lat":35.497844,"lng":134.224933,"zip":"6800822"},{"town":"今町二丁目","koaza":"","lat":35.495983,"lng":134.224618,"zip":"6800822"},{"town":"岩倉","koaza":"","lat":35.490559,"lng":134.272115,"zip":"6800081"},{"town":"岩坪","koaza":"","lat":35.409909,"lng":134.10923,"zip":"6801157"},{"town":"岩吉","koaza":"","lat":35.510077,"lng":134.193793,"zip":"6800931"},{"town":"上原","koaza":"","lat":35.459948,"lng":134.151326,"zip":"6801422"},{"town":"上町","koaza":"","lat":35.501206,"lng":134.250066,"zip":"6800015"},{"town":"内海中","koaza":"","lat":35.506002,"lng":134.106642,"zip":"6890205"},{"town":"永楽温泉町","koaza":"","lat":35.493725,"lng":134.230346,"zip":"6800834"},{"town":"江崎町","koaza":"","lat":35.501816,"lng":134.239042,"zip":"6800013"},{"town":"江津","koaza":"","lat":35.525379,"lng":134.212597,"zip":"6800901"},{"town":"戎町","koaza":"","lat":35.498278,"lng":134.232353,"zip":"6800055"},{"town":"円護寺","koaza":"","lat":35.517857,"lng":134.251329,"zip":"6800005"},{"town":"円通寺","koaza":"","lat":35.4371,"lng":134.215051,"zip":"6801144"},{"town":"扇町","koaza":"","lat":35.492527,"lng":134.22465,"zip":"6800846"},{"town":"大榎町","koaza":"","lat":35.49897,"lng":134.238792,"zip":"6800043"},{"town":"大杙","koaza":"","lat":35.480542,"lng":134.243798,"zip":"6800851"},{"town":"大塚","koaza":"","lat":35.478464,"lng":134.156518,"zip":"6801415"},{"town":"大畑","koaza":"","lat":35.479861,"lng":134.106108,"zip":"6801437"},{"town":"晩稲","koaza":"","lat":35.524995,"lng":134.202929,"zip":"6800904"},{"town":"桶屋町","koaza":"","lat":35.498774,"lng":134.234193,"zip":"6800054"},{"town":"尾崎","koaza":"","lat":35.46778,"lng":134.141613,"zip":"6801427"},{"town":"面影一丁目","koaza":"","lat":35.478407,"lng":134.24811,"zip":"6800855"},{"town":"面影二丁目","koaza":"","lat":35.480915,"lng":134.247908,"zip":"6800855"},{"town":"御弓町","koaza":"","lat":35.496495,"lng":134.238489,"zip":"6800044"},{"town":"海蔵寺","koaza":"","lat":35.452211,"lng":134.251112,"zip":"6891117"},{"town":"覚寺","koaza":"","lat":35.524365,"lng":134.255902,"zip":"6800003"},{"town":"掛出町","koaza":"","lat":35.500207,"lng":134.23659,"zip":"6800041"},{"town":"紙子谷","koaza":"","lat":35.446404,"lng":134.251757,"zip":"6891115"},{"town":"鍛冶町","koaza":"","lat":35.499288,"lng":134.234974,"zip":"6800052"},{"town":"片原一丁目","koaza":"","lat":35.501542,"lng":134.233574,"zip":"6800023"},{"town":"片原二丁目","koaza":"","lat":35.502358,"lng":134.232485,"zip":"6800023"},{"town":"片原三丁目","koaza":"","lat":35.503135,"lng":134.231596,"zip":"6800023"},{"town":"片原四丁目","koaza":"","lat":35.504077,"lng":134.230393,"zip":"6800023"},{"town":"片原五丁目","koaza":"","lat":35.505477,"lng":134.229248,"zip":"6800023"},{"town":"桂木","koaza":"","lat":35.45647,"lng":134.251799,"zip":"6891104"},{"town":"桂見","koaza":"","lat":35.495245,"lng":134.172987,"zip":"6801417"},{"town":"香取","koaza":"","lat":35.436982,"lng":134.245715,"zip":"6891114"},{"town":"金沢","koaza":"","lat":35.496752,"lng":134.126529,"zip":"6801439"},{"town":"叶","koaza":"","lat":35.472612,"lng":134.222936,"zip":"6800874"},{"town":"叶一丁目","koaza":"","lat":35.476161,"lng":134.215282,"zip":"6800874"},{"town":"上味野","koaza":"","lat":35.459078,"lng":134.199182,"zip":"6801167"},{"town":"上魚町","koaza":"","lat":35.500668,"lng":134.234669,"zip":"6800047"},{"town":"上砂見","koaza":"","lat":35.40408,"lng":134.141265,"zip":"6801156"},{"town":"上段","koaza":"","lat":35.469142,"lng":134.159772,"zip":"6801421"},{"town":"賀露町","koaza":"","lat":35.531169,"lng":134.166901,"zip":"6800905"},{"town":"賀露町北一丁目","koaza":"","lat":35.534716,"lng":134.190334,"zip":"6800907"},{"town":"賀露町北二丁目","koaza":"","lat":35.533348,"lng":134.190028,"zip":"6800907"},{"town":"賀露町北三丁目","koaza":"","lat":35.534756,"lng":134.185032,"zip":"6800907"},{"town":"賀露町北四丁目","koaza":"","lat":35.536307,"lng":134.186353,"zip":"6800907"},{"town":"賀露町西一丁目","koaza":"","lat":35.526981,"lng":134.182132,"zip":"6800908"},{"town":"賀露町西二丁目","koaza":"","lat":35.530716,"lng":134.182884,"zip":"6800908"},{"town":"賀露町西三丁目","koaza":"","lat":35.534319,"lng":134.182915,"zip":"6800908"},{"town":"賀露町西四丁目","koaza":"","lat":35.537268,"lng":134.180698,"zip":"6800908"},{"town":"賀露町南一丁目","koaza":"","lat":35.52467,"lng":134.187553,"zip":"6800909"},{"town":"賀露町南二丁目","koaza":"","lat":35.525036,"lng":134.184865,"zip":"6800909"},{"town":"賀露町南三丁目","koaza":"","lat":35.529207,"lng":134.186105,"zip":"6800909"},{"town":"賀露町南四丁目","koaza":"","lat":35.527691,"lng":134.189401,"zip":"6800909"},{"town":"賀露町南五丁目","koaza":"","lat":35.531022,"lng":134.190115,"zip":"6800909"},{"town":"賀露町南六丁目","koaza":"","lat":35.529999,"lng":134.193135,"zip":"6800909"},{"town":"川端一丁目","koaza":"","lat":35.49935,"lng":134.230913,"zip":"6800036"},{"town":"川端二丁目","koaza":"","lat":35.500191,"lng":134.22985,"zip":"6800036"},{"town":"川端三丁目","koaza":"","lat":35.501018,"lng":134.228963,"zip":"6800036"},{"town":"川端四丁目","koaza":"","lat":35.501796,"lng":134.227678,"zip":"6800036"},{"town":"川端五丁目","koaza":"","lat":35.502447,"lng":134.226742,"zip":"6800036"},{"town":"河原町鮎ヶ丘","koaza":"","lat":35.411291,"lng":134.197785,"zip":"6800000"},{"town":"河原町稲常","koaza":"","lat":35.419534,"lng":134.214499,"zip":"6801203"},{"town":"河原町今在家","koaza":"","lat":35.401902,"lng":134.210058,"zip":"6801205"},{"town":"河原町牛戸","koaza":"","lat":35.383226,"lng":134.161647,"zip":"6801225"},{"town":"河原町小倉","koaza":"","lat":35.35932,"lng":134.177286,"zip":"6801245"},{"town":"河原町小河内","koaza":"","lat":35.368022,"lng":134.12466,"zip":"6801253"},{"town":"河原町小畑","koaza":"","lat":35.39069,"lng":134.143931,"zip":"6801232"},{"town":"河原町片山","koaza":"","lat":35.40928,"lng":134.209673,"zip":"6801204"},{"town":"河原町釜口","koaza":"","lat":35.372295,"lng":134.22219,"zip":"6801216"},{"town":"河原町河原","koaza":"","lat":35.4081,"lng":134.201534,"zip":"6801251"},{"town":"河原町神馬","koaza":"","lat":35.356633,"lng":134.132038,"zip":"6801254"},{"town":"河原町北村","koaza":"","lat":35.375883,"lng":134.093661,"zip":"6801234"},{"town":"河原町郷原","koaza":"","lat":35.388614,"lng":134.218743,"zip":"6801207"},{"town":"河原町佐貫","koaza":"","lat":35.370522,"lng":134.198549,"zip":"6801243"},{"town":"河原町高福","koaza":"","lat":35.386893,"lng":134.202926,"zip":"6801213"},{"town":"河原町谷一木","koaza":"","lat":35.398849,"lng":134.186115,"zip":"6801242"},{"town":"河原町天神原","koaza":"","lat":35.392409,"lng":134.168833,"zip":"6801223"},{"town":"河原町徳吉","koaza":"","lat":35.396897,"lng":134.206273,"zip":"6801212"},{"town":"河原町中井","koaza":"","lat":35.384373,"lng":134.169748,"zip":"6801224"},{"town":"河原町長瀬","koaza":"","lat":35.409314,"lng":134.186638,"zip":"6801241"},{"town":"河原町曳田","koaza":"","lat":35.391675,"lng":134.192661,"zip":"6801222"},{"town":"河原町袋河原","koaza":"","lat":35.416746,"lng":134.196365,"zip":"6801201"},{"town":"河原町布袋","koaza":"","lat":35.421315,"lng":134.223833,"zip":"6801202"},{"town":"河原町本鹿","koaza":"","lat":35.37469,"lng":134.167799,"zip":"6801252"},{"town":"河原町水根","koaza":"","lat":35.370511,"lng":134.179574,"zip":"6801244"},{"town":"河原町三谷","koaza":"","lat":35.383134,"lng":134.227466,"zip":"6801206"},{"town":"河原町山上","koaza":"","lat":35.359918,"lng":134.158623,"zip":"6801246"},{"town":"河原町山手","koaza":"","lat":35.392296,"lng":134.211228,"zip":"6801211"},{"town":"河原町湯谷","koaza":"","lat":35.389352,"lng":134.155399,"zip":"6801231"},{"town":"河原町弓河内","koaza":"","lat":35.38526,"lng":134.139244,"zip":"6801233"},{"town":"河原町八日市","koaza":"","lat":35.374288,"lng":134.209537,"zip":"6801214"},{"town":"河原町渡一木","koaza":"","lat":35.401599,"lng":134.200061,"zip":"6801221"},{"town":"河原町和奈見","koaza":"","lat":35.365272,"lng":134.209321,"zip":"6801215"},{"town":"瓦町","koaza":"","lat":35.498159,"lng":134.227437,"zip":"6800821"},{"town":"北園一丁目","koaza":"","lat":35.51954,"lng":134.243297,"zip":"6800004"},{"town":"北園二丁目","koaza":"","lat":35.52111,"lng":134.237277,"zip":"6800004"},{"town":"北村","koaza":"","lat":35.475451,"lng":134.191388,"zip":"6801172"},{"town":"行徳一丁目","koaza":"","lat":35.497391,"lng":134.220861,"zip":"6800824"},{"town":"行徳二丁目","koaza":"","lat":35.499685,"lng":134.221292,"zip":"6800824"},{"town":"行徳三丁目","koaza":"","lat":35.501565,"lng":134.221975,"zip":"6800824"},{"town":"国安","koaza":"","lat":35.457786,"lng":134.215633,"zip":"6801132"},{"town":"雲山","koaza":"","lat":35.477541,"lng":134.238778,"zip":"6800862"},{"town":"蔵田","koaza":"","lat":35.460031,"lng":134.221828,"zip":"6801141"},{"town":"栗谷町","koaza":"","lat":35.506364,"lng":134.248954,"zip":"6800012"},{"town":"気高町飯里","koaza":"","lat":35.465804,"lng":134.037771,"zip":"6890343"},{"town":"気高町会下","koaza":"","lat":35.499951,"lng":134.031985,"zip":"6890355"},{"town":"気高町奥沢見","koaza":"","lat":35.507984,"lng":134.093658,"zip":"6890211"},{"town":"気高町下石","koaza":"","lat":35.466093,"lng":134.044685,"zip":"6890341"},{"town":"気高町勝見","koaza":"","lat":35.504845,"lng":134.050623,"zip":"6890332"},{"town":"気高町上光","koaza":"","lat":35.479919,"lng":134.077903,"zip":"6890214"},{"town":"気高町上原","koaza":"","lat":35.47154,"lng":134.040081,"zip":"6890344"},{"town":"気高町北浜一丁目","koaza":"","lat":35.515642,"lng":134.045018,"zip":"6890334"},{"town":"気高町北浜二丁目","koaza":"","lat":35.515667,"lng":134.046739,"zip":"6890334"},{"town":"気高町北浜三丁目","koaza":"","lat":35.515785,"lng":134.049051,"zip":"6890334"},{"town":"気高町郡家","koaza":"","lat":35.493801,"lng":134.040665,"zip":"6890353"},{"town":"気高町酒津","koaza":"","lat":35.522127,"lng":134.088196,"zip":"6890217"},{"town":"気高町重高","koaza":"","lat":35.486721,"lng":134.066905,"zip":"6890224"},{"town":"気高町下坂本","koaza":"","lat":35.504473,"lng":134.072435,"zip":"6890221"},{"town":"気高町下原","koaza":"","lat":35.506345,"lng":134.031892,"zip":"6890356"},{"town":"気高町下光元","koaza":"","lat":35.488172,"lng":134.087169,"zip":"6890213"},{"town":"気高町宿","koaza":"","lat":35.472233,"lng":134.062186,"zip":"6890226"},{"town":"気高町新町一丁目","koaza":"","lat":35.511801,"lng":134.044655,"zip":"6890333"},{"town":"気高町新町二丁目","koaza":"","lat":35.511824,"lng":134.046925,"zip":"6890333"},{"town":"気高町新町三丁目","koaza":"","lat":35.512493,"lng":134.049235,"zip":"6890333"},{"town":"気高町高江","koaza":"","lat":35.500217,"lng":134.041862,"zip":"6890352"},{"town":"気高町常松","koaza":"","lat":35.503099,"lng":134.082481,"zip":"6890212"},{"town":"気高町土居","koaza":"","lat":35.480468,"lng":134.065486,"zip":"6890225"},{"town":"気高町殿","koaza":"","lat":35.455596,"lng":134.036245,"zip":"6890342"},{"town":"気高町冨吉","koaza":"","lat":35.508121,"lng":134.081271,"zip":"6890215"},{"town":"気高町日光","koaza":"","lat":35.506464,"lng":134.063652,"zip":"6890222"},{"town":"気高町二本木","koaza":"","lat":35.491933,"lng":134.067797,"zip":"6890223"},{"town":"気高町浜村","koaza":"","lat":35.512417,"lng":134.055301,"zip":"6890331"},{"town":"気高町宝木","koaza":"","lat":35.514999,"lng":134.084056,"zip":"6890216"},{"town":"気高町睦逢","koaza":"","lat":35.490229,"lng":134.03202,"zip":"6890354"},{"town":"気高町八束水","koaza":"","lat":35.512954,"lng":134.025307,"zip":"6890357"},{"town":"気高町山宮","koaza":"","lat":35.479806,"lng":134.036312,"zip":"6890345"},{"town":"気高町八幡","koaza":"","lat":35.508247,"lng":134.042175,"zip":"6890351"},{"town":"玄好町","koaza":"","lat":35.50718,"lng":134.229805,"zip":"6800024"},{"town":"源太","koaza":"","lat":35.465932,"lng":134.210877,"zip":"6801133"},{"town":"河内","koaza":"","lat":35.407958,"lng":134.062189,"zip":"6801425"},{"town":"興南町","koaza":"","lat":35.486512,"lng":134.230559,"zip":"6800844"},{"town":"高路","koaza":"","lat":35.430277,"lng":134.148651,"zip":"6801177"},{"town":"越路","koaza":"","lat":35.430611,"lng":134.228823,"zip":"6891124"},{"town":"国府町麻生","koaza":"","lat":35.469692,"lng":134.287307,"zip":"6800142"},{"town":"国府町雨滝","koaza":"","lat":35.478275,"lng":134.409551,"zip":"6800201"},{"town":"国府町荒舟","koaza":"","lat":35.436231,"lng":134.349793,"zip":"6800216"},{"town":"国府町糸谷","koaza":"","lat":35.465935,"lng":134.301699,"zip":"6800136"},{"town":"国府町稲葉丘一丁目","koaza":"","lat":35.486098,"lng":134.26445,"zip":"6808062"},{"town":"国府町稲葉丘二丁目","koaza":"","lat":35.484422,"lng":134.263977,"zip":"6808062"},{"town":"国府町稲葉丘三丁目","koaza":"","lat":35.484197,"lng":134.261286,"zip":"6808062"},{"town":"国府町石井谷","koaza":"","lat":35.467345,"lng":134.395651,"zip":"6800202"},{"town":"国府町大石","koaza":"","lat":35.459879,"lng":134.39131,"zip":"6800203"},{"town":"国府町岡益","koaza":"","lat":35.450856,"lng":134.287922,"zip":"6800144"},{"town":"国府町奥谷","koaza":"","lat":35.485297,"lng":134.268784,"zip":"6808063"},{"town":"国府町奥谷一丁目","koaza":"","lat":35.483147,"lng":134.266772,"zip":"6808063"},{"town":"国府町奥谷二丁目","koaza":"","lat":35.481757,"lng":134.266026,"zip":"6808063"},{"town":"国府町奥谷三丁目","koaza":"","lat":35.483161,"lng":134.261747,"zip":"6808063"},{"town":"国府町上荒舟","koaza":"","lat":35.439054,"lng":134.368353,"zip":"6800214"},{"town":"国府町神護","koaza":"","lat":35.465345,"lng":134.34187,"zip":"6800221"},{"town":"国府町木原","koaza":"","lat":35.48418,"lng":134.373499,"zip":"6800208"},{"town":"国府町神垣","koaza":"","lat":35.462491,"lng":134.31953,"zip":"6800132"},{"town":"国府町国分寺","koaza":"","lat":35.468802,"lng":134.262586,"zip":"6800155"},{"town":"国府町三代寺","koaza":"","lat":35.457771,"lng":134.271004,"zip":"6800154"},{"town":"国府町拾石","koaza":"","lat":35.456081,"lng":134.352353,"zip":"6800205"},{"town":"国府町下木原","koaza":"","lat":35.484537,"lng":134.36479,"zip":"6800207"},{"town":"国府町新通り一丁目","koaza":"","lat":35.482885,"lng":134.251377,"zip":"6808066"},{"town":"国府町新通り二丁目","koaza":"","lat":35.481029,"lng":134.25279,"zip":"6808066"},{"town":"国府町新通り三丁目","koaza":"","lat":35.48139,"lng":134.255409,"zip":"6808066"},{"town":"国府町新通り四丁目","koaza":"","lat":35.482557,"lng":134.253631,"zip":"6808066"},{"town":"国府町新町一丁目","koaza":"","lat":35.481282,"lng":134.259258,"zip":"6808065"},{"town":"国府町新町二丁目","koaza":"","lat":35.481625,"lng":134.257385,"zip":"6808065"},{"town":"国府町菅野","koaza":"","lat":35.457857,"lng":134.373221,"zip":"6800211"},{"town":"国府町清水","koaza":"","lat":35.447508,"lng":134.304156,"zip":"6800134"},{"town":"国府町高岡","koaza":"","lat":35.475003,"lng":134.311964,"zip":"6800131"},{"town":"国府町谷","koaza":"","lat":35.460735,"lng":134.299707,"zip":"6800135"},{"town":"国府町玉鉾","koaza":"","lat":35.460632,"lng":134.290609,"zip":"6800143"},{"town":"国府町中郷","koaza":"","lat":35.475436,"lng":134.263685,"zip":"6800156"},{"town":"国府町庁","koaza":"","lat":35.473292,"lng":134.270994,"zip":"6800152"},{"town":"国府町栃本","koaza":"","lat":35.470506,"lng":134.36553,"zip":"6800206"},{"town":"国府町殿","koaza":"","lat":35.449441,"lng":134.338821,"zip":"6800222"},{"town":"国府町中河原","koaza":"","lat":35.438264,"lng":134.337923,"zip":"6800223"},{"town":"国府町楠城","koaza":"","lat":35.464201,"lng":134.359872,"zip":"6800204"},{"town":"国府町新井","koaza":"","lat":35.447527,"lng":134.325902,"zip":"6800226"},{"town":"国府町広西","koaza":"","lat":35.461138,"lng":134.281199,"zip":"6800145"},{"town":"国府町分上一丁目","koaza":"","lat":35.481979,"lng":134.260625,"zip":"6808064"},{"town":"国府町分上二丁目","koaza":"","lat":35.483471,"lng":134.259289,"zip":"6808064"},{"town":"国府町分上三丁目","koaza":"","lat":35.482823,"lng":134.258669,"zip":"6808064"},{"town":"国府町分上四丁目","koaza":"","lat":35.483717,"lng":134.257197,"zip":"6808064"},{"town":"国府町法花寺","koaza":"","lat":35.467565,"lng":134.271448,"zip":"6800153"},{"town":"国府町町屋","koaza":"","lat":35.474404,"lng":134.276488,"zip":"6800146"},{"town":"国府町松尾","koaza":"","lat":35.4345,"lng":134.332495,"zip":"6800224"},{"town":"国府町美歎","koaza":"","lat":35.4862,"lng":134.29749,"zip":"6800141"},{"town":"国府町宮下","koaza":"","lat":35.481844,"lng":134.270328,"zip":"6800151"},{"town":"国府町山崎","koaza":"","lat":35.443128,"lng":134.340212,"zip":"6800215"},{"town":"国府町山根","koaza":"","lat":35.446901,"lng":134.314367,"zip":"6800133"},{"town":"国府町吉野","koaza":"","lat":35.436265,"lng":134.320972,"zip":"6800225"},{"town":"国府町上地","koaza":"","lat":35.444881,"lng":134.404379,"zip":"6800212"},{"town":"古郡家","koaza":"","lat":35.45234,"lng":134.233124,"zip":"6891125"},{"town":"小西谷","koaza":"","lat":35.504452,"lng":134.260829,"zip":"6800073"},{"town":"小沢見","koaza":"","lat":35.516085,"lng":134.103354,"zip":"6890207"},{"town":"五反田町","koaza":"","lat":35.508222,"lng":134.199733,"zip":"6800932"},{"town":"寿町","koaza":"","lat":35.505062,"lng":134.225282,"zip":"6800813"},{"town":"湖山町","koaza":"","lat":35.507423,"lng":134.150705,"zip":"6800946"},{"town":"湖山町北一丁目","koaza":"","lat":35.517647,"lng":134.179371,"zip":"6800941"},{"town":"湖山町北二丁目","koaza":"","lat":35.520938,"lng":134.173853,"zip":"6800941"},{"town":"湖山町北三丁目","koaza":"","lat":35.521267,"lng":134.178184,"zip":"6800941"},{"town":"湖山町北四丁目","koaza":"","lat":35.525298,"lng":134.177712,"zip":"6800941"},{"town":"湖山町北五丁目","koaza":"","lat":35.522976,"lng":134.181966,"zip":"6800941"},{"town":"湖山町北六丁目","koaza":"","lat":35.521074,"lng":134.184017,"zip":"6800941"},{"town":"湖山町西一丁目","koaza":"","lat":35.522214,"lng":134.167145,"zip":"6800947"},{"town":"湖山町西二丁目","koaza":"","lat":35.523892,"lng":134.159295,"zip":"6800947"},{"town":"湖山町西三丁目","koaza":"","lat":35.525966,"lng":134.154857,"zip":"6800947"},{"town":"湖山町西四丁目","koaza":"","lat":35.52602,"lng":134.167285,"zip":"6800947"},{"town":"湖山町東一丁目","koaza":"","lat":35.515984,"lng":134.184044,"zip":"6800942"},{"town":"湖山町東二丁目","koaza":"","lat":35.518885,"lng":134.186328,"zip":"6800942"},{"town":"湖山町東三丁目","koaza":"","lat":35.519852,"lng":134.190226,"zip":"6800942"},{"town":"湖山町東四丁目","koaza":"","lat":35.515938,"lng":134.189144,"zip":"6800942"},{"town":"湖山町東五丁目","koaza":"","lat":35.511812,"lng":134.190921,"zip":"6800942"},{"town":"湖山町南一丁目","koaza":"","lat":35.514328,"lng":134.179383,"zip":"6800945"},{"town":"湖山町南二丁目","koaza":"","lat":35.513172,"lng":134.183604,"zip":"6800945"},{"town":"湖山町南三丁目","koaza":"","lat":35.508859,"lng":134.178514,"zip":"6800945"},{"town":"湖山町南四丁目","koaza":"","lat":35.512961,"lng":134.167818,"zip":"6800945"},{"town":"湖山町南五丁目","koaza":"","lat":35.517656,"lng":134.168827,"zip":"6800945"},{"town":"材木町","koaza":"","lat":35.508902,"lng":134.230483,"zip":"6800021"},{"town":"幸町","koaza":"","lat":35.495714,"lng":134.219895,"zip":"6800823"},{"town":"栄町","koaza":"","lat":35.496704,"lng":134.228165,"zip":"6800831"},{"town":"桜谷","koaza":"","lat":35.471635,"lng":134.250368,"zip":"6800853"},{"town":"佐治町大井","koaza":"","lat":35.330045,"lng":134.148531,"zip":"6891304"},{"town":"佐治町尾際","koaza":"","lat":35.344926,"lng":134.053547,"zip":"6891324"},{"town":"佐治町葛谷","koaza":"","lat":35.346473,"lng":134.169101,"zip":"6891301"},{"town":"佐治町加瀬木","koaza":"","lat":35.32547,"lng":134.122561,"zip":"6891313"},{"town":"佐治町加茂","koaza":"","lat":35.318153,"lng":134.095284,"zip":"6891314"},{"town":"佐治町刈地","koaza":"","lat":35.332922,"lng":134.167361,"zip":"6891303"},{"town":"佐治町河本","koaza":"","lat":35.340822,"lng":134.072563,"zip":"6891321"},{"town":"佐治町小原","koaza":"","lat":35.340217,"lng":134.175661,"zip":"6891302"},{"town":"佐治町高山","koaza":"","lat":35.344815,"lng":134.114574,"zip":"6891312"},{"town":"佐治町つく谷","koaza":"","lat":35.336217,"lng":134.086256,"zip":"6891322"},{"town":"佐治町津無","koaza":"","lat":35.351588,"lng":134.147678,"zip":"6891307"},{"town":"佐治町津野","koaza":"","lat":35.343072,"lng":134.129538,"zip":"6891311"},{"town":"佐治町栃原","koaza":"","lat":35.316205,"lng":134.02919,"zip":"6891326"},{"town":"佐治町中","koaza":"","lat":35.347456,"lng":134.029668,"zip":"6891325"},{"town":"佐治町畑","koaza":"","lat":35.335395,"lng":134.094597,"zip":"6891315"},{"town":"佐治町福園","koaza":"","lat":35.345673,"lng":134.097471,"zip":"6891316"},{"town":"佐治町古市","koaza":"","lat":35.34241,"lng":134.154135,"zip":"6891306"},{"town":"佐治町森坪","koaza":"","lat":35.339821,"lng":134.143609,"zip":"6891305"},{"town":"佐治町余戸","koaza":"","lat":35.314997,"lng":134.06947,"zip":"6891323"},{"town":"里仁","koaza":"","lat":35.50227,"lng":134.18963,"zip":"6800935"},{"town":"鹿野町今市","koaza":"","lat":35.466598,"lng":134.052315,"zip":"6890425"},{"town":"鹿野町岡木","koaza":"","lat":35.49258,"lng":134.053616,"zip":"6890422"},{"town":"鹿野町乙亥正","koaza":"","lat":35.499454,"lng":134.053203,"zip":"6890421"},{"town":"鹿野町河内","koaza":"","lat":35.408075,"lng":134.021415,"zip":"6890412"},{"town":"鹿野町小別所","koaza":"","lat":35.446713,"lng":134.024597,"zip":"6890413"},{"town":"鹿野町鹿野","koaza":"","lat":35.458935,"lng":134.062575,"zip":"6890405"},{"town":"鹿野町鷲峯","koaza":"","lat":35.438497,"lng":134.034637,"zip":"6890411"},{"town":"鹿野町末用","koaza":"","lat":35.440579,"lng":134.073968,"zip":"6890403"},{"town":"鹿野町寺内","koaza":"","lat":35.476935,"lng":134.051376,"zip":"6890426"},{"town":"鹿野町閉野","koaza":"","lat":35.463895,"lng":134.076922,"zip":"6890402"},{"town":"鹿野町中園","koaza":"","lat":35.485738,"lng":134.051555,"zip":"6890423"},{"town":"鹿野町広木","koaza":"","lat":35.467295,"lng":134.083694,"zip":"6890401"},{"town":"鹿野町水谷","koaza":"","lat":35.4367,"lng":134.054664,"zip":"6890404"},{"town":"鹿野町宮方","koaza":"","lat":35.48083,"lng":134.051578,"zip":"6890424"},{"town":"倭文","koaza":"","lat":35.444681,"lng":134.202341,"zip":"6801151"},{"town":"篠坂","koaza":"","lat":35.465187,"lng":134.182846,"zip":"6801174"},{"town":"嶋","koaza":"","lat":35.492108,"lng":134.191856,"zip":"6801411"},{"town":"下味野","koaza":"","lat":35.465105,"lng":134.19217,"zip":"6801165"},{"town":"下砂見","koaza":"","lat":35.420687,"lng":134.177717,"zip":"6801154"},{"town":"下段","koaza":"","lat":35.474166,"lng":134.165069,"zip":"6801414"},{"town":"商栄町","koaza":"","lat":35.514516,"lng":134.207839,"zip":"6800912"},{"town":"生山","koaza":"","lat":35.451348,"lng":134.269707,"zip":"6891103"},{"town":"尚徳町","koaza":"","lat":35.502009,"lng":134.236634,"zip":"6800017"},{"town":"菖蒲","koaza":"","lat":35.485418,"lng":134.208372,"zip":"6800922"},{"town":"正蓮寺","koaza":"","lat":35.472347,"lng":134.243257,"zip":"6800854"},{"town":"職人町","koaza":"","lat":35.499576,"lng":134.233181,"zip":"6800056"},{"town":"新","koaza":"","lat":35.482144,"lng":134.236457,"zip":"6800861"},{"town":"新品治町","koaza":"","lat":35.505852,"lng":134.223175,"zip":"6800812"},{"town":"新町","koaza":"","lat":35.499816,"lng":134.231558,"zip":"6800035"},{"town":"末広温泉町","koaza":"","lat":35.494998,"lng":134.230669,"zip":"6800833"},{"town":"杉崎","koaza":"","lat":35.467425,"lng":134.249547,"zip":"6891101"},{"town":"数津","koaza":"","lat":35.467825,"lng":134.223075,"zip":"6800875"},{"town":"瀬田蔵","koaza":"","lat":35.470822,"lng":134.107276,"zip":"6801435"},{"town":"双六原","koaza":"","lat":35.458732,"lng":134.109686,"zip":"6801432"},{"town":"大桷","koaza":"","lat":35.492569,"lng":134.184553,"zip":"6801418"},{"town":"大覚寺","koaza":"","lat":35.478993,"lng":134.230135,"zip":"6800863"},{"town":"大工町頭","koaza":"","lat":35.497991,"lng":134.237898,"zip":"6800045"},{"town":"高住","koaza":"","lat":35.49002,"lng":134.159748,"zip":"6801416"},{"town":"滝山","koaza":"","lat":35.49888,"lng":134.275794,"zip":"6800072"},{"town":"竹生","koaza":"","lat":35.452302,"lng":134.20149,"zip":"6801162"},{"town":"田島","koaza":"","lat":35.511939,"lng":134.220675,"zip":"6800804"},{"town":"立川町一丁目","koaza":"","lat":35.495502,"lng":134.244494,"zip":"6800061"},{"town":"立川町二丁目","koaza":"","lat":35.492671,"lng":134.242606,"zip":"6800061"},{"town":"立川町三丁目","koaza":"","lat":35.492132,"lng":134.243952,"zip":"6800061"},{"town":"立川町四丁目","koaza":"","lat":35.494507,"lng":134.248091,"zip":"6800061"},{"town":"立川町五丁目","koaza":"","lat":35.488281,"lng":134.243843,"zip":"6800061"},{"town":"立川町六丁目","koaza":"","lat":35.486381,"lng":134.250197,"zip":"6800061"},{"town":"立川町七丁目","koaza":"","lat":35.484376,"lng":134.254104,"zip":"6800061"},{"town":"玉津","koaza":"","lat":35.441757,"lng":134.189876,"zip":"6801152"},{"town":"足山","koaza":"","lat":35.509261,"lng":134.185283,"zip":"6800943"},{"town":"茶町","koaza":"","lat":35.504052,"lng":134.22762,"zip":"6800032"},{"town":"千代水一丁目","koaza":"","lat":35.516521,"lng":134.204017,"zip":"6800911"},{"town":"千代水二丁目","koaza":"","lat":35.515072,"lng":134.198873,"zip":"6800911"},{"town":"千代水三丁目","koaza":"","lat":35.518226,"lng":134.198995,"zip":"6800911"},{"town":"千代水四丁目","koaza":"","lat":35.517074,"lng":134.193799,"zip":"6800911"},{"town":"津ノ井","koaza":"","lat":35.464244,"lng":134.259626,"zip":"6891102"},{"town":"寺町","koaza":"","lat":35.49732,"lng":134.235088,"zip":"6800053"},{"town":"田園町一丁目","koaza":"","lat":35.510614,"lng":134.224531,"zip":"6800803"},{"town":"田園町二丁目","koaza":"","lat":35.51178,"lng":134.225793,"zip":"6800803"},{"town":"田園町三丁目","koaza":"","lat":35.512363,"lng":134.224284,"zip":"6800803"},{"town":"田園町四丁目","koaza":"","lat":35.514727,"lng":134.222394,"zip":"6800803"},{"town":"天神町","koaza":"","lat":35.492067,"lng":134.221456,"zip":"6800847"},{"town":"徳尾","koaza":"","lat":35.497567,"lng":134.197111,"zip":"6800934"},{"town":"徳吉","koaza":"","lat":35.505781,"lng":134.19845,"zip":"6800933"},{"town":"富安","koaza":"","lat":35.489172,"lng":134.223069,"zip":"6800845"},{"town":"富安一丁目","koaza":"","lat":35.489173,"lng":134.226405,"zip":"6800845"},{"town":"富安二丁目","koaza":"","lat":35.491166,"lng":134.228911,"zip":"6800845"},{"town":"中大路","koaza":"","lat":35.466553,"lng":134.234834,"zip":"6891106"},{"town":"中砂見","koaza":"","lat":35.412843,"lng":134.158391,"zip":"6801155"},{"town":"中町","koaza":"","lat":35.498481,"lng":134.239694,"zip":"6800016"},{"town":"中村","koaza":"","lat":35.459888,"lng":134.170662,"zip":"6801175"},{"town":"長柄","koaza":"","lat":35.481385,"lng":134.118726,"zip":"6801436"},{"town":"南栄町","koaza":"","lat":35.458828,"lng":134.244408,"zip":"6891121"},{"town":"二階町一丁目","koaza":"","lat":35.500379,"lng":134.232137,"zip":"6800033"},{"town":"二階町二丁目","koaza":"","lat":35.50122,"lng":134.231194,"zip":"6800033"},{"town":"二階町三丁目","koaza":"","lat":35.502092,"lng":134.230039,"zip":"6800033"},{"town":"二階町四丁目","koaza":"","lat":35.502865,"lng":134.229081,"zip":"6800033"},{"town":"西今在家","koaza":"","lat":35.472171,"lng":134.179423,"zip":"6801173"},{"town":"西円通寺","koaza":"","lat":35.43286,"lng":134.207188,"zip":"6801145"},{"town":"西大路","koaza":"","lat":35.471679,"lng":134.236007,"zip":"6891107"},{"town":"西品治","koaza":"","lat":35.506164,"lng":134.217725,"zip":"6800811"},{"town":"西町一丁目","koaza":"","lat":35.503563,"lng":134.23541,"zip":"6800022"},{"town":"西町二丁目","koaza":"","lat":35.502602,"lng":134.233816,"zip":"6800022"},{"town":"西町三丁目","koaza":"","lat":35.505238,"lng":134.233757,"zip":"6800022"},{"town":"西町四丁目","koaza":"","lat":35.504259,"lng":134.232106,"zip":"6800022"},{"town":"西町五丁目","koaza":"","lat":35.506255,"lng":134.232053,"zip":"6800022"},{"town":"祢宜谷","koaza":"","lat":35.434617,"lng":134.255682,"zip":"6891113"},{"town":"野坂","koaza":"","lat":35.48145,"lng":134.172534,"zip":"6801413"},{"town":"野寺","koaza":"","lat":35.473197,"lng":134.205601,"zip":"6800924"},{"town":"白兎","koaza":"","lat":35.519257,"lng":134.112401,"zip":"6890206"},{"town":"橋本","koaza":"","lat":35.457602,"lng":134.227774,"zip":"6801142"},{"town":"長谷","koaza":"","lat":35.433372,"lng":134.19187,"zip":"6801153"},{"town":"八坂","koaza":"","lat":35.448161,"lng":134.220399,"zip":"6801143"},{"town":"服部","koaza":"","lat":35.477445,"lng":134.204083,"zip":"6800923"},{"town":"馬場","koaza":"","lat":35.463522,"lng":134.227702,"zip":"6801131"},{"town":"馬場町","koaza":"","lat":35.501025,"lng":134.241983,"zip":"6800014"},{"town":"浜坂","koaza":"","lat":35.535919,"lng":134.221308,"zip":"6800001"},{"town":"浜坂一丁目","koaza":"","lat":35.529058,"lng":134.218772,"zip":"6800001"},{"town":"浜坂二丁目","koaza":"","lat":35.529716,"lng":134.213142,"zip":"6800001"},{"town":"浜坂三丁目","koaza":"","lat":35.531409,"lng":134.214908,"zip":"6800001"},{"town":"浜坂四丁目","koaza":"","lat":35.530434,"lng":134.210197,"zip":"6800001"},{"town":"浜坂五丁目","koaza":"","lat":35.53307,"lng":134.212981,"zip":"6800001"},{"town":"浜坂六丁目","koaza":"","lat":35.532363,"lng":134.208067,"zip":"6800001"},{"town":"浜坂七丁目","koaza":"","lat":35.531808,"lng":134.205068,"zip":"6800001"},{"town":"浜坂八丁目","koaza":"","lat":35.535233,"lng":134.201626,"zip":"6800001"},{"town":"浜坂東一丁目","koaza":"","lat":35.526562,"lng":134.226654,"zip":"6800002"},{"town":"東今在家","koaza":"","lat":35.47659,"lng":134.253675,"zip":"6800852"},{"town":"東大路","koaza":"","lat":35.467334,"lng":134.241105,"zip":"6891105"},{"town":"東品治町","koaza":"","lat":35.494021,"lng":134.226155,"zip":"6800835"},{"town":"東町一丁目","koaza":"","lat":35.504491,"lng":134.238705,"zip":"6800011"},{"town":"東町二丁目","koaza":"","lat":35.509642,"lng":134.245065,"zip":"6800011"},{"town":"東町三丁目","koaza":"","lat":35.508344,"lng":134.233493,"zip":"6800011"},{"town":"久末","koaza":"","lat":35.445436,"lng":134.237764,"zip":"6891123"},{"town":"広岡","koaza":"","lat":35.446839,"lng":134.246142,"zip":"6891116"},{"town":"福井","koaza":"","lat":35.489244,"lng":134.108662,"zip":"6801438"},{"town":"福部町海士","koaza":"","lat":35.54736,"lng":134.273841,"zip":"6890106"},{"town":"福部町岩戸","koaza":"","lat":35.565916,"lng":134.277264,"zip":"6890101"},{"town":"福部町久志羅","koaza":"","lat":35.509606,"lng":134.301004,"zip":"6808021"},{"town":"福部町蔵見","koaza":"","lat":35.525893,"lng":134.316535,"zip":"6890112"},{"town":"福部町栗谷","koaza":"","lat":35.541375,"lng":134.299176,"zip":"6890111"},{"town":"福部町左近","koaza":"","lat":35.501508,"lng":134.310557,"zip":"6808022"},{"town":"福部町高江","koaza":"","lat":35.540344,"lng":134.280764,"zip":"6890103"},{"town":"福部町中","koaza":"","lat":35.520009,"lng":134.303834,"zip":"6890116"},{"town":"福部町南田","koaza":"","lat":35.530957,"lng":134.299852,"zip":"6890117"},{"town":"福部町細川","koaza":"","lat":35.552913,"lng":134.287697,"zip":"6890102"},{"town":"福部町八重原","koaza":"","lat":35.517214,"lng":134.288068,"zip":"6890115"},{"town":"福部町箭溪","koaza":"","lat":35.533826,"lng":134.283213,"zip":"6890104"},{"town":"福部町湯山","koaza":"","lat":35.542104,"lng":134.250446,"zip":"6890105"},{"town":"伏野","koaza":"","lat":35.515114,"lng":134.123116,"zip":"6890201"},{"town":"布勢","koaza":"","lat":35.501266,"lng":134.181403,"zip":"6800944"},{"town":"船木","koaza":"","lat":35.451585,"lng":134.243074,"zip":"6891122"},{"town":"古市","koaza":"","lat":35.497466,"lng":134.215826,"zip":"6800865"},{"town":"古海","koaza":"","lat":35.496225,"lng":134.208298,"zip":"6800921"},{"town":"卯垣","koaza":"","lat":35.486827,"lng":134.254687,"zip":"6800074"},{"town":"卯垣一丁目","koaza":"","lat":35.496397,"lng":134.25435,"zip":"6800074"},{"town":"卯垣二丁目","koaza":"","lat":35.491006,"lng":134.252336,"zip":"6800074"},{"town":"卯垣三丁目","koaza":"","lat":35.489018,"lng":134.251936,"zip":"6800074"},{"town":"卯垣四丁目","koaza":"","lat":35.489361,"lng":134.254966,"zip":"6800074"},{"town":"卯垣五丁目","koaza":"","lat":35.491742,"lng":134.257273,"zip":"6800074"},{"town":"庖丁人町","koaza":"","lat":35.499551,"lng":134.238307,"zip":"6800042"},{"town":"細見","koaza":"","lat":35.450306,"lng":134.115793,"zip":"6801426"},{"town":"洞谷","koaza":"","lat":35.458085,"lng":134.093646,"zip":"6801434"},{"town":"本町一丁目","koaza":"","lat":35.500922,"lng":134.232797,"zip":"6800031"},{"town":"本町二丁目","koaza":"","lat":35.501772,"lng":134.231849,"zip":"6800031"},{"town":"本町三丁目","koaza":"","lat":35.502641,"lng":134.230797,"zip":"6800031"},{"town":"本町四丁目","koaza":"","lat":35.503444,"lng":134.229799,"zip":"6800031"},{"town":"本町五丁目","koaza":"","lat":35.504687,"lng":134.228217,"zip":"6800031"},{"town":"槇原","koaza":"","lat":35.428395,"lng":134.102992,"zip":"6801424"},{"town":"松上","koaza":"","lat":35.437707,"lng":134.132759,"zip":"6801423"},{"town":"松並町一丁目","koaza":"","lat":35.514341,"lng":134.219193,"zip":"6800801"},{"town":"松並町二丁目","koaza":"","lat":35.516066,"lng":134.218742,"zip":"6800801"},{"town":"松並町三丁目","koaza":"","lat":35.519327,"lng":134.2201,"zip":"6800801"},{"town":"松原","koaza":"","lat":35.49086,"lng":134.136809,"zip":"6801444"},{"town":"的場","koaza":"","lat":35.477399,"lng":134.22822,"zip":"6800873"},{"town":"的場一丁目","koaza":"","lat":35.474342,"lng":134.234395,"zip":"6800873"},{"town":"的場二丁目","koaza":"","lat":35.474952,"lng":134.231903,"zip":"6800873"},{"town":"的場三丁目","koaza":"","lat":35.474305,"lng":134.229599,"zip":"6800873"},{"town":"的場四丁目","koaza":"","lat":35.474683,"lng":134.227665,"zip":"6800873"},{"town":"丸山町","koaza":"","lat":35.517962,"lng":134.22483,"zip":"6800006"},{"town":"御熊","koaza":"","lat":35.490097,"lng":134.100299,"zip":"6890204"},{"town":"三津","koaza":"","lat":35.51879,"lng":134.142826,"zip":"6890203"},{"town":"緑ケ丘一丁目","koaza":"","lat":35.501882,"lng":134.211031,"zip":"6800915"},{"town":"緑ケ丘二丁目","koaza":"","lat":35.50436,"lng":134.206127,"zip":"6800915"},{"town":"緑ケ丘三丁目","koaza":"","lat":35.507104,"lng":134.202897,"zip":"6800915"},{"town":"港町","koaza":"","lat":35.538194,"lng":134.193805,"zip":"6800906"},{"town":"南隈","koaza":"","lat":35.52089,"lng":134.200976,"zip":"6800903"},{"town":"南町","koaza":"","lat":35.501447,"lng":134.225574,"zip":"6800814"},{"town":"南安長一丁目","koaza":"","lat":35.505694,"lng":134.211256,"zip":"6800914"},{"town":"南安長二丁目","koaza":"","lat":35.506804,"lng":134.20803,"zip":"6800914"},{"town":"南安長三丁目","koaza":"","lat":35.507672,"lng":134.204997,"zip":"6800914"},{"town":"南吉方一丁目","koaza":"","lat":35.48986,"lng":134.232128,"zip":"6800843"},{"town":"南吉方二丁目","koaza":"","lat":35.486265,"lng":134.234383,"zip":"6800843"},{"town":"南吉方三丁目","koaza":"","lat":35.485853,"lng":134.240166,"zip":"6800843"},{"town":"美萩野一丁目","koaza":"","lat":35.523274,"lng":134.141167,"zip":"6890202"},{"town":"美萩野二丁目","koaza":"","lat":35.519775,"lng":134.137196,"zip":"6890202"},{"town":"美萩野三丁目","koaza":"","lat":35.521958,"lng":134.135042,"zip":"6890202"},{"town":"美萩野四丁目","koaza":"","lat":35.518638,"lng":134.132221,"zip":"6890202"},{"town":"美萩野五丁目","koaza":"","lat":35.516817,"lng":134.131362,"zip":"6890202"},{"town":"宮谷","koaza":"","lat":35.485564,"lng":134.185463,"zip":"6801412"},{"town":"宮長","koaza":"","lat":35.477508,"lng":134.222752,"zip":"6800872"},{"town":"三山口","koaza":"","lat":35.476173,"lng":134.133746,"zip":"6801428"},{"town":"妙徳寺","koaza":"","lat":35.470235,"lng":134.119928,"zip":"6801431"},{"town":"美和","koaza":"","lat":35.456312,"lng":134.231486,"zip":"6891126"},{"town":"向国安","koaza":"","lat":35.454097,"lng":134.209523,"zip":"6801161"},{"town":"用瀬町赤波","koaza":"","lat":35.332387,"lng":134.232311,"zip":"6891215"},{"town":"用瀬町安蔵","koaza":"","lat":35.297936,"lng":134.179839,"zip":"6891227"},{"town":"用瀬町家奥","koaza":"","lat":35.324054,"lng":134.18324,"zip":"6891222"},{"town":"用瀬町江波","koaza":"","lat":35.300204,"lng":134.124652,"zip":"6891229"},{"town":"用瀬町金屋","koaza":"","lat":35.32564,"lng":134.208914,"zip":"6891223"},{"town":"用瀬町川中","koaza":"","lat":35.297759,"lng":134.204941,"zip":"6891226"},{"town":"用瀬町樟原","koaza":"","lat":35.316172,"lng":134.202654,"zip":"6891224"},{"town":"用瀬町鷹狩","koaza":"","lat":35.353528,"lng":134.209106,"zip":"6891213"},{"town":"用瀬町古用瀬","koaza":"","lat":35.331487,"lng":134.20508,"zip":"6891221"},{"town":"用瀬町別府","koaza":"","lat":35.335555,"lng":134.183976,"zip":"6891211"},{"town":"用瀬町美成","koaza":"","lat":35.352374,"lng":134.191608,"zip":"6891212"},{"town":"用瀬町宮原","koaza":"","lat":35.30857,"lng":134.197658,"zip":"6891225"},{"town":"用瀬町用瀬","koaza":"","lat":35.341277,"lng":134.208331,"zip":"6891201"},{"town":"用瀬町屋住","koaza":"","lat":35.302846,"lng":134.160757,"zip":"6891228"},{"town":"元魚町一丁目","koaza":"","lat":35.500705,"lng":134.230477,"zip":"6800034"},{"town":"元魚町二丁目","koaza":"","lat":35.501514,"lng":134.229515,"zip":"6800034"},{"town":"元魚町三丁目","koaza":"","lat":35.50233,"lng":134.228432,"zip":"6800034"},{"town":"元魚町四丁目","koaza":"","lat":35.503406,"lng":134.227069,"zip":"6800034"},{"town":"元大工町","koaza":"","lat":35.499412,"lng":134.236112,"zip":"6800046"},{"town":"本高","koaza":"","lat":35.483272,"lng":134.194506,"zip":"6801171"},{"town":"元町","koaza":"","lat":35.499971,"lng":134.228378,"zip":"6800037"},{"town":"百谷","koaza":"","lat":35.512718,"lng":134.271307,"zip":"6800071"},{"town":"薬師町","koaza":"","lat":35.50795,"lng":134.224813,"zip":"6800806"},{"town":"安長","koaza":"","lat":35.509787,"lng":134.207988,"zip":"6800913"},{"town":"矢矯","koaza":"","lat":35.442689,"lng":134.092587,"zip":"6801433"},{"town":"山城町","koaza":"","lat":35.522251,"lng":134.226446,"zip":"6800008"},{"town":"弥生町","koaza":"","lat":35.496899,"lng":134.230741,"zip":"6800832"},{"town":"湯所町一丁目","koaza":"","lat":35.512456,"lng":134.234191,"zip":"6800007"},{"town":"湯所町二丁目","koaza":"","lat":35.510937,"lng":134.230633,"zip":"6800007"},{"town":"横枕","koaza":"","lat":35.451099,"lng":134.190253,"zip":"6801163"},{"town":"吉岡温泉町","koaza":"","lat":35.480064,"lng":134.128915,"zip":"6801442"},{"town":"吉方","koaza":"","lat":35.489626,"lng":134.235997,"zip":"6800842"},{"town":"吉方温泉一丁目","koaza":"","lat":35.494716,"lng":134.234086,"zip":"6800841"},{"town":"吉方温泉二丁目","koaza":"","lat":35.494255,"lng":134.236631,"zip":"6800841"},{"town":"吉方温泉三丁目","koaza":"","lat":35.491965,"lng":134.234731,"zip":"6800841"},{"town":"吉方温泉四丁目","koaza":"","lat":35.489428,"lng":134.239002,"zip":"6800841"},{"town":"吉方町一丁目","koaza":"","lat":35.494277,"lng":134.238952,"zip":"6800062"},{"town":"吉方町二丁目","koaza":"","lat":35.492054,"lng":134.239707,"zip":"6800062"},{"town":"良田","koaza":"","lat":35.491139,"lng":134.147308,"zip":"6801441"},{"town":"吉成","koaza":"","lat":35.483632,"lng":134.231916,"zip":"6800864"},{"town":"吉成一丁目","koaza":"","lat":35.48521,"lng":134.222451,"zip":"6800864"},{"town":"吉成二丁目","koaza":"","lat":35.484135,"lng":134.225644,"zip":"6800864"},{"town":"吉成三丁目","koaza":"","lat":35.481879,"lng":134.224442,"zip":"6800864"},{"town":"吉成南町一丁目","koaza":"","lat":35.483434,"lng":134.217459,"zip":"6800871"},{"town":"吉成南町二丁目","koaza":"","lat":35.48095,"lng":134.214704,"zip":"6800871"},{"town":"六反田","koaza":"","lat":35.48922,"lng":134.128115,"zip":"6801443"},{"town":"若桜町","koaza":"","lat":35.500178,"lng":134.233819,"zip":"6800051"},{"town":"若葉台北一丁目","koaza":"","lat":35.451099,"lng":134.25633,"zip":"6891111"},{"town":"若葉台北二丁目","koaza":"","lat":35.452506,"lng":134.263308,"zip":"6891111"},{"town":"若葉台北三丁目","koaza":"","lat":35.451708,"lng":134.267368,"zip":"6891111"},{"town":"若葉台北四丁目","koaza":"","lat":35.450397,"lng":134.264848,"zip":"6891111"},{"town":"若葉台北五丁目","koaza":"","lat":35.449584,"lng":134.261224,"zip":"6891111"},{"town":"若葉台北六丁目","koaza":"","lat":35.448967,"lng":134.256222,"zip":"6891111"},{"town":"若葉台南一丁目","koaza":"","lat":35.445116,"lng":134.257445,"zip":"6891112"},{"town":"若葉台南二丁目","koaza":"","lat":35.446819,"lng":134.261797,"zip":"6891112"},{"town":"若葉台南三丁目","koaza":"","lat":35.447229,"lng":134.26624,"zip":"6891112"},{"town":"若葉台南四丁目","koaza":"","lat":35.445766,"lng":134.268956,"zip":"6891112"},{"town":"若葉台南五丁目","koaza":"","lat":35.444194,"lng":134.265241,"zip":"6891112"},{"town":"若葉台南六丁目","koaza":"","lat":35.443807,"lng":134.260005,"zip":"6891112"},{"town":"若葉台南七丁目","koaza":"","lat":35.439857,"lng":134.258031,"zip":"6891112"},{"town":"古海","koaza":"西加路田","lat":35.495809,"lng":134.20419,"zip":"6800921"},{"town":"古海","koaza":"瀬戸田ノニ","lat":35.49634,"lng":134.20943,"zip":"6800921"}]