[{"town":"赤島町","koaza":"","lat":32.595054,"lng":128.920721,"zip":"8530062"},{"town":"池田町","koaza":"","lat":32.693364,"lng":128.846087,"zip":"8530018"},{"town":"猪之木町","koaza":"","lat":32.812901,"lng":128.851768,"zip":"8532174"},{"town":"江川町","koaza":"","lat":32.697668,"lng":128.844268,"zip":"8530006"},{"town":"黄島町","koaza":"","lat":32.566401,"lng":128.899609,"zip":"8530061"},{"town":"大荒町","koaza":"","lat":32.705139,"lng":128.825288,"zip":"8530032"},{"town":"奥浦町","koaza":"","lat":32.738989,"lng":128.813348,"zip":"8530053"},{"town":"小泊町","koaza":"","lat":32.643599,"lng":128.824066,"zip":"8530025"},{"town":"上大津町","koaza":"","lat":32.673091,"lng":128.84361,"zip":"8530013"},{"town":"上崎山町","koaza":"","lat":32.652782,"lng":128.86177,"zip":"8530023"},{"town":"岐宿町川原","koaza":"","lat":32.727068,"lng":128.712622,"zip":"8530702"},{"town":"岐宿町岐宿","koaza":"","lat":32.752965,"lng":128.755795,"zip":"8530701"},{"town":"岐宿町楠原","koaza":"","lat":32.730115,"lng":128.748509,"zip":"8530703"},{"town":"岐宿町河務","koaza":"","lat":32.729961,"lng":128.776463,"zip":"8530704"},{"town":"岐宿町唐船ノ浦","koaza":"","lat":32.768466,"lng":128.786338,"zip":"8530706"},{"town":"岐宿町中嶽","koaza":"","lat":32.683624,"lng":128.728732,"zip":"8530312"},{"town":"岐宿町二本楠","koaza":"","lat":32.664596,"lng":128.725355,"zip":"8530311"},{"town":"岐宿町姫島","koaza":"","lat":32.806564,"lng":128.678133,"zip":"8530000"},{"town":"岐宿町松山","koaza":"","lat":32.702414,"lng":128.725394,"zip":"8530313"},{"town":"高田町","koaza":"","lat":32.676435,"lng":128.79275,"zip":"8530043"},{"town":"木場町","koaza":"","lat":32.69174,"lng":128.832128,"zip":"8530033"},{"town":"籠淵町","koaza":"","lat":32.706487,"lng":128.801766,"zip":"8530041"},{"town":"紺屋町","koaza":"","lat":32.691084,"lng":128.847637,"zip":"8530016"},{"town":"幸町","koaza":"","lat":32.694296,"lng":128.840343,"zip":"8530004"},{"town":"栄町","koaza":"","lat":32.696488,"lng":128.845821,"zip":"8530001"},{"town":"坂の上一丁目","koaza":"","lat":32.688838,"lng":128.838304,"zip":"8530065"},{"town":"下大津町","koaza":"","lat":32.677371,"lng":128.860701,"zip":"8530011"},{"town":"下崎山町","koaza":"","lat":32.66279,"lng":128.872992,"zip":"8530021"},{"town":"新港町","koaza":"","lat":32.701206,"lng":128.847567,"zip":"8530063"},{"town":"末広町","koaza":"","lat":32.695428,"lng":128.84259,"zip":"8530005"},{"town":"大円寺町","koaza":"","lat":32.688034,"lng":128.830151,"zip":"8530066"},{"town":"田ノ浦町","koaza":"","lat":32.780505,"lng":128.848767,"zip":"8532173"},{"town":"玉之浦町荒川","koaza":"","lat":32.669782,"lng":128.693494,"zip":"8530501"},{"town":"玉之浦町幾久山","koaza":"","lat":32.642242,"lng":128.702837,"zip":"8530502"},{"town":"玉之浦町小川","koaza":"","lat":32.623852,"lng":128.675113,"zip":"8530503"},{"town":"玉之浦町上の平","koaza":"","lat":32.647173,"lng":128.721156,"zip":"8530506"},{"town":"玉之浦町大宝","koaza":"","lat":32.605872,"lng":128.654649,"zip":"8530413"},{"town":"玉之浦町立谷","koaza":"","lat":32.607674,"lng":128.636843,"zip":"8530412"},{"town":"玉之浦町玉之浦","koaza":"","lat":32.632777,"lng":128.614953,"zip":"8530411"},{"town":"玉之浦町丹奈","koaza":"","lat":32.689717,"lng":128.670311,"zip":"8530504"},{"town":"玉之浦町頓泊","koaza":"","lat":32.695443,"lng":128.655365,"zip":"8530507"},{"town":"玉之浦町中須","koaza":"","lat":32.636724,"lng":128.668494,"zip":"8530505"},{"town":"玉之浦町布浦","koaza":"","lat":32.654028,"lng":128.674167,"zip":"8530508"},{"town":"中央町","koaza":"","lat":32.694729,"lng":128.844011,"zip":"8530002"},{"town":"堤町","koaza":"","lat":32.670863,"lng":128.824863,"zip":"8530044"},{"town":"戸岐町","koaza":"","lat":32.77682,"lng":128.801753,"zip":"8530054"},{"town":"富江町狩立","koaza":"","lat":32.609534,"lng":128.762161,"zip":"8530205"},{"town":"富江町黒島","koaza":"","lat":32.600481,"lng":128.833889,"zip":"8530208"},{"town":"富江町黒瀬","koaza":"","lat":32.60082,"lng":128.748172,"zip":"8530211"},{"town":"富江町繁敷","koaza":"","lat":32.645302,"lng":128.74008,"zip":"8530204"},{"town":"富江町職人","koaza":"","lat":32.605031,"lng":128.7778,"zip":"8530215"},{"town":"富江町田尾","koaza":"","lat":32.640232,"lng":128.757764,"zip":"8530203"},{"town":"富江町岳","koaza":"","lat":32.589523,"lng":128.773356,"zip":"8530213"},{"town":"富江町土取","koaza":"","lat":32.606251,"lng":128.7859,"zip":"8530214"},{"town":"富江町富江","koaza":"","lat":32.615207,"lng":128.767186,"zip":"8530201"},{"town":"富江町長峰","koaza":"","lat":32.615099,"lng":128.710348,"zip":"8530207"},{"town":"富江町松尾","koaza":"","lat":32.619984,"lng":128.755984,"zip":"8530202"},{"town":"富江町山下","koaza":"","lat":32.591668,"lng":128.757267,"zip":"8530212"},{"town":"富江町山手","koaza":"","lat":32.619868,"lng":128.739144,"zip":"8530206"},{"town":"長手町","koaza":"","lat":32.673288,"lng":128.870453,"zip":"8530012"},{"town":"奈留町浦","koaza":"","lat":32.836933,"lng":128.937345,"zip":"8532201"},{"town":"奈留町大串","koaza":"","lat":32.864747,"lng":128.897842,"zip":"8532202"},{"town":"奈留町泊","koaza":"","lat":32.830218,"lng":128.956561,"zip":"8532203"},{"town":"奈留町船廻","koaza":"","lat":32.861286,"lng":128.952059,"zip":"8532204"},{"town":"錦町","koaza":"","lat":32.692962,"lng":128.842409,"zip":"8530003"},{"town":"野々切町","koaza":"","lat":32.651129,"lng":128.834272,"zip":"8530024"},{"town":"浜町","koaza":"","lat":32.65241,"lng":128.812264,"zip":"8530026"},{"town":"東浜町一丁目","koaza":"","lat":32.694354,"lng":128.848638,"zip":"8530015"},{"town":"東浜町二丁目","koaza":"","lat":32.69404,"lng":128.850587,"zip":"8530015"},{"town":"東浜町三丁目","koaza":"","lat":32.69236,"lng":128.849876,"zip":"8530015"},{"town":"久賀町","koaza":"","lat":32.786476,"lng":128.873265,"zip":"8532171"},{"town":"平蔵町","koaza":"","lat":32.732151,"lng":128.836283,"zip":"8530051"},{"town":"福江町","koaza":"","lat":32.698602,"lng":128.846935,"zip":"8530007"},{"town":"武家屋敷一丁目","koaza":"","lat":32.691786,"lng":128.844422,"zip":"8530017"},{"town":"武家屋敷二丁目","koaza":"","lat":32.690067,"lng":128.846333,"zip":"8530017"},{"town":"武家屋敷三丁目","koaza":"","lat":32.690695,"lng":128.843601,"zip":"8530017"},{"town":"増田町","koaza":"","lat":32.667742,"lng":128.779041,"zip":"8530027"},{"town":"松山町","koaza":"","lat":32.70519,"lng":128.838608,"zip":"8530052"},{"town":"三井楽町丑ノ浦","koaza":"","lat":32.754771,"lng":128.652716,"zip":"8530606"},{"town":"三井楽町大川","koaza":"","lat":32.765747,"lng":128.684279,"zip":"8530602"},{"town":"三井楽町貝津","koaza":"","lat":32.718402,"lng":128.657606,"zip":"8530604"},{"town":"三井楽町柏","koaza":"","lat":32.778504,"lng":128.664703,"zip":"8530603"},{"town":"三井楽町嵯峨島","koaza":"","lat":32.72571,"lng":128.595755,"zip":"8530611"},{"town":"三井楽町塩水","koaza":"","lat":32.760444,"lng":128.651897,"zip":"8530613"},{"town":"三井楽町高崎","koaza":"","lat":32.772342,"lng":128.678383,"zip":"8530612"},{"town":"三井楽町嶽","koaza":"","lat":32.766382,"lng":128.666676,"zip":"8530607"},{"town":"三井楽町波砂間","koaza":"","lat":32.747734,"lng":128.65547,"zip":"8530608"},{"town":"三井楽町濱窄","koaza":"","lat":32.736556,"lng":128.654698,"zip":"8530605"},{"town":"三井楽町濱ノ畔","koaza":"","lat":32.740755,"lng":128.677119,"zip":"8530601"},{"town":"三井楽町渕ノ元","koaza":"","lat":32.769688,"lng":128.651695,"zip":"8530609"},{"town":"三尾野一丁目","koaza":"","lat":32.692126,"lng":128.83925,"zip":"8530064"},{"town":"三尾野二丁目","koaza":"","lat":32.691667,"lng":128.841065,"zip":"8530064"},{"town":"三尾野三丁目","koaza":"","lat":32.690014,"lng":128.835549,"zip":"8530064"},{"town":"三尾野町","koaza":"","lat":32.68194,"lng":128.831973,"zip":"8530014"},{"town":"向町","koaza":"","lat":32.648095,"lng":128.884254,"zip":"8530022"},{"town":"本窯町","koaza":"","lat":32.770601,"lng":128.998834,"zip":"8532482"},{"town":"吉久木町","koaza":"","lat":32.693403,"lng":128.822581,"zip":"8530031"},{"town":"吉田町","koaza":"","lat":32.688573,"lng":128.78496,"zip":"8530042"},{"town":"蕨町","koaza":"","lat":32.821024,"lng":128.884707,"zip":"8532172"},{"town":"伊福貴町","koaza":"","lat":32.75121,"lng":128.97592,"zip":"8532481"},{"town":"岐宿町戸岐ノ首","koaza":"","lat":32.752337,"lng":128.79075,"zip":"8530705"}]