[{"town":"相生町","koaza":"","lat":33.17673,"lng":129.716102,"zip":"8570044"},{"town":"相浦町","koaza":"","lat":33.195476,"lng":129.660159,"zip":"8580918"},{"town":"赤木町","koaza":"","lat":33.194758,"lng":129.750191,"zip":"8570013"},{"town":"赤崎町","koaza":"","lat":33.153071,"lng":129.699344,"zip":"8570064"},{"town":"浅子町","koaza":"","lat":33.196513,"lng":129.627543,"zip":"8570431"},{"town":"愛宕町","koaza":"","lat":33.198356,"lng":129.669886,"zip":"8580917"},{"town":"有福町","koaza":"","lat":33.1316,"lng":129.781037,"zip":"8593241"},{"town":"庵浦町","koaza":"","lat":33.128368,"lng":129.701124,"zip":"8571233"},{"town":"石坂町","koaza":"","lat":33.184762,"lng":129.711821,"zip":"8570037"},{"town":"泉町","koaza":"","lat":33.174655,"lng":129.713048,"zip":"8570057"},{"town":"稲荷町","koaza":"","lat":33.159114,"lng":129.736214,"zip":"8570851"},{"town":"今福町","koaza":"","lat":33.171372,"lng":129.707657,"zip":"8570061"},{"town":"宇久町飯良","koaza":"","lat":33.264332,"lng":129.095856,"zip":"8574813"},{"town":"宇久町大久保","koaza":"","lat":33.279274,"lng":129.092965,"zip":"8574815"},{"town":"宇久町太田江","koaza":"","lat":33.27795,"lng":129.123084,"zip":"8574903"},{"town":"宇久町小浜","koaza":"","lat":33.255326,"lng":129.119372,"zip":"8574812"},{"town":"宇久町神浦","koaza":"","lat":33.257512,"lng":129.103406,"zip":"8574811"},{"town":"宇久町木場","koaza":"","lat":33.282078,"lng":129.110638,"zip":"8574904"},{"town":"宇久町平","koaza":"","lat":33.275163,"lng":129.138811,"zip":"8574901"},{"town":"宇久町寺島","koaza":"","lat":33.253569,"lng":129.069997,"zip":"8574816"},{"town":"宇久町野方","koaza":"","lat":33.29257,"lng":129.129044,"zip":"8574902"},{"town":"宇久町本飯良","koaza":"","lat":33.268735,"lng":129.082909,"zip":"8574814"},{"town":"鵜渡越町","koaza":"","lat":33.174251,"lng":129.700428,"zip":"8570069"},{"town":"梅田町","koaza":"","lat":33.19033,"lng":129.715251,"zip":"8570017"},{"town":"浦川内町","koaza":"","lat":33.114927,"lng":129.811383,"zip":"8593225"},{"town":"上原町","koaza":"","lat":33.152388,"lng":129.805696,"zip":"8593202"},{"town":"上町","koaza":"","lat":33.174959,"lng":129.714191,"zip":"8570058"},{"town":"江上町","koaza":"","lat":33.099591,"lng":129.773848,"zip":"8593244"},{"town":"江永町","koaza":"","lat":33.155325,"lng":129.85043,"zip":"8593165"},{"town":"烏帽子町","koaza":"","lat":33.179666,"lng":129.754214,"zip":"8570001"},{"town":"江迎町赤坂","koaza":"","lat":33.291769,"lng":129.645805,"zip":"8596131"},{"town":"江迎町飯良坂","koaza":"","lat":33.325641,"lng":129.636177,"zip":"8596111"},{"town":"江迎町猪調","koaza":"","lat":33.285074,"lng":129.672513,"zip":"8596133"},{"town":"江迎町箙尾","koaza":"","lat":33.314472,"lng":129.661861,"zip":"8596114"},{"town":"江迎町奥川内","koaza":"","lat":33.306849,"lng":129.660912,"zip":"8596121"},{"town":"江迎町梶ノ村","koaza":"","lat":33.33116,"lng":129.626261,"zip":"8596105"},{"town":"江迎町上川内","koaza":"","lat":33.318913,"lng":129.63074,"zip":"8596102"},{"town":"江迎町北田","koaza":"","lat":33.334373,"lng":129.635883,"zip":"8596106"},{"town":"江迎町栗越","koaza":"","lat":33.323345,"lng":129.651699,"zip":"8596113"},{"town":"江迎町小川内","koaza":"","lat":33.295948,"lng":129.65176,"zip":"8596123"},{"town":"江迎町志戸氏","koaza":"","lat":33.282434,"lng":129.656156,"zip":"8596132"},{"town":"江迎町末橘","koaza":"","lat":33.320082,"lng":129.61531,"zip":"8596104"},{"town":"江迎町田ノ元","koaza":"","lat":33.285143,"lng":129.685188,"zip":"8596134"},{"town":"江迎町中尾","koaza":"","lat":33.311614,"lng":129.63922,"zip":"8596115"},{"town":"江迎町長坂","koaza":"","lat":33.310282,"lng":129.629359,"zip":"8596101"},{"town":"江迎町七腕","koaza":"","lat":33.295827,"lng":129.667026,"zip":"8596122"},{"town":"江迎町根引","koaza":"","lat":33.322384,"lng":129.644158,"zip":"8596112"},{"town":"江迎町三浦","koaza":"","lat":33.302497,"lng":129.633596,"zip":"8596125"},{"town":"江迎町乱橋","koaza":"","lat":33.285272,"lng":129.637111,"zip":"8596124"},{"town":"江迎町北平","koaza":"","lat":33.300598,"lng":129.649978,"zip":"8596126"},{"town":"大潟町","koaza":"","lat":33.177844,"lng":129.656353,"zip":"8580926"},{"town":"大岳台町","koaza":"","lat":33.148921,"lng":129.762257,"zip":"8571163"},{"town":"大野町","koaza":"","lat":33.211037,"lng":129.734104,"zip":"8570131"},{"town":"大宮町","koaza":"","lat":33.157329,"lng":129.740904,"zip":"8570841"},{"town":"小川内町","koaza":"","lat":33.235099,"lng":129.700199,"zip":"8570146"},{"town":"沖新町","koaza":"","lat":33.147432,"lng":129.747717,"zip":"8571171"},{"town":"奥山町","koaza":"","lat":33.083161,"lng":129.829789,"zip":"8593233"},{"town":"踊石町","koaza":"","lat":33.222139,"lng":129.691482,"zip":"8580902"},{"town":"小野町","koaza":"","lat":33.185551,"lng":129.690948,"zip":"8570065"},{"town":"折橋町","koaza":"","lat":33.188213,"lng":129.725528,"zip":"8570021"},{"town":"卸本町","koaza":"","lat":33.15078,"lng":129.770444,"zip":"8571162"},{"town":"皆瀬町","koaza":"","lat":33.216112,"lng":129.700118,"zip":"8570144"},{"town":"鹿子前町","koaza":"","lat":33.160796,"lng":129.684366,"zip":"8580922"},{"town":"春日町","koaza":"","lat":33.198202,"lng":129.72274,"zip":"8570011"},{"town":"勝海町","koaza":"","lat":33.140864,"lng":129.78916,"zip":"8593216"},{"town":"勝富町","koaza":"","lat":33.174213,"lng":129.729428,"zip":"8570803"},{"town":"上相浦町","koaza":"","lat":33.193287,"lng":129.668366,"zip":"8580915"},{"town":"上京町","koaza":"","lat":33.169895,"lng":129.722782,"zip":"8570872"},{"town":"神島町","koaza":"","lat":33.167308,"lng":129.704464,"zip":"8570067"},{"town":"上本山町","koaza":"","lat":33.212261,"lng":129.69114,"zip":"8580903"},{"town":"上柚木町","koaza":"","lat":33.218031,"lng":129.781537,"zip":"8570126"},{"town":"川下町","koaza":"","lat":33.187085,"lng":129.66705,"zip":"8580914"},{"town":"川谷町","koaza":"","lat":33.192787,"lng":129.788776,"zip":"8570123"},{"town":"祇園町","koaza":"","lat":33.175655,"lng":129.723962,"zip":"8570801"},{"town":"木風町","koaza":"","lat":33.168973,"lng":129.747241,"zip":"8571166"},{"town":"木宮町","koaza":"","lat":33.194741,"lng":129.66718,"zip":"8580916"},{"town":"木原町","koaza":"","lat":33.166675,"lng":129.857024,"zip":"8593166"},{"town":"京坪町","koaza":"","lat":33.170414,"lng":129.724667,"zip":"8570874"},{"town":"潜木町","koaza":"","lat":33.21641,"lng":129.796847,"zip":"8570121"},{"town":"楠木町","koaza":"","lat":33.22483,"lng":129.718785,"zip":"8570104"},{"town":"口の尾町","koaza":"","lat":33.164869,"lng":129.825436,"zip":"8593161"},{"town":"熊野町","koaza":"","lat":33.178272,"lng":129.721399,"zip":"8570025"},{"town":"黒髪町","koaza":"","lat":33.170924,"lng":129.781555,"zip":"8571152"},{"town":"黒島町","koaza":"","lat":33.141499,"lng":129.533502,"zip":"8573271"},{"town":"桑木場町","koaza":"","lat":33.154773,"lng":129.816671,"zip":"8593157"},{"town":"光月町","koaza":"","lat":33.172648,"lng":129.72412,"zip":"8570805"},{"town":"高天町","koaza":"","lat":33.172865,"lng":129.726752,"zip":"8570802"},{"town":"心野町","koaza":"","lat":33.179709,"lng":129.814669,"zip":"8593164"},{"town":"小佐々町楠泊","koaza":"","lat":33.221896,"lng":129.582124,"zip":"8570413"},{"town":"小佐々町黒石","koaza":"","lat":33.224071,"lng":129.631856,"zip":"8570401"},{"town":"小佐々町小坂","koaza":"","lat":33.209538,"lng":129.629683,"zip":"8570402"},{"town":"小佐々町岳ノ木場","koaza":"","lat":33.254131,"lng":129.609866,"zip":"8570411"},{"town":"小佐々町田原","koaza":"","lat":33.228489,"lng":129.620545,"zip":"8570404"},{"town":"小佐々町葛籠","koaza":"","lat":33.234041,"lng":129.627341,"zip":"8570405"},{"town":"小佐々町西川内","koaza":"","lat":33.229726,"lng":129.605626,"zip":"8570412"},{"town":"小佐々町平原","koaza":"","lat":33.245757,"lng":129.617479,"zip":"8570406"},{"town":"小佐世保町","koaza":"","lat":33.176854,"lng":129.739409,"zip":"8570813"},{"town":"小島町","koaza":"","lat":33.166586,"lng":129.698364,"zip":"8570066"},{"town":"木場田町","koaza":"","lat":33.179391,"lng":129.713562,"zip":"8570041"},{"town":"小舟町","koaza":"","lat":33.201004,"lng":129.755586,"zip":"8570114"},{"town":"菰田町","koaza":"","lat":33.241897,"lng":129.72248,"zip":"8570106"},{"town":"権常寺一丁目","koaza":"","lat":33.132869,"lng":129.801218,"zip":"8593214"},{"town":"権常寺町","koaza":"","lat":33.134686,"lng":129.80859,"zip":"8593213"},{"town":"金比良町","koaza":"","lat":33.170321,"lng":129.705699,"zip":"8570062"},{"town":"栄町","koaza":"","lat":33.173112,"lng":129.719485,"zip":"8570054"},{"town":"崎岡町","koaza":"","lat":33.109196,"lng":129.800728,"zip":"8593226"},{"town":"崎辺町","koaza":"","lat":33.1314,"lng":129.730257,"zip":"8571176"},{"town":"桜木町","koaza":"","lat":33.196249,"lng":129.731936,"zip":"8570012"},{"town":"指方町","koaza":"","lat":33.106861,"lng":129.782664,"zip":"8593242"},{"town":"里美町","koaza":"","lat":33.192257,"lng":129.804681,"zip":"8570122"},{"town":"早苗町","koaza":"","lat":33.146869,"lng":129.800481,"zip":"8593211"},{"town":"椎木町","koaza":"","lat":33.177732,"lng":129.672014,"zip":"8580925"},{"town":"塩浜町","koaza":"","lat":33.166677,"lng":129.721596,"zip":"8570876"},{"town":"塩浸町","koaza":"","lat":33.143999,"lng":129.830275,"zip":"8593154"},{"town":"潮見町","koaza":"","lat":33.162818,"lng":129.73013,"zip":"8570834"},{"town":"鹿町町大屋","koaza":"","lat":33.28715,"lng":129.593595,"zip":"8596201"},{"town":"鹿町町上歌ヶ浦","koaza":"","lat":33.255005,"lng":129.593352,"zip":"8596202"},{"town":"鹿町町九十九島","koaza":"","lat":33.265577,"lng":129.56307,"zip":"8570000"},{"town":"鹿町町口ノ里","koaza":"","lat":33.298227,"lng":129.601015,"zip":"8596203"},{"town":"鹿町町鹿町","koaza":"","lat":33.287082,"lng":129.615396,"zip":"8596144"},{"town":"鹿町町下歌ヶ浦","koaza":"","lat":33.270515,"lng":129.591459,"zip":"8596204"},{"town":"鹿町町新深江","koaza":"","lat":33.307282,"lng":129.62735,"zip":"8596141"},{"town":"鹿町町土肥ノ浦","koaza":"","lat":33.302888,"lng":129.614716,"zip":"8596145"},{"town":"鹿町町中野","koaza":"","lat":33.26848,"lng":129.606552,"zip":"8596205"},{"town":"鹿町町長串","koaza":"","lat":33.25387,"lng":129.574545,"zip":"8596206"},{"town":"鹿町町深江","koaza":"","lat":33.301041,"lng":129.622363,"zip":"8596142"},{"town":"鹿町町深江潟","koaza":"","lat":33.308293,"lng":129.62413,"zip":"8596143"},{"town":"鹿町町船ノ村","koaza":"","lat":33.269777,"lng":129.617743,"zip":"8596207"},{"town":"重尾町","koaza":"","lat":33.116917,"lng":129.829777,"zip":"8593224"},{"town":"島瀬町","koaza":"","lat":33.172356,"lng":129.721566,"zip":"8570806"},{"town":"島地町","koaza":"","lat":33.168791,"lng":129.720205,"zip":"8570879"},{"town":"清水町","koaza":"","lat":33.184379,"lng":129.706461,"zip":"8570036"},{"town":"下宇戸町","koaza":"","lat":33.189853,"lng":129.770971,"zip":"8570113"},{"town":"下京町","koaza":"","lat":33.168602,"lng":129.723164,"zip":"8570875"},{"town":"下の原町","koaza":"","lat":33.132329,"lng":129.82397,"zip":"8593156"},{"town":"下船越町","koaza":"","lat":33.133159,"lng":129.69283,"zip":"8571232"},{"town":"下本山町","koaza":"","lat":33.209537,"lng":129.675666,"zip":"8580905"},{"town":"十郎新町","koaza":"","lat":33.138441,"lng":129.741056,"zip":"8571173"},{"town":"城間町","koaza":"","lat":33.097049,"lng":129.815098,"zip":"8593237"},{"town":"白木町","koaza":"","lat":33.171893,"lng":129.735121,"zip":"8570821"},{"town":"白岳町","koaza":"","lat":33.14909,"lng":129.754989,"zip":"8571164"},{"town":"白仁田町","koaza":"","lat":33.230459,"lng":129.709326,"zip":"8570105"},{"town":"白南風町","koaza":"","lat":33.166102,"lng":129.729457,"zip":"8570862"},{"town":"城山町","koaza":"","lat":33.183428,"lng":129.717696,"zip":"8570033"},{"town":"新替町","koaza":"","lat":33.144527,"lng":129.82441,"zip":"8593158"},{"town":"新行江町","koaza":"","lat":33.150489,"lng":129.838307,"zip":"8593152"},{"town":"新田町","koaza":"","lat":33.191212,"lng":129.673933,"zip":"8580913"},{"town":"陣の内町","koaza":"","lat":33.15021,"lng":129.792104,"zip":"8593203"},{"town":"新港町","koaza":"","lat":33.163593,"lng":129.721903,"zip":"8570855"},{"town":"須佐町","koaza":"","lat":33.178792,"lng":129.733816,"zip":"8570812"},{"town":"須田尾町","koaza":"","lat":33.166272,"lng":129.737163,"zip":"8570831"},{"town":"星和台町","koaza":"","lat":33.174642,"lng":129.679562,"zip":"8580924"},{"town":"世知原町赤木場","koaza":"","lat":33.253851,"lng":129.784665,"zip":"8596401"},{"town":"世知原町岩谷口","koaza":"","lat":33.274135,"lng":129.722462,"zip":"8596402"},{"town":"世知原町太田","koaza":"","lat":33.260534,"lng":129.733987,"zip":"8596404"},{"town":"世知原町木浦原","koaza":"","lat":33.27165,"lng":129.746046,"zip":"8596406"},{"town":"世知原町北川内","koaza":"","lat":33.258755,"lng":129.76408,"zip":"8596407"},{"town":"世知原町栗迎","koaza":"","lat":33.265373,"lng":129.768823,"zip":"8596408"},{"town":"世知原町長田代","koaza":"","lat":33.247392,"lng":129.741262,"zip":"8596411"},{"town":"世知原町中通","koaza":"","lat":33.252335,"lng":129.76918,"zip":"8596409"},{"town":"世知原町笥瀬","koaza":"","lat":33.263851,"lng":129.742475,"zip":"8596413"},{"town":"世知原町矢櫃","koaza":"","lat":33.254503,"lng":129.745138,"zip":"8596414"},{"town":"世知原町槍巻","koaza":"","lat":33.245543,"lng":129.774604,"zip":"8596415"},{"town":"瀬道町","koaza":"","lat":33.103089,"lng":129.832879,"zip":"8593231"},{"town":"瀬戸越一丁目","koaza":"","lat":33.204381,"lng":129.733163,"zip":"8570134"},{"town":"瀬戸越二丁目","koaza":"","lat":33.208928,"lng":129.734208,"zip":"8570134"},{"town":"瀬戸越三丁目","koaza":"","lat":33.205335,"lng":129.728091,"zip":"8570134"},{"town":"瀬戸越四丁目","koaza":"","lat":33.20483,"lng":129.723876,"zip":"8570134"},{"town":"瀬戸越町","koaza":"","lat":33.204196,"lng":129.716146,"zip":"8570135"},{"town":"園田町","koaza":"","lat":33.1761,"lng":129.713289,"zip":"8570045"},{"town":"大黒町","koaza":"","lat":33.151917,"lng":129.735049,"zip":"8570843"},{"town":"大塔町","koaza":"","lat":33.150342,"lng":129.778495,"zip":"8571161"},{"town":"高砂町","koaza":"","lat":33.178817,"lng":129.716225,"zip":"8570042"},{"town":"高島町","koaza":"","lat":33.177679,"lng":129.58717,"zip":"8580931"},{"town":"高梨町","koaza":"","lat":33.180631,"lng":129.732272,"zip":"8570811"},{"town":"高花町","koaza":"","lat":33.204091,"lng":129.789571,"zip":"8570125"},{"town":"岳野町","koaza":"","lat":33.219971,"lng":129.68373,"zip":"8580901"},{"town":"竹辺町","koaza":"","lat":33.197162,"lng":129.680561,"zip":"8580911"},{"town":"田代町","koaza":"","lat":33.188727,"lng":129.747134,"zip":"8570014"},{"town":"立神町","koaza":"","lat":33.163334,"lng":129.70015,"zip":"8570063"},{"town":"棚方町","koaza":"","lat":33.204893,"lng":129.660565,"zip":"8580907"},{"town":"谷郷町","koaza":"","lat":33.177369,"lng":129.718398,"zip":"8570027"},{"town":"田の浦町","koaza":"","lat":33.151005,"lng":129.786891,"zip":"8593205"},{"town":"田原町","koaza":"","lat":33.208802,"lng":129.72056,"zip":"8570136"},{"town":"俵ヶ浦町","koaza":"","lat":33.117143,"lng":129.665032,"zip":"8570000"},{"town":"俵町","koaza":"","lat":33.189263,"lng":129.718852,"zip":"8570016"},{"town":"知見寺町","koaza":"","lat":33.230477,"lng":129.73879,"zip":"8570101"},{"town":"天神一丁目","koaza":"","lat":33.151763,"lng":129.7413,"zip":"8571174"},{"town":"天神二丁目","koaza":"","lat":33.150063,"lng":129.74344,"zip":"8571174"},{"town":"天神三丁目","koaza":"","lat":33.145796,"lng":129.743292,"zip":"8571174"},{"town":"天神四丁目","koaza":"","lat":33.140927,"lng":129.738575,"zip":"8571174"},{"town":"天神五丁目","koaza":"","lat":33.147841,"lng":129.736829,"zip":"8571174"},{"town":"天神町","koaza":"","lat":33.141634,"lng":129.729762,"zip":"8571175"},{"town":"天満町","koaza":"","lat":33.177621,"lng":129.715543,"zip":"8570043"},{"town":"戸ヶ倉町","koaza":"","lat":33.197283,"lng":129.792958,"zip":"8570000"},{"town":"常盤町","koaza":"","lat":33.174196,"lng":129.7191,"zip":"8570053"},{"town":"戸尾町","koaza":"","lat":33.168903,"lng":129.725365,"zip":"8570864"},{"town":"十文野町","koaza":"","lat":33.222951,"lng":129.709631,"zip":"8570141"},{"town":"長尾町","koaza":"","lat":33.175199,"lng":129.711681,"zip":"8570046"},{"town":"長坂町","koaza":"","lat":33.16957,"lng":129.690938,"zip":"8580921"},{"town":"中里町","koaza":"","lat":33.196367,"lng":129.699103,"zip":"8580904"},{"town":"中通町","koaza":"","lat":33.19108,"lng":129.707885,"zip":"8570038"},{"town":"長畑町","koaza":"","lat":33.080785,"lng":129.813465,"zip":"8593234"},{"town":"中原町","koaza":"","lat":33.131641,"lng":129.811972,"zip":"8593221"},{"town":"名切町","koaza":"","lat":33.180646,"lng":129.72701,"zip":"8570023"},{"town":"西大久保町","koaza":"","lat":33.176354,"lng":129.710866,"zip":"8570048"},{"town":"野崎町","koaza":"","lat":33.120704,"lng":129.687238,"zip":"8571234"},{"town":"野中町","koaza":"","lat":33.213801,"lng":129.709469,"zip":"8570142"},{"town":"早岐一丁目","koaza":"","lat":33.135192,"lng":129.798965,"zip":"8593215"},{"town":"早岐二丁目","koaza":"","lat":33.138101,"lng":129.795886,"zip":"8593215"},{"town":"早岐三丁目","koaza":"","lat":33.139717,"lng":129.792635,"zip":"8593215"},{"town":"ハウステンボス町","koaza":"","lat":33.090832,"lng":129.790475,"zip":"8593243"},{"town":"南風崎町","koaza":"","lat":33.092444,"lng":129.803469,"zip":"8593236"},{"town":"萩坂町","koaza":"","lat":33.092051,"lng":129.832094,"zip":"8593232"},{"town":"八の久保町","koaza":"","lat":33.21708,"lng":129.675682,"zip":"8580906"},{"town":"八幡町","koaza":"","lat":33.181799,"lng":129.718783,"zip":"8570028"},{"town":"花園町","koaza":"","lat":33.182236,"lng":129.723262,"zip":"8570024"},{"town":"花高一丁目","koaza":"","lat":33.13901,"lng":129.805819,"zip":"8593212"},{"town":"花高二丁目","koaza":"","lat":33.14248,"lng":129.806809,"zip":"8593212"},{"town":"花高三丁目","koaza":"","lat":33.141665,"lng":129.811097,"zip":"8593212"},{"town":"花高四丁目","koaza":"","lat":33.138964,"lng":129.813108,"zip":"8593212"},{"town":"浜田町","koaza":"","lat":33.175599,"lng":129.716984,"zip":"8570051"},{"town":"針尾北町","koaza":"","lat":33.110643,"lng":129.7571,"zip":"8593454"},{"town":"針尾中町","koaza":"","lat":33.079073,"lng":129.752985,"zip":"8593452"},{"town":"針尾西町","koaza":"","lat":33.090426,"lng":129.743507,"zip":"8593453"},{"town":"針尾東町","koaza":"","lat":33.077216,"lng":129.760072,"zip":"8593451"},{"town":"原分町","koaza":"","lat":33.218382,"lng":129.725907,"zip":"8570103"},{"town":"日宇町","koaza":"","lat":33.163334,"lng":129.761367,"zip":"8571151"},{"town":"東大久保町","koaza":"","lat":33.178218,"lng":129.70834,"zip":"8570049"},{"town":"東浜町","koaza":"","lat":33.139643,"lng":129.743615,"zip":"8571172"},{"town":"東山町","koaza":"","lat":33.15413,"lng":129.739693,"zip":"8570842"},{"town":"光町","koaza":"","lat":33.200681,"lng":129.646967,"zip":"8580908"},{"town":"日野町","koaza":"","lat":33.169044,"lng":129.674137,"zip":"8580923"},{"town":"平瀬町","koaza":"","lat":33.167693,"lng":129.714658,"zip":"8570056"},{"town":"比良町","koaza":"","lat":33.178735,"lng":129.71161,"zip":"8570040"},{"town":"平松町","koaza":"","lat":33.167192,"lng":129.805032,"zip":"8593201"},{"town":"広田一丁目","koaza":"","lat":33.127868,"lng":129.800795,"zip":"8593223"},{"town":"広田二丁目","koaza":"","lat":33.127916,"lng":129.796394,"zip":"8593223"},{"town":"広田三丁目","koaza":"","lat":33.122443,"lng":129.80306,"zip":"8593223"},{"town":"広田四丁目","koaza":"","lat":33.122998,"lng":129.796886,"zip":"8593223"},{"town":"広田町","koaza":"","lat":33.129708,"lng":129.813973,"zip":"8593222"},{"town":"福石町","koaza":"","lat":33.16006,"lng":129.730382,"zip":"8570854"},{"town":"福田町","koaza":"","lat":33.1821,"lng":129.710093,"zip":"8570035"},{"town":"藤原町","koaza":"","lat":33.162163,"lng":129.739895,"zip":"8570832"},{"town":"船越町","koaza":"","lat":33.147113,"lng":129.693177,"zip":"8571231"},{"town":"母ヶ浦町","koaza":"","lat":33.180786,"lng":129.681908,"zip":"8570000"},{"town":"保立町","koaza":"","lat":33.187744,"lng":129.713956,"zip":"8570031"},{"town":"前畑町","koaza":"","lat":33.144372,"lng":129.726955,"zip":"8570853"},{"town":"牧の地町","koaza":"","lat":33.226774,"lng":129.696596,"zip":"8570145"},{"town":"松浦町","koaza":"","lat":33.174892,"lng":129.717955,"zip":"8570052"},{"town":"松川町","koaza":"","lat":33.171341,"lng":129.727011,"zip":"8570804"},{"town":"松瀬町","koaza":"","lat":33.215683,"lng":129.73678,"zip":"8570102"},{"town":"松原町","koaza":"","lat":33.206516,"lng":129.74274,"zip":"8570132"},{"town":"松山町","koaza":"","lat":33.191336,"lng":129.724053,"zip":"8570015"},{"town":"万徳町","koaza":"","lat":33.183067,"lng":129.715472,"zip":"8570034"},{"town":"三浦町","koaza":"","lat":33.165777,"lng":129.724978,"zip":"8570863"},{"town":"三川内新町","koaza":"","lat":33.140159,"lng":129.839927,"zip":"8593153"},{"town":"三川内町","koaza":"","lat":33.131921,"lng":129.840633,"zip":"8593155"},{"town":"三川内本町","koaza":"","lat":33.152595,"lng":129.828282,"zip":"8593151"},{"town":"湊町","koaza":"","lat":33.172342,"lng":129.718357,"zip":"8570055"},{"town":"峰坂町","koaza":"","lat":33.17048,"lng":129.729663,"zip":"8570861"},{"town":"御船町","koaza":"","lat":33.169241,"lng":129.703487,"zip":"8570068"},{"town":"宮崎町","koaza":"","lat":33.171427,"lng":129.724581,"zip":"8570873"},{"town":"宮地町","koaza":"","lat":33.175254,"lng":129.720877,"zip":"8570026"},{"town":"宮田町","koaza":"","lat":33.184719,"lng":129.719186,"zip":"8570032"},{"town":"宮津町","koaza":"","lat":33.07489,"lng":129.810497,"zip":"8593235"},{"town":"本島町","koaza":"","lat":33.170688,"lng":129.7218,"zip":"8570871"},{"town":"元町","koaza":"","lat":33.175053,"lng":129.715305,"zip":"8570059"},{"town":"もみじが丘町","koaza":"","lat":33.159999,"lng":129.778174,"zip":"8571153"},{"town":"矢岳町","koaza":"","lat":33.175985,"lng":129.706807,"zip":"8570047"},{"town":"山県町","koaza":"","lat":33.16775,"lng":129.721559,"zip":"8570878"},{"town":"山祇町","koaza":"","lat":33.168108,"lng":129.734041,"zip":"8570822"},{"town":"山手町","koaza":"","lat":33.185775,"lng":129.731663,"zip":"8570022"},{"town":"大和町","koaza":"","lat":33.159208,"lng":129.749921,"zip":"8571165"},{"town":"矢峰町","koaza":"","lat":33.206512,"lng":129.748211,"zip":"8570133"},{"town":"柚木町","koaza":"","lat":33.206587,"lng":129.771862,"zip":"8570112"},{"town":"柚木元町","koaza":"","lat":33.22006,"lng":129.753535,"zip":"8570115"},{"town":"横尾町","koaza":"","lat":33.1963,"lng":129.712952,"zip":"8570018"},{"town":"横手町","koaza":"","lat":33.174228,"lng":129.831586,"zip":"8593163"},{"town":"吉井町板樋","koaza":"","lat":33.293784,"lng":129.709922,"zip":"8596303"},{"town":"吉井町大渡","koaza":"","lat":33.267113,"lng":129.689653,"zip":"8596325"},{"town":"吉井町乙石尾","koaza":"","lat":33.247585,"lng":129.699024,"zip":"8596316"},{"town":"吉井町踊瀬","koaza":"","lat":33.266098,"lng":129.703089,"zip":"8596322"},{"town":"吉井町梶木場","koaza":"","lat":33.282446,"lng":129.719878,"zip":"8596304"},{"town":"吉井町上吉田","koaza":"","lat":33.255124,"lng":129.721971,"zip":"8596313"},{"town":"吉井町下原","koaza":"","lat":33.252677,"lng":129.701417,"zip":"8596315"},{"town":"吉井町草ノ尾","koaza":"","lat":33.301588,"lng":129.685115,"zip":"8596301"},{"town":"吉井町高峰","koaza":"","lat":33.245582,"lng":129.68932,"zip":"8596317"},{"town":"吉井町立石","koaza":"","lat":33.270532,"lng":129.679553,"zip":"8596326"},{"town":"吉井町田原","koaza":"","lat":33.254748,"lng":129.708537,"zip":"8596314"},{"town":"吉井町直谷","koaza":"","lat":33.281675,"lng":129.698957,"zip":"8596305"},{"town":"吉井町橋川内","koaza":"","lat":33.26596,"lng":129.714208,"zip":"8596311"},{"town":"吉井町橋口","koaza":"","lat":33.26408,"lng":129.724847,"zip":"8596312"},{"town":"吉井町春明","koaza":"","lat":33.272185,"lng":129.706919,"zip":"8596323"},{"town":"吉井町福井","koaza":"","lat":33.300803,"lng":129.69993,"zip":"8596302"},{"town":"吉井町前岳","koaza":"","lat":33.272252,"lng":129.694207,"zip":"8596321"},{"town":"吉井町吉元","koaza":"","lat":33.263425,"lng":129.690849,"zip":"8596324"},{"town":"吉岡町","koaza":"","lat":33.205733,"lng":129.701908,"zip":"8570143"},{"town":"吉福町","koaza":"","lat":33.163479,"lng":129.83717,"zip":"8593162"},{"town":"万津町","koaza":"","lat":33.165016,"lng":129.720487,"zip":"8570877"},{"town":"若竹台町","koaza":"","lat":33.145904,"lng":129.787576,"zip":"8593204"},{"town":"若葉町","koaza":"","lat":33.161619,"lng":129.734239,"zip":"8570833"},{"town":"世知原町開作","koaza":"","lat":33.236463,"lng":129.79655,"zip":"8596405"},{"town":"筒井町","koaza":"","lat":33.220331,"lng":129.768967,"zip":"8570111"},{"town":"世知原町上野原","koaza":"","lat":33.239008,"lng":129.760132,"zip":"8596403"},{"town":"世知原町西ノ岳","koaza":"","lat":33.229271,"lng":129.778538,"zip":"8596412"},{"town":"小佐々町臼ノ浦","koaza":"","lat":33.215218,"lng":129.612994,"zip":"8570403"},{"town":"江迎町埋立","koaza":"","lat":33.313319,"lng":129.612102,"zip":"8596103"},{"town":"干尽町","koaza":"","lat":33.154411,"lng":129.729089,"zip":"8570852"},{"town":"小佐々町矢岳","koaza":"","lat":33.232024,"lng":129.575801,"zip":"8570414"},{"town":"ひうみ町","koaza":"","lat":null,"lng":null,"zip":null}]