[{"town":"石木場免","koaza":"","lat":33.249739,"lng":129.662427,"zip":"8570334"},{"town":"市瀬免","koaza":"","lat":33.262064,"lng":129.655708,"zip":"8570321"},{"town":"市場免","koaza":"","lat":33.233646,"lng":129.645871,"zip":"8570312"},{"town":"江里免","koaza":"","lat":33.27144,"lng":129.651053,"zip":"8570323"},{"town":"大茂免","koaza":"","lat":33.263395,"lng":129.638221,"zip":"8570324"},{"town":"沖田免","koaza":"","lat":33.228773,"lng":129.642002,"zip":"8570353"},{"town":"皆瀬免","koaza":"","lat":33.255982,"lng":129.673841,"zip":"8570335"},{"town":"鴨川免","koaza":"","lat":33.254752,"lng":129.649936,"zip":"8570313"},{"town":"口石免","koaza":"","lat":33.222734,"lng":129.663386,"zip":"8570352"},{"town":"栗林免","koaza":"","lat":33.245178,"lng":129.660003,"zip":"8570332"},{"town":"神田免","koaza":"","lat":33.25701,"lng":129.667049,"zip":"8570336"},{"town":"小浦免","koaza":"","lat":33.216172,"lng":129.649939,"zip":"8570361"},{"town":"木場免","koaza":"","lat":33.234805,"lng":129.67237,"zip":"8570343"},{"town":"志方免","koaza":"","lat":33.244825,"lng":129.632016,"zip":"8570315"},{"town":"須崎免","koaza":"","lat":33.227067,"lng":129.648858,"zip":"8570351"},{"town":"角山免","koaza":"","lat":33.246787,"lng":129.666984,"zip":"8570338"},{"town":"中川原免","koaza":"","lat":33.249446,"lng":129.657674,"zip":"8570333"},{"town":"野寄免","koaza":"","lat":33.24214,"lng":129.66088,"zip":"8570331"},{"town":"羽須和免","koaza":"","lat":33.234568,"lng":129.652064,"zip":"8570341"},{"town":"平野免","koaza":"","lat":33.237043,"lng":129.662181,"zip":"8570342"},{"town":"古川免","koaza":"","lat":33.24468,"lng":129.645392,"zip":"8570314"},{"town":"本田原免","koaza":"","lat":33.240185,"lng":129.651096,"zip":"8570311"},{"town":"松瀬免","koaza":"","lat":33.266797,"lng":129.667027,"zip":"8570322"},{"town":"迎木場免","koaza":"","lat":33.229834,"lng":129.682994,"zip":"8570344"},{"town":"八口免","koaza":"","lat":33.253728,"lng":129.682617,"zip":"8570337"},{"town":"松瀬免","koaza":"狩立","lat":33.25962,"lng":129.664754,"zip":"8570322"}]