[{"town":"有家町石田","koaza":"","lat":32.676694,"lng":130.324391,"zip":"8592121"},{"town":"有家町大苑","koaza":"","lat":32.679197,"lng":130.331306,"zip":"8592122"},{"town":"有家町尾上","koaza":"","lat":32.702958,"lng":130.30417,"zip":"8592203"},{"town":"有家町蒲河","koaza":"","lat":32.674149,"lng":130.31603,"zip":"8592204"},{"town":"有家町久保","koaza":"","lat":32.668058,"lng":130.301353,"zip":"8592201"},{"town":"有家町小川","koaza":"","lat":32.658635,"lng":130.310411,"zip":"8592205"},{"town":"有家町中須川","koaza":"","lat":32.659534,"lng":130.302475,"zip":"8592206"},{"town":"有家町原尾","koaza":"","lat":32.694079,"lng":130.322652,"zip":"8592123"},{"town":"有家町山川","koaza":"","lat":32.669243,"lng":130.30792,"zip":"8592202"},{"town":"加津佐町乙","koaza":"","lat":32.642831,"lng":130.151914,"zip":"8592605"},{"town":"加津佐町己","koaza":"","lat":32.625277,"lng":130.171751,"zip":"8592601"},{"town":"加津佐町甲","koaza":"","lat":32.64755,"lng":130.136532,"zip":"8592606"},{"town":"加津佐町丁","koaza":"","lat":32.648192,"lng":130.188281,"zip":"8592605"},{"town":"加津佐町丙","koaza":"","lat":32.645651,"lng":130.169698,"zip":"8592604"},{"town":"加津佐町戊","koaza":"","lat":32.636546,"lng":130.19462,"zip":"8592602"},{"town":"北有馬町乙","koaza":"","lat":32.679588,"lng":130.210676,"zip":"8592302"},{"town":"北有馬町己","koaza":"","lat":32.675925,"lng":130.255491,"zip":"8592306"},{"town":"北有馬町甲","koaza":"","lat":32.6647,"lng":130.205215,"zip":"8592301"},{"town":"北有馬町丁","koaza":"","lat":32.677746,"lng":130.243217,"zip":"8592302"},{"town":"北有馬町丙","koaza":"","lat":32.680381,"lng":130.230874,"zip":"8592303"},{"town":"北有馬町戊","koaza":"","lat":32.667407,"lng":130.250705,"zip":"8592305"},{"town":"口之津町乙","koaza":"","lat":32.597232,"lng":130.176791,"zip":"8592501"},{"town":"口之津町甲","koaza":"","lat":32.608752,"lng":130.180026,"zip":"8592502"},{"town":"口之津町丁","koaza":"","lat":32.615883,"lng":130.202555,"zip":"8592501"},{"town":"西有家町里坊","koaza":"","lat":32.664517,"lng":130.296883,"zip":"8592211"},{"town":"西有家町慈恩寺","koaza":"","lat":32.695101,"lng":130.275323,"zip":"8592214"},{"town":"西有家町須川","koaza":"","lat":32.65998,"lng":130.287761,"zip":"8592212"},{"town":"西有家町龍石","koaza":"","lat":32.669855,"lng":130.268209,"zip":"8592216"},{"town":"西有家町長野","koaza":"","lat":32.691372,"lng":130.264417,"zip":"8592215"},{"town":"西有家町見岳","koaza":"","lat":32.695242,"lng":130.288472,"zip":"8592213"},{"town":"深江町乙","koaza":"","lat":32.723429,"lng":130.332543,"zip":"8591502"},{"town":"深江町甲","koaza":"","lat":32.722015,"lng":130.320167,"zip":"8591501"},{"town":"深江町丁","koaza":"","lat":32.73079,"lng":130.353759,"zip":"8591502"},{"town":"深江町丙","koaza":"","lat":32.721018,"lng":130.341998,"zip":"8591503"},{"town":"深江町戊","koaza":"","lat":32.738842,"lng":130.331781,"zip":"8591505"},{"town":"布津町乙","koaza":"","lat":32.694301,"lng":130.349654,"zip":"8592112"},{"town":"布津町甲","koaza":"","lat":32.682775,"lng":130.348916,"zip":"8592111"},{"town":"布津町丙","koaza":"","lat":32.71008,"lng":130.318807,"zip":"8592113"},{"town":"南有馬町乙","koaza":"","lat":32.631484,"lng":130.242043,"zip":"8592412"},{"town":"南有馬町己","koaza":"","lat":32.659389,"lng":130.18226,"zip":"8592316"},{"town":"南有馬町甲","koaza":"","lat":32.619223,"lng":130.223023,"zip":"8592411"},{"town":"南有馬町丁","koaza":"","lat":32.639088,"lng":130.247559,"zip":"8592412"},{"town":"南有馬町丙","koaza":"","lat":32.640367,"lng":130.22366,"zip":"8592413"},{"town":"南有馬町戊","koaza":"","lat":32.649172,"lng":130.256079,"zip":"8592415"},{"town":"口之津町丙","koaza":"","lat":32.622198,"lng":130.189315,"zip":"8592504"}]