[{"town":"芦辺町芦辺浦","koaza":"","lat":33.801158,"lng":129.759952,"zip":"8115301"},{"town":"芦辺町国分川迎触","koaza":"","lat":33.795469,"lng":129.709962,"zip":"8115733"},{"town":"芦辺町国分当田触","koaza":"","lat":33.807933,"lng":129.732357,"zip":"8115731"},{"town":"芦辺町国分東触","koaza":"","lat":33.802203,"lng":129.724247,"zip":"8115732"},{"town":"芦辺町国分本村触","koaza":"","lat":33.80697,"lng":129.718092,"zip":"8115734"},{"town":"芦辺町住吉後触","koaza":"","lat":33.78862,"lng":129.701849,"zip":"8115744"},{"town":"芦辺町住吉東触","koaza":"","lat":33.787385,"lng":129.709037,"zip":"8115742"},{"town":"芦辺町住吉前触","koaza":"","lat":33.779871,"lng":129.698638,"zip":"8115743"},{"town":"芦辺町住吉山信触","koaza":"","lat":33.781429,"lng":129.720148,"zip":"8115741"},{"town":"芦辺町瀬戸浦","koaza":"","lat":33.817355,"lng":129.759297,"zip":"8115461"},{"town":"芦辺町中野郷仲触","koaza":"","lat":33.799219,"lng":129.737747,"zip":"8115751"},{"town":"芦辺町中野郷西触","koaza":"","lat":33.79213,"lng":129.720979,"zip":"8115757"},{"town":"芦辺町中野郷東触","koaza":"","lat":33.793193,"lng":129.740693,"zip":"8115752"},{"town":"芦辺町中野郷本村触","koaza":"","lat":33.791957,"lng":129.72807,"zip":"8115756"},{"town":"芦辺町箱崎江角触","koaza":"","lat":33.843404,"lng":129.737277,"zip":"8115467"},{"town":"芦辺町箱崎釘ノ尾触","koaza":"","lat":33.828702,"lng":129.743241,"zip":"8115465"},{"town":"芦辺町箱崎大左右触","koaza":"","lat":33.821696,"lng":129.74986,"zip":"8115462"},{"town":"芦辺町箱崎谷江触","koaza":"","lat":33.820859,"lng":129.729272,"zip":"8115464"},{"town":"芦辺町箱崎中山触","koaza":"","lat":33.814679,"lng":129.743306,"zip":"8115463"},{"town":"芦辺町箱崎本村触","koaza":"","lat":33.833724,"lng":129.738248,"zip":"8115466"},{"town":"芦辺町箱崎諸津触","koaza":"","lat":33.837083,"lng":129.761972,"zip":"8115468"},{"town":"芦辺町深江栄触","koaza":"","lat":33.768756,"lng":129.747075,"zip":"8115321"},{"town":"芦辺町深江鶴亀触","koaza":"","lat":33.769763,"lng":129.757149,"zip":"8115322"},{"town":"芦辺町深江東触","koaza":"","lat":33.777844,"lng":129.755031,"zip":"8115324"},{"town":"芦辺町深江平触","koaza":"","lat":33.764092,"lng":129.758669,"zip":"8115323"},{"town":"芦辺町深江本村触","koaza":"","lat":33.781232,"lng":129.744196,"zip":"8115326"},{"town":"芦辺町深江南触","koaza":"","lat":33.773241,"lng":129.744487,"zip":"8115325"},{"town":"芦辺町諸吉大石触","koaza":"","lat":33.804711,"lng":129.749188,"zip":"8115316"},{"town":"芦辺町諸吉仲触","koaza":"","lat":33.793222,"lng":129.751061,"zip":"8115313"},{"town":"芦辺町諸吉東触","koaza":"","lat":33.795491,"lng":129.763279,"zip":"8115314"},{"town":"芦辺町諸吉二亦触","koaza":"","lat":33.785121,"lng":129.754298,"zip":"8115315"},{"town":"芦辺町諸吉本村触","koaza":"","lat":33.788095,"lng":129.784087,"zip":"8115311"},{"town":"芦辺町諸吉南触","koaza":"","lat":33.788146,"lng":129.771755,"zip":"8115312"},{"town":"芦辺町湯岳興触","koaza":"","lat":33.771401,"lng":129.730399,"zip":"8115755"},{"town":"芦辺町湯岳今坂触","koaza":"","lat":33.778195,"lng":129.730475,"zip":"8115754"},{"town":"芦辺町湯岳本村触","koaza":"","lat":33.774673,"lng":129.739811,"zip":"8115753"},{"town":"石田町池田仲触","koaza":"","lat":33.751016,"lng":129.741016,"zip":"8115222"},{"town":"石田町池田西触","koaza":"","lat":33.75287,"lng":129.735393,"zip":"8115224"},{"town":"石田町池田東触","koaza":"","lat":33.749449,"lng":129.746606,"zip":"8115221"},{"town":"石田町石田西触","koaza":"","lat":33.754127,"lng":129.756579,"zip":"8115215"},{"town":"石田町石田東触","koaza":"","lat":33.755961,"lng":129.764862,"zip":"8115211"},{"town":"石田町印通寺浦","koaza":"","lat":33.743285,"lng":129.759685,"zip":"8115214"},{"town":"石田町久喜触","koaza":"","lat":33.738035,"lng":129.730594,"zip":"8115223"},{"town":"石田町筒城仲触","koaza":"","lat":33.762274,"lng":129.79001,"zip":"8115202"},{"town":"石田町筒城西触","koaza":"","lat":33.758927,"lng":129.772501,"zip":"8115204"},{"town":"石田町筒城東触","koaza":"","lat":33.749721,"lng":129.780099,"zip":"8115203"},{"town":"石田町妻ケ島","koaza":"","lat":33.733421,"lng":129.757605,"zip":"8115100"},{"town":"石田町本村触","koaza":"","lat":33.748075,"lng":129.767513,"zip":"8115212"},{"town":"石田町南触","koaza":"","lat":33.742524,"lng":129.770603,"zip":"8115213"},{"town":"石田町山崎触","koaza":"","lat":33.770148,"lng":129.777032,"zip":"8115201"},{"town":"石田町湯岳射手吉触","koaza":"","lat":33.767885,"lng":129.720346,"zip":"8115226"},{"town":"石田町湯岳興触","koaza":"","lat":33.764959,"lng":129.732664,"zip":"8115225"},{"town":"勝本町上場触","koaza":"","lat":33.813974,"lng":129.698441,"zip":"8115543"},{"town":"勝本町大久保触","koaza":"","lat":33.838544,"lng":129.692106,"zip":"8115532"},{"town":"勝本町片山触","koaza":"","lat":33.819021,"lng":129.716481,"zip":"8115523"},{"town":"勝本町勝本浦","koaza":"","lat":33.853646,"lng":129.690863,"zip":"8115501"},{"town":"勝本町北触","koaza":"","lat":33.840775,"lng":129.718524,"zip":"8115513"},{"town":"勝本町西戸触","koaza":"","lat":33.843573,"lng":129.698565,"zip":"8115521"},{"town":"勝本町坂本触","koaza":"","lat":33.844714,"lng":129.686941,"zip":"8115531"},{"town":"勝本町新城西触","koaza":"","lat":33.828847,"lng":129.704186,"zip":"8115533"},{"town":"勝本町新城東触","koaza":"","lat":33.831643,"lng":129.722963,"zip":"8115522"},{"town":"勝本町立石仲触","koaza":"","lat":33.791425,"lng":129.690613,"zip":"8115554"},{"town":"勝本町立石西触","koaza":"","lat":33.799779,"lng":129.677908,"zip":"8115556"},{"town":"勝本町立石東触","koaza":"","lat":33.79505,"lng":129.696574,"zip":"8115553"},{"town":"勝本町立石南触","koaza":"","lat":33.797261,"lng":129.685911,"zip":"8115555"},{"town":"勝本町仲触","koaza":"","lat":33.847054,"lng":129.703204,"zip":"8115511"},{"town":"勝本町東触","koaza":"","lat":33.852956,"lng":129.715025,"zip":"8115512"},{"town":"勝本町布気触","koaza":"","lat":33.810065,"lng":129.704611,"zip":"8115544"},{"town":"勝本町本宮仲触","koaza":"","lat":33.822102,"lng":129.68061,"zip":"8115546"},{"town":"勝本町本宮西触","koaza":"","lat":33.835343,"lng":129.678761,"zip":"8115541"},{"town":"勝本町本宮東触","koaza":"","lat":33.823826,"lng":129.691903,"zip":"8115542"},{"town":"勝本町本宮南触","koaza":"","lat":33.814789,"lng":129.685952,"zip":"8115545"},{"town":"勝本町湯本浦","koaza":"","lat":33.805202,"lng":129.686991,"zip":"8115551"},{"town":"勝本町百合畑触","koaza":"","lat":33.806569,"lng":129.706736,"zip":"8115552"},{"town":"郷ノ浦町有安触","koaza":"","lat":33.782897,"lng":129.6666,"zip":"8115107"},{"town":"郷ノ浦町牛方触","koaza":"","lat":33.7697,"lng":129.692529,"zip":"8115113"},{"town":"郷ノ浦町大浦触","koaza":"","lat":33.775527,"lng":129.683495,"zip":"8115112"},{"town":"郷ノ浦町大島","koaza":"","lat":33.738508,"lng":129.634913,"zip":"8115161"},{"town":"郷ノ浦町片原触","koaza":"","lat":33.7408,"lng":129.691901,"zip":"8115136"},{"town":"郷ノ浦町木田触","koaza":"","lat":33.77697,"lng":129.710878,"zip":"8115115"},{"town":"郷ノ浦町釘山触","koaza":"","lat":33.736839,"lng":129.725932,"zip":"8115123"},{"town":"郷ノ浦町郷ノ浦","koaza":"","lat":33.745557,"lng":129.68769,"zip":"8115135"},{"town":"郷ノ浦町小牧西触","koaza":"","lat":33.794658,"lng":129.661125,"zip":"8115105"},{"town":"郷ノ浦町小牧東触","koaza":"","lat":33.791262,"lng":129.667723,"zip":"8115106"},{"town":"郷ノ浦町里触","koaza":"","lat":33.799095,"lng":129.669164,"zip":"8115104"},{"town":"郷ノ浦町志原西触","koaza":"","lat":33.750502,"lng":129.712659,"zip":"8115125"},{"town":"郷ノ浦町志原南触","koaza":"","lat":33.739432,"lng":129.718096,"zip":"8115124"},{"town":"郷ノ浦町庄触","koaza":"","lat":33.754463,"lng":129.681733,"zip":"8115134"},{"town":"郷ノ浦町新田触","koaza":"","lat":33.808034,"lng":129.658272,"zip":"8115103"},{"town":"郷ノ浦町大原触","koaza":"","lat":33.758402,"lng":129.72498,"zip":"8115122"},{"town":"郷ノ浦町田中触","koaza":"","lat":33.76169,"lng":129.701296,"zip":"8115117"},{"town":"郷ノ浦町坪触","koaza":"","lat":33.727893,"lng":129.692139,"zip":"8115142"},{"town":"郷ノ浦町長島","koaza":"","lat":33.72649,"lng":129.631578,"zip":"8115162"},{"town":"郷ノ浦町永田触","koaza":"","lat":33.745966,"lng":129.701608,"zip":"8115131"},{"town":"郷ノ浦町長峰東触","koaza":"","lat":33.786974,"lng":129.684783,"zip":"8115102"},{"town":"郷ノ浦町長峰本村触","koaza":"","lat":33.789394,"lng":129.675585,"zip":"8115101"},{"town":"郷ノ浦町初山西触","koaza":"","lat":33.719824,"lng":129.703646,"zip":"8115143"},{"town":"郷ノ浦町初山東触","koaza":"","lat":33.711934,"lng":129.708008,"zip":"8115144"},{"town":"郷ノ浦町原島","koaza":"","lat":33.72324,"lng":129.648047,"zip":"8115163"},{"town":"郷ノ浦町半城本村触","koaza":"","lat":33.765285,"lng":129.686285,"zip":"8115111"},{"town":"郷ノ浦町東触","koaza":"","lat":33.75562,"lng":129.69998,"zip":"8115132"},{"town":"郷ノ浦町平人触","koaza":"","lat":33.74532,"lng":129.731744,"zip":"8115121"},{"town":"郷ノ浦町本村触","koaza":"","lat":33.750883,"lng":129.690204,"zip":"8115133"},{"town":"郷ノ浦町麦谷触","koaza":"","lat":33.761445,"lng":129.672267,"zip":"8115155"},{"town":"郷ノ浦町物部本村触","koaza":"","lat":33.767708,"lng":129.711423,"zip":"8115116"},{"town":"郷ノ浦町柳田触","koaza":"","lat":33.76891,"lng":129.702294,"zip":"8115114"},{"town":"郷ノ浦町若松触","koaza":"","lat":33.728902,"lng":129.712828,"zip":"8115141"},{"town":"郷ノ浦町渡良浦","koaza":"","lat":33.74562,"lng":129.655351,"zip":"8115151"},{"town":"郷ノ浦町渡良西触","koaza":"","lat":33.753924,"lng":129.652938,"zip":"8115153"},{"town":"郷ノ浦町渡良東触","koaza":"","lat":33.765635,"lng":129.65687,"zip":"8115154"},{"town":"郷ノ浦町渡良南触","koaza":"","lat":33.757022,"lng":129.660778,"zip":"8115152"}]