[{"town":"赤佐古町","koaza":"","lat":32.910251,"lng":129.973014,"zip":"8560048"},{"town":"荒瀬町","koaza":"","lat":32.946283,"lng":129.965683,"zip":"8560017"},{"town":"荒平町","koaza":"","lat":32.921717,"lng":129.982889,"zip":"8560033"},{"town":"池田一丁目","koaza":"","lat":32.930245,"lng":129.965532,"zip":"8560026"},{"town":"池田二丁目","koaza":"","lat":32.933746,"lng":129.970362,"zip":"8560026"},{"town":"池田新町","koaza":"","lat":32.927351,"lng":129.965841,"zip":"8560029"},{"town":"乾馬場町","koaza":"","lat":32.92005,"lng":129.960478,"zip":"8560823"},{"town":"今富町","koaza":"","lat":32.953769,"lng":129.957134,"zip":"8560018"},{"town":"今村町","koaza":"","lat":32.865041,"lng":130.004582,"zip":"8560843"},{"town":"岩松町","koaza":"","lat":32.900354,"lng":129.990619,"zip":"8560044"},{"town":"植松一丁目","koaza":"","lat":32.930893,"lng":129.959758,"zip":"8560027"},{"town":"植松二丁目","koaza":"","lat":32.930131,"lng":129.956317,"zip":"8560027"},{"town":"植松三丁目","koaza":"","lat":32.932873,"lng":129.956105,"zip":"8560027"},{"town":"大川田町","koaza":"","lat":32.943912,"lng":129.946708,"zip":"8560804"},{"town":"大里町","koaza":"","lat":32.880191,"lng":129.992741,"zip":"8560845"},{"town":"小川内町","koaza":"","lat":32.903648,"lng":130.001008,"zip":"8560043"},{"town":"沖田町","koaza":"","lat":32.959397,"lng":129.940499,"zip":"8560809"},{"town":"鬼橋町","koaza":"","lat":32.946366,"lng":129.955325,"zip":"8560021"},{"town":"小路口本町","koaza":"","lat":32.941025,"lng":129.956098,"zip":"8560020"},{"town":"小路口町","koaza":"","lat":32.938567,"lng":129.958718,"zip":"8560025"},{"town":"皆同町","koaza":"","lat":32.963249,"lng":129.946585,"zip":"8560802"},{"town":"陰平町","koaza":"","lat":32.884762,"lng":129.978141,"zip":"8560841"},{"town":"水主町一丁目","koaza":"","lat":32.907336,"lng":129.955195,"zip":"8560827"},{"town":"水主町二丁目","koaza":"","lat":32.910018,"lng":129.955639,"zip":"8560827"},{"town":"片町","koaza":"","lat":32.902551,"lng":129.960116,"zip":"8560833"},{"town":"上諏訪町","koaza":"","lat":32.926112,"lng":129.975763,"zip":"8560023"},{"town":"協和町","koaza":"","lat":32.917289,"lng":129.946391,"zip":"8560820"},{"town":"杭出津一丁目","koaza":"","lat":32.911611,"lng":129.950351,"zip":"8560828"},{"town":"杭出津二丁目","koaza":"","lat":32.913092,"lng":129.952981,"zip":"8560828"},{"town":"杭出津三丁目","koaza":"","lat":32.916088,"lng":129.951857,"zip":"8560828"},{"town":"草場町","koaza":"","lat":32.970887,"lng":129.951861,"zip":"8560007"},{"town":"玖島一丁目","koaza":"","lat":32.897523,"lng":129.955976,"zip":"8560834"},{"town":"玖島二丁目","koaza":"","lat":32.901403,"lng":129.966259,"zip":"8560834"},{"town":"玖島三丁目","koaza":"","lat":32.906521,"lng":129.965917,"zip":"8560834"},{"town":"久原一丁目","koaza":"","lat":32.893852,"lng":129.962119,"zip":"8560835"},{"town":"久原二丁目","koaza":"","lat":32.895479,"lng":129.97172,"zip":"8560835"},{"town":"黒木町","koaza":"","lat":32.978508,"lng":130.05406,"zip":"8560012"},{"town":"黒丸町","koaza":"","lat":32.955117,"lng":129.935806,"zip":"8560808"},{"town":"古賀島町","koaza":"","lat":32.928979,"lng":129.941294,"zip":"8560817"},{"town":"木場一丁目","koaza":"","lat":32.900741,"lng":129.975558,"zip":"8560046"},{"town":"木場二丁目","koaza":"","lat":32.908155,"lng":129.979693,"zip":"8560046"},{"town":"幸町","koaza":"","lat":32.90162,"lng":129.954522,"zip":"8560836"},{"town":"坂口町","koaza":"","lat":32.936552,"lng":129.964024,"zip":"8560028"},{"town":"桜馬場一丁目","koaza":"","lat":32.927146,"lng":129.949755,"zip":"8560812"},{"town":"桜馬場二丁目","koaza":"","lat":32.932189,"lng":129.948867,"zip":"8560812"},{"town":"三城町","koaza":"","lat":32.917094,"lng":129.964774,"zip":"8560031"},{"town":"重井田町","koaza":"","lat":32.980024,"lng":130.006116,"zip":"8560011"},{"town":"寿古町","koaza":"","lat":32.968091,"lng":129.936317,"zip":"8560801"},{"town":"須田ノ木町","koaza":"","lat":32.904493,"lng":129.970411,"zip":"8560047"},{"town":"諏訪一丁目","koaza":"","lat":32.923793,"lng":129.963106,"zip":"8560024"},{"town":"諏訪二丁目","koaza":"","lat":32.926477,"lng":129.96156,"zip":"8560024"},{"town":"諏訪三丁目","koaza":"","lat":32.925214,"lng":129.95867,"zip":"8560024"},{"town":"西部町","koaza":"","lat":32.874726,"lng":129.9768,"zip":"8560847"},{"town":"武部町","koaza":"","lat":32.910333,"lng":129.964976,"zip":"8560035"},{"town":"竹松本町","koaza":"","lat":32.93982,"lng":129.948602,"zip":"8560805"},{"town":"竹松町","koaza":"","lat":32.951913,"lng":129.948886,"zip":"8560803"},{"town":"田下町","koaza":"","lat":32.955941,"lng":130.001388,"zip":"8560014"},{"town":"徳泉川内町","koaza":"","lat":32.91479,"lng":129.979999,"zip":"8560041"},{"town":"富の原一丁目","koaza":"","lat":32.93831,"lng":129.936456,"zip":"8560806"},{"town":"富の原二丁目","koaza":"","lat":32.945781,"lng":129.936075,"zip":"8560806"},{"town":"中里町","koaza":"","lat":32.883604,"lng":130.002931,"zip":"8560842"},{"town":"中岳町","koaza":"","lat":32.959675,"lng":130.031798,"zip":"8560013"},{"town":"西乾馬場町","koaza":"","lat":32.925748,"lng":129.955662,"zip":"8560821"},{"town":"西大村本町","koaza":"","lat":32.926864,"lng":129.952715,"zip":"8560813"},{"town":"西三城町","koaza":"","lat":32.914841,"lng":129.960305,"zip":"8560825"},{"town":"西本町","koaza":"","lat":32.905732,"lng":129.957217,"zip":"8560837"},{"town":"野岳町","koaza":"","lat":32.973682,"lng":129.967892,"zip":"8560003"},{"town":"野田町","koaza":"","lat":32.961464,"lng":129.972542,"zip":"8560019"},{"town":"原口町","koaza":"","lat":32.935972,"lng":129.947101,"zip":"8560811"},{"town":"原町","koaza":"","lat":32.942972,"lng":129.977345,"zip":"8560016"},{"town":"東大村一丁目","koaza":"","lat":32.923937,"lng":130.004055,"zip":"8560032"},{"town":"東大村二丁目","koaza":"","lat":32.929251,"lng":129.996613,"zip":"8560032"},{"town":"東三城町","koaza":"","lat":32.911065,"lng":129.95913,"zip":"8560826"},{"town":"東野岳町","koaza":"","lat":32.983599,"lng":129.983836,"zip":"8560002"},{"town":"東本町","koaza":"","lat":32.907807,"lng":129.961132,"zip":"8560831"},{"town":"日泊町","koaza":"","lat":32.863575,"lng":129.989933,"zip":"8560846"},{"town":"平町","koaza":"","lat":32.906952,"lng":130.010276,"zip":"8560042"},{"town":"福重町","koaza":"","lat":32.966206,"lng":129.951084,"zip":"8560006"},{"town":"古町一丁目","koaza":"","lat":32.918859,"lng":129.955689,"zip":"8560822"},{"town":"古町二丁目","koaza":"","lat":32.92149,"lng":129.95645,"zip":"8560822"},{"town":"本町","koaza":"","lat":32.906796,"lng":129.959405,"zip":"8560832"},{"town":"雄ケ原町","koaza":"","lat":32.939007,"lng":129.997968,"zip":"8560022"},{"town":"松並一丁目","koaza":"","lat":32.920992,"lng":129.952055,"zip":"8560814"},{"town":"松並二丁目","koaza":"","lat":32.921116,"lng":129.947233,"zip":"8560814"},{"town":"松原一丁目","koaza":"","lat":32.975104,"lng":129.952266,"zip":"8560008"},{"town":"松原二丁目","koaza":"","lat":32.981376,"lng":129.955453,"zip":"8560008"},{"town":"松原三丁目","koaza":"","lat":32.979153,"lng":129.960513,"zip":"8560008"},{"town":"松原本町","koaza":"","lat":32.975253,"lng":129.944582,"zip":"8560009"},{"town":"松山町","koaza":"","lat":32.913941,"lng":129.945329,"zip":"8560829"},{"town":"箕島町","koaza":"","lat":32.916414,"lng":129.914463,"zip":"8560816"},{"town":"水田町","koaza":"","lat":32.916567,"lng":129.957138,"zip":"8560824"},{"town":"水計町","koaza":"","lat":32.917368,"lng":129.974492,"zip":"8560034"},{"town":"溝陸町","koaza":"","lat":32.851476,"lng":130.003808,"zip":"8560844"},{"town":"宮小路一丁目","koaza":"","lat":32.946574,"lng":129.945335,"zip":"8560807"},{"town":"宮小路二丁目","koaza":"","lat":32.951607,"lng":129.944642,"zip":"8560807"},{"town":"宮小路三丁目","koaza":"","lat":32.953913,"lng":129.942594,"zip":"8560807"},{"town":"宮代町","koaza":"","lat":32.959175,"lng":129.990591,"zip":"8560015"},{"town":"弥勒寺町","koaza":"","lat":32.96492,"lng":129.957715,"zip":"8560005"},{"town":"向木場町","koaza":"","lat":32.904777,"lng":129.98537,"zip":"8560045"},{"town":"武留路町","koaza":"","lat":32.986937,"lng":129.956143,"zip":"8560001"},{"town":"森園町","koaza":"","lat":32.920743,"lng":129.940197,"zip":"8560815"},{"town":"立福寺町","koaza":"","lat":32.966502,"lng":129.96857,"zip":"8560004"},{"town":"今津町","koaza":"","lat":32.929864,"lng":129.932978,"zip":"8560818"}]