[{"town":"青葉町","koaza":"","lat":32.784523,"lng":130.355334,"zip":"8550855"},{"town":"油堀町","koaza":"","lat":32.809832,"lng":130.321428,"zip":"8550021"},{"town":"洗切町","koaza":"","lat":32.82632,"lng":130.351671,"zip":"8550002"},{"town":"有明町大三東乙","koaza":"","lat":32.830595,"lng":130.332672,"zip":"8591412"},{"town":"有明町大三東甲","koaza":"","lat":32.824385,"lng":130.334092,"zip":"8591411"},{"town":"有明町大三東丁","koaza":"","lat":32.825196,"lng":130.323913,"zip":"8591412"},{"town":"有明町大三東丙","koaza":"","lat":32.844383,"lng":130.340403,"zip":"8591413"},{"town":"有明町大三東戊","koaza":"","lat":32.828056,"lng":130.3187,"zip":"8591415"},{"town":"有明町湯江乙","koaza":"","lat":32.83272,"lng":130.311607,"zip":"8591402"},{"town":"有明町湯江甲","koaza":"","lat":32.852931,"lng":130.328234,"zip":"8591401"},{"town":"有明町湯江丁","koaza":"","lat":32.83642,"lng":130.304351,"zip":"8591402"},{"town":"有明町湯江丙","koaza":"","lat":32.848429,"lng":130.31427,"zip":"8591403"},{"town":"有馬船津町","koaza":"","lat":32.778009,"lng":130.375499,"zip":"8550813"},{"town":"出の川町","koaza":"","lat":32.809423,"lng":130.337876,"zip":"8550023"},{"town":"出平町","koaza":"","lat":32.808083,"lng":130.341749,"zip":"8550015"},{"town":"今川町","koaza":"","lat":32.787296,"lng":130.367167,"zip":"8550046"},{"town":"上の原一丁目","koaza":"","lat":32.781615,"lng":130.364818,"zip":"8550853"},{"town":"上の原二丁目","koaza":"","lat":32.77879,"lng":130.365162,"zip":"8550853"},{"town":"上の原三丁目","koaza":"","lat":32.777668,"lng":130.360382,"zip":"8550853"},{"town":"上の町","koaza":"","lat":32.789473,"lng":130.369156,"zip":"8550045"},{"town":"宇土町","koaza":"","lat":32.795315,"lng":130.338617,"zip":"8550071"},{"town":"梅園町","koaza":"","lat":32.753564,"lng":130.365562,"zip":"8550872"},{"town":"浦田一丁目","koaza":"","lat":32.778489,"lng":130.372708,"zip":"8550817"},{"town":"浦田二丁目","koaza":"","lat":32.776914,"lng":130.373347,"zip":"8550817"},{"town":"浦の川","koaza":"","lat":32.786983,"lng":130.36495,"zip":"8550056"},{"town":"上新丁一丁目","koaza":"","lat":32.787872,"lng":130.360912,"zip":"8550067"},{"town":"上新丁二丁目","koaza":"","lat":32.789807,"lng":130.359852,"zip":"8550067"},{"town":"上新丁三丁目","koaza":"","lat":32.791859,"lng":130.358809,"zip":"8550067"},{"town":"江戸丁","koaza":"","lat":32.790387,"lng":130.364199,"zip":"8550059"},{"town":"蛭子町一丁目","koaza":"","lat":32.779998,"lng":130.372894,"zip":"8550816"},{"town":"蛭子町二丁目","koaza":"","lat":32.778672,"lng":130.373926,"zip":"8550816"},{"town":"江里町","koaza":"","lat":32.798756,"lng":130.336427,"zip":"8550017"},{"town":"大下町","koaza":"","lat":32.753258,"lng":130.360945,"zip":"8550878"},{"town":"大手原町","koaza":"","lat":32.813054,"lng":130.358154,"zip":"8550012"},{"town":"御手水町","koaza":"","lat":32.817179,"lng":130.354873,"zip":"8550011"},{"town":"柿の木町","koaza":"","lat":32.793033,"lng":130.356753,"zip":"8550066"},{"town":"柏野町","koaza":"","lat":32.796274,"lng":130.357245,"zip":"8550064"},{"town":"片町","koaza":"","lat":32.790165,"lng":130.370516,"zip":"8550042"},{"town":"門内町","koaza":"","lat":32.748278,"lng":130.357198,"zip":"8550881"},{"town":"鎌田町","koaza":"","lat":32.74794,"lng":130.367399,"zip":"8550874"},{"town":"加美町","koaza":"","lat":32.78427,"lng":130.368453,"zip":"8550808"},{"town":"亀の甲町","koaza":"","lat":32.820555,"lng":130.352533,"zip":"8550004"},{"town":"北安徳町","koaza":"","lat":32.751394,"lng":130.36484,"zip":"8550873"},{"town":"北原町","koaza":"","lat":32.787344,"lng":130.363333,"zip":"8550058"},{"town":"北門町","koaza":"","lat":32.801196,"lng":130.362496,"zip":"8550032"},{"town":"崩山町","koaza":"","lat":32.776972,"lng":130.366303,"zip":"8550841"},{"town":"湖南町","koaza":"","lat":32.778074,"lng":130.368648,"zip":"8550836"},{"town":"小山町","koaza":"","lat":32.786312,"lng":130.354188,"zip":"8550856"},{"town":"坂上町","koaza":"","lat":32.778207,"lng":130.370652,"zip":"8550832"},{"town":"栄町","koaza":"","lat":32.773724,"lng":130.367818,"zip":"8550842"},{"town":"坂下町","koaza":"","lat":32.776923,"lng":130.371161,"zip":"8550833"},{"town":"先魁町","koaza":"","lat":32.79323,"lng":130.367033,"zip":"8550035"},{"town":"桜町","koaza":"","lat":32.786204,"lng":130.368503,"zip":"8550809"},{"town":"桜門町","koaza":"","lat":32.795605,"lng":130.361145,"zip":"8550051"},{"town":"下新丁","koaza":"","lat":32.790076,"lng":130.36162,"zip":"8550055"},{"town":"下の丁","koaza":"","lat":32.791395,"lng":130.363212,"zip":"8550052"},{"town":"寺中町","koaza":"","lat":32.819647,"lng":130.342366,"zip":"8550006"},{"town":"下折橋町","koaza":"","lat":32.788484,"lng":130.347149,"zip":"8550075"},{"town":"下川尻町","koaza":"","lat":32.769089,"lng":130.369119,"zip":"8550861"},{"town":"下宮町","koaza":"","lat":32.813788,"lng":130.348716,"zip":"8550014"},{"town":"城西中の丁","koaza":"","lat":32.791514,"lng":130.362454,"zip":"8550053"},{"town":"城内一丁目","koaza":"","lat":32.790779,"lng":130.366253,"zip":"8550036"},{"town":"城内二丁目","koaza":"","lat":32.794854,"lng":130.364185,"zip":"8550036"},{"town":"城内三丁目","koaza":"","lat":32.798199,"lng":130.362473,"zip":"8550036"},{"town":"白土町","koaza":"","lat":32.781248,"lng":130.367939,"zip":"8550807"},{"town":"白土桃山一丁目","koaza":"","lat":32.780477,"lng":130.374516,"zip":"8550811"},{"town":"白土桃山二丁目","koaza":"","lat":32.778763,"lng":130.37488,"zip":"8550811"},{"town":"城見町","koaza":"","lat":32.789278,"lng":130.357294,"zip":"8550074"},{"town":"新建","koaza":"","lat":32.78782,"lng":130.364062,"zip":"8550057"},{"town":"新田町","koaza":"","lat":32.78781,"lng":130.377284,"zip":"8550043"},{"town":"新馬場町","koaza":"","lat":32.798155,"lng":130.367135,"zip":"8550033"},{"town":"新町一丁目","koaza":"","lat":32.78536,"lng":130.370067,"zip":"8550803"},{"town":"新町二丁目","koaza":"","lat":32.78442,"lng":130.371183,"zip":"8550803"},{"town":"新湊一丁目","koaza":"","lat":32.763421,"lng":130.36694,"zip":"8550862"},{"town":"新湊二丁目","koaza":"","lat":32.76163,"lng":130.36128,"zip":"8550862"},{"town":"新山一丁目","koaza":"","lat":32.772967,"lng":130.36549,"zip":"8550843"},{"town":"新山二丁目","koaza":"","lat":32.774322,"lng":130.362938,"zip":"8550843"},{"town":"新山三丁目","koaza":"","lat":32.77132,"lng":130.362216,"zip":"8550843"},{"town":"新山四丁目","koaza":"","lat":32.769896,"lng":130.360812,"zip":"8550843"},{"town":"親和町","koaza":"","lat":32.761642,"lng":130.367209,"zip":"8550863"},{"town":"杉山町","koaza":"","lat":32.795516,"lng":130.351018,"zip":"8550068"},{"town":"高島一丁目","koaza":"","lat":32.787282,"lng":130.372751,"zip":"8550801"},{"town":"高島二丁目","koaza":"","lat":32.785366,"lng":130.373019,"zip":"8550801"},{"town":"立野町","koaza":"","lat":32.795245,"lng":130.324771,"zip":"8550025"},{"town":"田町","koaza":"","lat":32.794891,"lng":130.368805,"zip":"8550034"},{"town":"秩父が浦町","koaza":"","lat":32.75863,"lng":130.371101,"zip":"8550864"},{"town":"津吹町","koaza":"","lat":32.814871,"lng":130.340534,"zip":"8550007"},{"town":"津町","koaza":"","lat":32.776501,"lng":130.375657,"zip":"8550814"},{"town":"寺町","koaza":"","lat":32.783227,"lng":130.366332,"zip":"8550852"},{"town":"天神元町","koaza":"","lat":32.747837,"lng":130.352116,"zip":"8550883"},{"town":"中安徳町","koaza":"","lat":32.745092,"lng":130.367013,"zip":"8550875"},{"town":"中尾町","koaza":"","lat":32.804033,"lng":130.348275,"zip":"8550061"},{"town":"長貫町","koaza":"","lat":32.813141,"lng":130.329535,"zip":"8550022"},{"town":"中野町","koaza":"","lat":32.824848,"lng":130.347143,"zip":"8550001"},{"town":"中原町","koaza":"","lat":32.81851,"lng":130.349591,"zip":"8550005"},{"town":"中堀町","koaza":"","lat":32.782086,"lng":130.369718,"zip":"8550806"},{"town":"中町","koaza":"","lat":32.790087,"lng":130.369564,"zip":"8550044"},{"town":"西町","koaza":"","lat":32.804363,"lng":130.336133,"zip":"8550018"},{"town":"西八幡町","koaza":"","lat":32.774889,"lng":130.369314,"zip":"8550835"},{"town":"仁田町","koaza":"","lat":32.755718,"lng":130.35118,"zip":"8550884"},{"town":"萩が丘一丁目","koaza":"","lat":32.783332,"lng":130.357839,"zip":"8550854"},{"town":"萩が丘二丁目","koaza":"","lat":32.781798,"lng":130.358712,"zip":"8550854"},{"town":"萩原一丁目","koaza":"","lat":32.785479,"lng":130.366691,"zip":"8550851"},{"town":"萩原二丁目","koaza":"","lat":32.785621,"lng":130.362627,"zip":"8550851"},{"town":"萩原三丁目","koaza":"","lat":32.783924,"lng":130.363464,"zip":"8550851"},{"town":"白山町","koaza":"","lat":32.77284,"lng":130.371704,"zip":"8550824"},{"town":"浜の町","koaza":"","lat":32.73935,"lng":130.371708,"zip":"8550877"},{"town":"原口町","koaza":"","lat":32.819773,"lng":130.334116,"zip":"8550008"},{"town":"原町","koaza":"","lat":32.79916,"lng":130.352155,"zip":"8550063"},{"town":"稗田町","koaza":"","lat":32.810229,"lng":130.351625,"zip":"8550013"},{"town":"広高野町","koaza":"","lat":32.802716,"lng":130.321023,"zip":"8550024"},{"town":"広馬場町","koaza":"","lat":32.774597,"lng":130.371535,"zip":"8550825"},{"town":"札の元町","koaza":"","lat":32.747871,"lng":130.35487,"zip":"8550882"},{"town":"船泊町","koaza":"","lat":32.754663,"lng":130.371804,"zip":"8550865"},{"town":"古丁","koaza":"","lat":32.79045,"lng":130.362212,"zip":"8550054"},{"town":"平成町","koaza":"","lat":32.744006,"lng":130.375281,"zip":"8550879"},{"town":"弁天町一丁目","koaza":"","lat":32.78266,"lng":130.3721,"zip":"8550802"},{"town":"弁天町二丁目","koaza":"","lat":32.783375,"lng":130.375553,"zip":"8550802"},{"town":"堀町","koaza":"","lat":32.785027,"lng":130.369386,"zip":"8550805"},{"town":"本光寺町","koaza":"","lat":32.790764,"lng":130.352785,"zip":"8550073"},{"town":"本町","koaza":"","lat":32.802667,"lng":130.353981,"zip":"8550062"},{"town":"前浜町","koaza":"","lat":32.806108,"lng":130.360976,"zip":"8550031"},{"town":"三会町","koaza":"","lat":32.821051,"lng":130.354925,"zip":"8550003"},{"town":"緑町","koaza":"","lat":32.768218,"lng":130.363003,"zip":"8550867"},{"town":"湊新地町","koaza":"","lat":32.773732,"lng":130.377578,"zip":"8550821"},{"town":"湊道一丁目","koaza":"","lat":32.780372,"lng":130.371552,"zip":"8550831"},{"town":"湊道二丁目","koaza":"","lat":32.779891,"lng":130.370411,"zip":"8550831"},{"town":"南安徳町","koaza":"","lat":32.7425,"lng":130.368663,"zip":"8550876"},{"town":"南柏野町","koaza":"","lat":32.794987,"lng":130.359102,"zip":"8550065"},{"town":"南崩山町","koaza":"","lat":32.755045,"lng":130.367194,"zip":"8550871"},{"town":"南下川尻町","koaza":"","lat":32.765621,"lng":130.364015,"zip":"8550866"},{"town":"宮の町","koaza":"","lat":32.792691,"lng":130.369995,"zip":"8550041"},{"town":"六ツ木町","koaza":"","lat":32.792075,"lng":130.345366,"zip":"8550072"},{"town":"元船津町","koaza":"","lat":32.776382,"lng":130.373723,"zip":"8550815"},{"town":"八幡町","koaza":"","lat":32.776148,"lng":130.371265,"zip":"8550834"},{"town":"山寺町","koaza":"","lat":32.80592,"lng":130.346861,"zip":"8550016"},{"town":"万町","koaza":"","lat":32.786568,"lng":130.369422,"zip":"8550804"},{"town":"霊南一丁目","koaza":"","lat":32.78019,"lng":130.376914,"zip":"8550812"},{"town":"霊南二丁目","koaza":"","lat":32.778479,"lng":130.377288,"zip":"8550812"},{"town":"礫石原町","koaza":"","lat":32.795723,"lng":130.308711,"zip":"8550026"},{"town":"上折橋町","koaza":"","lat":32.788946,"lng":130.33686,"zip":"8550076"},{"town":"北千本木町","koaza":"","lat":32.786982,"lng":130.324447,"zip":"8550078"},{"town":"南千本木町","koaza":"","lat":32.781593,"lng":130.326036,"zip":"8550077"},{"town":"白谷町","koaza":"","lat":32.74993,"lng":130.346758,"zip":"8550885"},{"town":"南上木場町","koaza":"","lat":32.749154,"lng":130.334218,"zip":"8550887"},{"town":"北上木場町","koaza":"","lat":32.754162,"lng":130.336542,"zip":"8550886"},{"town":"湊町","koaza":"","lat":32.770679,"lng":130.372181,"zip":"8550823"},{"town":"中組町","koaza":"","lat":32.773602,"lng":130.373769,"zip":"8550822"},{"town":"中野町","koaza":"丙","lat":32.823365,"lng":130.342562,"zip":"8550001"},{"town":"下宮町","koaza":"甲","lat":32.81335,"lng":130.345581,"zip":"8550014"},{"town":"中原町","koaza":"乙","lat":32.817713,"lng":130.347806,"zip":"8550005"},{"town":"前浜町","koaza":"丙","lat":32.809327,"lng":130.359362,"zip":"8550031"},{"town":"前浜町","koaza":"甲","lat":32.805005,"lng":130.360597,"zip":"8550031"},{"town":"大下町","koaza":"丙","lat":32.754066,"lng":130.360797,"zip":"8550878"},{"town":"梅園町","koaza":"丁","lat":32.753722,"lng":130.364667,"zip":"8550872"}]