[{"town":"赤松町","koaza":"","lat":33.266915,"lng":129.473632,"zip":"8595384"},{"town":"明の川内町","koaza":"","lat":33.351561,"lng":129.54337,"zip":"8595122"},{"town":"鮎川町","koaza":"","lat":33.222764,"lng":129.415278,"zip":"8595515"},{"town":"飯良町","koaza":"","lat":33.28072,"lng":129.434,"zip":"8595382"},{"town":"生月町壱部","koaza":"","lat":33.406686,"lng":129.426069,"zip":"8595701"},{"town":"生月町壱部浦","koaza":"","lat":33.392335,"lng":129.433059,"zip":"8595702"},{"town":"生月町里免","koaza":"","lat":33.389261,"lng":129.422666,"zip":"8595703"},{"town":"生月町舘浦","koaza":"","lat":33.361457,"lng":129.430987,"zip":"8595705"},{"town":"生月町御崎","koaza":"","lat":33.4317,"lng":129.429289,"zip":"8595707"},{"town":"生月町南免","koaza":"","lat":33.367705,"lng":129.413456,"zip":"8595706"},{"town":"生月町山田免","koaza":"","lat":33.368213,"lng":129.42837,"zip":"8595704"},{"town":"石堂町","koaza":"","lat":33.211594,"lng":129.40489,"zip":"8595100"},{"town":"猪渡谷町","koaza":"","lat":33.257601,"lng":129.431083,"zip":"8595502"},{"town":"岩の上町","koaza":"","lat":33.361502,"lng":129.557988,"zip":"8595121"},{"town":"魚の棚町","koaza":"","lat":33.36596,"lng":129.550665,"zip":"8595117"},{"town":"浦の町","koaza":"","lat":33.371814,"lng":129.552294,"zip":"8595111"},{"town":"大石脇町","koaza":"","lat":33.307187,"lng":129.46185,"zip":"8595376"},{"town":"大川原町","koaza":"","lat":33.252565,"lng":129.477399,"zip":"8595383"},{"town":"大久保町","koaza":"","lat":33.394381,"lng":129.545534,"zip":"8595102"},{"town":"大佐志町","koaza":"","lat":33.23282,"lng":129.40902,"zip":"8595516"},{"town":"大志々伎町","koaza":"","lat":33.20705,"lng":129.393342,"zip":"8595532"},{"town":"大島村的山川内","koaza":"","lat":33.49124,"lng":129.529137,"zip":"8595805"},{"town":"大島村的山戸田","koaza":"","lat":33.481457,"lng":129.514377,"zip":"8595806"},{"town":"大島村大根坂","koaza":"","lat":33.499834,"lng":129.54362,"zip":"8595804"},{"town":"大島村西宇戸","koaza":"","lat":33.492027,"lng":129.573556,"zip":"8595803"},{"town":"大島村前平","koaza":"","lat":33.479937,"lng":129.553641,"zip":"8595802"},{"town":"大野町","koaza":"","lat":33.343209,"lng":129.540156,"zip":"8595123"},{"town":"大山町","koaza":"","lat":33.33796,"lng":129.534566,"zip":"8595131"},{"town":"小田町","koaza":"","lat":33.186848,"lng":129.412998,"zip":"8595534"},{"town":"鏡川町","koaza":"","lat":33.369234,"lng":129.539628,"zip":"8595152"},{"town":"春日町","koaza":"","lat":33.338676,"lng":129.450717,"zip":"8595373"},{"town":"神上町","koaza":"","lat":33.200734,"lng":129.440167,"zip":"8595524"},{"town":"上中津良町","koaza":"","lat":33.254325,"lng":129.45283,"zip":"8595503"},{"town":"木ヶ津町","koaza":"","lat":33.27189,"lng":129.491494,"zip":"8595100"},{"town":"木引田町","koaza":"","lat":33.36725,"lng":129.55198,"zip":"8595113"},{"town":"草積町","koaza":"","lat":33.272655,"lng":129.456321,"zip":"8595363"},{"town":"神ノ川町","koaza":"","lat":33.216976,"lng":129.450717,"zip":"8595522"},{"town":"紺屋町","koaza":"","lat":33.366649,"lng":129.550451,"zip":"8595118"},{"town":"木場町","koaza":"","lat":33.29945,"lng":129.49474,"zip":"8595365"},{"town":"木引町","koaza":"","lat":33.350786,"lng":129.526502,"zip":"8595151"},{"town":"崎方町","koaza":"","lat":33.371961,"lng":129.554568,"zip":"8595104"},{"town":"敷佐町","koaza":"","lat":33.234097,"lng":129.45589,"zip":"8595505"},{"town":"志々伎町","koaza":"","lat":33.200535,"lng":129.407727,"zip":"8595533"},{"town":"獅子町","koaza":"","lat":33.31191,"lng":129.448355,"zip":"8595371"},{"town":"神船町","koaza":"","lat":33.233149,"lng":129.424572,"zip":"8595511"},{"town":"下中津良町","koaza":"","lat":33.232087,"lng":129.439828,"zip":"8595504"},{"town":"下中野町","koaza":"","lat":33.349404,"lng":129.504632,"zip":"8595144"},{"town":"主師町","koaza":"","lat":33.346493,"lng":129.466015,"zip":"8595142"},{"town":"職人町","koaza":"","lat":33.364169,"lng":129.55201,"zip":"8595116"},{"town":"新町","koaza":"","lat":33.365969,"lng":129.554037,"zip":"8595115"},{"town":"高越町","koaza":"","lat":33.326455,"lng":129.451294,"zip":"8595372"},{"town":"度島町","koaza":"","lat":33.439249,"lng":129.524729,"zip":"8595101"},{"town":"田代町","koaza":"","lat":33.212555,"lng":129.436387,"zip":"8595527"},{"town":"田助町","koaza":"","lat":33.391903,"lng":129.556363,"zip":"8595103"},{"town":"田平町一関免","koaza":"","lat":33.349624,"lng":129.594973,"zip":"8594822"},{"town":"田平町以善免","koaza":"","lat":33.314183,"lng":129.582274,"zip":"8594814"},{"town":"田平町大久保免","koaza":"","lat":33.373335,"lng":129.585402,"zip":"8594821"},{"town":"田平町荻田免","koaza":"","lat":33.335884,"lng":129.595318,"zip":"8594823"},{"town":"田平町上亀免","koaza":"","lat":33.342063,"lng":129.61843,"zip":"8594804"},{"town":"田平町小崎免","koaza":"","lat":33.349587,"lng":129.62782,"zip":"8594803"},{"town":"田平町里免","koaza":"","lat":33.361922,"lng":129.595526,"zip":"8594807"},{"town":"田平町下亀免","koaza":"","lat":33.352138,"lng":129.610423,"zip":"8594806"},{"town":"田平町下寺免","koaza":"","lat":33.330118,"lng":129.582587,"zip":"8594815"},{"town":"田平町岳崎免","koaza":"","lat":33.367641,"lng":129.600575,"zip":"8594801"},{"town":"田平町田代免","koaza":"","lat":33.331264,"lng":129.60837,"zip":"8594812"},{"town":"田平町野田免","koaza":"","lat":33.373036,"lng":129.574853,"zip":"8594826"},{"town":"田平町深月免","koaza":"","lat":33.314206,"lng":129.598276,"zip":"8594813"},{"town":"田平町福崎免","koaza":"","lat":33.365782,"lng":129.615958,"zip":"8594802"},{"town":"田平町古梶免","koaza":"","lat":33.333304,"lng":129.615785,"zip":"8594811"},{"town":"田平町本山免","koaza":"","lat":33.344135,"lng":129.604482,"zip":"8594805"},{"town":"田平町山内免","koaza":"","lat":33.364138,"lng":129.580502,"zip":"8594825"},{"town":"田平町横島免","koaza":"","lat":33.382271,"lng":129.599643,"zip":"8594827"},{"town":"築地町","koaza":"","lat":33.367045,"lng":129.552924,"zip":"8595114"},{"town":"辻町","koaza":"","lat":33.217532,"lng":129.422309,"zip":"8595513"},{"town":"堤町","koaza":"","lat":33.262789,"lng":129.415931,"zip":"8595501"},{"town":"津吉町","koaza":"","lat":33.2201,"lng":129.434579,"zip":"8595512"},{"town":"戸石川町","koaza":"","lat":33.360011,"lng":129.54283,"zip":"8595153"},{"town":"中野大久保町","koaza":"","lat":33.334993,"lng":129.511449,"zip":"8595133"},{"town":"西中山町","koaza":"","lat":33.205998,"lng":129.417952,"zip":"8595526"},{"town":"根獅子町","koaza":"","lat":33.291245,"lng":129.436929,"zip":"8595381"},{"town":"野子町","koaza":"","lat":33.188394,"lng":129.362354,"zip":"8595535"},{"town":"早福町","koaza":"","lat":33.224992,"lng":129.394287,"zip":"8595531"},{"town":"東中山町","koaza":"","lat":33.200407,"lng":129.427833,"zip":"8595525"},{"town":"紐差町","koaza":"","lat":33.289219,"lng":129.470068,"zip":"8595361"},{"town":"深川町","koaza":"","lat":33.313599,"lng":129.481849,"zip":"8595374"},{"town":"無代寺町","koaza":"","lat":33.214657,"lng":129.411619,"zip":"8595514"},{"town":"船木町","koaza":"","lat":33.228046,"lng":129.466305,"zip":"8595521"},{"town":"朶の原町","koaza":"","lat":33.302672,"lng":129.472979,"zip":"8595375"},{"town":"坊方町","koaza":"","lat":33.344142,"lng":129.492192,"zip":"8595143"},{"town":"宝亀町","koaza":"","lat":33.311383,"lng":129.50595,"zip":"8595366"},{"town":"前津吉町","koaza":"","lat":33.212073,"lng":129.445715,"zip":"8595523"},{"town":"水垂町","koaza":"","lat":33.319775,"lng":129.513984,"zip":"8595134"},{"town":"宮の町","koaza":"","lat":33.369876,"lng":129.552488,"zip":"8595112"},{"town":"迎紐差町","koaza":"","lat":33.294505,"lng":129.482425,"zip":"8595364"},{"town":"山中町","koaza":"","lat":33.330945,"lng":129.486017,"zip":"8595141"},{"town":"大島村神浦","koaza":"","lat":33.477983,"lng":129.557285,"zip":"8595801"},{"town":"川内町","koaza":"","lat":33.335921,"lng":129.524086,"zip":"8595132"},{"town":"田平町小手田免","koaza":"","lat":33.349977,"lng":129.58248,"zip":"8594824"},{"town":"古江町","koaza":"","lat":33.365937,"lng":129.510915,"zip":"8595145"}]