[{"town":"大音琴郷","koaza":"","lat":33.061738,"lng":129.892662,"zip":"8593811"},{"town":"蕪郷","koaza":"","lat":33.005713,"lng":129.985304,"zip":"8593926"},{"town":"口木田郷","koaza":"","lat":33.056599,"lng":129.90407,"zip":"8593809"},{"town":"蔵本郷","koaza":"","lat":33.046171,"lng":129.908972,"zip":"8593808"},{"town":"川内郷","koaza":"","lat":33.070499,"lng":129.925415,"zip":"8593805"},{"town":"小音琴郷","koaza":"","lat":33.069143,"lng":129.883729,"zip":"8593812"},{"town":"木場郷","koaza":"","lat":33.002228,"lng":129.96526,"zip":"8593931"},{"town":"坂本郷","koaza":"","lat":33.062581,"lng":129.955508,"zip":"8593802"},{"town":"里郷","koaza":"","lat":32.998728,"lng":129.951463,"zip":"8593929"},{"town":"菅無田郷","koaza":"","lat":33.050114,"lng":129.948839,"zip":"8593803"},{"town":"瀬戸郷","koaza":"","lat":33.021915,"lng":129.946339,"zip":"8593923"},{"town":"彼杵宿郷","koaza":"","lat":33.034933,"lng":129.928405,"zip":"8593807"},{"town":"駄地郷","koaza":"","lat":33.018521,"lng":129.960509,"zip":"8593927"},{"town":"太ノ浦郷","koaza":"","lat":33.035289,"lng":129.98503,"zip":"8593924"},{"town":"千綿宿郷","koaza":"","lat":33.03152,"lng":129.938583,"zip":"8593921"},{"town":"遠目郷","koaza":"","lat":33.00808,"lng":130.019956,"zip":"8593932"},{"town":"中尾郷","koaza":"","lat":33.046419,"lng":129.976548,"zip":"8593801"},{"town":"中岳郷","koaza":"","lat":33.020287,"lng":129.981034,"zip":"8593925"},{"town":"八反田郷","koaza":"","lat":33.03105,"lng":129.958098,"zip":"8593922"},{"town":"一ツ石郷","koaza":"","lat":32.990918,"lng":129.974552,"zip":"8593800"},{"town":"平似田郷","koaza":"","lat":33.010963,"lng":129.960472,"zip":"8593928"},{"town":"法音寺郷","koaza":"","lat":33.050846,"lng":129.934075,"zip":"8593804"},{"town":"三根郷","koaza":"","lat":33.05073,"lng":129.922354,"zip":"8593806"}]