[{"town":"井石郷","koaza":"","lat":33.132399,"lng":129.920759,"zip":"8593711"},{"town":"鬼木郷","koaza":"","lat":33.114446,"lng":129.921987,"zip":"8593713"},{"town":"折敷瀬郷","koaza":"","lat":33.147991,"lng":129.900595,"zip":"8593701"},{"town":"金屋郷","koaza":"","lat":33.123303,"lng":129.907503,"zip":"8593714"},{"town":"川内郷","koaza":"","lat":33.116293,"lng":129.89127,"zip":"8593721"},{"town":"小樽郷","koaza":"","lat":33.141531,"lng":129.937888,"zip":"8593704"},{"town":"皿山郷","koaza":"","lat":33.140506,"lng":129.85683,"zip":"8593727"},{"town":"志折郷","koaza":"","lat":33.113319,"lng":129.855933,"zip":"8593724"},{"town":"宿郷","koaza":"","lat":33.14181,"lng":129.89015,"zip":"8593715"},{"town":"岳辺田郷","koaza":"","lat":33.110371,"lng":129.874577,"zip":"8593722"},{"town":"田ノ頭郷","koaza":"","lat":33.125943,"lng":129.891808,"zip":"8593716"},{"town":"中尾郷","koaza":"","lat":33.117907,"lng":129.931261,"zip":"8593712"},{"town":"永尾郷","koaza":"","lat":33.122996,"lng":129.948748,"zip":"8593705"},{"town":"長野郷","koaza":"","lat":33.125821,"lng":129.859328,"zip":"8593725"},{"town":"中山郷","koaza":"","lat":33.104656,"lng":129.868496,"zip":"8593700"},{"town":"野々川郷","koaza":"","lat":33.155023,"lng":129.930663,"zip":"8593703"},{"town":"稗木場郷","koaza":"","lat":33.133949,"lng":129.871996,"zip":"8593726"},{"town":"三股郷","koaza":"","lat":33.120701,"lng":129.93755,"zip":"8593706"},{"town":"村木郷","koaza":"","lat":33.149726,"lng":129.87281,"zip":"8593728"},{"town":"湯無田郷","koaza":"","lat":33.14841,"lng":129.915748,"zip":"8593702"}]