[{"town":"今福町","koaza":"","lat":33.339534,"lng":129.769626,"zip":"8594528"},{"town":"志佐町","koaza":"","lat":33.312308,"lng":129.720655,"zip":"8594511"},{"town":"鷹島町阿翁浦免","koaza":"","lat":33.454674,"lng":129.759743,"zip":"8594301"},{"town":"鷹島町阿翁免","koaza":"","lat":33.45659,"lng":129.763931,"zip":"8594302"},{"town":"鷹島町黒島免","koaza":"","lat":33.457237,"lng":129.722242,"zip":"8594309"},{"town":"鷹島町神崎免","koaza":"","lat":33.434048,"lng":129.770153,"zip":"8594303"},{"town":"鷹島町里免","koaza":"","lat":33.443655,"lng":129.756375,"zip":"8594304"},{"town":"鷹島町三里免","koaza":"","lat":33.416886,"lng":129.737955,"zip":"8594307"},{"town":"鷹島町中通免","koaza":"","lat":33.432236,"lng":129.752251,"zip":"8594305"},{"town":"鷹島町原免","koaza":"","lat":33.424524,"lng":129.748474,"zip":"8594306"},{"town":"鷹島町舩唐津免","koaza":"","lat":33.416253,"lng":129.725186,"zip":"8594500"},{"town":"調川町","koaza":"","lat":33.33955,"lng":129.738702,"zip":"8594533"},{"town":"福島町浅谷免","koaza":"","lat":33.376626,"lng":129.819397,"zip":"8480404"},{"town":"福島町喜内瀬免","koaza":"","lat":33.377522,"lng":129.848478,"zip":"8480401"},{"town":"福島町里免","koaza":"","lat":33.394143,"lng":129.825181,"zip":"8480408"},{"town":"福島町塩浜免","koaza":"","lat":33.361011,"lng":129.813493,"zip":"8480403"},{"town":"福島町土谷免","koaza":"","lat":33.388318,"lng":129.81448,"zip":"8480405"},{"town":"福島町鍋串免","koaza":"","lat":33.408904,"lng":129.805794,"zip":"8480407"},{"town":"福島町端免","koaza":"","lat":33.373567,"lng":129.836482,"zip":"8480402"},{"town":"福島町原免","koaza":"","lat":33.401347,"lng":129.818005,"zip":"8480406"},{"town":"星鹿町","koaza":"","lat":33.38379,"lng":129.671326,"zip":"8594745"},{"town":"御厨町","koaza":"","lat":33.34057,"lng":129.65945,"zip":"8594761"},{"town":"御厨町","koaza":"大崎免","lat":33.367514,"lng":129.653369,"zip":"8594761"},{"town":"御厨町","koaza":"前田免","lat":33.35851,"lng":129.662965,"zip":"8594761"},{"town":"御厨町","koaza":"里免","lat":33.365784,"lng":129.665098,"zip":"8594761"},{"town":"御厨町","koaza":"池田免","lat":33.369473,"lng":129.665948,"zip":"8594761"},{"town":"星鹿町","koaza":"北久保免","lat":33.373009,"lng":129.670443,"zip":"8594745"},{"town":"星鹿町","koaza":"岳崎免","lat":33.386245,"lng":129.672946,"zip":"8594745"},{"town":"星鹿町","koaza":"下田免","lat":33.383169,"lng":129.670573,"zip":"8594745"},{"town":"御厨町","koaza":"中野免","lat":33.359663,"lng":129.668916,"zip":"8594761"},{"town":"星鹿町","koaza":"牟田免","lat":33.377993,"lng":129.67059,"zip":"8594745"},{"town":"御厨町","koaza":"北平免","lat":33.353353,"lng":129.676841,"zip":"8594761"},{"town":"志佐町","koaza":"白浜免","lat":33.346501,"lng":129.691968,"zip":"8594511"},{"town":"志佐町","koaza":"庄野免","lat":33.340632,"lng":129.70153,"zip":"8594511"},{"town":"志佐町","koaza":"浦免","lat":33.343342,"lng":129.71315,"zip":"8594511"},{"town":"志佐町","koaza":"栢木免","lat":33.328607,"lng":129.705532,"zip":"8594511"},{"town":"志佐町","koaza":"里免","lat":33.335877,"lng":129.717006,"zip":"8594511"},{"town":"志佐町","koaza":"高野免","lat":33.330205,"lng":129.716533,"zip":"8594511"},{"town":"調川町","koaza":"下免","lat":33.353569,"lng":129.738701,"zip":"8594533"},{"town":"調川町","koaza":"上免","lat":33.340645,"lng":129.737515,"zip":"8594533"},{"town":"調川町","koaza":"平尾免","lat":33.350426,"lng":129.746901,"zip":"8594533"},{"town":"調川町","koaza":"中免","lat":33.346691,"lng":129.740284,"zip":"8594533"},{"town":"今福町","koaza":"浦免","lat":33.35907,"lng":129.758218,"zip":"8594528"},{"town":"今福町","koaza":"仏坂免","lat":33.352518,"lng":129.758058,"zip":"8594528"},{"town":"今福町","koaza":"寺上免","lat":33.349343,"lng":129.769962,"zip":"8594528"},{"town":"今福町","koaza":"東免","lat":33.352456,"lng":129.776748,"zip":"8594528"},{"town":"今福町","koaza":"北免","lat":33.358791,"lng":129.778821,"zip":"8594528"},{"town":"今福町","koaza":"滑栄免","lat":33.343506,"lng":129.786051,"zip":"8594528"}]