[{"town":"大島町","koaza":"","lat":33.044388,"lng":129.608218,"zip":"8572427"},{"town":"大瀬戸町瀬戸下山郷","koaza":"","lat":32.961188,"lng":129.686689,"zip":"8572304"},{"town":"大瀬戸町瀬戸西濱郷","koaza":"","lat":32.944063,"lng":129.660805,"zip":"8572303"},{"town":"大瀬戸町瀬戸羽出川郷","koaza":"","lat":32.948316,"lng":129.686296,"zip":"8572305"},{"town":"大瀬戸町瀬戸東濱郷","koaza":"","lat":32.932887,"lng":129.662226,"zip":"8572306"},{"town":"大瀬戸町瀬戸福島郷","koaza":"","lat":32.928511,"lng":129.637963,"zip":"8572307"},{"town":"大瀬戸町多以良内郷","koaza":"","lat":32.969614,"lng":129.666956,"zip":"8572312"},{"town":"大瀬戸町多以良外郷","koaza":"","lat":32.972117,"lng":129.633796,"zip":"8572311"},{"town":"大瀬戸町松島内郷","koaza":"","lat":32.938854,"lng":129.599104,"zip":"8572531"},{"town":"大瀬戸町松島外郷","koaza":"","lat":32.926155,"lng":129.611112,"zip":"8572532"},{"town":"大瀬戸町雪浦奥浦郷","koaza":"","lat":32.939734,"lng":129.693879,"zip":"8572324"},{"town":"大瀬戸町雪浦上郷","koaza":"","lat":32.926145,"lng":129.677681,"zip":"8572327"},{"town":"大瀬戸町雪浦久良木郷","koaza":"","lat":32.926103,"lng":129.720316,"zip":"8572322"},{"town":"大瀬戸町雪浦河通郷","koaza":"","lat":32.92187,"lng":129.694511,"zip":"8572323"},{"town":"大瀬戸町雪浦幸物郷","koaza":"","lat":32.947571,"lng":129.720074,"zip":"8572321"},{"town":"大瀬戸町雪浦小松郷","koaza":"","lat":32.905714,"lng":129.682683,"zip":"8572325"},{"town":"大瀬戸町雪浦下郷","koaza":"","lat":32.91416,"lng":129.664844,"zip":"8572326"},{"town":"大瀬戸町雪浦下釜郷","koaza":"","lat":32.923843,"lng":129.660012,"zip":"8572328"},{"town":"西海町天久保郷","koaza":"","lat":33.071088,"lng":129.679792,"zip":"8513507"},{"town":"西海町太田原郷","koaza":"","lat":33.038552,"lng":129.717359,"zip":"8513503"},{"town":"西海町太田和郷","koaza":"","lat":33.043443,"lng":129.677855,"zip":"8513505"},{"town":"西海町面高郷","koaza":"","lat":33.083008,"lng":129.681867,"zip":"8513508"},{"town":"西海町川内郷","koaza":"","lat":33.051771,"lng":129.713094,"zip":"8513502"},{"town":"西海町黒口郷","koaza":"","lat":33.058218,"lng":129.677525,"zip":"8513506"},{"town":"西海町木場郷","koaza":"","lat":33.04309,"lng":129.702907,"zip":"8513504"},{"town":"西海町丹納郷","koaza":"","lat":33.061288,"lng":129.705313,"zip":"8513501"},{"town":"西海町中浦北郷","koaza":"","lat":33.027763,"lng":129.66471,"zip":"8572222"},{"town":"西海町中浦南郷","koaza":"","lat":33.011316,"lng":129.67542,"zip":"8572221"},{"town":"西海町七釜郷","koaza":"","lat":32.991174,"lng":129.679102,"zip":"8572223"},{"town":"西海町水浦郷","koaza":"","lat":33.055658,"lng":129.732699,"zip":"8513511"},{"town":"西海町横瀬郷","koaza":"","lat":33.076195,"lng":129.705396,"zip":"8513509"},{"town":"崎戸町江島","koaza":"","lat":33.00933,"lng":129.352144,"zip":"8573103"},{"town":"崎戸町蠣浦郷","koaza":"","lat":33.01932,"lng":129.579036,"zip":"8573101"},{"town":"崎戸町平島","koaza":"","lat":33.006305,"lng":129.241616,"zip":"8573311"},{"town":"崎戸町本郷","koaza":"","lat":33.006424,"lng":129.561268,"zip":"8573102"},{"town":"西彼町伊ノ浦郷","koaza":"","lat":33.0543,"lng":129.745361,"zip":"8513421"},{"town":"西彼町大串郷","koaza":"","lat":33.007431,"lng":129.717275,"zip":"8513424"},{"town":"西彼町風早郷","koaza":"","lat":32.978243,"lng":129.812204,"zip":"8513313"},{"town":"西彼町上岳郷","koaza":"","lat":32.982912,"lng":129.785525,"zip":"8513304"},{"town":"西彼町亀浦郷","koaza":"","lat":32.996112,"lng":129.805201,"zip":"8513303"},{"town":"西彼町小迎郷","koaza":"","lat":33.045258,"lng":129.746265,"zip":"8513422"},{"town":"西彼町喰場郷","koaza":"","lat":32.974943,"lng":129.761344,"zip":"8513305"},{"town":"西彼町下岳郷","koaza":"","lat":33.000719,"lng":129.772833,"zip":"8513311"},{"town":"西彼町白似田郷","koaza":"","lat":32.971539,"lng":129.796848,"zip":"8513314"},{"town":"西彼町白崎郷","koaza":"","lat":33.011771,"lng":129.766111,"zip":"8513312"},{"town":"西彼町鳥加郷","koaza":"","lat":32.974049,"lng":129.733247,"zip":"8513306"},{"town":"西彼町中山郷","koaza":"","lat":32.992081,"lng":129.793937,"zip":"8513302"},{"town":"西彼町平原郷","koaza":"","lat":32.96408,"lng":129.771688,"zip":"8513315"},{"town":"西彼町平山郷","koaza":"","lat":32.990314,"lng":129.718543,"zip":"8513425"},{"town":"西彼町宮浦郷","koaza":"","lat":33.006395,"lng":129.794521,"zip":"8513301"},{"town":"西彼町八木原郷","koaza":"","lat":33.029086,"lng":129.73162,"zip":"8513423"},{"town":"大瀬戸町瀬戸板浦郷","koaza":"","lat":32.946446,"lng":129.642136,"zip":"8572301"},{"town":"大瀬戸町瀬戸樫浦郷","koaza":"","lat":32.942469,"lng":129.650353,"zip":"8572302"},{"town":"大島町","koaza":"蛤","lat":33.029402,"lng":129.603376,"zip":"8572427"},{"town":"大島町","koaza":"徳万","lat":33.03485,"lng":129.609927,"zip":"8572427"},{"town":"大島町","koaza":"間瀬東町二区","lat":33.036482,"lng":129.617598,"zip":"8572427"},{"town":"大島町","koaza":"馬込西","lat":33.040178,"lng":129.622756,"zip":"8572427"},{"town":"大島町","koaza":"間瀬本町一区","lat":33.035886,"lng":129.620387,"zip":"8572427"},{"town":"大島町","koaza":"馬込東","lat":33.046862,"lng":129.624034,"zip":"8572427"},{"town":"大島町","koaza":"真砂","lat":33.036662,"lng":129.623173,"zip":"8572427"}]