[{"town":"青葉台","koaza":"","lat":32.828584,"lng":130.004388,"zip":"8540068"},{"town":"赤崎町","koaza":"","lat":32.834488,"lng":130.107168,"zip":"8540032"},{"town":"旭町","koaza":"","lat":32.844379,"lng":130.059881,"zip":"8540027"},{"town":"小豆崎町","koaza":"","lat":32.857704,"lng":130.067286,"zip":"8590311"},{"town":"飯盛町池下","koaza":"","lat":32.75715,"lng":129.991455,"zip":"8541125"},{"town":"飯盛町上原","koaza":"","lat":32.784051,"lng":130.039877,"zip":"8541104"},{"town":"飯盛町後田","koaza":"","lat":32.773674,"lng":130.038658,"zip":"8541105"},{"town":"飯盛町川下","koaza":"","lat":32.762969,"lng":130.006064,"zip":"8541124"},{"town":"飯盛町久保","koaza":"","lat":32.766773,"lng":130.01725,"zip":"8541114"},{"town":"飯盛町古場","koaza":"","lat":32.792483,"lng":129.996059,"zip":"8541121"},{"town":"飯盛町佐田","koaza":"","lat":32.773537,"lng":130.009884,"zip":"8541122"},{"town":"飯盛町里","koaza":"","lat":32.77156,"lng":129.995485,"zip":"8541123"},{"town":"飯盛町下釜","koaza":"","lat":32.763171,"lng":130.024255,"zip":"8541113"},{"town":"飯盛町中山","koaza":"","lat":32.79061,"lng":130.036558,"zip":"8541103"},{"town":"飯盛町野中","koaza":"","lat":32.79142,"lng":130.023685,"zip":"8541101"},{"town":"飯盛町開","koaza":"","lat":32.774509,"lng":130.02031,"zip":"8541112"},{"town":"飯盛町平古場","koaza":"","lat":32.79162,"lng":130.009982,"zip":"8541111"},{"town":"飯盛町山口","koaza":"","lat":32.799332,"lng":130.039411,"zip":"8541102"},{"town":"泉町","koaza":"","lat":32.851874,"lng":130.053306,"zip":"8540003"},{"town":"上野町","koaza":"","lat":32.83891,"lng":130.056029,"zip":"8540042"},{"town":"有喜町","koaza":"","lat":32.794295,"lng":130.080054,"zip":"8540121"},{"town":"宇都町","koaza":"","lat":32.841112,"lng":130.041969,"zip":"8540061"},{"town":"永昌東町","koaza":"","lat":32.852982,"lng":130.042884,"zip":"8540071"},{"town":"永昌町","koaza":"","lat":32.851119,"lng":130.037662,"zip":"8540072"},{"town":"栄田町","koaza":"","lat":32.861455,"lng":130.036592,"zip":"8540081"},{"town":"大場町","koaza":"","lat":32.921411,"lng":130.061684,"zip":"8590315"},{"town":"小川町","koaza":"","lat":32.821921,"lng":130.058867,"zip":"8540053"},{"town":"御手水町","koaza":"","lat":32.891922,"lng":130.065412,"zip":"8590314"},{"town":"小野島町","koaza":"","lat":32.849461,"lng":130.097305,"zip":"8540031"},{"town":"小野町","koaza":"","lat":32.831458,"lng":130.091694,"zip":"8540034"},{"town":"小船越町","koaza":"","lat":32.842861,"lng":130.032333,"zip":"8540062"},{"town":"貝津ヶ丘","koaza":"","lat":32.83035,"lng":130.007232,"zip":"8540069"},{"town":"貝津町","koaza":"","lat":32.83171,"lng":130.02158,"zip":"8540063"},{"town":"金谷町","koaza":"","lat":32.850215,"lng":130.051274,"zip":"8540004"},{"town":"上大渡野町","koaza":"","lat":32.915707,"lng":130.021579,"zip":"8540095"},{"town":"上町","koaza":"","lat":32.841188,"lng":130.056631,"zip":"8540024"},{"town":"川内町","koaza":"","lat":32.850089,"lng":130.081429,"zip":"8540037"},{"town":"川床町","koaza":"","lat":32.819096,"lng":130.073757,"zip":"8540052"},{"town":"久山台","koaza":"","lat":32.826065,"lng":129.994582,"zip":"8540067"},{"town":"栗面町","koaza":"","lat":32.827132,"lng":130.044392,"zip":"8540055"},{"town":"黒崎町","koaza":"","lat":32.82871,"lng":130.099475,"zip":"8540033"},{"town":"厚生町","koaza":"","lat":32.841471,"lng":130.058072,"zip":"8540023"},{"town":"高天町","koaza":"","lat":32.882557,"lng":130.088225,"zip":"8590303"},{"town":"小ケ倉町","koaza":"","lat":32.810566,"lng":130.057919,"zip":"8540054"},{"town":"小長井町井崎","koaza":"","lat":32.937994,"lng":130.183777,"zip":"8590166"},{"town":"小長井町打越","koaza":"","lat":32.926858,"lng":130.164549,"zip":"8590151"},{"town":"小長井町大搦","koaza":"","lat":32.928299,"lng":130.148972,"zip":"8590152"},{"town":"小長井町大峰","koaza":"","lat":32.914039,"lng":130.160284,"zip":"8590153"},{"town":"小長井町小川原浦","koaza":"","lat":32.92833,"lng":130.186311,"zip":"8590165"},{"town":"小長井町川内","koaza":"","lat":32.942341,"lng":130.147919,"zip":"8590154"},{"town":"小長井町古場","koaza":"","lat":32.955229,"lng":130.134261,"zip":"8590161"},{"town":"小長井町新田原","koaza":"","lat":32.928171,"lng":130.178303,"zip":"8590162"},{"town":"小長井町田原","koaza":"","lat":32.950033,"lng":130.158684,"zip":"8590163"},{"town":"小長井町遠竹","koaza":"","lat":32.956853,"lng":130.183488,"zip":"8590167"},{"town":"小長井町牧","koaza":"","lat":32.923323,"lng":130.173691,"zip":"8590164"},{"town":"幸町","koaza":"","lat":32.838762,"lng":130.067114,"zip":"8540022"},{"town":"栄町","koaza":"","lat":32.842074,"lng":130.05536,"zip":"8540013"},{"town":"猿崎町","koaza":"","lat":32.884899,"lng":130.099326,"zip":"8590305"},{"town":"下大渡野町","koaza":"","lat":32.884881,"lng":130.016714,"zip":"8540096"},{"town":"正久寺町","koaza":"","lat":32.882234,"lng":130.082634,"zip":"8590302"},{"town":"白岩町","koaza":"","lat":32.847934,"lng":130.021678,"zip":"8540077"},{"town":"白木峰町","koaza":"","lat":32.923373,"lng":130.073235,"zip":"8590307"},{"town":"白浜町","koaza":"","lat":32.880106,"lng":130.097105,"zip":"8590304"},{"town":"白原町","koaza":"","lat":32.894798,"lng":130.086623,"zip":"8590306"},{"town":"城見町","koaza":"","lat":32.852897,"lng":130.048907,"zip":"8540005"},{"town":"新道町","koaza":"","lat":32.835325,"lng":130.050334,"zip":"8540045"},{"town":"高来町泉","koaza":"","lat":32.900631,"lng":130.145567,"zip":"8590121"},{"town":"高来町上与","koaza":"","lat":32.898093,"lng":130.113217,"zip":"8590111"},{"town":"高来町小江干拓","koaza":"","lat":32.88938,"lng":130.124001,"zip":"8590171"},{"town":"高来町大戸","koaza":"","lat":32.882692,"lng":130.10678,"zip":"8590101"},{"town":"高来町折山","koaza":"","lat":32.904672,"lng":130.099813,"zip":"8590102"},{"town":"高来町金崎","koaza":"","lat":32.902027,"lng":130.151153,"zip":"8590146"},{"town":"高来町汲水","koaza":"","lat":32.913108,"lng":130.145758,"zip":"8590141"},{"town":"高来町黒崎","koaza":"","lat":32.901548,"lng":130.13043,"zip":"8590122"},{"town":"高来町黒新田","koaza":"","lat":32.951061,"lng":130.120619,"zip":"8590142"},{"town":"高来町神津倉","koaza":"","lat":32.94266,"lng":130.112439,"zip":"8590131"},{"town":"高来町古場","koaza":"","lat":32.928165,"lng":130.083363,"zip":"8590103"},{"town":"高来町小船津","koaza":"","lat":32.899777,"lng":130.120348,"zip":"8590112"},{"town":"高来町小峰","koaza":"","lat":32.918707,"lng":130.114266,"zip":"8590123"},{"town":"高来町坂元","koaza":"","lat":32.922005,"lng":130.145126,"zip":"8590143"},{"town":"高来町里","koaza":"","lat":32.900528,"lng":130.137686,"zip":"8590124"},{"town":"高来町三部壱","koaza":"","lat":32.903198,"lng":130.141123,"zip":"8590132"},{"town":"高来町下与","koaza":"","lat":32.892498,"lng":130.116672,"zip":"8590113"},{"town":"高来町善住寺","koaza":"","lat":32.923498,"lng":130.12477,"zip":"8590125"},{"town":"高来町建山","koaza":"","lat":32.903259,"lng":130.090326,"zip":"8590104"},{"town":"高来町西尾","koaza":"","lat":32.919755,"lng":130.106335,"zip":"8590115"},{"town":"高来町西平原","koaza":"","lat":32.899442,"lng":130.100372,"zip":"8590114"},{"town":"高来町法川","koaza":"","lat":32.908592,"lng":130.130295,"zip":"8590126"},{"town":"高来町東平原","koaza":"","lat":32.918568,"lng":130.136006,"zip":"8590133"},{"town":"高来町平田","koaza":"","lat":32.929083,"lng":130.094763,"zip":"8590116"},{"town":"高来町冨地戸","koaza":"","lat":32.888191,"lng":130.108313,"zip":"8590106"},{"town":"高来町船津","koaza":"","lat":32.890033,"lng":130.103417,"zip":"8590105"},{"town":"高来町町名","koaza":"","lat":32.904579,"lng":130.136575,"zip":"8590127"},{"town":"高来町水ノ浦","koaza":"","lat":32.912129,"lng":130.155056,"zip":"8590147"},{"town":"高来町溝口","koaza":"","lat":32.906807,"lng":130.147586,"zip":"8590144"},{"town":"高来町峰","koaza":"","lat":32.893056,"lng":130.107888,"zip":"8590117"},{"town":"高来町山道","koaza":"","lat":32.910471,"lng":130.151331,"zip":"8590145"},{"town":"高城町","koaza":"","lat":32.844913,"lng":130.048018,"zip":"8540016"},{"town":"立石町","koaza":"","lat":32.836027,"lng":130.06036,"zip":"8540043"},{"town":"多良見町市布","koaza":"","lat":32.817707,"lng":129.963044,"zip":"8590403"},{"town":"多良見町囲","koaza":"","lat":32.82465,"lng":129.978478,"zip":"8590402"},{"town":"多良見町木床","koaza":"","lat":32.840491,"lng":129.971064,"zip":"8590406"},{"town":"多良見町化屋","koaza":"","lat":32.821415,"lng":129.986576,"zip":"8590401"},{"town":"多良見町佐瀬","koaza":"","lat":32.863275,"lng":129.904033,"zip":"8590418"},{"town":"多良見町シーサイド","koaza":"","lat":32.838608,"lng":129.990321,"zip":"8590407"},{"town":"多良見町中里","koaza":"","lat":32.830191,"lng":129.964983,"zip":"8590405"},{"town":"多良見町西川内","koaza":"","lat":32.825707,"lng":129.945668,"zip":"8590404"},{"town":"多良見町西園","koaza":"","lat":32.840762,"lng":129.952817,"zip":"8590412"},{"town":"多良見町野川内","koaza":"","lat":32.843952,"lng":129.911377,"zip":"8590416"},{"town":"多良見町野副","koaza":"","lat":32.848475,"lng":129.946792,"zip":"8590413"},{"town":"多良見町東園","koaza":"","lat":32.843519,"lng":129.964635,"zip":"8590411"},{"town":"多良見町舟津","koaza":"","lat":32.858636,"lng":129.924736,"zip":"8590417"},{"town":"多良見町元釜","koaza":"","lat":32.846361,"lng":129.934263,"zip":"8590414"},{"town":"多良見町山川内","koaza":"","lat":32.835135,"lng":129.920865,"zip":"8590415"},{"town":"中央干拓","koaza":"","lat":32.858666,"lng":130.123558,"zip":"8540038"},{"town":"津水町","koaza":"","lat":32.84797,"lng":130.012253,"zip":"8540083"},{"town":"鶴田町","koaza":"","lat":32.801624,"lng":130.081907,"zip":"8540122"},{"town":"天神町","koaza":"","lat":32.799655,"lng":130.060213,"zip":"8540123"},{"town":"天満町","koaza":"","lat":32.855435,"lng":130.045888,"zip":"8540006"},{"town":"堂崎町","koaza":"","lat":32.844962,"lng":130.018634,"zip":"8540076"},{"town":"富川町","koaza":"","lat":32.929336,"lng":130.034771,"zip":"8540091"},{"town":"仲沖町","koaza":"","lat":32.844393,"lng":130.068881,"zip":"8540021"},{"town":"中尾町","koaza":"","lat":32.849166,"lng":130.030732,"zip":"8540073"},{"town":"中田町","koaza":"","lat":32.87576,"lng":130.06795,"zip":"8590313"},{"town":"長田町","koaza":"","lat":32.877299,"lng":130.076797,"zip":"8590301"},{"town":"中通町","koaza":"","lat":32.800111,"lng":130.073732,"zip":"8540124"},{"town":"長野町","koaza":"","lat":32.816787,"lng":130.084913,"zip":"8540036"},{"town":"西小路町","koaza":"","lat":32.840555,"lng":130.049797,"zip":"8540015"},{"town":"西郷町","koaza":"","lat":32.834276,"lng":130.057255,"zip":"8540044"},{"town":"西里町","koaza":"","lat":32.858839,"lng":130.074592,"zip":"8590312"},{"town":"野中町","koaza":"","lat":32.83684,"lng":130.055109,"zip":"8540047"},{"town":"土師野尾町","koaza":"","lat":32.811191,"lng":130.025752,"zip":"8540056"},{"town":"八天町","koaza":"","lat":32.846904,"lng":130.058009,"zip":"8540011"},{"town":"早見町","koaza":"","lat":32.787904,"lng":130.058345,"zip":"8540125"},{"town":"原口町","koaza":"","lat":32.837757,"lng":130.051252,"zip":"8540046"},{"town":"東小路町","koaza":"","lat":32.843044,"lng":130.052643,"zip":"8540014"},{"town":"東本町","koaza":"","lat":32.844469,"lng":130.057463,"zip":"8540026"},{"town":"日の出町","koaza":"","lat":32.863101,"lng":130.049851,"zip":"8540002"},{"town":"平山町","koaza":"","lat":32.822333,"lng":130.035967,"zip":"8540057"},{"town":"福田町","koaza":"","lat":32.875451,"lng":130.058617,"zip":"8540001"},{"town":"船越町","koaza":"","lat":32.837356,"lng":130.063957,"zip":"8540041"},{"town":"堀の内町","koaza":"","lat":32.854853,"lng":130.021681,"zip":"8540086"},{"town":"本町","koaza":"","lat":32.844746,"lng":130.054855,"zip":"8540012"},{"town":"本明町","koaza":"","lat":32.878303,"lng":130.033829,"zip":"8540094"},{"town":"真崎町","koaza":"","lat":32.855225,"lng":130.028051,"zip":"8540084"},{"town":"松里町","koaza":"","lat":32.797076,"lng":130.093491,"zip":"8540126"},{"town":"馬渡町","koaza":"","lat":32.842813,"lng":130.025251,"zip":"8540075"},{"town":"宗方町","koaza":"","lat":32.818258,"lng":130.093745,"zip":"8540035"},{"town":"目代町","koaza":"","lat":32.888145,"lng":130.051366,"zip":"8540007"},{"town":"本野町","koaza":"","lat":32.898767,"lng":130.034995,"zip":"8540093"},{"town":"森山町上井牟田","koaza":"","lat":32.805442,"lng":130.111607,"zip":"8540209"},{"town":"森山町唐比北","koaza":"","lat":32.805227,"lng":130.127738,"zip":"8540206"},{"town":"森山町唐比西","koaza":"","lat":32.793995,"lng":130.127952,"zip":"8540208"},{"town":"森山町唐比東","koaza":"","lat":32.800752,"lng":130.136459,"zip":"8540207"},{"town":"森山町慶師野","koaza":"","lat":32.822593,"lng":130.119855,"zip":"8540202"},{"town":"森山町下井牟田","koaza":"","lat":32.829538,"lng":130.114324,"zip":"8540201"},{"town":"森山町杉谷","koaza":"","lat":32.817679,"lng":130.143003,"zip":"8540205"},{"town":"森山町田尻","koaza":"","lat":32.832138,"lng":130.145392,"zip":"8540204"},{"town":"森山町本村","koaza":"","lat":32.833096,"lng":130.127862,"zip":"8540203"},{"town":"八坂町","koaza":"","lat":32.843161,"lng":130.056747,"zip":"8540025"},{"town":"山川町","koaza":"","lat":32.8482,"lng":130.026691,"zip":"8540074"},{"town":"湯野尾町","koaza":"","lat":32.928491,"lng":130.050314,"zip":"8540092"},{"town":"鷲崎町","koaza":"","lat":32.832358,"lng":130.066615,"zip":"8540051"},{"town":"破籠井町","koaza":"","lat":32.868039,"lng":130.019578,"zip":"8540085"},{"town":"西栄田町","koaza":"","lat":32.861486,"lng":130.029113,"zip":"8540082"},{"town":"久山町","koaza":"","lat":32.82158,"lng":129.995857,"zip":"8540066"},{"town":"若葉町","koaza":"","lat":32.827454,"lng":130.005693,"zip":"8540064"},{"town":"津久葉町","koaza":"","lat":32.820112,"lng":130.010289,"zip":"8540065"},{"town":"大字真崎本村名","koaza":"","lat":32.859647,"lng":130.023634,"zip":"8540000"},{"town":"大さこ町","koaza":"","lat":32.859697,"lng":130.026337,"zip":"8540087"}]