[{"town":"相生町","koaza":"","lat":32.733844,"lng":129.871781,"zip":"8500922"},{"town":"相川町","koaza":"","lat":32.800468,"lng":129.788654,"zip":"8511122"},{"town":"青山町","koaza":"","lat":32.77648,"lng":129.848274,"zip":"8528036"},{"town":"赤首町","koaza":"","lat":32.851333,"lng":129.690678,"zip":"8512321"},{"town":"赤迫一丁目","koaza":"","lat":32.79528,"lng":129.857061,"zip":"8528156"},{"town":"赤迫二丁目","koaza":"","lat":32.797787,"lng":129.856877,"zip":"8528156"},{"town":"赤迫三丁目","koaza":"","lat":32.800962,"lng":129.854873,"zip":"8528156"},{"town":"秋月町","koaza":"","lat":32.747477,"lng":129.849053,"zip":"8500064"},{"town":"飽の浦町","koaza":"","lat":32.743229,"lng":129.85688,"zip":"8500063"},{"town":"曙町","koaza":"","lat":32.753668,"lng":129.858217,"zip":"8528008"},{"town":"旭町","koaza":"","lat":32.750554,"lng":129.864054,"zip":"8528003"},{"town":"畝刈町","koaza":"","lat":32.831102,"lng":129.781693,"zip":"8512212"},{"town":"畦別当町","koaza":"","lat":32.812614,"lng":129.920849,"zip":"8528141"},{"town":"畦町","koaza":"","lat":32.819009,"lng":129.740925,"zip":"8512201"},{"town":"愛宕一丁目","koaza":"","lat":32.73852,"lng":129.88779,"zip":"8500822"},{"town":"愛宕二丁目","koaza":"","lat":32.737535,"lng":129.891132,"zip":"8500822"},{"town":"愛宕三丁目","koaza":"","lat":32.733629,"lng":129.890233,"zip":"8500822"},{"town":"愛宕四丁目","koaza":"","lat":32.735359,"lng":129.893977,"zip":"8500822"},{"town":"網場町","koaza":"","lat":32.751043,"lng":129.943273,"zip":"8510123"},{"town":"油木町","koaza":"","lat":32.782252,"lng":129.847827,"zip":"8528035"},{"town":"油屋町","koaza":"","lat":32.742216,"lng":129.881879,"zip":"8500832"},{"town":"家野町","koaza":"","lat":32.788097,"lng":129.862499,"zip":"8528136"},{"town":"伊王島町一丁目","koaza":"","lat":32.708593,"lng":129.766933,"zip":"8511201"},{"town":"伊王島町二丁目","koaza":"","lat":32.696383,"lng":129.780682,"zip":"8511201"},{"town":"飯香浦町","koaza":"","lat":32.725328,"lng":129.929208,"zip":"8510254"},{"town":"以下宿町","koaza":"","lat":32.618224,"lng":129.799088,"zip":"8510502"},{"town":"池島町","koaza":"","lat":32.885527,"lng":129.599625,"zip":"8570071"},{"town":"石神町","koaza":"","lat":32.785858,"lng":129.872109,"zip":"8528126"},{"town":"泉一丁目","koaza":"","lat":32.794858,"lng":129.865129,"zip":"8528151"},{"town":"泉三丁目","koaza":"","lat":32.797302,"lng":129.860485,"zip":"8528151"},{"town":"泉二丁目","koaza":"","lat":32.797592,"lng":129.864286,"zip":"8528151"},{"town":"泉町","koaza":"","lat":32.804406,"lng":129.867316,"zip":"8528157"},{"town":"出雲一丁目","koaza":"","lat":32.728796,"lng":129.873477,"zip":"8500924"},{"town":"出雲二丁目","koaza":"","lat":32.728616,"lng":129.869872,"zip":"8500924"},{"town":"出雲三丁目","koaza":"","lat":32.724337,"lng":129.873883,"zip":"8500924"},{"town":"伊勢町","koaza":"","lat":32.751846,"lng":129.885511,"zip":"8500018"},{"town":"磯道町","koaza":"","lat":32.697967,"lng":129.849736,"zip":"8500971"},{"town":"稲佐町","koaza":"","lat":32.756075,"lng":129.855261,"zip":"8528011"},{"town":"稲田町","koaza":"","lat":32.736855,"lng":129.877894,"zip":"8500907"},{"town":"今博多町","koaza":"","lat":32.750591,"lng":129.882127,"zip":"8500025"},{"town":"伊良林一丁目","koaza":"","lat":32.750932,"lng":129.886942,"zip":"8500802"},{"town":"伊良林二丁目","koaza":"","lat":32.748987,"lng":129.888083,"zip":"8500802"},{"town":"伊良林三丁目","koaza":"","lat":32.746312,"lng":129.887635,"zip":"8500802"},{"town":"入船町","koaza":"","lat":32.745115,"lng":129.845627,"zip":"8500065"},{"town":"岩川町","koaza":"","lat":32.766636,"lng":129.865469,"zip":"8528106"},{"town":"岩瀬道町","koaza":"","lat":32.737828,"lng":129.85458,"zip":"8500072"},{"town":"岩見町","koaza":"","lat":32.767632,"lng":129.853576,"zip":"8528017"},{"town":"岩屋町","koaza":"","lat":32.797372,"lng":129.846388,"zip":"8528052"},{"town":"上田町","koaza":"","lat":32.732101,"lng":129.871725,"zip":"8500923"},{"town":"上野町","koaza":"","lat":32.778771,"lng":129.867645,"zip":"8528113"},{"town":"魚の町","koaza":"","lat":32.748659,"lng":129.879922,"zip":"8500874"},{"town":"現川町","koaza":"","lat":32.792212,"lng":129.922377,"zip":"8510135"},{"town":"馬町","koaza":"","lat":32.75238,"lng":129.882487,"zip":"8500022"},{"town":"梅香崎町","koaza":"","lat":32.739962,"lng":129.874188,"zip":"8500909"},{"town":"上町","koaza":"","lat":32.75158,"lng":129.877757,"zip":"8500054"},{"town":"江川町","koaza":"","lat":32.683239,"lng":129.843166,"zip":"8500992"},{"town":"江戸町","koaza":"","lat":32.744684,"lng":129.87359,"zip":"8500861"},{"town":"江の浦町","koaza":"","lat":32.751731,"lng":129.856014,"zip":"8528007"},{"town":"恵美須町","koaza":"","lat":32.750517,"lng":129.874573,"zip":"8500056"},{"town":"江平一丁目","koaza":"","lat":32.769839,"lng":129.875238,"zip":"8528101"},{"town":"江平二丁目","koaza":"","lat":32.773178,"lng":129.873409,"zip":"8528101"},{"town":"江平三丁目","koaza":"","lat":32.771652,"lng":129.879712,"zip":"8528101"},{"town":"エミネント葉山町","koaza":"","lat":32.801618,"lng":129.844174,"zip":"8528054"},{"town":"江里町","koaza":"","lat":32.780766,"lng":129.858381,"zip":"8528032"},{"town":"大井手町","koaza":"","lat":32.751074,"lng":129.88257,"zip":"8500024"},{"town":"大浦東町","koaza":"","lat":32.732743,"lng":129.87341,"zip":"8500916"},{"town":"大浦町","koaza":"","lat":32.736614,"lng":129.871739,"zip":"8500918"},{"town":"扇町","koaza":"","lat":32.784213,"lng":129.868545,"zip":"8528132"},{"town":"大籠町","koaza":"","lat":32.672195,"lng":129.822768,"zip":"8510302"},{"town":"大崎町","koaza":"","lat":32.672634,"lng":129.890059,"zip":"8510244"},{"town":"大園町","koaza":"","lat":32.804165,"lng":129.839265,"zip":"8528062"},{"town":"太田尾町","koaza":"","lat":32.735193,"lng":129.936671,"zip":"8510255"},{"town":"大谷町","koaza":"","lat":32.747068,"lng":129.853987,"zip":"8500062"},{"town":"大手一丁目","koaza":"","lat":32.790539,"lng":129.873928,"zip":"8528127"},{"town":"大手二丁目","koaza":"","lat":32.789093,"lng":129.878188,"zip":"8528127"},{"town":"大手三丁目","koaza":"","lat":32.792023,"lng":129.877427,"zip":"8528127"},{"town":"大鳥町","koaza":"","lat":32.748526,"lng":129.858399,"zip":"8528005"},{"town":"大橋町","koaza":"","lat":32.781701,"lng":129.86259,"zip":"8528134"},{"town":"大浜町","koaza":"","lat":32.750937,"lng":129.839113,"zip":"8500066"},{"town":"大宮町","koaza":"","lat":32.797912,"lng":129.834088,"zip":"8528056"},{"town":"大山町","koaza":"","lat":32.697046,"lng":129.875056,"zip":"8500964"},{"town":"岡町","koaza":"","lat":32.777407,"lng":129.862856,"zip":"8528115"},{"town":"桶屋町","koaza":"","lat":32.749621,"lng":129.881191,"zip":"8500027"},{"town":"音無町","koaza":"","lat":32.789335,"lng":129.858324,"zip":"8528044"},{"town":"尾上町","koaza":"","lat":32.752794,"lng":129.868669,"zip":"8500058"},{"town":"御船蔵町","koaza":"","lat":32.757584,"lng":129.871492,"zip":"8500042"},{"town":"かき道一丁目","koaza":"","lat":32.770821,"lng":129.953788,"zip":"8510115"},{"town":"かき道二丁目","koaza":"","lat":32.77304,"lng":129.958367,"zip":"8510115"},{"town":"かき道三丁目","koaza":"","lat":32.772107,"lng":129.964266,"zip":"8510115"},{"town":"かき道四丁目","koaza":"","lat":32.767754,"lng":129.963702,"zip":"8510115"},{"town":"かき道五丁目","koaza":"","lat":32.767953,"lng":129.959804,"zip":"8510115"},{"town":"かき道六丁目","koaza":"","lat":32.765325,"lng":129.96082,"zip":"8510115"},{"town":"籠町","koaza":"","lat":32.740852,"lng":129.87648,"zip":"8500905"},{"town":"風頭町","koaza":"","lat":32.742947,"lng":129.888674,"zip":"8500803"},{"town":"鍛冶屋町","koaza":"","lat":32.743031,"lng":129.883124,"zip":"8500831"},{"town":"樫山町","koaza":"","lat":32.812817,"lng":129.737133,"zip":"8512202"},{"town":"春日町","koaza":"","lat":32.743497,"lng":129.951345,"zip":"8510124"},{"town":"片淵一丁目","koaza":"","lat":32.754198,"lng":129.886044,"zip":"8500003"},{"town":"片淵二丁目","koaza":"","lat":32.756039,"lng":129.887491,"zip":"8500003"},{"town":"片淵三丁目","koaza":"","lat":32.761945,"lng":129.892965,"zip":"8500003"},{"town":"片淵四丁目","koaza":"","lat":32.761169,"lng":129.889748,"zip":"8500003"},{"town":"片淵五丁目","koaza":"","lat":32.767345,"lng":129.892913,"zip":"8500003"},{"town":"勝山町","koaza":"","lat":32.751081,"lng":129.879854,"zip":"8500028"},{"town":"金堀町","koaza":"","lat":32.774267,"lng":129.844259,"zip":"8528026"},{"town":"金屋町","koaza":"","lat":32.749069,"lng":129.874641,"zip":"8500037"},{"town":"鹿尾町","koaza":"","lat":32.68653,"lng":129.866983,"zip":"8500973"},{"town":"樺島町","koaza":"","lat":32.746391,"lng":129.873147,"zip":"8500034"},{"town":"上浦町","koaza":"","lat":32.788166,"lng":129.817856,"zip":"8511131"},{"town":"上大野町","koaza":"","lat":32.86739,"lng":129.68311,"zip":"8512426"},{"town":"上黒崎町","koaza":"","lat":32.849746,"lng":129.724557,"zip":"8512324"},{"town":"上小島一丁目","koaza":"","lat":32.7372,"lng":129.884165,"zip":"8500834"},{"town":"上小島二丁目","koaza":"","lat":32.736016,"lng":129.886287,"zip":"8500834"},{"town":"上小島三丁目","koaza":"","lat":32.732919,"lng":129.88796,"zip":"8500834"},{"town":"上小島四丁目","koaza":"","lat":32.732388,"lng":129.885338,"zip":"8500834"},{"town":"上小島五丁目","koaza":"","lat":32.728766,"lng":129.88815,"zip":"8500834"},{"town":"上銭座町","koaza":"","lat":32.763617,"lng":129.869481,"zip":"8500048"},{"town":"上戸石町","koaza":"","lat":32.778166,"lng":129.973074,"zip":"8510111"},{"town":"上戸町","koaza":"","lat":32.7235,"lng":129.870261,"zip":"8500953"},{"town":"上戸町一丁目","koaza":"","lat":32.717985,"lng":129.868747,"zip":"8500953"},{"town":"上戸町二丁目","koaza":"","lat":32.715715,"lng":129.867638,"zip":"8500953"},{"town":"上戸町三丁目","koaza":"","lat":32.716567,"lng":129.870097,"zip":"8500953"},{"town":"上戸町四丁目","koaza":"","lat":32.707545,"lng":129.883174,"zip":"8500953"},{"town":"上西山町","koaza":"","lat":32.75499,"lng":129.883802,"zip":"8500006"},{"town":"神ノ島町一丁目","koaza":"","lat":32.725877,"lng":129.828471,"zip":"8500078"},{"town":"神ノ島町三丁目","koaza":"","lat":32.723141,"lng":129.823215,"zip":"8500078"},{"town":"川上町","koaza":"","lat":32.72789,"lng":129.878,"zip":"8500946"},{"town":"川口町","koaza":"","lat":32.767966,"lng":129.863549,"zip":"8528108"},{"town":"川内町","koaza":"","lat":32.780078,"lng":129.986953,"zip":"8510112"},{"town":"川平町","koaza":"","lat":32.801392,"lng":129.890218,"zip":"8528143"},{"town":"川原町","koaza":"","lat":32.631627,"lng":129.822863,"zip":"8510407"},{"town":"館内町","koaza":"","lat":32.738959,"lng":129.877078,"zip":"8500906"},{"town":"北浦町","koaza":"","lat":32.718165,"lng":129.91384,"zip":"8510242"},{"town":"木鉢町一丁目","koaza":"","lat":32.724875,"lng":129.842289,"zip":"8500076"},{"town":"木鉢町二丁目","koaza":"","lat":32.73362,"lng":129.840848,"zip":"8500076"},{"town":"京太郎町","koaza":"","lat":32.691974,"lng":129.853951,"zip":"8500974"},{"town":"京泊一丁目","koaza":"","lat":32.828452,"lng":129.774028,"zip":"8512211"},{"town":"京泊二丁目","koaza":"","lat":32.822244,"lng":129.774635,"zip":"8512211"},{"town":"京泊三丁目","koaza":"","lat":32.823151,"lng":129.767628,"zip":"8512211"},{"town":"琴海大平町","koaza":"","lat":32.958773,"lng":129.799611,"zip":"8513214"},{"town":"琴海尾戸町","koaza":"","lat":32.935656,"lng":129.80703,"zip":"8513215"},{"town":"琴海形上町","koaza":"","lat":32.943932,"lng":129.762448,"zip":"8513213"},{"town":"琴海戸根原町","koaza":"","lat":32.903196,"lng":129.798386,"zip":"8513211"},{"town":"琴海戸根町","koaza":"","lat":32.894895,"lng":129.764636,"zip":"8513103"},{"town":"琴海村松町","koaza":"","lat":32.875931,"lng":129.776853,"zip":"8513102"},{"town":"銀屋町","koaza":"","lat":32.745903,"lng":129.880844,"zip":"8500854"},{"town":"草住町","koaza":"","lat":32.688719,"lng":129.848937,"zip":"8500981"},{"town":"黒浜町","koaza":"","lat":32.631165,"lng":129.801553,"zip":"8510501"},{"town":"毛井首町","koaza":"","lat":32.692474,"lng":129.838088,"zip":"8500976"},{"town":"けやき台町","koaza":"","lat":32.796701,"lng":129.879673,"zip":"8528146"},{"town":"麹屋町","koaza":"","lat":32.748821,"lng":129.883267,"zip":"8500871"},{"town":"興善町","koaza":"","lat":32.748794,"lng":129.876546,"zip":"8500032"},{"town":"神浦江川町","koaza":"","lat":32.881164,"lng":129.681588,"zip":"8512403"},{"town":"神浦扇山町","koaza":"","lat":32.891664,"lng":129.728013,"zip":"8512411"},{"town":"神浦上大中尾町","koaza":"","lat":32.893149,"lng":129.708356,"zip":"8512422"},{"town":"神浦上道徳町","koaza":"","lat":32.888038,"lng":129.682478,"zip":"8512424"},{"town":"神浦北大中尾町","koaza":"","lat":32.894035,"lng":129.698306,"zip":"8512421"},{"town":"神浦口福町","koaza":"","lat":32.895536,"lng":129.678799,"zip":"8512401"},{"town":"神浦下大中尾町","koaza":"","lat":32.877183,"lng":129.725391,"zip":"8512423"},{"town":"神浦下道徳町","koaza":"","lat":32.886625,"lng":129.675497,"zip":"8512425"},{"town":"神浦夏井町","koaza":"","lat":32.873443,"lng":129.68161,"zip":"8512413"},{"town":"神浦丸尾町","koaza":"","lat":32.883402,"lng":129.686182,"zip":"8512404"},{"town":"神浦向町","koaza":"","lat":32.872238,"lng":129.703919,"zip":"8512405"},{"town":"香焼町","koaza":"","lat":32.693089,"lng":129.816611,"zip":"8510310"},{"town":"小浦町","koaza":"","lat":32.756614,"lng":129.829495,"zip":"8500067"},{"town":"小江原一丁目","koaza":"","lat":32.787118,"lng":129.837022,"zip":"8511132"},{"town":"小江原二丁目","koaza":"","lat":32.779058,"lng":129.838712,"zip":"8511132"},{"town":"小江原三丁目","koaza":"","lat":32.779452,"lng":129.832468,"zip":"8511132"},{"town":"小江原四丁目","koaza":"","lat":32.782256,"lng":129.830864,"zip":"8511132"},{"town":"小江原五丁目","koaza":"","lat":32.784525,"lng":129.827372,"zip":"8511132"},{"town":"小江町","koaza":"","lat":32.765257,"lng":129.816433,"zip":"8511133"},{"town":"小ケ倉町一丁目","koaza":"","lat":32.709472,"lng":129.853141,"zip":"8500961"},{"town":"小ケ倉町二丁目","koaza":"","lat":32.705347,"lng":129.852917,"zip":"8500961"},{"town":"古賀町","koaza":"","lat":32.80494,"lng":129.957236,"zip":"8510101"},{"town":"国分町","koaza":"","lat":32.725995,"lng":129.858865,"zip":"8500951"},{"town":"小菅町","koaza":"","lat":32.726106,"lng":129.864493,"zip":"8500934"},{"town":"小瀬戸町","koaza":"","lat":32.72684,"lng":129.834553,"zip":"8500077"},{"town":"小曽根町","koaza":"","lat":32.734088,"lng":129.866621,"zip":"8500937"},{"town":"五島町","koaza":"","lat":32.748799,"lng":129.87309,"zip":"8500036"},{"town":"木場町","koaza":"","lat":32.773034,"lng":129.903794,"zip":"8500002"},{"town":"小峰町","koaza":"","lat":32.781747,"lng":129.872292,"zip":"8528125"},{"town":"米山町","koaza":"","lat":32.69032,"lng":129.844477,"zip":"8500983"},{"town":"幸町","koaza":"","lat":32.758057,"lng":129.865311,"zip":"8500046"},{"town":"竿浦町","koaza":"","lat":32.674506,"lng":129.839886,"zip":"8500994"},{"town":"界一丁目","koaza":"","lat":32.752766,"lng":129.933647,"zip":"8510122"},{"town":"界二丁目","koaza":"","lat":32.755279,"lng":129.940767,"zip":"8510122"},{"town":"栄町","koaza":"","lat":32.747575,"lng":129.878208,"zip":"8500875"},{"town":"坂本一丁目","koaza":"","lat":32.770214,"lng":129.868548,"zip":"8528102"},{"town":"坂本二丁目","koaza":"","lat":32.766186,"lng":129.872192,"zip":"8528102"},{"town":"坂本三丁目","koaza":"","lat":32.769723,"lng":129.871657,"zip":"8528102"},{"town":"桜木町","koaza":"","lat":32.729536,"lng":129.890919,"zip":"8500835"},{"town":"さくらの里一丁目","koaza":"","lat":32.832276,"lng":129.771313,"zip":"8512207"},{"town":"さくらの里二丁目","koaza":"","lat":32.832283,"lng":129.765039,"zip":"8512207"},{"town":"さくらの里三丁目","koaza":"","lat":32.827235,"lng":129.760708,"zip":"8512207"},{"town":"桜馬場一丁目","koaza":"","lat":32.752809,"lng":129.888296,"zip":"8500015"},{"town":"桜馬場二丁目","koaza":"","lat":32.753548,"lng":129.890845,"zip":"8500015"},{"town":"桜町","koaza":"","lat":32.749966,"lng":129.878143,"zip":"8500031"},{"town":"三京町","koaza":"","lat":32.834407,"lng":129.759198,"zip":"8512206"},{"town":"三景台町","koaza":"","lat":32.726474,"lng":129.896647,"zip":"8500824"},{"town":"三和町","koaza":"","lat":32.693454,"lng":129.849317,"zip":"8500975"},{"town":"椎の木町","koaza":"","lat":32.728725,"lng":129.88068,"zip":"8500947"},{"town":"塩浜町","koaza":"","lat":32.740856,"lng":129.850326,"zip":"8500071"},{"town":"潮見町","koaza":"","lat":32.74056,"lng":129.942709,"zip":"8510125"},{"town":"式見町","koaza":"","lat":32.787626,"lng":129.790831,"zip":"8511137"},{"town":"下町","koaza":"","lat":32.734267,"lng":129.873306,"zip":"8500917"},{"town":"清水町","koaza":"","lat":32.78593,"lng":129.859154,"zip":"8528041"},{"town":"下大野町","koaza":"","lat":32.860899,"lng":129.690009,"zip":"8512427"},{"town":"下黒崎町","koaza":"","lat":32.83878,"lng":129.711627,"zip":"8512326"},{"town":"下西山町","koaza":"","lat":32.755804,"lng":129.885534,"zip":"8500004"},{"town":"十人町","koaza":"","lat":32.738801,"lng":129.875153,"zip":"8500908"},{"town":"宿町","koaza":"","lat":32.763263,"lng":129.934806,"zip":"8510121"},{"town":"城栄町","koaza":"","lat":32.776573,"lng":129.856031,"zip":"8528034"},{"town":"昭和一丁目","koaza":"","lat":32.791113,"lng":129.867518,"zip":"8528145"},{"town":"昭和二丁目","koaza":"","lat":32.793244,"lng":129.870802,"zip":"8528145"},{"town":"昭和三丁目","koaza":"","lat":32.798279,"lng":129.872653,"zip":"8528145"},{"town":"白鳥町","koaza":"","lat":32.7861,"lng":129.855551,"zip":"8528042"},{"town":"白木町","koaza":"","lat":32.740854,"lng":129.898677,"zip":"8500812"},{"town":"城山台一丁目","koaza":"","lat":32.770583,"lng":129.842943,"zip":"8528027"},{"town":"城山台二丁目","koaza":"","lat":32.772293,"lng":129.837032,"zip":"8528027"},{"town":"城山町","koaza":"","lat":32.772602,"lng":129.857962,"zip":"8528021"},{"town":"新小が倉一丁目","koaza":"","lat":32.708518,"lng":129.859459,"zip":"8500962"},{"town":"新小が倉二丁目","koaza":"","lat":32.70816,"lng":129.861974,"zip":"8500962"},{"town":"新大工町","koaza":"","lat":32.752809,"lng":129.885753,"zip":"8500017"},{"town":"新地町","koaza":"","lat":32.741123,"lng":129.874551,"zip":"8500842"},{"town":"新戸町一丁目","koaza":"","lat":32.712822,"lng":129.860792,"zip":"8500954"},{"town":"新戸町二丁目","koaza":"","lat":32.712588,"lng":129.865956,"zip":"8500954"},{"town":"新戸町三丁目","koaza":"","lat":32.707258,"lng":129.873319,"zip":"8500954"},{"town":"新戸町四丁目","koaza":"","lat":32.7114,"lng":129.871981,"zip":"8500954"},{"town":"新中川町","koaza":"","lat":32.751308,"lng":129.889924,"zip":"8500014"},{"town":"新牧野町","koaza":"","lat":32.859859,"lng":129.715822,"zip":"8512323"},{"town":"末石町","koaza":"","lat":32.683354,"lng":129.837585,"zip":"8500991"},{"town":"芒塚町","koaza":"","lat":32.752985,"lng":129.927741,"zip":"8510126"},{"town":"住吉台町","koaza":"","lat":32.795703,"lng":129.859107,"zip":"8528152"},{"town":"住吉町","koaza":"","lat":32.792992,"lng":129.860398,"zip":"8528154"},{"town":"諏訪町","koaza":"","lat":32.747179,"lng":129.881531,"zip":"8500873"},{"town":"銭座町","koaza":"","lat":32.761156,"lng":129.868111,"zip":"8500047"},{"town":"園田町","koaza":"","lat":32.797127,"lng":129.811427,"zip":"8511125"},{"town":"大黒町","koaza":"","lat":32.752149,"lng":129.872589,"zip":"8500057"},{"town":"ダイヤランド一丁目","koaza":"","lat":32.703943,"lng":129.863482,"zip":"8500963"},{"town":"ダイヤランド二丁目","koaza":"","lat":32.703924,"lng":129.858088,"zip":"8500963"},{"town":"ダイヤランド三丁目","koaza":"","lat":32.700941,"lng":129.854156,"zip":"8500963"},{"town":"ダイヤランド四丁目","koaza":"","lat":32.698958,"lng":129.856608,"zip":"8500963"},{"town":"多以良町","koaza":"","lat":32.813948,"lng":129.779095,"zip":"8512213"},{"town":"高丘一丁目","koaza":"","lat":32.732652,"lng":129.879459,"zip":"8500941"},{"town":"高丘二丁目","koaza":"","lat":32.732524,"lng":129.882087,"zip":"8500941"},{"town":"高尾町","koaza":"","lat":32.778313,"lng":129.874709,"zip":"8528111"},{"town":"高島町","koaza":"","lat":32.65791,"lng":129.752881,"zip":"8511315"},{"town":"高城台一丁目","koaza":"","lat":32.776834,"lng":129.947733,"zip":"8510137"},{"town":"高城台二丁目","koaza":"","lat":32.778782,"lng":129.943324,"zip":"8510137"},{"town":"高浜町","koaza":"","lat":32.601542,"lng":129.786111,"zip":"8510503"},{"town":"高平町","koaza":"","lat":32.741682,"lng":129.885728,"zip":"8500821"},{"town":"田上一丁目","koaza":"","lat":32.72353,"lng":129.895604,"zip":"8510251"},{"town":"田上二丁目","koaza":"","lat":32.725632,"lng":129.886515,"zip":"8510251"},{"town":"田上三丁目","koaza":"","lat":32.721901,"lng":129.891423,"zip":"8510251"},{"town":"田上四丁目","koaza":"","lat":32.722052,"lng":129.886506,"zip":"8510251"},{"town":"宝町","koaza":"","lat":32.75894,"lng":129.867426,"zip":"8500045"},{"town":"竹の久保町","koaza":"","lat":32.765971,"lng":129.859931,"zip":"8528014"},{"town":"立岩町","koaza":"","lat":32.76487,"lng":129.845998,"zip":"8528025"},{"town":"立山一丁目","koaza":"","lat":32.754768,"lng":129.88004,"zip":"8500007"},{"town":"立山二丁目","koaza":"","lat":32.754588,"lng":129.877009,"zip":"8500007"},{"town":"立山三丁目","koaza":"","lat":32.756875,"lng":129.878054,"zip":"8500007"},{"town":"立山四丁目","koaza":"","lat":32.756924,"lng":129.879547,"zip":"8500007"},{"town":"立山五丁目","koaza":"","lat":32.760687,"lng":129.878234,"zip":"8500007"},{"town":"田手原町","koaza":"","lat":32.74073,"lng":129.911085,"zip":"8510252"},{"town":"田中町","koaza":"","lat":32.771125,"lng":129.931912,"zip":"8510134"},{"town":"玉園町","koaza":"","lat":32.752661,"lng":129.87765,"zip":"8500053"},{"town":"為石町","koaza":"","lat":32.644865,"lng":129.839972,"zip":"8510405"},{"town":"筑後町","koaza":"","lat":32.753445,"lng":129.874457,"zip":"8500052"},{"town":"千々町","koaza":"","lat":32.661974,"lng":129.87149,"zip":"8510245"},{"town":"千歳町","koaza":"","lat":32.789787,"lng":129.86226,"zip":"8528135"},{"town":"築町","koaza":"","lat":32.745168,"lng":129.876104,"zip":"8500877"},{"town":"辻町","koaza":"","lat":32.785203,"lng":129.876739,"zip":"8528124"},{"town":"つつじが丘一丁目","koaza":"","lat":32.803594,"lng":129.961312,"zip":"8510102"},{"town":"つつじが丘二丁目","koaza":"","lat":32.804277,"lng":129.959724,"zip":"8510102"},{"town":"つつじが丘三丁目","koaza":"","lat":32.807943,"lng":129.95955,"zip":"8510102"},{"town":"つつじが丘四丁目","koaza":"","lat":32.80752,"lng":129.962105,"zip":"8510102"},{"town":"つつじが丘五丁目","koaza":"","lat":32.809875,"lng":129.961762,"zip":"8510102"},{"town":"椿が丘町","koaza":"","lat":32.645564,"lng":129.8287,"zip":"8510406"},{"town":"鶴の尾町","koaza":"","lat":32.793624,"lng":129.94926,"zip":"8510132"},{"town":"鶴見台一丁目","koaza":"","lat":32.687449,"lng":129.841889,"zip":"8500984"},{"town":"鶴見台二丁目","koaza":"","lat":32.69045,"lng":129.841667,"zip":"8500984"},{"town":"出来大工町","koaza":"","lat":32.751759,"lng":129.883059,"zip":"8500023"},{"town":"手熊町","koaza":"","lat":32.782174,"lng":129.802278,"zip":"8511135"},{"town":"出島町","koaza":"","lat":32.742998,"lng":129.872367,"zip":"8500862"},{"town":"寺町","koaza":"","lat":32.747277,"lng":129.884096,"zip":"8500872"},{"town":"天神町","koaza":"","lat":32.759262,"lng":129.86941,"zip":"8500044"},{"town":"戸石町","koaza":"","lat":32.766716,"lng":129.978611,"zip":"8510113"},{"town":"土井首町","koaza":"","lat":32.696301,"lng":129.836811,"zip":"8500977"},{"town":"銅座町","koaza":"","lat":32.742984,"lng":129.876577,"zip":"8500841"},{"town":"藤田尾町","koaza":"","lat":32.649748,"lng":129.856287,"zip":"8510404"},{"town":"常盤町","koaza":"","lat":32.739694,"lng":129.870537,"zip":"8500843"},{"town":"戸町一丁目","koaza":"","lat":32.724577,"lng":129.860871,"zip":"8500952"},{"town":"戸町二丁目","koaza":"","lat":32.723684,"lng":129.865873,"zip":"8500952"},{"town":"戸町三丁目","koaza":"","lat":32.718618,"lng":129.863843,"zip":"8500952"},{"town":"戸町四丁目","koaza":"","lat":32.719373,"lng":129.858476,"zip":"8500952"},{"town":"戸町五丁目","koaza":"","lat":32.716668,"lng":129.854957,"zip":"8500952"},{"town":"長浦町","koaza":"","lat":32.917203,"lng":129.764132,"zip":"8513212"},{"town":"中川一丁目","koaza":"","lat":32.751187,"lng":129.892647,"zip":"8500013"},{"town":"中川二丁目","koaza":"","lat":32.75197,"lng":129.894473,"zip":"8500013"},{"town":"中小島一丁目","koaza":"","lat":32.738564,"lng":129.881004,"zip":"8500836"},{"town":"中小島二丁目","koaza":"","lat":32.7361,"lng":129.881357,"zip":"8500836"},{"town":"中里町","koaza":"","lat":32.804724,"lng":129.967065,"zip":"8510103"},{"town":"中新町","koaza":"","lat":32.735791,"lng":129.877038,"zip":"8500912"},{"town":"中園町","koaza":"","lat":32.792194,"lng":129.858749,"zip":"8528155"},{"town":"永田町","koaza":"","lat":32.835469,"lng":129.725844,"zip":"8512325"},{"town":"中町","koaza":"","lat":32.751974,"lng":129.874354,"zip":"8500055"},{"town":"浪の平町","koaza":"","lat":32.732011,"lng":129.865011,"zip":"8500936"},{"town":"滑石一丁目","koaza":"","lat":32.808842,"lng":129.847024,"zip":"8528061"},{"town":"滑石二丁目","koaza":"","lat":32.808176,"lng":129.843602,"zip":"8528061"},{"town":"滑石三丁目","koaza":"","lat":32.80983,"lng":129.834581,"zip":"8528061"},{"town":"滑石四丁目","koaza":"","lat":32.804353,"lng":129.82202,"zip":"8528061"},{"town":"滑石五丁目","koaza":"","lat":32.805016,"lng":129.833428,"zip":"8528061"},{"town":"滑石六丁目","koaza":"","lat":32.803865,"lng":129.835686,"zip":"8528061"},{"town":"鳴滝一丁目","koaza":"","lat":32.755801,"lng":129.895574,"zip":"8500011"},{"town":"鳴滝二丁目","koaza":"","lat":32.756727,"lng":129.892022,"zip":"8500011"},{"town":"鳴滝三丁目","koaza":"","lat":32.761884,"lng":129.900265,"zip":"8500011"},{"town":"鳴見台一丁目","koaza":"","lat":32.820415,"lng":129.806284,"zip":"8512215"},{"town":"鳴見台二丁目","koaza":"","lat":32.822904,"lng":129.805516,"zip":"8512215"},{"town":"鳴見町","koaza":"","lat":32.821768,"lng":129.815461,"zip":"8512214"},{"town":"南越町","koaza":"","lat":32.593458,"lng":129.767874,"zip":"8510504"},{"town":"賑町","koaza":"","lat":32.746623,"lng":129.877299,"zip":"8500876"},{"town":"西海町","koaza":"","lat":32.859352,"lng":129.77479,"zip":"8513101"},{"town":"虹が丘町","koaza":"","lat":32.797863,"lng":129.841504,"zip":"8528055"},{"town":"錦一丁目","koaza":"","lat":32.7899,"lng":129.856011,"zip":"8528045"},{"town":"錦二丁目","koaza":"","lat":32.78941,"lng":129.853767,"zip":"8528045"},{"town":"錦三丁目","koaza":"","lat":32.789602,"lng":129.846406,"zip":"8528045"},{"town":"西北町","koaza":"","lat":32.796984,"lng":129.850695,"zip":"8528051"},{"town":"西小島一丁目","koaza":"","lat":32.739998,"lng":129.878371,"zip":"8500837"},{"town":"西小島二丁目","koaza":"","lat":32.736191,"lng":129.879502,"zip":"8500837"},{"town":"西琴平町","koaza":"","lat":32.728378,"lng":129.862817,"zip":"8500933"},{"town":"西坂町","koaza":"","lat":32.755841,"lng":129.874518,"zip":"8500051"},{"town":"西出津町","koaza":"","lat":32.851923,"lng":129.699195,"zip":"8512322"},{"town":"西立神町","koaza":"","lat":32.734326,"lng":129.850883,"zip":"8500074"},{"town":"西泊町","koaza":"","lat":32.728563,"lng":129.848716,"zip":"8500075"},{"town":"西町","koaza":"","lat":32.785799,"lng":129.849536,"zip":"8528043"},{"town":"西山一丁目","koaza":"","lat":32.762289,"lng":129.881578,"zip":"8500001"},{"town":"西山二丁目","koaza":"","lat":32.760711,"lng":129.887133,"zip":"8500001"},{"town":"西山三丁目","koaza":"","lat":32.767616,"lng":129.887491,"zip":"8500001"},{"town":"西山四丁目","koaza":"","lat":32.774705,"lng":129.888875,"zip":"8500001"},{"town":"西山台一丁目","koaza":"","lat":32.782031,"lng":129.888167,"zip":"8528122"},{"town":"西山台二丁目","koaza":"","lat":32.781751,"lng":129.893179,"zip":"8528122"},{"town":"西山本町","koaza":"","lat":32.757796,"lng":129.883034,"zip":"8500005"},{"town":"布巻町","koaza":"","lat":32.655617,"lng":129.838135,"zip":"8510403"},{"town":"野母崎樺島町","koaza":"","lat":32.560863,"lng":129.78263,"zip":"8510507"},{"town":"野母町","koaza":"","lat":32.582143,"lng":129.744906,"zip":"8510505"},{"town":"橋口町","koaza":"","lat":32.778686,"lng":129.864769,"zip":"8528114"},{"town":"八郎岳町","koaza":"","lat":32.678507,"lng":129.853556,"zip":"8500993"},{"town":"八景町","koaza":"","lat":32.726151,"lng":129.883848,"zip":"8500944"},{"town":"花丘町","koaza":"","lat":32.792238,"lng":129.86393,"zip":"8528153"},{"town":"花園町","koaza":"","lat":32.77152,"lng":129.850704,"zip":"8528024"},{"town":"浜口町","koaza":"","lat":32.769237,"lng":129.865419,"zip":"8528107"},{"town":"浜平一丁目","koaza":"","lat":32.759343,"lng":129.872749,"zip":"8500041"},{"town":"浜平二丁目","koaza":"","lat":32.76087,"lng":129.874993,"zip":"8500041"},{"town":"浜町","koaza":"","lat":32.744284,"lng":129.877763,"zip":"8500853"},{"town":"早坂町","koaza":"","lat":32.727375,"lng":129.906397,"zip":"8510253"},{"town":"葉山一丁目","koaza":"","lat":32.80468,"lng":129.849055,"zip":"8528053"},{"town":"葉山二丁目","koaza":"","lat":32.803732,"lng":129.843672,"zip":"8528053"},{"town":"春木町","koaza":"","lat":32.762971,"lng":129.852792,"zip":"8528015"},{"town":"晴海台町","koaza":"","lat":32.661896,"lng":129.820891,"zip":"8510402"},{"town":"東小島町","koaza":"","lat":32.739612,"lng":129.882882,"zip":"8500833"},{"town":"東琴平一丁目","koaza":"","lat":32.729438,"lng":129.865785,"zip":"8500932"},{"town":"東琴平二丁目","koaza":"","lat":32.731141,"lng":129.868997,"zip":"8500932"},{"town":"東立神町","koaza":"","lat":32.737431,"lng":129.849935,"zip":"8500073"},{"town":"東古川町","koaza":"","lat":32.745743,"lng":129.88022,"zip":"8500855"},{"town":"東町","koaza":"","lat":32.782899,"lng":129.959455,"zip":"8510116"},{"town":"東山手町","koaza":"","lat":32.737122,"lng":129.873968,"zip":"8500911"},{"town":"東山町","koaza":"","lat":32.734022,"lng":129.874788,"zip":"8500915"},{"town":"光町","koaza":"","lat":32.755205,"lng":129.863958,"zip":"8528001"},{"town":"彦見町","koaza":"","lat":32.741108,"lng":129.891941,"zip":"8500804"},{"town":"日の出町","koaza":"","lat":32.731733,"lng":129.875294,"zip":"8500914"},{"town":"平瀬町","koaza":"","lat":32.688852,"lng":129.838373,"zip":"8500985"},{"town":"平戸小屋町","koaza":"","lat":32.751177,"lng":129.85849,"zip":"8528006"},{"town":"平野町","koaza":"","lat":32.77153,"lng":129.86514,"zip":"8528117"},{"town":"平間町","koaza":"","lat":32.797028,"lng":129.940425,"zip":"8510136"},{"town":"平山台一丁目","koaza":"","lat":32.662634,"lng":129.831153,"zip":"8500996"},{"town":"平山台二丁目","koaza":"","lat":32.662983,"lng":129.827019,"zip":"8500996"},{"town":"平山町","koaza":"","lat":32.666221,"lng":129.841919,"zip":"8500995"},{"town":"夫婦川町","koaza":"","lat":32.754822,"lng":129.88964,"zip":"8500016"},{"town":"深堀町一丁目","koaza":"","lat":32.684582,"lng":129.831834,"zip":"8510301"},{"town":"深堀町二丁目","koaza":"","lat":32.686919,"lng":129.82758,"zip":"8510301"},{"town":"深堀町三丁目","koaza":"","lat":32.686566,"lng":129.825335,"zip":"8510301"},{"town":"深堀町四丁目","koaza":"","lat":32.678937,"lng":129.828959,"zip":"8510301"},{"town":"深堀町五丁目","koaza":"","lat":32.685644,"lng":129.822287,"zip":"8510301"},{"town":"深堀町六丁目","koaza":"","lat":32.680343,"lng":129.820261,"zip":"8510301"},{"town":"福田本町","koaza":"","lat":32.753156,"lng":129.819092,"zip":"8500068"},{"town":"富士見町","koaza":"","lat":32.772242,"lng":129.854414,"zip":"8528022"},{"town":"淵町","koaza":"","lat":32.75943,"lng":129.855544,"zip":"8528012"},{"town":"船石町","koaza":"","lat":32.798049,"lng":129.97921,"zip":"8510104"},{"town":"船大工町","koaza":"","lat":32.741967,"lng":129.878799,"zip":"8500904"},{"town":"古川町","koaza":"","lat":32.745891,"lng":129.881714,"zip":"8500851"},{"town":"古河町","koaza":"","lat":32.730005,"lng":129.863103,"zip":"8500935"},{"town":"古町","koaza":"","lat":32.750185,"lng":129.881596,"zip":"8500026"},{"town":"古道町","koaza":"","lat":32.697068,"lng":129.858044,"zip":"8500972"},{"town":"文教町","koaza":"","lat":32.786923,"lng":129.866995,"zip":"8528131"},{"town":"平和町","koaza":"","lat":32.774946,"lng":129.865625,"zip":"8528116"},{"town":"弁天町","koaza":"","lat":32.752893,"lng":129.864099,"zip":"8528002"},{"town":"宝栄町","koaza":"","lat":32.769688,"lng":129.859996,"zip":"8528016"},{"town":"豊洋台一丁目","koaza":"","lat":32.831879,"lng":129.791754,"zip":"8512216"},{"town":"豊洋台二丁目","koaza":"","lat":32.828481,"lng":129.793916,"zip":"8512216"},{"town":"北栄町","koaza":"","lat":32.800307,"lng":129.827964,"zip":"8528063"},{"town":"北陽町","koaza":"","lat":32.811114,"lng":129.822512,"zip":"8528064"},{"town":"星取一丁目","koaza":"","lat":32.723195,"lng":129.881179,"zip":"8500945"},{"town":"星取二丁目","koaza":"","lat":32.71885,"lng":129.88529,"zip":"8500945"},{"town":"本河内一丁目","koaza":"","lat":32.749607,"lng":129.897547,"zip":"8500012"},{"town":"本河内二丁目","koaza":"","lat":32.750737,"lng":129.902321,"zip":"8500012"},{"town":"本河内三丁目","koaza":"","lat":32.750949,"lng":129.915229,"zip":"8500012"},{"town":"本河内四丁目","koaza":"","lat":32.762006,"lng":129.913866,"zip":"8500012"},{"town":"牧島町","koaza":"","lat":32.75453,"lng":129.97293,"zip":"8510114"},{"town":"牧野町","koaza":"","lat":32.797856,"lng":129.799222,"zip":"8511124"},{"town":"松が枝町","koaza":"","lat":32.736011,"lng":129.868172,"zip":"8500921"},{"town":"松崎町","koaza":"","lat":32.85348,"lng":129.743317,"zip":"8512205"},{"town":"松原町","koaza":"","lat":32.805865,"lng":129.946953,"zip":"8510131"},{"town":"松山町","koaza":"","lat":32.774064,"lng":129.86181,"zip":"8528118"},{"town":"丸尾町","koaza":"","lat":32.74778,"lng":129.861931,"zip":"8528004"},{"town":"丸山町","koaza":"","lat":32.741153,"lng":129.880569,"zip":"8500902"},{"town":"万才町","koaza":"","lat":32.746636,"lng":129.875162,"zip":"8500033"},{"town":"三重田町","koaza":"","lat":32.828235,"lng":129.734529,"zip":"8512203"},{"town":"三重町","koaza":"","lat":32.831103,"lng":129.744208,"zip":"8512204"},{"town":"三川町","koaza":"","lat":32.787923,"lng":129.895434,"zip":"8528121"},{"town":"見崎町","koaza":"","lat":32.803835,"lng":129.778733,"zip":"8511121"},{"town":"水の浦町","koaza":"","lat":32.748933,"lng":129.853913,"zip":"8500061"},{"town":"三ツ山町","koaza":"","lat":32.802842,"lng":129.907329,"zip":"8528142"},{"town":"緑が丘町","koaza":"","lat":32.782684,"lng":129.855632,"zip":"8528033"},{"town":"緑町","koaza":"","lat":32.763106,"lng":129.867237,"zip":"8528103"},{"town":"みなと坂一丁目","koaza":"","lat":32.730143,"lng":129.835688,"zip":"8500079"},{"town":"みなと坂二丁目","koaza":"","lat":32.734665,"lng":129.836298,"zip":"8500079"},{"town":"南が丘町","koaza":"","lat":32.727765,"lng":129.885623,"zip":"8500943"},{"town":"南町","koaza":"","lat":32.72958,"lng":129.88279,"zip":"8500942"},{"town":"南山手町","koaza":"","lat":32.733205,"lng":129.869126,"zip":"8500931"},{"town":"三原一丁目","koaza":"","lat":32.781643,"lng":129.879277,"zip":"8528123"},{"town":"三原二丁目","koaza":"","lat":32.783464,"lng":129.883756,"zip":"8528123"},{"town":"三原三丁目","koaza":"","lat":32.777212,"lng":129.883763,"zip":"8528123"},{"town":"宮崎町","koaza":"","lat":32.618282,"lng":129.820062,"zip":"8510408"},{"town":"宮摺町","koaza":"","lat":32.684524,"lng":129.892959,"zip":"8510243"},{"town":"三芳町","koaza":"","lat":32.781124,"lng":129.860424,"zip":"8528031"},{"town":"向町","koaza":"","lat":32.786459,"lng":129.797236,"zip":"8511136"},{"town":"目覚町","koaza":"","lat":32.76342,"lng":129.86557,"zip":"8528105"},{"town":"女の都一丁目","koaza":"","lat":32.797754,"lng":129.876529,"zip":"8528144"},{"town":"女の都二丁目","koaza":"","lat":32.802431,"lng":129.880166,"zip":"8528144"},{"town":"女の都三丁目","koaza":"","lat":32.806055,"lng":129.879807,"zip":"8528144"},{"town":"女の都四丁目","koaza":"","lat":32.802622,"lng":129.875442,"zip":"8528144"},{"town":"茂木町","koaza":"","lat":32.704498,"lng":129.900824,"zip":"8510241"},{"town":"本尾町","koaza":"","lat":32.775583,"lng":129.870973,"zip":"8528112"},{"town":"本石灰町","koaza":"","lat":32.74217,"lng":129.879973,"zip":"8500901"},{"town":"本原町","koaza":"","lat":32.781213,"lng":129.868044,"zip":"8528133"},{"town":"元船町","koaza":"","lat":32.747201,"lng":129.869973,"zip":"8500035"},{"town":"元町","koaza":"","lat":32.733699,"lng":129.876845,"zip":"8500913"},{"town":"茂里町","koaza":"","lat":32.765779,"lng":129.862516,"zip":"8528104"},{"town":"八百屋町","koaza":"","lat":32.751667,"lng":129.880106,"zip":"8500029"},{"town":"矢上町","koaza":"","lat":32.776193,"lng":129.951355,"zip":"8510133"},{"town":"八千代町","koaza":"","lat":32.755631,"lng":129.869636,"zip":"8500043"},{"town":"八つ尾町","koaza":"","lat":32.735775,"lng":129.897198,"zip":"8500813"},{"town":"梁川町","koaza":"","lat":32.762513,"lng":129.858817,"zip":"8528013"},{"town":"柳谷町","koaza":"","lat":32.792566,"lng":129.85505,"zip":"8528046"},{"town":"柳田町","koaza":"","lat":32.685592,"lng":129.846303,"zip":"8500982"},{"town":"矢の平一丁目","koaza":"","lat":32.747876,"lng":129.89417,"zip":"8500811"},{"town":"矢の平二丁目","koaza":"","lat":32.748251,"lng":129.891174,"zip":"8500811"},{"town":"矢の平三丁目","koaza":"","lat":32.744679,"lng":129.894219,"zip":"8500811"},{"town":"矢の平四丁目","koaza":"","lat":32.741858,"lng":129.895537,"zip":"8500811"},{"town":"八幡町","koaza":"","lat":32.75038,"lng":129.884187,"zip":"8500801"},{"town":"弥生町","koaza":"","lat":32.730841,"lng":129.894964,"zip":"8500823"},{"town":"横尾一丁目","koaza":"","lat":32.81196,"lng":129.838113,"zip":"8528065"},{"town":"横尾二丁目","koaza":"","lat":32.812735,"lng":129.833668,"zip":"8528065"},{"town":"横尾三丁目","koaza":"","lat":32.815058,"lng":129.836677,"zip":"8528065"},{"town":"横尾四丁目","koaza":"","lat":32.816382,"lng":129.830685,"zip":"8528065"},{"town":"横尾五丁目","koaza":"","lat":32.814988,"lng":129.826856,"zip":"8528065"},{"town":"四杖町","koaza":"","lat":32.797004,"lng":129.790494,"zip":"8511123"},{"town":"寄合町","koaza":"","lat":32.739947,"lng":129.879648,"zip":"8500903"},{"town":"万屋町","koaza":"","lat":32.74518,"lng":129.879076,"zip":"8500852"},{"town":"炉粕町","koaza":"","lat":32.752897,"lng":129.881749,"zip":"8500021"},{"town":"若草町","koaza":"","lat":32.774896,"lng":129.852994,"zip":"8528023"},{"town":"若竹町","koaza":"","lat":32.793652,"lng":129.848257,"zip":"8528047"},{"town":"若葉町","koaza":"","lat":32.787786,"lng":129.861271,"zip":"8528137"},{"town":"脇岬町","koaza":"","lat":32.590579,"lng":129.791271,"zip":"8510506"},{"town":"柿泊町","koaza":"","lat":32.773136,"lng":129.807034,"zip":"8511134"},{"town":"蚊焼町","koaza":"","lat":32.646844,"lng":129.814853,"zip":"8510401"},{"town":"小ケ倉町三丁目","koaza":"","lat":32.702596,"lng":129.848377,"zip":"8500961"},{"town":"東出津町","koaza":"","lat":32.840443,"lng":129.705715,"zip":"8512327"},{"town":"高島町","koaza":"蛎瀬","lat":32.664954,"lng":129.751333,"zip":"8511315"},{"town":"高島町","koaza":"緑ケ丘","lat":32.662462,"lng":129.750057,"zip":"8511315"},{"town":"高島町","koaza":"本町","lat":32.663961,"lng":129.752236,"zip":"8511315"},{"town":"高島町","koaza":"尾浜","lat":32.659674,"lng":129.754429,"zip":"8511315"},{"town":"高島町","koaza":"百万","lat":32.660771,"lng":129.755317,"zip":"8511315"},{"town":"高島町","koaza":"光町","lat":32.657773,"lng":129.755106,"zip":"8511315"},{"town":"香焼町","koaza":"深浦","lat":32.689726,"lng":129.816289,"zip":"8510310"},{"town":"香焼町","koaza":"堀切","lat":32.690675,"lng":129.816291,"zip":"8510310"},{"town":"神ノ島町二丁目","koaza":"","lat":32.71852,"lng":129.827142,"zip":"8500078"}]