[{"town":"愛野町乙","koaza":"","lat":32.80624,"lng":130.152096,"zip":"8540302"},{"town":"愛野町甲","koaza":"","lat":32.817947,"lng":130.162935,"zip":"8540301"},{"town":"吾妻町阿母名","koaza":"","lat":32.822609,"lng":130.175808,"zip":"8591116"},{"town":"吾妻町牛口名","koaza":"","lat":32.838634,"lng":130.184645,"zip":"8591107"},{"town":"吾妻町永中名","koaza":"","lat":32.825642,"lng":130.182011,"zip":"8591115"},{"town":"吾妻町大木場名","koaza":"","lat":32.827347,"lng":130.208753,"zip":"8591106"},{"town":"吾妻町川床名","koaza":"","lat":32.809125,"lng":130.218374,"zip":"8591114"},{"town":"吾妻町栗林名","koaza":"","lat":32.815979,"lng":130.193691,"zip":"8591112"},{"town":"吾妻町木場名","koaza":"","lat":32.828844,"lng":130.229865,"zip":"8591102"},{"town":"吾妻町田之平名","koaza":"","lat":32.826289,"lng":130.217962,"zip":"8591105"},{"town":"吾妻町布江名","koaza":"","lat":32.819027,"lng":130.196574,"zip":"8591113"},{"town":"吾妻町馬場名","koaza":"","lat":32.82089,"lng":130.187729,"zip":"8591111"},{"town":"吾妻町平江名","koaza":"","lat":32.833134,"lng":130.218124,"zip":"8591103"},{"town":"吾妻町古城名","koaza":"","lat":32.83121,"lng":130.216253,"zip":"8591104"},{"town":"吾妻町本村名","koaza":"","lat":32.847199,"lng":130.204773,"zip":"8591101"},{"town":"小浜町雲仙","koaza":"","lat":32.744428,"lng":130.267558,"zip":"8540621"},{"town":"小浜町大亀","koaza":"","lat":32.687899,"lng":130.206526,"zip":"8540501"},{"town":"小浜町金浜","koaza":"","lat":32.703859,"lng":130.189998,"zip":"8540504"},{"town":"小浜町北木指","koaza":"","lat":32.714362,"lng":130.206756,"zip":"8540512"},{"town":"小浜町北野","koaza":"","lat":32.747297,"lng":130.226752,"zip":"8540515"},{"town":"小浜町北本町","koaza":"","lat":32.731774,"lng":130.225012,"zip":"8540514"},{"town":"小浜町木場","koaza":"","lat":32.708782,"lng":130.241072,"zip":"8540505"},{"town":"小浜町飛子","koaza":"","lat":32.696205,"lng":130.176341,"zip":"8540503"},{"town":"小浜町富津","koaza":"","lat":32.762817,"lng":130.199684,"zip":"8540516"},{"town":"小浜町マリーナ","koaza":"","lat":32.723824,"lng":130.202731,"zip":"8540517"},{"town":"小浜町南木指","koaza":"","lat":32.716746,"lng":130.235962,"zip":"8540511"},{"town":"小浜町南本町","koaza":"","lat":32.726094,"lng":130.231597,"zip":"8540513"},{"town":"小浜町山畑","koaza":"","lat":32.689734,"lng":130.188543,"zip":"8540502"},{"town":"国見町神代己","koaza":"","lat":32.864468,"lng":130.280795,"zip":"8591306"},{"town":"国見町神代庚","koaza":"","lat":32.856298,"lng":130.287203,"zip":"8591307"},{"town":"国見町神代甲","koaza":"","lat":32.862832,"lng":130.275176,"zip":"8591301"},{"town":"国見町神代辛","koaza":"","lat":32.828139,"lng":130.277536,"zip":"8591308"},{"town":"国見町神代丁","koaza":"","lat":32.822942,"lng":130.26999,"zip":"8591302"},{"town":"国見町神代丙","koaza":"","lat":32.860732,"lng":130.269385,"zip":"8591303"},{"town":"国見町多比良乙","koaza":"","lat":32.870957,"lng":130.30794,"zip":"8591322"},{"town":"国見町多比良甲","koaza":"","lat":32.864723,"lng":130.310022,"zip":"8591321"},{"town":"国見町多比良丁","koaza":"","lat":32.84566,"lng":130.301138,"zip":"8591322"},{"town":"国見町多比良丙","koaza":"","lat":32.861553,"lng":130.298922,"zip":"8591323"},{"town":"国見町多比良戊","koaza":"","lat":32.826828,"lng":130.296372,"zip":"8591325"},{"town":"国見町土黒乙","koaza":"","lat":32.86736,"lng":130.292605,"zip":"8591312"},{"town":"国見町土黒己","koaza":"","lat":32.845876,"lng":130.290128,"zip":"8591316"},{"town":"国見町土黒甲","koaza":"","lat":32.872093,"lng":130.301809,"zip":"8591311"},{"town":"国見町土黒庚","koaza":"","lat":32.820861,"lng":130.28346,"zip":"8591317"},{"town":"国見町土黒丁","koaza":"","lat":32.872163,"lng":130.287657,"zip":"8591312"},{"town":"国見町土黒丙","koaza":"","lat":32.874186,"lng":130.294453,"zip":"8591313"},{"town":"国見町土黒戊","koaza":"","lat":32.854639,"lng":130.289682,"zip":"8591315"},{"town":"千々石町乙","koaza":"","lat":32.776649,"lng":130.19477,"zip":"8540402"},{"town":"千々石町己","koaza":"","lat":32.783837,"lng":130.220931,"zip":"8540406"},{"town":"千々石町甲","koaza":"","lat":32.787206,"lng":130.193899,"zip":"8540401"},{"town":"千々石町庚","koaza":"","lat":32.769035,"lng":130.245684,"zip":"8540407"},{"town":"千々石町丁","koaza":"","lat":32.792169,"lng":130.213826,"zip":"8540402"},{"town":"千々石町丙","koaza":"","lat":32.791488,"lng":130.187605,"zip":"8540403"},{"town":"千々石町戊","koaza":"","lat":32.778116,"lng":130.206364,"zip":"8540405"},{"town":"瑞穂町伊福乙","koaza":"","lat":32.845539,"lng":130.232299,"zip":"8591214"},{"town":"瑞穂町伊福甲","koaza":"","lat":32.844126,"lng":130.243681,"zip":"8591213"},{"town":"瑞穂町古部乙","koaza":"","lat":32.841016,"lng":130.221423,"zip":"8591216"},{"town":"瑞穂町古部甲","koaza":"","lat":32.843563,"lng":130.227632,"zip":"8591215"},{"town":"瑞穂町西郷乙","koaza":"","lat":32.860622,"lng":130.252175,"zip":"8591203"},{"town":"瑞穂町西郷己","koaza":"","lat":32.855691,"lng":130.242567,"zip":"8591212"},{"town":"瑞穂町西郷庚","koaza":"","lat":32.870581,"lng":130.247587,"zip":"8591201"},{"town":"瑞穂町西郷甲","koaza":"","lat":32.868037,"lng":130.252959,"zip":"8591202"},{"town":"瑞穂町西郷辛","koaza":"","lat":32.869392,"lng":130.240022,"zip":"8591206"},{"town":"瑞穂町西郷丁","koaza":"","lat":32.829312,"lng":130.258457,"zip":"8591203"},{"town":"瑞穂町西郷丙","koaza":"","lat":32.848972,"lng":130.254919,"zip":"8591204"},{"town":"瑞穂町西郷戊","koaza":"","lat":32.837348,"lng":130.248338,"zip":"8591211"},{"town":"南串山町乙","koaza":"","lat":32.673769,"lng":130.164716,"zip":"8540702"},{"town":"南串山町甲","koaza":"","lat":32.680376,"lng":130.177851,"zip":"8540701"},{"town":"南串山町丙","koaza":"","lat":32.672107,"lng":130.143638,"zip":"8540703"},{"town":"国見町神代戊","koaza":"","lat":32.847462,"lng":130.262962,"zip":"8591305"},{"town":"国見町神代乙","koaza":"","lat":32.873106,"lng":130.272661,"zip":"8591302"}]