[{"town":"大川町田面","koaza":"","lat":34.239052,"lng":134.259397,"zip":"7610904"},{"town":"大川町富田中","koaza":"","lat":34.264825,"lng":134.23912,"zip":"7610902"},{"town":"大川町富田西","koaza":"","lat":34.262042,"lng":134.225445,"zip":"7610901"},{"town":"大川町富田東","koaza":"","lat":34.265347,"lng":134.260856,"zip":"7610903"},{"town":"大川町南川","koaza":"","lat":34.234253,"lng":134.232213,"zip":"7610905"},{"town":"小田","koaza":"","lat":34.346388,"lng":134.250779,"zip":"7692103"},{"town":"鴨部","koaza":"","lat":34.311285,"lng":134.221889,"zip":"7692104"},{"town":"鴨庄","koaza":"","lat":34.343445,"lng":134.209987,"zip":"7692102"},{"town":"寒川町石田西","koaza":"","lat":34.248095,"lng":134.200905,"zip":"7692322"},{"town":"寒川町石田東","koaza":"","lat":34.236643,"lng":134.215596,"zip":"7692321"},{"town":"寒川町神前","koaza":"","lat":34.286467,"lng":134.216946,"zip":"7692323"},{"town":"志度","koaza":"","lat":34.315781,"lng":134.178627,"zip":"7692101"},{"town":"昭和","koaza":"","lat":34.291105,"lng":134.162601,"zip":"7692304"},{"town":"末","koaza":"","lat":34.305183,"lng":134.194706,"zip":"7692105"},{"town":"造田乙井","koaza":"","lat":34.288354,"lng":134.196873,"zip":"7692314"},{"town":"造田是弘","koaza":"","lat":34.2868,"lng":134.184907,"zip":"7692312"},{"town":"造田野間田","koaza":"","lat":34.277593,"lng":134.190583,"zip":"7692313"},{"town":"造田宮西","koaza":"","lat":34.291744,"lng":134.175189,"zip":"7692311"},{"town":"多和","koaza":"","lat":34.185501,"lng":134.188697,"zip":"7692306"},{"town":"津田町津田","koaza":"","lat":34.30597,"lng":134.240484,"zip":"7692401"},{"town":"津田町鶴羽","koaza":"","lat":34.276535,"lng":134.26845,"zip":"7692402"},{"town":"長尾西","koaza":"","lat":34.259239,"lng":134.172346,"zip":"7692302"},{"town":"長尾東","koaza":"","lat":34.252587,"lng":134.188389,"zip":"7692301"},{"town":"長尾名","koaza":"","lat":34.245078,"lng":134.182232,"zip":"7692303"},{"town":"前山","koaza":"","lat":34.217888,"lng":134.187181,"zip":"7692305"},{"town":"長尾西","koaza":"森定","lat":34.271103,"lng":134.176617,"zip":"7692302"},{"town":"寒川町石田東","koaza":"森弘","lat":34.261684,"lng":134.209235,"zip":"7692321"}]