[{"town":"財田町財田上","koaza":"","lat":34.113704,"lng":133.795876,"zip":"7690401"},{"town":"財田町財田中","koaza":"","lat":34.09709,"lng":133.770081,"zip":"7690402"},{"town":"高瀬町上麻","koaza":"","lat":34.173121,"lng":133.784317,"zip":"7670014"},{"town":"高瀬町上勝間","koaza":"","lat":34.177734,"lng":133.740503,"zip":"7670012"},{"town":"高瀬町上高瀬","koaza":"","lat":34.196798,"lng":133.737543,"zip":"7670001"},{"town":"高瀬町佐股","koaza":"","lat":34.160502,"lng":133.747299,"zip":"7670021"},{"town":"高瀬町下麻","koaza":"","lat":34.184001,"lng":133.763898,"zip":"7670013"},{"town":"高瀬町下勝間","koaza":"","lat":34.171186,"lng":133.717161,"zip":"7670011"},{"town":"高瀬町新名","koaza":"","lat":34.191225,"lng":133.71046,"zip":"7670002"},{"town":"高瀬町羽方","koaza":"","lat":34.142064,"lng":133.739769,"zip":"7670022"},{"town":"高瀬町比地","koaza":"","lat":34.178552,"lng":133.681906,"zip":"7670004"},{"town":"高瀬町比地中","koaza":"","lat":34.180785,"lng":133.70283,"zip":"7670003"},{"town":"詫間町粟島","koaza":"","lat":34.271408,"lng":133.633023,"zip":"7691108"},{"town":"詫間町大浜","koaza":"","lat":34.233791,"lng":133.617591,"zip":"7691104"},{"town":"詫間町香田","koaza":"","lat":34.229997,"lng":133.636643,"zip":"7691103"},{"town":"詫間町志々島","koaza":"","lat":34.270913,"lng":133.676907,"zip":"7691109"},{"town":"詫間町詫間","koaza":"","lat":34.228581,"lng":133.656914,"zip":"7691101"},{"town":"詫間町積","koaza":"","lat":34.246384,"lng":133.605493,"zip":"7691105"},{"town":"詫間町生里","koaza":"","lat":34.252929,"lng":133.579595,"zip":"7691107"},{"town":"詫間町箱","koaza":"","lat":34.254947,"lng":133.588734,"zip":"7691106"},{"town":"詫間町松崎","koaza":"","lat":34.225192,"lng":133.695867,"zip":"7691102"},{"town":"豊中町岡本","koaza":"","lat":34.149196,"lng":133.67829,"zip":"7691507"},{"town":"豊中町笠田笠岡","koaza":"","lat":34.15999,"lng":133.711218,"zip":"7691502"},{"town":"豊中町笠田竹田","koaza":"","lat":34.155434,"lng":133.697465,"zip":"7691503"},{"town":"豊中町上高野","koaza":"","lat":34.141777,"lng":133.709395,"zip":"7691504"},{"town":"豊中町下高野","koaza":"","lat":34.160566,"lng":133.679858,"zip":"7691508"},{"town":"豊中町比地大","koaza":"","lat":34.167071,"lng":133.689038,"zip":"7691501"},{"town":"豊中町本山乙","koaza":"","lat":34.133133,"lng":133.708579,"zip":"7691505"},{"town":"豊中町本山甲","koaza":"","lat":34.144157,"lng":133.694786,"zip":"7691506"},{"town":"仁尾町家の浦","koaza":"","lat":34.218077,"lng":133.626383,"zip":"7691410"},{"town":"仁尾町仁尾","koaza":"","lat":34.191931,"lng":133.659521,"zip":"7691404"},{"town":"三野町大見","koaza":"","lat":34.221462,"lng":133.716887,"zip":"7670031"},{"town":"三野町下高瀬","koaza":"","lat":34.204675,"lng":133.703995,"zip":"7670032"},{"town":"三野町吉津","koaza":"","lat":34.198152,"lng":133.684838,"zip":"7670033"},{"town":"山本町大野","koaza":"","lat":34.129036,"lng":133.725741,"zip":"7680102"},{"town":"山本町神田","koaza":"","lat":34.142854,"lng":133.777136,"zip":"7680104"},{"town":"山本町河内","koaza":"","lat":34.082094,"lng":133.740061,"zip":"7680105"},{"town":"山本町財田西","koaza":"","lat":34.116432,"lng":133.736534,"zip":"7680103"},{"town":"山本町辻","koaza":"","lat":34.105781,"lng":133.719466,"zip":"7680101"},{"town":"仁尾町仁尾","koaza":"己","lat":34.21164,"lng":133.639555,"zip":"7691404"},{"town":"仁尾町仁尾","koaza":"丁","lat":34.200244,"lng":133.644671,"zip":"7691404"},{"town":"仁尾町仁尾","koaza":"乙","lat":34.190305,"lng":133.655743,"zip":"7691404"},{"town":"仁尾町仁尾","koaza":"辛","lat":34.198879,"lng":133.643101,"zip":"7691404"},{"town":"仁尾町仁尾","koaza":"戊","lat":34.211446,"lng":133.65014,"zip":"7691404"},{"town":"仁尾町仁尾","koaza":"甲","lat":34.17191,"lng":133.650785,"zip":"7691404"},{"town":"仁尾町仁尾","koaza":"丙","lat":34.199237,"lng":133.659091,"zip":"7691404"},{"town":"仁尾町仁尾","koaza":"庚","lat":34.209207,"lng":133.662744,"zip":"7691404"},{"town":"詫間町詫間","koaza":"松下","lat":34.221196,"lng":133.67842,"zip":"7691101"},{"town":"豊中町笠田笠岡","koaza":"中津","lat":34.159914,"lng":133.706845,"zip":"7691502"}]