[{"town":"綾歌町岡田上","koaza":"","lat":34.215648,"lng":133.870164,"zip":"7612401"},{"town":"綾歌町岡田下","koaza":"","lat":34.221935,"lng":133.861406,"zip":"7612402"},{"town":"綾歌町岡田西","koaza":"","lat":34.227405,"lng":133.845842,"zip":"7612403"},{"town":"綾歌町岡田東","koaza":"","lat":34.227104,"lng":133.866014,"zip":"7612404"},{"town":"綾歌町栗熊西","koaza":"","lat":34.223607,"lng":133.879431,"zip":"7612405"},{"town":"綾歌町栗熊東","koaza":"","lat":34.226223,"lng":133.891271,"zip":"7612406"},{"town":"綾歌町富熊","koaza":"","lat":34.255952,"lng":133.882144,"zip":"7612408"},{"town":"飯野町西分","koaza":"","lat":34.282099,"lng":133.82947,"zip":"7630086"},{"town":"飯野町東二","koaza":"","lat":34.272726,"lng":133.831347,"zip":"7630084"},{"town":"飯野町東分","koaza":"","lat":34.284383,"lng":133.835351,"zip":"7630085"},{"town":"一番丁","koaza":"","lat":34.286329,"lng":133.800172,"zip":"7630025"},{"town":"今津町","koaza":"","lat":34.279268,"lng":133.783005,"zip":"7630051"},{"town":"魚屋町","koaza":"","lat":34.293018,"lng":133.797049,"zip":"7630006"},{"town":"牛島","koaza":"","lat":34.361165,"lng":133.780843,"zip":"7630231"},{"town":"大手町一丁目","koaza":"","lat":34.290044,"lng":133.801083,"zip":"7630034"},{"town":"大手町二丁目","koaza":"","lat":34.289119,"lng":133.798644,"zip":"7630034"},{"town":"大手町三丁目","koaza":"","lat":34.288124,"lng":133.796147,"zip":"7630034"},{"town":"金倉町","koaza":"","lat":34.266075,"lng":133.781076,"zip":"7630053"},{"town":"上真島","koaza":"","lat":34.316599,"lng":133.79226,"zip":"7630000"},{"town":"葭町","koaza":"","lat":34.292558,"lng":133.797975,"zip":"7630003"},{"town":"川西町北","koaza":"","lat":34.263033,"lng":133.824524,"zip":"7630091"},{"town":"川西町南","koaza":"","lat":34.249041,"lng":133.832047,"zip":"7630092"},{"town":"瓦町","koaza":"","lat":34.294341,"lng":133.799852,"zip":"7630002"},{"town":"北平山町一丁目","koaza":"","lat":34.29551,"lng":133.798613,"zip":"7630015"},{"town":"北平山町二丁目","koaza":"","lat":34.296692,"lng":133.797345,"zip":"7630015"},{"town":"柞原町","koaza":"","lat":34.269791,"lng":133.806976,"zip":"7630073"},{"town":"九番丁","koaza":"","lat":34.283342,"lng":133.802773,"zip":"7630029"},{"town":"郡家町","koaza":"","lat":34.254549,"lng":133.814561,"zip":"7630093"},{"town":"御供所町一丁目","koaza":"","lat":34.29578,"lng":133.801364,"zip":"7630014"},{"town":"御供所町二丁目","koaza":"","lat":34.296951,"lng":133.801395,"zip":"7630014"},{"town":"米屋町","koaza":"","lat":34.291591,"lng":133.797563,"zip":"7630004"},{"town":"幸町一丁目","koaza":"","lat":34.287603,"lng":133.790203,"zip":"7630048"},{"town":"幸町二丁目","koaza":"","lat":34.286332,"lng":133.788148,"zip":"7630048"},{"town":"三条町","koaza":"","lat":34.249429,"lng":133.806009,"zip":"7630094"},{"town":"塩屋町一丁目","koaza":"","lat":34.289907,"lng":133.786207,"zip":"7630065"},{"town":"塩屋町二丁目","koaza":"","lat":34.288543,"lng":133.783539,"zip":"7630065"},{"town":"塩屋町四丁目","koaza":"","lat":34.288524,"lng":133.779908,"zip":"7630065"},{"town":"塩屋町五丁目","koaza":"","lat":34.290285,"lng":133.78163,"zip":"7630065"},{"town":"七番丁","koaza":"","lat":34.283924,"lng":133.800979,"zip":"7630027"},{"town":"十番丁","koaza":"","lat":34.281997,"lng":133.800193,"zip":"7630030"},{"town":"城西町一丁目","koaza":"","lat":34.281913,"lng":133.797196,"zip":"7630032"},{"town":"城西町二丁目","koaza":"","lat":34.285099,"lng":133.795459,"zip":"7630032"},{"town":"城東町一丁目","koaza":"","lat":34.286823,"lng":133.806685,"zip":"7630013"},{"town":"城東町二丁目","koaza":"","lat":34.286391,"lng":133.804248,"zip":"7630013"},{"town":"城東町三丁目","koaza":"","lat":34.288643,"lng":133.806146,"zip":"7630013"},{"town":"城南町","koaza":"","lat":34.281386,"lng":133.802589,"zip":"7630031"},{"town":"昭和町","koaza":"","lat":34.294311,"lng":133.76994,"zip":"7630061"},{"town":"塩飽町","koaza":"","lat":34.289973,"lng":133.79423,"zip":"7630024"},{"town":"新田町","koaza":"","lat":34.269349,"lng":133.788096,"zip":"7630055"},{"town":"新浜町一丁目","koaza":"","lat":34.29227,"lng":133.788138,"zip":"7630063"},{"town":"新浜町二丁目","koaza":"","lat":34.292264,"lng":133.784123,"zip":"7630063"},{"town":"新町","koaza":"","lat":34.291892,"lng":133.791429,"zip":"7630045"},{"town":"宗古町","koaza":"","lat":34.29282,"lng":133.796309,"zip":"7630007"},{"town":"田村町","koaza":"","lat":34.26733,"lng":133.795546,"zip":"7630071"},{"town":"垂水町","koaza":"","lat":34.232528,"lng":133.827712,"zip":"7630095"},{"town":"津森町","koaza":"","lat":34.279925,"lng":133.790632,"zip":"7630052"},{"town":"手島町","koaza":"","lat":34.397011,"lng":133.669609,"zip":"7630111"},{"town":"天満町一丁目","koaza":"","lat":34.28297,"lng":133.778795,"zip":"7630066"},{"town":"土居町一丁目","koaza":"","lat":34.289728,"lng":133.809381,"zip":"7630012"},{"town":"土居町二丁目","koaza":"","lat":34.291206,"lng":133.80423,"zip":"7630012"},{"town":"土居町三丁目","koaza":"","lat":34.294104,"lng":133.802861,"zip":"7630012"},{"town":"通町","koaza":"","lat":34.291633,"lng":133.795819,"zip":"7630043"},{"town":"土器町北一丁目","koaza":"","lat":34.30633,"lng":133.80502,"zip":"7630083"},{"town":"土器町北二丁目","koaza":"","lat":34.304461,"lng":133.802494,"zip":"7630083"},{"town":"土器町西一丁目","koaza":"","lat":34.276071,"lng":133.820492,"zip":"7630081"},{"town":"土器町西二丁目","koaza":"","lat":34.274338,"lng":133.812283,"zip":"7630081"},{"town":"土器町西三丁目","koaza":"","lat":34.278247,"lng":133.809578,"zip":"7630081"},{"town":"土器町西四丁目","koaza":"","lat":34.281547,"lng":133.815891,"zip":"7630081"},{"town":"土器町西五丁目","koaza":"","lat":34.284865,"lng":133.812408,"zip":"7630081"},{"town":"土器町西六丁目","koaza":"","lat":34.283846,"lng":133.81013,"zip":"7630081"},{"town":"土器町西七丁目","koaza":"","lat":34.283904,"lng":133.807868,"zip":"7630081"},{"town":"土器町西八丁目","koaza":"","lat":34.282374,"lng":133.805809,"zip":"7630081"},{"town":"土器町東一丁目","koaza":"","lat":34.287779,"lng":133.819702,"zip":"7630082"},{"town":"土器町東二丁目","koaza":"","lat":34.285271,"lng":133.816234,"zip":"7630082"},{"town":"土器町東三丁目","koaza":"","lat":34.29061,"lng":133.813683,"zip":"7630082"},{"town":"土器町東四丁目","koaza":"","lat":34.293005,"lng":133.818648,"zip":"7630082"},{"town":"土器町東五丁目","koaza":"","lat":34.299299,"lng":133.818316,"zip":"7630082"},{"town":"土器町東六丁目","koaza":"","lat":34.299706,"lng":133.813097,"zip":"7630082"},{"town":"土器町東七丁目","koaza":"","lat":34.293782,"lng":133.809518,"zip":"7630082"},{"town":"土器町東八丁目","koaza":"","lat":34.297565,"lng":133.807239,"zip":"7630082"},{"town":"土器町東九丁目","koaza":"","lat":34.301249,"lng":133.808327,"zip":"7630082"},{"town":"富屋町","koaza":"","lat":34.290322,"lng":133.795139,"zip":"7630021"},{"town":"中府町一丁目","koaza":"","lat":34.278134,"lng":133.797345,"zip":"7630033"},{"town":"中府町二丁目","koaza":"","lat":34.279795,"lng":133.795327,"zip":"7630033"},{"town":"中府町三丁目","koaza":"","lat":34.282799,"lng":133.794877,"zip":"7630033"},{"town":"中府町四丁目","koaza":"","lat":34.284677,"lng":133.791871,"zip":"7630033"},{"town":"中府町五丁目","koaza":"","lat":34.286088,"lng":133.792897,"zip":"7630033"},{"town":"南条町","koaza":"","lat":34.288818,"lng":133.793182,"zip":"7630046"},{"town":"西平山町","koaza":"","lat":34.294878,"lng":133.795395,"zip":"7630041"},{"town":"西本町一丁目","koaza":"","lat":34.289608,"lng":133.790604,"zip":"7630047"},{"town":"西本町二丁目","koaza":"","lat":34.288688,"lng":133.788994,"zip":"7630047"},{"town":"八番丁","koaza":"","lat":34.283091,"lng":133.800479,"zip":"7630028"},{"town":"浜町","koaza":"","lat":34.291382,"lng":133.79217,"zip":"7630022"},{"town":"原田団地","koaza":"","lat":34.261164,"lng":133.792899,"zip":"7630075"},{"town":"原田町","koaza":"","lat":34.258954,"lng":133.78778,"zip":"7630074"},{"town":"飯山町上法軍寺","koaza":"","lat":34.241843,"lng":133.8632,"zip":"7620084"},{"town":"飯山町川原","koaza":"","lat":34.262758,"lng":133.86344,"zip":"7620082"},{"town":"飯山町真時","koaza":"","lat":34.258358,"lng":133.84734,"zip":"7620086"},{"town":"飯山町下法軍寺","koaza":"","lat":34.247161,"lng":133.850213,"zip":"7620083"},{"town":"飯山町西坂元","koaza":"","lat":34.261634,"lng":133.837769,"zip":"7620087"},{"town":"飯山町東小川","koaza":"","lat":34.245441,"lng":133.843386,"zip":"7620085"},{"town":"飯山町東坂元","koaza":"","lat":34.274105,"lng":133.87005,"zip":"7620081"},{"town":"広島町青木","koaza":"","lat":34.366435,"lng":133.693251,"zip":"7630105"},{"town":"広島町市井","koaza":"","lat":34.377036,"lng":133.696743,"zip":"7630106"},{"town":"広島町江の浦","koaza":"","lat":34.369966,"lng":133.708256,"zip":"7630102"},{"town":"広島町小手島","koaza":"","lat":34.37824,"lng":133.646944,"zip":"7630108"},{"town":"広島町釜の越","koaza":"","lat":34.357695,"lng":133.704218,"zip":"7630103"},{"town":"広島町甲路","koaza":"","lat":34.358378,"lng":133.694135,"zip":"7630104"},{"town":"広島町立石","koaza":"","lat":34.375814,"lng":133.722796,"zip":"7630101"},{"town":"広島町茂浦","koaza":"","lat":34.386942,"lng":133.715245,"zip":"7630107"},{"town":"福島町","koaza":"","lat":34.293931,"lng":133.791827,"zip":"7630044"},{"town":"富士見町一丁目","koaza":"","lat":34.298923,"lng":133.802086,"zip":"7630011"},{"town":"富士見町二丁目","koaza":"","lat":34.2998,"lng":133.798869,"zip":"7630011"},{"town":"富士見町三丁目","koaza":"","lat":34.304281,"lng":133.797414,"zip":"7630011"},{"town":"富士見町四丁目","koaza":"","lat":34.304262,"lng":133.795559,"zip":"7630011"},{"town":"富士見町五丁目","koaza":"","lat":34.308004,"lng":133.793254,"zip":"7630011"},{"town":"風袋町","koaza":"","lat":34.292642,"lng":133.799916,"zip":"7630001"},{"town":"蓬莱町","koaza":"","lat":34.302718,"lng":133.782693,"zip":"7630062"},{"town":"本島町生ノ浜","koaza":"","lat":34.377461,"lng":133.762657,"zip":"7630225"},{"town":"本島町大浦","koaza":"","lat":34.386892,"lng":133.767137,"zip":"7630228"},{"town":"本島町笠島","koaza":"","lat":34.395896,"lng":133.779176,"zip":"7630221"},{"town":"本島町甲生","koaza":"","lat":34.388406,"lng":133.790186,"zip":"7630222"},{"town":"本島町小阪","koaza":"","lat":34.377535,"lng":133.768949,"zip":"7630224"},{"town":"本島町尻浜","koaza":"","lat":34.386057,"lng":133.758478,"zip":"7630226"},{"town":"本島町泊","koaza":"","lat":34.385257,"lng":133.779153,"zip":"7630223"},{"town":"本島町福田","koaza":"","lat":34.393485,"lng":133.756219,"zip":"7630227"},{"town":"本町","koaza":"","lat":34.290804,"lng":133.792737,"zip":"7630023"},{"town":"前塩屋町一丁目","koaza":"","lat":34.287169,"lng":133.784614,"zip":"7630064"},{"town":"前塩屋町二丁目","koaza":"","lat":34.285542,"lng":133.782213,"zip":"7630064"},{"town":"松屋町","koaza":"","lat":34.291979,"lng":133.796339,"zip":"7630005"},{"town":"港町","koaza":"","lat":34.298285,"lng":133.795124,"zip":"7630042"},{"town":"山北町","koaza":"","lat":34.27355,"lng":133.799814,"zip":"7630072"},{"town":"六番丁","koaza":"","lat":34.284999,"lng":133.796805,"zip":"7630026"},{"town":"中津町","koaza":"","lat":34.280567,"lng":133.772369,"zip":"7630054"},{"town":"天満町二丁目","koaza":"","lat":34.285041,"lng":133.778984,"zip":"7630066"},{"town":"塩屋町三丁目","koaza":"","lat":34.287032,"lng":133.779344,"zip":"7630065"},{"town":"津森町","koaza":"位","lat":34.276893,"lng":133.792611,"zip":"7630052"},{"town":"飯野町西分","koaza":"川緑","lat":34.284132,"lng":133.822122,"zip":"7630086"},{"town":"飯山町川原","koaza":"北土居","lat":34.26668,"lng":133.850575,"zip":"7620082"},{"town":"綾歌町栗熊東","koaza":"下河西","lat":34.242342,"lng":133.878169,"zip":"7612406"}]