[{"town":"大字青木","koaza":"","lat":34.258192,"lng":133.74785,"zip":"7640000"},{"town":"大字奥白方","koaza":"","lat":34.241345,"lng":133.729053,"zip":"7640000"},{"town":"大字葛原","koaza":"","lat":34.257075,"lng":133.769868,"zip":"7640000"},{"town":"大字庄","koaza":"","lat":34.25878,"lng":133.756706,"zip":"7640000"},{"town":"大字道福寺","koaza":"","lat":34.265267,"lng":133.762479,"zip":"7640000"},{"town":"大字西白方","koaza":"","lat":34.25386,"lng":133.729388,"zip":"7640000"},{"town":"大字東白方","koaza":"","lat":34.263684,"lng":133.741128,"zip":"7640000"},{"town":"大字三井","koaza":"","lat":34.250745,"lng":133.756975,"zip":"7640000"},{"town":"大字見立","koaza":"","lat":34.243781,"lng":133.715949,"zip":"7640000"},{"town":"大字南鴨","koaza":"","lat":34.26927,"lng":133.768362,"zip":"7640000"},{"town":"大字山階","koaza":"","lat":34.247681,"lng":133.745627,"zip":"7640000"},{"town":"大通り","koaza":"","lat":34.273717,"lng":133.749503,"zip":"7640005"},{"town":"家中","koaza":"","lat":34.275327,"lng":133.75377,"zip":"7640002"},{"town":"北鴨一丁目","koaza":"","lat":34.275428,"lng":133.763258,"zip":"7640022"},{"town":"北鴨二丁目","koaza":"","lat":34.276264,"lng":133.767762,"zip":"7640022"},{"town":"北鴨三丁目","koaza":"","lat":34.278127,"lng":133.763031,"zip":"7640022"},{"town":"京町","koaza":"","lat":34.267307,"lng":133.753071,"zip":"7640013"},{"town":"寿町","koaza":"","lat":34.26935,"lng":133.758513,"zip":"7640025"},{"town":"幸町","koaza":"","lat":34.273489,"lng":133.760197,"zip":"7640024"},{"town":"栄町一丁目","koaza":"","lat":34.273142,"lng":133.754518,"zip":"7640011"},{"town":"栄町二丁目","koaza":"","lat":34.273209,"lng":133.756896,"zip":"7640011"},{"town":"栄町三丁目","koaza":"","lat":34.271382,"lng":133.754528,"zip":"7640011"},{"town":"桜川一丁目","koaza":"","lat":34.265377,"lng":133.756181,"zip":"7640012"},{"town":"桜川二丁目","koaza":"","lat":34.266879,"lng":133.757702,"zip":"7640012"},{"town":"佐柳","koaza":"","lat":34.342988,"lng":133.6248,"zip":"7640040"},{"town":"高見","koaza":"","lat":34.315625,"lng":133.67318,"zip":"7640050"},{"town":"仲ノ町","koaza":"","lat":34.271984,"lng":133.751382,"zip":"7640004"},{"town":"西浜","koaza":"","lat":34.271294,"lng":133.744932,"zip":"7640015"},{"town":"西港町","koaza":"","lat":34.272405,"lng":133.73623,"zip":"7640017"},{"town":"東新町","koaza":"","lat":34.278233,"lng":133.753116,"zip":"7640001"},{"town":"東浜","koaza":"","lat":34.273316,"lng":133.745985,"zip":"7640016"},{"town":"東港町","koaza":"","lat":34.279576,"lng":133.746573,"zip":"7640018"},{"town":"日の出町","koaza":"","lat":34.276628,"lng":133.751287,"zip":"7640006"},{"town":"堀江一丁目","koaza":"","lat":34.276201,"lng":133.757597,"zip":"7640021"},{"town":"堀江二丁目","koaza":"","lat":34.27825,"lng":133.755227,"zip":"7640021"},{"town":"堀江三丁目","koaza":"","lat":34.278629,"lng":133.758729,"zip":"7640021"},{"town":"堀江四丁目","koaza":"","lat":34.281285,"lng":133.762942,"zip":"7640021"},{"town":"堀江五丁目","koaza":"","lat":34.283591,"lng":133.760954,"zip":"7640021"},{"town":"本通一丁目","koaza":"","lat":34.269368,"lng":133.749388,"zip":"7640014"},{"town":"本通二丁目","koaza":"","lat":34.265558,"lng":133.751805,"zip":"7640014"},{"town":"本通三丁目","koaza":"","lat":34.265716,"lng":133.748713,"zip":"7640014"},{"town":"元町","koaza":"","lat":34.270116,"lng":133.751806,"zip":"7640003"},{"town":"桃山","koaza":"","lat":34.267291,"lng":133.746405,"zip":"7640000"},{"town":"若葉町","koaza":"","lat":34.272471,"lng":133.764763,"zip":"7640023"}]