[{"town":"生間","koaza":"","lat":34.162006,"lng":133.835161,"zip":"7690313"},{"town":"後山","koaza":"","lat":34.147931,"lng":133.839344,"zip":"7690315"},{"town":"追上","koaza":"","lat":34.1467,"lng":133.819155,"zip":"7690319"},{"town":"大口","koaza":"","lat":34.143508,"lng":133.830181,"zip":"7690316"},{"town":"買田","koaza":"","lat":34.174247,"lng":133.827027,"zip":"7690311"},{"town":"勝浦","koaza":"","lat":34.097457,"lng":133.97318,"zip":"7660204"},{"town":"川東","koaza":"","lat":34.12663,"lng":134.003942,"zip":"7660203"},{"town":"神野","koaza":"","lat":34.161251,"lng":133.87419,"zip":"7660024"},{"town":"岸上","koaza":"","lat":34.171697,"lng":133.842634,"zip":"7660026"},{"town":"公文","koaza":"","lat":34.216588,"lng":133.821387,"zip":"7660011"},{"town":"五條","koaza":"","lat":34.184,"lng":133.83524,"zip":"7660027"},{"town":"佐文","koaza":"","lat":34.167392,"lng":133.807989,"zip":"7690301"},{"town":"塩入","koaza":"","lat":34.120028,"lng":133.893501,"zip":"7690302"},{"town":"四條","koaza":"","lat":34.193665,"lng":133.835494,"zip":"7660021"},{"town":"七箇","koaza":"","lat":34.137512,"lng":133.854671,"zip":"7690303"},{"town":"新目","koaza":"","lat":34.128623,"lng":133.832811,"zip":"7690317"},{"town":"造田","koaza":"","lat":34.147321,"lng":133.928708,"zip":"7660201"},{"town":"長尾","koaza":"","lat":34.19438,"lng":133.868558,"zip":"7660015"},{"town":"中通","koaza":"","lat":34.136022,"lng":133.948096,"zip":"7660202"},{"town":"西高篠","koaza":"","lat":34.208953,"lng":133.824309,"zip":"7660012"},{"town":"羽間","koaza":"","lat":34.207978,"lng":133.844197,"zip":"7660014"},{"town":"東高篠","koaza":"","lat":34.211677,"lng":133.83271,"zip":"7660013"},{"town":"帆山","koaza":"","lat":34.154713,"lng":133.845665,"zip":"7690314"},{"town":"真野","koaza":"","lat":34.173648,"lng":133.85702,"zip":"7660025"},{"town":"宮田","koaza":"","lat":34.165399,"lng":133.821276,"zip":"7690312"},{"town":"山脇","koaza":"","lat":34.107145,"lng":133.832785,"zip":"7690318"},{"town":"吉野","koaza":"","lat":34.1648,"lng":133.882348,"zip":"7660023"},{"town":"吉野下","koaza":"","lat":34.192267,"lng":133.845416,"zip":"7660022"},{"town":"炭所西","koaza":"","lat":34.161002,"lng":133.900998,"zip":"7660017"},{"town":"炭所東","koaza":"","lat":34.18872,"lng":133.912975,"zip":"7660016"},{"town":"吉野","koaza":"市神","lat":34.18491,"lng":133.866961,"zip":"7660023"}]