[{"town":"生野町","koaza":"","lat":34.219909,"lng":133.790498,"zip":"7650053"},{"town":"生野本町一丁目","koaza":"","lat":34.225967,"lng":133.789515,"zip":"7650014"},{"town":"生野本町二丁目","koaza":"","lat":34.224357,"lng":133.786058,"zip":"7650014"},{"town":"稲木町","koaza":"","lat":34.242701,"lng":133.780338,"zip":"7650022"},{"town":"大麻町","koaza":"","lat":34.202146,"lng":133.79938,"zip":"7650052"},{"town":"上吉田町","koaza":"","lat":34.233769,"lng":133.789671,"zip":"7650011"},{"town":"上吉田町一丁目","koaza":"","lat":34.230179,"lng":133.78667,"zip":"7650011"},{"town":"上吉田町二丁目","koaza":"","lat":34.22904,"lng":133.784285,"zip":"7650011"},{"town":"上吉田町三丁目","koaza":"","lat":34.227954,"lng":133.781945,"zip":"7650011"},{"town":"上吉田町四丁目","koaza":"","lat":34.229732,"lng":133.780429,"zip":"7650011"},{"town":"上吉田町五丁目","koaza":"","lat":34.230817,"lng":133.782816,"zip":"7650011"},{"town":"上吉田町六丁目","koaza":"","lat":34.23217,"lng":133.785796,"zip":"7650011"},{"town":"上吉田町七丁目","koaza":"","lat":34.234529,"lng":133.784384,"zip":"7650011"},{"town":"上吉田町八丁目","koaza":"","lat":34.23261,"lng":133.780331,"zip":"7650011"},{"town":"木徳町","koaza":"","lat":34.242002,"lng":133.802476,"zip":"7650033"},{"town":"櫛梨町","koaza":"","lat":34.218455,"lng":133.803405,"zip":"7650051"},{"town":"金蔵寺町","koaza":"","lat":34.248447,"lng":133.781442,"zip":"7650031"},{"town":"下吉田町","koaza":"","lat":34.240042,"lng":133.77533,"zip":"7650021"},{"town":"善通寺町","koaza":"","lat":34.212318,"lng":133.768321,"zip":"7650003"},{"town":"善通寺町一丁目","koaza":"","lat":34.226832,"lng":133.779529,"zip":"7650003"},{"town":"善通寺町二丁目","koaza":"","lat":34.226076,"lng":133.778088,"zip":"7650003"},{"town":"善通寺町三丁目","koaza":"","lat":34.225711,"lng":133.77471,"zip":"7650003"},{"town":"善通寺町四丁目","koaza":"","lat":34.22696,"lng":133.772848,"zip":"7650003"},{"town":"善通寺町五丁目","koaza":"","lat":34.227599,"lng":133.774618,"zip":"7650003"},{"town":"善通寺町六丁目","koaza":"","lat":34.227992,"lng":133.776742,"zip":"7650003"},{"town":"善通寺町七丁目","koaza":"","lat":34.228801,"lng":133.778335,"zip":"7650003"},{"town":"仙遊町一丁目","koaza":"","lat":34.230526,"lng":133.775451,"zip":"7650001"},{"town":"仙遊町二丁目","koaza":"","lat":34.229039,"lng":133.769953,"zip":"7650001"},{"town":"中村町","koaza":"","lat":34.241209,"lng":133.766533,"zip":"7650072"},{"town":"中村町一丁目","koaza":"","lat":34.231324,"lng":133.770084,"zip":"7650072"},{"town":"原田町","koaza":"","lat":34.249293,"lng":133.792007,"zip":"7650032"},{"town":"碑殿町","koaza":"","lat":34.224343,"lng":133.733931,"zip":"7650062"},{"town":"弘田町","koaza":"","lat":34.232403,"lng":133.761635,"zip":"7650071"},{"town":"文京町一丁目","koaza":"","lat":34.228916,"lng":133.788765,"zip":"7650013"},{"town":"文京町二丁目","koaza":"","lat":34.22741,"lng":133.786468,"zip":"7650013"},{"town":"文京町三丁目","koaza":"","lat":34.226002,"lng":133.78326,"zip":"7650013"},{"town":"文京町四丁目","koaza":"","lat":34.224277,"lng":133.780091,"zip":"7650013"},{"town":"南町一丁目","koaza":"","lat":34.221872,"lng":133.781601,"zip":"7650002"},{"town":"南町二丁目","koaza":"","lat":34.220966,"lng":133.777271,"zip":"7650002"},{"town":"南町三丁目","koaza":"","lat":34.223595,"lng":133.776236,"zip":"7650002"},{"town":"与北町","koaza":"","lat":34.234029,"lng":133.809839,"zip":"7650040"},{"town":"吉原町","koaza":"","lat":34.224775,"lng":133.748392,"zip":"7650061"},{"town":"金蔵寺町","koaza":"川添","lat":34.253669,"lng":133.783392,"zip":"7650031"},{"town":"原田町","koaza":"土居","lat":34.251967,"lng":133.786297,"zip":"7650032"},{"town":"原田町","koaza":"中五条","lat":34.247737,"lng":133.789882,"zip":"7650032"}]