[{"town":"当浜","koaza":"","lat":34.522354,"lng":134.345634,"zip":"7614403"},{"town":"池田","koaza":"","lat":34.486359,"lng":134.245407,"zip":"7614301"},{"town":"岩谷","koaza":"","lat":34.505576,"lng":134.340575,"zip":"7614404"},{"town":"馬木","koaza":"","lat":34.474696,"lng":134.32928,"zip":"7614426"},{"town":"片城","koaza":"","lat":34.497787,"lng":134.310874,"zip":"7614431"},{"town":"蒲野","koaza":"","lat":34.43335,"lng":134.245405,"zip":"7614307"},{"town":"蒲生","koaza":"","lat":34.485952,"lng":134.211775,"zip":"7614302"},{"town":"神懸通","koaza":"","lat":34.503201,"lng":134.295717,"zip":"7614433"},{"town":"木庄","koaza":"","lat":34.494972,"lng":134.31597,"zip":"7614412"},{"town":"草壁本町","koaza":"","lat":34.480256,"lng":134.301492,"zip":"7614432"},{"town":"神浦","koaza":"","lat":34.428182,"lng":134.237439,"zip":"7614308"},{"town":"坂手","koaza":"","lat":34.455393,"lng":134.33309,"zip":"7614425"},{"town":"橘","koaza":"","lat":34.486097,"lng":134.338973,"zip":"7614405"},{"town":"田浦","koaza":"","lat":34.452181,"lng":134.291544,"zip":"7614424"},{"town":"中山","koaza":"","lat":34.508145,"lng":134.271093,"zip":"7614155"},{"town":"西村","koaza":"","lat":34.479591,"lng":134.280705,"zip":"7614434"},{"town":"苗羽","koaza":"","lat":34.465543,"lng":134.32796,"zip":"7614421"},{"town":"福田","koaza":"","lat":34.537187,"lng":134.336384,"zip":"7614402"},{"town":"二面","koaza":"","lat":34.460375,"lng":134.253403,"zip":"7614305"},{"town":"古江","koaza":"","lat":34.460093,"lng":134.309952,"zip":"7614422"},{"town":"堀越","koaza":"","lat":34.456764,"lng":134.297465,"zip":"7614423"},{"town":"室生","koaza":"","lat":34.474826,"lng":134.250572,"zip":"7614304"},{"town":"安田","koaza":"","lat":34.495744,"lng":134.325621,"zip":"7614411"},{"town":"吉田","koaza":"","lat":34.555188,"lng":134.338763,"zip":"7614401"},{"town":"吉野","koaza":"","lat":34.447303,"lng":134.241807,"zip":"7614306"}]