[{"town":"伊喜末","koaza":"","lat":34.505828,"lng":134.172253,"zip":"7614664"},{"town":"馬越","koaza":"","lat":34.515314,"lng":134.209964,"zip":"7614141"},{"town":"小江","koaza":"","lat":34.521894,"lng":134.170878,"zip":"7614132"},{"town":"大部","koaza":"","lat":34.53588,"lng":134.277716,"zip":"7614145"},{"town":"小海","koaza":"","lat":34.525475,"lng":134.255221,"zip":"7614144"},{"town":"笠滝","koaza":"","lat":34.504504,"lng":134.207965,"zip":"7614154"},{"town":"上庄","koaza":"","lat":34.493788,"lng":134.202401,"zip":"7614122"},{"town":"黒岩","koaza":"","lat":34.502162,"lng":134.214144,"zip":"7614152"},{"town":"小馬越","koaza":"","lat":34.507936,"lng":134.21384,"zip":"7614153"},{"town":"小部","koaza":"","lat":34.543779,"lng":134.306594,"zip":"7614146"},{"town":"滝宮","koaza":"","lat":34.510484,"lng":134.199613,"zip":"7614134"},{"town":"豊島家浦","koaza":"","lat":34.485193,"lng":134.059545,"zip":"7614661"},{"town":"豊島唐櫃","koaza":"","lat":34.479767,"lng":134.092278,"zip":"7614662"},{"town":"豊島甲生","koaza":"","lat":34.46878,"lng":134.074336,"zip":"7614663"},{"town":"土庄","koaza":"","lat":34.47675,"lng":134.160292,"zip":"7614100"},{"town":"長浜","koaza":"","lat":34.509474,"lng":134.185104,"zip":"7614133"},{"town":"肥土山","koaza":"","lat":34.507467,"lng":134.226159,"zip":"7614151"},{"town":"淵崎","koaza":"","lat":34.49307,"lng":134.18154,"zip":"7614100"},{"town":"見目","koaza":"","lat":34.52214,"lng":134.233791,"zip":"7614143"},{"town":"屋形崎","koaza":"","lat":34.521765,"lng":134.21754,"zip":"7614142"},{"town":"甲","koaza":"","lat":34.482658,"lng":134.179379,"zip":"7614103"},{"town":"淵崎","koaza":"甲","lat":34.489867,"lng":134.185691,"zip":"7614100"}]