[{"town":"伊座","koaza":"","lat":34.236596,"lng":134.37952,"zip":"7692703"},{"town":"馬篠","koaza":"","lat":34.271004,"lng":134.296818,"zip":"7692520"},{"town":"馬宿","koaza":"","lat":34.21697,"lng":134.413514,"zip":"7692902"},{"town":"小海","koaza":"","lat":34.209476,"lng":134.371313,"zip":"7692908"},{"town":"大谷","koaza":"","lat":34.260282,"lng":134.310003,"zip":"7692513"},{"town":"大内","koaza":"","lat":34.245609,"lng":134.311282,"zip":"7692521"},{"town":"落合","koaza":"","lat":34.250359,"lng":134.314953,"zip":"7692512"},{"town":"川東","koaza":"","lat":34.236012,"lng":134.329231,"zip":"7692602"},{"town":"川股","koaza":"","lat":34.178884,"lng":134.399824,"zip":"7692906"},{"town":"帰来","koaza":"","lat":34.23463,"lng":134.364978,"zip":"7692704"},{"town":"黒羽","koaza":"","lat":34.202673,"lng":134.409097,"zip":"7692905"},{"town":"小磯","koaza":"","lat":34.26684,"lng":134.315186,"zip":"7692511"},{"town":"小砂","koaza":"","lat":34.260727,"lng":134.288074,"zip":"7692519"},{"town":"五名","koaza":"","lat":34.198156,"lng":134.238759,"zip":"7692715"},{"town":"坂元","koaza":"","lat":34.199215,"lng":134.431937,"zip":"7692904"},{"town":"三本松","koaza":"","lat":34.250373,"lng":134.338105,"zip":"7692601"},{"town":"白鳥","koaza":"","lat":34.229348,"lng":134.346291,"zip":"7692705"},{"town":"土居","koaza":"","lat":34.258345,"lng":134.298568,"zip":"7692516"},{"town":"中筋","koaza":"","lat":34.244938,"lng":134.325315,"zip":"7692605"},{"town":"中山","koaza":"","lat":34.254073,"lng":134.284487,"zip":"7692518"},{"town":"西村","koaza":"","lat":34.251825,"lng":134.319949,"zip":"7692604"},{"town":"西山","koaza":"","lat":34.198517,"lng":134.336569,"zip":"7692712"},{"town":"入野山","koaza":"","lat":34.192178,"lng":134.284534,"zip":"7692714"},{"town":"東山","koaza":"","lat":34.202293,"lng":134.34995,"zip":"7692711"},{"town":"引田","koaza":"","lat":34.225585,"lng":134.395179,"zip":"7692901"},{"town":"町田","koaza":"","lat":34.251876,"lng":134.301126,"zip":"7692515"},{"town":"松崎","koaza":"","lat":34.245681,"lng":134.306767,"zip":"7692514"},{"town":"松原","koaza":"","lat":34.249976,"lng":134.380513,"zip":"7692702"},{"town":"水主","koaza":"","lat":34.227023,"lng":134.29934,"zip":"7692606"},{"town":"三殿","koaza":"","lat":34.244863,"lng":134.290485,"zip":"7692517"},{"town":"湊","koaza":"","lat":34.246688,"lng":134.35094,"zip":"7692701"},{"town":"南野","koaza":"","lat":34.203943,"lng":134.419713,"zip":"7692903"},{"town":"横内","koaza":"","lat":34.256373,"lng":134.328322,"zip":"7692603"},{"town":"吉田","koaza":"","lat":34.209177,"lng":134.399468,"zip":"7692907"},{"town":"与田山","koaza":"","lat":34.200106,"lng":134.321367,"zip":"7692713"},{"town":"引田","koaza":"小海代","lat":34.224676,"lng":134.396143,"zip":"7692901"}]