[{"town":"牛川","koaza":"","lat":34.218657,"lng":133.937632,"zip":"7612208"},{"town":"小野","koaza":"","lat":34.247462,"lng":133.903324,"zip":"7612307"},{"town":"萱原","koaza":"","lat":34.248549,"lng":133.934096,"zip":"7612304"},{"town":"北","koaza":"","lat":34.235701,"lng":133.927487,"zip":"7612306"},{"town":"陶","koaza":"","lat":34.257203,"lng":133.949465,"zip":"7612103"},{"town":"千疋","koaza":"","lat":34.227522,"lng":133.988477,"zip":"7612102"},{"town":"枌所西","koaza":"","lat":34.187837,"lng":133.985386,"zip":"7612202"},{"town":"枌所東","koaza":"","lat":34.174643,"lng":134.005355,"zip":"7612201"},{"town":"滝宮","koaza":"","lat":34.252308,"lng":133.917915,"zip":"7612305"},{"town":"西分","koaza":"","lat":34.187644,"lng":133.947092,"zip":"7612206"},{"town":"畑田","koaza":"","lat":34.255319,"lng":133.979018,"zip":"7612101"},{"town":"羽床上","koaza":"","lat":34.215092,"lng":133.920555,"zip":"7612207"},{"town":"羽床下","koaza":"","lat":34.225233,"lng":133.906153,"zip":"7612308"},{"town":"東分","koaza":"","lat":34.202869,"lng":133.966816,"zip":"7612205"},{"town":"山田上","koaza":"","lat":34.218692,"lng":133.972268,"zip":"7612203"},{"town":"山田下","koaza":"","lat":34.228488,"lng":133.950425,"zip":"7612204"}]