[{"town":"大字東分","koaza":"","lat":34.291983,"lng":133.834634,"zip":"7690200"},{"town":"浜一番丁","koaza":"","lat":34.312527,"lng":133.809319,"zip":"7690201"},{"town":"浜二番丁","koaza":"","lat":34.307522,"lng":133.809049,"zip":"7690202"},{"town":"浜三番丁","koaza":"","lat":34.314458,"lng":133.815676,"zip":"7690203"},{"town":"浜四番丁","koaza":"","lat":34.311853,"lng":133.815952,"zip":"7690204"},{"town":"浜五番丁","koaza":"","lat":34.305637,"lng":133.811694,"zip":"7690205"},{"town":"浜六番丁","koaza":"","lat":34.304849,"lng":133.815097,"zip":"7690206"},{"town":"浜七番丁","koaza":"","lat":34.311196,"lng":133.818541,"zip":"7690207"},{"town":"浜八番丁","koaza":"","lat":34.309809,"lng":133.820527,"zip":"7690208"},{"town":"浜九番丁","koaza":"","lat":34.312904,"lng":133.822912,"zip":"7690209"},{"town":"（大字なし）","koaza":"青の山","lat":34.305427,"lng":133.821146,"zip":"7690200"},{"town":"（大字なし）","koaza":"宇夫階","lat":34.307612,"lng":133.820804,"zip":"7690200"},{"town":"（大字なし）","koaza":"","lat":34.308799,"lng":133.830591,"zip":"7690200"},{"town":"（大字なし）","koaza":"西町","lat":34.307419,"lng":133.822348,"zip":"7690200"},{"town":"（大字なし）","koaza":"網の浦","lat":34.308728,"lng":133.825001,"zip":"7690200"},{"town":"（大字なし）","koaza":"吉田","lat":34.328241,"lng":133.825066,"zip":"7690200"},{"town":"（大字なし）","koaza":"平山","lat":34.318568,"lng":133.826105,"zip":"7690200"},{"town":"（大字なし）","koaza":"山下","lat":34.306853,"lng":133.82605,"zip":"7690200"},{"town":"（大字なし）","koaza":"塩浜","lat":34.311025,"lng":133.824473,"zip":"7690200"},{"town":"（大字なし）","koaza":"新開","lat":34.313534,"lng":133.828343,"zip":"7690200"},{"town":"（大字なし）","koaza":"大門","lat":34.305685,"lng":133.829107,"zip":"7690200"},{"town":"（大字なし）","koaza":"十楽寺","lat":34.299332,"lng":133.829958,"zip":"7690200"},{"town":"（大字なし）","koaza":"新町","lat":34.309536,"lng":133.829597,"zip":"7690200"},{"town":"（大字なし）","koaza":"中村","lat":34.307364,"lng":133.830839,"zip":"7690200"},{"town":"（大字なし）","koaza":"岩屋","lat":34.308947,"lng":133.835634,"zip":"7690200"},{"town":"（大字なし）","koaza":"長縄手","lat":34.301946,"lng":133.835461,"zip":"7690200"},{"town":"（大字なし）","koaza":"坂下","lat":34.313997,"lng":133.834514,"zip":"7690200"},{"town":"（大字なし）","koaza":"沼ノ池","lat":34.297552,"lng":133.83378,"zip":"7690200"},{"town":"（大字なし）","koaza":"津の郷","lat":34.297835,"lng":133.836848,"zip":"7690200"},{"town":"（大字なし）","koaza":"津の山","lat":34.306349,"lng":133.839088,"zip":"7690200"},{"town":"（大字なし）","koaza":"茶臼山","lat":34.31189,"lng":133.838111,"zip":"7690200"}]