[{"town":"有明町","koaza":"","lat":34.13187,"lng":133.642966,"zip":"7680062"},{"town":"粟井町","koaza":"","lat":34.07554,"lng":133.722845,"zip":"7680052"},{"town":"池之尻町","koaza":"","lat":34.11392,"lng":133.68966,"zip":"7680031"},{"town":"伊吹町","koaza":"","lat":34.13045,"lng":133.535408,"zip":"7680071"},{"town":"植田町","koaza":"","lat":34.124153,"lng":133.676704,"zip":"7680012"},{"town":"大野原町青岡","koaza":"","lat":34.095797,"lng":133.677603,"zip":"7691617"},{"town":"大野原町有木","koaza":"","lat":34.033976,"lng":133.708414,"zip":"7691624"},{"town":"大野原町井関","koaza":"","lat":34.05771,"lng":133.68374,"zip":"7691621"},{"town":"大野原町内野々","koaza":"","lat":34.054174,"lng":133.701051,"zip":"7691622"},{"town":"大野原町海老済","koaza":"","lat":34.03198,"lng":133.684579,"zip":"7691625"},{"town":"大野原町大野原","koaza":"","lat":34.083598,"lng":133.659651,"zip":"7691611"},{"town":"大野原町田野々","koaza":"","lat":34.040298,"lng":133.662348,"zip":"7691623"},{"town":"大野原町中姫","koaza":"","lat":34.09029,"lng":133.6735,"zip":"7691612"},{"town":"大野原町萩原","koaza":"","lat":34.070842,"lng":133.685822,"zip":"7691614"},{"town":"大野原町花稲","koaza":"","lat":34.094918,"lng":133.644986,"zip":"7691613"},{"town":"大野原町福田原","koaza":"","lat":34.074871,"lng":133.694292,"zip":"7691616"},{"town":"大野原町丸井","koaza":"","lat":34.073799,"lng":133.706198,"zip":"7691615"},{"town":"観音寺町","koaza":"","lat":34.128352,"lng":133.649947,"zip":"7680060"},{"town":"木之郷町","koaza":"","lat":34.10365,"lng":133.681442,"zip":"7680051"},{"town":"柞田町","koaza":"","lat":34.104938,"lng":133.654831,"zip":"7680040"},{"town":"琴浪町一丁目","koaza":"","lat":34.124344,"lng":133.639796,"zip":"7680064"},{"town":"琴浪町二丁目","koaza":"","lat":34.121908,"lng":133.640714,"zip":"7680064"},{"town":"幸町","koaza":"","lat":34.131396,"lng":133.655019,"zip":"7680074"},{"town":"栄町一丁目","koaza":"","lat":34.124791,"lng":133.656564,"zip":"7680072"},{"town":"栄町二丁目","koaza":"","lat":34.122956,"lng":133.649676,"zip":"7680072"},{"town":"栄町三丁目","koaza":"","lat":34.12507,"lng":133.656009,"zip":"7680072"},{"town":"坂本町一丁目","koaza":"","lat":34.128472,"lng":133.66245,"zip":"7680067"},{"town":"坂本町二丁目","koaza":"","lat":34.128179,"lng":133.665482,"zip":"7680067"},{"town":"坂本町三丁目","koaza":"","lat":34.126668,"lng":133.665255,"zip":"7680067"},{"town":"坂本町四丁目","koaza":"","lat":34.125632,"lng":133.666062,"zip":"7680067"},{"town":"坂本町五丁目","koaza":"","lat":34.122406,"lng":133.661538,"zip":"7680067"},{"town":"坂本町六丁目","koaza":"","lat":34.124473,"lng":133.659364,"zip":"7680067"},{"town":"坂本町七丁目","koaza":"","lat":34.127439,"lng":133.658463,"zip":"7680067"},{"town":"三本松町一丁目","koaza":"","lat":34.12426,"lng":133.643591,"zip":"7680063"},{"town":"三本松町二丁目","koaza":"","lat":34.121684,"lng":133.643559,"zip":"7680063"},{"town":"三本松町三丁目","koaza":"","lat":34.117492,"lng":133.643749,"zip":"7680063"},{"town":"三本松町四丁目","koaza":"","lat":34.117677,"lng":133.641307,"zip":"7680063"},{"town":"茂木町一丁目","koaza":"","lat":34.13054,"lng":133.667167,"zip":"7680069"},{"town":"茂木町二丁目","koaza":"","lat":34.131296,"lng":133.664301,"zip":"7680069"},{"town":"茂木町三丁目","koaza":"","lat":34.131904,"lng":133.661708,"zip":"7680069"},{"town":"茂木町四丁目","koaza":"","lat":34.132207,"lng":133.658468,"zip":"7680069"},{"town":"茂木町五丁目","koaza":"","lat":34.134494,"lng":133.662276,"zip":"7680069"},{"town":"茂西町一丁目","koaza":"","lat":34.132005,"lng":133.656241,"zip":"7680073"},{"town":"茂西町二丁目","koaza":"","lat":34.133293,"lng":133.655085,"zip":"7680073"},{"town":"出作町","koaza":"","lat":34.117447,"lng":133.676002,"zip":"7680011"},{"town":"昭和町一丁目","koaza":"","lat":34.122256,"lng":133.655319,"zip":"7680066"},{"town":"昭和町二丁目","koaza":"","lat":34.120584,"lng":133.657028,"zip":"7680066"},{"town":"昭和町三丁目","koaza":"","lat":34.121326,"lng":133.652097,"zip":"7680066"},{"town":"新田町","koaza":"","lat":34.109199,"lng":133.699903,"zip":"7680033"},{"town":"瀬戸町一丁目","koaza":"","lat":34.121269,"lng":133.637929,"zip":"7680065"},{"town":"瀬戸町二丁目","koaza":"","lat":34.12089,"lng":133.634677,"zip":"7680065"},{"town":"瀬戸町三丁目","koaza":"","lat":34.117023,"lng":133.639992,"zip":"7680065"},{"town":"瀬戸町四丁目","koaza":"","lat":34.116334,"lng":133.636321,"zip":"7680065"},{"town":"高屋町","koaza":"","lat":34.150074,"lng":133.660575,"zip":"7680002"},{"town":"天神町一丁目","koaza":"","lat":34.129285,"lng":133.659968,"zip":"7680068"},{"town":"天神町二丁目","koaza":"","lat":34.129707,"lng":133.658029,"zip":"7680068"},{"town":"天神町三丁目","koaza":"","lat":34.13032,"lng":133.656365,"zip":"7680068"},{"town":"豊浜町姫浜","koaza":"","lat":34.082918,"lng":133.640226,"zip":"7691601"},{"town":"豊浜町箕浦","koaza":"","lat":34.047857,"lng":133.631029,"zip":"7691604"},{"town":"豊浜町和田","koaza":"","lat":34.059646,"lng":133.654313,"zip":"7691603"},{"town":"豊浜町和田浜","koaza":"","lat":34.073198,"lng":133.638434,"zip":"7691602"},{"town":"中田井町","koaza":"","lat":34.123499,"lng":133.707389,"zip":"7680024"},{"town":"流岡町","koaza":"","lat":34.135102,"lng":133.676779,"zip":"7680014"},{"town":"西本町一丁目","koaza":"","lat":34.128278,"lng":133.644467,"zip":"7680075"},{"town":"西本町二丁目","koaza":"","lat":34.126471,"lng":133.644432,"zip":"7680075"},{"town":"原町","koaza":"","lat":34.111123,"lng":133.707088,"zip":"7680032"},{"town":"古川町","koaza":"","lat":34.126827,"lng":133.695349,"zip":"7680023"},{"town":"港町一丁目","koaza":"","lat":34.127246,"lng":133.639914,"zip":"7680076"},{"town":"港町二丁目","koaza":"","lat":34.126385,"lng":133.639742,"zip":"7680076"},{"town":"南町一丁目","koaza":"","lat":34.124258,"lng":133.647776,"zip":"7680070"},{"town":"南町二丁目","koaza":"","lat":34.120959,"lng":133.649351,"zip":"7680070"},{"town":"南町三丁目","koaza":"","lat":34.118558,"lng":133.648451,"zip":"7680070"},{"town":"南町四丁目","koaza":"","lat":34.118506,"lng":133.646371,"zip":"7680070"},{"town":"南町五丁目","koaza":"","lat":34.121917,"lng":133.647155,"zip":"7680070"},{"town":"村黒町","koaza":"","lat":34.131586,"lng":133.67152,"zip":"7680013"},{"town":"室本町","koaza":"","lat":34.150411,"lng":133.647111,"zip":"7680001"},{"town":"本大町","koaza":"","lat":34.131513,"lng":133.701277,"zip":"7680022"},{"town":"八幡町一丁目","koaza":"","lat":34.133047,"lng":133.64924,"zip":"7680061"},{"town":"八幡町二丁目","koaza":"","lat":34.137459,"lng":133.648026,"zip":"7680061"},{"town":"八幡町三丁目","koaza":"","lat":34.136856,"lng":133.654134,"zip":"7680061"},{"town":"吉岡町","koaza":"","lat":34.130727,"lng":133.688901,"zip":"7680021"},{"town":"豊浜町姫浜","koaza":"芝原","lat":34.084395,"lng":133.641112,"zip":"7691601"},{"town":"観音寺町","koaza":"白浜","lat":34.12737,"lng":133.654097,"zip":"7680060"},{"town":"出作町","koaza":"川西","lat":34.116712,"lng":133.675727,"zip":"7680011"},{"town":"植田町","koaza":"東原","lat":34.123346,"lng":133.684571,"zip":"7680012"},{"town":"吉岡町","koaza":"道上","lat":34.126867,"lng":133.687973,"zip":"7680021"},{"town":"古川町","koaza":"切石","lat":34.130733,"lng":133.692676,"zip":"7680023"}]