[{"town":"鳥島","koaza":"","lat":34.486788,"lng":133.964032,"zip":"7613110"},{"town":"ヤスノ島","koaza":"","lat":34.49654,"lng":133.974923,"zip":"7613110"},{"town":"屏風島","koaza":"","lat":34.499081,"lng":133.971419,"zip":"7613110"},{"town":"喜兵衛島","koaza":"","lat":34.500862,"lng":133.976733,"zip":"7613110"},{"town":"寺島","koaza":"","lat":34.476919,"lng":133.974087,"zip":"7613110"},{"town":"局島","koaza":"","lat":34.484394,"lng":133.991916,"zip":"7613110"},{"town":"家島","koaza":"","lat":34.474876,"lng":133.996529,"zip":"7613110"},{"town":"京ノ上臈","koaza":"","lat":34.490905,"lng":133.980938,"zip":"7613110"},{"town":"牛ヶ首島","koaza":"","lat":34.506544,"lng":133.973142,"zip":"7613110"},{"town":"柏島","koaza":"","lat":34.439054,"lng":134.008979,"zip":"7613110"},{"town":"荒神島","koaza":"","lat":34.45788,"lng":133.958812,"zip":"7613110"},{"town":"井島","koaza":"","lat":34.489429,"lng":134.015371,"zip":"7613110"},{"town":"鶴石","koaza":"","lat":34.472507,"lng":133.968831,"zip":"7613110"},{"town":"摺鉢谷","koaza":"","lat":34.464467,"lng":133.973714,"zip":"7613110"},{"town":"小向","koaza":"","lat":34.46676,"lng":133.999615,"zip":"7613110"},{"town":"向島","koaza":"","lat":34.465859,"lng":134.003954,"zip":"7613110"},{"town":"大福浦","koaza":"","lat":34.470809,"lng":134.002304,"zip":"7613110"},{"town":"風戸","koaza":"","lat":34.472211,"lng":133.97327,"zip":"7613110"},{"town":"鷲ノ松","koaza":"","lat":34.460456,"lng":133.977246,"zip":"7613110"},{"town":"能見","koaza":"","lat":34.459894,"lng":133.971858,"zip":"7613110"},{"town":"重石","koaza":"","lat":34.471366,"lng":133.977456,"zip":"7613110"},{"town":"ヘキ","koaza":"","lat":34.467815,"lng":133.982825,"zip":"7613110"},{"town":"姫泊","koaza":"","lat":34.44985,"lng":134.003751,"zip":"7613110"},{"town":"納言様","koaza":"","lat":34.463443,"lng":133.98894,"zip":"7613110"},{"town":"外新田","koaza":"","lat":34.460967,"lng":133.991357,"zip":"7613110"},{"town":"チキリホウ","koaza":"","lat":34.464197,"lng":133.989145,"zip":"7613110"},{"town":"笠町","koaza":"","lat":34.459255,"lng":133.983805,"zip":"7613110"},{"town":"才ノ神","koaza":"","lat":34.462347,"lng":133.980325,"zip":"7613110"},{"town":"宮ノ浦","koaza":"","lat":34.459154,"lng":133.974973,"zip":"7613110"},{"town":"家ノ上","koaza":"","lat":34.458962,"lng":133.978369,"zip":"7613110"},{"town":"追出","koaza":"","lat":34.457277,"lng":133.976314,"zip":"7613110"},{"town":"揚島","koaza":"","lat":34.447674,"lng":133.983363,"zip":"7613110"},{"town":"横防","koaza":"","lat":34.451662,"lng":133.976453,"zip":"7613110"},{"town":"地蔵山","koaza":"","lat":34.454859,"lng":133.980578,"zip":"7613110"},{"town":"鍛冶屋","koaza":"","lat":34.456557,"lng":133.987934,"zip":"7613110"},{"town":"内新田","koaza":"","lat":34.460072,"lng":133.989568,"zip":"7613110"},{"town":"八日山","koaza":"","lat":34.461696,"lng":133.99498,"zip":"7613110"},{"town":"文教","koaza":"","lat":34.461558,"lng":133.989258,"zip":"7613110"},{"town":"奴免里岩","koaza":"","lat":34.458423,"lng":133.990126,"zip":"7613110"},{"town":"藤ヱ門谷","koaza":"","lat":34.453449,"lng":133.987832,"zip":"7613110"},{"town":"倉浦","koaza":"","lat":34.447949,"lng":133.988623,"zip":"7613110"},{"town":"広木","koaza":"","lat":34.451318,"lng":133.988554,"zip":"7613110"},{"town":"立石","koaza":"","lat":34.451868,"lng":133.986457,"zip":"7613110"},{"town":"鎧山","koaza":"","lat":34.459943,"lng":133.993655,"zip":"7613110"},{"town":"高田浦","koaza":"","lat":34.459558,"lng":133.99813,"zip":"7613110"},{"town":"流レ","koaza":"","lat":34.457751,"lng":133.996256,"zip":"7613110"},{"town":"神子持","koaza":"","lat":34.454687,"lng":133.998901,"zip":"7613110"},{"town":"綿打","koaza":"","lat":34.455894,"lng":133.992427,"zip":"7613110"},{"town":"山奥","koaza":"","lat":34.453639,"lng":133.99115,"zip":"7613110"},{"town":"中奥","koaza":"","lat":34.456772,"lng":133.994847,"zip":"7613110"},{"town":"京ノ山","koaza":"","lat":34.448465,"lng":133.992954,"zip":"7613110"},{"town":"姫宮","koaza":"","lat":34.451696,"lng":133.998489,"zip":"7613110"},{"town":"坪ノ奥","koaza":"","lat":34.449015,"lng":133.997595,"zip":"7613110"},{"town":"積浦","koaza":"","lat":34.450149,"lng":134.001032,"zip":"7613110"},{"town":"琴反地","koaza":"","lat":34.44674,"lng":133.998723,"zip":"7613110"}]