[{"town":"茜町","koaza":"","lat":34.349399,"lng":134.025012,"zip":"7600002"},{"town":"朝日新町","koaza":"","lat":34.360405,"lng":134.066582,"zip":"7600064"},{"town":"朝日町一丁目","koaza":"","lat":34.350267,"lng":134.062414,"zip":"7600065"},{"town":"朝日町二丁目","koaza":"","lat":34.349477,"lng":134.064922,"zip":"7600065"},{"town":"朝日町三丁目","koaza":"","lat":34.349805,"lng":134.067601,"zip":"7600065"},{"town":"朝日町四丁目","koaza":"","lat":34.354401,"lng":134.066127,"zip":"7600065"},{"town":"朝日町五丁目","koaza":"","lat":34.351285,"lng":134.074162,"zip":"7600065"},{"town":"朝日町六丁目","koaza":"","lat":34.358884,"lng":134.077194,"zip":"7600065"},{"town":"庵治町","koaza":"","lat":34.377396,"lng":134.142566,"zip":"7610130"},{"town":"飯田町","koaza":"","lat":34.320394,"lng":134.005862,"zip":"7618033"},{"town":"生島町","koaza":"","lat":34.356015,"lng":133.960289,"zip":"7618002"},{"town":"井口町","koaza":"","lat":34.345162,"lng":134.057246,"zip":"7600038"},{"town":"池田町","koaza":"","lat":34.259653,"lng":134.084422,"zip":"7610444"},{"town":"一宮町","koaza":"","lat":34.28723,"lng":134.024968,"zip":"7618084"},{"town":"今里町","koaza":"","lat":34.322277,"lng":134.057261,"zip":"7600078"},{"town":"今里町一丁目","koaza":"","lat":34.327033,"lng":134.056856,"zip":"7600078"},{"town":"今里町二丁目","koaza":"","lat":34.325434,"lng":134.062974,"zip":"7600078"},{"town":"今新町","koaza":"","lat":34.343959,"lng":134.052817,"zip":"7600043"},{"town":"植松町","koaza":"","lat":34.348307,"lng":133.982352,"zip":"7618005"},{"town":"内町","koaza":"","lat":34.346459,"lng":134.051845,"zip":"7600034"},{"town":"円座町","koaza":"","lat":34.286494,"lng":134.010571,"zip":"7618044"},{"town":"扇町一丁目","koaza":"","lat":34.346772,"lng":134.036606,"zip":"7600013"},{"town":"扇町二丁目","koaza":"","lat":34.344658,"lng":134.03563,"zip":"7600013"},{"town":"扇町三丁目","koaza":"","lat":34.346005,"lng":134.031248,"zip":"7600013"},{"town":"太田上町","koaza":"","lat":34.296854,"lng":134.042719,"zip":"7618074"},{"town":"太田下町","koaza":"","lat":34.30585,"lng":134.046424,"zip":"7618073"},{"town":"岡本町","koaza":"","lat":34.268135,"lng":133.996189,"zip":"7618047"},{"town":"男木町","koaza":"","lat":34.425056,"lng":134.059965,"zip":"7600091"},{"town":"小村町","koaza":"","lat":34.287719,"lng":134.100161,"zip":"7610431"},{"town":"香川町浅野","koaza":"","lat":34.258624,"lng":134.042839,"zip":"7611703"},{"town":"香川町大野","koaza":"","lat":34.266298,"lng":134.024727,"zip":"7611701"},{"town":"香川町川内原","koaza":"","lat":34.22973,"lng":134.048674,"zip":"7611704"},{"town":"香川町川東上","koaza":"","lat":34.227941,"lng":134.036577,"zip":"7611706"},{"town":"香川町川東下","koaza":"","lat":34.24538,"lng":134.030668,"zip":"7611705"},{"town":"香川町寺井","koaza":"","lat":34.272393,"lng":134.030652,"zip":"7611702"},{"town":"香川町東谷","koaza":"","lat":34.209547,"lng":134.064409,"zip":"7611707"},{"town":"香川町安原下第一号","koaza":"","lat":34.207418,"lng":134.045206,"zip":"7600000"},{"town":"香川町安原下第三号","koaza":"","lat":34.205019,"lng":134.022993,"zip":"7600000"},{"town":"鍛冶屋町","koaza":"","lat":34.342877,"lng":134.048731,"zip":"7600028"},{"town":"春日町","koaza":"","lat":34.328642,"lng":134.091682,"zip":"7610101"},{"town":"片原町","koaza":"","lat":34.345705,"lng":134.052704,"zip":"7600040"},{"town":"鹿角町","koaza":"","lat":34.300147,"lng":134.032095,"zip":"7618082"},{"town":"上天神町","koaza":"","lat":34.311381,"lng":134.038798,"zip":"7618056"},{"town":"上之町一丁目","koaza":"","lat":34.321034,"lng":134.044948,"zip":"7618064"},{"town":"上之町二丁目","koaza":"","lat":34.320738,"lng":134.048071,"zip":"7618064"},{"town":"上之町三丁目","koaza":"","lat":34.321986,"lng":134.050879,"zip":"7618064"},{"town":"上林町","koaza":"","lat":34.28827,"lng":134.06932,"zip":"7610302"},{"town":"上福岡町","koaza":"","lat":34.330414,"lng":134.064061,"zip":"7600077"},{"town":"紙町","koaza":"","lat":34.31733,"lng":134.035412,"zip":"7618055"},{"town":"亀井町","koaza":"","lat":34.340121,"lng":134.048226,"zip":"7600050"},{"town":"亀岡町","koaza":"","lat":34.336972,"lng":134.041226,"zip":"7600006"},{"town":"亀田町","koaza":"","lat":34.28521,"lng":134.114212,"zip":"7610323"},{"town":"亀田南町","koaza":"","lat":34.279214,"lng":134.1122,"zip":"7610432"},{"town":"川島東町","koaza":"","lat":34.266706,"lng":134.092133,"zip":"7610443"},{"town":"川島本町","koaza":"","lat":34.275795,"lng":134.082351,"zip":"7610442"},{"town":"川部町","koaza":"","lat":34.264741,"lng":134.009711,"zip":"7618046"},{"town":"瓦町一丁目","koaza":"","lat":34.341273,"lng":134.051529,"zip":"7600052"},{"town":"瓦町二丁目","koaza":"","lat":34.340026,"lng":134.051278,"zip":"7600052"},{"town":"観光町","koaza":"","lat":34.33456,"lng":134.062778,"zip":"7600076"},{"town":"観光通一丁目","koaza":"","lat":34.336137,"lng":134.051587,"zip":"7600055"},{"town":"観光通二丁目","koaza":"","lat":34.33628,"lng":134.055338,"zip":"7600055"},{"town":"木太町","koaza":"","lat":34.328092,"lng":134.077186,"zip":"7600080"},{"town":"北浜町","koaza":"","lat":34.350532,"lng":134.055493,"zip":"7600031"},{"town":"鬼無町鬼無","koaza":"","lat":34.317627,"lng":133.986369,"zip":"7618026"},{"town":"鬼無町是竹","koaza":"","lat":34.339326,"lng":133.988687,"zip":"7618021"},{"town":"鬼無町佐藤","koaza":"","lat":34.331004,"lng":133.977404,"zip":"7618023"},{"town":"鬼無町佐料","koaza":"","lat":34.334873,"lng":133.98882,"zip":"7618022"},{"town":"鬼無町藤井","koaza":"","lat":34.328872,"lng":133.998162,"zip":"7618024"},{"town":"鬼無町山口","koaza":"","lat":34.323513,"lng":133.982995,"zip":"7618025"},{"town":"楠上町一丁目","koaza":"","lat":34.331011,"lng":134.056965,"zip":"7600075"},{"town":"楠上町二丁目","koaza":"","lat":34.329152,"lng":134.055858,"zip":"7600075"},{"town":"香西北町","koaza":"","lat":34.353235,"lng":133.993468,"zip":"7618011"},{"town":"香西西町","koaza":"","lat":34.347224,"lng":133.990331,"zip":"7618015"},{"town":"香西東町","koaza":"","lat":34.340931,"lng":134.006634,"zip":"7618013"},{"town":"香西本町","koaza":"","lat":34.351236,"lng":134.004286,"zip":"7618012"},{"town":"香西南町","koaza":"","lat":34.339585,"lng":134.000752,"zip":"7618014"},{"town":"郷東町","koaza":"","lat":34.347265,"lng":134.014987,"zip":"7618031"},{"town":"香南町池内","koaza":"","lat":34.250004,"lng":134.001524,"zip":"7611405"},{"town":"香南町岡","koaza":"","lat":34.224219,"lng":134.026039,"zip":"7611401"},{"town":"香南町西庄","koaza":"","lat":34.23588,"lng":133.996549,"zip":"7611406"},{"town":"香南町由佐","koaza":"","lat":34.230208,"lng":134.008973,"zip":"7611402"},{"town":"香南町横井","koaza":"","lat":34.244049,"lng":134.009908,"zip":"7611404"},{"town":"香南町吉光","koaza":"","lat":34.252301,"lng":134.014518,"zip":"7611403"},{"town":"国分寺町柏原","koaza":"","lat":34.287556,"lng":133.948241,"zip":"7690105"},{"town":"国分寺町国分","koaza":"","lat":34.309606,"lng":133.941771,"zip":"7690102"},{"town":"国分寺町新名","koaza":"","lat":34.283168,"lng":133.956955,"zip":"7690104"},{"town":"国分寺町新居","koaza":"","lat":34.315284,"lng":133.966505,"zip":"7690101"},{"town":"国分寺町福家","koaza":"","lat":34.279135,"lng":133.971945,"zip":"7690103"},{"town":"寿町一丁目","koaza":"","lat":34.350333,"lng":134.048829,"zip":"7600023"},{"town":"寿町二丁目","koaza":"","lat":34.347563,"lng":134.048345,"zip":"7600023"},{"town":"御坊町","koaza":"","lat":34.343278,"lng":134.052905,"zip":"7600044"},{"town":"紺屋町","koaza":"","lat":34.344457,"lng":134.048997,"zip":"7600027"},{"town":"西宝町一丁目","koaza":"","lat":34.343089,"lng":134.028688,"zip":"7600004"},{"town":"西宝町二丁目","koaza":"","lat":34.337563,"lng":134.026065,"zip":"7600004"},{"town":"西宝町三丁目","koaza":"","lat":34.343053,"lng":134.025754,"zip":"7600004"},{"town":"幸町","koaza":"","lat":34.341739,"lng":134.036821,"zip":"7600016"},{"town":"桜町一丁目","koaza":"","lat":34.330528,"lng":134.052783,"zip":"7600074"},{"town":"桜町二丁目","koaza":"","lat":34.326792,"lng":134.053024,"zip":"7600074"},{"town":"三条町","koaza":"","lat":34.314391,"lng":134.046754,"zip":"7618072"},{"town":"サンポート","koaza":"","lat":34.354436,"lng":134.046395,"zip":"7600019"},{"town":"三名町","koaza":"","lat":34.290869,"lng":134.035817,"zip":"7618083"},{"town":"紫雲町","koaza":"","lat":34.341127,"lng":134.033711,"zip":"7600015"},{"town":"塩上町","koaza":"","lat":34.335824,"lng":134.050795,"zip":"7600062"},{"town":"塩上町一丁目","koaza":"","lat":34.338149,"lng":134.053552,"zip":"7600062"},{"town":"塩上町二丁目","koaza":"","lat":34.338717,"lng":134.055414,"zip":"7600062"},{"town":"塩上町三丁目","koaza":"","lat":34.338985,"lng":134.057503,"zip":"7600062"},{"town":"塩江町上西乙","koaza":"","lat":34.156914,"lng":134.07123,"zip":"7611614"},{"town":"塩江町上西甲","koaza":"","lat":34.140771,"lng":134.067754,"zip":"7611613"},{"town":"塩江町安原上","koaza":"","lat":34.178089,"lng":134.075681,"zip":"7611611"},{"town":"塩江町安原上東","koaza":"","lat":34.155301,"lng":134.107728,"zip":"7611612"},{"town":"塩江町安原下","koaza":"","lat":34.196733,"lng":134.054455,"zip":"7611615"},{"town":"塩江町安原下第一号","koaza":"","lat":34.177491,"lng":134.05588,"zip":"7600000"},{"town":"塩江町安原下第二号","koaza":"","lat":34.1722,"lng":134.0381,"zip":"7600000"},{"town":"塩江町安原下第三号","koaza":"","lat":34.192666,"lng":134.031132,"zip":"7600000"},{"town":"塩屋町","koaza":"","lat":34.342099,"lng":134.055055,"zip":"7600047"},{"town":"下田井町","koaza":"","lat":34.293848,"lng":134.093425,"zip":"7610313"},{"town":"出作町","koaza":"","lat":34.286683,"lng":134.047892,"zip":"7618077"},{"town":"城東町一丁目","koaza":"","lat":34.346732,"lng":134.057179,"zip":"7600036"},{"town":"城東町二丁目","koaza":"","lat":34.349346,"lng":134.058534,"zip":"7600036"},{"town":"昭和町一丁目","koaza":"","lat":34.343046,"lng":134.033545,"zip":"7600014"},{"town":"昭和町二丁目","koaza":"","lat":34.342926,"lng":134.031164,"zip":"7600014"},{"town":"新北町","koaza":"","lat":34.352902,"lng":134.025496,"zip":"7600001"},{"town":"神在川窪町","koaza":"","lat":34.363945,"lng":133.97678,"zip":"7618003"},{"town":"新田町","koaza":"","lat":34.322617,"lng":134.10489,"zip":"7610102"},{"town":"末広町","koaza":"","lat":34.344074,"lng":134.057127,"zip":"7600060"},{"town":"菅沢町","koaza":"","lat":34.194275,"lng":134.100356,"zip":"7611616"},{"town":"瀬戸内町","koaza":"","lat":34.349784,"lng":134.031924,"zip":"7600012"},{"town":"十川西町","koaza":"","lat":34.269191,"lng":134.104323,"zip":"7610433"},{"town":"十川東町","koaza":"","lat":34.259689,"lng":134.107396,"zip":"7610434"},{"town":"大工町","koaza":"","lat":34.34453,"lng":134.052758,"zip":"7600042"},{"town":"多賀町一丁目","koaza":"","lat":34.336553,"lng":134.057722,"zip":"7600063"},{"town":"多賀町二丁目","koaza":"","lat":34.336518,"lng":134.059974,"zip":"7600063"},{"town":"多賀町三丁目","koaza":"","lat":34.336363,"lng":134.063427,"zip":"7600063"},{"town":"高松町","koaza":"","lat":34.330052,"lng":134.11735,"zip":"7610104"},{"town":"多肥上町","koaza":"","lat":34.282889,"lng":134.055748,"zip":"7618076"},{"town":"多肥下町","koaza":"","lat":34.301493,"lng":134.057677,"zip":"7618075"},{"town":"田町","koaza":"","lat":34.337029,"lng":134.048834,"zip":"7600053"},{"town":"玉藻町","koaza":"","lat":34.350629,"lng":134.051646,"zip":"7600030"},{"town":"田村町","koaza":"","lat":34.3093,"lng":134.030103,"zip":"7618057"},{"town":"亀水町","koaza":"","lat":34.364798,"lng":133.946503,"zip":"7618001"},{"town":"檀紙町","koaza":"","lat":34.303818,"lng":134.000328,"zip":"7618041"},{"town":"中央町","koaza":"","lat":34.336475,"lng":134.045089,"zip":"7600007"},{"town":"勅使町","koaza":"","lat":34.308723,"lng":134.016838,"zip":"7618058"},{"town":"築地町","koaza":"","lat":34.342014,"lng":134.057011,"zip":"7600061"},{"town":"鶴市町","koaza":"","lat":34.333305,"lng":134.013839,"zip":"7600093"},{"town":"鶴屋町","koaza":"","lat":34.346851,"lng":134.05508,"zip":"7600035"},{"town":"寺井町","koaza":"","lat":34.277766,"lng":134.025964,"zip":"7618085"},{"town":"天神前","koaza":"","lat":34.338981,"lng":134.0458,"zip":"7600018"},{"town":"通町","koaza":"","lat":34.345225,"lng":134.055546,"zip":"7600046"},{"town":"磨屋町","koaza":"","lat":34.345263,"lng":134.047545,"zip":"7600026"},{"town":"常磐町一丁目","koaza":"","lat":34.338695,"lng":134.051157,"zip":"7600054"},{"town":"常磐町二丁目","koaza":"","lat":34.337472,"lng":134.0514,"zip":"7600054"},{"town":"中新町","koaza":"","lat":34.337062,"lng":134.047677,"zip":"7600056"},{"town":"中間町","koaza":"","lat":34.290186,"lng":133.988412,"zip":"7618043"},{"town":"中野町","koaza":"","lat":34.334033,"lng":134.044067,"zip":"7600008"},{"town":"中山町","koaza":"","lat":34.345247,"lng":133.966343,"zip":"7618004"},{"town":"成合町","koaza":"","lat":34.29763,"lng":134.016597,"zip":"7618081"},{"town":"西植田町","koaza":"","lat":34.227014,"lng":134.073677,"zip":"7610445"},{"town":"西内町","koaza":"","lat":34.347731,"lng":134.047015,"zip":"7600022"},{"town":"西春日町","koaza":"","lat":34.318846,"lng":134.021476,"zip":"7618051"},{"town":"錦町一丁目","koaza":"","lat":34.347423,"lng":134.044703,"zip":"7600020"},{"town":"錦町二丁目","koaza":"","lat":34.347187,"lng":134.041473,"zip":"7600020"},{"town":"西の丸町","koaza":"","lat":34.349864,"lng":134.047979,"zip":"7600021"},{"town":"西ハゼ町","koaza":"","lat":34.319842,"lng":134.034554,"zip":"7618053"},{"town":"西町","koaza":"","lat":34.34641,"lng":134.024164,"zip":"7600003"},{"town":"西山崎町","koaza":"","lat":34.280344,"lng":133.993058,"zip":"7618045"},{"town":"旅篭町","koaza":"","lat":34.335562,"lng":134.047491,"zip":"7600000"},{"town":"花園町一丁目","koaza":"","lat":34.33446,"lng":134.058149,"zip":"7600072"},{"town":"花園町二丁目","koaza":"","lat":34.333616,"lng":134.056963,"zip":"7600072"},{"town":"花園町三丁目","koaza":"","lat":34.332823,"lng":134.056468,"zip":"7600072"},{"town":"花ノ宮町一丁目","koaza":"","lat":34.326522,"lng":134.048305,"zip":"7618063"},{"town":"花ノ宮町二丁目","koaza":"","lat":34.324006,"lng":134.048481,"zip":"7618063"},{"town":"花ノ宮町三丁目","koaza":"","lat":34.324467,"lng":134.045959,"zip":"7618063"},{"town":"浜ノ町","koaza":"","lat":34.351246,"lng":134.041194,"zip":"7600011"},{"town":"林町","koaza":"","lat":34.300767,"lng":134.070145,"zip":"7610301"},{"town":"番町一丁目","koaza":"","lat":34.34253,"lng":134.046355,"zip":"7600017"},{"town":"番町二丁目","koaza":"","lat":34.344084,"lng":134.04208,"zip":"7600017"},{"town":"番町三丁目","koaza":"","lat":34.342372,"lng":134.041625,"zip":"7600017"},{"town":"番町四丁目","koaza":"","lat":34.340772,"lng":134.041279,"zip":"7600017"},{"town":"番町五丁目","koaza":"","lat":34.339225,"lng":134.041162,"zip":"7600017"},{"town":"東植田町","koaza":"","lat":34.229223,"lng":134.101842,"zip":"7610446"},{"town":"東田町","koaza":"","lat":34.335862,"lng":134.049724,"zip":"7600058"},{"town":"東ハゼ町","koaza":"","lat":34.32043,"lng":134.040951,"zip":"7618054"},{"town":"東浜町一丁目","koaza":"","lat":34.345699,"lng":134.057067,"zip":"7600037"},{"town":"東山崎町","koaza":"","lat":34.308419,"lng":134.097119,"zip":"7610312"},{"town":"百間町","koaza":"","lat":34.345114,"lng":134.052815,"zip":"7600041"},{"town":"兵庫町","koaza":"","lat":34.346398,"lng":134.047843,"zip":"7600024"},{"town":"福岡町一丁目","koaza":"","lat":34.346039,"lng":134.060949,"zip":"7600066"},{"town":"福岡町二丁目","koaza":"","lat":34.345311,"lng":134.065884,"zip":"7600066"},{"town":"福岡町三丁目","koaza":"","lat":34.344548,"lng":134.071942,"zip":"7600066"},{"town":"福岡町四丁目","koaza":"","lat":34.341297,"lng":134.071282,"zip":"7600066"},{"town":"福田町","koaza":"","lat":34.341553,"lng":134.053888,"zip":"7600048"},{"town":"藤塚町","koaza":"","lat":34.335087,"lng":134.050171,"zip":"7600071"},{"town":"藤塚町一丁目","koaza":"","lat":34.33399,"lng":134.047983,"zip":"7600071"},{"town":"藤塚町二丁目","koaza":"","lat":34.334085,"lng":134.050556,"zip":"7600071"},{"town":"藤塚町三丁目","koaza":"","lat":34.334111,"lng":134.052982,"zip":"7600071"},{"town":"伏石町","koaza":"","lat":34.314311,"lng":134.053052,"zip":"7618071"},{"town":"仏生山町","koaza":"","lat":34.276763,"lng":134.041531,"zip":"7618078"},{"town":"古新町","koaza":"","lat":34.34574,"lng":134.048171,"zip":"7600025"},{"town":"古馬場町","koaza":"","lat":34.342523,"lng":134.051876,"zip":"7600045"},{"town":"本町","koaza":"","lat":34.34842,"lng":134.054893,"zip":"7600032"},{"town":"前田西町","koaza":"","lat":34.30514,"lng":134.113579,"zip":"7610321"},{"town":"前田東町","koaza":"","lat":34.297152,"lng":134.116877,"zip":"7610322"},{"town":"松島町","koaza":"","lat":34.333352,"lng":134.068481,"zip":"7600068"},{"town":"松島町一丁目","koaza":"","lat":34.339789,"lng":134.060191,"zip":"7600068"},{"town":"松島町二丁目","koaza":"","lat":34.338752,"lng":134.06495,"zip":"7600068"},{"town":"松島町三丁目","koaza":"","lat":34.337316,"lng":134.069335,"zip":"7600068"},{"town":"松並町","koaza":"","lat":34.317162,"lng":134.026757,"zip":"7618052"},{"town":"松縄町","koaza":"","lat":34.317937,"lng":134.061343,"zip":"7600079"},{"town":"松福町一丁目","koaza":"","lat":34.342969,"lng":134.060649,"zip":"7600067"},{"town":"松福町二丁目","koaza":"","lat":34.341774,"lng":134.064927,"zip":"7600067"},{"town":"丸亀町","koaza":"","lat":34.3439,"lng":134.050082,"zip":"7600029"},{"town":"丸の内","koaza":"","lat":34.347519,"lng":134.051506,"zip":"7600033"},{"town":"三谷町","koaza":"","lat":34.265607,"lng":134.065099,"zip":"7610450"},{"town":"南新町","koaza":"","lat":34.340336,"lng":134.049322,"zip":"7600051"},{"town":"峰山町","koaza":"","lat":34.330545,"lng":134.026594,"zip":"7600009"},{"town":"御厩町","koaza":"","lat":34.304954,"lng":133.987004,"zip":"7618042"},{"town":"宮脇町一丁目","koaza":"","lat":34.338268,"lng":134.03681,"zip":"7600005"},{"town":"宮脇町二丁目","koaza":"","lat":34.332691,"lng":134.036015,"zip":"7600005"},{"town":"牟礼町大町","koaza":"","lat":34.334814,"lng":134.14533,"zip":"7610122"},{"town":"牟礼町原","koaza":"","lat":34.322474,"lng":134.153264,"zip":"7610123"},{"town":"牟礼町牟礼","koaza":"","lat":34.349123,"lng":134.13275,"zip":"7610121"},{"town":"室新町","koaza":"","lat":34.326607,"lng":134.03703,"zip":"7618062"},{"town":"室町","koaza":"","lat":34.325531,"lng":134.042346,"zip":"7618061"},{"town":"女木町","koaza":"","lat":34.394396,"lng":134.049511,"zip":"7600092"},{"town":"元山町","koaza":"","lat":34.312833,"lng":134.08668,"zip":"7610311"},{"town":"八坂町","koaza":"","lat":34.339835,"lng":134.05371,"zip":"7600049"},{"town":"屋島中町","koaza":"","lat":34.346704,"lng":134.105425,"zip":"7610112"},{"town":"屋島西町","koaza":"","lat":34.361236,"lng":134.097067,"zip":"7610113"},{"town":"屋島東町","koaza":"","lat":34.361222,"lng":134.109149,"zip":"7610111"},{"town":"由良町","koaza":"","lat":34.285103,"lng":134.085009,"zip":"7610441"},{"town":"栗林町一丁目","koaza":"","lat":34.329321,"lng":134.044826,"zip":"7600073"},{"town":"栗林町二丁目","koaza":"","lat":34.330769,"lng":134.049353,"zip":"7600073"},{"town":"栗林町三丁目","koaza":"","lat":34.3284,"lng":134.049051,"zip":"7600073"},{"town":"六条町","koaza":"","lat":34.298773,"lng":134.085483,"zip":"7610303"},{"town":"国分寺町新名","koaza":"北吹越","lat":34.293876,"lng":133.942058,"zip":"7690104"},{"town":"国分寺町福家","koaza":"甲","lat":34.283851,"lng":133.961501,"zip":"7690103"},{"town":"郷東町","koaza":"西新開","lat":34.348324,"lng":134.008183,"zip":"7618031"},{"town":"香南町岡","koaza":"清水","lat":34.228852,"lng":134.029433,"zip":"7611401"},{"town":"仏生山町","koaza":"甲","lat":34.277011,"lng":134.048431,"zip":"7618078"},{"town":"西ハゼ町","koaza":"清水","lat":34.320864,"lng":134.038106,"zip":"7618053"},{"town":"三条町","koaza":"中所","lat":34.317055,"lng":134.041537,"zip":"7618072"},{"town":"上天神町","koaza":"高田","lat":34.315,"lng":134.041671,"zip":"7618056"},{"town":"仏生山町","koaza":"乙","lat":34.281352,"lng":134.049261,"zip":"7618078"},{"town":"上福岡町","koaza":"深田","lat":34.329537,"lng":134.064372,"zip":"7600077"},{"town":"木太町","koaza":"九区","lat":34.312186,"lng":134.071337,"zip":"7600080"},{"town":"林町","koaza":"三ツ股","lat":34.30371,"lng":134.077917,"zip":"7610301"},{"town":"木太町","koaza":"六区","lat":34.339195,"lng":134.081514,"zip":"7600080"},{"town":"木太町","koaza":"七区","lat":34.323251,"lng":134.085834,"zip":"7600080"},{"town":"春日町","koaza":"片田","lat":34.339742,"lng":134.091654,"zip":"7610101"},{"town":"春日町","koaza":"川尻","lat":34.328952,"lng":134.091892,"zip":"7610101"},{"town":"新田町","koaza":"甲","lat":34.325384,"lng":134.100912,"zip":"7610102"},{"town":"屋島西町","koaza":"百石","lat":34.339719,"lng":134.102634,"zip":"7610113"},{"town":"新田町","koaza":"乙","lat":34.320069,"lng":134.111476,"zip":"7610102"},{"town":"高松町","koaza":"角屋","lat":34.341501,"lng":134.117289,"zip":"7610104"}]