[{"town":"上倉","koaza":"","lat":33.646471,"lng":133.584088,"zip":"7830074"},{"town":"伊達野","koaza":"","lat":33.562261,"lng":133.626649,"zip":"7830008"},{"town":"稲生","koaza":"","lat":33.549286,"lng":133.627413,"zip":"7830084"},{"town":"植田","koaza":"","lat":33.617373,"lng":133.66071,"zip":"7830063"},{"town":"植野","koaza":"","lat":33.621424,"lng":133.64359,"zip":"7830061"},{"town":"駅前町一丁目","koaza":"","lat":33.578149,"lng":133.642645,"zip":"7830002"},{"town":"駅前町二丁目","koaza":"","lat":33.578535,"lng":133.646427,"zip":"7830002"},{"town":"駅前町三丁目","koaza":"","lat":33.578154,"lng":133.647563,"zip":"7830002"},{"town":"駅前町四丁目","koaza":"","lat":33.578496,"lng":133.648618,"zip":"7830002"},{"town":"駅前町五丁目","koaza":"","lat":33.580144,"lng":133.648884,"zip":"7830002"},{"town":"大改野","koaza":"","lat":33.665727,"lng":133.574566,"zip":"7830077"},{"town":"大埆","koaza":"","lat":33.567669,"lng":133.648692,"zip":"7830000"},{"town":"岡豊町江村","koaza":"","lat":33.589511,"lng":133.626022,"zip":"7830046"},{"town":"岡豊町笠ノ川","koaza":"","lat":33.606325,"lng":133.626863,"zip":"7830051"},{"town":"岡豊町蒲原","koaza":"","lat":33.593234,"lng":133.601556,"zip":"7830042"},{"town":"岡豊町小篭","koaza":"","lat":33.582322,"lng":133.62709,"zip":"7830048"},{"town":"岡豊町小蓮","koaza":"","lat":33.599512,"lng":133.616993,"zip":"7830043"},{"town":"岡豊町常通寺島","koaza":"","lat":33.589454,"lng":133.620414,"zip":"7830047"},{"town":"岡豊町定林寺","koaza":"","lat":33.601846,"lng":133.604713,"zip":"7830041"},{"town":"岡豊町滝本","koaza":"","lat":33.602296,"lng":133.591929,"zip":"7830040"},{"town":"岡豊町中島","koaza":"","lat":33.584868,"lng":133.613845,"zip":"7830049"},{"town":"岡豊町八幡","koaza":"","lat":33.595516,"lng":133.625956,"zip":"7830044"},{"town":"岡豊町吉田","koaza":"","lat":33.587896,"lng":133.627962,"zip":"7830045"},{"town":"片山","koaza":"","lat":33.553422,"lng":133.646703,"zip":"7830081"},{"town":"金地","koaza":"","lat":33.583765,"lng":133.671926,"zip":"7830035"},{"town":"包末","koaza":"","lat":33.583568,"lng":133.666326,"zip":"7830033"},{"town":"上末松","koaza":"","lat":33.591057,"lng":133.659158,"zip":"7830026"},{"town":"上野田","koaza":"","lat":33.582607,"lng":133.659058,"zip":"7830032"},{"town":"亀岩","koaza":"","lat":33.643318,"lng":133.624045,"zip":"7830071"},{"town":"久礼田","koaza":"","lat":33.616076,"lng":133.650884,"zip":"7830062"},{"town":"黒滝","koaza":"","lat":33.669517,"lng":133.610123,"zip":"7830076"},{"town":"桑ノ川","koaza":"","lat":33.66386,"lng":133.596329,"zip":"7830075"},{"town":"国分","koaza":"","lat":33.601257,"lng":133.639865,"zip":"7830053"},{"town":"小籠","koaza":"","lat":33.581961,"lng":133.634223,"zip":"7830022"},{"town":"小籠一丁目","koaza":"","lat":33.580302,"lng":133.636844,"zip":"7830022"},{"town":"小籠二丁目","koaza":"","lat":33.579856,"lng":133.634863,"zip":"7830022"},{"town":"後免町","koaza":"","lat":33.574975,"lng":133.643901,"zip":"7830011"},{"town":"後免町一丁目","koaza":"","lat":33.576351,"lng":133.644932,"zip":"7830011"},{"town":"後免町二丁目","koaza":"","lat":33.575935,"lng":133.646603,"zip":"7830011"},{"town":"後免町三丁目","koaza":"","lat":33.575491,"lng":133.647753,"zip":"7830011"},{"town":"後免町四丁目","koaza":"","lat":33.574901,"lng":133.645365,"zip":"7830011"},{"town":"才谷","koaza":"","lat":33.633416,"lng":133.64627,"zip":"7830068"},{"town":"幸町一丁目","koaza":"","lat":33.579368,"lng":133.642799,"zip":"7830013"},{"town":"幸町二丁目","koaza":"","lat":33.580907,"lng":133.641912,"zip":"7830013"},{"town":"幸町三丁目","koaza":"","lat":33.581045,"lng":133.643734,"zip":"7830013"},{"town":"里改田","koaza":"","lat":33.541979,"lng":133.644806,"zip":"7830082"},{"town":"三畠","koaza":"","lat":33.601508,"lng":133.657134,"zip":"7830027"},{"town":"宍崎","koaza":"","lat":33.62959,"lng":133.6385,"zip":"7830064"},{"town":"篠原","koaza":"","lat":33.572796,"lng":133.630859,"zip":"7830006"},{"town":"下島","koaza":"","lat":33.538548,"lng":133.670925,"zip":"7830095"},{"town":"下末松","koaza":"","lat":33.591269,"lng":133.649617,"zip":"7830025"},{"town":"下野田","koaza":"","lat":33.576035,"lng":133.655762,"zip":"7830031"},{"town":"白木谷","koaza":"","lat":33.62003,"lng":133.591004,"zip":"7830058"},{"town":"陣山","koaza":"","lat":33.601757,"lng":133.665854,"zip":"7830028"},{"town":"蔵福寺島","koaza":"","lat":33.577216,"lng":133.680946,"zip":"7830037"},{"town":"左右山","koaza":"","lat":33.608799,"lng":133.639476,"zip":"7830052"},{"town":"立田","koaza":"","lat":33.571607,"lng":133.671477,"zip":"7830091"},{"town":"田村","koaza":"","lat":33.558733,"lng":133.664732,"zip":"7830092"},{"town":"天行寺","koaza":"","lat":33.637138,"lng":133.659863,"zip":"7830067"},{"town":"十市","koaza":"","lat":33.532119,"lng":133.624401,"zip":"7830085"},{"town":"外山","koaza":"","lat":33.647273,"lng":133.641768,"zip":"7830065"},{"town":"中谷","koaza":"","lat":33.645869,"lng":133.594967,"zip":"7830073"},{"town":"中ノ川","koaza":"","lat":33.68779,"lng":133.585061,"zip":"7830078"},{"town":"成合","koaza":"","lat":33.652165,"lng":133.658054,"zip":"7830066"},{"town":"奈路","koaza":"","lat":33.649193,"lng":133.606387,"zip":"7830072"},{"town":"西野田町一丁目","koaza":"","lat":33.575637,"lng":133.648933,"zip":"7830003"},{"town":"西野田町二丁目","koaza":"","lat":33.576635,"lng":133.64871,"zip":"7830003"},{"town":"西野田町三丁目","koaza":"","lat":33.577525,"lng":133.64901,"zip":"7830003"},{"town":"西野田町四丁目","koaza":"","lat":33.578056,"lng":133.649243,"zip":"7830003"},{"town":"西山","koaza":"","lat":33.591142,"lng":133.666429,"zip":"7830029"},{"town":"野中","koaza":"","lat":33.582779,"lng":133.643499,"zip":"7830021"},{"town":"廿枝","koaza":"","lat":33.596817,"lng":133.647986,"zip":"7830023"},{"town":"浜改田","koaza":"","lat":33.534908,"lng":133.647217,"zip":"7830083"},{"town":"比江","koaza":"","lat":33.602685,"lng":133.648431,"zip":"7830054"},{"town":"東崎","koaza":"","lat":33.583307,"lng":133.65236,"zip":"7830024"},{"town":"東山町一丁目","koaza":"","lat":33.580565,"lng":133.645653,"zip":"7830012"},{"town":"東山町二丁目","koaza":"","lat":33.581196,"lng":133.64705,"zip":"7830012"},{"town":"東山町三丁目","koaza":"","lat":33.583178,"lng":133.64867,"zip":"7830012"},{"town":"久枝","koaza":"","lat":33.541788,"lng":133.675611,"zip":"7830096"},{"town":"日吉町一丁目","koaza":"","lat":33.576641,"lng":133.643145,"zip":"7830001"},{"town":"日吉町二丁目","koaza":"","lat":33.576893,"lng":133.641145,"zip":"7830001"},{"town":"日吉町三丁目","koaza":"","lat":33.577513,"lng":133.64304,"zip":"7830001"},{"town":"福船","koaza":"","lat":33.581556,"lng":133.678106,"zip":"7830036"},{"town":"双葉台","koaza":"","lat":33.611006,"lng":133.645678,"zip":"7830055"},{"town":"蛍が丘一丁目","koaza":"","lat":33.614922,"lng":133.64354,"zip":"7830060"},{"town":"蛍が丘二丁目","koaza":"","lat":33.618351,"lng":133.643331,"zip":"7830060"},{"town":"堀ノ内","koaza":"","lat":33.577229,"lng":133.672191,"zip":"7830034"},{"town":"前浜","koaza":"","lat":33.540364,"lng":133.659759,"zip":"7830094"},{"town":"緑ケ丘一丁目","koaza":"","lat":33.535128,"lng":133.612987,"zip":"7830086"},{"town":"緑ケ丘二丁目","koaza":"","lat":33.533683,"lng":133.609265,"zip":"7830086"},{"town":"緑ケ丘三丁目","koaza":"","lat":33.531343,"lng":133.603475,"zip":"7830086"},{"town":"明見","koaza":"","lat":33.569799,"lng":133.624762,"zip":"7830007"},{"town":"三和琴平一丁目","koaza":"","lat":33.541376,"lng":133.640395,"zip":"7830087"},{"town":"三和琴平二丁目","koaza":"","lat":33.537923,"lng":133.641311,"zip":"7830087"},{"town":"三和琴平三丁目","koaza":"","lat":33.53473,"lng":133.641514,"zip":"7830087"},{"town":"元町一丁目","koaza":"","lat":33.578925,"lng":133.639622,"zip":"7830014"},{"town":"元町二丁目","koaza":"","lat":33.580677,"lng":133.640415,"zip":"7830014"},{"town":"元町三丁目","koaza":"","lat":33.580483,"lng":133.638854,"zip":"7830014"},{"town":"物部","koaza":"","lat":33.55364,"lng":133.676362,"zip":"7830093"},{"town":"八京","koaza":"","lat":33.619277,"lng":133.614065,"zip":"7830057"},{"town":"領石","koaza":"","lat":33.618123,"lng":133.631688,"zip":"7830056"},{"town":"明見","koaza":"中野","lat":33.57026,"lng":133.623116,"zip":"7830007"},{"town":"大埆","koaza":"乙","lat":33.56245,"lng":133.64193,"zip":"7830000"},{"town":"大埆","koaza":"甲","lat":33.57137,"lng":133.64908,"zip":"7830000"},{"town":"大埆","koaza":"樋掛","lat":33.568239,"lng":133.638017,"zip":"7830000"},{"town":"田村","koaza":"乙","lat":33.563775,"lng":133.663964,"zip":"7830092"},{"town":"久枝","koaza":"開田","lat":33.550328,"lng":133.673686,"zip":"7830096"},{"town":"物部","koaza":"乙","lat":33.552661,"lng":133.677724,"zip":"7830093"},{"town":"物部","koaza":"新開","lat":33.554136,"lng":133.678909,"zip":"7830093"},{"town":"日章あけぼの","koaza":"","lat":null,"lng":null,"zip":null}]