[{"town":"旭町","koaza":"","lat":33.549842,"lng":133.424796,"zip":"7812115"},{"town":"足谷","koaza":"","lat":33.793165,"lng":133.323133,"zip":"7812613"},{"town":"池ノ内","koaza":"","lat":33.53727,"lng":133.453148,"zip":"7812100"},{"town":"内野北町","koaza":"","lat":33.551719,"lng":133.427223,"zip":"7812119"},{"town":"内野東町","koaza":"","lat":33.553102,"lng":133.430748,"zip":"7812117"},{"town":"内野南町","koaza":"","lat":33.551396,"lng":133.429497,"zip":"7812118"},{"town":"駅東町","koaza":"","lat":33.549032,"lng":133.435452,"zip":"7812108"},{"town":"駅前町","koaza":"","lat":33.548568,"lng":133.431434,"zip":"7812107"},{"town":"駅南町","koaza":"","lat":33.546174,"lng":133.429529,"zip":"7812106"},{"town":"枝川","koaza":"","lat":33.558317,"lng":133.457813,"zip":"7812120"},{"town":"越裏門","koaza":"","lat":33.733912,"lng":133.227507,"zip":"7812604"},{"town":"大内","koaza":"","lat":33.530973,"lng":133.415972,"zip":"7812126"},{"town":"大森","koaza":"","lat":33.698283,"lng":133.29505,"zip":"7812603"},{"town":"鹿敷","koaza":"","lat":33.571535,"lng":133.373196,"zip":"7812136"},{"town":"葛原","koaza":"","lat":33.75998,"lng":133.317758,"zip":"7812614"},{"town":"加田","koaza":"","lat":33.555338,"lng":133.406547,"zip":"7812133"},{"town":"鎌田","koaza":"","lat":33.54108,"lng":133.417323,"zip":"7812127"},{"town":"上八川上分","koaza":"","lat":33.665629,"lng":133.3933,"zip":"7812100"},{"town":"上八川下分","koaza":"","lat":33.655459,"lng":133.337133,"zip":"7812100"},{"town":"加茂町","koaza":"","lat":33.550904,"lng":133.425005,"zip":"7812114"},{"town":"清水上分","koaza":"","lat":33.700209,"lng":133.357676,"zip":"7812511"},{"town":"清水下分","koaza":"","lat":33.681062,"lng":133.355169,"zip":"7812512"},{"town":"楠瀬","koaza":"","lat":33.565417,"lng":133.351306,"zip":"7812143"},{"town":"桑瀬","koaza":"","lat":33.802504,"lng":133.284486,"zip":"7812615"},{"town":"公園町","koaza":"","lat":33.548661,"lng":133.422536,"zip":"7812102"},{"town":"神谷","koaza":"","lat":33.563418,"lng":133.395892,"zip":"7812134"},{"town":"小川新別","koaza":"","lat":33.62733,"lng":133.272564,"zip":"7812324"},{"town":"小川西津賀才","koaza":"","lat":33.641863,"lng":133.288041,"zip":"7812322"},{"town":"小川東津賀才","koaza":"","lat":33.654164,"lng":133.300217,"zip":"7812321"},{"town":"小川樅ノ木山","koaza":"","lat":33.657627,"lng":133.254733,"zip":"7812323"},{"town":"小川柳野","koaza":"","lat":33.620534,"lng":133.240947,"zip":"7812325"},{"town":"小野","koaza":"","lat":33.57329,"lng":133.391661,"zip":"7812135"},{"town":"幸町","koaza":"","lat":33.547216,"lng":133.423688,"zip":"7812103"},{"town":"下八川","koaza":"","lat":33.612922,"lng":133.308186,"zip":"7812332"},{"town":"下八川十田","koaza":"","lat":33.6105,"lng":133.277222,"zip":"7812335"},{"town":"勝賀瀬","koaza":"","lat":33.594949,"lng":133.362727,"zip":"7812141"},{"town":"新町","koaza":"","lat":33.548157,"lng":133.428448,"zip":"7812105"},{"town":"大国町","koaza":"","lat":33.550257,"lng":133.420698,"zip":"7812101"},{"town":"高薮","koaza":"","lat":33.7924,"lng":133.343858,"zip":"7812612"},{"town":"寺川","koaza":"","lat":33.729156,"lng":133.173391,"zip":"7812605"},{"town":"天王北一丁目","koaza":"","lat":33.528983,"lng":133.442186,"zip":"7812122"},{"town":"天王北二丁目","koaza":"","lat":33.530465,"lng":133.445944,"zip":"7812122"},{"town":"天王北三丁目","koaza":"","lat":33.531905,"lng":133.44639,"zip":"7812122"},{"town":"天王北四丁目","koaza":"","lat":33.53305,"lng":133.448861,"zip":"7812122"},{"town":"天王南一丁目","koaza":"","lat":33.527596,"lng":133.442468,"zip":"7812123"},{"town":"天王南二丁目","koaza":"","lat":33.528716,"lng":133.446316,"zip":"7812123"},{"town":"天王南三丁目","koaza":"","lat":33.528066,"lng":133.448528,"zip":"7812123"},{"town":"天王南四丁目","koaza":"","lat":33.529429,"lng":133.449141,"zip":"7812123"},{"town":"天王南五丁目","koaza":"","lat":33.530303,"lng":133.45018,"zip":"7812123"},{"town":"天王南六丁目","koaza":"","lat":33.531923,"lng":133.45101,"zip":"7812123"},{"town":"天王南七丁目","koaza":"","lat":33.52783,"lng":133.451937,"zip":"7812123"},{"town":"天王南八丁目","koaza":"","lat":33.530001,"lng":133.452561,"zip":"7812123"},{"town":"天王南九丁目","koaza":"","lat":33.529111,"lng":133.454101,"zip":"7812123"},{"town":"戸中","koaza":"","lat":33.737666,"lng":133.34979,"zip":"7812602"},{"town":"中追","koaza":"","lat":33.616663,"lng":133.378333,"zip":"7812142"},{"town":"長沢","koaza":"","lat":33.726605,"lng":133.29157,"zip":"7812601"},{"town":"中ノ川","koaza":"","lat":33.769933,"lng":133.275016,"zip":"7812616"},{"town":"成山","koaza":"","lat":33.581667,"lng":133.402042,"zip":"7812132"},{"town":"西町","koaza":"","lat":33.550278,"lng":133.423015,"zip":"7812112"},{"town":"波川","koaza":"","lat":33.542209,"lng":133.409073,"zip":"7812128"},{"town":"八田","koaza":"","lat":33.523321,"lng":133.443817,"zip":"7812124"},{"town":"羽根町","koaza":"","lat":33.550799,"lng":133.419214,"zip":"7812111"},{"town":"藤町","koaza":"","lat":33.547022,"lng":133.426198,"zip":"7812104"},{"town":"槇","koaza":"","lat":33.565763,"lng":133.432102,"zip":"7812131"},{"town":"元町","koaza":"","lat":33.54933,"lng":133.42546,"zip":"7812113"},{"town":"柳町","koaza":"","lat":33.550439,"lng":133.426777,"zip":"7812116"},{"town":"柳瀬石見","koaza":"","lat":33.577029,"lng":133.331865,"zip":"7812145"},{"town":"柳瀬上分","koaza":"","lat":33.589294,"lng":133.321917,"zip":"7812146"},{"town":"柳瀬本村","koaza":"","lat":33.564416,"lng":133.334586,"zip":"7812144"},{"town":"脇ノ山","koaza":"","lat":33.761308,"lng":133.34835,"zip":"7812611"},{"town":"（大字なし）","koaza":"","lat":33.543129,"lng":133.430156,"zip":"7812100"}]