[{"town":"相能","koaza":"","lat":33.569927,"lng":133.156807,"zip":"7811532"},{"town":"池川大渡","koaza":"","lat":33.62899,"lng":133.173054,"zip":"7811612"},{"town":"泉","koaza":"","lat":33.506173,"lng":133.089933,"zip":"7811914"},{"town":"入江谷","koaza":"","lat":33.632109,"lng":133.198203,"zip":"7811621"},{"town":"岩柄","koaza":"","lat":33.64894,"lng":133.16446,"zip":"7811615"},{"town":"岩戸","koaza":"","lat":33.584273,"lng":133.199381,"zip":"7811512"},{"town":"岩丸","koaza":"","lat":33.617242,"lng":133.174316,"zip":"7811611"},{"town":"大板","koaza":"","lat":33.580268,"lng":133.208629,"zip":"7811514"},{"town":"大植","koaza":"","lat":33.472187,"lng":133.087717,"zip":"7811915"},{"town":"大尾","koaza":"","lat":33.54682,"lng":133.09137,"zip":"7811756"},{"town":"大崎","koaza":"","lat":33.576014,"lng":133.16981,"zip":"7811501"},{"town":"大渡","koaza":"","lat":33.545047,"lng":133.123507,"zip":"7811751"},{"town":"大西","koaza":"","lat":33.63443,"lng":133.158718,"zip":"7811614"},{"town":"大野","koaza":"","lat":33.653325,"lng":133.144193,"zip":"7811617"},{"town":"大平","koaza":"","lat":33.62162,"lng":133.212677,"zip":"7811601"},{"town":"大屋","koaza":"","lat":33.686614,"lng":133.182808,"zip":"7811628"},{"town":"大蕨","koaza":"","lat":33.543904,"lng":133.153149,"zip":"7811520"},{"town":"遅越","koaza":"","lat":33.57101,"lng":133.139779,"zip":"7811534"},{"town":"加枝","koaza":"","lat":33.558555,"lng":133.178041,"zip":"7811518"},{"town":"楮原","koaza":"","lat":33.608123,"lng":133.218195,"zip":"7811602"},{"town":"上名野川","koaza":"","lat":33.581694,"lng":133.066706,"zip":"7811766"},{"town":"川内谷","koaza":"","lat":33.619085,"lng":133.183956,"zip":"7811605"},{"town":"川口","koaza":"","lat":33.576706,"lng":133.161286,"zip":"7811502"},{"town":"川渡","koaza":"","lat":33.522019,"lng":133.132072,"zip":"7811804"},{"town":"北","koaza":"","lat":33.552824,"lng":133.095458,"zip":"7811754"},{"town":"北浦","koaza":"","lat":33.604741,"lng":133.1752,"zip":"7811607"},{"town":"北川","koaza":"","lat":33.592315,"lng":133.111239,"zip":"7811746"},{"town":"久喜","koaza":"","lat":33.551224,"lng":133.162909,"zip":"7811531"},{"town":"葛原","koaza":"","lat":33.579627,"lng":133.174597,"zip":"7811517"},{"town":"坂本","koaza":"","lat":33.604972,"lng":133.142459,"zip":"7811608"},{"town":"崎ノ山","koaza":"","lat":33.556569,"lng":133.14364,"zip":"7811743"},{"town":"桜","koaza":"","lat":33.591327,"lng":133.170666,"zip":"7811505"},{"town":"鹿森","koaza":"","lat":33.598928,"lng":133.172979,"zip":"7811506"},{"town":"下北川","koaza":"","lat":33.574334,"lng":133.123313,"zip":"7811745"},{"town":"下名野川","koaza":"","lat":33.56674,"lng":133.104893,"zip":"7811762"},{"town":"宗津","koaza":"","lat":33.588949,"lng":133.141924,"zip":"7811523"},{"town":"高瀬","koaza":"","lat":33.528249,"lng":133.10473,"zip":"7811802"},{"town":"竹ノ谷","koaza":"","lat":33.61625,"lng":133.150401,"zip":"7811610"},{"town":"竹屋敷","koaza":"","lat":33.558822,"lng":133.126609,"zip":"7811742"},{"town":"橘谷","koaza":"","lat":33.575623,"lng":133.152461,"zip":"7811503"},{"town":"橘","koaza":"","lat":33.550922,"lng":133.070896,"zip":"7811758"},{"town":"田村","koaza":"","lat":33.595947,"lng":133.156263,"zip":"7811522"},{"town":"長者","koaza":"","lat":33.486543,"lng":133.131016,"zip":"7811911"},{"town":"津江","koaza":"","lat":33.589377,"lng":133.093661,"zip":"7811765"},{"town":"潰溜","koaza":"","lat":33.551408,"lng":133.115788,"zip":"7811753"},{"town":"椿山","koaza":"","lat":33.681904,"lng":133.141922,"zip":"7811618"},{"town":"坪井川","koaza":"","lat":33.661407,"lng":133.219184,"zip":"7811626"},{"town":"寺村","koaza":"","lat":33.573968,"lng":133.192296,"zip":"7811511"},{"town":"土居","koaza":"","lat":33.606247,"lng":133.165644,"zip":"7811606"},{"town":"峠ノ越","koaza":"","lat":33.551903,"lng":133.126004,"zip":"7811752"},{"town":"中","koaza":"","lat":33.576289,"lng":133.108804,"zip":"7811763"},{"town":"長坂","koaza":"","lat":33.566294,"lng":133.086998,"zip":"7811764"},{"town":"中村","koaza":"","lat":33.587059,"lng":133.179417,"zip":"7811516"},{"town":"長屋","koaza":"","lat":33.598669,"lng":133.166502,"zip":"7811524"},{"town":"名野川","koaza":"","lat":33.561346,"lng":133.134102,"zip":"7811741"},{"town":"名野川大平","koaza":"","lat":33.571902,"lng":133.132775,"zip":"7811744"},{"town":"成川","koaza":"","lat":33.640067,"lng":133.18488,"zip":"7811622"},{"town":"二ノ滝","koaza":"","lat":33.566478,"lng":133.119065,"zip":"7811761"},{"town":"日浦","koaza":"","lat":33.61137,"lng":133.200035,"zip":"7811603"},{"town":"引地","koaza":"","lat":33.57176,"lng":133.148286,"zip":"7811533"},{"town":"藤ノ野","koaza":"","lat":33.58275,"lng":133.16361,"zip":"7811504"},{"town":"二子野","koaza":"","lat":33.559904,"lng":133.149483,"zip":"7811535"},{"town":"別枝","koaza":"","lat":33.508563,"lng":133.054838,"zip":"7811803"},{"town":"本村","koaza":"","lat":33.58342,"lng":133.153563,"zip":"7811521"},{"town":"峯岩戸","koaza":"","lat":33.592602,"lng":133.201665,"zip":"7811513"},{"town":"見ノ越","koaza":"","lat":33.607905,"lng":133.186577,"zip":"7811604"},{"town":"宮ヶ平","koaza":"","lat":33.668527,"lng":133.203752,"zip":"7811500"},{"town":"明戸岩","koaza":"","lat":33.632887,"lng":133.169351,"zip":"7811613"},{"town":"用居","koaza":"","lat":33.632315,"lng":133.103632,"zip":"7811620"},{"town":"百川内","koaza":"","lat":33.636297,"lng":133.143202,"zip":"7811616"},{"town":"森","koaza":"","lat":33.543708,"lng":133.137741,"zip":"7811801"},{"town":"森山","koaza":"","lat":33.54853,"lng":133.106538,"zip":"7811755"},{"town":"吉ヶ成","koaza":"","lat":33.644528,"lng":133.225214,"zip":"7811500"},{"town":"余能","koaza":"","lat":33.633123,"lng":133.185156,"zip":"7811623"},{"town":"寄合","koaza":"","lat":33.603734,"lng":133.127019,"zip":"7811609"},{"town":"鷲ノ巣","koaza":"","lat":33.545038,"lng":133.082307,"zip":"7811757"},{"town":"蕨谷","koaza":"","lat":33.585562,"lng":133.188151,"zip":"7811515"}]