[{"town":"秋田","koaza":"","lat":33.020163,"lng":132.931886,"zip":"7870007"},{"town":"赤松町","koaza":"","lat":32.98461,"lng":132.917532,"zip":"7870052"},{"town":"麻生","koaza":"","lat":33.028276,"lng":132.940484,"zip":"7870006"},{"town":"荒川","koaza":"","lat":32.98711,"lng":132.861848,"zip":"7870668"},{"town":"有岡","koaza":"","lat":32.965302,"lng":132.830293,"zip":"7870771"},{"town":"伊才原","koaza":"","lat":33.085433,"lng":132.955377,"zip":"7871441"},{"town":"井沢","koaza":"","lat":32.977003,"lng":132.968888,"zip":"7870150"},{"town":"磯ノ川","koaza":"","lat":32.975424,"lng":132.843511,"zip":"7870773"},{"town":"板ノ川","koaza":"","lat":33.040315,"lng":132.8792,"zip":"7871103"},{"town":"岩田","koaza":"","lat":33.0118,"lng":132.91024,"zip":"7871107"},{"town":"鵜ノ江","koaza":"","lat":33.04805,"lng":132.818823,"zip":"7871226"},{"town":"右山","koaza":"","lat":32.980676,"lng":132.945829,"zip":"7870015"},{"town":"右山五月町","koaza":"","lat":32.987265,"lng":132.941214,"zip":"7870012"},{"town":"右山天神町","koaza":"","lat":32.985271,"lng":132.941591,"zip":"7870013"},{"town":"右山元町一丁目","koaza":"","lat":32.986222,"lng":132.938509,"zip":"7870011"},{"town":"右山元町二丁目","koaza":"","lat":32.983398,"lng":132.938954,"zip":"7870011"},{"town":"右山元町三丁目","koaza":"","lat":32.982302,"lng":132.941008,"zip":"7870011"},{"town":"駅前町","koaza":"","lat":32.984141,"lng":132.943927,"zip":"7870014"},{"town":"江ノ村","koaza":"","lat":32.958745,"lng":132.864797,"zip":"7870669"},{"town":"生ノ川","koaza":"","lat":32.977331,"lng":132.85298,"zip":"7870774"},{"town":"大西ノ川","koaza":"","lat":33.11584,"lng":132.937099,"zip":"7871557"},{"town":"大屋敷","koaza":"","lat":33.120637,"lng":133.001116,"zip":"7871553"},{"town":"大用","koaza":"","lat":33.098806,"lng":132.974504,"zip":"7871550"},{"town":"奥鴨川","koaza":"","lat":33.08071,"lng":132.868159,"zip":"7871101"},{"town":"片魚","koaza":"","lat":33.132774,"lng":132.985712,"zip":"7871552"},{"town":"勝間","koaza":"","lat":33.055731,"lng":132.782025,"zip":"7871223"},{"town":"上ノ土居","koaza":"","lat":32.951367,"lng":132.845888,"zip":"7870776"},{"town":"川登","koaza":"","lat":33.033588,"lng":132.863186,"zip":"7871220"},{"town":"九樹","koaza":"","lat":32.950471,"lng":132.83303,"zip":"7870775"},{"town":"楠","koaza":"","lat":33.041694,"lng":132.826223,"zip":"7871227"},{"town":"楠島","koaza":"","lat":32.983578,"lng":132.888863,"zip":"7870666"},{"town":"口鴨川","koaza":"","lat":33.04022,"lng":132.901908,"zip":"7871102"},{"town":"具同","koaza":"","lat":32.982688,"lng":132.908327,"zip":"7870019"},{"town":"具同田黒一丁目","koaza":"","lat":32.98885,"lng":132.919169,"zip":"7870051"},{"town":"具同田黒二丁目","koaza":"","lat":32.985698,"lng":132.920732,"zip":"7870051"},{"town":"具同田黒三丁目","koaza":"","lat":32.984683,"lng":132.919323,"zip":"7870051"},{"town":"国見","koaza":"","lat":32.985521,"lng":132.875226,"zip":"7870667"},{"town":"久保川","koaza":"","lat":33.076158,"lng":132.826563,"zip":"7871225"},{"town":"古津賀","koaza":"","lat":32.992085,"lng":132.963538,"zip":"7870010"},{"town":"古津賀一丁目","koaza":"","lat":32.985281,"lng":132.954917,"zip":"7870010"},{"town":"古津賀二丁目","koaza":"","lat":32.988159,"lng":132.957548,"zip":"7870010"},{"town":"古津賀三丁目","koaza":"","lat":32.984013,"lng":132.958536,"zip":"7870010"},{"town":"古津賀四丁目","koaza":"","lat":32.98288,"lng":132.953065,"zip":"7870010"},{"town":"小西ノ川","koaza":"","lat":33.107117,"lng":132.950311,"zip":"7871556"},{"town":"古尾","koaza":"","lat":33.107805,"lng":132.911911,"zip":"7871558"},{"town":"佐岡","koaza":"","lat":32.991833,"lng":132.94549,"zip":"7870009"},{"town":"坂本","koaza":"","lat":32.957227,"lng":132.927868,"zip":"7870156"},{"town":"佐田","koaza":"","lat":33.010724,"lng":132.891017,"zip":"7871106"},{"town":"実崎","koaza":"","lat":32.955966,"lng":132.969671,"zip":"7870158"},{"town":"敷地","koaza":"","lat":33.014536,"lng":132.923032,"zip":"7871108"},{"town":"下田","koaza":"","lat":32.944261,"lng":132.989734,"zip":"7870155"},{"town":"住次郎","koaza":"","lat":33.127637,"lng":132.96115,"zip":"7871551"},{"town":"常六","koaza":"","lat":33.131315,"lng":133.014398,"zip":"7871554"},{"town":"高瀬","koaza":"","lat":33.032373,"lng":132.82344,"zip":"7871228"},{"town":"竹島","koaza":"","lat":32.971992,"lng":132.982332,"zip":"7870151"},{"town":"竹屋敷","koaza":"","lat":33.124145,"lng":132.879429,"zip":"7871559"},{"town":"田出ノ川","koaza":"","lat":33.0541,"lng":132.850822,"zip":"7871229"},{"town":"田野川","koaza":"","lat":33.047655,"lng":132.915935,"zip":"7871109"},{"town":"手洗川","koaza":"","lat":33.015992,"lng":132.838222,"zip":"7871222"},{"town":"津蔵渕","koaza":"","lat":32.923908,"lng":132.95404,"zip":"7870161"},{"town":"角崎","koaza":"","lat":32.975089,"lng":132.954428,"zip":"7870016"},{"town":"利岡","koaza":"","lat":33.02093,"lng":132.903234,"zip":"7871105"},{"town":"中村","koaza":"","lat":33.000077,"lng":132.924747,"zip":"7870026"},{"town":"中村愛宕町","koaza":"","lat":32.994013,"lng":132.933227,"zip":"7870026"},{"town":"中村一条通一丁目","koaza":"","lat":32.992386,"lng":132.934785,"zip":"7870025"},{"town":"中村一条通二丁目","koaza":"","lat":32.992314,"lng":132.936176,"zip":"7870025"},{"town":"中村一条通三丁目","koaza":"","lat":32.992097,"lng":132.937333,"zip":"7870025"},{"town":"中村一条通四丁目","koaza":"","lat":32.991959,"lng":132.938534,"zip":"7870025"},{"town":"中村一条通五丁目","koaza":"","lat":32.991543,"lng":132.940636,"zip":"7870025"},{"town":"中村岩崎町","koaza":"","lat":32.987,"lng":132.930388,"zip":"7870036"},{"town":"中村大橋通一丁目","koaza":"","lat":32.989706,"lng":132.928187,"zip":"7870033"},{"town":"中村大橋通二丁目","koaza":"","lat":32.991145,"lng":132.930928,"zip":"7870033"},{"town":"中村大橋通三丁目","koaza":"","lat":32.990965,"lng":132.932821,"zip":"7870033"},{"town":"中村大橋通四丁目","koaza":"","lat":32.990554,"lng":132.934387,"zip":"7870033"},{"town":"中村大橋通五丁目","koaza":"","lat":32.99094,"lng":132.936006,"zip":"7870033"},{"town":"中村大橋通六丁目","koaza":"","lat":32.989742,"lng":132.93712,"zip":"7870033"},{"town":"中村大橋通七丁目","koaza":"","lat":32.989507,"lng":132.940564,"zip":"7870033"},{"town":"中村於東町","koaza":"","lat":32.993817,"lng":132.93641,"zip":"7870024"},{"town":"中村上小姓町","koaza":"","lat":32.994954,"lng":132.931131,"zip":"7870030"},{"town":"中村京町一丁目","koaza":"","lat":32.9936,"lng":132.934673,"zip":"7870021"},{"town":"中村京町二丁目","koaza":"","lat":32.994562,"lng":132.934959,"zip":"7870021"},{"town":"中村京町三丁目","koaza":"","lat":32.995593,"lng":132.934987,"zip":"7870021"},{"town":"中村京町四丁目","koaza":"","lat":32.996846,"lng":132.935051,"zip":"7870021"},{"town":"中村京町五丁目","koaza":"","lat":32.998244,"lng":132.93517,"zip":"7870021"},{"town":"中村小姓町","koaza":"","lat":32.994007,"lng":132.932361,"zip":"7870029"},{"town":"中村栄町","koaza":"","lat":32.99176,"lng":132.932968,"zip":"7870032"},{"town":"中村桜町","koaza":"","lat":32.997208,"lng":132.933331,"zip":"7870002"},{"town":"中村四万十町","koaza":"","lat":32.988183,"lng":132.929428,"zip":"7870037"},{"town":"中村新町一丁目","koaza":"","lat":32.993539,"lng":132.935581,"zip":"7870022"},{"town":"中村新町二丁目","koaza":"","lat":32.994521,"lng":132.935787,"zip":"7870022"},{"town":"中村新町三丁目","koaza":"","lat":32.995424,"lng":132.936072,"zip":"7870022"},{"town":"中村新町四丁目","koaza":"","lat":32.99683,"lng":132.936032,"zip":"7870022"},{"town":"中村新町五丁目","koaza":"","lat":32.998276,"lng":132.936164,"zip":"7870022"},{"town":"中村天神橋","koaza":"","lat":32.992512,"lng":132.933378,"zip":"7870027"},{"town":"中村百笑町","koaza":"","lat":32.992905,"lng":132.926514,"zip":"7870038"},{"town":"中村羽生小路","koaza":"","lat":32.989535,"lng":132.933387,"zip":"7870035"},{"town":"中村東下町","koaza":"","lat":32.99195,"lng":132.932082,"zip":"7870031"},{"town":"中村東町一丁目","koaza":"","lat":32.993932,"lng":132.939348,"zip":"7870023"},{"town":"中村東町二丁目","koaza":"","lat":32.995638,"lng":132.939221,"zip":"7870023"},{"town":"中村東町三丁目","koaza":"","lat":32.997559,"lng":132.938988,"zip":"7870023"},{"town":"中村本町一丁目","koaza":"","lat":32.993535,"lng":132.933902,"zip":"7870001"},{"town":"中村本町二丁目","koaza":"","lat":32.994589,"lng":132.934106,"zip":"7870001"},{"town":"中村本町三丁目","koaza":"","lat":32.995621,"lng":132.93414,"zip":"7870001"},{"town":"中村本町四丁目","koaza":"","lat":32.996887,"lng":132.934191,"zip":"7870001"},{"town":"中村本町五丁目","koaza":"","lat":32.99819,"lng":132.934296,"zip":"7870001"},{"town":"中村丸の内","koaza":"","lat":32.997886,"lng":132.931918,"zip":"7870004"},{"town":"中村山手通","koaza":"","lat":32.992529,"lng":132.930827,"zip":"7870028"},{"town":"中村弥生町","koaza":"","lat":32.989749,"lng":132.931526,"zip":"7870034"},{"town":"名鹿","koaza":"","lat":32.923398,"lng":132.991023,"zip":"7870163"},{"town":"鍋島","koaza":"","lat":32.959804,"lng":132.981313,"zip":"7870152"},{"town":"西土佐岩間","koaza":"","lat":33.135021,"lng":132.818282,"zip":"7871321"},{"town":"西土佐江川","koaza":"","lat":33.231992,"lng":132.79115,"zip":"7871607"},{"town":"西土佐江川崎","koaza":"","lat":33.178206,"lng":132.769873,"zip":"7871601"},{"town":"西土佐大宮","koaza":"","lat":33.13465,"lng":132.727911,"zip":"7871615"},{"town":"西土佐奥屋内","koaza":"","lat":33.106535,"lng":132.703292,"zip":"7871326"},{"town":"西土佐茅生","koaza":"","lat":33.123619,"lng":132.809323,"zip":"7871322"},{"town":"西土佐玖木","koaza":"","lat":33.092103,"lng":132.756143,"zip":"7871325"},{"town":"西土佐口屋内","koaza":"","lat":33.090074,"lng":132.795312,"zip":"7871324"},{"town":"西土佐黒尊","koaza":"","lat":33.148192,"lng":132.653973,"zip":"7870000"},{"town":"西土佐下家地","koaza":"","lat":33.164286,"lng":132.73968,"zip":"7871617"},{"town":"西土佐須崎","koaza":"","lat":33.149608,"lng":132.746407,"zip":"7871616"},{"town":"西土佐橘","koaza":"","lat":33.155379,"lng":132.791513,"zip":"7871611"},{"town":"西土佐津賀","koaza":"","lat":33.126619,"lng":132.77147,"zip":"7871613"},{"town":"西土佐津野川","koaza":"","lat":33.136517,"lng":132.789999,"zip":"7871612"},{"town":"西土佐中家地","koaza":"","lat":33.179757,"lng":132.740473,"zip":"7871618"},{"town":"西土佐長生","koaza":"","lat":33.190355,"lng":132.807024,"zip":"7871605"},{"town":"西土佐中半","koaza":"","lat":33.113041,"lng":132.832394,"zip":"7871323"},{"town":"西土佐西ケ方","koaza":"","lat":33.192788,"lng":132.752171,"zip":"7871602"},{"town":"西土佐半家","koaza":"","lat":33.215295,"lng":132.810842,"zip":"7871606"},{"town":"西土佐藤ノ川","koaza":"","lat":33.163928,"lng":132.848265,"zip":"7871604"},{"town":"西土佐用井","koaza":"","lat":33.168884,"lng":132.805149,"zip":"7871603"},{"town":"西土佐薮ケ市","koaza":"","lat":33.141084,"lng":132.761813,"zip":"7871614"},{"town":"入田","koaza":"","lat":32.998147,"lng":132.907341,"zip":"7870020"},{"town":"初崎","koaza":"","lat":32.927315,"lng":132.979996,"zip":"7870162"},{"town":"平野","koaza":"","lat":32.954406,"lng":132.990332,"zip":"7870154"},{"town":"深木","koaza":"","lat":32.945172,"lng":132.945605,"zip":"7870159"},{"town":"藤","koaza":"","lat":33.031928,"lng":132.952495,"zip":"7871444"},{"town":"双海","koaza":"","lat":32.970464,"lng":132.994084,"zip":"7870153"},{"town":"不破","koaza":"","lat":32.979631,"lng":132.937137,"zip":"7870017"},{"town":"不破上町","koaza":"","lat":32.985766,"lng":132.935748,"zip":"7870018"},{"town":"間崎","koaza":"","lat":32.943291,"lng":132.97256,"zip":"7870160"},{"town":"三里","koaza":"","lat":33.009292,"lng":132.864657,"zip":"7871221"},{"town":"三ツ又","koaza":"","lat":33.124752,"lng":133.037394,"zip":"7871555"},{"town":"森沢","koaza":"","lat":32.958012,"lng":132.897811,"zip":"7870665"},{"town":"安並","koaza":"","lat":33.012078,"lng":132.942901,"zip":"7870008"},{"town":"山路","koaza":"","lat":32.961108,"lng":132.954092,"zip":"7870157"},{"town":"横瀬","koaza":"","lat":32.990915,"lng":132.832319,"zip":"7870772"},{"town":"若藤","koaza":"","lat":33.027726,"lng":132.897528,"zip":"7871104"},{"town":"渡川一丁目","koaza":"","lat":32.989729,"lng":132.922319,"zip":"7870050"},{"town":"渡川二丁目","koaza":"","lat":32.986142,"lng":132.922418,"zip":"7870050"},{"town":"渡川三丁目","koaza":"","lat":32.986533,"lng":132.92457,"zip":"7870050"},{"town":"蕨岡","koaza":"","lat":33.053158,"lng":132.947993,"zip":"7871443"},{"town":"具同","koaza":"北ミソデン","lat":32.978132,"lng":132.915823,"zip":"7870019"},{"town":"古津賀","koaza":"大場","lat":32.980651,"lng":132.953036,"zip":"7870010"}]