[{"town":"旭町","koaza":"","lat":32.781344,"lng":132.960542,"zip":"7870303"},{"town":"足摺岬","koaza":"","lat":32.726565,"lng":133.011668,"zip":"7870315"},{"town":"有永","koaza":"","lat":32.866326,"lng":132.799946,"zip":"7870556"},{"town":"市場町","koaza":"","lat":32.775905,"lng":132.955845,"zip":"7870327"},{"town":"上野","koaza":"","lat":32.818413,"lng":132.896137,"zip":"7870447"},{"town":"越前町","koaza":"","lat":32.781423,"lng":132.95064,"zip":"7870331"},{"town":"戎町","koaza":"","lat":32.773665,"lng":132.95474,"zip":"7870328"},{"town":"大岐","koaza":"","lat":32.821508,"lng":132.946184,"zip":"7870301"},{"town":"大谷","koaza":"","lat":32.757925,"lng":133.011701,"zip":"7870314"},{"town":"大津","koaza":"","lat":32.753049,"lng":132.802935,"zip":"7870562"},{"town":"大浜","koaza":"","lat":32.753016,"lng":132.968063,"zip":"7870317"},{"town":"斧積","koaza":"","lat":32.814534,"lng":132.879087,"zip":"7870446"},{"town":"鍵掛","koaza":"","lat":32.858768,"lng":132.946729,"zip":"7870243"},{"town":"貝ノ川","koaza":"","lat":32.761987,"lng":132.812002,"zip":"7870561"},{"town":"加久見","koaza":"","lat":32.791971,"lng":132.941849,"zip":"7870334"},{"town":"加久見入沢町","koaza":"","lat":32.786261,"lng":132.946674,"zip":"7870334"},{"town":"加久見新町","koaza":"","lat":32.788792,"lng":132.944208,"zip":"7870335"},{"town":"片粕","koaza":"","lat":32.776405,"lng":132.833196,"zip":"7870560"},{"town":"窪津","koaza":"","lat":32.7856,"lng":132.997102,"zip":"7870312"},{"town":"久百々","koaza":"","lat":32.844587,"lng":132.95201,"zip":"7870244"},{"town":"厚生町","koaza":"","lat":32.774611,"lng":132.9686,"zip":"7870308"},{"town":"小江町","koaza":"","lat":32.779238,"lng":132.950098,"zip":"7870322"},{"town":"寿町","koaza":"","lat":32.779231,"lng":132.952149,"zip":"7870323"},{"town":"幸町","koaza":"","lat":32.781321,"lng":132.952722,"zip":"7870306"},{"town":"栄町","koaza":"","lat":32.778314,"lng":132.953823,"zip":"7870325"},{"town":"汐見町","koaza":"","lat":32.782084,"lng":132.948124,"zip":"7870332"},{"town":"下川口","koaza":"","lat":32.785691,"lng":132.840543,"zip":"7870559"},{"town":"下ノ加江","koaza":"","lat":32.867133,"lng":132.953649,"zip":"7870242"},{"town":"下益野","koaza":"","lat":32.800083,"lng":132.894504,"zip":"7870445"},{"town":"宗呂","koaza":"","lat":32.800397,"lng":132.820301,"zip":"7870563"},{"town":"竜串","koaza":"","lat":32.788876,"lng":132.870696,"zip":"7870452"},{"town":"立石","koaza":"","lat":32.895205,"lng":132.998359,"zip":"7870240"},{"town":"中央町","koaza":"","lat":32.779219,"lng":132.954547,"zip":"7870324"},{"town":"爪白","koaza":"","lat":32.789354,"lng":132.856899,"zip":"7870453"},{"town":"津呂","koaza":"","lat":32.764125,"lng":133.010532,"zip":"7870313"},{"town":"天神町","koaza":"","lat":32.780901,"lng":132.954804,"zip":"7870305"},{"town":"中浜","koaza":"","lat":32.758961,"lng":132.963822,"zip":"7870318"},{"town":"西町","koaza":"","lat":32.781108,"lng":132.94471,"zip":"7870333"},{"town":"布","koaza":"","lat":32.869109,"lng":132.985736,"zip":"7870241"},{"town":"浜町","koaza":"","lat":32.77942,"lng":132.948205,"zip":"7870321"},{"town":"本町","koaza":"","lat":32.777216,"lng":132.95506,"zip":"7870326"},{"town":"松尾","koaza":"","lat":32.733237,"lng":132.984284,"zip":"7870316"},{"town":"三崎","koaza":"","lat":32.796127,"lng":132.870307,"zip":"7870450"},{"town":"三崎浦一丁目","koaza":"","lat":32.791542,"lng":132.878037,"zip":"7870451"},{"town":"三崎浦二丁目","koaza":"","lat":32.790414,"lng":132.879737,"zip":"7870451"},{"town":"三崎浦三丁目","koaza":"","lat":32.78898,"lng":132.875422,"zip":"7870451"},{"town":"三崎浦四丁目","koaza":"","lat":32.791842,"lng":132.874535,"zip":"7870451"},{"town":"緑ケ丘","koaza":"","lat":32.776819,"lng":132.96399,"zip":"7870307"},{"town":"元町","koaza":"","lat":32.780719,"lng":132.956998,"zip":"7870304"},{"town":"養老","koaza":"","lat":32.783647,"lng":132.932711,"zip":"7870337"},{"town":"横道","koaza":"","lat":32.817232,"lng":132.91885,"zip":"7870339"},{"town":"以布利","koaza":"","lat":32.799867,"lng":132.964269,"zip":"7870302"},{"town":"浦尻","koaza":"","lat":32.778187,"lng":132.978724,"zip":"7870310"},{"town":"清水","koaza":"","lat":32.787548,"lng":132.955083,"zip":"7870320"},{"town":"グリーンハイツ","koaza":"","lat":32.789915,"lng":132.971091,"zip":"7870311"},{"town":"清水ヶ丘","koaza":"","lat":32.785144,"lng":132.958077,"zip":"7870330"},{"town":"三崎","koaza":"今芝","lat":32.791329,"lng":132.863263,"zip":"7870450"},{"town":"足摺岬","koaza":"足摺山","lat":32.726037,"lng":133.018243,"zip":"7870315"}]