[{"town":"浅井","koaza":"","lat":33.457011,"lng":133.375914,"zip":"7811136"},{"town":"家俊","koaza":"","lat":33.459006,"lng":133.34689,"zip":"7811134"},{"town":"出間","koaza":"","lat":33.469505,"lng":133.390987,"zip":"7811142"},{"town":"市野々","koaza":"","lat":33.447075,"lng":133.323078,"zip":"7811132"},{"town":"岩戸","koaza":"","lat":33.471166,"lng":133.383016,"zip":"7811141"},{"town":"宇佐町井尻","koaza":"","lat":33.430754,"lng":133.440505,"zip":"7811164"},{"town":"宇佐町渭浜","koaza":"","lat":33.446571,"lng":133.431506,"zip":"7811162"},{"town":"宇佐町宇佐","koaza":"","lat":33.450824,"lng":133.435395,"zip":"7811161"},{"town":"宇佐町福島","koaza":"","lat":33.440846,"lng":133.435112,"zip":"7811163"},{"town":"宇佐町竜","koaza":"","lat":33.426595,"lng":133.450787,"zip":"7811165"},{"town":"甲原","koaza":"","lat":33.49025,"lng":133.365999,"zip":"7811113"},{"town":"北地","koaza":"","lat":33.492652,"lng":133.388092,"zip":"7811111"},{"town":"積善寺","koaza":"","lat":33.474678,"lng":133.33104,"zip":"7811125"},{"town":"高岡町乙","koaza":"","lat":33.502822,"lng":133.420726,"zip":"7811102"},{"town":"高岡町甲","koaza":"","lat":33.492437,"lng":133.430087,"zip":"7811101"},{"town":"高岡町丁","koaza":"","lat":33.512635,"lng":133.40538,"zip":"7811101"},{"town":"高岡町丙","koaza":"","lat":33.506677,"lng":133.433122,"zip":"7811103"},{"town":"鷹ノ巣","koaza":"","lat":33.450816,"lng":133.346223,"zip":"7811133"},{"town":"太郎丸","koaza":"","lat":33.460827,"lng":133.362043,"zip":"7811135"},{"town":"塚地","koaza":"","lat":33.474806,"lng":133.441878,"zip":"7811153"},{"town":"中島","koaza":"","lat":33.49166,"lng":133.449035,"zip":"7811151"},{"town":"永野","koaza":"","lat":33.464991,"lng":133.325215,"zip":"7811131"},{"town":"新居","koaza":"","lat":33.460639,"lng":133.464251,"zip":"7811154"},{"town":"西鴨地","koaza":"","lat":33.470472,"lng":133.353979,"zip":"7811123"},{"town":"波介","koaza":"","lat":33.47597,"lng":133.414385,"zip":"7811143"},{"town":"蓮池","koaza":"","lat":33.491281,"lng":133.407678,"zip":"7811105"},{"town":"東鴨地","koaza":"","lat":33.479747,"lng":133.359656,"zip":"7811121"},{"town":"福田","koaza":"","lat":33.504808,"lng":133.37638,"zip":"7811112"},{"town":"本村","koaza":"","lat":33.47552,"lng":133.355721,"zip":"7811122"},{"town":"宮ノ内","koaza":"","lat":33.479002,"lng":133.346164,"zip":"7811124"},{"town":"用石","koaza":"","lat":33.483337,"lng":133.452943,"zip":"7811152"},{"town":"谷地","koaza":"","lat":33.491598,"lng":133.339277,"zip":"7811114"}]