[{"town":"朝谷","koaza":"","lat":33.816482,"lng":133.47142,"zip":"7813704"},{"town":"井野川","koaza":"","lat":33.804578,"lng":133.401606,"zip":"7813713"},{"town":"大北川","koaza":"","lat":33.817582,"lng":133.432796,"zip":"7813705"},{"town":"大平","koaza":"","lat":33.81337,"lng":133.380717,"zip":"7813714"},{"town":"大薮","koaza":"","lat":33.794192,"lng":133.360658,"zip":"7813717"},{"town":"上小南川","koaza":"","lat":33.773412,"lng":133.383509,"zip":"7813723"},{"town":"川崎","koaza":"","lat":33.79535,"lng":133.415023,"zip":"7813712"},{"town":"小北川","koaza":"","lat":33.80071,"lng":133.355928,"zip":"7813716"},{"town":"小松","koaza":"","lat":33.792373,"lng":133.465569,"zip":"7813703"},{"town":"小麦畝","koaza":"","lat":33.818431,"lng":133.349175,"zip":"7813715"},{"town":"下切","koaza":"","lat":33.782276,"lng":133.361055,"zip":"7813725"},{"town":"下小南川","koaza":"","lat":33.776313,"lng":133.413174,"zip":"7813722"},{"town":"高野","koaza":"","lat":33.79129,"lng":133.441827,"zip":"7813711"},{"town":"中切","koaza":"","lat":33.776895,"lng":133.446343,"zip":"7813721"},{"town":"船戸","koaza":"","lat":33.79535,"lng":133.481776,"zip":"7813702"},{"town":"南野山","koaza":"","lat":33.790118,"lng":133.377269,"zip":"7813724"}]