[{"town":"相川","koaza":"","lat":33.720884,"lng":133.520172,"zip":"7813408"},{"town":"芥川","koaza":"","lat":33.696707,"lng":133.417329,"zip":"7813336"},{"town":"有間","koaza":"","lat":33.71584,"lng":133.448248,"zip":"7813335"},{"town":"井尻","koaza":"","lat":33.785319,"lng":133.516203,"zip":"7813524"},{"town":"大渕","koaza":"","lat":33.771782,"lng":133.540958,"zip":"7813522"},{"town":"樫山","koaza":"","lat":33.703903,"lng":133.530148,"zip":"7813407"},{"town":"栗木","koaza":"","lat":33.723671,"lng":133.483928,"zip":"7813332"},{"town":"上津川","koaza":"","lat":33.810291,"lng":133.492746,"zip":"7813526"},{"town":"古味","koaza":"","lat":33.767087,"lng":133.525492,"zip":"7813523"},{"town":"境","koaza":"","lat":33.749508,"lng":133.526633,"zip":"7813402"},{"town":"笹ケ谷","koaza":"","lat":33.677496,"lng":133.550055,"zip":"7813400"},{"town":"地蔵寺","koaza":"","lat":33.708589,"lng":133.500294,"zip":"7813331"},{"town":"下川","koaza":"","lat":33.81524,"lng":133.515806,"zip":"7813525"},{"town":"瀬戸","koaza":"","lat":33.734796,"lng":133.410072,"zip":"7813337"},{"town":"田井","koaza":"","lat":33.727286,"lng":133.564999,"zip":"7813521"},{"town":"高須","koaza":"","lat":33.701307,"lng":133.540872,"zip":"7813406"},{"town":"土居","koaza":"","lat":33.734218,"lng":133.526999,"zip":"7813401"},{"town":"西石原","koaza":"","lat":33.697825,"lng":133.46685,"zip":"7813334"},{"town":"溜井","koaza":"","lat":33.716713,"lng":133.549991,"zip":"7813404"},{"town":"東石原","koaza":"","lat":33.686407,"lng":133.485266,"zip":"7813333"},{"town":"南川","koaza":"","lat":33.759277,"lng":133.457393,"zip":"7813742"},{"town":"南泉","koaza":"","lat":33.729732,"lng":133.536807,"zip":"7813405"},{"town":"宮古野","koaza":"","lat":33.741303,"lng":133.548746,"zip":"7813403"},{"town":"柚ノ木","koaza":"","lat":33.778727,"lng":133.4962,"zip":"7813741"},{"town":"和田","koaza":"","lat":33.746612,"lng":133.495856,"zip":"7813409"}]