[{"town":"大字小川","koaza":"","lat":33.525833,"lng":134.014808,"zip":"7816400"},{"town":"大字瀬切","koaza":"","lat":33.524156,"lng":134.050546,"zip":"7816400"},{"town":"大字隆見","koaza":"","lat":33.453654,"lng":133.979442,"zip":"7816400"},{"town":"大字唐浜","koaza":"","lat":33.453683,"lng":133.96738,"zip":"7816400"},{"town":"大字内京坊","koaza":"","lat":33.473145,"lng":134.004643,"zip":"7816400"},{"town":"大字中里","koaza":"","lat":33.527039,"lng":134.03155,"zip":"7816400"},{"town":"大字中ノ川","koaza":"","lat":33.504177,"lng":133.999064,"zip":"7816400"},{"town":"大字西島","koaza":"","lat":33.453945,"lng":133.984764,"zip":"7816400"},{"town":"大字西ノ川","koaza":"","lat":33.49326,"lng":133.991857,"zip":"7816400"},{"town":"大字東島","koaza":"","lat":33.456482,"lng":133.999192,"zip":"7816400"},{"town":"大字日々入","koaza":"","lat":33.532846,"lng":134.015166,"zip":"7816400"},{"town":"大字船倉","koaza":"","lat":33.506897,"lng":134.028912,"zip":"7816400"},{"town":"大字別所","koaza":"","lat":33.490533,"lng":134.003882,"zip":"7816400"},{"town":"大字間下","koaza":"","lat":33.469478,"lng":133.985328,"zip":"7816400"},{"town":"大字正弘","koaza":"","lat":33.481919,"lng":134.006166,"zip":"7816400"},{"town":"大字安田","koaza":"","lat":33.435882,"lng":133.988141,"zip":"7816400"},{"town":"大字与床","koaza":"","lat":33.497945,"lng":134.015104,"zip":"7816400"}]