[{"town":"西海浜","koaza":"","lat":33.427408,"lng":133.997723,"zip":"7816410"},{"town":"東海浜","koaza":"","lat":33.424544,"lng":134.007153,"zip":"7816410"},{"town":"家石","koaza":"","lat":33.428839,"lng":133.994415,"zip":"7816410"},{"town":"江見山","koaza":"","lat":33.429037,"lng":133.995551,"zip":"7816410"},{"town":"西柳谷","koaza":"","lat":33.428346,"lng":133.996674,"zip":"7816410"},{"town":"東柳谷","koaza":"","lat":33.428309,"lng":133.999031,"zip":"7816410"},{"town":"琴平","koaza":"","lat":33.42858,"lng":133.999488,"zip":"7816410"},{"town":"東大野","koaza":"","lat":33.431495,"lng":133.994931,"zip":"7816410"},{"town":"錣畑","koaza":"","lat":33.429361,"lng":133.998162,"zip":"7816410"},{"town":"南園辺","koaza":"","lat":33.429761,"lng":133.998941,"zip":"7816410"},{"town":"園辺","koaza":"","lat":33.430685,"lng":133.998018,"zip":"7816410"},{"town":"西格免","koaza":"","lat":33.429156,"lng":133.999547,"zip":"7816410"},{"town":"格免","koaza":"","lat":33.429536,"lng":134.000542,"zip":"7816410"},{"town":"八幡馬場西","koaza":"","lat":33.427546,"lng":134.001188,"zip":"7816410"},{"town":"八幡山","koaza":"","lat":33.428079,"lng":134.002778,"zip":"7816410"},{"town":"八幡馬場南","koaza":"","lat":33.426766,"lng":134.002952,"zip":"7816410"},{"town":"辰巳","koaza":"","lat":33.432213,"lng":133.997362,"zip":"7816410"},{"town":"南薄雪","koaza":"","lat":33.431403,"lng":133.998398,"zip":"7816410"},{"town":"薄雪","koaza":"","lat":33.432675,"lng":133.997803,"zip":"7816410"},{"town":"南卵塔","koaza":"","lat":33.430838,"lng":133.99967,"zip":"7816410"},{"town":"東卵塔","koaza":"","lat":33.431023,"lng":134.000901,"zip":"7816410"},{"town":"卵塔","koaza":"","lat":33.43209,"lng":133.999793,"zip":"7816410"},{"town":"山中","koaza":"","lat":33.433023,"lng":133.996736,"zip":"7816410"},{"town":"山ノ神ノ前","koaza":"","lat":33.433403,"lng":133.996213,"zip":"7816410"},{"town":"名無シ畑","koaza":"","lat":33.434736,"lng":133.994028,"zip":"7816410"},{"town":"燈明台","koaza":"","lat":33.434316,"lng":133.995413,"zip":"7816410"},{"town":"西宇治ヶ尾","koaza":"","lat":33.434121,"lng":133.996736,"zip":"7816410"},{"town":"中宇治ヶ尾","koaza":"","lat":33.433557,"lng":133.9981,"zip":"7816410"},{"town":"中新開","koaza":"","lat":33.43408,"lng":133.998644,"zip":"7816410"},{"town":"原三角畑","koaza":"","lat":33.434839,"lng":133.997105,"zip":"7816410"},{"town":"東宇治ヶ尾","koaza":"","lat":33.43248,"lng":134.000654,"zip":"7816410"},{"town":"唐流三ツ辻","koaza":"","lat":33.43329,"lng":134.001988,"zip":"7816410"},{"town":"唐流","koaza":"","lat":33.43368,"lng":134.001137,"zip":"7816410"},{"town":"北唐流","koaza":"","lat":33.435075,"lng":134.001639,"zip":"7816410"},{"town":"石上四ツ辻","koaza":"","lat":33.434829,"lng":134.003229,"zip":"7816410"},{"town":"北張","koaza":"","lat":33.432828,"lng":134.002357,"zip":"7816410"},{"town":"旧休場","koaza":"","lat":33.435095,"lng":134.005055,"zip":"7816410"},{"town":"中尾新田","koaza":"","lat":33.435085,"lng":134.007568,"zip":"7816410"},{"town":"下モ清九郎谷","koaza":"","lat":33.434582,"lng":134.007322,"zip":"7816410"},{"town":"赤地","koaza":"","lat":33.43408,"lng":134.006419,"zip":"7816410"},{"town":"赤地ノ北","koaza":"","lat":33.433116,"lng":134.006911,"zip":"7816410"},{"town":"百々","koaza":"","lat":33.43369,"lng":134.005127,"zip":"7816410"},{"town":"中野","koaza":"","lat":33.433177,"lng":134.004788,"zip":"7816410"},{"town":"九十九","koaza":"","lat":33.432664,"lng":134.004409,"zip":"7816410"},{"town":"杉谷","koaza":"","lat":33.433505,"lng":134.008286,"zip":"7816410"},{"town":"西ノ岡南","koaza":"","lat":33.434305,"lng":134.00886,"zip":"7816410"},{"town":"東西ノ岡","koaza":"","lat":33.434059,"lng":134.009845,"zip":"7816410"},{"town":"妙見ノ端","koaza":"","lat":33.433362,"lng":134.009978,"zip":"7816410"},{"town":"赤地ノ南","koaza":"","lat":33.431474,"lng":134.006491,"zip":"7816410"},{"town":"北浦田","koaza":"","lat":33.431495,"lng":134.005219,"zip":"7816410"},{"town":"宮田南","koaza":"","lat":33.431321,"lng":134.009117,"zip":"7816410"},{"town":"上椽ノ下","koaza":"","lat":33.431228,"lng":134.007629,"zip":"7816410"},{"town":"長田坑","koaza":"","lat":33.430418,"lng":134.007681,"zip":"7816410"},{"town":"安田分","koaza":"","lat":33.430356,"lng":134.009322,"zip":"7816410"},{"town":"上島田","koaza":"","lat":33.430079,"lng":134.00846,"zip":"7816410"},{"town":"木ノ下","koaza":"","lat":33.429115,"lng":134.009855,"zip":"7816410"},{"town":"下椽ノ下","koaza":"","lat":33.429341,"lng":134.006337,"zip":"7816410"},{"town":"西浦田","koaza":"","lat":33.430449,"lng":134.005065,"zip":"7816410"},{"town":"中野上土居","koaza":"","lat":33.430603,"lng":134.003609,"zip":"7816410"},{"town":"中野土居","koaza":"","lat":33.431136,"lng":134.002593,"zip":"7816410"},{"town":"中野南","koaza":"","lat":33.431167,"lng":134.004173,"zip":"7816410"},{"town":"赤井畑","koaza":"","lat":33.429495,"lng":134.00209,"zip":"7816410"},{"town":"踊ヶ坂","koaza":"","lat":33.428838,"lng":134.001383,"zip":"7816410"},{"town":"浜田町","koaza":"","lat":33.427566,"lng":134.003588,"zip":"7816410"},{"town":"浜ノ後","koaza":"","lat":33.428541,"lng":134.00526,"zip":"7816410"},{"town":"竹ノ下","koaza":"","lat":33.428849,"lng":134.00365,"zip":"7816410"},{"town":"住吉南","koaza":"","lat":33.426418,"lng":134.004224,"zip":"7816410"},{"town":"浄土寺西","koaza":"","lat":33.426182,"lng":134.005598,"zip":"7816410"},{"town":"浄土寺東","koaza":"","lat":33.425946,"lng":134.007445,"zip":"7816410"},{"town":"下橋","koaza":"","lat":33.426746,"lng":134.007024,"zip":"7816410"},{"town":"浜田後町","koaza":"","lat":33.427064,"lng":134.007332,"zip":"7816410"},{"town":"下島田","koaza":"","lat":33.428028,"lng":134.007363,"zip":"7816410"},{"town":"松本","koaza":"","lat":33.427956,"lng":134.009281,"zip":"7816410"},{"town":"西町","koaza":"","lat":33.427618,"lng":134.010091,"zip":"7816410"},{"town":"西町南角","koaza":"","lat":33.426551,"lng":134.009076,"zip":"7816410"},{"town":"東町南角","koaza":"","lat":33.426869,"lng":134.010112,"zip":"7816410"},{"town":"東町","koaza":"","lat":33.426202,"lng":134.010071,"zip":"7816410"},{"town":"蔵屋敷","koaza":"","lat":33.425299,"lng":134.007219,"zip":"7816410"},{"town":"制礼場","koaza":"","lat":33.425628,"lng":134.00926,"zip":"7816410"},{"town":"中島南","koaza":"","lat":33.424366,"lng":134.011527,"zip":"7816410"},{"town":"東中島","koaza":"","lat":33.425628,"lng":134.01243,"zip":"7816410"},{"town":"蝦夷ヶ谷","koaza":"","lat":33.426143,"lng":134.014156,"zip":"7816410"},{"town":"巽枦地","koaza":"","lat":33.426739,"lng":134.013456,"zip":"7816410"},{"town":"枦地","koaza":"","lat":33.427656,"lng":134.014733,"zip":"7816410"},{"town":"岩原","koaza":"","lat":33.43001,"lng":134.01166,"zip":"7816410"},{"town":"目後町","koaza":"","lat":33.428327,"lng":134.010592,"zip":"7816410"},{"town":"内町","koaza":"","lat":33.428384,"lng":134.011594,"zip":"7816410"},{"town":"中芝","koaza":"","lat":33.427552,"lng":134.011055,"zip":"7816410"},{"town":"土居ノ下","koaza":"","lat":33.426947,"lng":134.011897,"zip":"7816410"},{"town":"東土居ノ下","koaza":"","lat":33.427297,"lng":134.01322,"zip":"7816410"},{"town":"五軒町","koaza":"","lat":33.427694,"lng":134.012615,"zip":"7816410"},{"town":"芝野","koaza":"","lat":33.428128,"lng":134.012729,"zip":"7816410"},{"town":"堤ノ内","koaza":"","lat":33.428686,"lng":134.013059,"zip":"7816410"},{"town":"南水神","koaza":"","lat":33.429329,"lng":134.015215,"zip":"7816410"},{"town":"南経田","koaza":"","lat":33.430227,"lng":134.013239,"zip":"7816410"},{"town":"経田","koaza":"","lat":33.43087,"lng":134.014005,"zip":"7816410"},{"town":"開水神","koaza":"","lat":33.430737,"lng":134.016311,"zip":"7816410"},{"town":"島ノ前","koaza":"","lat":33.431182,"lng":134.015186,"zip":"7816410"},{"town":"田中ノ内","koaza":"","lat":33.431182,"lng":134.011897,"zip":"7816410"},{"town":"桓ノ内","koaza":"","lat":33.431144,"lng":134.010327,"zip":"7816410"},{"town":"宮田","koaza":"","lat":33.432392,"lng":134.010677,"zip":"7816410"},{"town":"中村","koaza":"","lat":33.431985,"lng":134.013995,"zip":"7816410"},{"town":"西ノ内","koaza":"","lat":33.432496,"lng":134.012955,"zip":"7816410"},{"town":"千福","koaza":"","lat":33.43191,"lng":134.011386,"zip":"7816410"},{"town":"中川原","koaza":"","lat":33.433195,"lng":134.020291,"zip":"7816410"},{"town":"待井東","koaza":"","lat":33.434481,"lng":134.021719,"zip":"7816410"},{"town":"東森次","koaza":"","lat":33.433072,"lng":134.018684,"zip":"7816410"},{"town":"中森次","koaza":"","lat":33.433205,"lng":134.01771,"zip":"7816410"},{"town":"西森次","koaza":"","lat":33.433318,"lng":134.016803,"zip":"7816410"},{"town":"北大内","koaza":"","lat":33.433744,"lng":134.01616,"zip":"7816410"},{"town":"伊勢田","koaza":"","lat":33.433545,"lng":134.015082,"zip":"7816410"},{"town":"富岡","koaza":"","lat":33.433866,"lng":134.014024,"zip":"7816410"},{"town":"蝶口東","koaza":"","lat":33.433583,"lng":134.01305,"zip":"7816410"},{"town":"東岡地","koaza":"","lat":33.432978,"lng":134.012974,"zip":"7816410"},{"town":"大将軍ノ後","koaza":"","lat":33.433394,"lng":134.012048,"zip":"7816410"},{"town":"松ノ前","koaza":"","lat":33.434434,"lng":134.012785,"zip":"7816410"},{"town":"北三角畑","koaza":"","lat":33.435549,"lng":133.997556,"zip":"7816410"},{"town":"北山ノ神","koaza":"","lat":33.435795,"lng":134.001886,"zip":"7816410"},{"town":"北山神","koaza":"","lat":33.436995,"lng":134.002982,"zip":"7816410"},{"town":"柴折峠","koaza":"","lat":33.436287,"lng":134.003049,"zip":"7816410"},{"town":"東柴折","koaza":"","lat":33.435918,"lng":134.003852,"zip":"7816410"},{"town":"横峯","koaza":"","lat":33.436097,"lng":134.005298,"zip":"7816410"},{"town":"清九郎谷","koaza":"","lat":33.435549,"lng":134.005185,"zip":"7816410"},{"town":"鴻巣山","koaza":"","lat":33.43554,"lng":134.006745,"zip":"7816410"},{"town":"北鴻巣山","koaza":"","lat":33.437232,"lng":134.008588,"zip":"7816410"},{"town":"新田中尾","koaza":"","lat":33.436173,"lng":134.007822,"zip":"7816410"},{"town":"西ノ岡","koaza":"","lat":33.43605,"lng":134.00908,"zip":"7816410"},{"town":"松山","koaza":"","lat":33.440332,"lng":134.008607,"zip":"7816410"},{"town":"池谷樋ノ口","koaza":"","lat":33.43554,"lng":134.009808,"zip":"7816410"},{"town":"樋ノ口上","koaza":"","lat":33.436249,"lng":134.010016,"zip":"7816410"},{"town":"今口","koaza":"","lat":33.43605,"lng":134.011377,"zip":"7816410"},{"town":"一本松西","koaza":"","lat":33.436457,"lng":134.012209,"zip":"7816410"},{"town":"壱本松","koaza":"","lat":33.436806,"lng":134.012237,"zip":"7816410"},{"town":"高田一本松","koaza":"","lat":33.436863,"lng":134.013882,"zip":"7816410"},{"town":"高田下ノ丸","koaza":"","lat":33.43536,"lng":134.013258,"zip":"7816410"},{"town":"大坂谷","koaza":"","lat":33.436192,"lng":134.015687,"zip":"7816410"},{"town":"大坂谷西","koaza":"","lat":33.438603,"lng":134.01478,"zip":"7816410"},{"town":"大坂谷奥","koaza":"","lat":33.439264,"lng":134.016292,"zip":"7816410"},{"town":"鳥首","koaza":"","lat":33.43916,"lng":134.01409,"zip":"7816410"},{"town":"鳥首ノ下","koaza":"","lat":33.437638,"lng":134.012492,"zip":"7816410"},{"town":"中ノ島","koaza":"","lat":33.438338,"lng":134.010309,"zip":"7816410"},{"town":"上ノ岡","koaza":"","lat":33.437827,"lng":134.017105,"zip":"7816410"},{"town":"野柳","koaza":"","lat":33.437771,"lng":134.018911,"zip":"7816410"},{"town":"北野柳","koaza":"","lat":33.439926,"lng":134.019875,"zip":"7816410"},{"town":"野柳山","koaza":"","lat":33.440389,"lng":134.019856,"zip":"7816410"},{"town":"築地平","koaza":"","lat":33.440985,"lng":134.020017,"zip":"7816410"},{"town":"日野山","koaza":"","lat":33.435492,"lng":134.017484,"zip":"7816410"},{"town":"洞渓","koaza":"","lat":33.435464,"lng":134.018968,"zip":"7816410"},{"town":"南土生","koaza":"","lat":33.437024,"lng":134.01997,"zip":"7816410"},{"town":"中土生","koaza":"","lat":33.43882,"lng":134.020225,"zip":"7816410"},{"town":"上土生","koaza":"","lat":33.439037,"lng":134.021454,"zip":"7816410"},{"town":"下土生","koaza":"","lat":33.436532,"lng":134.02066,"zip":"7816410"},{"town":"北待井","koaza":"","lat":33.435871,"lng":134.022163,"zip":"7816410"},{"town":"西立岡","koaza":"","lat":33.436183,"lng":134.021567,"zip":"7816410"},{"town":"南立岡","koaza":"","lat":33.436305,"lng":134.024252,"zip":"7816410"},{"town":"東立岡","koaza":"","lat":33.437222,"lng":134.023401,"zip":"7816410"},{"town":"立岡ノ上","koaza":"","lat":33.437704,"lng":134.022844,"zip":"7816410"},{"town":"窪津野","koaza":"","lat":33.43812,"lng":134.021898,"zip":"7816410"},{"town":"立岡","koaza":"","lat":33.438725,"lng":134.024602,"zip":"7816410"},{"town":"中立岡","koaza":"","lat":33.43761,"lng":134.025557,"zip":"7816410"},{"town":"上立岡下","koaza":"","lat":33.438517,"lng":134.026426,"zip":"7816410"},{"town":"上立岡中","koaza":"","lat":33.439567,"lng":134.027107,"zip":"7816410"},{"town":"上立岡","koaza":"","lat":33.440314,"lng":134.0281,"zip":"7816410"},{"town":"西上立岡","koaza":"","lat":33.440276,"lng":134.026823,"zip":"7816410"},{"town":"立岡岩柄","koaza":"","lat":33.441382,"lng":134.023543,"zip":"7816410"},{"town":"築地","koaza":"","lat":33.442034,"lng":134.021397,"zip":"7816410"},{"town":"寺屋敷","koaza":"","lat":33.442904,"lng":134.027192,"zip":"7816410"},{"town":"東水呑","koaza":"","lat":33.443178,"lng":134.021057,"zip":"7816410"},{"town":"水呑","koaza":"","lat":33.444256,"lng":134.019885,"zip":"7816410"},{"town":"大窪","koaza":"","lat":33.442346,"lng":134.019091,"zip":"7816410"},{"town":"西下谷","koaza":"","lat":33.443613,"lng":134.017918,"zip":"7816410"},{"town":"爛","koaza":"","lat":33.442771,"lng":134.015848,"zip":"7816410"},{"town":"長田","koaza":"","lat":33.442299,"lng":134.014837,"zip":"7816410"},{"town":"森が谷","koaza":"","lat":33.441722,"lng":134.013712,"zip":"7816410"},{"town":"鳶ヶ平","koaza":"","lat":33.441316,"lng":134.01219,"zip":"7816410"},{"town":"西ノ谷","koaza":"","lat":33.44175,"lng":134.011528,"zip":"7816410"},{"town":"アンケ谷","koaza":"","lat":33.447243,"lng":134.016141,"zip":"7816410"},{"town":"丸山ノ南","koaza":"","lat":33.447659,"lng":134.018656,"zip":"7816410"},{"town":"笛ヶ谷","koaza":"","lat":33.451743,"lng":134.015621,"zip":"7816410"},{"town":"丸山西","koaza":"","lat":33.451109,"lng":134.011878,"zip":"7816410"},{"town":"地獄谷","koaza":"","lat":33.445609,"lng":134.008472,"zip":"7816410"},{"town":"（大字なし）","koaza":"","lat":33.432625,"lng":134.008256,"zip":"7816410"},{"town":"（大字なし）","koaza":"北町","lat":33.428508,"lng":134.011799,"zip":"7816410"},{"town":"（大字なし）","koaza":"土生岡","lat":33.442272,"lng":134.024639,"zip":"7816410"}]