[{"town":"大字安倉","koaza":"","lat":33.510666,"lng":134.186544,"zip":"7816400"},{"town":"大字柏木","koaza":"","lat":33.466951,"lng":134.068925,"zip":"7816400"},{"town":"大字加茂","koaza":"","lat":33.460261,"lng":134.03225,"zip":"7816400"},{"town":"大字久江ノ上","koaza":"","lat":33.554872,"lng":134.114867,"zip":"7816400"},{"town":"大字久木","koaza":"","lat":33.575118,"lng":134.125995,"zip":"7816400"},{"town":"大字小島","koaza":"","lat":33.504283,"lng":134.105299,"zip":"7816400"},{"town":"大字木積","koaza":"","lat":33.478253,"lng":134.048806,"zip":"7816400"},{"town":"大字島","koaza":"","lat":33.542842,"lng":134.122254,"zip":"7816400"},{"town":"大字菅ノ上","koaza":"","lat":33.539351,"lng":134.176126,"zip":"7816400"},{"town":"大字宗ノ上","koaza":"","lat":33.51354,"lng":134.07166,"zip":"7816400"},{"town":"大字竹屋敷","koaza":"","lat":33.584467,"lng":134.167593,"zip":"7816400"},{"town":"大字長山","koaza":"","lat":33.470235,"lng":134.04078,"zip":"7816400"},{"town":"大字西谷","koaza":"","lat":33.499781,"lng":134.039829,"zip":"7816400"},{"town":"大字野川","koaza":"","lat":33.460424,"lng":134.101454,"zip":"7816400"},{"town":"大字野友","koaza":"","lat":33.448488,"lng":134.038566,"zip":"7816400"},{"town":"大字平鍋","koaza":"","lat":33.510089,"lng":134.121461,"zip":"7816400"},{"town":"大字弘瀬","koaza":"","lat":33.503105,"lng":134.151855,"zip":"7816400"},{"town":"大字二タ又","koaza":"","lat":33.525119,"lng":134.133372,"zip":"7816400"},{"town":"大字和田","koaza":"","lat":33.495361,"lng":134.083271,"zip":"7816400"}]