[{"town":"浮津","koaza":"","lat":33.297117,"lng":134.145466,"zip":"7817103"},{"town":"浮津一番町","koaza":"","lat":33.290477,"lng":134.145432,"zip":"7817104"},{"town":"浮津二番町","koaza":"","lat":33.292308,"lng":134.14474,"zip":"7817105"},{"town":"浮津三番町","koaza":"","lat":33.293479,"lng":134.14176,"zip":"7817106"},{"town":"吉良川町","koaza":"","lat":33.397345,"lng":134.148413,"zip":"7816832"},{"town":"佐喜浜町","koaza":"","lat":33.419719,"lng":134.196429,"zip":"7817220"},{"town":"羽根町","koaza":"","lat":33.410154,"lng":134.104197,"zip":"7816741"},{"town":"室津","koaza":"","lat":33.321967,"lng":134.162197,"zip":"7817102"},{"town":"室戸岬町","koaza":"","lat":33.317251,"lng":134.181405,"zip":"7817101"},{"town":"元","koaza":"","lat":33.32407,"lng":134.137052,"zip":"7817107"},{"town":"領家","koaza":"","lat":33.290708,"lng":134.169814,"zip":"7817109"},{"town":"元","koaza":"甲","lat":33.300723,"lng":134.123807,"zip":"7817107"},{"town":"吉良川町","koaza":"丙","lat":33.308764,"lng":134.110681,"zip":"7816832"},{"town":"元","koaza":"乙","lat":33.305541,"lng":134.117916,"zip":"7817107"}]