[{"town":"池島","koaza":"","lat":32.923335,"lng":132.687175,"zip":"7880021"},{"town":"宇須々木","koaza":"","lat":32.930534,"lng":132.668625,"zip":"7880023"},{"town":"駅東町一丁目","koaza":"","lat":32.933853,"lng":132.715912,"zip":"7880009"},{"town":"駅東町二丁目","koaza":"","lat":32.934476,"lng":132.717452,"zip":"7880009"},{"town":"駅東町三丁目","koaza":"","lat":32.933469,"lng":132.718474,"zip":"7880009"},{"town":"駅東町四丁目","koaza":"","lat":32.932356,"lng":132.717138,"zip":"7880009"},{"town":"駅前町一丁目","koaza":"","lat":32.932887,"lng":132.713212,"zip":"7880010"},{"town":"駅前町二丁目","koaza":"","lat":32.930866,"lng":132.71417,"zip":"7880010"},{"town":"大島","koaza":"","lat":32.91454,"lng":132.696204,"zip":"7880014"},{"town":"大深浦","koaza":"","lat":32.938363,"lng":132.683746,"zip":"7880034"},{"town":"沖の島町鵜来島","koaza":"","lat":32.801935,"lng":132.489499,"zip":"7880679"},{"town":"沖の島町弘瀬","koaza":"","lat":32.718812,"lng":132.560287,"zip":"7880678"},{"town":"沖の島町母島","koaza":"","lat":32.740806,"lng":132.556095,"zip":"7880677"},{"town":"押ノ川","koaza":"","lat":32.943922,"lng":132.765855,"zip":"7880051"},{"town":"貝塚","koaza":"","lat":32.936268,"lng":132.714337,"zip":"7880031"},{"town":"片島","koaza":"","lat":32.922374,"lng":132.6983,"zip":"7880013"},{"town":"樺","koaza":"","lat":32.934851,"lng":132.675197,"zip":"7880024"},{"town":"草木薮","koaza":"","lat":32.957489,"lng":132.693583,"zip":"7880035"},{"town":"港南台一丁目","koaza":"","lat":32.929561,"lng":132.682921,"zip":"7880027"},{"town":"港南台二丁目","koaza":"","lat":32.92943,"lng":132.681225,"zip":"7880027"},{"town":"小筑紫町石原","koaza":"","lat":32.86212,"lng":132.763538,"zip":"7880272"},{"town":"小筑紫町伊与野","koaza":"","lat":32.890291,"lng":132.737497,"zip":"7880267"},{"town":"小筑紫町大海","koaza":"","lat":32.891291,"lng":132.716081,"zip":"7880266"},{"town":"小筑紫町小浦","koaza":"","lat":32.911294,"lng":132.716031,"zip":"7880262"},{"town":"小筑紫町小筑紫","koaza":"","lat":32.873812,"lng":132.716415,"zip":"7880271"},{"town":"小筑紫町栄喜","koaza":"","lat":32.875721,"lng":132.702337,"zip":"7880274"},{"town":"小筑紫町田ノ浦","koaza":"","lat":32.913363,"lng":132.723472,"zip":"7880261"},{"town":"小筑紫町都賀川","koaza":"","lat":32.912024,"lng":132.754561,"zip":"7880000"},{"town":"小筑紫町内外ノ浦","koaza":"","lat":32.903507,"lng":132.718961,"zip":"7880263"},{"town":"小筑紫町福良","koaza":"","lat":32.870194,"lng":132.731431,"zip":"7880273"},{"town":"小筑紫町湊","koaza":"","lat":32.895666,"lng":132.723348,"zip":"7880265"},{"town":"小筑紫町呼崎","koaza":"","lat":32.904067,"lng":132.730843,"zip":"7880264"},{"town":"小深浦","koaza":"","lat":32.93875,"lng":132.696474,"zip":"7880033"},{"town":"幸町","koaza":"","lat":32.935291,"lng":132.722328,"zip":"7880003"},{"town":"坂ノ下","koaza":"","lat":32.924407,"lng":132.719383,"zip":"7880053"},{"town":"さくらが丘","koaza":"","lat":32.949998,"lng":132.766602,"zip":"7880054"},{"town":"桜町","koaza":"","lat":32.939434,"lng":132.727594,"zip":"7880006"},{"town":"四季の丘一丁目","koaza":"","lat":32.935126,"lng":132.710895,"zip":"7880030"},{"town":"四季の丘二丁目","koaza":"","lat":32.935106,"lng":132.709356,"zip":"7880030"},{"town":"自由ケ丘","koaza":"","lat":32.932684,"lng":132.690327,"zip":"7880026"},{"town":"新港","koaza":"","lat":32.923914,"lng":132.680036,"zip":"7880028"},{"town":"宿毛","koaza":"","lat":32.942615,"lng":132.716337,"zip":"7880000"},{"town":"高砂","koaza":"","lat":32.927637,"lng":132.701877,"zip":"7880012"},{"town":"中央一丁目","koaza":"","lat":32.937593,"lng":132.725547,"zip":"7880001"},{"town":"中央二丁目","koaza":"","lat":32.939111,"lng":132.730305,"zip":"7880001"},{"town":"中央三丁目","koaza":"","lat":32.937078,"lng":132.732071,"zip":"7880001"},{"town":"中央四丁目","koaza":"","lat":32.937172,"lng":132.730012,"zip":"7880001"},{"town":"中央五丁目","koaza":"","lat":32.936582,"lng":132.728835,"zip":"7880001"},{"town":"中央六丁目","koaza":"","lat":32.936223,"lng":132.727544,"zip":"7880001"},{"town":"中央七丁目","koaza":"","lat":32.935933,"lng":132.725527,"zip":"7880001"},{"town":"中央八丁目","koaza":"","lat":32.934831,"lng":132.729673,"zip":"7880001"},{"town":"長田町","koaza":"","lat":32.936489,"lng":132.72005,"zip":"7880004"},{"town":"中角","koaza":"","lat":32.97013,"lng":132.745432,"zip":"7880039"},{"town":"西片島","koaza":"","lat":32.929344,"lng":132.699973,"zip":"7880015"},{"town":"錦","koaza":"","lat":32.941125,"lng":132.704058,"zip":"7880032"},{"town":"西町一丁目","koaza":"","lat":32.929375,"lng":132.687298,"zip":"7880025"},{"town":"西町二丁目","koaza":"","lat":32.927546,"lng":132.687935,"zip":"7880025"},{"town":"西町三丁目","koaza":"","lat":32.926992,"lng":132.684603,"zip":"7880025"},{"town":"西町四丁目","koaza":"","lat":32.928523,"lng":132.684412,"zip":"7880025"},{"town":"西町五丁目","koaza":"","lat":32.930315,"lng":132.685887,"zip":"7880025"},{"town":"二ノ宮","koaza":"","lat":32.959693,"lng":132.731813,"zip":"7880038"},{"town":"野地","koaza":"","lat":32.965512,"lng":132.702113,"zip":"7880036"},{"town":"萩原","koaza":"","lat":32.938979,"lng":132.723957,"zip":"7880005"},{"town":"橋上町出井","koaza":"","lat":33.086728,"lng":132.693091,"zip":"7880041"},{"town":"橋上町奥奈路","koaza":"","lat":32.988064,"lng":132.761989,"zip":"7880045"},{"town":"橋上町神有","koaza":"","lat":33.000168,"lng":132.758861,"zip":"7880044"},{"town":"橋上町京法","koaza":"","lat":32.986032,"lng":132.726955,"zip":"7880048"},{"town":"橋上町楠山","koaza":"","lat":33.05085,"lng":132.705,"zip":"7880042"},{"town":"橋上町還住薮","koaza":"","lat":33.022823,"lng":132.706237,"zip":"7880049"},{"town":"橋上町坂本","koaza":"","lat":33.025351,"lng":132.742598,"zip":"7880043"},{"town":"橋上町橋上","koaza":"","lat":32.973603,"lng":132.773024,"zip":"7880046"},{"town":"橋上町平野","koaza":"","lat":32.973365,"lng":132.75712,"zip":"7880047"},{"town":"平田町黒川","koaza":"","lat":32.92358,"lng":132.796973,"zip":"7880781"},{"town":"平田町中山","koaza":"","lat":32.962576,"lng":132.771196,"zip":"7880782"},{"town":"平田町東平一丁目","koaza":"","lat":32.962975,"lng":132.809188,"zip":"7880786"},{"town":"平田町東平二丁目","koaza":"","lat":32.96236,"lng":132.811465,"zip":"7880786"},{"town":"平田町戸内","koaza":"","lat":32.94689,"lng":132.78523,"zip":"7880783"},{"town":"松田町","koaza":"","lat":32.943636,"lng":132.729043,"zip":"7880007"},{"town":"南沖須賀","koaza":"","lat":32.933754,"lng":132.727135,"zip":"7880002"},{"town":"藻津","koaza":"","lat":32.931466,"lng":132.659654,"zip":"7880022"},{"town":"山北","koaza":"","lat":32.999222,"lng":132.693511,"zip":"7880037"},{"town":"山奈町山田","koaza":"","lat":33.003912,"lng":132.797292,"zip":"7880784"},{"town":"山奈町芳奈","koaza":"","lat":32.979454,"lng":132.790391,"zip":"7880785"},{"town":"与市明","koaza":"","lat":32.940828,"lng":132.720689,"zip":"7880008"},{"town":"和田","koaza":"","lat":32.947513,"lng":132.744579,"zip":"7880052"}]