[{"town":"大字赤泊","koaza":"","lat":32.785132,"lng":132.73654,"zip":"7880300"},{"town":"大字安満地","koaza":"","lat":32.800072,"lng":132.653941,"zip":"7880300"},{"town":"大字一切","koaza":"","lat":32.786652,"lng":132.650513,"zip":"7880300"},{"town":"大字大浦","koaza":"","lat":32.760669,"lng":132.760117,"zip":"7880300"},{"town":"大字樫ノ浦","koaza":"","lat":32.792869,"lng":132.725272,"zip":"7880300"},{"town":"大字頭集","koaza":"","lat":32.805058,"lng":132.686126,"zip":"7880300"},{"town":"大字柏島","koaza":"","lat":32.766673,"lng":132.634844,"zip":"7880300"},{"town":"大字口目塚","koaza":"","lat":32.807416,"lng":132.730268,"zip":"7880300"},{"town":"大字小才角","koaza":"","lat":32.777303,"lng":132.778259,"zip":"7880300"},{"town":"大字古満目","koaza":"","lat":32.787518,"lng":132.684609,"zip":"7880300"},{"town":"大字才角","koaza":"","lat":32.772576,"lng":132.766243,"zip":"7880300"},{"town":"大字周防形","koaza":"","lat":32.807017,"lng":132.717209,"zip":"7880300"},{"town":"大字清王","koaza":"","lat":32.820712,"lng":132.722335,"zip":"7880300"},{"town":"大字添ノ川","koaza":"","lat":32.845099,"lng":132.731171,"zip":"7880300"},{"town":"大字橘浦","koaza":"","lat":32.823786,"lng":132.662886,"zip":"7880300"},{"town":"大字龍ケ迫","koaza":"","lat":32.862961,"lng":132.678381,"zip":"7880300"},{"town":"大字月ケ丘","koaza":"","lat":32.772202,"lng":132.75259,"zip":"7880300"},{"town":"大字泊浦","koaza":"","lat":32.842979,"lng":132.679258,"zip":"7880300"},{"town":"大字西泊","koaza":"","lat":32.780763,"lng":132.731848,"zip":"7880300"},{"town":"大字春遠","koaza":"","lat":32.821895,"lng":132.750232,"zip":"7880300"},{"town":"大字姫ノ井","koaza":"","lat":32.798805,"lng":132.740729,"zip":"7880300"},{"town":"大字平山","koaza":"","lat":32.790014,"lng":132.670194,"zip":"7880300"},{"town":"大字弘見","koaza":"","lat":32.847753,"lng":132.70406,"zip":"7880300"},{"town":"大字鉾土","koaza":"","lat":32.820225,"lng":132.69261,"zip":"7880300"},{"town":"大字芳ノ澤","koaza":"","lat":32.86777,"lng":132.695776,"zip":"7880300"},{"town":"唐岩","koaza":"","lat":32.802383,"lng":132.754068,"zip":"7880335"}]