[{"town":"有井川","koaza":"","lat":33.071462,"lng":133.077348,"zip":"7891903"},{"town":"伊田","koaza":"","lat":33.041019,"lng":133.082188,"zip":"7891904"},{"town":"市野瀬","koaza":"","lat":33.171906,"lng":133.160446,"zip":"7891701"},{"town":"市野々川","koaza":"","lat":33.128645,"lng":133.089028,"zip":"7891711"},{"town":"出口","koaza":"","lat":32.988327,"lng":132.990396,"zip":"7891934"},{"town":"伊與喜","koaza":"","lat":33.111896,"lng":133.079568,"zip":"7891900"},{"town":"入野","koaza":"","lat":33.025371,"lng":133.00943,"zip":"7891931"},{"town":"浮鞭","koaza":"","lat":33.042197,"lng":133.031877,"zip":"7891911"},{"town":"馬荷","koaza":"","lat":33.050223,"lng":132.973357,"zip":"7891924"},{"town":"大井川","koaza":"","lat":33.070118,"lng":132.980091,"zip":"7891923"},{"town":"大方橘川","koaza":"","lat":33.042869,"lng":132.987058,"zip":"7891925"},{"town":"奥湊川","koaza":"","lat":33.086587,"lng":133.013099,"zip":"7891913"},{"town":"御坊畑","koaza":"","lat":33.026841,"lng":132.967665,"zip":"7891936"},{"town":"荷稲","koaza":"","lat":33.131551,"lng":133.120004,"zip":"7891705"},{"town":"上川口","koaza":"","lat":33.043859,"lng":133.054998,"zip":"7891901"},{"town":"上田の口","koaza":"","lat":33.008722,"lng":132.974839,"zip":"7891935"},{"town":"加持","koaza":"","lat":33.055987,"lng":133.013045,"zip":"7891921"},{"town":"加持川","koaza":"","lat":33.072004,"lng":132.996161,"zip":"7891922"},{"town":"川奥","koaza":"","lat":33.14839,"lng":133.104252,"zip":"7891704"},{"town":"口湊川","koaza":"","lat":33.053802,"lng":133.028374,"zip":"7891912"},{"town":"熊井","koaza":"","lat":33.099199,"lng":133.109929,"zip":"7891715"},{"town":"熊野浦","koaza":"","lat":33.09882,"lng":133.133206,"zip":"7891716"},{"town":"黒潮","koaza":"","lat":33.075685,"lng":133.11246,"zip":"7891900"},{"town":"小黒ノ川","koaza":"","lat":33.117292,"lng":133.12245,"zip":"7891706"},{"town":"拳ノ川","koaza":"","lat":33.148604,"lng":133.121217,"zip":"7891703"},{"town":"佐賀","koaza":"","lat":33.078751,"lng":133.096991,"zip":"7891723"},{"town":"佐賀橘川","koaza":"","lat":33.147206,"lng":133.140319,"zip":"7891702"},{"town":"下田の口","koaza":"","lat":33.022057,"lng":132.993715,"zip":"7891932"},{"town":"白濱","koaza":"","lat":33.055089,"lng":133.093658,"zip":"7891900"},{"town":"鈴","koaza":"","lat":33.124337,"lng":133.14848,"zip":"7891708"},{"town":"田野浦","koaza":"","lat":33.002,"lng":132.998849,"zip":"7891933"},{"town":"中ノ川","koaza":"","lat":33.129336,"lng":133.13786,"zip":"7891707"},{"town":"灘","koaza":"","lat":33.034927,"lng":133.091117,"zip":"7891905"},{"town":"藤縄","koaza":"","lat":33.098509,"lng":133.084873,"zip":"7891714"},{"town":"不破原","koaza":"","lat":33.110668,"lng":133.112981,"zip":"7891712"},{"town":"蜷川","koaza":"","lat":33.083417,"lng":133.048261,"zip":"7891902"},{"town":"入野","koaza":"芝","lat":33.018936,"lng":133.002379,"zip":"7891931"}]