[{"town":"粟生","koaza":"","lat":33.79302,"lng":133.76729,"zip":"7890167"},{"town":"穴内","koaza":"","lat":33.768525,"lng":133.695266,"zip":"7890307"},{"town":"庵谷","koaza":"","lat":33.767058,"lng":133.733142,"zip":"7890237"},{"town":"筏木","koaza":"","lat":33.814733,"lng":133.783416,"zip":"7890157"},{"town":"磯谷","koaza":"","lat":33.792439,"lng":133.707795,"zip":"7890233"},{"town":"岩原","koaza":"","lat":33.825116,"lng":133.797708,"zip":"7890158"},{"town":"馬瀬","koaza":"","lat":33.703218,"lng":133.675825,"zip":"7890323"},{"town":"尾生","koaza":"","lat":33.798731,"lng":133.694767,"zip":"7890306"},{"town":"大久保","koaza":"","lat":33.83234,"lng":133.777766,"zip":"7890248"},{"town":"大砂子","koaza":"","lat":33.82543,"lng":133.776984,"zip":"7890247"},{"town":"大平","koaza":"","lat":33.795326,"lng":133.774791,"zip":"7890173"},{"town":"大滝","koaza":"","lat":33.799366,"lng":133.780951,"zip":"7890170"},{"town":"小川","koaza":"","lat":33.726018,"lng":133.660976,"zip":"7890316"},{"town":"奥大田","koaza":"","lat":33.826441,"lng":133.724557,"zip":"7890231"},{"town":"角茂谷","koaza":"","lat":33.714536,"lng":133.712677,"zip":"7890321"},{"town":"梶ケ内","koaza":"","lat":33.801867,"lng":133.727085,"zip":"7890232"},{"town":"葛原","koaza":"","lat":33.775584,"lng":133.642532,"zip":"7890428"},{"town":"上東","koaza":"","lat":33.77974,"lng":133.745047,"zip":"7890252"},{"town":"川井","koaza":"","lat":33.796912,"lng":133.788007,"zip":"7890172"},{"town":"川口","koaza":"","lat":33.782154,"lng":133.662234,"zip":"7890303"},{"town":"川戸","koaza":"","lat":33.798112,"lng":133.749405,"zip":"7890241"},{"town":"北川","koaza":"","lat":33.742119,"lng":133.724333,"zip":"7890325"},{"town":"久壽軒","koaza":"","lat":33.724195,"lng":133.6925,"zip":"7890300"},{"town":"黒石","koaza":"","lat":33.784008,"lng":133.730117,"zip":"7890250"},{"town":"佐賀山","koaza":"","lat":33.774903,"lng":133.75845,"zip":"7890255"},{"town":"敷岩","koaza":"","lat":33.78105,"lng":133.684887,"zip":"7890300"},{"town":"杉","koaza":"","lat":33.74867,"lng":133.65922,"zip":"7890311"},{"town":"高須","koaza":"","lat":33.763421,"lng":133.660289,"zip":"7890312"},{"town":"立川上名","koaza":"","lat":33.831595,"lng":133.626637,"zip":"7890426"},{"town":"立川下名","koaza":"","lat":33.840613,"lng":133.678603,"zip":"7890427"},{"town":"立野","koaza":"","lat":33.787692,"lng":133.77744,"zip":"7890168"},{"town":"谷","koaza":"","lat":33.786223,"lng":133.678927,"zip":"7890304"},{"town":"津家","koaza":"","lat":33.75451,"lng":133.649492,"zip":"7890301"},{"town":"連火","koaza":"","lat":33.802268,"lng":133.754455,"zip":"7890242"},{"town":"寺内","koaza":"","lat":33.791383,"lng":133.727847,"zip":"7890234"},{"town":"戸手野","koaza":"","lat":33.689072,"lng":133.691033,"zip":"7890322"},{"town":"中内","koaza":"","lat":33.804901,"lng":133.796738,"zip":"7890174"},{"town":"永渕","koaza":"","lat":33.816737,"lng":133.767952,"zip":"7890300"},{"town":"中村大王","koaza":"","lat":33.746949,"lng":133.683474,"zip":"7890315"},{"town":"中屋","koaza":"","lat":33.786774,"lng":133.732483,"zip":"7890251"},{"town":"西川","koaza":"","lat":33.785414,"lng":133.768383,"zip":"7890165"},{"town":"西久保","koaza":"","lat":33.805225,"lng":133.747525,"zip":"7890243"},{"town":"西土居","koaza":"","lat":33.788851,"lng":133.758105,"zip":"7890254"},{"town":"西峯","koaza":"","lat":33.814822,"lng":133.83333,"zip":"7890300"},{"town":"怒田","koaza":"","lat":33.771033,"lng":133.811825,"zip":"7890162"},{"town":"日浦","koaza":"","lat":33.770988,"lng":133.678153,"zip":"7890314"},{"town":"東土居","koaza":"","lat":33.795025,"lng":133.76145,"zip":"7890166"},{"town":"船戸","koaza":"","lat":33.784252,"lng":133.721084,"zip":"7890235"},{"town":"南大王","koaza":"","lat":33.749349,"lng":133.779089,"zip":"7890163"},{"town":"桃原","koaza":"","lat":33.813382,"lng":133.757011,"zip":"7890244"},{"town":"八川","koaza":"","lat":33.806311,"lng":133.775769,"zip":"7890156"},{"town":"安野々","koaza":"","lat":33.794147,"lng":133.742483,"zip":"7890253"},{"town":"柳野","koaza":"","lat":33.824862,"lng":133.766141,"zip":"7890246"},{"town":"柚木","koaza":"","lat":33.78339,"lng":133.833354,"zip":"7890161"},{"town":"八畝","koaza":"","lat":33.773337,"lng":133.775636,"zip":"7890164"},{"town":"和田","koaza":"","lat":33.774028,"lng":133.710822,"zip":"7890236"}]