[{"town":"井窪","koaza":"","lat":33.754753,"lng":133.602776,"zip":"7813604"},{"town":"瓜生野","koaza":"","lat":33.805685,"lng":133.556767,"zip":"7813623"},{"town":"大石","koaza":"","lat":33.744816,"lng":133.599271,"zip":"7813602"},{"town":"上関","koaza":"","lat":33.769056,"lng":133.616178,"zip":"7813611"},{"town":"北山","koaza":"","lat":33.779839,"lng":133.588939,"zip":"7813613"},{"town":"坂本","koaza":"","lat":33.771798,"lng":133.55822,"zip":"7813620"},{"town":"寺家","koaza":"","lat":33.753045,"lng":133.568203,"zip":"7813617"},{"town":"下関","koaza":"","lat":33.770283,"lng":133.622624,"zip":"7813610"},{"town":"下津野","koaza":"","lat":33.761621,"lng":133.599243,"zip":"7813605"},{"town":"助藤","koaza":"","lat":33.765382,"lng":133.624489,"zip":"7813609"},{"town":"沢ケ内","koaza":"","lat":33.786797,"lng":133.555239,"zip":"7813622"},{"town":"高角","koaza":"","lat":33.751378,"lng":133.60556,"zip":"7813606"},{"town":"立野","koaza":"","lat":33.774127,"lng":133.553698,"zip":"7813619"},{"town":"七戸","koaza":"","lat":33.804872,"lng":133.562458,"zip":"7813624"},{"town":"古田","koaza":"","lat":33.744432,"lng":133.619911,"zip":"7813607"},{"town":"本山","koaza":"","lat":33.755215,"lng":133.584104,"zip":"7813601"},{"town":"屋所","koaza":"","lat":33.784369,"lng":133.549563,"zip":"7813621"},{"town":"吉野","koaza":"","lat":33.756273,"lng":133.561068,"zip":"7813618"},{"town":"吉延","koaza":"","lat":33.742028,"lng":133.606838,"zip":"7813603"},{"town":"木能津","koaza":"","lat":33.759443,"lng":133.615026,"zip":"7813608"},{"town":"本山","koaza":"新堂","lat":33.75666,"lng":133.579965,"zip":"7813601"}]