[{"town":"吾井郷乙","koaza":"","lat":33.427923,"lng":133.293078,"zip":"7850044"},{"town":"吾井郷甲","koaza":"","lat":33.429749,"lng":133.303712,"zip":"7850047"},{"town":"青木町","koaza":"","lat":33.389974,"lng":133.289985,"zip":"7850004"},{"town":"赤崎町","koaza":"","lat":33.414043,"lng":133.288135,"zip":"7850037"},{"town":"安和","koaza":"","lat":33.361586,"lng":133.251263,"zip":"7850024"},{"town":"池ノ内","koaza":"","lat":33.396923,"lng":133.278579,"zip":"7850021"},{"town":"泉町","koaza":"","lat":33.391809,"lng":133.280526,"zip":"7850017"},{"town":"浦ノ内出見","koaza":"","lat":33.441589,"lng":133.389756,"zip":"7850165"},{"town":"浦ノ内今川内","koaza":"","lat":33.420589,"lng":133.414247,"zip":"7850173"},{"town":"浦ノ内下中山","koaza":"","lat":33.423696,"lng":133.429348,"zip":"7850174"},{"town":"浦ノ内塩間","koaza":"","lat":33.454168,"lng":133.401115,"zip":"7850166"},{"town":"浦ノ内須ノ浦","koaza":"","lat":33.413228,"lng":133.378204,"zip":"7850171"},{"town":"浦ノ内立目摺木","koaza":"","lat":33.437153,"lng":133.380606,"zip":"7850164"},{"town":"浦ノ内西分","koaza":"","lat":33.421772,"lng":133.345132,"zip":"7850161"},{"town":"浦ノ内灰方","koaza":"","lat":33.452611,"lng":133.417974,"zip":"7850167"},{"town":"浦ノ内東分","koaza":"","lat":33.439519,"lng":133.358616,"zip":"7850163"},{"town":"浦ノ内福良","koaza":"","lat":33.412386,"lng":133.399874,"zip":"7850172"},{"town":"大谷","koaza":"","lat":33.375177,"lng":133.327115,"zip":"7850055"},{"town":"多ノ郷乙","koaza":"","lat":33.392859,"lng":133.307686,"zip":"7850054"},{"town":"多ノ郷甲","koaza":"","lat":33.421802,"lng":133.273936,"zip":"7850030"},{"town":"大間西町","koaza":"","lat":33.403318,"lng":133.2866,"zip":"7850033"},{"town":"大間東町","koaza":"","lat":33.40836,"lng":133.287826,"zip":"7850035"},{"town":"大間本町","koaza":"","lat":33.406613,"lng":133.285673,"zip":"7850034"},{"town":"押岡","koaza":"","lat":33.404921,"lng":133.323317,"zip":"7850052"},{"town":"鍛治町","koaza":"","lat":33.391791,"lng":133.289838,"zip":"7850000"},{"town":"上分乙","koaza":"","lat":33.393762,"lng":133.205967,"zip":"7850027"},{"town":"上分甲","koaza":"","lat":33.416399,"lng":133.224399,"zip":"7850026"},{"town":"上分丙","koaza":"","lat":33.415544,"lng":133.247755,"zip":"7850028"},{"town":"桐間西","koaza":"","lat":33.408812,"lng":133.291255,"zip":"7850059"},{"town":"桐間東","koaza":"","lat":33.409932,"lng":133.294956,"zip":"7850057"},{"town":"桐間南","koaza":"","lat":33.407341,"lng":133.295004,"zip":"7850058"},{"town":"久通","koaza":"","lat":33.394412,"lng":133.333527,"zip":"7850053"},{"town":"神田","koaza":"","lat":33.418541,"lng":133.316231,"zip":"7850051"},{"town":"幸町","koaza":"","lat":33.389544,"lng":133.281745,"zip":"7850015"},{"town":"栄町","koaza":"","lat":33.391377,"lng":133.282305,"zip":"7850016"},{"town":"潮田町","koaza":"","lat":33.404486,"lng":133.288237,"zip":"7850032"},{"town":"下郷","koaza":"","lat":33.394503,"lng":133.247092,"zip":"7850025"},{"town":"下分乙","koaza":"","lat":33.384695,"lng":133.262332,"zip":"7850023"},{"town":"下分甲","koaza":"","lat":33.399898,"lng":133.261764,"zip":"7850022"},{"town":"新町一丁目","koaza":"","lat":33.390013,"lng":133.291703,"zip":"7850003"},{"town":"新町二丁目","koaza":"","lat":33.389281,"lng":133.29325,"zip":"7850003"},{"town":"須崎","koaza":"","lat":33.382985,"lng":133.295799,"zip":"7850018"},{"town":"桑田山乙","koaza":"","lat":33.436066,"lng":133.274567,"zip":"7850045"},{"town":"桑田山甲","koaza":"","lat":33.44623,"lng":133.298,"zip":"7850046"},{"town":"土崎町","koaza":"","lat":33.413302,"lng":133.298917,"zip":"7850043"},{"town":"中町一丁目","koaza":"","lat":33.388932,"lng":133.283391,"zip":"7850008"},{"town":"中町二丁目","koaza":"","lat":33.387713,"lng":133.284024,"zip":"7850008"},{"town":"西崎町","koaza":"","lat":33.411993,"lng":133.292394,"zip":"7850041"},{"town":"西糺町","koaza":"","lat":33.393101,"lng":133.284188,"zip":"7850012"},{"town":"西古市町","koaza":"","lat":33.389989,"lng":133.285878,"zip":"7850013"},{"town":"西町一丁目","koaza":"","lat":33.38633,"lng":133.281005,"zip":"7850009"},{"town":"西町二丁目","koaza":"","lat":33.387413,"lng":133.279235,"zip":"7850009"},{"town":"野見","koaza":"","lat":33.366065,"lng":133.31366,"zip":"7850056"},{"town":"浜町一丁目","koaza":"","lat":33.387999,"lng":133.291923,"zip":"7850006"},{"town":"浜町二丁目","koaza":"","lat":33.387692,"lng":133.290174,"zip":"7850006"},{"town":"原町一丁目","koaza":"","lat":33.391823,"lng":133.292264,"zip":"7850001"},{"town":"原町二丁目","koaza":"","lat":33.395367,"lng":133.290936,"zip":"7850001"},{"town":"東糺町","koaza":"","lat":33.39208,"lng":133.286575,"zip":"7850011"},{"town":"東古市町","koaza":"","lat":33.389991,"lng":133.287936,"zip":"7850005"},{"town":"緑町","koaza":"","lat":33.412297,"lng":133.289766,"zip":"7850036"},{"town":"港町","koaza":"","lat":33.3958,"lng":133.292474,"zip":"7850002"},{"town":"南古市町","koaza":"","lat":33.387992,"lng":133.28701,"zip":"7850007"},{"town":"妙見町","koaza":"","lat":33.413432,"lng":133.295457,"zip":"7850042"},{"town":"山手町","koaza":"","lat":33.403052,"lng":133.282213,"zip":"7850031"},{"town":"横町","koaza":"","lat":33.390908,"lng":133.284085,"zip":"7850014"},{"town":"神田","koaza":"下切","lat":33.408705,"lng":133.297024,"zip":"7850051"}]