[{"town":"赤岡町","koaza":"","lat":33.544494,"lng":133.724609,"zip":"7815310"},{"town":"香我美町奥西川乙","koaza":"","lat":33.61928,"lng":133.825085,"zip":"7815200"},{"town":"香我美町上分","koaza":"","lat":33.567739,"lng":133.764605,"zip":"7815451"},{"town":"香我美町岸本","koaza":"","lat":33.542426,"lng":133.738308,"zip":"7815331"},{"town":"香我美町口西川","koaza":"","lat":33.591623,"lng":133.759175,"zip":"7815454"},{"town":"香我美町下分","koaza":"","lat":33.573124,"lng":133.746503,"zip":"7815452"},{"town":"香我美町末清","koaza":"","lat":33.595538,"lng":133.796417,"zip":"7815464"},{"town":"香我美町末延","koaza":"","lat":33.591764,"lng":133.78799,"zip":"7815463"},{"town":"香我美町徳王子","koaza":"","lat":33.554174,"lng":133.742986,"zip":"7815332"},{"town":"香我美町中西川","koaza":"","lat":33.601477,"lng":133.779574,"zip":"7815455"},{"town":"香我美町福万","koaza":"","lat":33.582833,"lng":133.769545,"zip":"7815461"},{"town":"香我美町別役","koaza":"","lat":33.606834,"lng":133.818186,"zip":"7815466"},{"town":"香我美町舞川","koaza":"","lat":33.647405,"lng":133.863636,"zip":"7815469"},{"town":"香我美町正延","koaza":"","lat":33.598788,"lng":133.812252,"zip":"7815465"},{"town":"香我美町撫川","koaza":"","lat":33.625878,"lng":133.858745,"zip":"7815468"},{"town":"香我美町山川","koaza":"","lat":33.58389,"lng":133.779576,"zip":"7815462"},{"town":"香我美町山北","koaza":"","lat":33.582269,"lng":133.742746,"zip":"7815453"},{"town":"野市町兎田","koaza":"","lat":33.574245,"lng":133.719301,"zip":"7815202"},{"town":"野市町うしろ台","koaza":"","lat":33.569157,"lng":133.724074,"zip":"7815200"},{"town":"野市町大谷","koaza":"","lat":33.571221,"lng":133.706515,"zip":"7815233"},{"town":"野市町上岡","koaza":"","lat":33.558736,"lng":133.683075,"zip":"7815234"},{"town":"野市町下井","koaza":"","lat":33.554305,"lng":133.693584,"zip":"7815235"},{"town":"野市町新宮","koaza":"","lat":33.567518,"lng":133.71359,"zip":"7815204"},{"town":"野市町土居","koaza":"","lat":33.556504,"lng":133.7249,"zip":"7815212"},{"town":"野市町中ノ村","koaza":"","lat":33.565624,"lng":133.72781,"zip":"7815211"},{"town":"野市町中山田","koaza":"","lat":33.570118,"lng":133.717309,"zip":"7815203"},{"town":"野市町西佐古","koaza":"","lat":33.59287,"lng":133.702289,"zip":"7815223"},{"town":"野市町西野","koaza":"","lat":33.568431,"lng":133.692797,"zip":"7815232"},{"town":"野市町東佐古","koaza":"","lat":33.588773,"lng":133.714661,"zip":"7815224"},{"town":"野市町東野","koaza":"","lat":33.556745,"lng":133.711995,"zip":"7815213"},{"town":"野市町深渕","koaza":"","lat":33.573666,"lng":133.686253,"zip":"7815231"},{"town":"野市町父養寺","koaza":"","lat":33.583828,"lng":133.693747,"zip":"7815221"},{"town":"野市町母代寺","koaza":"","lat":33.581362,"lng":133.703454,"zip":"7815222"},{"town":"野市町本村","koaza":"","lat":33.57979,"lng":133.72699,"zip":"7815201"},{"town":"野市町みどり野一丁目","koaza":"","lat":33.564871,"lng":133.713646,"zip":"7815206"},{"town":"野市町みどり野二丁目","koaza":"","lat":33.564631,"lng":133.714945,"zip":"7815206"},{"town":"野市町みどり野三丁目","koaza":"","lat":33.564959,"lng":133.716217,"zip":"7815206"},{"town":"野市町みどり野四丁目","koaza":"","lat":33.564778,"lng":133.717394,"zip":"7815206"},{"town":"野市町みどり野東一丁目","koaza":"","lat":33.566087,"lng":133.722586,"zip":"7815205"},{"town":"野市町みどり野東二丁目","koaza":"","lat":33.566437,"lng":133.720478,"zip":"7815205"},{"town":"野市町みどり野東三丁目","koaza":"","lat":33.56719,"lng":133.721884,"zip":"7815205"},{"town":"夜須町出口","koaza":"","lat":33.537848,"lng":133.772478,"zip":"7815604"},{"town":"夜須町上夜須","koaza":"","lat":33.552496,"lng":133.786597,"zip":"7815606"},{"town":"夜須町国光","koaza":"","lat":33.57488,"lng":133.807352,"zip":"7815613"},{"town":"夜須町沢谷","koaza":"","lat":33.597976,"lng":133.849518,"zip":"7815615"},{"town":"夜須町千切","koaza":"","lat":33.533384,"lng":133.758833,"zip":"7815602"},{"town":"夜須町坪井","koaza":"","lat":33.540569,"lng":133.754226,"zip":"7815601"},{"town":"夜須町手結","koaza":"","lat":33.527845,"lng":133.759314,"zip":"7815621"},{"town":"夜須町手結山","koaza":"","lat":33.524376,"lng":133.76638,"zip":"7815622"},{"town":"夜須町十ノ木","koaza":"","lat":33.54379,"lng":133.772165,"zip":"7815605"},{"town":"夜須町仲木屋","koaza":"","lat":33.612024,"lng":133.862124,"zip":"7815616"},{"town":"夜須町西山","koaza":"","lat":33.549312,"lng":133.762219,"zip":"7815603"},{"town":"夜須町羽尾","koaza":"","lat":33.590514,"lng":133.833866,"zip":"7815614"},{"town":"夜須町細川","koaza":"","lat":33.578484,"lng":133.790781,"zip":"7815612"},{"town":"夜須町夜須川","koaza":"","lat":33.564943,"lng":133.789509,"zip":"7815611"},{"town":"吉川町古川","koaza":"","lat":33.544582,"lng":133.712044,"zip":"7815242"},{"town":"吉川町吉原","koaza":"","lat":33.545129,"lng":133.691627,"zip":"7815241"},{"town":"赤岡町","koaza":"松ケ瀬","lat":33.540088,"lng":133.714556,"zip":"7815310"},{"town":"赤岡町","koaza":"栄町","lat":33.541786,"lng":133.715375,"zip":"7815310"},{"town":"赤岡町","koaza":"寿町","lat":33.541993,"lng":133.716234,"zip":"7815310"},{"town":"赤岡町","koaza":"元町","lat":33.542612,"lng":133.718889,"zip":"7815310"},{"town":"赤岡町","koaza":"中町","lat":33.541448,"lng":133.718679,"zip":"7815310"},{"town":"赤岡町","koaza":"日の出","lat":33.540552,"lng":133.719056,"zip":"7815310"},{"town":"赤岡町","koaza":"一本松","lat":33.546062,"lng":133.719076,"zip":"7815310"},{"town":"赤岡町","koaza":"旭町","lat":33.548219,"lng":133.719693,"zip":"7815310"},{"town":"赤岡町","koaza":"幸町","lat":33.541856,"lng":133.719857,"zip":"7815310"},{"town":"赤岡町","koaza":"港町","lat":33.540132,"lng":133.720414,"zip":"7815310"},{"town":"赤岡町","koaza":"北町","lat":33.542893,"lng":133.721264,"zip":"7815310"},{"town":"赤岡町","koaza":"高見","lat":33.547878,"lng":133.722721,"zip":"7815310"},{"town":"赤岡町","koaza":"南町","lat":33.539389,"lng":133.729794,"zip":"7815310"},{"town":"赤岡町","koaza":"須留田","lat":33.549852,"lng":133.723425,"zip":"7815310"},{"town":"赤岡町","koaza":"横町","lat":33.542892,"lng":133.722275,"zip":"7815310"},{"town":"赤岡町","koaza":"弥生","lat":33.540464,"lng":133.723772,"zip":"7815310"},{"town":"赤岡町","koaza":"弁天通","lat":33.542519,"lng":133.725046,"zip":"7815310"},{"town":"赤岡町","koaza":"本町","lat":33.540526,"lng":133.724928,"zip":"7815310"},{"town":"赤岡町","koaza":"別所山","lat":33.545012,"lng":133.725337,"zip":"7815310"},{"town":"赤岡町","koaza":"江見町","lat":33.541167,"lng":133.727753,"zip":"7815310"}]