[{"town":"香北町有川","koaza":"","lat":33.678992,"lng":133.75557,"zip":"7814223"},{"town":"香北町有瀬","koaza":"","lat":33.661519,"lng":133.766936,"zip":"7814224"},{"town":"香北町五百蔵","koaza":"","lat":33.657957,"lng":133.757137,"zip":"7814222"},{"town":"香北町猪野々","koaza":"","lat":33.710895,"lng":133.850675,"zip":"7814247"},{"town":"香北町猪野々柚ノ木","koaza":"","lat":33.714354,"lng":133.83006,"zip":"7820000"},{"town":"香北町岩改","koaza":"","lat":33.621329,"lng":133.766488,"zip":"7814215"},{"town":"香北町梅久保","koaza":"","lat":33.68357,"lng":133.829723,"zip":"7814243"},{"town":"香北町大井平","koaza":"","lat":33.682845,"lng":133.818406,"zip":"7814241"},{"town":"香北町大束","koaza":"","lat":33.69769,"lng":133.820187,"zip":"7814242"},{"town":"香北町小川","koaza":"","lat":33.647979,"lng":133.802519,"zip":"7814206"},{"town":"香北町川ノ内","koaza":"","lat":33.705197,"lng":133.781394,"zip":"7814227"},{"town":"香北町口西川","koaza":"","lat":33.607746,"lng":133.763576,"zip":"7820000"},{"town":"香北町古井","koaza":"","lat":33.678589,"lng":133.774282,"zip":"7820000"},{"town":"香北町河野","koaza":"","lat":33.715091,"lng":133.750664,"zip":"7814226"},{"town":"香北町下野尻","koaza":"","lat":33.64401,"lng":133.771014,"zip":"7814213"},{"town":"香北町白石","koaza":"","lat":33.677359,"lng":133.839452,"zip":"7814203"},{"town":"香北町白川","koaza":"","lat":33.653227,"lng":133.745855,"zip":"7814221"},{"town":"香北町清爪","koaza":"","lat":33.694029,"lng":133.843126,"zip":"7814245"},{"town":"香北町谷相","koaza":"","lat":33.691531,"lng":133.799858,"zip":"7814232"},{"town":"香北町太郎丸","koaza":"","lat":33.642777,"lng":133.763716,"zip":"7814214"},{"town":"香北町永瀬","koaza":"","lat":33.695886,"lng":133.85965,"zip":"7814201"},{"town":"香北町中谷","koaza":"","lat":33.670624,"lng":133.791423,"zip":"7814233"},{"town":"香北町中西川","koaza":"","lat":33.616303,"lng":133.778063,"zip":"7820000"},{"town":"香北町永野","koaza":"","lat":33.670083,"lng":133.81563,"zip":"7814236"},{"town":"香北町西川","koaza":"","lat":33.629053,"lng":133.808361,"zip":"7814208"},{"town":"香北町西峯","koaza":"","lat":33.663011,"lng":133.775078,"zip":"7814225"},{"town":"香北町韮生野","koaza":"","lat":33.643958,"lng":133.791352,"zip":"7814211"},{"town":"香北町根須","koaza":"","lat":33.663324,"lng":133.824437,"zip":"7814204"},{"town":"香北町萩野","koaza":"","lat":33.632371,"lng":133.758412,"zip":"7814216"},{"town":"香北町橋川野","koaza":"","lat":33.63893,"lng":133.747479,"zip":"7814217"},{"town":"香北町日浦込","koaza":"","lat":33.685404,"lng":133.837809,"zip":"7814244"},{"town":"香北町東山","koaza":"","lat":33.709193,"lng":133.802174,"zip":"7820000"},{"town":"香北町日ノ御子","koaza":"","lat":33.664207,"lng":133.781501,"zip":"7814231"},{"town":"香北町日比原","koaza":"","lat":33.702105,"lng":133.840991,"zip":"7814246"},{"town":"香北町美良布","koaza":"","lat":33.647323,"lng":133.77854,"zip":"7814212"},{"town":"香北町朴ノ木","koaza":"","lat":33.660621,"lng":133.798163,"zip":"7814235"},{"town":"香北町横谷","koaza":"","lat":33.673949,"lng":133.78277,"zip":"7814234"},{"town":"香北町吉野","koaza":"","lat":33.653332,"lng":133.810304,"zip":"7814205"},{"town":"香北町蕨野","koaza":"","lat":33.681547,"lng":133.845343,"zip":"7814202"},{"town":"土佐山田町","koaza":"","lat":33.605454,"lng":133.673147,"zip":"7820033"},{"town":"土佐山田町旭町一丁目","koaza":"","lat":33.60309,"lng":133.687779,"zip":"7820033"},{"town":"土佐山田町旭町二丁目","koaza":"","lat":33.60401,"lng":133.688879,"zip":"7820033"},{"town":"土佐山田町旭町三丁目","koaza":"","lat":33.604861,"lng":133.689839,"zip":"7820033"},{"town":"土佐山田町旭町四丁目","koaza":"","lat":33.605444,"lng":133.691169,"zip":"7820033"},{"town":"土佐山田町旭町五丁目","koaza":"","lat":33.606016,"lng":133.692968,"zip":"7820033"},{"town":"土佐山田町有谷","koaza":"","lat":33.650156,"lng":133.725802,"zip":"7820072"},{"town":"土佐山田町神母ノ木","koaza":"","lat":33.617296,"lng":133.715554,"zip":"7820009"},{"town":"土佐山田町入野","koaza":"","lat":33.638799,"lng":133.676422,"zip":"7820059"},{"town":"土佐山田町岩次","koaza":"","lat":33.59043,"lng":133.68358,"zip":"7820021"},{"town":"土佐山田町岩積","koaza":"","lat":33.600595,"lng":133.688294,"zip":"7820017"},{"town":"土佐山田町植","koaza":"","lat":33.619696,"lng":133.683392,"zip":"7820054"},{"town":"土佐山田町大後入","koaza":"","lat":33.655797,"lng":133.71844,"zip":"7820074"},{"town":"土佐山田町大平","koaza":"","lat":33.635902,"lng":133.708404,"zip":"7820078"},{"town":"土佐山田町小田島","koaza":"","lat":33.610467,"lng":133.712037,"zip":"7820014"},{"town":"土佐山田町角茂谷","koaza":"","lat":33.682747,"lng":133.705482,"zip":"7890582"},{"town":"土佐山田町影山","koaza":"","lat":33.614306,"lng":133.733058,"zip":"7820006"},{"town":"土佐山田町樫谷","koaza":"","lat":33.695941,"lng":133.644122,"zip":"7890586"},{"town":"土佐山田町上穴内","koaza":"","lat":33.687533,"lng":133.618667,"zip":"7890587"},{"town":"土佐山田町上改田","koaza":"","lat":33.62134,"lng":133.669399,"zip":"7820056"},{"town":"土佐山田町加茂","koaza":"","lat":33.604914,"lng":133.720803,"zip":"7820012"},{"town":"土佐山田町北滝本","koaza":"","lat":33.665138,"lng":133.655742,"zip":"7890584"},{"town":"土佐山田町京田","koaza":"","lat":33.586377,"lng":133.685724,"zip":"7820022"},{"town":"土佐山田町楠目","koaza":"","lat":33.61389,"lng":133.70133,"zip":"7820051"},{"town":"土佐山田町栄町","koaza":"","lat":33.602201,"lng":133.676871,"zip":"7820039"},{"town":"土佐山田町逆川","koaza":"","lat":33.604129,"lng":133.7454,"zip":"7820005"},{"town":"土佐山田町佐古藪","koaza":"","lat":33.616951,"lng":133.72037,"zip":"7820000"},{"town":"土佐山田町佐竹","koaza":"","lat":33.654039,"lng":133.735154,"zip":"7820071"},{"town":"土佐山田町佐野","koaza":"","lat":33.6286,"lng":133.71188,"zip":"7820077"},{"town":"土佐山田町繁藤","koaza":"","lat":33.686885,"lng":133.673201,"zip":"7890585"},{"town":"土佐山田町下ノ村","koaza":"","lat":33.603261,"lng":133.70755,"zip":"7820015"},{"town":"土佐山田町新改","koaza":"","lat":33.629603,"lng":133.678176,"zip":"7820058"},{"town":"土佐山田町秦山町一丁目","koaza":"","lat":33.607334,"lng":133.682062,"zip":"7820038"},{"town":"土佐山田町秦山町二丁目","koaza":"","lat":33.606007,"lng":133.67883,"zip":"7820038"},{"town":"土佐山田町秦山町三丁目","koaza":"","lat":33.607548,"lng":133.678107,"zip":"7820038"},{"town":"土佐山田町神通寺","koaza":"","lat":33.586593,"lng":133.679837,"zip":"7820024"},{"town":"土佐山田町杉田","koaza":"","lat":33.636064,"lng":133.729301,"zip":"7820001"},{"town":"土佐山田町須江","koaza":"","lat":33.616952,"lng":133.672165,"zip":"7820055"},{"town":"土佐山田町曽我部川","koaza":"","lat":33.652126,"lng":133.672468,"zip":"7820061"},{"town":"土佐山田町大法寺","koaza":"","lat":33.636622,"lng":133.696381,"zip":"7820064"},{"town":"土佐山田町宝町一丁目","koaza":"","lat":33.602345,"lng":133.686339,"zip":"7820034"},{"town":"土佐山田町宝町二丁目","koaza":"","lat":33.602144,"lng":133.684308,"zip":"7820034"},{"town":"土佐山田町宝町三丁目","koaza":"","lat":33.602201,"lng":133.682668,"zip":"7820034"},{"town":"土佐山田町宝町四丁目","koaza":"","lat":33.602178,"lng":133.681596,"zip":"7820034"},{"town":"土佐山田町宝町五丁目","koaza":"","lat":33.602005,"lng":133.68015,"zip":"7820034"},{"town":"土佐山田町テクノパーク","koaza":"","lat":33.623207,"lng":133.732409,"zip":"7820010"},{"town":"土佐山田町戸板島","koaza":"","lat":33.587783,"lng":133.689666,"zip":"7820018"},{"town":"土佐山田町中後入","koaza":"","lat":33.643706,"lng":133.720952,"zip":"7820073"},{"town":"土佐山田町中野","koaza":"","lat":33.595674,"lng":133.678728,"zip":"7820019"},{"town":"土佐山田町西後入","koaza":"","lat":33.648534,"lng":133.710488,"zip":"7820075"},{"town":"土佐山田町西本町一丁目","koaza":"","lat":33.605629,"lng":133.685035,"zip":"7820032"},{"town":"土佐山田町西本町二丁目","koaza":"","lat":33.605369,"lng":133.683677,"zip":"7820032"},{"town":"土佐山田町西本町三丁目","koaza":"","lat":33.605083,"lng":133.682122,"zip":"7820032"},{"town":"土佐山田町西本町四丁目","koaza":"","lat":33.604708,"lng":133.68068,"zip":"7820032"},{"town":"土佐山田町西本町五丁目","koaza":"","lat":33.604281,"lng":133.679123,"zip":"7820032"},{"town":"土佐山田町西又","koaza":"","lat":33.687258,"lng":133.735509,"zip":"7890581"},{"town":"土佐山田町間","koaza":"","lat":33.625573,"lng":133.739752,"zip":"7820004"},{"town":"土佐山田町林田","koaza":"","lat":33.607891,"lng":133.728872,"zip":"7820007"},{"town":"土佐山田町東川","koaza":"","lat":33.654651,"lng":133.70115,"zip":"7820063"},{"town":"土佐山田町東本町一丁目","koaza":"","lat":33.606132,"lng":133.686276,"zip":"7820031"},{"town":"土佐山田町東本町二丁目","koaza":"","lat":33.606481,"lng":133.687554,"zip":"7820031"},{"town":"土佐山田町東本町三丁目","koaza":"","lat":33.606978,"lng":133.688756,"zip":"7820031"},{"town":"土佐山田町東本町四丁目","koaza":"","lat":33.607549,"lng":133.690127,"zip":"7820031"},{"town":"土佐山田町東本町五丁目","koaza":"","lat":33.608199,"lng":133.692036,"zip":"7820031"},{"town":"土佐山田町久次","koaza":"","lat":33.620954,"lng":133.665696,"zip":"7820057"},{"town":"土佐山田町百石町一丁目","koaza":"","lat":33.608358,"lng":133.694367,"zip":"7820035"},{"town":"土佐山田町百石町二丁目","koaza":"","lat":33.608824,"lng":133.698049,"zip":"7820035"},{"town":"土佐山田町平山","koaza":"","lat":33.663487,"lng":133.684735,"zip":"7890583"},{"town":"土佐山田町船谷","koaza":"","lat":33.624516,"lng":133.730518,"zip":"7820002"},{"town":"土佐山田町本村","koaza":"","lat":33.639436,"lng":133.720272,"zip":"7820076"},{"town":"土佐山田町町田","koaza":"","lat":33.59782,"lng":133.707603,"zip":"7820013"},{"town":"土佐山田町松本","koaza":"","lat":33.589944,"lng":133.675231,"zip":"7820025"},{"town":"土佐山田町宮ノ口","koaza":"","lat":33.624246,"lng":133.723217,"zip":"7820003"},{"town":"土佐山田町宮前町","koaza":"","lat":33.608049,"lng":133.685852,"zip":"7820037"},{"town":"土佐山田町山田","koaza":"","lat":33.602043,"lng":133.697872,"zip":"7820016"},{"town":"土佐山田町山田島","koaza":"","lat":33.609502,"lng":133.716666,"zip":"7820011"},{"town":"物部町市宇","koaza":"","lat":33.742532,"lng":133.998707,"zip":"7814643"},{"town":"物部町大栃","koaza":"","lat":33.705918,"lng":133.883224,"zip":"7814401"},{"town":"物部町大西","koaza":"","lat":33.755955,"lng":133.918689,"zip":"7814528"},{"town":"物部町岡ノ内","koaza":"","lat":33.726206,"lng":133.952155,"zip":"7814641"},{"town":"物部町押谷","koaza":"","lat":33.70545,"lng":133.904353,"zip":"7814403"},{"town":"物部町楮佐古","koaza":"","lat":33.725817,"lng":133.858844,"zip":"7814524"},{"town":"物部町神池","koaza":"","lat":33.740317,"lng":133.867632,"zip":"7814523"},{"town":"物部町上岡","koaza":"","lat":33.679314,"lng":133.93842,"zip":"7820000"},{"town":"物部町久保影","koaza":"","lat":33.787229,"lng":133.980002,"zip":"7820000"},{"town":"物部町久保上久保","koaza":"","lat":33.755358,"lng":133.933512,"zip":"7820000"},{"town":"物部町久保高井","koaza":"","lat":33.763801,"lng":133.920748,"zip":"7820000"},{"town":"物部町久保堂ノ岡","koaza":"","lat":33.760608,"lng":133.942447,"zip":"7820000"},{"town":"物部町久保中内","koaza":"","lat":33.780242,"lng":133.954387,"zip":"7820000"},{"town":"物部町久保沼井","koaza":"","lat":33.77046,"lng":133.948308,"zip":"7820000"},{"town":"物部町久保安野尾","koaza":"","lat":33.778619,"lng":133.929906,"zip":"7820000"},{"town":"物部町久保和久保","koaza":"","lat":33.78657,"lng":133.962747,"zip":"7820000"},{"town":"物部町黒代","koaza":"","lat":33.738726,"lng":133.896529,"zip":"7814522"},{"town":"物部町五王堂","koaza":"","lat":33.739369,"lng":133.915584,"zip":"7814526"},{"town":"物部町小浜","koaza":"","lat":33.715142,"lng":133.917129,"zip":"7814404"},{"town":"物部町笹","koaza":"","lat":33.771747,"lng":133.889633,"zip":"7814530"},{"town":"物部町庄谷相","koaza":"","lat":33.658764,"lng":133.834772,"zip":"7814413"},{"town":"物部町仙頭","koaza":"","lat":33.686192,"lng":133.91508,"zip":"7814406"},{"town":"物部町拓","koaza":"","lat":33.665832,"lng":133.848848,"zip":"7814412"},{"town":"物部町頓定","koaza":"","lat":33.671338,"lng":133.868632,"zip":"7814414"},{"town":"物部町中上","koaza":"","lat":33.761991,"lng":133.908063,"zip":"7814529"},{"town":"物部町中谷川","koaza":"","lat":33.6793,"lng":133.853811,"zip":"7814411"},{"town":"物部町中津尾","koaza":"","lat":33.656289,"lng":133.91012,"zip":"7840065"},{"town":"物部町根木屋","koaza":"","lat":33.721168,"lng":133.928356,"zip":"7814405"},{"town":"物部町別役","koaza":"","lat":33.73498,"lng":133.973488,"zip":"7814642"},{"town":"物部町別府","koaza":"","lat":33.762336,"lng":134.026587,"zip":"7814644"},{"town":"物部町舞川","koaza":"","lat":33.658228,"lng":133.889307,"zip":"7814415"},{"town":"物部町南池","koaza":"","lat":33.746426,"lng":133.926031,"zip":"7814527"},{"town":"物部町安丸","koaza":"","lat":33.733049,"lng":133.905292,"zip":"7814521"},{"town":"物部町柳瀬","koaza":"","lat":33.715163,"lng":133.881824,"zip":"7814525"},{"town":"土佐山田町","koaza":"北組西","lat":33.608686,"lng":133.680702,"zip":"7820033"},{"town":"土佐山田町","koaza":"南組","lat":33.598764,"lng":133.683994,"zip":"7820033"},{"town":"土佐山田町","koaza":"前山","lat":33.613875,"lng":133.683142,"zip":"7820033"},{"town":"土佐山田町","koaza":"北本町","lat":33.610769,"lng":133.689119,"zip":"7820033"},{"town":"土佐山田町","koaza":"黒土","lat":33.600145,"lng":133.686357,"zip":"7820033"}]