[{"town":"飯母","koaza":"","lat":33.382026,"lng":132.92719,"zip":"7850611"},{"town":"井高","koaza":"","lat":33.462734,"lng":132.830873,"zip":"7850666"},{"town":"井の谷","koaza":"","lat":33.455415,"lng":132.954152,"zip":"7850602"},{"town":"上成","koaza":"","lat":33.412839,"lng":132.887164,"zip":"7850641"},{"town":"太田戸","koaza":"","lat":33.45511,"lng":132.978597,"zip":"7850603"},{"town":"大野地","koaza":"","lat":33.353808,"lng":132.972142,"zip":"7850626"},{"town":"大向","koaza":"","lat":33.336711,"lng":132.939537,"zip":"7850771"},{"town":"大蔵谷","koaza":"","lat":33.404788,"lng":132.925915,"zip":"7850613"},{"town":"本も谷","koaza":"","lat":33.45968,"lng":132.872444,"zip":"7850652"},{"town":"影野地","koaza":"","lat":33.352174,"lng":132.993634,"zip":"7850627"},{"town":"上折渡","koaza":"","lat":33.380666,"lng":132.982883,"zip":"7850625"},{"town":"上組","koaza":"","lat":33.455132,"lng":132.905074,"zip":"7850654"},{"town":"上西の川","koaza":"","lat":33.380113,"lng":132.86673,"zip":"7850646"},{"town":"神の山","koaza":"","lat":33.450436,"lng":132.857422,"zip":"7850664"},{"town":"上本村","koaza":"","lat":33.430248,"lng":132.966571,"zip":"7850606"},{"town":"家籠戸","koaza":"","lat":33.33655,"lng":132.916448,"zip":"7850776"},{"town":"川井","koaza":"","lat":33.357798,"lng":132.899484,"zip":"7850635"},{"town":"川口","koaza":"","lat":33.377174,"lng":132.912402,"zip":"7850636"},{"town":"川西路","koaza":"","lat":33.397385,"lng":132.913432,"zip":"7850612"},{"town":"神在居","koaza":"","lat":33.393076,"lng":132.954568,"zip":"7850622"},{"town":"久保谷","koaza":"","lat":33.326632,"lng":133.002548,"zip":"7850774"},{"town":"東向","koaza":"","lat":33.427548,"lng":132.896761,"zip":"7850657"},{"town":"後別当","koaza":"","lat":33.415218,"lng":132.932945,"zip":"7850608"},{"town":"坂本川","koaza":"","lat":33.431507,"lng":132.861604,"zip":"7850662"},{"town":"佐渡","koaza":"","lat":33.348638,"lng":132.945892,"zip":"7850631"},{"town":"島中","koaza":"","lat":33.299499,"lng":132.977386,"zip":"7850775"},{"town":"下折渡","koaza":"","lat":33.365759,"lng":132.982448,"zip":"7850624"},{"town":"下組","koaza":"","lat":33.439323,"lng":132.87495,"zip":"7850655"},{"town":"下西の川","koaza":"","lat":33.374969,"lng":132.884874,"zip":"7850647"},{"town":"下本村","koaza":"","lat":33.438055,"lng":132.948652,"zip":"7850605"},{"town":"竹の薮","koaza":"","lat":33.388451,"lng":132.890118,"zip":"7850645"},{"town":"田野々","koaza":"","lat":33.437115,"lng":132.923586,"zip":"7850607"},{"town":"太郎川","koaza":"","lat":33.391175,"lng":132.943528,"zip":"7850621"},{"town":"茶や谷","koaza":"","lat":33.446558,"lng":132.869602,"zip":"7850651"},{"town":"坪野田","koaza":"","lat":33.447249,"lng":132.841546,"zip":"7850665"},{"town":"富永","koaza":"","lat":33.43268,"lng":132.881289,"zip":"7850658"},{"town":"豊原","koaza":"","lat":33.372178,"lng":132.933318,"zip":"7850633"},{"town":"仲間","koaza":"","lat":33.369304,"lng":132.900049,"zip":"7850648"},{"town":"仲久保","koaza":"","lat":33.356599,"lng":132.923238,"zip":"7850634"},{"town":"仲洞","koaza":"","lat":33.37771,"lng":132.956532,"zip":"7850623"},{"town":"永野","koaza":"","lat":33.457632,"lng":132.932629,"zip":"7850601"},{"town":"中の川","koaza":"","lat":33.458587,"lng":132.889574,"zip":"7850653"},{"town":"中平","koaza":"","lat":33.333654,"lng":132.955536,"zip":"7850772"},{"town":"初瀬本村","koaza":"","lat":33.362363,"lng":132.958606,"zip":"7850632"},{"town":"東川","koaza":"","lat":33.441523,"lng":132.887757,"zip":"7850656"},{"town":"広野","koaza":"","lat":33.399056,"lng":132.894664,"zip":"7850644"},{"town":"文丸","koaza":"","lat":33.425895,"lng":132.837726,"zip":"7850663"},{"town":"松谷","koaza":"","lat":33.411985,"lng":132.8502,"zip":"7850642"},{"town":"松原","koaza":"","lat":33.319759,"lng":132.970581,"zip":"7850773"},{"town":"宮野々","koaza":"","lat":33.400699,"lng":132.880904,"zip":"7850643"},{"town":"梼原","koaza":"","lat":33.394677,"lng":132.931113,"zip":"7850600"},{"town":"横貝","koaza":"","lat":33.440046,"lng":132.983969,"zip":"7850604"},{"town":"六丁","koaza":"","lat":33.430145,"lng":132.871687,"zip":"7850600"}]