[{"town":"大野見荒瀬","koaza":"","lat":33.357493,"lng":133.14219,"zip":"7891413"},{"town":"大野見神母野","koaza":"","lat":33.370176,"lng":133.136598,"zip":"7891414"},{"town":"大野見伊勢川","koaza":"","lat":33.322585,"lng":133.133588,"zip":"7891405"},{"town":"大野見伊勢川山","koaza":"","lat":33.308617,"lng":133.14057,"zip":"7891300"},{"town":"大野見大股","koaza":"","lat":33.382292,"lng":133.112067,"zip":"7891418"},{"town":"大野見川奥","koaza":"","lat":33.336374,"lng":133.084861,"zip":"7891412"},{"town":"大野見川奥山","koaza":"","lat":33.342773,"lng":133.075577,"zip":"7891300"},{"town":"大野見下ル川","koaza":"","lat":33.399065,"lng":133.153823,"zip":"7891416"},{"town":"大野見下ル川山","koaza":"","lat":33.385713,"lng":133.170017,"zip":"7891300"},{"town":"大野見久万秋","koaza":"","lat":33.349426,"lng":133.143202,"zip":"7891403"},{"town":"大野見桑ノ又","koaza":"","lat":33.379891,"lng":133.157081,"zip":"7891300"},{"town":"大野見島ノ川","koaza":"","lat":33.367573,"lng":133.081093,"zip":"7891419"},{"town":"大野見島ノ川山","koaza":"","lat":33.368114,"lng":133.061921,"zip":"7891300"},{"town":"大野見高山","koaza":"","lat":33.338805,"lng":133.061822,"zip":"7891300"},{"town":"大野見竹原","koaza":"","lat":33.337463,"lng":133.105636,"zip":"7891409"},{"town":"大野見栂ノ川","koaza":"","lat":33.316465,"lng":133.1216,"zip":"7891410"},{"town":"大野見栂ノ川山","koaza":"","lat":33.306698,"lng":133.12982,"zip":"7891300"},{"town":"大野見寺野","koaza":"","lat":33.379626,"lng":133.130186,"zip":"7891415"},{"town":"大野見野老野","koaza":"","lat":33.32054,"lng":133.095194,"zip":"7891411"},{"town":"大野見長野","koaza":"","lat":33.33928,"lng":133.116582,"zip":"7891408"},{"town":"大野見奈路","koaza":"","lat":33.341964,"lng":133.136542,"zip":"7891404"},{"town":"大野見萩中","koaza":"","lat":33.401325,"lng":133.121774,"zip":"7891417"},{"town":"大野見橋谷","koaza":"","lat":33.348132,"lng":133.15405,"zip":"7891402"},{"town":"大野見東川","koaza":"","lat":33.416367,"lng":133.15932,"zip":"7891300"},{"town":"大野見東川山","koaza":"","lat":33.411931,"lng":133.164277,"zip":"7891300"},{"town":"大野見程落","koaza":"","lat":33.371438,"lng":133.161595,"zip":"7891300"},{"town":"大野見槇野々","koaza":"","lat":33.343167,"lng":133.126215,"zip":"7891406"},{"town":"大野見三ツ又","koaza":"","lat":33.332966,"lng":133.122588,"zip":"7891407"},{"town":"大野見吉野","koaza":"","lat":33.33245,"lng":133.153026,"zip":"7891401"},{"town":"大野見吉野山","koaza":"","lat":33.328008,"lng":133.166284,"zip":"7891300"},{"town":"上ノ加江","koaza":"","lat":33.285296,"lng":133.219121,"zip":"7891302"},{"town":"久礼","koaza":"","lat":33.337198,"lng":133.211529,"zip":"7891301"},{"town":"矢井賀乙","koaza":"","lat":33.253742,"lng":133.237755,"zip":"7891304"},{"town":"矢井賀甲","koaza":"","lat":33.242337,"lng":133.234696,"zip":"7891303"}]