[{"town":"大田川","koaza":"","lat":33.539845,"lng":133.27296,"zip":"7891217"},{"town":"乙","koaza":"","lat":33.50449,"lng":133.279048,"zip":"7891202"},{"town":"加茂","koaza":"","lat":33.515568,"lng":133.322096,"zip":"7891204"},{"town":"川ノ内組","koaza":"","lat":33.453021,"lng":133.273776,"zip":"7891235"},{"town":"黒原","koaza":"","lat":33.545686,"lng":133.285868,"zip":"7891211"},{"town":"甲","koaza":"","lat":33.500736,"lng":133.29757,"zip":"7891201"},{"town":"庄田","koaza":"","lat":33.530041,"lng":133.274964,"zip":"7891216"},{"town":"瑞応","koaza":"","lat":33.535064,"lng":133.286229,"zip":"7891215"},{"town":"中組","koaza":"","lat":33.466467,"lng":133.2894,"zip":"7891233"},{"town":"中野","koaza":"","lat":33.530455,"lng":133.297789,"zip":"7891214"},{"town":"永野","koaza":"","lat":33.484986,"lng":133.311658,"zip":"7891231"},{"town":"西組","koaza":"","lat":33.476808,"lng":133.273246,"zip":"7891234"},{"town":"西山組","koaza":"","lat":33.466071,"lng":133.262363,"zip":"7891222"},{"town":"西山耕","koaza":"","lat":33.473144,"lng":133.246203,"zip":"7891223"},{"town":"東組","koaza":"","lat":33.473582,"lng":133.302626,"zip":"7891232"},{"town":"平野","koaza":"","lat":33.54531,"lng":133.266512,"zip":"7891218"},{"town":"二ツ野","koaza":"","lat":33.543749,"lng":133.303976,"zip":"7891213"},{"town":"古畑耕","koaza":"","lat":33.483798,"lng":133.220535,"zip":"7891224"},{"town":"丙","koaza":"","lat":33.510569,"lng":133.266543,"zip":"7891203"},{"town":"本郷耕","koaza":"","lat":33.495676,"lng":133.248826,"zip":"7891221"},{"town":"峯耕","koaza":"","lat":33.497224,"lng":133.211133,"zip":"7891200"},{"town":"四ツ白","koaza":"","lat":33.545046,"lng":133.315045,"zip":"7891212"}]