[{"town":"相生町","koaza":"","lat":33.564618,"lng":133.545765,"zip":"7800054"},{"town":"青柳町","koaza":"","lat":33.555077,"lng":133.564955,"zip":"7810813"},{"town":"赤石町","koaza":"","lat":33.55728,"lng":133.511038,"zip":"7800936"},{"town":"曙町一丁目","koaza":"","lat":33.550859,"lng":133.491799,"zip":"7808072"},{"town":"曙町二丁目","koaza":"","lat":33.54933,"lng":133.486354,"zip":"7808072"},{"town":"朝倉己","koaza":"","lat":33.533889,"lng":133.488772,"zip":"7808066"},{"town":"朝倉甲","koaza":"","lat":33.540737,"lng":133.498317,"zip":"7808061"},{"town":"朝倉丁","koaza":"","lat":33.546103,"lng":133.479045,"zip":"7808061"},{"town":"朝倉西町一丁目","koaza":"","lat":33.542124,"lng":133.48362,"zip":"7808077"},{"town":"朝倉西町二丁目","koaza":"","lat":33.539358,"lng":133.479177,"zip":"7808077"},{"town":"朝倉東町","koaza":"","lat":33.545524,"lng":133.497872,"zip":"7808076"},{"town":"朝倉丙","koaza":"","lat":33.553165,"lng":133.480227,"zip":"7808063"},{"town":"朝倉戊","koaza":"","lat":33.538002,"lng":133.487811,"zip":"7808065"},{"town":"朝倉本町一丁目","koaza":"","lat":33.548097,"lng":133.491959,"zip":"7808073"},{"town":"朝倉本町二丁目","koaza":"","lat":33.546228,"lng":133.487468,"zip":"7808073"},{"town":"朝倉南町","koaza":"","lat":33.542286,"lng":133.494125,"zip":"7808075"},{"town":"朝倉横町","koaza":"","lat":33.545858,"lng":133.49304,"zip":"7808074"},{"town":"旭駅前町","koaza":"","lat":33.5576,"lng":133.50878,"zip":"7800938"},{"town":"旭上町","koaza":"","lat":33.556801,"lng":133.504378,"zip":"7800943"},{"town":"旭天神町","koaza":"","lat":33.561063,"lng":133.505452,"zip":"7800955"},{"town":"旭町一丁目","koaza":"","lat":33.556541,"lng":133.513653,"zip":"7800935"},{"town":"旭町二丁目","koaza":"","lat":33.555685,"lng":133.510717,"zip":"7800935"},{"town":"旭町三丁目","koaza":"","lat":33.556017,"lng":133.506404,"zip":"7800935"},{"town":"薊野","koaza":"","lat":33.592491,"lng":133.553876,"zip":"7810010"},{"town":"薊野北町一丁目","koaza":"","lat":33.580037,"lng":133.550915,"zip":"7810011"},{"town":"薊野北町二丁目","koaza":"","lat":33.581636,"lng":133.554952,"zip":"7810011"},{"town":"薊野北町三丁目","koaza":"","lat":33.583775,"lng":133.553064,"zip":"7810011"},{"town":"薊野北町四丁目","koaza":"","lat":33.584614,"lng":133.559657,"zip":"7810011"},{"town":"薊野中町","koaza":"","lat":33.580123,"lng":133.559371,"zip":"7810013"},{"town":"薊野西町一丁目","koaza":"","lat":33.576272,"lng":133.549439,"zip":"7810015"},{"town":"薊野西町二丁目","koaza":"","lat":33.575448,"lng":133.554145,"zip":"7810015"},{"town":"薊野西町三丁目","koaza":"","lat":33.577402,"lng":133.553751,"zip":"7810015"},{"town":"薊野東町","koaza":"","lat":33.581964,"lng":133.563298,"zip":"7810012"},{"town":"薊野南町","koaza":"","lat":33.577141,"lng":133.56067,"zip":"7810014"},{"town":"愛宕町一丁目","koaza":"","lat":33.566151,"lng":133.537041,"zip":"7800051"},{"town":"愛宕町二丁目","koaza":"","lat":33.568313,"lng":133.537895,"zip":"7800051"},{"town":"愛宕町三丁目","koaza":"","lat":33.571143,"lng":133.537293,"zip":"7800051"},{"town":"愛宕町四丁目","koaza":"","lat":33.573987,"lng":133.536724,"zip":"7800051"},{"town":"愛宕山","koaza":"","lat":33.57662,"lng":133.537843,"zip":"7800025"},{"town":"愛宕山南町","koaza":"","lat":33.57384,"lng":133.539633,"zip":"7800027"},{"town":"井口町","koaza":"","lat":33.558574,"lng":133.516272,"zip":"7800921"},{"town":"池","koaza":"","lat":33.529069,"lng":133.590469,"zip":"7810111"},{"town":"石立町","koaza":"","lat":33.553175,"lng":133.515303,"zip":"7808038"},{"town":"和泉町","koaza":"","lat":33.571799,"lng":133.541282,"zip":"7800064"},{"town":"伊勢崎町","koaza":"","lat":33.570452,"lng":133.530356,"zip":"7800046"},{"town":"一宮","koaza":"","lat":33.596092,"lng":133.573539,"zip":"7818130"},{"town":"一宮しなね一丁目","koaza":"","lat":33.591802,"lng":133.573704,"zip":"7818131"},{"town":"一宮しなね二丁目","koaza":"","lat":33.592212,"lng":133.577865,"zip":"7818131"},{"town":"一宮徳谷","koaza":"","lat":33.582724,"lng":133.582777,"zip":"7818133"},{"town":"一宮中町一丁目","koaza":"","lat":33.583396,"lng":133.570406,"zip":"7818134"},{"town":"一宮中町二丁目","koaza":"","lat":33.582485,"lng":133.573427,"zip":"7818134"},{"town":"一宮中町三丁目","koaza":"","lat":33.586756,"lng":133.575057,"zip":"7818134"},{"town":"一宮西町一丁目","koaza":"","lat":33.584226,"lng":133.565498,"zip":"7818136"},{"town":"一宮西町二丁目","koaza":"","lat":33.587646,"lng":133.567671,"zip":"7818136"},{"town":"一宮西町三丁目","koaza":"","lat":33.586172,"lng":133.571149,"zip":"7818136"},{"town":"一宮西町四丁目","koaza":"","lat":33.590457,"lng":133.570345,"zip":"7818136"},{"town":"一宮東町一丁目","koaza":"","lat":33.582554,"lng":133.576603,"zip":"7818132"},{"town":"一宮東町二丁目","koaza":"","lat":33.58673,"lng":133.580688,"zip":"7818132"},{"town":"一宮東町三丁目","koaza":"","lat":33.588459,"lng":133.580875,"zip":"7818132"},{"town":"一宮東町四丁目","koaza":"","lat":33.589881,"lng":133.582841,"zip":"7818132"},{"town":"一宮東町五丁目","koaza":"","lat":33.591376,"lng":133.579811,"zip":"7818132"},{"town":"一宮南町一丁目","koaza":"","lat":33.578053,"lng":133.565543,"zip":"7818135"},{"town":"一宮南町二丁目","koaza":"","lat":33.579281,"lng":133.572391,"zip":"7818135"},{"town":"稲荷町","koaza":"","lat":33.555842,"lng":133.560067,"zip":"7810814"},{"town":"入明町","koaza":"","lat":33.566141,"lng":133.531276,"zip":"7800041"},{"town":"岩ヶ淵","koaza":"","lat":33.559599,"lng":133.48679,"zip":"7800000"},{"town":"鵜来巣","koaza":"","lat":33.54113,"lng":133.485668,"zip":"7808083"},{"town":"潮新町一丁目","koaza":"","lat":33.551504,"lng":133.548694,"zip":"7818008"},{"town":"潮新町二丁目","koaza":"","lat":33.549888,"lng":133.551038,"zip":"7818008"},{"town":"宇津野","koaza":"","lat":33.587581,"lng":133.524292,"zip":"7800031"},{"town":"梅ノ辻","koaza":"","lat":33.554567,"lng":133.542866,"zip":"7808011"},{"town":"浦戸","koaza":"","lat":33.496738,"lng":133.569449,"zip":"7810262"},{"town":"永国寺町","koaza":"","lat":33.563696,"lng":133.535326,"zip":"7800844"},{"town":"駅前町","koaza":"","lat":33.564972,"lng":133.543507,"zip":"7800053"},{"town":"越前町一丁目","koaza":"","lat":33.559992,"lng":133.525906,"zip":"7800928"},{"town":"越前町二丁目","koaza":"","lat":33.56236,"lng":133.524074,"zip":"7800928"},{"town":"海老ノ丸","koaza":"","lat":33.563407,"lng":133.566931,"zip":"7810086"},{"town":"円行寺","koaza":"","lat":33.590294,"lng":133.507246,"zip":"7800974"},{"town":"大川筋一丁目","koaza":"","lat":33.564605,"lng":133.539828,"zip":"7800052"},{"town":"大川筋二丁目","koaza":"","lat":33.564786,"lng":133.532,"zip":"7800052"},{"town":"大谷","koaza":"","lat":33.558664,"lng":133.493635,"zip":"7800947"},{"town":"大谷公園町","koaza":"","lat":33.535842,"lng":133.480597,"zip":"7808085"},{"town":"大津乙","koaza":"","lat":33.571055,"lng":133.594053,"zip":"7815103"},{"town":"大津甲","koaza":"","lat":33.575894,"lng":133.612511,"zip":"7815102"},{"town":"追手筋一丁目","koaza":"","lat":33.561843,"lng":133.540023,"zip":"7800842"},{"town":"追手筋二丁目","koaza":"","lat":33.561588,"lng":133.535914,"zip":"7800842"},{"town":"大原町","koaza":"","lat":33.552806,"lng":133.530372,"zip":"7808031"},{"town":"小倉町","koaza":"","lat":33.559853,"lng":133.567573,"zip":"7810801"},{"town":"小津町","koaza":"","lat":33.564826,"lng":133.529032,"zip":"7800915"},{"town":"帯屋町一丁目","koaza":"","lat":33.560597,"lng":133.539783,"zip":"7800841"},{"town":"帯屋町二丁目","koaza":"","lat":33.55997,"lng":133.535951,"zip":"7800841"},{"town":"加賀野井一丁目","koaza":"","lat":33.579509,"lng":133.528351,"zip":"7800032"},{"town":"加賀野井二丁目","koaza":"","lat":33.579451,"lng":133.5254,"zip":"7800032"},{"town":"鏡今井","koaza":"","lat":33.632433,"lng":133.466713,"zip":"7813104"},{"town":"鏡梅ノ木","koaza":"","lat":33.594648,"lng":133.415466,"zip":"7813124"},{"town":"鏡大河内","koaza":"","lat":33.585076,"lng":133.478076,"zip":"7813101"},{"town":"鏡大利","koaza":"","lat":33.611197,"lng":133.487647,"zip":"7813103"},{"town":"鏡柿ノ又","koaza":"","lat":33.645009,"lng":133.411773,"zip":"7813115"},{"town":"鏡葛山","koaza":"","lat":33.597271,"lng":133.432077,"zip":"7813123"},{"town":"鏡狩山","koaza":"","lat":33.63842,"lng":133.451238,"zip":"7813107"},{"town":"鏡川町","koaza":"","lat":33.5537,"lng":133.506586,"zip":"7800933"},{"town":"鏡草峰","koaza":"","lat":33.609254,"lng":133.461134,"zip":"7813105"},{"town":"鏡小浜","koaza":"","lat":33.596968,"lng":133.476988,"zip":"7813102"},{"town":"鏡小山","koaza":"","lat":33.582347,"lng":133.422699,"zip":"7813125"},{"town":"鏡去坂","koaza":"","lat":33.599622,"lng":133.455409,"zip":"7813112"},{"town":"鏡敷ノ山","koaza":"","lat":33.635842,"lng":133.401763,"zip":"7813114"},{"town":"鏡白岩","koaza":"","lat":33.622067,"lng":133.452633,"zip":"7813106"},{"town":"鏡竹奈路","koaza":"","lat":33.62084,"lng":133.426272,"zip":"7813113"},{"town":"鏡増原","koaza":"","lat":33.601105,"lng":133.427798,"zip":"7813122"},{"town":"鏡的渕","koaza":"","lat":33.616004,"lng":133.445157,"zip":"7813111"},{"town":"鏡横矢","koaza":"","lat":33.618565,"lng":133.416101,"zip":"7813121"},{"town":"鏡吉原","koaza":"","lat":33.64879,"lng":133.436003,"zip":"7813108"},{"town":"葛島一丁目","koaza":"","lat":33.558533,"lng":133.571446,"zip":"7818121"},{"town":"葛島二丁目","koaza":"","lat":33.557568,"lng":133.572927,"zip":"7818121"},{"town":"葛島三丁目","koaza":"","lat":33.554293,"lng":133.569497,"zip":"7818121"},{"town":"葛島四丁目","koaza":"","lat":33.55461,"lng":133.573207,"zip":"7818121"},{"town":"上本宮町","koaza":"","lat":33.555748,"lng":133.492486,"zip":"7800946"},{"town":"上町一丁目","koaza":"","lat":33.556576,"lng":133.526211,"zip":"7800901"},{"town":"上町二丁目","koaza":"","lat":33.556376,"lng":133.524051,"zip":"7800901"},{"town":"上町三丁目","koaza":"","lat":33.556365,"lng":133.521907,"zip":"7800901"},{"town":"上町四丁目","koaza":"","lat":33.55625,"lng":133.519755,"zip":"7800901"},{"town":"上町五丁目","koaza":"","lat":33.556377,"lng":133.51779,"zip":"7800901"},{"town":"鴨部","koaza":"","lat":33.546025,"lng":133.504976,"zip":"7808052"},{"town":"鴨部一丁目","koaza":"","lat":33.551956,"lng":133.505503,"zip":"7808052"},{"town":"鴨部二丁目","koaza":"","lat":33.549372,"lng":133.503316,"zip":"7808052"},{"town":"鴨部三丁目","koaza":"","lat":33.547793,"lng":133.498976,"zip":"7808052"},{"town":"鴨部上町","koaza":"","lat":33.550853,"lng":133.498013,"zip":"7808051"},{"town":"鴨部高町","koaza":"","lat":33.551554,"lng":133.496155,"zip":"7808071"},{"town":"唐岩","koaza":"","lat":33.574487,"lng":133.445719,"zip":"7800994"},{"town":"北金田","koaza":"","lat":33.566637,"lng":133.556635,"zip":"7810073"},{"town":"北川添","koaza":"","lat":33.574261,"lng":133.561229,"zip":"7810081"},{"town":"北久保","koaza":"","lat":33.571156,"lng":133.565671,"zip":"7810088"},{"town":"北御座","koaza":"","lat":33.568942,"lng":133.561027,"zip":"7810083"},{"town":"北秦泉寺","koaza":"","lat":33.589355,"lng":133.539995,"zip":"7800022"},{"town":"北新田町","koaza":"","lat":33.552836,"lng":133.5525,"zip":"7818003"},{"town":"北高見町","koaza":"","lat":33.545697,"lng":133.536051,"zip":"7808028"},{"town":"北竹島町","koaza":"","lat":33.544477,"lng":133.540544,"zip":"7808019"},{"town":"北中山","koaza":"","lat":33.539443,"lng":133.53405,"zip":"7808026"},{"town":"北端町","koaza":"","lat":33.560303,"lng":133.509642,"zip":"7800956"},{"town":"北八反町","koaza":"","lat":33.569045,"lng":133.5229,"zip":"7800913"},{"town":"北本町一丁目","koaza":"","lat":33.565946,"lng":133.540572,"zip":"7800056"},{"town":"北本町二丁目","koaza":"","lat":33.566247,"lng":133.545141,"zip":"7800056"},{"town":"北本町三丁目","koaza":"","lat":33.565656,"lng":133.549475,"zip":"7800056"},{"town":"北本町四丁目","koaza":"","lat":33.564789,"lng":133.553195,"zip":"7800056"},{"town":"吸江","koaza":"","lat":33.54733,"lng":133.571933,"zip":"7818126"},{"town":"九反田","koaza":"","lat":33.556703,"lng":133.549005,"zip":"7810832"},{"town":"口細山","koaza":"","lat":33.570347,"lng":133.492207,"zip":"7800963"},{"town":"久礼野","koaza":"","lat":33.615723,"lng":133.569041,"zip":"7800001"},{"town":"介良","koaza":"","lat":33.563878,"lng":133.614357,"zip":"7815105"},{"town":"介良乙","koaza":"","lat":33.55923,"lng":133.60516,"zip":"7815106"},{"town":"介良甲","koaza":"","lat":33.566202,"lng":133.620614,"zip":"7815105"},{"town":"介良丙","koaza":"","lat":33.549605,"lng":133.607645,"zip":"7815107"},{"town":"小石木町","koaza":"","lat":33.548508,"lng":133.529885,"zip":"7808032"},{"town":"弘化台","koaza":"","lat":33.546972,"lng":133.56449,"zip":"7810811"},{"town":"幸崎","koaza":"","lat":33.544395,"lng":133.529279,"zip":"7808033"},{"town":"神田","koaza":"","lat":33.535713,"lng":133.51097,"zip":"7808040"},{"town":"河ノ瀬町","koaza":"","lat":33.549847,"lng":133.522286,"zip":"7808035"},{"town":"江陽町","koaza":"","lat":33.568941,"lng":133.553082,"zip":"7800055"},{"town":"五台山","koaza":"","lat":33.54279,"lng":133.585875,"zip":"7818125"},{"town":"寿町","koaza":"","lat":33.566444,"lng":133.53499,"zip":"7800043"},{"town":"幸町","koaza":"","lat":33.568491,"lng":133.530748,"zip":"7800045"},{"town":"菜園場町","koaza":"","lat":33.559318,"lng":133.548126,"zip":"7800823"},{"town":"堺町","koaza":"","lat":33.558246,"lng":133.541094,"zip":"7800834"},{"town":"栄田町一丁目","koaza":"","lat":33.56759,"lng":133.541399,"zip":"7800061"},{"town":"栄田町二丁目","koaza":"","lat":33.567506,"lng":133.544012,"zip":"7800061"},{"town":"栄田町三丁目","koaza":"","lat":33.56749,"lng":133.546718,"zip":"7800061"},{"town":"相模町","koaza":"","lat":33.569896,"lng":133.534153,"zip":"7800047"},{"town":"桜井町一丁目","koaza":"","lat":33.562041,"lng":133.548929,"zip":"7800821"},{"town":"桜井町二丁目","koaza":"","lat":33.561731,"lng":133.551618,"zip":"7800821"},{"town":"桜馬場","koaza":"","lat":33.562143,"lng":133.526554,"zip":"7800929"},{"town":"佐々木町","koaza":"","lat":33.56213,"lng":133.500996,"zip":"7800954"},{"town":"三ノ丸","koaza":"","lat":33.5632,"lng":133.517645,"zip":"7800923"},{"town":"桟橋通一丁目","koaza":"","lat":33.551636,"lng":133.545536,"zip":"7818010"},{"town":"桟橋通二丁目","koaza":"","lat":33.548815,"lng":133.547203,"zip":"7818010"},{"town":"桟橋通三丁目","koaza":"","lat":33.546863,"lng":133.549116,"zip":"7818010"},{"town":"桟橋通四丁目","koaza":"","lat":33.544193,"lng":133.550794,"zip":"7818010"},{"town":"桟橋通五丁目","koaza":"","lat":33.539263,"lng":133.551006,"zip":"7818010"},{"town":"桟橋通六丁目","koaza":"","lat":33.541021,"lng":133.556673,"zip":"7818010"},{"town":"塩田町","koaza":"","lat":33.572019,"lng":133.545545,"zip":"7800065"},{"town":"潮見台一丁目","koaza":"","lat":33.560729,"lng":133.621594,"zip":"7815108"},{"town":"潮見台二丁目","koaza":"","lat":33.559588,"lng":133.6179,"zip":"7815108"},{"town":"潮見台三丁目","koaza":"","lat":33.55565,"lng":133.618009,"zip":"7815108"},{"town":"塩屋崎町一丁目","koaza":"","lat":33.551601,"lng":133.541863,"zip":"7808014"},{"town":"塩屋崎町二丁目","koaza":"","lat":33.548905,"lng":133.539318,"zip":"7808014"},{"town":"重倉","koaza":"","lat":33.61432,"lng":133.553388,"zip":"7800002"},{"town":"東雲町","koaza":"","lat":33.559402,"lng":133.562095,"zip":"7810805"},{"town":"柴巻","koaza":"","lat":33.596084,"lng":133.492577,"zip":"7800975"},{"town":"下島町","koaza":"","lat":33.554626,"lng":133.506206,"zip":"7800934"},{"town":"城北町","koaza":"","lat":33.565197,"lng":133.526274,"zip":"7800916"},{"town":"城山町","koaza":"","lat":33.5501,"lng":133.513618,"zip":"7808037"},{"town":"上里","koaza":"","lat":33.597806,"lng":133.443638,"zip":"7800996"},{"town":"昭和町","koaza":"","lat":33.570089,"lng":133.541117,"zip":"7800063"},{"town":"城見町","koaza":"","lat":33.559078,"lng":133.550798,"zip":"7800824"},{"town":"新田町","koaza":"","lat":33.55121,"lng":133.556693,"zip":"7818004"},{"town":"新本町一丁目","koaza":"","lat":33.56883,"lng":133.540833,"zip":"7800062"},{"town":"新本町二丁目","koaza":"","lat":33.569229,"lng":133.546168,"zip":"7800062"},{"town":"新屋敷一丁目","koaza":"","lat":33.564822,"lng":133.523545,"zip":"7800911"},{"town":"新屋敷二丁目","koaza":"","lat":33.564341,"lng":133.520298,"zip":"7800911"},{"town":"水源町","koaza":"","lat":33.556874,"lng":133.502873,"zip":"7800944"},{"town":"水通町","koaza":"","lat":33.55656,"lng":133.516741,"zip":"7800903"},{"town":"杉井流","koaza":"","lat":33.569113,"lng":133.5562,"zip":"7800072"},{"town":"瀬戸","koaza":"","lat":33.504904,"lng":133.544468,"zip":"7810250"},{"town":"瀬戸一丁目","koaza":"","lat":33.513077,"lng":133.545332,"zip":"7810250"},{"town":"瀬戸二丁目","koaza":"","lat":33.506386,"lng":133.545676,"zip":"7810250"},{"town":"瀬戸西町一丁目","koaza":"","lat":33.515383,"lng":133.542071,"zip":"7810251"},{"town":"瀬戸西町二丁目","koaza":"","lat":33.513186,"lng":133.543339,"zip":"7810251"},{"town":"瀬戸西町三丁目","koaza":"","lat":33.510446,"lng":133.542269,"zip":"7810251"},{"town":"瀬戸東町一丁目","koaza":"","lat":33.515577,"lng":133.547748,"zip":"7810252"},{"town":"瀬戸東町二丁目","koaza":"","lat":33.51285,"lng":133.548078,"zip":"7810252"},{"town":"瀬戸東町三丁目","koaza":"","lat":33.510089,"lng":133.547805,"zip":"7810252"},{"town":"瀬戸南町一丁目","koaza":"","lat":33.507024,"lng":133.541221,"zip":"7810253"},{"town":"瀬戸南町二丁目","koaza":"","lat":33.506144,"lng":133.543071,"zip":"7810253"},{"town":"宗安寺","koaza":"","lat":33.571339,"lng":133.472299,"zip":"7800991"},{"town":"大膳町","koaza":"","lat":33.560144,"lng":133.523482,"zip":"7800926"},{"town":"鷹匠町一丁目","koaza":"","lat":33.555924,"lng":133.534506,"zip":"7800862"},{"town":"鷹匠町二丁目","koaza":"","lat":33.555459,"lng":133.5315,"zip":"7800862"},{"town":"高須","koaza":"","lat":33.563995,"lng":133.575233,"zip":"7818123"},{"town":"高須一丁目","koaza":"","lat":33.558341,"lng":133.584623,"zip":"7818123"},{"town":"高須二丁目","koaza":"","lat":33.560521,"lng":133.586844,"zip":"7818123"},{"town":"高須三丁目","koaza":"","lat":33.562249,"lng":133.590292,"zip":"7818123"},{"town":"高須大島","koaza":"","lat":33.552893,"lng":133.58264,"zip":"7818111"},{"town":"高須大谷","koaza":"","lat":33.552339,"lng":133.577461,"zip":"7818112"},{"town":"高須新木","koaza":"","lat":33.56302,"lng":133.586804,"zip":"7818103"},{"town":"高須新町一丁目","koaza":"","lat":33.557939,"lng":133.576444,"zip":"7818122"},{"town":"高須新町二丁目","koaza":"","lat":33.558003,"lng":133.579175,"zip":"7818122"},{"town":"高須新町三丁目","koaza":"","lat":33.554975,"lng":133.576488,"zip":"7818122"},{"town":"高須新町四丁目","koaza":"","lat":33.555455,"lng":133.579061,"zip":"7818122"},{"town":"高須砂地","koaza":"","lat":33.567921,"lng":133.572437,"zip":"7818101"},{"town":"高須絶海","koaza":"","lat":33.551126,"lng":133.573146,"zip":"7818113"},{"town":"高須西町","koaza":"","lat":33.551433,"lng":133.569379,"zip":"7818114"},{"town":"高須東町","koaza":"","lat":33.558129,"lng":133.593183,"zip":"7818105"},{"town":"高須本町","koaza":"","lat":33.560243,"lng":133.580511,"zip":"7818102"},{"town":"高埆","koaza":"","lat":33.573242,"lng":133.556097,"zip":"7800000"},{"town":"高見町","koaza":"","lat":33.541442,"lng":133.536356,"zip":"7808027"},{"town":"宝町","koaza":"","lat":33.568778,"lng":133.527758,"zip":"7800914"},{"town":"竹島町","koaza":"","lat":33.541729,"lng":133.543771,"zip":"7808018"},{"town":"種崎","koaza":"","lat":33.506065,"lng":133.569273,"zip":"7810113"},{"town":"玉水町","koaza":"","lat":33.555659,"lng":133.515383,"zip":"7800931"},{"town":"知寄町一丁目","koaza":"","lat":33.558684,"lng":133.55674,"zip":"7810806"},{"town":"知寄町二丁目","koaza":"","lat":33.558203,"lng":133.56015,"zip":"7810806"},{"town":"知寄町三丁目","koaza":"","lat":33.557228,"lng":133.565785,"zip":"7810806"},{"town":"塚ノ原","koaza":"","lat":33.562596,"lng":133.495352,"zip":"7800952"},{"town":"天神町","koaza":"","lat":33.554312,"lng":133.538629,"zip":"7808012"},{"town":"土居町","koaza":"","lat":33.554791,"lng":133.545259,"zip":"7818001"},{"town":"唐人町","koaza":"","lat":33.556056,"lng":133.539068,"zip":"7800864"},{"town":"十津一丁目","koaza":"","lat":33.528627,"lng":133.570117,"zip":"7810114"},{"town":"十津二丁目","koaza":"","lat":33.524462,"lng":133.570792,"zip":"7810114"},{"town":"十津三丁目","koaza":"","lat":33.525109,"lng":133.572996,"zip":"7810114"},{"town":"十津四丁目","koaza":"","lat":33.528408,"lng":133.576078,"zip":"7810114"},{"town":"十津五丁目","koaza":"","lat":33.524934,"lng":133.577789,"zip":"7810114"},{"town":"十津六丁目","koaza":"","lat":33.522677,"lng":133.578861,"zip":"7810114"},{"town":"通町","koaza":"","lat":33.555916,"lng":133.516926,"zip":"7800904"},{"town":"土佐山","koaza":"","lat":33.627444,"lng":133.535829,"zip":"7813201"},{"town":"土佐山梶谷","koaza":"","lat":33.647614,"lng":133.54182,"zip":"7813212"},{"town":"土佐山桑尾","koaza":"","lat":33.640759,"lng":133.508621,"zip":"7813221"},{"town":"土佐山菖蒲","koaza":"","lat":33.64549,"lng":133.570849,"zip":"7813214"},{"town":"土佐山高川","koaza":"","lat":33.659642,"lng":133.519812,"zip":"7813211"},{"town":"土佐山都網","koaza":"","lat":33.613489,"lng":133.52236,"zip":"7813202"},{"town":"土佐山中切","koaza":"","lat":33.646391,"lng":133.478938,"zip":"7813223"},{"town":"土佐山西川","koaza":"","lat":33.648733,"lng":133.554916,"zip":"7813213"},{"town":"土佐山東川","koaza":"","lat":33.647779,"lng":133.492401,"zip":"7813222"},{"town":"土佐山弘瀬","koaza":"","lat":33.616471,"lng":133.499769,"zip":"7813203"},{"town":"鳥越","koaza":"","lat":33.562022,"lng":133.489893,"zip":"7800949"},{"town":"長尾山町","koaza":"","lat":33.559107,"lng":133.499765,"zip":"7800953"},{"town":"中久万","koaza":"","lat":33.572575,"lng":133.525184,"zip":"7800983"},{"town":"中秦泉寺","koaza":"","lat":33.587752,"lng":133.531687,"zip":"7800021"},{"town":"中水道","koaza":"","lat":33.568295,"lng":133.534386,"zip":"7800044"},{"town":"中須賀町","koaza":"","lat":33.558453,"lng":133.511578,"zip":"7800937"},{"town":"仲田町","koaza":"","lat":33.548584,"lng":133.553898,"zip":"7818007"},{"town":"中の島","koaza":"","lat":33.553925,"lng":133.5567,"zip":"7810831"},{"town":"長浜","koaza":"","lat":33.502789,"lng":133.549249,"zip":"7810270"},{"town":"長浜蒔絵台一丁目","koaza":"","lat":33.515535,"lng":133.526406,"zip":"7810245"},{"town":"長浜蒔絵台二丁目","koaza":"","lat":33.512855,"lng":133.52636,"zip":"7810245"},{"town":"長浜宮田","koaza":"","lat":33.503702,"lng":133.530323,"zip":"7810271"},{"town":"中宝永町","koaza":"","lat":33.558933,"lng":133.553646,"zip":"7800817"},{"town":"中万々","koaza":"","lat":33.570244,"lng":133.516116,"zip":"7800972"},{"town":"七ツ淵","koaza":"","lat":33.606577,"lng":133.539906,"zip":"7800003"},{"town":"行川","koaza":"","lat":33.583335,"lng":133.461694,"zip":"7800992"},{"town":"縄手町","koaza":"","lat":33.553992,"lng":133.511255,"zip":"7800932"},{"town":"仁井田","koaza":"","lat":33.517903,"lng":133.569255,"zip":"7810112"},{"town":"西久万","koaza":"","lat":33.576912,"lng":133.520946,"zip":"7800984"},{"town":"西秦泉寺","koaza":"","lat":33.578366,"lng":133.532107,"zip":"7800033"},{"town":"西塚ノ原","koaza":"","lat":33.564476,"lng":133.490574,"zip":"7800951"},{"town":"西町","koaza":"","lat":33.559346,"lng":133.520961,"zip":"7800925"},{"town":"廿代町","koaza":"","lat":33.56328,"lng":133.539891,"zip":"7800843"},{"town":"布師田","koaza":"","lat":33.581567,"lng":133.597397,"zip":"7815101"},{"town":"農人町","koaza":"","lat":33.557723,"lng":133.55094,"zip":"7800825"},{"town":"萩町一丁目","koaza":"","lat":33.546509,"lng":133.555006,"zip":"7818006"},{"town":"萩町二丁目","koaza":"","lat":33.544266,"lng":133.556932,"zip":"7818006"},{"town":"秦南町一丁目","koaza":"","lat":33.5755,"lng":133.543562,"zip":"7800026"},{"town":"秦南町二丁目","koaza":"","lat":33.575873,"lng":133.546829,"zip":"7800026"},{"town":"八反町一丁目","koaza":"","lat":33.568169,"lng":133.525556,"zip":"7800912"},{"town":"八反町二丁目","koaza":"","lat":33.567438,"lng":133.522844,"zip":"7800912"},{"town":"孕西町","koaza":"","lat":33.533927,"lng":133.546983,"zip":"7808022"},{"town":"孕東町","koaza":"","lat":33.534251,"lng":133.556645,"zip":"7808021"},{"town":"針木北一丁目","koaza":"","lat":33.54043,"lng":133.472718,"zip":"7808087"},{"town":"針木北二丁目","koaza":"","lat":33.539818,"lng":133.467535,"zip":"7808087"},{"town":"針木西","koaza":"","lat":33.529871,"lng":133.463228,"zip":"7808090"},{"town":"針木東町","koaza":"","lat":33.533325,"lng":133.476854,"zip":"7808086"},{"town":"針木本町","koaza":"","lat":33.535169,"lng":133.472398,"zip":"7808088"},{"town":"針木南","koaza":"","lat":33.529124,"lng":133.471567,"zip":"7808089"},{"town":"針原","koaza":"","lat":33.596468,"lng":133.464407,"zip":"7800993"},{"town":"はりまや町一丁目","koaza":"","lat":33.559985,"lng":133.544289,"zip":"7800822"},{"town":"はりまや町二丁目","koaza":"","lat":33.561326,"lng":133.544928,"zip":"7800822"},{"town":"はりまや町三丁目","koaza":"","lat":33.562962,"lng":133.544959,"zip":"7800822"},{"town":"春野町秋山","koaza":"","lat":33.487637,"lng":133.497309,"zip":"7810321"},{"town":"春野町内ノ谷","koaza":"","lat":33.513142,"lng":133.520918,"zip":"7810313"},{"town":"春野町甲殿","koaza":"","lat":33.477917,"lng":133.511546,"zip":"7810322"},{"town":"春野町西畑","koaza":"","lat":33.473137,"lng":133.472399,"zip":"7810324"},{"town":"春野町西分","koaza":"","lat":33.5102,"lng":133.49549,"zip":"7810304"},{"town":"春野町西諸木","koaza":"","lat":33.491047,"lng":133.508968,"zip":"7810316"},{"town":"春野町仁ノ","koaza":"","lat":33.471995,"lng":133.49241,"zip":"7810323"},{"town":"春野町東諸木","koaza":"","lat":33.489459,"lng":133.524139,"zip":"7810315"},{"town":"春野町弘岡上","koaza":"","lat":33.508278,"lng":133.448404,"zip":"7810301"},{"town":"春野町弘岡下","koaza":"","lat":33.510117,"lng":133.479028,"zip":"7810303"},{"town":"春野町弘岡中","koaza":"","lat":33.510048,"lng":133.46481,"zip":"7810302"},{"town":"春野町平和","koaza":"","lat":33.502144,"lng":133.518427,"zip":"7810312"},{"town":"春野町南ケ丘一丁目","koaza":"","lat":33.515226,"lng":133.51982,"zip":"7810314"},{"town":"春野町南ケ丘二丁目","koaza":"","lat":33.515765,"lng":133.517769,"zip":"7810314"},{"town":"春野町南ケ丘三丁目","koaza":"","lat":33.515104,"lng":133.516918,"zip":"7810314"},{"town":"春野町南ケ丘四丁目","koaza":"","lat":33.518612,"lng":133.514739,"zip":"7810314"},{"town":"春野町南ケ丘五丁目","koaza":"","lat":33.518272,"lng":133.517039,"zip":"7810314"},{"town":"春野町南ケ丘六丁目","koaza":"","lat":33.518342,"lng":133.519857,"zip":"7810314"},{"town":"春野町南ケ丘七丁目","koaza":"","lat":33.518687,"lng":133.522406,"zip":"7810314"},{"town":"春野町南ケ丘八丁目","koaza":"","lat":33.520458,"lng":133.518838,"zip":"7810314"},{"town":"春野町南ケ丘九丁目","koaza":"","lat":33.521245,"lng":133.521407,"zip":"7810314"},{"town":"春野町森山","koaza":"","lat":33.489002,"lng":133.472344,"zip":"7810325"},{"town":"春野町芳原","koaza":"","lat":33.511571,"lng":133.509728,"zip":"7810311"},{"town":"東石立町","koaza":"","lat":33.552744,"lng":133.522602,"zip":"7808039"},{"town":"東久万","koaza":"","lat":33.575774,"lng":133.529063,"zip":"7800982"},{"town":"東城山町","koaza":"","lat":33.549214,"lng":133.518403,"zip":"7808036"},{"town":"東秦泉寺","koaza":"","lat":33.58638,"lng":133.547357,"zip":"7800023"},{"town":"尾立","koaza":"","lat":33.573211,"lng":133.484954,"zip":"7800962"},{"town":"比島町一丁目","koaza":"","lat":33.568086,"lng":133.54974,"zip":"7800066"},{"town":"比島町二丁目","koaza":"","lat":33.571574,"lng":133.551971,"zip":"7800066"},{"town":"比島町三丁目","koaza":"","lat":33.571186,"lng":133.548479,"zip":"7800066"},{"town":"比島町四丁目","koaza":"","lat":33.57323,"lng":133.549527,"zip":"7800066"},{"town":"筆山町","koaza":"","lat":33.551609,"lng":133.536537,"zip":"7808013"},{"town":"一ツ橋町一丁目","koaza":"","lat":33.573783,"lng":133.531568,"zip":"7800981"},{"town":"一ツ橋町二丁目","koaza":"","lat":33.573238,"lng":133.52923,"zip":"7800981"},{"town":"日の出町","koaza":"","lat":33.560131,"lng":133.557611,"zip":"7810804"},{"town":"百石町一丁目","koaza":"","lat":33.551063,"lng":133.543638,"zip":"7808015"},{"town":"百石町二丁目","koaza":"","lat":33.547741,"lng":133.543115,"zip":"7808015"},{"town":"百石町三丁目","koaza":"","lat":33.54527,"lng":133.54659,"zip":"7808015"},{"town":"百石町四丁目","koaza":"","lat":33.543984,"lng":133.545041,"zip":"7808015"},{"town":"深谷町","koaza":"","lat":33.533172,"lng":133.534854,"zip":"7808024"},{"town":"福井扇町","koaza":"","lat":33.567953,"lng":133.510764,"zip":"7800966"},{"town":"福井町","koaza":"","lat":33.570701,"lng":133.502949,"zip":"7800965"},{"town":"福井東町","koaza":"","lat":33.564129,"lng":133.51353,"zip":"7800967"},{"town":"札場","koaza":"","lat":33.563816,"lng":133.561704,"zip":"7810085"},{"town":"二葉町","koaza":"","lat":33.556435,"lng":133.556204,"zip":"7810815"},{"town":"平和町","koaza":"","lat":33.561307,"lng":133.515093,"zip":"7800922"},{"town":"宝永町","koaza":"","lat":33.561384,"lng":133.554013,"zip":"7800818"},{"town":"洞ヶ島町","koaza":"","lat":33.566439,"lng":133.533263,"zip":"7800000"},{"town":"本宮町","koaza":"","lat":33.556156,"lng":133.499572,"zip":"7800945"},{"town":"本丁筋","koaza":"","lat":33.557313,"lng":133.51623,"zip":"7800902"},{"town":"本町一丁目","koaza":"","lat":33.558991,"lng":133.539191,"zip":"7800870"},{"town":"本町二丁目","koaza":"","lat":33.558576,"lng":133.537483,"zip":"7800870"},{"town":"本町三丁目","koaza":"","lat":33.558124,"lng":133.535501,"zip":"7800870"},{"town":"本町四丁目","koaza":"","lat":33.557942,"lng":133.533329,"zip":"7800870"},{"town":"本町五丁目","koaza":"","lat":33.55792,"lng":133.530808,"zip":"7800870"},{"town":"前里","koaza":"","lat":33.578534,"lng":133.540315,"zip":"7800024"},{"town":"槙山町","koaza":"","lat":33.537656,"lng":133.484459,"zip":"7800000"},{"town":"升形","koaza":"","lat":33.55691,"lng":133.528406,"zip":"7800861"},{"town":"万々","koaza":"","lat":33.575541,"lng":133.512763,"zip":"7800973"},{"town":"丸池町","koaza":"","lat":33.560801,"lng":133.563203,"zip":"7810802"},{"town":"丸ノ内一丁目","koaza":"","lat":33.560815,"lng":133.530759,"zip":"7800850"},{"town":"丸ノ内二丁目","koaza":"","lat":33.563419,"lng":133.531779,"zip":"7800850"},{"town":"三園町","koaza":"","lat":33.574439,"lng":133.533806,"zip":"7800034"},{"town":"三谷","koaza":"","lat":33.598968,"lng":133.526175,"zip":"7800004"},{"town":"みづき一丁目","koaza":"","lat":33.581301,"lng":133.516689,"zip":"7800976"},{"town":"みづき二丁目","koaza":"","lat":33.580848,"lng":133.521323,"zip":"7800976"},{"town":"みづき三丁目","koaza":"","lat":33.583424,"lng":133.518242,"zip":"7800976"},{"town":"みづき山","koaza":"","lat":33.588775,"lng":133.518572,"zip":"7800977"},{"town":"南金田","koaza":"","lat":33.564093,"lng":133.557024,"zip":"7810074"},{"town":"南川添","koaza":"","lat":33.571539,"lng":133.560831,"zip":"7810082"},{"town":"南久保","koaza":"","lat":33.566482,"lng":133.566644,"zip":"7810087"},{"town":"南久万","koaza":"","lat":33.57166,"lng":133.520945,"zip":"7800985"},{"town":"南河ノ瀬町","koaza":"","lat":33.546918,"lng":133.522344,"zip":"7808034"},{"town":"南御座","koaza":"","lat":33.566493,"lng":133.561365,"zip":"7810084"},{"town":"南新田町","koaza":"","lat":33.548459,"lng":133.557966,"zip":"7818005"},{"town":"南竹島町","koaza":"","lat":33.539036,"lng":133.546469,"zip":"7808017"},{"town":"南中山","koaza":"","lat":33.536061,"lng":133.530411,"zip":"7808025"},{"town":"南ノ丸町","koaza":"","lat":33.541769,"lng":133.548166,"zip":"7818016"},{"town":"南はりまや町一丁目","koaza":"","lat":33.558358,"lng":133.543357,"zip":"7800833"},{"town":"南はりまや町二丁目","koaza":"","lat":33.558037,"lng":133.545623,"zip":"7800833"},{"town":"南宝永町","koaza":"","lat":33.556951,"lng":133.553352,"zip":"7800816"},{"town":"南万々","koaza":"","lat":33.566992,"lng":133.518526,"zip":"7800971"},{"town":"南元町","koaza":"","lat":33.556849,"lng":133.507103,"zip":"7800942"},{"town":"御畳瀬","koaza":"","lat":33.505485,"lng":133.556462,"zip":"7810261"},{"town":"宮前町","koaza":"","lat":33.560169,"lng":133.517576,"zip":"7800924"},{"town":"元町","koaza":"","lat":33.557926,"lng":133.506968,"zip":"7800941"},{"town":"屋頭","koaza":"","lat":33.552696,"lng":133.591389,"zip":"7818124"},{"town":"役知町","koaza":"","lat":33.554121,"lng":133.548543,"zip":"7818002"},{"town":"山手町","koaza":"","lat":33.561345,"lng":133.513473,"zip":"7800957"},{"town":"山ノ端町","koaza":"","lat":33.561415,"lng":133.519495,"zip":"7800927"},{"town":"弥生町","koaza":"","lat":33.561623,"lng":133.557753,"zip":"7810803"},{"town":"横内","koaza":"","lat":33.56555,"lng":133.498969,"zip":"7800964"},{"town":"横浜","koaza":"","lat":33.52504,"lng":133.538481,"zip":"7810240"},{"town":"横浜新町一丁目","koaza":"","lat":33.521866,"lng":133.534235,"zip":"7810241"},{"town":"横浜新町二丁目","koaza":"","lat":33.520033,"lng":133.532356,"zip":"7810241"},{"town":"横浜新町三丁目","koaza":"","lat":33.516193,"lng":133.533041,"zip":"7810241"},{"town":"横浜新町四丁目","koaza":"","lat":33.517435,"lng":133.536295,"zip":"7810241"},{"town":"横浜新町五丁目","koaza":"","lat":33.515586,"lng":133.538041,"zip":"7810241"},{"town":"横浜西町","koaza":"","lat":33.517896,"lng":133.54214,"zip":"7810242"},{"town":"横浜東町","koaza":"","lat":33.520935,"lng":133.552663,"zip":"7810243"},{"town":"横浜南町","koaza":"","lat":33.512207,"lng":133.539239,"zip":"7810244"},{"town":"吉田町","koaza":"","lat":33.571853,"lng":133.533777,"zip":"7800048"},{"town":"与力町","koaza":"","lat":33.557064,"lng":133.538632,"zip":"7800863"},{"town":"領家","koaza":"","lat":33.583566,"lng":133.44151,"zip":"7800995"},{"town":"蓮台","koaza":"","lat":33.584919,"lng":133.491943,"zip":"7800961"},{"town":"六泉寺町","koaza":"","lat":33.53849,"lng":133.542275,"zip":"7808023"},{"town":"若草町","koaza":"","lat":33.543658,"lng":133.488088,"zip":"7808081"},{"town":"若草南町","koaza":"","lat":33.541323,"lng":133.489624,"zip":"7808082"},{"town":"若松町","koaza":"","lat":33.553425,"lng":133.561824,"zip":"7810812"},{"town":"朝倉乙","koaza":"","lat":33.546855,"lng":133.484674,"zip":"7808062"},{"town":"仁井田","koaza":"朝日ヶ丘","lat":33.520292,"lng":133.570955,"zip":"7810112"}]