[{"town":"相谷町","koaza":"","lat":34.33191,"lng":135.665295,"zip":"6370074"},{"town":"居傳町","koaza":"","lat":34.386914,"lng":135.714364,"zip":"6370000"},{"town":"犬飼町","koaza":"","lat":34.340075,"lng":135.676885,"zip":"6370072"},{"town":"今井一丁目","koaza":"","lat":34.355693,"lng":135.702608,"zip":"6370004"},{"town":"今井二丁目","koaza":"","lat":34.353671,"lng":135.703452,"zip":"6370004"},{"town":"今井三丁目","koaza":"","lat":34.357174,"lng":135.706557,"zip":"6370004"},{"town":"今井四丁目","koaza":"","lat":34.354461,"lng":135.708138,"zip":"6370004"},{"town":"今井五丁目","koaza":"","lat":34.360797,"lng":135.714026,"zip":"6370004"},{"town":"今井町","koaza":"","lat":34.3654,"lng":135.707523,"zip":"6370004"},{"town":"宇野町","koaza":"","lat":34.365845,"lng":135.72158,"zip":"6370003"},{"town":"大澤町","koaza":"","lat":34.372169,"lng":135.661066,"zip":"6370000"},{"town":"大津町","koaza":"","lat":34.329459,"lng":135.672904,"zip":"6370060"},{"town":"大塔町宇井","koaza":"","lat":34.15161,"lng":135.747401,"zip":"6370405"},{"town":"大塔町小代","koaza":"","lat":34.191456,"lng":135.742922,"zip":"6370416"},{"town":"大塔町阪本","koaza":"","lat":34.213306,"lng":135.724901,"zip":"6370417"},{"town":"大塔町猿谷","koaza":"","lat":34.173815,"lng":135.729183,"zip":"6370414"},{"town":"大塔町篠原","koaza":"","lat":34.166766,"lng":135.851715,"zip":"6370401"},{"town":"大塔町清水","koaza":"","lat":34.120483,"lng":135.71519,"zip":"6370406"},{"town":"大塔町簾","koaza":"","lat":34.222413,"lng":135.744133,"zip":"6370419"},{"town":"大塔町惣谷","koaza":"","lat":34.152106,"lng":135.804282,"zip":"6370402"},{"town":"大塔町辻堂","koaza":"","lat":34.17312,"lng":135.766026,"zip":"6370408"},{"town":"大塔町堂平","koaza":"","lat":34.170265,"lng":135.739041,"zip":"6370411"},{"town":"大塔町唐笠","koaza":"","lat":34.186744,"lng":135.754144,"zip":"6370000"},{"town":"大塔町閉君","koaza":"","lat":34.158691,"lng":135.75914,"zip":"6370407"},{"town":"大塔町殿野","koaza":"","lat":34.176206,"lng":135.782174,"zip":"6370409"},{"town":"大塔町中井傍示","koaza":"","lat":34.144911,"lng":135.783962,"zip":"6370403"},{"town":"大塔町中原","koaza":"","lat":34.185674,"lng":135.715459,"zip":"6370415"},{"town":"大塔町中峯","koaza":"","lat":34.15786,"lng":135.775763,"zip":"6370404"},{"town":"大塔町引土","koaza":"","lat":34.161589,"lng":135.738598,"zip":"6370413"},{"town":"大塔町飛養曽","koaza":"","lat":34.166113,"lng":135.734956,"zip":"6370412"},{"town":"大野新田町","koaza":"","lat":34.386127,"lng":135.74256,"zip":"6370015"},{"town":"大野町","koaza":"","lat":34.328627,"lng":135.687385,"zip":"6370063"},{"town":"大深町","koaza":"","lat":34.286049,"lng":135.677982,"zip":"6370066"},{"town":"岡口一丁目","koaza":"","lat":34.355531,"lng":135.696091,"zip":"6370006"},{"town":"岡口二丁目","koaza":"","lat":34.357363,"lng":135.697867,"zip":"6370006"},{"town":"岡町","koaza":"","lat":34.367522,"lng":135.695992,"zip":"6370092"},{"town":"生子町","koaza":"","lat":34.311422,"lng":135.705552,"zip":"6370053"},{"town":"小和町","koaza":"","lat":34.393074,"lng":135.698217,"zip":"6370019"},{"town":"樫辻町","koaza":"","lat":34.299219,"lng":135.704066,"zip":"6370054"},{"town":"釜窪町","koaza":"","lat":34.346517,"lng":135.676406,"zip":"6370084"},{"town":"上之町","koaza":"","lat":34.379692,"lng":135.672989,"zip":"6370081"},{"town":"北山町","koaza":"","lat":34.392018,"lng":135.674945,"zip":"6370091"},{"town":"木ノ原町","koaza":"","lat":34.354715,"lng":135.666129,"zip":"6370076"},{"town":"久留野町","koaza":"","lat":34.393541,"lng":135.690767,"zip":"6370018"},{"town":"車谷町","koaza":"","lat":34.352212,"lng":135.768215,"zip":"6370025"},{"town":"黒駒町","koaza":"","lat":34.3344,"lng":135.684427,"zip":"6370062"},{"town":"上野町","koaza":"","lat":34.336255,"lng":135.673422,"zip":"6370073"},{"town":"小島町","koaza":"","lat":34.358952,"lng":135.720665,"zip":"6370031"},{"town":"五條一丁目","koaza":"","lat":34.350448,"lng":135.69579,"zip":"6370042"},{"town":"五條二丁目","koaza":"","lat":34.350844,"lng":135.697739,"zip":"6370042"},{"town":"五條三丁目","koaza":"","lat":34.350896,"lng":135.699948,"zip":"6370042"},{"town":"五條四丁目","koaza":"","lat":34.350408,"lng":135.704619,"zip":"6370042"},{"town":"小山町","koaza":"","lat":34.392255,"lng":135.714258,"zip":"6370012"},{"town":"阪合部新田町","koaza":"","lat":34.302521,"lng":135.685984,"zip":"6370065"},{"town":"三在町","koaza":"","lat":34.373866,"lng":135.724252,"zip":"6370002"},{"town":"島野町","koaza":"","lat":34.35491,"lng":135.735865,"zip":"6370027"},{"town":"下之町","koaza":"","lat":34.35028,"lng":135.685881,"zip":"6370083"},{"town":"新町一丁目","koaza":"","lat":34.348417,"lng":135.690997,"zip":"6370043"},{"town":"新町二丁目","koaza":"","lat":34.347048,"lng":135.689295,"zip":"6370043"},{"town":"新町三丁目","koaza":"","lat":34.350328,"lng":135.689809,"zip":"6370043"},{"town":"須恵一丁目","koaza":"","lat":34.352992,"lng":135.696163,"zip":"6370005"},{"town":"須恵二丁目","koaza":"","lat":34.353693,"lng":135.697685,"zip":"6370005"},{"town":"須恵三丁目","koaza":"","lat":34.354779,"lng":135.699621,"zip":"6370005"},{"town":"住川町","koaza":"","lat":34.382587,"lng":135.719418,"zip":"6370014"},{"town":"滝町","koaza":"","lat":34.356983,"lng":135.758803,"zip":"6370024"},{"town":"田殿町","koaza":"","lat":34.310217,"lng":135.668627,"zip":"6370067"},{"town":"丹原町","koaza":"","lat":34.324154,"lng":135.699119,"zip":"6370052"},{"town":"近内町","koaza":"","lat":34.382095,"lng":135.703169,"zip":"6370016"},{"town":"出屋敷町","koaza":"","lat":34.394147,"lng":135.707171,"zip":"6370011"},{"town":"田園一丁目","koaza":"","lat":34.373247,"lng":135.685672,"zip":"6370093"},{"town":"田園二丁目","koaza":"","lat":34.372318,"lng":135.684248,"zip":"6370093"},{"town":"田園三丁目","koaza":"","lat":34.365843,"lng":135.681652,"zip":"6370093"},{"town":"田園四丁目","koaza":"","lat":34.365793,"lng":135.687354,"zip":"6370093"},{"town":"田園五丁目","koaza":"","lat":34.37051,"lng":135.675702,"zip":"6370093"},{"town":"中町","koaza":"","lat":34.332576,"lng":135.678801,"zip":"6370061"},{"town":"中之町","koaza":"","lat":34.363827,"lng":135.675602,"zip":"6370082"},{"town":"なつみ台一丁目","koaza":"","lat":34.357581,"lng":135.668283,"zip":"6370078"},{"town":"なつみ台二丁目","koaza":"","lat":34.345091,"lng":135.669468,"zip":"6370078"},{"town":"なつみ台三丁目","koaza":"","lat":34.343939,"lng":135.664397,"zip":"6370078"},{"town":"なつみ台四丁目","koaza":"","lat":34.341657,"lng":135.666734,"zip":"6370078"},{"town":"西阿田町","koaza":"","lat":34.378787,"lng":135.741097,"zip":"6370020"},{"town":"西河内町","koaza":"","lat":34.373295,"lng":135.707494,"zip":"6370001"},{"town":"西久留野町","koaza":"","lat":34.376741,"lng":135.694031,"zip":"6370017"},{"town":"西吉野町赤松","koaza":"","lat":34.332888,"lng":135.750887,"zip":"6380643"},{"town":"西吉野町賀名生","koaza":"","lat":34.298966,"lng":135.720015,"zip":"6370117"},{"town":"西吉野町尼ヶ生","koaza":"","lat":34.308198,"lng":135.771211,"zip":"6370000"},{"town":"西吉野町永谷","koaza":"","lat":34.244289,"lng":135.727663,"zip":"6370221"},{"town":"西吉野町江出","koaza":"","lat":34.304432,"lng":135.720568,"zip":"6370111"},{"town":"西吉野町老野","koaza":"","lat":34.310171,"lng":135.712757,"zip":"6370112"},{"town":"西吉野町小古田","koaza":"","lat":34.299423,"lng":135.760849,"zip":"6380655"},{"town":"西吉野町大峯","koaza":"","lat":34.27486,"lng":135.781646,"zip":"6370234"},{"town":"西吉野町奥谷","koaza":"","lat":34.320749,"lng":135.737613,"zip":"6380663"},{"town":"西吉野町大日川","koaza":"","lat":34.278056,"lng":135.718229,"zip":"6370101"},{"town":"西吉野町陰地","koaza":"","lat":34.280284,"lng":135.761828,"zip":"6370239"},{"town":"西吉野町唐戸","koaza":"","lat":34.319693,"lng":135.770958,"zip":"6380651"},{"town":"西吉野町川岸","koaza":"","lat":34.290415,"lng":135.762891,"zip":"6370231"},{"town":"西吉野町川股","koaza":"","lat":34.247745,"lng":135.793241,"zip":"6370225"},{"town":"西吉野町黒渕","koaza":"","lat":34.290805,"lng":135.74025,"zip":"6370000"},{"town":"西吉野町神野","koaza":"","lat":34.303013,"lng":135.711844,"zip":"6370113"},{"town":"西吉野町阪巻","koaza":"","lat":34.269795,"lng":135.751612,"zip":"6370236"},{"town":"西吉野町鹿場","koaza":"","lat":34.301775,"lng":135.753213,"zip":"6380656"},{"town":"西吉野町城戸","koaza":"","lat":34.285053,"lng":135.751926,"zip":"6370230"},{"town":"西吉野町勢井","koaza":"","lat":34.26341,"lng":135.824129,"zip":"6370227"},{"town":"西吉野町滝","koaza":"","lat":34.313779,"lng":135.717953,"zip":"6370114"},{"town":"西吉野町立川渡","koaza":"","lat":34.247548,"lng":135.741666,"zip":"6370222"},{"town":"西吉野町津越","koaza":"","lat":34.2805,"lng":135.774999,"zip":"6370232"},{"town":"西吉野町十日市","koaza":"","lat":34.30085,"lng":135.773651,"zip":"6380653"},{"town":"西吉野町茄子原","koaza":"","lat":34.251502,"lng":135.769181,"zip":"6370224"},{"town":"西吉野町西新子","koaza":"","lat":34.316622,"lng":135.747176,"zip":"6380661"},{"town":"西吉野町西野","koaza":"","lat":34.265918,"lng":135.734309,"zip":"6370238"},{"town":"西吉野町西日裏","koaza":"","lat":34.25581,"lng":135.802958,"zip":"6370226"},{"town":"西吉野町桧川迫","koaza":"","lat":34.277106,"lng":135.806019,"zip":"6370233"},{"town":"西吉野町平雄","koaza":"","lat":34.263184,"lng":135.773387,"zip":"6370235"},{"town":"西吉野町平沼田","koaza":"","lat":34.32103,"lng":135.755577,"zip":"6380642"},{"town":"西吉野町北曽木","koaza":"","lat":34.294262,"lng":135.713178,"zip":"6370115"},{"town":"西吉野町南山","koaza":"","lat":34.295638,"lng":135.769516,"zip":"6380654"},{"town":"西吉野町向加名生","koaza":"","lat":34.289623,"lng":135.726683,"zip":"6370103"},{"town":"西吉野町宗川野","koaza":"","lat":34.262497,"lng":135.751413,"zip":"6370237"},{"town":"西吉野町本谷","koaza":"","lat":34.243224,"lng":135.759058,"zip":"6370223"},{"town":"西吉野町百谷","koaza":"","lat":34.338422,"lng":135.76109,"zip":"6380641"},{"town":"西吉野町八ッ川","koaza":"","lat":34.308765,"lng":135.76041,"zip":"6370000"},{"town":"西吉野町屋那瀬","koaza":"","lat":34.297933,"lng":135.724358,"zip":"6370104"},{"town":"西吉野町湯川","koaza":"","lat":34.336857,"lng":135.740658,"zip":"6380644"},{"town":"西吉野町湯塩","koaza":"","lat":34.312329,"lng":135.727685,"zip":"6370105"},{"town":"西吉野町夜中","koaza":"","lat":34.310915,"lng":135.736798,"zip":"6380662"},{"town":"西吉野町和田","koaza":"","lat":34.294301,"lng":135.722162,"zip":"6370116"},{"town":"野原町","koaza":"","lat":34.336466,"lng":135.724958,"zip":"6370034"},{"town":"野原中一丁目","koaza":"","lat":34.346408,"lng":135.706265,"zip":"6370037"},{"town":"野原中二丁目","koaza":"","lat":34.34674,"lng":135.710562,"zip":"6370037"},{"town":"野原中三丁目","koaza":"","lat":34.340941,"lng":135.702714,"zip":"6370037"},{"town":"野原中四丁目","koaza":"","lat":34.341363,"lng":135.705502,"zip":"6370037"},{"town":"野原中五丁目","koaza":"","lat":34.342409,"lng":135.707347,"zip":"6370037"},{"town":"野原中六丁目","koaza":"","lat":34.342987,"lng":135.712631,"zip":"6370037"},{"town":"野原西一丁目","koaza":"","lat":34.344618,"lng":135.693479,"zip":"6370036"},{"town":"野原西二丁目","koaza":"","lat":34.34653,"lng":135.698492,"zip":"6370036"},{"town":"野原西三丁目","koaza":"","lat":34.345402,"lng":135.702168,"zip":"6370036"},{"town":"野原西四丁目","koaza":"","lat":34.343848,"lng":135.698776,"zip":"6370036"},{"town":"野原西五丁目","koaza":"","lat":34.341413,"lng":135.699942,"zip":"6370036"},{"town":"野原西六丁目","koaza":"","lat":34.340504,"lng":135.696192,"zip":"6370036"},{"town":"野原東一丁目","koaza":"","lat":34.347446,"lng":135.713496,"zip":"6370038"},{"town":"野原東二丁目","koaza":"","lat":34.349637,"lng":135.713666,"zip":"6370038"},{"town":"野原東三丁目","koaza":"","lat":34.352969,"lng":135.714773,"zip":"6370038"},{"town":"野原東四丁目","koaza":"","lat":34.353911,"lng":135.71922,"zip":"6370038"},{"town":"野原東五丁目","koaza":"","lat":34.349364,"lng":135.717971,"zip":"6370038"},{"town":"野原東六丁目","koaza":"","lat":34.343479,"lng":135.71663,"zip":"6370038"},{"town":"野原東七丁目","koaza":"","lat":34.341192,"lng":135.716166,"zip":"6370038"},{"town":"畑田町","koaza":"","lat":34.336949,"lng":135.662587,"zip":"6370075"},{"town":"八田町","koaza":"","lat":34.374933,"lng":135.764444,"zip":"6370022"},{"town":"原町","koaza":"","lat":34.361729,"lng":135.739096,"zip":"6370028"},{"town":"火打町","koaza":"","lat":34.319513,"lng":135.671786,"zip":"6370068"},{"town":"東阿田町","koaza":"","lat":34.380729,"lng":135.751579,"zip":"6370021"},{"town":"表野町","koaza":"","lat":34.320715,"lng":135.678806,"zip":"6370069"},{"town":"二見一丁目","koaza":"","lat":34.346865,"lng":135.686892,"zip":"6370071"},{"town":"二見二丁目","koaza":"","lat":34.344563,"lng":135.684943,"zip":"6370071"},{"town":"二見三丁目","koaza":"","lat":34.344446,"lng":135.682646,"zip":"6370071"},{"town":"二見四丁目","koaza":"","lat":34.344063,"lng":135.688089,"zip":"6370071"},{"town":"二見五丁目","koaza":"","lat":34.340894,"lng":135.686576,"zip":"6370071"},{"town":"二見六丁目","koaza":"","lat":34.347202,"lng":135.68421,"zip":"6370071"},{"town":"二見七丁目","koaza":"","lat":34.344715,"lng":135.679395,"zip":"6370071"},{"town":"本町一丁目","koaza":"","lat":34.352061,"lng":135.693227,"zip":"6370041"},{"town":"本町二丁目","koaza":"","lat":34.349677,"lng":135.694064,"zip":"6370041"},{"town":"本町三丁目","koaza":"","lat":34.354955,"lng":135.693203,"zip":"6370041"},{"town":"牧町","koaza":"","lat":34.347804,"lng":135.724441,"zip":"6370033"},{"town":"南阿田町","koaza":"","lat":34.367629,"lng":135.761315,"zip":"6370023"},{"town":"御山町","koaza":"","lat":34.332213,"lng":135.692468,"zip":"6370051"},{"town":"六倉町","koaza":"","lat":34.353252,"lng":135.730307,"zip":"6370032"},{"town":"山陰町","koaza":"","lat":34.322691,"lng":135.682697,"zip":"6370064"},{"town":"山田町","koaza":"","lat":34.368123,"lng":135.738415,"zip":"6370029"},{"town":"湯谷市塚町","koaza":"","lat":34.34736,"lng":135.756712,"zip":"6370026"},{"town":"霊安寺町","koaza":"","lat":34.327664,"lng":135.71284,"zip":"6370035"}]