[{"town":"王寺一丁目","koaza":"","lat":34.594445,"lng":135.708455,"zip":"6360002"},{"town":"王寺二丁目","koaza":"","lat":34.595927,"lng":135.704013,"zip":"6360002"},{"town":"王寺三丁目","koaza":"","lat":34.595386,"lng":135.699202,"zip":"6360002"},{"town":"葛下一丁目","koaza":"","lat":34.591342,"lng":135.710718,"zip":"6360011"},{"town":"葛下二丁目","koaza":"","lat":34.58984,"lng":135.708878,"zip":"6360011"},{"town":"葛下三丁目","koaza":"","lat":34.586698,"lng":135.70833,"zip":"6360011"},{"town":"葛下四丁目","koaza":"","lat":34.583369,"lng":135.707739,"zip":"6360011"},{"town":"久度一丁目","koaza":"","lat":34.598889,"lng":135.70737,"zip":"6360003"},{"town":"久度二丁目","koaza":"","lat":34.599331,"lng":135.703672,"zip":"6360003"},{"town":"久度三丁目","koaza":"","lat":34.598629,"lng":135.700987,"zip":"6360003"},{"town":"久度四丁目","koaza":"","lat":34.599391,"lng":135.698177,"zip":"6360003"},{"town":"久度五丁目","koaza":"","lat":34.596448,"lng":135.696739,"zip":"6360003"},{"town":"太子一丁目","koaza":"","lat":34.583291,"lng":135.693919,"zip":"6360023"},{"town":"太子二丁目","koaza":"","lat":34.580408,"lng":135.693236,"zip":"6360023"},{"town":"太子三丁目","koaza":"","lat":34.577101,"lng":135.69144,"zip":"6360023"},{"town":"畠田一丁目","koaza":"","lat":34.581913,"lng":135.709533,"zip":"6360021"},{"town":"畠田二丁目","koaza":"","lat":34.579025,"lng":135.707639,"zip":"6360021"},{"town":"畠田三丁目","koaza":"","lat":34.577618,"lng":135.704414,"zip":"6360021"},{"town":"畠田四丁目","koaza":"","lat":34.577622,"lng":135.702576,"zip":"6360021"},{"town":"畠田五丁目","koaza":"","lat":34.580202,"lng":135.698065,"zip":"6360021"},{"town":"畠田六丁目","koaza":"","lat":34.578022,"lng":135.697945,"zip":"6360021"},{"town":"畠田七丁目","koaza":"","lat":34.575881,"lng":135.694609,"zip":"6360021"},{"town":"畠田八丁目","koaza":"","lat":34.574224,"lng":135.698007,"zip":"6360021"},{"town":"畠田九丁目","koaza":"","lat":34.573741,"lng":135.693922,"zip":"6360021"},{"town":"藤井一丁目","koaza":"","lat":34.585147,"lng":135.686179,"zip":"6360014"},{"town":"藤井二丁目","koaza":"","lat":34.583281,"lng":135.681836,"zip":"6360014"},{"town":"藤井三丁目","koaza":"","lat":34.580459,"lng":135.68426,"zip":"6360014"},{"town":"舟戸一丁目","koaza":"","lat":34.596455,"lng":135.710074,"zip":"6360001"},{"town":"舟戸二丁目","koaza":"","lat":34.593317,"lng":135.711867,"zip":"6360001"},{"town":"舟戸三丁目","koaza":"","lat":34.592456,"lng":135.714389,"zip":"6360001"},{"town":"本町一丁目","koaza":"","lat":34.592573,"lng":135.705041,"zip":"6360012"},{"town":"本町二丁目","koaza":"","lat":34.587524,"lng":135.704968,"zip":"6360012"},{"town":"本町三丁目","koaza":"","lat":34.589212,"lng":135.701559,"zip":"6360012"},{"town":"本町四丁目","koaza":"","lat":34.583833,"lng":135.703192,"zip":"6360012"},{"town":"本町五丁目","koaza":"","lat":34.583491,"lng":135.698038,"zip":"6360012"},{"town":"明神二丁目","koaza":"","lat":34.581335,"lng":135.690335,"zip":"6360022"},{"town":"明神三丁目","koaza":"","lat":34.579199,"lng":135.688647,"zip":"6360022"},{"town":"明神四丁目","koaza":"","lat":34.576403,"lng":135.68828,"zip":"6360022"},{"town":"元町一丁目","koaza":"","lat":34.592627,"lng":135.698796,"zip":"6360013"},{"town":"元町二丁目","koaza":"","lat":34.589911,"lng":135.695309,"zip":"6360013"},{"town":"南元町一丁目","koaza":"","lat":34.585527,"lng":135.695809,"zip":"6360015"},{"town":"南元町二丁目","koaza":"","lat":34.587253,"lng":135.694132,"zip":"6360015"},{"town":"明神一丁目","koaza":"","lat":34.584045,"lng":135.691222,"zip":"6360022"},{"town":"元町三丁目","koaza":"","lat":34.588016,"lng":135.690815,"zip":"6360013"},{"town":"南元町三丁目","koaza":"","lat":34.586077,"lng":135.692606,"zip":"6360015"}]