[{"town":"池部一丁目","koaza":"","lat":34.579559,"lng":135.737293,"zip":"6360053"},{"town":"池部二丁目","koaza":"","lat":34.578558,"lng":135.739685,"zip":"6360053"},{"town":"池部三丁目","koaza":"","lat":34.578238,"lng":135.734841,"zip":"6360053"},{"town":"泉台一丁目","koaza":"","lat":34.589006,"lng":135.730135,"zip":"6360091"},{"town":"泉台二丁目","koaza":"","lat":34.589253,"lng":135.733391,"zip":"6360091"},{"town":"泉台三丁目","koaza":"","lat":34.590656,"lng":135.737236,"zip":"6360091"},{"town":"彩りの杜","koaza":"","lat":34.578211,"lng":135.729032,"zip":"6360057"},{"town":"大字池部","koaza":"","lat":34.579942,"lng":135.742135,"zip":"6360000"},{"town":"大字大輪田","koaza":"","lat":34.590841,"lng":135.720708,"zip":"6360000"},{"town":"大字川合","koaza":"","lat":34.587191,"lng":135.746679,"zip":"6360000"},{"town":"大字薬井","koaza":"","lat":34.586556,"lng":135.711355,"zip":"6360000"},{"town":"大字佐味田","koaza":"","lat":34.563319,"lng":135.732155,"zip":"6360000"},{"town":"大字城内","koaza":"","lat":34.587669,"lng":135.726813,"zip":"6360000"},{"town":"大字長楽","koaza":"","lat":34.580833,"lng":135.74663,"zip":"6360000"},{"town":"大字穴闇","koaza":"","lat":34.585292,"lng":135.740632,"zip":"6360000"},{"town":"大字西穴闇","koaza":"","lat":34.586946,"lng":135.73607,"zip":"6360000"},{"town":"大字山坊","koaza":"","lat":34.573602,"lng":135.733017,"zip":"6360000"},{"town":"久美ケ丘一丁目","koaza":"","lat":34.575495,"lng":135.7282,"zip":"6360063"},{"town":"久美ケ丘二丁目","koaza":"","lat":34.576951,"lng":135.731234,"zip":"6360063"},{"town":"星和台一丁目","koaza":"","lat":34.587899,"lng":135.716714,"zip":"6360081"},{"town":"星和台二丁目","koaza":"","lat":34.584528,"lng":135.714745,"zip":"6360081"},{"town":"高塚台一丁目","koaza":"","lat":34.58039,"lng":135.723564,"zip":"6360071"},{"town":"高塚台二丁目","koaza":"","lat":34.583622,"lng":135.728501,"zip":"6360071"},{"town":"高塚台三丁目","koaza":"","lat":34.579374,"lng":135.72666,"zip":"6360071"},{"town":"中山台一丁目","koaza":"","lat":34.581807,"lng":135.720927,"zip":"6360072"},{"town":"中山台二丁目","koaza":"","lat":34.583413,"lng":135.717797,"zip":"6360072"},{"town":"西山台","koaza":"","lat":34.582062,"lng":135.729612,"zip":"6360056"},{"town":"広瀬台一丁目","koaza":"","lat":34.585941,"lng":135.727028,"zip":"6360073"},{"town":"広瀬台二丁目","koaza":"","lat":34.584442,"lng":135.724543,"zip":"6360073"},{"town":"広瀬台三丁目","koaza":"","lat":34.586848,"lng":135.719373,"zip":"6360073"}]