[{"town":"大字上牧","koaza":"","lat":34.559949,"lng":135.720024,"zip":"6390200"},{"town":"大字下牧","koaza":"","lat":34.572075,"lng":135.72115,"zip":"6390200"},{"town":"大字中筋出作","koaza":"","lat":34.554073,"lng":135.707087,"zip":"6390200"},{"town":"片岡台一丁目","koaza":"","lat":34.580834,"lng":135.714574,"zip":"6390201"},{"town":"片岡台二丁目","koaza":"","lat":34.579746,"lng":135.717953,"zip":"6390201"},{"town":"片岡台三丁目","koaza":"","lat":34.577156,"lng":135.715584,"zip":"6390201"},{"town":"葛城台一丁目","koaza":"","lat":34.557602,"lng":135.722296,"zip":"6390215"},{"town":"葛城台二丁目","koaza":"","lat":34.558624,"lng":135.724451,"zip":"6390215"},{"town":"葛城台三丁目","koaza":"","lat":34.556479,"lng":135.722993,"zip":"6390215"},{"town":"葛城台四丁目","koaza":"","lat":34.556432,"lng":135.725448,"zip":"6390215"},{"town":"葛城台五丁目","koaza":"","lat":34.555067,"lng":135.723287,"zip":"6390215"},{"town":"桜ヶ丘一丁目","koaza":"","lat":34.577394,"lng":135.721437,"zip":"6390200"},{"town":"桜ヶ丘二丁目","koaza":"","lat":34.574218,"lng":135.725214,"zip":"6390200"},{"town":"桜ヶ丘三丁目","koaza":"","lat":34.575074,"lng":135.719666,"zip":"6390200"},{"town":"ささゆり台一丁目","koaza":"","lat":34.566842,"lng":135.721472,"zip":"6390218"},{"town":"ささゆり台二丁目","koaza":"","lat":34.565302,"lng":135.719543,"zip":"6390218"},{"town":"ささゆり台三丁目","koaza":"","lat":34.566599,"lng":135.718286,"zip":"6390218"},{"town":"下牧一丁目","koaza":"","lat":34.573219,"lng":135.718523,"zip":"6390205"},{"town":"下牧二丁目","koaza":"","lat":34.574533,"lng":135.712752,"zip":"6390205"},{"town":"下牧三丁目","koaza":"","lat":34.579462,"lng":135.711553,"zip":"6390205"},{"town":"下牧四丁目","koaza":"","lat":34.578266,"lng":135.709207,"zip":"6390205"},{"town":"下牧五丁目","koaza":"","lat":34.573973,"lng":135.707985,"zip":"6390205"},{"town":"下牧六丁目","koaza":"","lat":34.575089,"lng":135.705545,"zip":"6390205"},{"town":"下牧七丁目","koaza":"","lat":34.571113,"lng":135.705098,"zip":"6390205"},{"town":"松里園一丁目","koaza":"","lat":34.551912,"lng":135.710517,"zip":"6390216"},{"town":"松里園二丁目","koaza":"","lat":34.550018,"lng":135.71048,"zip":"6390216"},{"town":"松里園三丁目","koaza":"","lat":34.549672,"lng":135.708921,"zip":"6390216"},{"town":"滝川台一丁目","koaza":"","lat":34.569337,"lng":135.717835,"zip":"6390211"},{"town":"滝川台二丁目","koaza":"","lat":34.571595,"lng":135.71687,"zip":"6390211"},{"town":"友が丘一丁目","koaza":"","lat":34.571921,"lng":135.713177,"zip":"6390203"},{"town":"友が丘二丁目","koaza":"","lat":34.572592,"lng":135.712578,"zip":"6390203"},{"town":"服部台一丁目","koaza":"","lat":34.567872,"lng":135.713561,"zip":"6390212"},{"town":"服部台二丁目","koaza":"","lat":34.567615,"lng":135.710454,"zip":"6390212"},{"town":"服部台三丁目","koaza":"","lat":34.569476,"lng":135.713583,"zip":"6390212"},{"town":"服部台四丁目","koaza":"","lat":34.571156,"lng":135.714115,"zip":"6390212"},{"town":"服部台五丁目","koaza":"","lat":34.569802,"lng":135.715575,"zip":"6390212"},{"town":"緑ヶ丘一丁目","koaza":"","lat":34.569105,"lng":135.709848,"zip":"6390200"},{"town":"緑ヶ丘二丁目","koaza":"","lat":34.568777,"lng":135.70768,"zip":"6390200"},{"town":"ゆりが丘一丁目","koaza":"","lat":34.571518,"lng":135.719344,"zip":"6390206"},{"town":"米山台一丁目","koaza":"","lat":34.561324,"lng":135.713812,"zip":"6390213"},{"town":"米山台二丁目","koaza":"","lat":34.560204,"lng":135.712809,"zip":"6390213"},{"town":"米山台三丁目","koaza":"","lat":34.563096,"lng":135.712975,"zip":"6390213"},{"town":"米山台四丁目","koaza":"","lat":34.565035,"lng":135.712901,"zip":"6390213"},{"town":"米山台五丁目","koaza":"","lat":34.563551,"lng":135.714481,"zip":"6390213"},{"town":"米山台六丁目","koaza":"","lat":34.565049,"lng":135.71513,"zip":"6390213"}]