[{"town":"大字新住","koaza":"","lat":34.374129,"lng":135.779702,"zip":"6380000"},{"town":"大字阿知賀","koaza":"","lat":34.375276,"lng":135.805768,"zip":"6380000"},{"town":"大字石堂谷","koaza":"","lat":34.327349,"lng":135.795744,"zip":"6380000"},{"town":"大字貝原","koaza":"","lat":34.291484,"lng":135.784188,"zip":"6380000"},{"town":"大字黒木","koaza":"","lat":34.29479,"lng":135.79501,"zip":"6380000"},{"town":"大字才谷","koaza":"","lat":34.34393,"lng":135.852644,"zip":"6380000"},{"town":"大字下市","koaza":"","lat":34.364809,"lng":135.791681,"zip":"6380000"},{"town":"大字小路","koaza":"","lat":34.36721,"lng":135.817109,"zip":"6380000"},{"town":"大字善城","koaza":"","lat":34.355818,"lng":135.796671,"zip":"6380000"},{"town":"大字立石","koaza":"","lat":34.352168,"lng":135.833969,"zip":"6380000"},{"town":"大字谷","koaza":"","lat":34.311693,"lng":135.791232,"zip":"6380000"},{"town":"大字栃原","koaza":"","lat":34.354404,"lng":135.778667,"zip":"6380000"},{"town":"大字栃本","koaza":"","lat":34.34218,"lng":135.804904,"zip":"6380000"},{"town":"大字長谷","koaza":"","lat":34.316228,"lng":135.805325,"zip":"6380000"},{"town":"大字梨子堂","koaza":"","lat":34.334073,"lng":135.79101,"zip":"6380000"},{"town":"大字丹生","koaza":"","lat":34.296196,"lng":135.809548,"zip":"6380000"},{"town":"大字西山","koaza":"","lat":34.30447,"lng":135.785963,"zip":"6380000"},{"town":"大字原谷","koaza":"","lat":34.344702,"lng":135.797076,"zip":"6380000"},{"town":"大字広橋","koaza":"","lat":34.332335,"lng":135.82297,"zip":"6380000"},{"town":"大字平原","koaza":"","lat":34.333411,"lng":135.77601,"zip":"6380000"},{"town":"大字よ邑","koaza":"","lat":34.348539,"lng":135.815417,"zip":"6380000"}]