[{"town":"大字井光","koaza":"","lat":34.333613,"lng":136.0128,"zip":"6393500"},{"town":"大字井戸","koaza":"","lat":34.315367,"lng":135.973057,"zip":"6393500"},{"town":"大字東川","koaza":"","lat":34.365392,"lng":135.952423,"zip":"6393500"},{"town":"大字大迫","koaza":"","lat":34.273839,"lng":136.009498,"zip":"6393500"},{"town":"大字大滝","koaza":"","lat":34.339329,"lng":135.917011,"zip":"6393500"},{"town":"大字伯母谷","koaza":"","lat":34.247688,"lng":135.997554,"zip":"6393500"},{"town":"大字柏木","koaza":"","lat":34.28236,"lng":136.001181,"zip":"6393500"},{"town":"大字北塩谷","koaza":"","lat":34.350366,"lng":135.953136,"zip":"6393500"},{"town":"大字北和田","koaza":"","lat":34.295986,"lng":136.011074,"zip":"6393500"},{"town":"大字上多古","koaza":"","lat":34.276409,"lng":135.969891,"zip":"6393500"},{"town":"大字上谷","koaza":"","lat":34.263288,"lng":135.9879,"zip":"6393500"},{"town":"大字神之谷","koaza":"","lat":34.266559,"lng":136.089076,"zip":"6393500"},{"town":"大字迫","koaza":"","lat":34.3367,"lng":135.948463,"zip":"6393500"},{"town":"大字入之波","koaza":"","lat":34.234814,"lng":136.06531,"zip":"6393500"},{"town":"大字下多古","koaza":"","lat":34.292827,"lng":135.960399,"zip":"6393500"},{"town":"大字白川渡","koaza":"","lat":34.30401,"lng":135.999673,"zip":"6393500"},{"town":"大字白屋","koaza":"","lat":34.342454,"lng":135.970952,"zip":"6393500"},{"town":"大字高原","koaza":"","lat":34.304263,"lng":135.930153,"zip":"6393500"},{"town":"大字武木","koaza":"","lat":34.331428,"lng":135.992624,"zip":"6393500"},{"town":"大字寺尾","koaza":"","lat":34.337351,"lng":135.934815,"zip":"6393500"},{"town":"大字中奥","koaza":"","lat":34.315376,"lng":136.041149,"zip":"6393500"},{"town":"大字西河","koaza":"","lat":34.347367,"lng":135.901274,"zip":"6393500"},{"town":"大字人知","koaza":"","lat":34.324243,"lng":135.968498,"zip":"6393500"},{"town":"瀬戸","koaza":"","lat":34.330863,"lng":136.079214,"zip":"6393634"},{"town":"枌尾","koaza":"","lat":34.303878,"lng":136.019836,"zip":"6393632"}]