[{"town":"大字池津川","koaza":"","lat":34.176195,"lng":135.669292,"zip":"6480300"},{"town":"大字今井","koaza":"","lat":34.202899,"lng":135.694073,"zip":"6480300"},{"town":"大字上","koaza":"","lat":34.20865,"lng":135.654114,"zip":"6480300"},{"town":"大字北今西","koaza":"","lat":34.117901,"lng":135.615986,"zip":"6480300"},{"town":"大字北股","koaza":"","lat":34.145485,"lng":135.63936,"zip":"6480300"},{"town":"大字紫園","koaza":"","lat":34.165388,"lng":135.699155,"zip":"6480300"},{"town":"大字平","koaza":"","lat":34.11333,"lng":135.644361,"zip":"6480300"},{"town":"大字立里","koaza":"","lat":34.142642,"lng":135.695582,"zip":"6480300"},{"town":"大字中","koaza":"","lat":34.208463,"lng":135.664498,"zip":"6480300"},{"town":"大字中津川","koaza":"","lat":34.150761,"lng":135.704711,"zip":"6480300"},{"town":"大字檜股","koaza":"","lat":34.126396,"lng":135.598839,"zip":"6480300"},{"town":"大字平川","koaza":"","lat":34.204146,"lng":135.686371,"zip":"6480300"},{"town":"大字柞原","koaza":"","lat":34.208558,"lng":135.673981,"zip":"6480300"},{"town":"大字弓手原","koaza":"","lat":34.100902,"lng":135.568653,"zip":"6480300"}]