[{"town":"大字新子","koaza":"","lat":34.395892,"lng":135.937567,"zip":"6393100"},{"town":"大字飯貝","koaza":"","lat":34.376968,"lng":135.872708,"zip":"6393100"},{"town":"大字色生","koaza":"","lat":34.411421,"lng":135.935139,"zip":"6393100"},{"town":"大字樫尾","koaza":"","lat":34.36834,"lng":135.914114,"zip":"6393100"},{"town":"大字河原屋","koaza":"","lat":34.39476,"lng":135.880338,"zip":"6393100"},{"town":"大字上市","koaza":"","lat":34.397771,"lng":135.852131,"zip":"6393100"},{"town":"大字喜佐谷","koaza":"","lat":34.358665,"lng":135.894942,"zip":"6393100"},{"town":"大字国栖","koaza":"","lat":34.382085,"lng":135.936603,"zip":"6393100"},{"town":"大字窪垣内","koaza":"","lat":34.392958,"lng":135.929713,"zip":"6393100"},{"town":"大字香束","koaza":"","lat":34.422701,"lng":135.902595,"zip":"6393100"},{"town":"大字小名","koaza":"","lat":34.425716,"lng":135.959806,"zip":"6393100"},{"town":"大字佐々羅","koaza":"","lat":34.407194,"lng":135.882822,"zip":"6393100"},{"town":"大字左曽","koaza":"","lat":34.378147,"lng":135.843558,"zip":"6393100"},{"town":"大字入野","koaza":"","lat":34.400347,"lng":135.929226,"zip":"6393100"},{"town":"大字志賀","koaza":"","lat":34.415441,"lng":135.873379,"zip":"6393100"},{"town":"大字滝畑","koaza":"","lat":34.433347,"lng":135.864171,"zip":"6393100"},{"town":"大字立野","koaza":"","lat":34.398502,"lng":135.866411,"zip":"6393100"},{"town":"大字丹治","koaza":"","lat":34.384949,"lng":135.853509,"zip":"6393100"},{"town":"大字千股","koaza":"","lat":34.418229,"lng":135.861419,"zip":"6393100"},{"town":"大字津風呂","koaza":"","lat":34.397142,"lng":135.904645,"zip":"6393100"},{"town":"大字菜摘","koaza":"","lat":34.381531,"lng":135.901127,"zip":"6393100"},{"town":"大字楢井","koaza":"","lat":34.382324,"lng":135.880166,"zip":"6393100"},{"town":"大字西谷","koaza":"","lat":34.429647,"lng":135.880014,"zip":"6393100"},{"town":"大字橋屋","koaza":"","lat":34.39021,"lng":135.840939,"zip":"6393100"},{"town":"大字平尾","koaza":"","lat":34.406859,"lng":135.89126,"zip":"6393100"},{"town":"大字御園","koaza":"","lat":34.373741,"lng":135.887369,"zip":"6393100"},{"town":"大字三津","koaza":"","lat":34.447676,"lng":135.884372,"zip":"6393100"},{"town":"大字三茶屋","koaza":"","lat":34.427452,"lng":135.932749,"zip":"6393100"},{"town":"大字南大野","koaza":"","lat":34.385641,"lng":135.918244,"zip":"6393100"},{"town":"大字南国栖","koaza":"","lat":34.376633,"lng":135.926869,"zip":"6393100"},{"town":"大字峰寺","koaza":"","lat":34.404085,"lng":135.877905,"zip":"6393100"},{"town":"大字宮滝","koaza":"","lat":34.379263,"lng":135.895711,"zip":"6393100"},{"town":"大字六田","koaza":"","lat":34.378379,"lng":135.82899,"zip":"6393100"},{"town":"大字矢治","koaza":"","lat":34.382116,"lng":135.911559,"zip":"6393100"},{"town":"大字柳","koaza":"","lat":34.430212,"lng":135.915375,"zip":"6393100"},{"town":"大字山口","koaza":"","lat":34.422308,"lng":135.892218,"zip":"6393100"},{"town":"大字吉野山","koaza":"","lat":34.35954,"lng":135.859392,"zip":"6393100"}]