[{"town":"曙町","koaza":"","lat":34.512724,"lng":135.756239,"zip":"6350012"},{"town":"旭北町","koaza":"","lat":34.512469,"lng":135.748672,"zip":"6350036"},{"town":"旭南町","koaza":"","lat":34.509039,"lng":135.747847,"zip":"6350035"},{"town":"礒野北町","koaza":"","lat":34.509538,"lng":135.733898,"zip":"6350094"},{"town":"礒野新町","koaza":"","lat":34.504947,"lng":135.740361,"zip":"6350063"},{"town":"礒野町","koaza":"","lat":34.507069,"lng":135.734592,"zip":"6350093"},{"town":"礒野東町","koaza":"","lat":34.508243,"lng":135.739892,"zip":"6350061"},{"town":"礒野南町","koaza":"","lat":34.506606,"lng":135.740288,"zip":"6350062"},{"town":"今里町","koaza":"","lat":34.509676,"lng":135.752793,"zip":"6350031"},{"town":"内本町","koaza":"","lat":34.514142,"lng":135.742058,"zip":"6350087"},{"town":"永和町","koaza":"","lat":34.511652,"lng":135.745133,"zip":"6350083"},{"town":"大字秋吉","koaza":"","lat":34.488259,"lng":135.751613,"zip":"6350000"},{"town":"大字有井","koaza":"","lat":34.519736,"lng":135.737993,"zip":"6350000"},{"town":"大字池尻","koaza":"","lat":34.527444,"lng":135.747989,"zip":"6350000"},{"town":"大字池田","koaza":"","lat":34.519756,"lng":135.729388,"zip":"6350000"},{"town":"大字礒野","koaza":"","lat":34.506658,"lng":135.731265,"zip":"6350000"},{"town":"大字市場","koaza":"","lat":34.514427,"lng":135.724327,"zip":"6350000"},{"town":"大字出","koaza":"","lat":34.494722,"lng":135.753708,"zip":"6350000"},{"town":"大字今里","koaza":"","lat":34.507688,"lng":135.758575,"zip":"6350000"},{"town":"大字今里川合方","koaza":"","lat":34.5074,"lng":135.756189,"zip":"6350000"},{"town":"大字大谷","koaza":"","lat":34.527238,"lng":135.727531,"zip":"6350000"},{"town":"大字大中","koaza":"","lat":34.513679,"lng":135.736654,"zip":"6350000"},{"town":"大字岡崎","koaza":"","lat":34.513785,"lng":135.731514,"zip":"6350000"},{"town":"大字奥田","koaza":"","lat":34.485073,"lng":135.748875,"zip":"6350000"},{"town":"大字勝目","koaza":"","lat":34.498543,"lng":135.751022,"zip":"6350000"},{"town":"大字神楽","koaza":"","lat":34.526821,"lng":135.741979,"zip":"6350000"},{"town":"大字曽大根","koaza":"","lat":34.494162,"lng":135.741364,"zip":"6350000"},{"town":"大字田井","koaza":"","lat":34.501062,"lng":135.754695,"zip":"6350000"},{"town":"大字高田","koaza":"","lat":34.524453,"lng":135.747125,"zip":"6350000"},{"town":"大字築山","koaza":"","lat":34.524781,"lng":135.734586,"zip":"6350000"},{"town":"大字土庫","koaza":"","lat":34.526475,"lng":135.754164,"zip":"6350000"},{"town":"大字西坊城","koaza":"","lat":34.49122,"lng":135.752529,"zip":"6350000"},{"town":"大字根成柿","koaza":"","lat":34.482613,"lng":135.759763,"zip":"6350000"},{"town":"大字野口","koaza":"","lat":34.520986,"lng":135.720194,"zip":"6350000"},{"town":"大字東中","koaza":"","lat":34.501379,"lng":135.731609,"zip":"6350000"},{"town":"大字藤森","koaza":"","lat":34.529323,"lng":135.754438,"zip":"6350000"},{"town":"大字松塚","koaza":"","lat":34.522583,"lng":135.761042,"zip":"6350000"},{"town":"大字吉井","koaza":"","lat":34.485106,"lng":135.756428,"zip":"6350000"},{"town":"大中東町","koaza":"","lat":34.513951,"lng":135.739298,"zip":"6350091"},{"town":"大中南町","koaza":"","lat":34.511011,"lng":135.739444,"zip":"6350092"},{"town":"大東町","koaza":"","lat":34.51773,"lng":135.749236,"zip":"6350016"},{"town":"春日町一丁目","koaza":"","lat":34.506179,"lng":135.738044,"zip":"6350067"},{"town":"春日町二丁目","koaza":"","lat":34.503593,"lng":135.737486,"zip":"6350067"},{"town":"片塩町","koaza":"","lat":34.507675,"lng":135.743775,"zip":"6350085"},{"town":"甘田町","koaza":"","lat":34.499573,"lng":135.743592,"zip":"6350056"},{"town":"北片塩町","koaza":"","lat":34.510097,"lng":135.743663,"zip":"6350084"},{"town":"北本町","koaza":"","lat":34.517914,"lng":135.742232,"zip":"6350097"},{"town":"蔵之宮町","koaza":"","lat":34.498603,"lng":135.749025,"zip":"6350044"},{"town":"材木町","koaza":"","lat":34.517125,"lng":135.756845,"zip":"6350011"},{"town":"幸町","koaza":"","lat":34.517993,"lng":135.745853,"zip":"6350015"},{"town":"栄町","koaza":"","lat":34.503605,"lng":135.740276,"zip":"6350064"},{"town":"三和町","koaza":"","lat":34.51443,"lng":135.748462,"zip":"6350014"},{"town":"東雲町","koaza":"","lat":34.517346,"lng":135.752795,"zip":"6350017"},{"town":"昭和町","koaza":"","lat":34.513292,"lng":135.752021,"zip":"6350013"},{"town":"神楽一丁目","koaza":"","lat":34.523079,"lng":135.739512,"zip":"6350025"},{"town":"神楽二丁目","koaza":"","lat":34.522484,"lng":135.742044,"zip":"6350025"},{"town":"神楽三丁目","koaza":"","lat":34.522521,"lng":135.744502,"zip":"6350025"},{"town":"曽大根一丁目","koaza":"","lat":34.497952,"lng":135.737684,"zip":"6350055"},{"town":"曽大根二丁目","koaza":"","lat":34.497373,"lng":135.742666,"zip":"6350055"},{"town":"田井新町","koaza":"","lat":34.501819,"lng":135.749672,"zip":"6350047"},{"town":"高砂町","koaza":"","lat":34.517177,"lng":135.743585,"zip":"6350081"},{"town":"土庫一丁目","koaza":"","lat":34.522,"lng":135.751627,"zip":"6350002"},{"town":"土庫二丁目","koaza":"","lat":34.522234,"lng":135.754014,"zip":"6350002"},{"town":"土庫三丁目","koaza":"","lat":34.522209,"lng":135.756332,"zip":"6350002"},{"town":"中今里町","koaza":"","lat":34.507884,"lng":135.752273,"zip":"6350037"},{"town":"中三倉堂一丁目","koaza":"","lat":34.504765,"lng":135.745502,"zip":"6350045"},{"town":"中三倉堂二丁目","koaza":"","lat":34.501878,"lng":135.745343,"zip":"6350045"},{"town":"南陽町","koaza":"","lat":34.497174,"lng":135.746411,"zip":"6350057"},{"town":"西町","koaza":"","lat":34.517296,"lng":135.740446,"zip":"6350096"},{"town":"西三倉堂一丁目","koaza":"","lat":34.50527,"lng":135.743147,"zip":"6350046"},{"town":"西三倉堂二丁目","koaza":"","lat":34.501178,"lng":135.741601,"zip":"6350046"},{"town":"東中一丁目","koaza":"","lat":34.501054,"lng":135.734348,"zip":"6350065"},{"town":"東中二丁目","koaza":"","lat":34.501009,"lng":135.738476,"zip":"6350065"},{"town":"東三倉堂町","koaza":"","lat":34.505515,"lng":135.747607,"zip":"6350034"},{"town":"日之出町","koaza":"","lat":34.522048,"lng":135.749145,"zip":"6350022"},{"town":"日之出西本町","koaza":"","lat":34.520205,"lng":135.743001,"zip":"6350024"},{"town":"日之出東本町","koaza":"","lat":34.521937,"lng":135.746716,"zip":"6350023"},{"town":"本郷町","koaza":"","lat":34.514137,"lng":135.744936,"zip":"6350082"},{"town":"南今里町","koaza":"","lat":34.50502,"lng":135.750917,"zip":"6350033"},{"town":"南本町","koaza":"","lat":34.51117,"lng":135.741771,"zip":"6350086"}]