[{"town":"朝日町","koaza":"","lat":34.646541,"lng":135.779468,"zip":"6391013"},{"town":"池沢町","koaza":"","lat":34.611888,"lng":135.777279,"zip":"6391032"},{"town":"池之内町","koaza":"","lat":34.630992,"lng":135.76806,"zip":"6391027"},{"town":"石川町","koaza":"","lat":34.62896,"lng":135.819963,"zip":"6391111"},{"town":"泉原町","koaza":"","lat":34.634658,"lng":135.744675,"zip":"6391056"},{"town":"櫟枝町","koaza":"","lat":34.619126,"lng":135.811595,"zip":"6391113"},{"town":"伊豆七条町","koaza":"","lat":34.615014,"lng":135.795497,"zip":"6391116"},{"town":"井戸野町","koaza":"","lat":34.635384,"lng":135.815835,"zip":"6391104"},{"town":"藺町","koaza":"","lat":34.650233,"lng":135.785386,"zip":"6391158"},{"town":"今井町","koaza":"","lat":34.648998,"lng":135.78545,"zip":"6391155"},{"town":"今国府町","koaza":"","lat":34.615388,"lng":135.770061,"zip":"6391031"},{"town":"植槻町","koaza":"","lat":34.654033,"lng":135.780334,"zip":"6391005"},{"town":"魚町","koaza":"","lat":34.652042,"lng":135.786489,"zip":"6391168"},{"town":"永慶寺町","koaza":"","lat":34.648538,"lng":135.776338,"zip":"6391019"},{"town":"大江町","koaza":"","lat":34.634466,"lng":135.804518,"zip":"6391106"},{"town":"大宮町","koaza":"","lat":34.645617,"lng":135.782648,"zip":"6391138"},{"town":"柏木町","koaza":"","lat":34.604438,"lng":135.780375,"zip":"6391034"},{"town":"上三橋町","koaza":"","lat":34.645841,"lng":135.812039,"zip":"6391102"},{"town":"冠山町","koaza":"","lat":34.651122,"lng":135.774767,"zip":"6391018"},{"town":"観音寺町","koaza":"","lat":34.655402,"lng":135.791996,"zip":"6391161"},{"town":"北鍛冶町","koaza":"","lat":34.652461,"lng":135.788595,"zip":"6391165"},{"town":"北郡山町","koaza":"","lat":34.653268,"lng":135.785166,"zip":"6391160"},{"town":"北大工町","koaza":"","lat":34.646071,"lng":135.784142,"zip":"6391146"},{"town":"北西町","koaza":"","lat":34.623298,"lng":135.774155,"zip":"6391025"},{"town":"九条町","koaza":"","lat":34.658628,"lng":135.77432,"zip":"6391001"},{"town":"九条平野町","koaza":"","lat":34.658857,"lng":135.781646,"zip":"6391002"},{"town":"車町","koaza":"","lat":34.6473,"lng":135.784595,"zip":"6391147"},{"town":"小泉町","koaza":"","lat":34.626336,"lng":135.757338,"zip":"6391042"},{"town":"小泉町東一丁目","koaza":"","lat":34.622821,"lng":135.764934,"zip":"6391044"},{"town":"小泉町東二丁目","koaza":"","lat":34.620722,"lng":135.764607,"zip":"6391044"},{"town":"小泉町東三丁目","koaza":"","lat":34.620757,"lng":135.762999,"zip":"6391044"},{"town":"小林町","koaza":"","lat":34.623498,"lng":135.769518,"zip":"6391026"},{"town":"小林町西一丁目","koaza":"","lat":34.622492,"lng":135.766579,"zip":"6391045"},{"town":"小林町西二丁目","koaza":"","lat":34.621047,"lng":135.7665,"zip":"6391045"},{"town":"小林町西三丁目","koaza":"","lat":34.62006,"lng":135.766505,"zip":"6391045"},{"town":"小南町","koaza":"","lat":34.633203,"lng":135.774791,"zip":"6391023"},{"town":"紺屋町","koaza":"","lat":34.647767,"lng":135.785195,"zip":"6391148"},{"town":"材木町","koaza":"","lat":34.647588,"lng":135.787074,"zip":"6391141"},{"town":"堺町","koaza":"","lat":34.649976,"lng":135.783825,"zip":"6391156"},{"town":"雑穀町","koaza":"","lat":34.650242,"lng":135.786664,"zip":"6391150"},{"town":"塩町","koaza":"","lat":34.651918,"lng":135.784334,"zip":"6391169"},{"town":"椎木町","koaza":"","lat":34.612111,"lng":135.765013,"zip":"6391039"},{"town":"下三橋町","koaza":"","lat":34.647781,"lng":135.801983,"zip":"6391101"},{"town":"城町","koaza":"","lat":34.65392,"lng":135.762463,"zip":"6391051"},{"town":"城内町","koaza":"","lat":34.65117,"lng":135.778766,"zip":"6391011"},{"town":"城南町","koaza":"","lat":34.646503,"lng":135.775862,"zip":"6391016"},{"town":"城北町","koaza":"","lat":34.656408,"lng":135.779009,"zip":"6391004"},{"town":"昭和町","koaza":"","lat":34.60679,"lng":135.781643,"zip":"6391033"},{"town":"白土町","koaza":"","lat":34.627606,"lng":135.811369,"zip":"6391112"},{"town":"城の台町","koaza":"","lat":34.655522,"lng":135.76923,"zip":"6391008"},{"town":"城見町","koaza":"","lat":34.648648,"lng":135.779277,"zip":"6391012"},{"town":"新紺屋町","koaza":"","lat":34.64669,"lng":135.785831,"zip":"6391143"},{"town":"新庄町","koaza":"","lat":34.613479,"lng":135.811866,"zip":"6391114"},{"town":"新中町","koaza":"","lat":34.65028,"lng":135.784608,"zip":"6391157"},{"town":"新町","koaza":"","lat":34.638777,"lng":135.748262,"zip":"6391054"},{"town":"杉町","koaza":"","lat":34.633391,"lng":135.787504,"zip":"6391121"},{"town":"千日町","koaza":"","lat":34.644839,"lng":135.758039,"zip":"6391053"},{"town":"代官町","koaza":"","lat":34.656506,"lng":135.781192,"zip":"6391003"},{"town":"高田口町","koaza":"","lat":34.646475,"lng":135.78826,"zip":"6391133"},{"town":"高田町","koaza":"","lat":34.643977,"lng":135.791237,"zip":"6391132"},{"town":"田中町","koaza":"","lat":34.64147,"lng":135.769366,"zip":"6391028"},{"town":"丹後庄町","koaza":"","lat":34.627153,"lng":135.787193,"zip":"6391122"},{"town":"茶町","koaza":"","lat":34.650456,"lng":135.787359,"zip":"6391152"},{"town":"長安寺町","koaza":"","lat":34.606929,"lng":135.785569,"zip":"6391127"},{"town":"筒井町","koaza":"","lat":34.623523,"lng":135.780602,"zip":"6391123"},{"town":"天井町","koaza":"","lat":34.640313,"lng":135.785394,"zip":"6391135"},{"town":"天理町","koaza":"","lat":34.653856,"lng":135.777216,"zip":"6391006"},{"town":"洞泉寺町","koaza":"","lat":34.64579,"lng":135.785163,"zip":"6391144"},{"town":"豆腐町","koaza":"","lat":34.648388,"lng":135.785184,"zip":"6391149"},{"town":"外川町","koaza":"","lat":34.645991,"lng":135.764523,"zip":"6391052"},{"town":"豊浦町","koaza":"","lat":34.633523,"lng":135.779701,"zip":"6391022"},{"town":"中鍛冶町","koaza":"","lat":34.651726,"lng":135.788184,"zip":"6391166"},{"town":"中城町","koaza":"","lat":34.628244,"lng":135.79743,"zip":"6391118"},{"town":"奈良町","koaza":"","lat":34.650267,"lng":135.786053,"zip":"6391159"},{"town":"新木町","koaza":"","lat":34.642362,"lng":135.776232,"zip":"6391021"},{"town":"西岡町","koaza":"","lat":34.644158,"lng":135.779235,"zip":"6391014"},{"town":"西観音寺町","koaza":"","lat":34.654371,"lng":135.788732,"zip":"6391164"},{"town":"西田中町","koaza":"","lat":34.637761,"lng":135.752571,"zip":"6391043"},{"town":"西奈良口町","koaza":"","lat":34.656495,"lng":135.788434,"zip":"6391163"},{"town":"西野垣内町","koaza":"","lat":34.649926,"lng":135.78826,"zip":"6391153"},{"town":"西町","koaza":"","lat":34.606496,"lng":135.76984,"zip":"6391038"},{"town":"額田部北町","koaza":"","lat":34.604709,"lng":135.774227,"zip":"6391037"},{"town":"額田部寺町","koaza":"","lat":34.599976,"lng":135.772277,"zip":"6391036"},{"town":"額田部南町","koaza":"","lat":34.598226,"lng":135.776392,"zip":"6391035"},{"town":"野垣内町","koaza":"","lat":34.650975,"lng":135.791961,"zip":"6391131"},{"town":"八条町","koaza":"","lat":34.607921,"lng":135.792674,"zip":"6391125"},{"town":"発志院町","koaza":"","lat":34.627686,"lng":135.803796,"zip":"6391119"},{"town":"番匠田中町","koaza":"","lat":34.633444,"lng":135.807733,"zip":"6391105"},{"town":"番条町","koaza":"","lat":34.627053,"lng":135.793447,"zip":"6391117"},{"town":"稗田町","koaza":"","lat":34.637541,"lng":135.792821,"zip":"6391108"},{"town":"東岡町","koaza":"","lat":34.643589,"lng":135.781621,"zip":"6391137"},{"town":"東奈良口町","koaza":"","lat":34.65667,"lng":135.788953,"zip":"6391162"},{"town":"藤原町","koaza":"","lat":34.648402,"lng":135.774218,"zip":"6391017"},{"town":"本庄町","koaza":"","lat":34.635435,"lng":135.782137,"zip":"6391136"},{"town":"本町","koaza":"","lat":34.651279,"lng":135.785167,"zip":"6391151"},{"town":"馬司町","koaza":"","lat":34.613371,"lng":135.785206,"zip":"6391124"},{"town":"満願寺町","koaza":"","lat":34.637819,"lng":135.763219,"zip":"6391041"},{"town":"南井町","koaza":"","lat":34.627748,"lng":135.777205,"zip":"6391024"},{"town":"南鍛冶町","koaza":"","lat":34.651378,"lng":135.788185,"zip":"6391167"},{"town":"南郡山町","koaza":"","lat":34.649581,"lng":135.772002,"zip":"6391007"},{"town":"南大工町","koaza":"","lat":34.644619,"lng":135.784178,"zip":"6391145"},{"town":"美濃庄町","koaza":"","lat":34.640524,"lng":135.80743,"zip":"6391103"},{"town":"箕山町","koaza":"","lat":34.644394,"lng":135.776574,"zip":"6391015"},{"town":"宮堂町","koaza":"","lat":34.600365,"lng":135.786902,"zip":"6391126"},{"town":"矢田町","koaza":"","lat":34.654178,"lng":135.741821,"zip":"6391058"},{"town":"矢田町通","koaza":"","lat":34.646925,"lng":135.786305,"zip":"6391142"},{"town":"矢田山町","koaza":"","lat":34.642678,"lng":135.746258,"zip":"6391055"},{"town":"柳一丁目","koaza":"","lat":34.648344,"lng":135.783287,"zip":"6391134"},{"town":"柳二丁目","koaza":"","lat":34.647392,"lng":135.783307,"zip":"6391134"},{"town":"柳三丁目","koaza":"","lat":34.646157,"lng":135.783315,"zip":"6391134"},{"town":"柳四丁目","koaza":"","lat":34.644829,"lng":135.783261,"zip":"6391134"},{"town":"柳五丁目","koaza":"","lat":34.643116,"lng":135.783074,"zip":"6391134"},{"town":"柳六丁目","koaza":"","lat":34.640824,"lng":135.782056,"zip":"6391134"},{"town":"柳町","koaza":"","lat":34.644125,"lng":135.786262,"zip":"6391134"},{"town":"山田町","koaza":"","lat":34.631144,"lng":135.742207,"zip":"6391057"},{"town":"横田町","koaza":"","lat":34.618464,"lng":135.8021,"zip":"6391115"},{"town":"若槻町","koaza":"","lat":34.636344,"lng":135.799128,"zip":"6391107"},{"town":"綿町","koaza":"","lat":34.649378,"lng":135.786743,"zip":"6391154"},{"town":"小泉町","koaza":"桐ノ内","lat":34.626594,"lng":135.753081,"zip":"6391042"},{"town":"田中町","koaza":"宮西","lat":34.642392,"lng":135.769142,"zip":"6391028"},{"town":"筒井町","koaza":"辰巳田","lat":34.619741,"lng":135.788803,"zip":"6391123"}]