[{"town":"合場町","koaza":"","lat":34.585892,"lng":135.810945,"zip":"6320068"},{"town":"荒蒔町","koaza":"","lat":34.597909,"lng":135.804787,"zip":"6320082"},{"town":"石上町","koaza":"","lat":34.613034,"lng":135.854541,"zip":"6320011"},{"town":"櫟本町","koaza":"","lat":34.619672,"lng":135.827452,"zip":"6320004"},{"town":"稲葉町","koaza":"","lat":34.592319,"lng":135.804316,"zip":"6320083"},{"town":"岩室町","koaza":"","lat":34.593747,"lng":135.812111,"zip":"6320076"},{"town":"岩屋町","koaza":"","lat":34.617436,"lng":135.857826,"zip":"6320003"},{"town":"内馬場町","koaza":"","lat":34.593026,"lng":135.862855,"zip":"6320031"},{"town":"庵治町","koaza":"","lat":34.581956,"lng":135.793285,"zip":"6320086"},{"town":"乙木町","koaza":"","lat":34.582046,"lng":135.849938,"zip":"6320047"},{"town":"海知町","koaza":"","lat":34.563769,"lng":135.820077,"zip":"6320064"},{"town":"嘉幡町","koaza":"","lat":34.589665,"lng":135.797859,"zip":"6320084"},{"town":"上仁興町","koaza":"","lat":34.573531,"lng":135.894393,"zip":"6320024"},{"town":"萱生町","koaza":"","lat":34.570931,"lng":135.849252,"zip":"6320042"},{"town":"川原城町","koaza":"","lat":34.599518,"lng":135.834639,"zip":"6320016"},{"town":"上総町","koaza":"","lat":34.611787,"lng":135.820342,"zip":"6320091"},{"town":"岸田町","koaza":"","lat":34.565066,"lng":135.832589,"zip":"6320056"},{"town":"喜殿町","koaza":"","lat":34.608837,"lng":135.815309,"zip":"6320095"},{"town":"九条町","koaza":"","lat":34.581534,"lng":135.821236,"zip":"6320069"},{"town":"蔵之庄町","koaza":"","lat":34.63263,"lng":135.826598,"zip":"6320006"},{"town":"御経野町","koaza":"","lat":34.592613,"lng":135.838622,"zip":"6320036"},{"town":"小島町","koaza":"","lat":34.584539,"lng":135.802646,"zip":"6320085"},{"town":"小田中町","koaza":"","lat":34.610092,"lng":135.826051,"zip":"6320092"},{"town":"指柳町","koaza":"","lat":34.604535,"lng":135.825512,"zip":"6320093"},{"town":"佐保庄町","koaza":"","lat":34.57626,"lng":135.844765,"zip":"6320043"},{"town":"三昧田町","koaza":"","lat":34.580928,"lng":135.838148,"zip":"6320046"},{"town":"渋谷町","koaza":"","lat":34.552489,"lng":135.854741,"zip":"6320053"},{"town":"下仁興町","koaza":"","lat":34.581103,"lng":135.884782,"zip":"6320023"},{"town":"成願寺町","koaza":"","lat":34.569385,"lng":135.841751,"zip":"6320058"},{"town":"小路町","koaza":"","lat":34.603675,"lng":135.807121,"zip":"6320096"},{"town":"杉本町","koaza":"","lat":34.601706,"lng":135.815434,"zip":"6320078"},{"town":"前栽町","koaza":"","lat":34.601808,"lng":135.819802,"zip":"6320094"},{"town":"園原町","koaza":"","lat":34.585177,"lng":135.852852,"zip":"6320048"},{"town":"杣之内町","koaza":"","lat":34.591928,"lng":135.850883,"zip":"6320032"},{"town":"田井庄町","koaza":"","lat":34.598497,"lng":135.825574,"zip":"6320071"},{"town":"滝本町","koaza":"","lat":34.598395,"lng":135.871681,"zip":"6320021"},{"town":"竹之内町","koaza":"","lat":34.578019,"lng":135.849749,"zip":"6320041"},{"town":"田町","koaza":"","lat":34.589244,"lng":135.830684,"zip":"6320073"},{"town":"田部町","koaza":"","lat":34.607304,"lng":135.829955,"zip":"6320017"},{"town":"丹波市町","koaza":"","lat":34.594829,"lng":135.83252,"zip":"6320034"},{"town":"苣原町","koaza":"","lat":34.585328,"lng":135.897486,"zip":"6320022"},{"town":"遠田町","koaza":"","lat":34.558382,"lng":135.823578,"zip":"6320055"},{"town":"富堂町","koaza":"","lat":34.595596,"lng":135.819836,"zip":"6320072"},{"town":"豊井町","koaza":"","lat":34.604656,"lng":135.856789,"zip":"6320013"},{"town":"豊田町","koaza":"","lat":34.606904,"lng":135.849703,"zip":"6320012"},{"town":"長滝町","koaza":"","lat":34.595182,"lng":135.888744,"zip":"6320123"},{"town":"中町","koaza":"","lat":34.605119,"lng":135.799362,"zip":"6320097"},{"town":"中之庄町","koaza":"","lat":34.635081,"lng":135.841535,"zip":"6320001"},{"town":"永原町","koaza":"","lat":34.581034,"lng":135.829754,"zip":"6320061"},{"town":"中山町","koaza":"","lat":34.565002,"lng":135.847544,"zip":"6320051"},{"town":"長柄町","koaza":"","lat":34.572022,"lng":135.828362,"zip":"6320062"},{"town":"楢町","koaza":"","lat":34.624916,"lng":135.828293,"zip":"6320005"},{"town":"新泉町","koaza":"","lat":34.569039,"lng":135.834526,"zip":"6320057"},{"town":"二階堂上ノ庄町","koaza":"","lat":34.598804,"lng":135.799351,"zip":"6320081"},{"town":"二階堂北菅田町","koaza":"","lat":34.599176,"lng":135.792971,"zip":"6320088"},{"town":"二階堂南菅田町","koaza":"","lat":34.595028,"lng":135.792562,"zip":"6320087"},{"town":"西井戸堂町","koaza":"","lat":34.58589,"lng":135.816656,"zip":"6320075"},{"town":"西長柄町","koaza":"","lat":34.57192,"lng":135.821896,"zip":"6320063"},{"town":"檜垣町","koaza":"","lat":34.555693,"lng":135.82877,"zip":"6320054"},{"town":"東井戸堂町","koaza":"","lat":34.589918,"lng":135.822208,"zip":"6320074"},{"town":"備前町","koaza":"","lat":34.572817,"lng":135.815728,"zip":"6320066"},{"town":"兵庫町","koaza":"","lat":34.573332,"lng":135.836528,"zip":"6320044"},{"town":"平等坊町","koaza":"","lat":34.599667,"lng":135.812174,"zip":"6320077"},{"town":"福住町","koaza":"","lat":34.61232,"lng":135.914051,"zip":"6320122"},{"town":"福知堂町","koaza":"","lat":34.579133,"lng":135.834292,"zip":"6320045"},{"town":"藤井町","koaza":"","lat":34.564366,"lng":135.881127,"zip":"6320025"},{"town":"布留町","koaza":"","lat":34.599353,"lng":135.848117,"zip":"6320014"},{"town":"別所町","koaza":"","lat":34.609785,"lng":135.836398,"zip":"6320018"},{"town":"勾田町","koaza":"","lat":34.589717,"lng":135.838151,"zip":"6320033"},{"town":"三島町","koaza":"","lat":34.601441,"lng":135.841117,"zip":"6320015"},{"town":"南六条町","koaza":"","lat":34.608718,"lng":135.803447,"zip":"6320098"},{"town":"武蔵町","koaza":"","lat":34.565523,"lng":135.814967,"zip":"6320065"},{"town":"守目堂町","koaza":"","lat":34.595222,"lng":135.837805,"zip":"6320035"},{"town":"森本町","koaza":"","lat":34.631631,"lng":135.835111,"zip":"6320007"},{"town":"柳本町","koaza":"","lat":34.555738,"lng":135.847709,"zip":"6320052"},{"town":"山田町","koaza":"","lat":34.628658,"lng":135.929874,"zip":"6320121"},{"town":"吉田町","koaza":"","lat":34.577984,"lng":135.810427,"zip":"6320067"},{"town":"和爾町","koaza":"","lat":34.628448,"lng":135.842366,"zip":"6320002"}]