[{"town":"青垣台一丁目","koaza":"","lat":34.671769,"lng":135.759327,"zip":"6310053"},{"town":"青垣台二丁目","koaza":"","lat":34.6693,"lng":135.760914,"zip":"6310053"},{"town":"青垣台三丁目","koaza":"","lat":34.669138,"lng":135.762481,"zip":"6310053"},{"town":"青山一丁目","koaza":"","lat":34.710042,"lng":135.831692,"zip":"6308101"},{"town":"青山二丁目","koaza":"","lat":34.708312,"lng":135.832656,"zip":"6308101"},{"town":"青山三丁目","koaza":"","lat":34.707416,"lng":135.834958,"zip":"6308101"},{"town":"青山四丁目","koaza":"","lat":34.706276,"lng":135.836563,"zip":"6308101"},{"town":"青山五丁目","koaza":"","lat":34.705683,"lng":135.838593,"zip":"6308101"},{"town":"青山六丁目","koaza":"","lat":34.70577,"lng":135.84011,"zip":"6308101"},{"town":"青山七丁目","koaza":"","lat":34.705307,"lng":135.843297,"zip":"6308101"},{"town":"青山八丁目","koaza":"","lat":34.707534,"lng":135.843241,"zip":"6308101"},{"town":"青山九丁目","koaza":"","lat":34.710253,"lng":135.837166,"zip":"6308101"},{"town":"赤膚町","koaza":"","lat":34.673992,"lng":135.762921,"zip":"6308035"},{"town":"秋篠早月町","koaza":"","lat":34.699712,"lng":135.783129,"zip":"6310812"},{"town":"秋篠三和町一丁目","koaza":"","lat":34.700201,"lng":135.7769,"zip":"6310814"},{"town":"秋篠三和町二丁目","koaza":"","lat":34.699938,"lng":135.774162,"zip":"6310814"},{"town":"秋篠新町","koaza":"","lat":34.700086,"lng":135.780328,"zip":"6310813"},{"town":"秋篠町","koaza":"","lat":34.708047,"lng":135.775967,"zip":"6310811"},{"town":"朝日町一丁目","koaza":"","lat":34.705745,"lng":135.759738,"zip":"6310014"},{"town":"朝日町二丁目","koaza":"","lat":34.706921,"lng":135.763027,"zip":"6310014"},{"town":"阿字万字町","koaza":"","lat":34.678535,"lng":135.828143,"zip":"6308346"},{"town":"油阪地方町","koaza":"","lat":34.682428,"lng":135.821578,"zip":"6308246"},{"town":"油阪町","koaza":"","lat":34.684481,"lng":135.82311,"zip":"6308247"},{"town":"尼辻北町","koaza":"","lat":34.685475,"lng":135.785544,"zip":"6308025"},{"town":"尼辻町","koaza":"","lat":34.677644,"lng":135.801136,"zip":"6308021"},{"town":"尼辻中町","koaza":"","lat":34.680356,"lng":135.785442,"zip":"6308024"},{"town":"尼辻西町","koaza":"","lat":34.680633,"lng":135.781717,"zip":"6308023"},{"town":"尼辻南町","koaza":"","lat":34.678478,"lng":135.785488,"zip":"6308022"},{"town":"あやめ池北一丁目","koaza":"","lat":34.700875,"lng":135.758894,"zip":"6310032"},{"town":"あやめ池北二丁目","koaza":"","lat":34.701746,"lng":135.762569,"zip":"6310032"},{"town":"あやめ池北三丁目","koaza":"","lat":34.69969,"lng":135.76584,"zip":"6310032"},{"town":"あやめ池南一丁目","koaza":"","lat":34.696207,"lng":135.758983,"zip":"6310033"},{"town":"あやめ池南二丁目","koaza":"","lat":34.696592,"lng":135.762859,"zip":"6310033"},{"town":"あやめ池南三丁目","koaza":"","lat":34.69713,"lng":135.766485,"zip":"6310033"},{"town":"あやめ池南四丁目","koaza":"","lat":34.695811,"lng":135.76536,"zip":"6310033"},{"town":"あやめ池南五丁目","koaza":"","lat":34.693674,"lng":135.766353,"zip":"6310033"},{"town":"あやめ池南六丁目","koaza":"","lat":34.694965,"lng":135.762021,"zip":"6310033"},{"town":"あやめ池南七丁目","koaza":"","lat":34.691609,"lng":135.763851,"zip":"6310033"},{"town":"あやめ池南八丁目","koaza":"","lat":34.692083,"lng":135.760788,"zip":"6310033"},{"town":"あやめ池南九丁目","koaza":"","lat":34.69392,"lng":135.758018,"zip":"6310033"},{"town":"藺生町","koaza":"","lat":34.587055,"lng":135.935737,"zip":"6320245"},{"town":"池田町","koaza":"","lat":34.640381,"lng":135.819375,"zip":"6308445"},{"town":"池之町","koaza":"","lat":34.680481,"lng":135.831467,"zip":"6308361"},{"town":"石木町","koaza":"","lat":34.664988,"lng":135.760081,"zip":"6310054"},{"town":"井上町","koaza":"","lat":34.674241,"lng":135.83054,"zip":"6308317"},{"town":"今市町","koaza":"","lat":34.644971,"lng":135.822417,"zip":"6308444"},{"town":"今小路町","koaza":"","lat":34.690459,"lng":135.834904,"zip":"6308207"},{"town":"今在家町","koaza":"","lat":34.694291,"lng":135.834902,"zip":"6308205"},{"town":"今辻子町","koaza":"","lat":34.683062,"lng":135.823262,"zip":"6308243"},{"town":"今御門町","koaza":"","lat":34.680316,"lng":135.830465,"zip":"6308374"},{"town":"陰陽町","koaza":"","lat":34.67707,"lng":135.828307,"zip":"6308338"},{"town":"右京一丁目","koaza":"","lat":34.722583,"lng":135.790188,"zip":"6310805"},{"town":"右京二丁目","koaza":"","lat":34.717361,"lng":135.790364,"zip":"6310805"},{"town":"右京三丁目","koaza":"","lat":34.718368,"lng":135.785568,"zip":"6310805"},{"town":"右京四丁目","koaza":"","lat":34.720777,"lng":135.786048,"zip":"6310805"},{"town":"右京五丁目","koaza":"","lat":34.723376,"lng":135.786696,"zip":"6310805"},{"town":"歌姫町","koaza":"","lat":34.70717,"lng":135.799112,"zip":"6310802"},{"town":"荻町","koaza":"","lat":34.64271,"lng":135.965608,"zip":"6320103"},{"town":"邑地町","koaza":"","lat":34.71754,"lng":135.976701,"zip":"6301233"},{"town":"大野町","koaza":"","lat":34.661598,"lng":135.924922,"zip":"6302161"},{"town":"大渕町","koaza":"","lat":34.709028,"lng":135.743807,"zip":"6310005"},{"town":"大保町","koaza":"","lat":34.702415,"lng":135.947141,"zip":"6301236"},{"town":"大宮町一丁目","koaza":"","lat":34.683472,"lng":135.819208,"zip":"6308115"},{"town":"大宮町二丁目","koaza":"","lat":34.683189,"lng":135.815841,"zip":"6308115"},{"town":"大宮町三丁目","koaza":"","lat":34.68319,"lng":135.812854,"zip":"6308115"},{"town":"大宮町四丁目","koaza":"","lat":34.68306,"lng":135.809281,"zip":"6308115"},{"town":"大宮町五丁目","koaza":"","lat":34.684854,"lng":135.814671,"zip":"6308115"},{"town":"大宮町六丁目","koaza":"","lat":34.685147,"lng":135.809348,"zip":"6308115"},{"town":"大宮町七丁目","koaza":"","lat":34.684069,"lng":135.806323,"zip":"6308115"},{"town":"大森町","koaza":"","lat":34.676424,"lng":135.819947,"zip":"6308131"},{"town":"大森西町","koaza":"","lat":34.676605,"lng":135.813657,"zip":"6308132"},{"town":"大柳生町","koaza":"","lat":34.708224,"lng":135.932308,"zip":"6301242"},{"town":"大倭町","koaza":"","lat":34.681315,"lng":135.75809,"zip":"6310042"},{"town":"大和田町","koaza":"","lat":34.663242,"lng":135.750112,"zip":"6310055"},{"town":"小川町","koaza":"","lat":34.680328,"lng":135.825825,"zip":"6308233"},{"town":"興ヶ原町","koaza":"","lat":34.736389,"lng":135.96915,"zip":"6301232"},{"town":"奥子守町","koaza":"","lat":34.68033,"lng":135.824553,"zip":"6308235"},{"town":"奥芝町","koaza":"","lat":34.686049,"lng":135.823222,"zip":"6308256"},{"town":"小倉町","koaza":"","lat":34.618883,"lng":135.986267,"zip":"6320111"},{"town":"押上町","koaza":"","lat":34.688078,"lng":135.83465,"zip":"6308273"},{"town":"押熊町","koaza":"","lat":34.719133,"lng":135.767883,"zip":"6310011"},{"town":"押小路町","koaza":"","lat":34.688894,"lng":135.832083,"zip":"6308294"},{"town":"大平尾町","koaza":"","lat":34.682382,"lng":135.92763,"zip":"6301243"},{"town":"肘塚町","koaza":"","lat":34.669669,"lng":135.83052,"zip":"6308142"},{"town":"学園赤松町","koaza":"","lat":34.704907,"lng":135.738977,"zip":"6310027"},{"town":"学園朝日町","koaza":"","lat":34.702358,"lng":135.753515,"zip":"6310016"},{"town":"学園朝日元町一丁目","koaza":"","lat":34.702961,"lng":135.755738,"zip":"6310015"},{"town":"学園朝日元町二丁目","koaza":"","lat":34.706835,"lng":135.756028,"zip":"6310015"},{"town":"学園北一丁目","koaza":"","lat":34.69874,"lng":135.749264,"zip":"6310036"},{"town":"学園北二丁目","koaza":"","lat":34.698724,"lng":135.753529,"zip":"6310036"},{"town":"学園新田町","koaza":"","lat":34.702585,"lng":135.746253,"zip":"6310025"},{"town":"学園大和町一丁目","koaza":"","lat":34.689957,"lng":135.747735,"zip":"6310041"},{"town":"学園大和町二丁目","koaza":"","lat":34.686245,"lng":135.751784,"zip":"6310041"},{"town":"学園大和町三丁目","koaza":"","lat":34.685827,"lng":135.748691,"zip":"6310041"},{"town":"学園大和町四丁目","koaza":"","lat":34.686202,"lng":135.743805,"zip":"6310041"},{"town":"学園大和町五丁目","koaza":"","lat":34.689046,"lng":135.743064,"zip":"6310041"},{"town":"学園大和町六丁目","koaza":"","lat":34.691241,"lng":135.742043,"zip":"6310041"},{"town":"学園中一丁目","koaza":"","lat":34.695698,"lng":135.746127,"zip":"6310035"},{"town":"学園中二丁目","koaza":"","lat":34.693551,"lng":135.747838,"zip":"6310035"},{"town":"学園中三丁目","koaza":"","lat":34.692933,"lng":135.745656,"zip":"6310035"},{"town":"学園中四丁目","koaza":"","lat":34.695156,"lng":135.74256,"zip":"6310035"},{"town":"学園中五丁目","koaza":"","lat":34.693029,"lng":135.74292,"zip":"6310035"},{"town":"学園緑ヶ丘一丁目","koaza":"","lat":34.70479,"lng":135.741921,"zip":"6310026"},{"town":"学園緑ヶ丘二丁目","koaza":"","lat":34.702725,"lng":135.74219,"zip":"6310026"},{"town":"学園緑ヶ丘三丁目","koaza":"","lat":34.7029,"lng":135.743796,"zip":"6310026"},{"town":"学園南一丁目","koaza":"","lat":34.695581,"lng":135.754229,"zip":"6310034"},{"town":"学園南二丁目","koaza":"","lat":34.692082,"lng":135.75438,"zip":"6310034"},{"town":"学園南三丁目","koaza":"","lat":34.692691,"lng":135.750316,"zip":"6310034"},{"town":"鵲町","koaza":"","lat":34.677893,"lng":135.832314,"zip":"6308391"},{"town":"柏木町","koaza":"","lat":34.669657,"lng":135.797064,"zip":"6308031"},{"town":"春日野町","koaza":"","lat":34.679488,"lng":135.856793,"zip":"6308212"},{"town":"桂木町","koaza":"","lat":34.667776,"lng":135.820622,"zip":"6308143"},{"town":"上三条町","koaza":"","lat":34.68204,"lng":135.825886,"zip":"6308228"},{"town":"上深川町","koaza":"","lat":34.638786,"lng":135.986454,"zip":"6320102"},{"town":"杏町","koaza":"","lat":34.660245,"lng":135.800294,"zip":"6308454"},{"town":"川上町","koaza":"","lat":34.697932,"lng":135.850326,"zip":"6308202"},{"town":"川久保町","koaza":"","lat":34.68876,"lng":135.833255,"zip":"6308293"},{"town":"川之上町","koaza":"","lat":34.675081,"lng":135.832056,"zip":"6308313"},{"town":"川之上突抜町","koaza":"","lat":34.674161,"lng":135.831771,"zip":"6308314"},{"town":"瓦堂町","koaza":"","lat":34.674137,"lng":135.829016,"zip":"6308326"},{"town":"元興寺町","koaza":"","lat":34.675543,"lng":135.83029,"zip":"6308332"},{"town":"漢国町","koaza":"","lat":34.68352,"lng":135.825305,"zip":"6308242"},{"town":"元林院町","koaza":"","lat":34.68117,"lng":135.829771,"zip":"6308221"},{"town":"北市町","koaza":"","lat":34.688107,"lng":135.823238,"zip":"6308261"},{"town":"北魚屋西町","koaza":"","lat":34.688319,"lng":135.828612,"zip":"6308263"},{"town":"北魚屋東町","koaza":"","lat":34.688998,"lng":135.83018,"zip":"6308285"},{"town":"北川端町","koaza":"","lat":34.690681,"lng":135.829163,"zip":"6308297"},{"town":"北京終町","koaza":"","lat":34.672733,"lng":135.82878,"zip":"6308322"},{"town":"北小路町","koaza":"","lat":34.687498,"lng":135.826154,"zip":"6308252"},{"town":"北新町","koaza":"","lat":34.686443,"lng":135.804912,"zip":"6308011"},{"town":"北椿尾町","koaza":"","lat":34.637801,"lng":135.877687,"zip":"6308405"},{"town":"北登美ヶ丘一丁目","koaza":"","lat":34.723852,"lng":135.753929,"zip":"6310001"},{"town":"北登美ヶ丘二丁目","koaza":"","lat":34.726516,"lng":135.756762,"zip":"6310001"},{"town":"北登美ヶ丘三丁目","koaza":"","lat":34.723646,"lng":135.756683,"zip":"6310001"},{"town":"北登美ヶ丘四丁目","koaza":"","lat":34.724111,"lng":135.76002,"zip":"6310001"},{"town":"北登美ヶ丘五丁目","koaza":"","lat":34.725846,"lng":135.760565,"zip":"6310001"},{"town":"北登美ヶ丘六丁目","koaza":"","lat":34.724673,"lng":135.767001,"zip":"6310001"},{"town":"北永井町","koaza":"","lat":34.655425,"lng":135.8269,"zip":"6308442"},{"town":"北之庄町","koaza":"","lat":34.651415,"lng":135.814918,"zip":"6308451"},{"town":"北之庄西町一丁目","koaza":"","lat":34.652168,"lng":135.807815,"zip":"6308452"},{"town":"北之庄西町二丁目","koaza":"","lat":34.65016,"lng":135.806943,"zip":"6308452"},{"town":"北野山町","koaza":"","lat":34.695124,"lng":135.97465,"zip":"6301234"},{"town":"北半田中町","koaza":"","lat":34.688111,"lng":135.832472,"zip":"6308275"},{"town":"北半田西町","koaza":"","lat":34.688152,"lng":135.831256,"zip":"6308276"},{"town":"北半田東町","koaza":"","lat":34.688139,"lng":135.833628,"zip":"6308274"},{"town":"北袋町","koaza":"","lat":34.68989,"lng":135.829354,"zip":"6308262"},{"town":"北風呂町","koaza":"","lat":34.678512,"lng":135.826482,"zip":"6308352"},{"town":"北御門町","koaza":"","lat":34.694612,"lng":135.837033,"zip":"6308204"},{"town":"北向町","koaza":"","lat":34.681083,"lng":135.82516,"zip":"6308232"},{"town":"北村町","koaza":"","lat":34.719306,"lng":135.899432,"zip":"6301113"},{"town":"北室町","koaza":"","lat":34.678436,"lng":135.829666,"zip":"6308364"},{"town":"紀寺町","koaza":"","lat":34.672733,"lng":135.833573,"zip":"6308306"},{"town":"京終地方西側町","koaza":"","lat":34.672716,"lng":135.827425,"zip":"6308324"},{"town":"京終地方東側町","koaza":"","lat":34.67287,"lng":135.827814,"zip":"6308323"},{"town":"沓掛町","koaza":"","lat":34.670813,"lng":135.917586,"zip":"6302172"},{"town":"公納堂町","koaza":"","lat":34.677122,"lng":135.832921,"zip":"6308382"},{"town":"窪之庄町","koaza":"","lat":34.637498,"lng":135.834651,"zip":"6308431"},{"town":"恋の窪一丁目","koaza":"","lat":34.676347,"lng":135.80918,"zip":"6308136"},{"town":"恋の窪二丁目","koaza":"","lat":34.674127,"lng":135.808826,"zip":"6308136"},{"town":"恋の窪三丁目","koaza":"","lat":34.673761,"lng":135.807028,"zip":"6308136"},{"town":"恋の窪東町","koaza":"","lat":34.67398,"lng":135.810441,"zip":"6308137"},{"town":"興善院町","koaza":"","lat":34.697195,"lng":135.835698,"zip":"6308103"},{"town":"光明院町","koaza":"","lat":34.679648,"lng":135.828625,"zip":"6308371"},{"town":"興隆寺町","koaza":"","lat":34.626698,"lng":135.876713,"zip":"6308403"},{"town":"虚空蔵町","koaza":"","lat":34.625974,"lng":135.855155,"zip":"6308412"},{"town":"五条一丁目","koaza":"","lat":34.677037,"lng":135.781613,"zip":"6308033"},{"town":"五条二丁目","koaza":"","lat":34.674163,"lng":135.78154,"zip":"6308033"},{"town":"五条三丁目","koaza":"","lat":34.673291,"lng":135.778039,"zip":"6308033"},{"town":"五条町","koaza":"","lat":34.674661,"lng":135.789002,"zip":"6308032"},{"town":"五条西一丁目","koaza":"","lat":34.673955,"lng":135.770127,"zip":"6308034"},{"town":"五条西二丁目","koaza":"","lat":34.673675,"lng":135.766184,"zip":"6308034"},{"town":"五条畑一丁目","koaza":"","lat":34.676734,"lng":135.768877,"zip":"6308036"},{"town":"五条畑二丁目","koaza":"","lat":34.679509,"lng":135.764788,"zip":"6308036"},{"town":"小太郎町","koaza":"","lat":34.677453,"lng":135.82634,"zip":"6308348"},{"town":"後藤町","koaza":"","lat":34.689022,"lng":135.831278,"zip":"6308296"},{"town":"神殿町","koaza":"","lat":34.660156,"lng":135.823701,"zip":"6308441"},{"town":"小西町","koaza":"","lat":34.683175,"lng":135.827623,"zip":"6308226"},{"town":"此瀬町","koaza":"","lat":34.66866,"lng":135.908335,"zip":"6302177"},{"town":"西九条町","koaza":"","lat":34.657202,"lng":135.805978,"zip":"6308453"},{"town":"西九条町一丁目","koaza":"","lat":34.659861,"lng":135.806942,"zip":"6308453"},{"town":"西九条町二丁目","koaza":"","lat":34.656684,"lng":135.808256,"zip":"6308453"},{"town":"西九条町三丁目","koaza":"","lat":34.656623,"lng":135.80102,"zip":"6308453"},{"town":"西九条町四丁目","koaza":"","lat":34.654194,"lng":135.803881,"zip":"6308453"},{"town":"西九条町五丁目","koaza":"","lat":34.655434,"lng":135.79667,"zip":"6308453"},{"town":"西大寺赤田町一丁目","koaza":"","lat":34.698767,"lng":135.772954,"zip":"6310818"},{"town":"西大寺赤田町二丁目","koaza":"","lat":34.699165,"lng":135.769134,"zip":"6310818"},{"town":"西大寺北町一丁目","koaza":"","lat":34.696289,"lng":135.779293,"zip":"6310817"},{"town":"西大寺北町二丁目","koaza":"","lat":34.697299,"lng":135.777466,"zip":"6310817"},{"town":"西大寺北町三丁目","koaza":"","lat":34.69794,"lng":135.779421,"zip":"6310817"},{"town":"西大寺北町四丁目","koaza":"","lat":34.698767,"lng":135.77683,"zip":"6310817"},{"town":"西大寺国見町二丁目","koaza":"","lat":34.687814,"lng":135.783876,"zip":"6310823"},{"town":"西大寺栄町","koaza":"","lat":34.69298,"lng":135.785313,"zip":"6310822"},{"town":"西大寺芝町一丁目","koaza":"","lat":34.691958,"lng":135.779688,"zip":"6310825"},{"town":"西大寺芝町二丁目","koaza":"","lat":34.691376,"lng":135.776332,"zip":"6310825"},{"town":"西大寺新池町","koaza":"","lat":34.693527,"lng":135.772737,"zip":"6310834"},{"town":"西大寺新田町","koaza":"","lat":34.694573,"lng":135.77769,"zip":"6310832"},{"town":"西大寺新町一丁目","koaza":"","lat":34.697462,"lng":135.781787,"zip":"6310815"},{"town":"西大寺新町二丁目","koaza":"","lat":34.698106,"lng":135.784231,"zip":"6310815"},{"town":"西大寺高塚町","koaza":"","lat":34.694785,"lng":135.768556,"zip":"6310835"},{"town":"西大寺宝ヶ丘","koaza":"","lat":34.697005,"lng":135.774002,"zip":"6310831"},{"town":"西大寺野神町一丁目","koaza":"","lat":34.6951,"lng":135.775218,"zip":"6310833"},{"town":"西大寺野神町二丁目","koaza":"","lat":34.693163,"lng":135.775598,"zip":"6310833"},{"town":"西大寺東町一丁目","koaza":"","lat":34.696399,"lng":135.784121,"zip":"6310821"},{"town":"西大寺東町二丁目","koaza":"","lat":34.695066,"lng":135.784686,"zip":"6310821"},{"town":"西大寺本町","koaza":"","lat":34.695581,"lng":135.781099,"zip":"6310816"},{"town":"西大寺竜王町一丁目","koaza":"","lat":34.695877,"lng":135.771645,"zip":"6310836"},{"town":"西大寺竜王町二丁目","koaza":"","lat":34.697255,"lng":135.769804,"zip":"6310836"},{"town":"阪新屋町","koaza":"","lat":34.685628,"lng":135.82386,"zip":"6308255"},{"town":"阪原町","koaza":"","lat":34.724016,"lng":135.939219,"zip":"6301241"},{"town":"狭川東町","koaza":"","lat":34.726724,"lng":135.917828,"zip":"6301103"},{"town":"狭川両町","koaza":"","lat":34.725654,"lng":135.906097,"zip":"6301104"},{"town":"佐紀町","koaza":"","lat":34.69685,"lng":135.797423,"zip":"6308003"},{"town":"左京一丁目","koaza":"","lat":34.710414,"lng":135.801045,"zip":"6310801"},{"town":"左京二丁目","koaza":"","lat":34.712618,"lng":135.803968,"zip":"6310801"},{"town":"左京三丁目","koaza":"","lat":34.715287,"lng":135.805454,"zip":"6310801"},{"town":"左京四丁目","koaza":"","lat":34.719192,"lng":135.803886,"zip":"6310801"},{"town":"左京五丁目","koaza":"","lat":34.714318,"lng":135.809734,"zip":"6310801"},{"town":"左京六丁目","koaza":"","lat":34.70943,"lng":135.806039,"zip":"6310801"},{"town":"佐保台一丁目","koaza":"","lat":34.710251,"lng":135.811317,"zip":"6308105"},{"town":"佐保台二丁目","koaza":"","lat":34.707811,"lng":135.813774,"zip":"6308105"},{"town":"佐保台三丁目","koaza":"","lat":34.708106,"lng":135.818319,"zip":"6308105"},{"town":"佐保台西町","koaza":"","lat":34.710755,"lng":135.809542,"zip":"6308106"},{"town":"三条大路一丁目","koaza":"","lat":34.68311,"lng":135.803037,"zip":"6308013"},{"town":"三条大路二丁目","koaza":"","lat":34.683053,"lng":135.79865,"zip":"6308013"},{"town":"三条大路三丁目","koaza":"","lat":34.683122,"lng":135.795661,"zip":"6308013"},{"town":"三条大路四丁目","koaza":"","lat":34.683136,"lng":135.792354,"zip":"6308013"},{"town":"三条大路五丁目","koaza":"","lat":34.68308,"lng":135.788813,"zip":"6308013"},{"town":"三条大宮町","koaza":"","lat":34.67843,"lng":135.815081,"zip":"6308123"},{"town":"三条川西町","koaza":"","lat":34.679587,"lng":135.80656,"zip":"6308125"},{"town":"三条栄町","koaza":"","lat":34.680706,"lng":135.808825,"zip":"6308126"},{"town":"三条添川町","koaza":"","lat":34.680725,"lng":135.81227,"zip":"6308127"},{"town":"三条町","koaza":"","lat":34.680531,"lng":135.822248,"zip":"6308244"},{"town":"三条桧町","koaza":"","lat":34.678359,"lng":135.809556,"zip":"6308124"},{"town":"三条本町","koaza":"","lat":34.679401,"lng":135.818425,"zip":"6308122"},{"town":"三条宮前町","koaza":"","lat":34.680649,"lng":135.815739,"zip":"6308121"},{"town":"敷島町一丁目","koaza":"","lat":34.704101,"lng":135.765965,"zip":"6310031"},{"town":"敷島町二丁目","koaza":"","lat":34.70134,"lng":135.76819,"zip":"6310031"},{"town":"四条大路一丁目","koaza":"","lat":34.679559,"lng":135.8032,"zip":"6308014"},{"town":"四条大路二丁目","koaza":"","lat":34.679949,"lng":135.798701,"zip":"6308014"},{"town":"四条大路三丁目","koaza":"","lat":34.679998,"lng":135.795434,"zip":"6308014"},{"town":"四条大路四丁目","koaza":"","lat":34.679725,"lng":135.792365,"zip":"6308014"},{"town":"四条大路五丁目","koaza":"","lat":34.679416,"lng":135.789038,"zip":"6308014"},{"town":"四条大路南町","koaza":"","lat":34.674554,"lng":135.803308,"zip":"6308015"},{"town":"七条一丁目","koaza":"","lat":34.663908,"lng":135.781337,"zip":"6308053"},{"town":"七条二丁目","koaza":"","lat":34.66536,"lng":135.776469,"zip":"6308053"},{"town":"七条町","koaza":"","lat":34.66315,"lng":135.791415,"zip":"6308051"},{"town":"七条西町一丁目","koaza":"","lat":34.66289,"lng":135.77328,"zip":"6308054"},{"town":"七条西町二丁目","koaza":"","lat":34.662325,"lng":135.767887,"zip":"6308054"},{"town":"七条東町","koaza":"","lat":34.663228,"lng":135.786112,"zip":"6308052"},{"town":"芝突抜町","koaza":"","lat":34.677297,"lng":135.831196,"zip":"6308385"},{"town":"芝辻町","koaza":"","lat":34.685836,"lng":135.821657,"zip":"6308114"},{"town":"芝辻町一丁目","koaza":"","lat":34.685643,"lng":135.818925,"zip":"6308114"},{"town":"芝辻町二丁目","koaza":"","lat":34.68596,"lng":135.814736,"zip":"6308114"},{"town":"芝辻町三丁目","koaza":"","lat":34.687746,"lng":135.815388,"zip":"6308114"},{"town":"芝辻町四丁目","koaza":"","lat":34.686588,"lng":135.809737,"zip":"6308114"},{"town":"芝新屋町","koaza":"","lat":34.676657,"lng":135.830966,"zip":"6308384"},{"town":"柴屋町","koaza":"","lat":34.644509,"lng":135.83148,"zip":"6308433"},{"town":"下狭川町","koaza":"","lat":34.739751,"lng":135.917642,"zip":"6301102"},{"town":"下三条町","koaza":"","lat":34.681758,"lng":135.824176,"zip":"6308236"},{"town":"下深川町","koaza":"","lat":34.654807,"lng":135.98266,"zip":"6320101"},{"town":"下御門町","koaza":"","lat":34.679069,"lng":135.829015,"zip":"6308365"},{"town":"十輪院町","koaza":"","lat":34.675921,"lng":135.83279,"zip":"6308312"},{"town":"十輪院畑町","koaza":"","lat":34.676454,"lng":135.83353,"zip":"6308311"},{"town":"宿院町","koaza":"","lat":34.687024,"lng":135.828721,"zip":"6308265"},{"town":"勝南院町","koaza":"","lat":34.679022,"lng":135.830289,"zip":"6308363"},{"town":"菖蒲池町","koaza":"","lat":34.686826,"lng":135.82427,"zip":"6308254"},{"town":"松陽台一丁目","koaza":"","lat":34.720453,"lng":135.73701,"zip":"6310007"},{"town":"松陽台二丁目","koaza":"","lat":34.718136,"lng":135.736609,"zip":"6310007"},{"town":"松陽台三丁目","koaza":"","lat":34.715239,"lng":135.736201,"zip":"6310007"},{"town":"松陽台四丁目","koaza":"","lat":34.714113,"lng":135.734109,"zip":"6310007"},{"town":"神功一丁目","koaza":"","lat":34.72243,"lng":135.781374,"zip":"6310804"},{"town":"神功二丁目","koaza":"","lat":34.7204,"lng":135.781612,"zip":"6310804"},{"town":"神功三丁目","koaza":"","lat":34.717787,"lng":135.779137,"zip":"6310804"},{"town":"神功四丁目","koaza":"","lat":34.720922,"lng":135.776315,"zip":"6310804"},{"town":"神功五丁目","koaza":"","lat":34.72205,"lng":135.773231,"zip":"6310804"},{"town":"神功六丁目","koaza":"","lat":34.724922,"lng":135.772605,"zip":"6310804"},{"town":"水門町","koaza":"","lat":34.68642,"lng":135.837348,"zip":"6308208"},{"town":"菅野台","koaza":"","lat":34.678206,"lng":135.758741,"zip":"6310043"},{"town":"菅原町","koaza":"","lat":34.686793,"lng":135.774646,"zip":"6310842"},{"town":"須川町","koaza":"","lat":34.713257,"lng":135.912062,"zip":"6301111"},{"town":"朱雀一丁目","koaza":"","lat":34.713171,"lng":135.79547,"zip":"6310806"},{"town":"朱雀二丁目","koaza":"","lat":34.717463,"lng":135.794291,"zip":"6310806"},{"town":"朱雀三丁目","koaza":"","lat":34.722545,"lng":135.793625,"zip":"6310806"},{"town":"朱雀四丁目","koaza":"","lat":34.720575,"lng":135.799666,"zip":"6310806"},{"town":"朱雀五丁目","koaza":"","lat":34.717996,"lng":135.799613,"zip":"6310806"},{"town":"朱雀六丁目","koaza":"","lat":34.714757,"lng":135.797971,"zip":"6310806"},{"town":"須山町","koaza":"","lat":34.664943,"lng":135.8958,"zip":"6302178"},{"town":"杉ヶ町","koaza":"","lat":34.678381,"lng":135.822291,"zip":"6308357"},{"town":"誓多林町","koaza":"","lat":34.678474,"lng":135.901562,"zip":"6302171"},{"town":"雑司町","koaza":"","lat":34.688214,"lng":135.850255,"zip":"6308211"},{"town":"園田町","koaza":"","lat":34.704011,"lng":135.896887,"zip":"6301121"},{"town":"杣ノ川町","koaza":"","lat":34.65065,"lng":135.946459,"zip":"6302152"},{"town":"大安寺一丁目","koaza":"","lat":34.668699,"lng":135.816228,"zip":"6308133"},{"town":"大安寺二丁目","koaza":"","lat":34.668635,"lng":135.81128,"zip":"6308133"},{"town":"大安寺三丁目","koaza":"","lat":34.671117,"lng":135.810261,"zip":"6308133"},{"town":"大安寺四丁目","koaza":"","lat":34.671126,"lng":135.813762,"zip":"6308133"},{"town":"大安寺五丁目","koaza":"","lat":34.671169,"lng":135.81726,"zip":"6308133"},{"town":"大安寺六丁目","koaza":"","lat":34.673614,"lng":135.816855,"zip":"6308133"},{"town":"大安寺七丁目","koaza":"","lat":34.673982,"lng":135.812831,"zip":"6308133"},{"town":"大安寺町","koaza":"","lat":34.674722,"lng":135.801268,"zip":"6308134"},{"town":"大安寺西一丁目","koaza":"","lat":34.674294,"lng":135.805413,"zip":"6308135"},{"town":"大安寺西二丁目","koaza":"","lat":34.670836,"lng":135.803867,"zip":"6308135"},{"town":"大安寺西三丁目","koaza":"","lat":34.671077,"lng":135.806916,"zip":"6308135"},{"town":"大慈仙町","koaza":"","lat":34.692623,"lng":135.901487,"zip":"6301245"},{"town":"高畑町","koaza":"","lat":34.675353,"lng":135.847343,"zip":"6308301"},{"town":"高樋町","koaza":"","lat":34.628682,"lng":135.861098,"zip":"6308411"},{"town":"高天市町","koaza":"","lat":34.685472,"lng":135.825397,"zip":"6308238"},{"town":"高天町","koaza":"","lat":34.684213,"lng":135.825867,"zip":"6308241"},{"town":"高御門町","koaza":"","lat":34.677167,"lng":135.829097,"zip":"6308336"},{"town":"田中町","koaza":"","lat":34.639425,"lng":135.845255,"zip":"6308432"},{"town":"多門町","koaza":"","lat":34.692597,"lng":135.830862,"zip":"6308112"},{"town":"樽井町","koaza":"","lat":34.68174,"lng":135.829876,"zip":"6308218"},{"town":"田原春日野町","koaza":"","lat":34.651734,"lng":135.88998,"zip":"6302167"},{"town":"中院町","koaza":"","lat":34.678111,"lng":135.831221,"zip":"6308392"},{"town":"千代ヶ丘一丁目","koaza":"","lat":34.683645,"lng":135.748282,"zip":"6310045"},{"town":"千代ヶ丘二丁目","koaza":"","lat":34.681523,"lng":135.747918,"zip":"6310045"},{"town":"千代ヶ丘三丁目","koaza":"","lat":34.680853,"lng":135.750739,"zip":"6310045"},{"town":"月ヶ瀬石打","koaza":"","lat":34.723243,"lng":136.057306,"zip":"6302301"},{"town":"月ヶ瀬尾山","koaza":"","lat":34.711257,"lng":136.047826,"zip":"6302302"},{"town":"月ヶ瀬嵩","koaza":"","lat":34.699891,"lng":136.02946,"zip":"6302304"},{"town":"月ヶ瀬月瀬","koaza":"","lat":34.695466,"lng":136.018231,"zip":"6302305"},{"town":"月ヶ瀬長引","koaza":"","lat":34.721117,"lng":136.041331,"zip":"6302303"},{"town":"月ヶ瀬桃香野","koaza":"","lat":34.701189,"lng":136.002548,"zip":"6302306"},{"town":"都祁小山戸町","koaza":"","lat":34.581006,"lng":135.943382,"zip":"6320243"},{"town":"都祁甲岡町","koaza":"","lat":34.596936,"lng":135.950983,"zip":"6320247"},{"town":"都祁こぶしが丘","koaza":"","lat":34.572531,"lng":135.968356,"zip":"6320232"},{"town":"都祁白石町","koaza":"","lat":34.600064,"lng":135.966253,"zip":"6320221"},{"town":"都祁相河町","koaza":"","lat":34.580198,"lng":135.952999,"zip":"6320242"},{"town":"都祁友田町","koaza":"","lat":34.600098,"lng":135.947043,"zip":"6320246"},{"town":"都祁馬場町","koaza":"","lat":34.632125,"lng":135.952316,"zip":"6320113"},{"town":"都祁吐山町","koaza":"","lat":34.573355,"lng":135.957799,"zip":"6320231"},{"town":"都祁南之庄町","koaza":"","lat":34.590471,"lng":135.955194,"zip":"6320241"},{"town":"築地之内町","koaza":"","lat":34.674792,"lng":135.831684,"zip":"6308316"},{"town":"角振新屋町","koaza":"","lat":34.681558,"lng":135.828008,"zip":"6308223"},{"town":"角振町","koaza":"","lat":34.681939,"lng":135.827168,"zip":"6308224"},{"town":"椿井町","koaza":"","lat":34.68068,"lng":135.827557,"zip":"6308343"},{"town":"鶴福院町","koaza":"","lat":34.679053,"lng":135.831845,"zip":"6308393"},{"town":"鶴舞西町","koaza":"","lat":34.703607,"lng":135.749202,"zip":"6310022"},{"town":"鶴舞東町","koaza":"","lat":34.704742,"lng":135.751737,"zip":"6310021"},{"town":"手貝町","koaza":"","lat":34.692453,"lng":135.834555,"zip":"6308206"},{"town":"帝塚山一丁目","koaza":"","lat":34.683013,"lng":135.731194,"zip":"6310062"},{"town":"帝塚山二丁目","koaza":"","lat":34.684657,"lng":135.730448,"zip":"6310062"},{"town":"帝塚山三丁目","koaza":"","lat":34.682464,"lng":135.726914,"zip":"6310062"},{"town":"帝塚山四丁目","koaza":"","lat":34.685069,"lng":135.724834,"zip":"6310062"},{"town":"帝塚山五丁目","koaza":"","lat":34.685056,"lng":135.727408,"zip":"6310062"},{"town":"帝塚山六丁目","koaza":"","lat":34.68668,"lng":135.727348,"zip":"6310062"},{"town":"帝塚山七丁目","koaza":"","lat":34.684948,"lng":135.721746,"zip":"6310062"},{"town":"帝塚山中町","koaza":"","lat":34.679862,"lng":135.730181,"zip":"6310063"},{"town":"帝塚山西一丁目","koaza":"","lat":34.67877,"lng":135.727503,"zip":"6310066"},{"town":"帝塚山西二丁目","koaza":"","lat":34.680123,"lng":135.726267,"zip":"6310066"},{"town":"帝塚山南一丁目","koaza":"","lat":34.679651,"lng":135.737403,"zip":"6310064"},{"town":"帝塚山南二丁目","koaza":"","lat":34.677094,"lng":135.73279,"zip":"6310064"},{"town":"帝塚山南三丁目","koaza":"","lat":34.679846,"lng":135.732938,"zip":"6310064"},{"town":"帝塚山南四丁目","koaza":"","lat":34.680613,"lng":135.735407,"zip":"6310064"},{"town":"帝塚山南五丁目","koaza":"","lat":34.683385,"lng":135.735586,"zip":"6310064"},{"town":"出屋敷町","koaza":"","lat":34.660961,"lng":135.830035,"zip":"6308423"},{"town":"寺町","koaza":"","lat":34.680085,"lng":135.825131,"zip":"6308234"},{"town":"東九条町","koaza":"","lat":34.660223,"lng":135.814107,"zip":"6308144"},{"town":"富雄泉ヶ丘","koaza":"","lat":34.675769,"lng":135.736611,"zip":"6310051"},{"town":"富雄川西一丁目","koaza":"","lat":34.693975,"lng":135.730313,"zip":"6310077"},{"town":"富雄川西二丁目","koaza":"","lat":34.696009,"lng":135.730597,"zip":"6310077"},{"town":"富雄北一丁目","koaza":"","lat":34.696545,"lng":135.733701,"zip":"6310076"},{"town":"富雄北二丁目","koaza":"","lat":34.697137,"lng":135.736784,"zip":"6310076"},{"town":"富雄北三丁目","koaza":"","lat":34.700245,"lng":135.736033,"zip":"6310076"},{"town":"富雄元町一丁目","koaza":"","lat":34.693801,"lng":135.738582,"zip":"6310078"},{"town":"富雄元町二丁目","koaza":"","lat":34.692537,"lng":135.735216,"zip":"6310078"},{"town":"富雄元町三丁目","koaza":"","lat":34.693144,"lng":135.732625,"zip":"6310078"},{"town":"富雄元町四丁目","koaza":"","lat":34.69007,"lng":135.732256,"zip":"6310078"},{"town":"登美ヶ丘一丁目","koaza":"","lat":34.707307,"lng":135.748578,"zip":"6310004"},{"town":"登美ヶ丘二丁目","koaza":"","lat":34.711146,"lng":135.748414,"zip":"6310004"},{"town":"登美ヶ丘三丁目","koaza":"","lat":34.713696,"lng":135.747014,"zip":"6310004"},{"town":"登美ヶ丘四丁目","koaza":"","lat":34.712335,"lng":135.751286,"zip":"6310004"},{"town":"登美ヶ丘五丁目","koaza":"","lat":34.714681,"lng":135.754993,"zip":"6310004"},{"town":"登美ヶ丘六丁目","koaza":"","lat":34.713457,"lng":135.753547,"zip":"6310004"},{"town":"鳥見町一丁目","koaza":"","lat":34.69137,"lng":135.728709,"zip":"6310065"},{"town":"鳥見町二丁目","koaza":"","lat":34.689236,"lng":135.726612,"zip":"6310065"},{"town":"鳥見町三丁目","koaza":"","lat":34.694387,"lng":135.725736,"zip":"6310065"},{"town":"鳥見町四丁目","koaza":"","lat":34.694886,"lng":135.721553,"zip":"6310065"},{"town":"中筋町","koaza":"","lat":34.684885,"lng":135.827759,"zip":"6308237"},{"town":"長谷町","koaza":"","lat":34.637124,"lng":135.913269,"zip":"6302165"},{"town":"中辻町","koaza":"","lat":34.672441,"lng":135.83055,"zip":"6308315"},{"town":"中貫町","koaza":"","lat":34.658498,"lng":135.923191,"zip":"6302162"},{"town":"中登美ヶ丘一丁目","koaza":"","lat":34.717349,"lng":135.748455,"zip":"6310003"},{"town":"中登美ヶ丘二丁目","koaza":"","lat":34.719095,"lng":135.753724,"zip":"6310003"},{"town":"中登美ヶ丘三丁目","koaza":"","lat":34.721185,"lng":135.748284,"zip":"6310003"},{"town":"中登美ヶ丘四丁目","koaza":"","lat":34.720169,"lng":135.744186,"zip":"6310003"},{"town":"中登美ヶ丘五丁目","koaza":"","lat":34.723362,"lng":135.743494,"zip":"6310003"},{"town":"中ノ川町","koaza":"","lat":34.702858,"lng":135.871149,"zip":"6301124"},{"town":"中之庄町","koaza":"","lat":34.654061,"lng":135.922921,"zip":"6302163"},{"town":"中新屋町","koaza":"","lat":34.677713,"lng":135.830314,"zip":"6308333"},{"town":"中畑町","koaza":"","lat":34.626477,"lng":135.8888,"zip":"6308401"},{"town":"中町","koaza":"","lat":34.673048,"lng":135.747687,"zip":"6308037"},{"town":"中御門町","koaza":"","lat":34.689673,"lng":135.83294,"zip":"6308292"},{"town":"中山町","koaza":"","lat":34.710779,"lng":135.771241,"zip":"6310012"},{"town":"中山町西一丁目","koaza":"","lat":34.710495,"lng":135.753636,"zip":"6310013"},{"town":"中山町西二丁目","koaza":"","lat":34.712961,"lng":135.758349,"zip":"6310013"},{"town":"中山町西三丁目","koaza":"","lat":34.709925,"lng":135.76222,"zip":"6310013"},{"town":"中山町西四丁目","koaza":"","lat":34.708912,"lng":135.756643,"zip":"6310013"},{"town":"内侍原町","koaza":"","lat":34.68666,"lng":135.825908,"zip":"6308253"},{"town":"鍋屋町","koaza":"","lat":34.68698,"lng":135.83047,"zip":"6308264"},{"town":"奈保町","koaza":"","lat":34.703141,"lng":135.828466,"zip":"6308107"},{"town":"奈良阪町","koaza":"","lat":34.706391,"lng":135.82708,"zip":"6308104"},{"town":"鳴川町","koaza":"","lat":34.676022,"lng":135.828846,"zip":"6308335"},{"town":"西包永町","koaza":"","lat":34.691603,"lng":135.830748,"zip":"6308287"},{"town":"西木辻町","koaza":"","lat":34.674118,"lng":135.823396,"zip":"6308325"},{"town":"西紀寺町","koaza":"","lat":34.674116,"lng":135.832956,"zip":"6308307"},{"town":"西狭川町","koaza":"","lat":34.731883,"lng":135.90404,"zip":"6301105"},{"town":"西笹鉾町","koaza":"","lat":34.690188,"lng":135.830982,"zip":"6308291"},{"town":"西城戸町","koaza":"","lat":34.679422,"lng":135.826139,"zip":"6308345"},{"town":"西新在家号所町","koaza":"","lat":34.688107,"lng":135.825548,"zip":"6308251"},{"town":"西新在家町","koaza":"","lat":34.688368,"lng":135.82469,"zip":"6308248"},{"town":"西千代ヶ丘一丁目","koaza":"","lat":34.683074,"lng":135.742994,"zip":"6310046"},{"town":"西千代ヶ丘二丁目","koaza":"","lat":34.681236,"lng":135.743055,"zip":"6310046"},{"town":"西千代ヶ丘三丁目","koaza":"","lat":34.679472,"lng":135.747641,"zip":"6310046"},{"town":"西寺林町","koaza":"","lat":34.679565,"lng":135.829873,"zip":"6308372"},{"town":"西登美ヶ丘一丁目","koaza":"","lat":34.712539,"lng":135.744192,"zip":"6310006"},{"town":"西登美ヶ丘二丁目","koaza":"","lat":34.716742,"lng":135.743436,"zip":"6310006"},{"town":"西登美ヶ丘三丁目","koaza":"","lat":34.7136,"lng":135.741052,"zip":"6310006"},{"town":"西登美ヶ丘四丁目","koaza":"","lat":34.71786,"lng":135.740115,"zip":"6310006"},{"town":"西登美ヶ丘五丁目","koaza":"","lat":34.713248,"lng":135.737093,"zip":"6310006"},{"town":"西登美ヶ丘六丁目","koaza":"","lat":34.711494,"lng":135.739936,"zip":"6310006"},{"town":"西登美ヶ丘七丁目","koaza":"","lat":34.709132,"lng":135.737136,"zip":"6310006"},{"town":"西登美ヶ丘八丁目","koaza":"","lat":34.710476,"lng":135.734603,"zip":"6310006"},{"town":"西ノ京町","koaza":"","lat":34.669349,"lng":135.791534,"zip":"6308042"},{"town":"西之阪町","koaza":"","lat":34.68329,"lng":135.822248,"zip":"6308245"},{"town":"西新屋町","koaza":"","lat":34.676777,"lng":135.829841,"zip":"6308334"},{"town":"西御門町","koaza":"","lat":34.68428,"lng":135.827182,"zip":"6308225"},{"town":"二条大路南一丁目","koaza":"","lat":34.685738,"lng":135.801878,"zip":"6308012"},{"town":"二条大路南二丁目","koaza":"","lat":34.685702,"lng":135.798495,"zip":"6308012"},{"town":"二条大路南三丁目","koaza":"","lat":34.685622,"lng":135.795327,"zip":"6308012"},{"town":"二条大路南四丁目","koaza":"","lat":34.685663,"lng":135.792513,"zip":"6308012"},{"town":"二条大路南五丁目","koaza":"","lat":34.686635,"lng":135.789321,"zip":"6308012"},{"town":"二条町一丁目","koaza":"","lat":34.694413,"lng":135.788174,"zip":"6308002"},{"town":"二条町二丁目","koaza":"","lat":34.692432,"lng":135.787509,"zip":"6308002"},{"town":"二条町三丁目","koaza":"","lat":34.68987,"lng":135.787792,"zip":"6308002"},{"town":"二名一丁目","koaza":"","lat":34.706328,"lng":135.736061,"zip":"6310072"},{"town":"二名二丁目","koaza":"","lat":34.703005,"lng":135.735598,"zip":"6310072"},{"town":"二名三丁目","koaza":"","lat":34.705196,"lng":135.729816,"zip":"6310072"},{"town":"二名四丁目","koaza":"","lat":34.707895,"lng":135.728959,"zip":"6310072"},{"town":"二名五丁目","koaza":"","lat":34.706329,"lng":135.72504,"zip":"6310072"},{"town":"二名六丁目","koaza":"","lat":34.705255,"lng":135.716202,"zip":"6310072"},{"town":"二名七丁目","koaza":"","lat":34.7003,"lng":135.719535,"zip":"6310072"},{"town":"二名町","koaza":"","lat":34.720326,"lng":135.740523,"zip":"6310008"},{"town":"二名東町","koaza":"","lat":34.707983,"lng":135.739733,"zip":"6310073"},{"town":"二名平野一丁目","koaza":"","lat":34.711913,"lng":135.730391,"zip":"6310071"},{"town":"二名平野二丁目","koaza":"","lat":34.707626,"lng":135.733364,"zip":"6310071"},{"town":"丹生町","koaza":"","lat":34.698093,"lng":135.963807,"zip":"6301235"},{"town":"忍辱山町","koaza":"","lat":34.697324,"lng":135.915513,"zip":"6301244"},{"town":"納院町","koaza":"","lat":34.675435,"lng":135.831439,"zip":"6308318"},{"town":"登大路町","koaza":"","lat":34.683858,"lng":135.833231,"zip":"6308213"},{"town":"橋本町","koaza":"","lat":34.682012,"lng":135.828762,"zip":"6308217"},{"town":"畑中町","koaza":"","lat":34.687193,"lng":135.820257,"zip":"6308257"},{"town":"八条一丁目","koaza":"","lat":34.663861,"lng":135.804697,"zip":"6308145"},{"town":"八条二丁目","koaza":"","lat":34.667432,"lng":135.807729,"zip":"6308145"},{"town":"八条三丁目","koaza":"","lat":34.666633,"lng":135.804694,"zip":"6308145"},{"town":"八条四丁目","koaza":"","lat":34.666237,"lng":135.801761,"zip":"6308145"},{"town":"八条五丁目","koaza":"","lat":34.667014,"lng":135.800004,"zip":"6308145"},{"town":"八条町","koaza":"","lat":34.671137,"lng":135.801571,"zip":"6308146"},{"town":"鉢伏町","koaza":"","lat":34.658034,"lng":135.875282,"zip":"6308414"},{"town":"花芝町","koaza":"","lat":34.686271,"lng":135.828866,"zip":"6308266"},{"town":"花園町","koaza":"","lat":34.674886,"lng":135.829677,"zip":"6308328"},{"town":"馬場町","koaza":"","lat":34.678927,"lng":135.82577,"zip":"6308354"},{"town":"林小路町","koaza":"","lat":34.682759,"lng":135.825695,"zip":"6308227"},{"town":"針ヶ別所町","koaza":"","lat":34.626319,"lng":135.970452,"zip":"6320112"},{"town":"針町","koaza":"","lat":34.615203,"lng":135.956832,"zip":"6320251"},{"town":"半田突抜町","koaza":"","lat":34.688592,"lng":135.831374,"zip":"6308295"},{"town":"半田開町","koaza":"","lat":34.694793,"lng":135.829169,"zip":"6308111"},{"town":"半田横町","koaza":"","lat":34.688025,"lng":135.830149,"zip":"6308284"},{"town":"般若寺町","koaza":"","lat":34.701168,"lng":135.837966,"zip":"6308102"},{"town":"日笠町","koaza":"","lat":34.664182,"lng":135.918777,"zip":"6302173"},{"town":"東包永町","koaza":"","lat":34.691644,"lng":135.833438,"zip":"6308286"},{"town":"東木辻町","koaza":"","lat":34.674834,"lng":135.828357,"zip":"6308327"},{"town":"東紀寺町一丁目","koaza":"","lat":34.671808,"lng":135.836688,"zip":"6308305"},{"town":"東紀寺町二丁目","koaza":"","lat":34.672677,"lng":135.839408,"zip":"6308305"},{"town":"東紀寺町三丁目","koaza":"","lat":34.67079,"lng":135.839268,"zip":"6308305"},{"town":"東笹鉾町","koaza":"","lat":34.690363,"lng":135.832941,"zip":"6308288"},{"town":"東城戸町","koaza":"","lat":34.679367,"lng":135.827562,"zip":"6308344"},{"town":"東新在家町","koaza":"","lat":34.688576,"lng":135.826853,"zip":"6308272"},{"town":"東寺林町","koaza":"","lat":34.67954,"lng":135.831277,"zip":"6308362"},{"town":"東登美ヶ丘一丁目","koaza":"","lat":34.716622,"lng":135.759402,"zip":"6310002"},{"town":"東登美ヶ丘二丁目","koaza":"","lat":34.715124,"lng":135.760402,"zip":"6310002"},{"town":"東登美ヶ丘三丁目","koaza":"","lat":34.713699,"lng":135.762127,"zip":"6310002"},{"town":"東登美ヶ丘四丁目","koaza":"","lat":34.72006,"lng":135.757096,"zip":"6310002"},{"town":"東登美ヶ丘五丁目","koaza":"","lat":34.720042,"lng":135.759483,"zip":"6310002"},{"town":"東登美ヶ丘六丁目","koaza":"","lat":34.722466,"lng":135.762605,"zip":"6310002"},{"town":"東鳴川町","koaza":"","lat":34.709114,"lng":135.878434,"zip":"6301125"},{"town":"東之阪町","koaza":"","lat":34.69579,"lng":135.835747,"zip":"6308203"},{"town":"東向北町","koaza":"","lat":34.684984,"lng":135.828719,"zip":"6308214"},{"town":"東向中町","koaza":"","lat":34.683728,"lng":135.828823,"zip":"6308215"},{"town":"東向南町","koaza":"","lat":34.682666,"lng":135.828587,"zip":"6308216"},{"town":"疋田町","koaza":"","lat":34.688438,"lng":135.758694,"zip":"6310843"},{"town":"疋田町一丁目","koaza":"","lat":34.688617,"lng":135.770784,"zip":"6310843"},{"town":"疋田町二丁目","koaza":"","lat":34.691122,"lng":135.767984,"zip":"6310843"},{"town":"疋田町三丁目","koaza":"","lat":34.689843,"lng":135.766594,"zip":"6310843"},{"town":"疋田町四丁目","koaza":"","lat":34.688639,"lng":135.767652,"zip":"6310843"},{"town":"疋田町五丁目","koaza":"","lat":34.687996,"lng":135.764441,"zip":"6310843"},{"town":"毘沙門町","koaza":"","lat":34.676726,"lng":135.832087,"zip":"6308383"},{"town":"白毫寺町","koaza":"","lat":34.668133,"lng":135.864503,"zip":"6308302"},{"town":"百万ヶ辻子町","koaza":"","lat":34.6826,"lng":135.824532,"zip":"6300000"},{"town":"百楽園一丁目","koaza":"","lat":34.698957,"lng":135.7454,"zip":"6310024"},{"town":"百楽園二丁目","koaza":"","lat":34.697268,"lng":135.742873,"zip":"6310024"},{"town":"百楽園三丁目","koaza":"","lat":34.697254,"lng":135.740254,"zip":"6310024"},{"town":"百楽園四丁目","koaza":"","lat":34.699773,"lng":135.741356,"zip":"6310024"},{"town":"百楽園五丁目","koaza":"","lat":34.702038,"lng":135.739537,"zip":"6310024"},{"town":"平清水町","koaza":"","lat":34.69721,"lng":135.892401,"zip":"6301122"},{"town":"平松一丁目","koaza":"","lat":34.678834,"lng":135.777171,"zip":"6310846"},{"town":"平松二丁目","koaza":"","lat":34.67585,"lng":135.778365,"zip":"6310846"},{"town":"平松三丁目","koaza":"","lat":34.677085,"lng":135.77493,"zip":"6310846"},{"town":"平松四丁目","koaza":"","lat":34.674653,"lng":135.774729,"zip":"6310846"},{"town":"平松五丁目","koaza":"","lat":34.677034,"lng":135.771917,"zip":"6310846"},{"town":"広岡町","koaza":"","lat":34.750357,"lng":135.924881,"zip":"6301101"},{"town":"福智院町","koaza":"","lat":34.676789,"lng":135.834645,"zip":"6308381"},{"town":"不審ヶ辻子町","koaza":"","lat":34.679304,"lng":135.83271,"zip":"6308394"},{"town":"藤ノ木台一丁目","koaza":"","lat":34.682095,"lng":135.754187,"zip":"6310044"},{"town":"藤ノ木台二丁目","koaza":"","lat":34.67832,"lng":135.752636,"zip":"6310044"},{"town":"藤ノ木台三丁目","koaza":"","lat":34.677979,"lng":135.755583,"zip":"6310044"},{"town":"藤ノ木台四丁目","koaza":"","lat":34.67665,"lng":135.758084,"zip":"6310044"},{"town":"藤原町","koaza":"","lat":34.651448,"lng":135.859067,"zip":"6308421"},{"town":"船橋町","koaza":"","lat":34.687846,"lng":135.821049,"zip":"6308258"},{"town":"古市町","koaza":"","lat":34.658988,"lng":135.839567,"zip":"6308424"},{"town":"生琉里町","koaza":"","lat":34.690608,"lng":135.885923,"zip":"6301123"},{"town":"別所町","koaza":"","lat":34.657703,"lng":135.938375,"zip":"6302153"},{"town":"坊屋敷町","koaza":"","lat":34.68732,"lng":135.827258,"zip":"6308271"},{"town":"法用町","koaza":"","lat":34.704076,"lng":135.885832,"zip":"6301126"},{"town":"宝来一丁目","koaza":"","lat":34.68247,"lng":135.781129,"zip":"6310845"},{"town":"宝来二丁目","koaza":"","lat":34.682226,"lng":135.778313,"zip":"6310845"},{"town":"宝来三丁目","koaza":"","lat":34.682401,"lng":135.775406,"zip":"6310845"},{"town":"宝来四丁目","koaza":"","lat":34.682484,"lng":135.771442,"zip":"6310845"},{"town":"宝来五丁目","koaza":"","lat":34.681875,"lng":135.765061,"zip":"6310845"},{"town":"宝来町","koaza":"","lat":34.686501,"lng":135.755489,"zip":"6310844"},{"town":"法蓮佐保山一丁目","koaza":"","lat":34.695931,"lng":135.823843,"zip":"6308108"},{"town":"法蓮佐保山二丁目","koaza":"","lat":34.699142,"lng":135.8224,"zip":"6308108"},{"town":"法蓮佐保山三丁目","koaza":"","lat":34.700036,"lng":135.82705,"zip":"6308108"},{"town":"法蓮佐保山四丁目","koaza":"","lat":34.697393,"lng":135.828413,"zip":"6308108"},{"town":"法蓮町","koaza":"","lat":34.693994,"lng":135.81724,"zip":"6308113"},{"town":"菩提山町","koaza":"","lat":34.646392,"lng":135.876636,"zip":"6302168"},{"town":"法華寺町","koaza":"","lat":34.69507,"lng":135.805636,"zip":"6308001"},{"town":"本子守町","koaza":"","lat":34.681297,"lng":135.825863,"zip":"6308231"},{"town":"米谷町","koaza":"","lat":34.614906,"lng":135.881365,"zip":"6308402"},{"town":"大豆山町","koaza":"","lat":34.686281,"lng":135.82728,"zip":"6308268"},{"town":"大豆山突抜町","koaza":"","lat":34.686165,"lng":135.828177,"zip":"6308267"},{"town":"丸山一丁目","koaza":"","lat":34.666366,"lng":135.751927,"zip":"6310056"},{"town":"丸山二丁目","koaza":"","lat":34.666762,"lng":135.748381,"zip":"6310056"},{"town":"山陵町","koaza":"","lat":34.706607,"lng":135.787126,"zip":"6310803"},{"town":"三碓一丁目","koaza":"","lat":34.691524,"lng":135.73774,"zip":"6310061"},{"town":"三碓二丁目","koaza":"","lat":34.688871,"lng":135.736694,"zip":"6310061"},{"town":"三碓三丁目","koaza":"","lat":34.687144,"lng":135.740866,"zip":"6310061"},{"town":"三碓四丁目","koaza":"","lat":34.686731,"lng":135.737483,"zip":"6310061"},{"town":"三碓五丁目","koaza":"","lat":34.686836,"lng":135.732461,"zip":"6310061"},{"town":"三碓六丁目","koaza":"","lat":34.682562,"lng":135.738255,"zip":"6310061"},{"town":"三碓七丁目","koaza":"","lat":34.682908,"lng":135.74029,"zip":"6310061"},{"town":"三碓町","koaza":"","lat":34.690528,"lng":135.719701,"zip":"6310061"},{"town":"三棟町","koaza":"","lat":34.675315,"lng":135.829485,"zip":"6308331"},{"town":"南市町","koaza":"","lat":34.680269,"lng":135.829743,"zip":"6308373"},{"town":"南魚屋町","koaza":"","lat":34.678131,"lng":135.825259,"zip":"6308355"},{"town":"南肘塚町","koaza":"","lat":34.666596,"lng":135.83152,"zip":"6308304"},{"town":"南紀寺町一丁目","koaza":"","lat":34.668048,"lng":135.833935,"zip":"6308303"},{"town":"南紀寺町二丁目","koaza":"","lat":34.66841,"lng":135.836361,"zip":"6308303"},{"town":"南紀寺町三丁目","koaza":"","lat":34.668449,"lng":135.839239,"zip":"6308303"},{"town":"南紀寺町四丁目","koaza":"","lat":34.666219,"lng":135.838314,"zip":"6308303"},{"town":"南紀寺町五丁目","koaza":"","lat":34.665659,"lng":135.834683,"zip":"6308303"},{"town":"南京終町","koaza":"","lat":34.66449,"lng":135.822384,"zip":"6308141"},{"town":"南京終町一丁目","koaza":"","lat":34.671043,"lng":135.822718,"zip":"6308141"},{"town":"南京終町二丁目","koaza":"","lat":34.668818,"lng":135.821731,"zip":"6308141"},{"town":"南京終町三丁目","koaza":"","lat":34.666286,"lng":135.820676,"zip":"6308141"},{"town":"南京終町四丁目","koaza":"","lat":34.668622,"lng":135.8263,"zip":"6308141"},{"town":"南京終町五丁目","koaza":"","lat":34.668332,"lng":135.828835,"zip":"6308141"},{"town":"南京終町六丁目","koaza":"","lat":34.665828,"lng":135.829076,"zip":"6308141"},{"town":"南京終町七丁目","koaza":"","lat":34.666094,"lng":135.825063,"zip":"6308141"},{"town":"南庄町","koaza":"","lat":34.71185,"lng":135.897472,"zip":"6301112"},{"town":"南城戸町","koaza":"","lat":34.676958,"lng":135.827449,"zip":"6308341"},{"town":"南新町","koaza":"","lat":34.677671,"lng":135.795567,"zip":"6308356"},{"town":"南田原町","koaza":"","lat":34.647993,"lng":135.91745,"zip":"6302164"},{"town":"南椿尾町","koaza":"","lat":34.629308,"lng":135.869922,"zip":"6308404"},{"town":"南登美ヶ丘","koaza":"","lat":34.705574,"lng":135.745701,"zip":"6310023"},{"town":"南永井町","koaza":"","lat":34.651365,"lng":135.823915,"zip":"6308443"},{"town":"南中町","koaza":"","lat":34.678239,"lng":135.82772,"zip":"6308347"},{"town":"南半田中町","koaza":"","lat":34.687488,"lng":135.832616,"zip":"6308281"},{"town":"南半田西町","koaza":"","lat":34.687502,"lng":135.831243,"zip":"6308282"},{"town":"南半田東町","koaza":"","lat":34.687491,"lng":135.83376,"zip":"6308277"},{"town":"南袋町","koaza":"","lat":34.676756,"lng":135.826478,"zip":"6308342"},{"town":"南風呂町","koaza":"","lat":34.677969,"lng":135.826576,"zip":"6308351"},{"town":"南法蓮町","koaza":"","lat":34.688222,"lng":135.827221,"zip":"6300000"},{"town":"水間町","koaza":"","lat":34.676263,"lng":135.94217,"zip":"6302151"},{"town":"三松一丁目","koaza":"","lat":34.699427,"lng":135.73065,"zip":"6310074"},{"town":"三松二丁目","koaza":"","lat":34.698579,"lng":135.72615,"zip":"6310074"},{"town":"三松三丁目","koaza":"","lat":34.701023,"lng":135.72874,"zip":"6310074"},{"town":"三松四丁目","koaza":"","lat":34.702592,"lng":135.730203,"zip":"6310074"},{"town":"三松ヶ丘","koaza":"","lat":34.699703,"lng":135.723233,"zip":"6310075"},{"town":"茗荷町","koaza":"","lat":34.654659,"lng":135.907798,"zip":"6302175"},{"town":"餅飯殿町","koaza":"","lat":34.680718,"lng":135.828992,"zip":"6308222"},{"town":"柳生下町","koaza":"","lat":34.741304,"lng":135.950935,"zip":"6301231"},{"town":"柳生町","koaza":"","lat":34.722728,"lng":135.957765,"zip":"6301237"},{"town":"薬師堂町","koaza":"","lat":34.675932,"lng":135.831601,"zip":"6308321"},{"town":"八島町","koaza":"","lat":34.647072,"lng":135.852519,"zip":"6308435"},{"town":"矢田原町","koaza":"","lat":34.647153,"lng":135.899729,"zip":"6302166"},{"town":"柳町","koaza":"","lat":34.679075,"lng":135.825457,"zip":"6308353"},{"town":"山町","koaza":"","lat":34.641372,"lng":135.84839,"zip":"6308434"},{"town":"油留木町","koaza":"","lat":34.68687,"lng":135.832988,"zip":"6308283"},{"town":"横井一丁目","koaza":"","lat":34.654473,"lng":135.831687,"zip":"6308422"},{"town":"横井二丁目","koaza":"","lat":34.651521,"lng":135.830483,"zip":"6308422"},{"town":"横井三丁目","koaza":"","lat":34.652037,"lng":135.835848,"zip":"6308422"},{"town":"横井四丁目","koaza":"","lat":34.649722,"lng":135.835885,"zip":"6308422"},{"town":"横井五丁目","koaza":"","lat":34.649542,"lng":135.830231,"zip":"6308422"},{"town":"横井六丁目","koaza":"","lat":34.647207,"lng":135.829996,"zip":"6308422"},{"town":"横井七丁目","koaza":"","lat":34.647563,"lng":135.835248,"zip":"6308422"},{"town":"横井町","koaza":"","lat":34.657692,"lng":135.858839,"zip":"6308422"},{"town":"横田町","koaza":"","lat":34.659821,"lng":135.910328,"zip":"6302174"},{"town":"来迎寺町","koaza":"","lat":34.592816,"lng":135.947645,"zip":"6320244"},{"town":"六条一丁目","koaza":"","lat":34.669273,"lng":135.77997,"zip":"6308043"},{"town":"六条二丁目","koaza":"","lat":34.669969,"lng":135.773664,"zip":"6308043"},{"town":"六条三丁目","koaza":"","lat":34.666986,"lng":135.774345,"zip":"6308043"},{"town":"六条町","koaza":"","lat":34.666145,"lng":135.785817,"zip":"6308041"},{"town":"六条西一丁目","koaza":"","lat":34.671606,"lng":135.770711,"zip":"6308044"},{"town":"六条西二丁目","koaza":"","lat":34.67085,"lng":135.767066,"zip":"6308044"},{"town":"六条西三丁目","koaza":"","lat":34.668263,"lng":135.768743,"zip":"6308044"},{"town":"六条西四丁目","koaza":"","lat":34.66617,"lng":135.770906,"zip":"6308044"},{"town":"六条西五丁目","koaza":"","lat":34.664882,"lng":135.766791,"zip":"6308044"},{"town":"六条西六丁目","koaza":"","lat":34.667196,"lng":135.764741,"zip":"6308044"},{"town":"六条東町","koaza":"","lat":34.666801,"lng":135.787085,"zip":"6300000"},{"town":"六条緑町一丁目","koaza":"","lat":34.671418,"lng":135.760917,"zip":"6308045"},{"town":"六条緑町二丁目","koaza":"","lat":34.671378,"lng":135.763766,"zip":"6308045"},{"town":"六条緑町三丁目","koaza":"","lat":34.669719,"lng":135.765349,"zip":"6308045"},{"town":"鹿野園町","koaza":"","lat":34.662321,"lng":135.849247,"zip":"6308425"},{"town":"若葉台一丁目","koaza":"","lat":34.690687,"lng":135.770215,"zip":"6310837"},{"town":"若葉台二丁目","koaza":"","lat":34.693329,"lng":135.769514,"zip":"6310837"},{"town":"若葉台三丁目","koaza":"","lat":34.692165,"lng":135.771828,"zip":"6310837"},{"town":"若葉台四丁目","koaza":"","lat":34.690206,"lng":135.772185,"zip":"6310837"},{"town":"脇戸町","koaza":"","lat":34.678046,"lng":135.828982,"zip":"6308337"},{"town":"和田町","koaza":"","lat":34.660519,"lng":135.901157,"zip":"6302176"},{"town":"青野町一丁目","koaza":"","lat":34.689601,"lng":135.778666,"zip":"6310841"},{"town":"西大寺町","koaza":"","lat":34.690482,"lng":135.774554,"zip":"6310826"},{"town":"青野町","koaza":"","lat":34.689941,"lng":135.773787,"zip":"6310841"},{"town":"青野町二丁目","koaza":"","lat":34.689515,"lng":135.774894,"zip":"6310841"},{"town":"中登美ヶ丘六丁目","koaza":"","lat":34.724052,"lng":135.748207,"zip":"6310003"},{"town":"西大寺小坊町","koaza":"","lat":34.694909,"lng":135.779585,"zip":"6310827"},{"town":"西大寺国見町一丁目","koaza":"","lat":34.691497,"lng":135.784941,"zip":"6310823"},{"town":"西大寺南町","koaza":"","lat":34.691913,"lng":135.78219,"zip":"6310824"},{"town":"菅原東一丁目","koaza":"","lat":34.685375,"lng":135.779543,"zip":"6310842"},{"town":"菅原東二丁目","koaza":"","lat":34.687843,"lng":135.780352,"zip":"6310842"},{"town":"西大寺国見町三丁目","koaza":"","lat":34.684741,"lng":135.782062,"zip":"6310823"},{"town":"横領町","koaza":"","lat":34.686123,"lng":135.783108,"zip":"6310828"},{"town":"川之上突抜町","koaza":"北方","lat":34.673694,"lng":135.83201,"zip":"6308314"},{"town":"川之上突抜町","koaza":"南方","lat":34.672828,"lng":135.831587,"zip":"6308314"}]