[{"town":"石川町","koaza":"","lat":34.48314,"lng":135.799944,"zip":"6340045"},{"town":"石原田町","koaza":"","lat":34.513355,"lng":135.815373,"zip":"6340014"},{"town":"今井町一丁目","koaza":"","lat":34.507511,"lng":135.788414,"zip":"6340812"},{"town":"今井町二丁目","koaza":"","lat":34.505772,"lng":135.788779,"zip":"6340812"},{"town":"今井町三丁目","koaza":"","lat":34.505707,"lng":135.784135,"zip":"6340812"},{"town":"今井町四丁目","koaza":"","lat":34.507815,"lng":135.784131,"zip":"6340812"},{"town":"忌部町","koaza":"","lat":34.506138,"lng":135.773025,"zip":"6340833"},{"town":"雲梯町","koaza":"","lat":34.500449,"lng":135.768775,"zip":"6340834"},{"town":"畝傍町","koaza":"","lat":34.489765,"lng":135.788306,"zip":"6340065"},{"town":"栄和町","koaza":"","lat":34.488266,"lng":135.79797,"zip":"6340046"},{"town":"小房町","koaza":"","lat":34.501697,"lng":135.796901,"zip":"6340075"},{"town":"小槻町","koaza":"","lat":34.528933,"lng":135.773092,"zip":"6340846"},{"town":"大垣町","koaza":"","lat":34.528508,"lng":135.780584,"zip":"6340841"},{"town":"大軽町","koaza":"","lat":34.478979,"lng":135.79898,"zip":"6340044"},{"town":"大久保町","koaza":"","lat":34.495612,"lng":135.790591,"zip":"6340061"},{"town":"大谷町","koaza":"","lat":34.491526,"lng":135.780612,"zip":"6340815"},{"town":"太田市町","koaza":"","lat":34.53239,"lng":135.815746,"zip":"6340001"},{"town":"戒外町","koaza":"","lat":34.494801,"lng":135.822926,"zip":"6340023"},{"town":"膳夫町","koaza":"","lat":34.506214,"lng":135.822291,"zip":"6340012"},{"town":"一町","koaza":"","lat":34.474175,"lng":135.766235,"zip":"6340824"},{"town":"上飛騨町","koaza":"","lat":34.493581,"lng":135.807119,"zip":"6340031"},{"town":"川西町","koaza":"","lat":34.482092,"lng":135.768899,"zip":"6340826"},{"town":"観音寺町","koaza":"","lat":34.470001,"lng":135.756434,"zip":"6340825"},{"town":"北越智町","koaza":"","lat":34.475335,"lng":135.775734,"zip":"6340823"},{"town":"北妙法寺町","koaza":"","lat":34.517925,"lng":135.781898,"zip":"6340843"},{"town":"北八木町一丁目","koaza":"","lat":34.512146,"lng":135.794601,"zip":"6340005"},{"town":"北八木町二丁目","koaza":"","lat":34.511842,"lng":135.797107,"zip":"6340005"},{"town":"北八木町三丁目","koaza":"","lat":34.513354,"lng":135.795577,"zip":"6340005"},{"town":"城殿町","koaza":"","lat":34.491785,"lng":135.801209,"zip":"6340033"},{"town":"木之本町","koaza":"","lat":34.496905,"lng":135.813895,"zip":"6340025"},{"town":"木原町","koaza":"","lat":34.514602,"lng":135.804097,"zip":"6340004"},{"town":"葛本町","koaza":"","lat":34.523813,"lng":135.802028,"zip":"6340007"},{"town":"久米町","koaza":"","lat":34.484624,"lng":135.790106,"zip":"6340063"},{"town":"五井町","koaza":"","lat":34.506756,"lng":135.778993,"zip":"6340832"},{"town":"光陽町","koaza":"","lat":34.485179,"lng":135.768876,"zip":"6340827"},{"town":"五条野町","koaza":"","lat":34.474042,"lng":135.801236,"zip":"6340043"},{"town":"御坊町","koaza":"","lat":34.490276,"lng":135.794643,"zip":"6340062"},{"town":"地黄町","koaza":"","lat":34.516012,"lng":135.785714,"zip":"6340805"},{"town":"四条町","koaza":"","lat":34.501807,"lng":135.787686,"zip":"6340813"},{"town":"四分町","koaza":"","lat":34.497695,"lng":135.800328,"zip":"6340074"},{"town":"慈明寺町","koaza":"","lat":34.496556,"lng":135.777054,"zip":"6340816"},{"town":"下八釣町","koaza":"","lat":34.502005,"lng":135.814834,"zip":"6340029"},{"town":"小綱町","koaza":"","lat":34.51079,"lng":135.785284,"zip":"6340811"},{"town":"菖蒲町一丁目","koaza":"","lat":34.481,"lng":135.806345,"zip":"6340042"},{"town":"菖蒲町二丁目","koaza":"","lat":34.479641,"lng":135.803532,"zip":"6340042"},{"town":"菖蒲町三丁目","koaza":"","lat":34.478076,"lng":135.805994,"zip":"6340042"},{"town":"菖蒲町四丁目","koaza":"","lat":34.47428,"lng":135.80658,"zip":"6340042"},{"town":"上品寺町","koaza":"","lat":34.519843,"lng":135.791475,"zip":"6340803"},{"town":"白橿町一丁目","koaza":"","lat":34.480642,"lng":135.788936,"zip":"6340051"},{"town":"白橿町二丁目","koaza":"","lat":34.476809,"lng":135.790832,"zip":"6340051"},{"town":"白橿町三丁目","koaza":"","lat":34.478184,"lng":135.787544,"zip":"6340051"},{"town":"白橿町四丁目","koaza":"","lat":34.475433,"lng":135.786113,"zip":"6340051"},{"town":"白橿町五丁目","koaza":"","lat":34.47364,"lng":135.789271,"zip":"6340051"},{"town":"白橿町六丁目","koaza":"","lat":34.472748,"lng":135.792419,"zip":"6340051"},{"town":"白橿町七丁目","koaza":"","lat":34.471332,"lng":135.795891,"zip":"6340051"},{"town":"白橿町八丁目","koaza":"","lat":34.469311,"lng":135.790841,"zip":"6340051"},{"town":"新賀町","koaza":"","lat":34.517466,"lng":135.798163,"zip":"6340006"},{"town":"新堂町","koaza":"","lat":34.500775,"lng":135.759976,"zip":"6340836"},{"town":"曽我町","koaza":"","lat":34.513181,"lng":135.775388,"zip":"6340831"},{"town":"醍醐町","koaza":"","lat":34.506104,"lng":135.803967,"zip":"6340072"},{"town":"高殿町","koaza":"","lat":34.502401,"lng":135.810815,"zip":"6340027"},{"town":"田中町","koaza":"","lat":34.48883,"lng":135.805766,"zip":"6340032"},{"town":"土橋町","koaza":"","lat":34.52318,"lng":135.777532,"zip":"6340844"},{"town":"出合町","koaza":"","lat":34.507995,"lng":135.817111,"zip":"6340013"},{"town":"出垣内町","koaza":"","lat":34.509892,"lng":135.82383,"zip":"6340011"},{"town":"寺田町","koaza":"","lat":34.501212,"lng":135.77745,"zip":"6340817"},{"town":"十市町","koaza":"","lat":34.532604,"lng":135.804346,"zip":"6340008"},{"town":"常盤町","koaza":"","lat":34.519977,"lng":135.813474,"zip":"6340003"},{"town":"豊田町","koaza":"","lat":34.524152,"lng":135.784726,"zip":"6340842"},{"town":"鳥屋町","koaza":"","lat":34.476323,"lng":135.781567,"zip":"6340822"},{"town":"内膳町一丁目","koaza":"","lat":34.512035,"lng":135.79237,"zip":"6340804"},{"town":"内膳町二丁目","koaza":"","lat":34.511014,"lng":135.789649,"zip":"6340804"},{"town":"内膳町三丁目","koaza":"","lat":34.512452,"lng":135.788824,"zip":"6340804"},{"town":"内膳町四丁目","koaza":"","lat":34.515191,"lng":135.790829,"zip":"6340804"},{"town":"内膳町五丁目","koaza":"","lat":34.514718,"lng":135.792565,"zip":"6340804"},{"town":"中曽司町","koaza":"","lat":34.524018,"lng":135.768396,"zip":"6340845"},{"town":"中町","koaza":"","lat":34.52681,"lng":135.810982,"zip":"6340009"},{"town":"縄手町","koaza":"","lat":34.502436,"lng":135.801132,"zip":"6340073"},{"town":"西池尻町","koaza":"","lat":34.4858,"lng":135.780268,"zip":"6340821"},{"town":"西新堂町","koaza":"","lat":34.5299,"lng":135.791021,"zip":"6340801"},{"town":"新口町","koaza":"","lat":34.525683,"lng":135.790853,"zip":"6340802"},{"town":"東池尻町","koaza":"","lat":34.501445,"lng":135.826895,"zip":"6340021"},{"town":"東竹田町","koaza":"","lat":34.526571,"lng":135.817752,"zip":"6340002"},{"town":"東坊城町","koaza":"","lat":34.492403,"lng":135.76408,"zip":"6340835"},{"town":"飯高町","koaza":"","lat":34.532917,"lng":135.775621,"zip":"6340847"},{"town":"飛騨町","koaza":"","lat":34.495967,"lng":135.80319,"zip":"6340034"},{"town":"兵部町","koaza":"","lat":34.505821,"lng":135.792175,"zip":"6340076"},{"town":"古川町","koaza":"","lat":34.490186,"lng":135.771323,"zip":"6340828"},{"town":"別所町","koaza":"","lat":34.496557,"lng":135.809744,"zip":"6340026"},{"town":"法花寺町","koaza":"","lat":34.507871,"lng":135.812409,"zip":"6340028"},{"town":"曲川町","koaza":"","lat":34.517182,"lng":135.767836,"zip":"6340837"},{"town":"曲川町一丁目","koaza":"","lat":34.514037,"lng":135.767593,"zip":"6340837"},{"town":"曲川町二丁目","koaza":"","lat":34.514601,"lng":135.764676,"zip":"6340837"},{"town":"曲川町三丁目","koaza":"","lat":34.514246,"lng":135.762688,"zip":"6340837"},{"town":"曲川町四丁目","koaza":"","lat":34.513303,"lng":135.760057,"zip":"6340837"},{"town":"曲川町五丁目","koaza":"","lat":34.510106,"lng":135.764135,"zip":"6340837"},{"town":"曲川町六丁目","koaza":"","lat":34.508915,"lng":135.763121,"zip":"6340837"},{"town":"曲川町七丁目","koaza":"","lat":34.506508,"lng":135.763473,"zip":"6340837"},{"town":"見瀬町","koaza":"","lat":34.474818,"lng":135.794769,"zip":"6340064"},{"town":"南浦町","koaza":"","lat":34.496126,"lng":135.819061,"zip":"6340022"},{"town":"南妙法寺町","koaza":"","lat":34.471507,"lng":135.784745,"zip":"6340052"},{"town":"南八木町一丁目","koaza":"","lat":34.507437,"lng":135.791571,"zip":"6340077"},{"town":"南八木町二丁目","koaza":"","lat":34.506298,"lng":135.794486,"zip":"6340077"},{"town":"南八木町三丁目","koaza":"","lat":34.506887,"lng":135.797715,"zip":"6340077"},{"town":"南山町","koaza":"","lat":34.490648,"lng":135.824718,"zip":"6340024"},{"town":"八木町一丁目","koaza":"","lat":34.509536,"lng":135.791599,"zip":"6340078"},{"town":"八木町二丁目","koaza":"","lat":34.509486,"lng":135.794659,"zip":"6340078"},{"town":"八木町三丁目","koaza":"","lat":34.509727,"lng":135.797846,"zip":"6340078"},{"town":"山之坊町","koaza":"","lat":34.514604,"lng":135.810042,"zip":"6340071"},{"town":"山本町","koaza":"","lat":34.495456,"lng":135.783576,"zip":"6340814"},{"town":"吉田町","koaza":"","lat":34.489362,"lng":135.776512,"zip":"6340829"},{"town":"和田町","koaza":"","lat":34.484277,"lng":135.807712,"zip":"6340041"},{"town":"東坊城町","koaza":"六反田","lat":34.492231,"lng":135.762233,"zip":"6340835"},{"town":"新賀町","koaza":"辻ヶ坪","lat":34.520439,"lng":135.797976,"zip":"6340006"},{"town":"醍醐町","koaza":"西筋見","lat":34.509819,"lng":135.806459,"zip":"6340072"}]