[{"town":"阿波一丁目","koaza":"","lat":34.60755,"lng":135.744057,"zip":"6360122"},{"town":"阿波二丁目","koaza":"","lat":34.604307,"lng":135.741741,"zip":"6360122"},{"town":"阿波三丁目","koaza":"","lat":34.601293,"lng":135.741126,"zip":"6360122"},{"town":"五百井一丁目","koaza":"","lat":34.604812,"lng":135.732335,"zip":"6360124"},{"town":"稲葉車瀬一丁目","koaza":"","lat":34.60216,"lng":135.721368,"zip":"6360141"},{"town":"稲葉車瀬二丁目","koaza":"","lat":34.602362,"lng":135.718321,"zip":"6360141"},{"town":"稲葉西一丁目","koaza":"","lat":34.602762,"lng":135.715774,"zip":"6360144"},{"town":"稲葉西二丁目","koaza":"","lat":34.601622,"lng":135.712996,"zip":"6360144"},{"town":"大字阿波","koaza":"","lat":34.604123,"lng":135.745071,"zip":"6360100"},{"town":"大字五百井","koaza":"","lat":34.5982,"lng":135.728384,"zip":"6360100"},{"town":"大字稲葉車瀬","koaza":"","lat":34.598241,"lng":135.72387,"zip":"6360100"},{"town":"大字岡本","koaza":"","lat":34.623236,"lng":135.744798,"zip":"6360100"},{"town":"大字幸前","koaza":"","lat":34.618504,"lng":135.745146,"zip":"6360100"},{"town":"大字小吉田","koaza":"","lat":34.59943,"lng":135.726666,"zip":"6360100"},{"town":"大字高安","koaza":"","lat":34.612985,"lng":135.75412,"zip":"6360100"},{"town":"大字龍田","koaza":"","lat":34.616189,"lng":135.721065,"zip":"6360100"},{"town":"大字服部","koaza":"","lat":34.598535,"lng":135.729773,"zip":"6360100"},{"town":"大字法隆寺","koaza":"","lat":34.629611,"lng":135.724735,"zip":"6360100"},{"town":"大字三井","koaza":"","lat":34.624991,"lng":135.735985,"zip":"6360100"},{"town":"大字目安","koaza":"","lat":34.594047,"lng":135.726795,"zip":"6360100"},{"town":"興留十丁目","koaza":"","lat":34.597494,"lng":135.73859,"zip":"6360123"},{"town":"興留一丁目","koaza":"","lat":34.606929,"lng":135.735827,"zip":"6360123"},{"town":"興留二丁目","koaza":"","lat":34.607574,"lng":135.738661,"zip":"6360123"},{"town":"興留三丁目","koaza":"","lat":34.607805,"lng":135.740391,"zip":"6360123"},{"town":"興留四丁目","koaza":"","lat":34.603907,"lng":135.735763,"zip":"6360123"},{"town":"興留五丁目","koaza":"","lat":34.604522,"lng":135.738735,"zip":"6360123"},{"town":"興留六丁目","koaza":"","lat":34.601076,"lng":135.735366,"zip":"6360123"},{"town":"興留七丁目","koaza":"","lat":34.602148,"lng":135.738722,"zip":"6360123"},{"town":"興留八丁目","koaza":"","lat":34.598976,"lng":135.735843,"zip":"6360123"},{"town":"興留九丁目","koaza":"","lat":34.599086,"lng":135.73878,"zip":"6360123"},{"town":"興留東一丁目","koaza":"","lat":34.607977,"lng":135.74225,"zip":"6360121"},{"town":"幸前一丁目","koaza":"","lat":34.617207,"lng":135.747284,"zip":"6360103"},{"town":"幸前二丁目","koaza":"","lat":34.616415,"lng":135.749999,"zip":"6360103"},{"town":"小吉田一丁目","koaza":"","lat":34.603392,"lng":135.724875,"zip":"6360142"},{"town":"小吉田二丁目","koaza":"","lat":34.60272,"lng":135.728066,"zip":"6360142"},{"town":"神南一丁目","koaza":"","lat":34.599806,"lng":135.719633,"zip":"6360143"},{"town":"神南二丁目","koaza":"","lat":34.596603,"lng":135.72033,"zip":"6360143"},{"town":"神南三丁目","koaza":"","lat":34.597847,"lng":135.715914,"zip":"6360143"},{"town":"神南四丁目","koaza":"","lat":34.599942,"lng":135.714456,"zip":"6360143"},{"town":"神南五丁目","koaza":"","lat":34.598041,"lng":135.712112,"zip":"6360143"},{"town":"高安一丁目","koaza":"","lat":34.61427,"lng":135.751616,"zip":"6360104"},{"town":"高安二丁目","koaza":"","lat":34.610776,"lng":135.749065,"zip":"6360104"},{"town":"高安西一丁目","koaza":"","lat":34.61348,"lng":135.747976,"zip":"6360106"},{"town":"龍田一丁目","koaza":"","lat":34.608249,"lng":135.726414,"zip":"6360152"},{"town":"龍田二丁目","koaza":"","lat":34.607883,"lng":135.7236,"zip":"6360152"},{"town":"龍田三丁目","koaza":"","lat":34.608074,"lng":135.720904,"zip":"6360152"},{"town":"龍田四丁目","koaza":"","lat":34.608516,"lng":135.717846,"zip":"6360152"},{"town":"龍田北一丁目","koaza":"","lat":34.611162,"lng":135.726262,"zip":"6360151"},{"town":"龍田北二丁目","koaza":"","lat":34.611121,"lng":135.723714,"zip":"6360151"},{"town":"龍田北三丁目","koaza":"","lat":34.610338,"lng":135.720481,"zip":"6360151"},{"town":"龍田北四丁目","koaza":"","lat":34.612357,"lng":135.718898,"zip":"6360151"},{"town":"龍田北五丁目","koaza":"","lat":34.611434,"lng":135.716145,"zip":"6360151"},{"town":"龍田北六丁目","koaza":"","lat":34.614387,"lng":135.713909,"zip":"6360151"},{"town":"龍田西一丁目","koaza":"","lat":34.611224,"lng":135.713721,"zip":"6360154"},{"town":"龍田西二丁目","koaza":"","lat":34.608424,"lng":135.714435,"zip":"6360154"},{"town":"龍田西三丁目","koaza":"","lat":34.60873,"lng":135.711231,"zip":"6360154"},{"town":"龍田西四丁目","koaza":"","lat":34.605564,"lng":135.716467,"zip":"6360154"},{"town":"龍田西五丁目","koaza":"","lat":34.606082,"lng":135.713552,"zip":"6360154"},{"town":"龍田西六丁目","koaza":"","lat":34.606142,"lng":135.711437,"zip":"6360154"},{"town":"龍田西七丁目","koaza":"","lat":34.603575,"lng":135.713735,"zip":"6360154"},{"town":"龍田西八丁目","koaza":"","lat":34.603287,"lng":135.711831,"zip":"6360154"},{"town":"龍田南一丁目","koaza":"","lat":34.606517,"lng":135.730469,"zip":"6360153"},{"town":"龍田南二丁目","koaza":"","lat":34.605895,"lng":135.728686,"zip":"6360153"},{"town":"龍田南三丁目","koaza":"","lat":34.60591,"lng":135.726292,"zip":"6360153"},{"town":"龍田南四丁目","koaza":"","lat":34.605537,"lng":135.72363,"zip":"6360153"},{"town":"龍田南五丁目","koaza":"","lat":34.605605,"lng":135.721396,"zip":"6360153"},{"town":"龍田南六丁目","koaza":"","lat":34.605596,"lng":135.719096,"zip":"6360153"},{"town":"東福寺一丁目","koaza":"","lat":34.613411,"lng":135.745532,"zip":"6360105"},{"town":"服部一丁目","koaza":"","lat":34.601909,"lng":135.731626,"zip":"6360131"},{"town":"服部二丁目","koaza":"","lat":34.598768,"lng":135.732196,"zip":"6360131"},{"town":"法隆寺一丁目","koaza":"","lat":34.611133,"lng":135.735638,"zip":"6360116"},{"town":"法隆寺二丁目","koaza":"","lat":34.612178,"lng":135.739239,"zip":"6360116"},{"town":"法隆寺北一丁目","koaza":"","lat":34.616894,"lng":135.73835,"zip":"6360111"},{"town":"法隆寺北二丁目","koaza":"","lat":34.616683,"lng":135.741646,"zip":"6360111"},{"town":"法隆寺山内","koaza":"","lat":34.613979,"lng":135.735977,"zip":"6360115"},{"town":"法隆寺西一丁目","koaza":"","lat":34.611985,"lng":135.731671,"zip":"6360114"},{"town":"法隆寺西二丁目","koaza":"","lat":34.611224,"lng":135.728802,"zip":"6360114"},{"town":"法隆寺西三丁目","koaza":"","lat":34.609618,"lng":135.732079,"zip":"6360114"},{"town":"法隆寺東一丁目","koaza":"","lat":34.613434,"lng":135.742223,"zip":"6360112"},{"town":"法隆寺東二丁目","koaza":"","lat":34.615531,"lng":135.744103,"zip":"6360112"},{"town":"法隆寺南一丁目","koaza":"","lat":34.60796,"lng":135.733314,"zip":"6360113"},{"town":"法隆寺南二丁目","koaza":"","lat":34.610828,"lng":135.742702,"zip":"6360113"},{"town":"法隆寺南三丁目","koaza":"","lat":34.609344,"lng":135.746068,"zip":"6360113"},{"town":"目安一丁目","koaza":"","lat":34.593682,"lng":135.732297,"zip":"6360132"},{"town":"目安二丁目","koaza":"","lat":34.593816,"lng":135.736308,"zip":"6360132"},{"town":"目安三丁目","koaza":"","lat":34.594845,"lng":135.738969,"zip":"6360132"},{"town":"目安四丁目","koaza":"","lat":34.595737,"lng":135.740906,"zip":"6360132"},{"town":"目安北一丁目","koaza":"","lat":34.595356,"lng":135.729471,"zip":"6360133"},{"town":"目安北二丁目","koaza":"","lat":34.596492,"lng":135.732351,"zip":"6360133"},{"town":"目安北三丁目","koaza":"","lat":34.596257,"lng":135.735754,"zip":"6360133"}]