[{"town":"大字勢野","koaza":"","lat":34.609012,"lng":135.678134,"zip":"6360000"},{"town":"大字立野","koaza":"","lat":34.601038,"lng":135.679336,"zip":"6360000"},{"town":"大字南畑","koaza":"","lat":34.608873,"lng":135.659179,"zip":"6360000"},{"town":"信貴ケ丘一丁目","koaza":"","lat":34.602417,"lng":135.692338,"zip":"6360813"},{"town":"信貴ケ丘二丁目","koaza":"","lat":34.603529,"lng":135.692286,"zip":"6360813"},{"town":"信貴ケ丘三丁目","koaza":"","lat":34.604493,"lng":135.692826,"zip":"6360813"},{"town":"信貴ケ丘四丁目","koaza":"","lat":34.604436,"lng":135.687989,"zip":"6360813"},{"town":"信貴山西","koaza":"","lat":34.607188,"lng":135.668008,"zip":"6360832"},{"town":"信貴山東","koaza":"","lat":34.606792,"lng":135.677939,"zip":"6360831"},{"town":"信貴南畑一丁目","koaza":"","lat":34.604853,"lng":135.660909,"zip":"6360833"},{"town":"城山台一丁目","koaza":"","lat":34.601064,"lng":135.691053,"zip":"6360824"},{"town":"城山台二丁目","koaza":"","lat":34.601445,"lng":135.687679,"zip":"6360824"},{"town":"城山台三丁目","koaza":"","lat":34.59953,"lng":135.686934,"zip":"6360824"},{"town":"城山台四丁目","koaza":"","lat":34.598659,"lng":135.684563,"zip":"6360824"},{"town":"城山台五丁目","koaza":"","lat":34.601216,"lng":135.685008,"zip":"6360824"},{"town":"勢野北一丁目","koaza":"","lat":34.607842,"lng":135.697086,"zip":"6360815"},{"town":"勢野北二丁目","koaza":"","lat":34.607563,"lng":135.694004,"zip":"6360815"},{"town":"勢野北三丁目","koaza":"","lat":34.607429,"lng":135.689124,"zip":"6360815"},{"town":"勢野北四丁目","koaza":"","lat":34.607429,"lng":135.686284,"zip":"6360815"},{"town":"勢野北五丁目","koaza":"","lat":34.609381,"lng":135.690069,"zip":"6360815"},{"town":"勢野西一丁目","koaza":"","lat":34.600605,"lng":135.69486,"zip":"6360812"},{"town":"勢野西二丁目","koaza":"","lat":34.603664,"lng":135.69605,"zip":"6360812"},{"town":"勢野西三丁目","koaza":"","lat":34.606499,"lng":135.695135,"zip":"6360812"},{"town":"勢野西四丁目","koaza":"","lat":34.606625,"lng":135.693,"zip":"6360812"},{"town":"勢野西五丁目","koaza":"","lat":34.606804,"lng":135.691043,"zip":"6360812"},{"town":"勢野東一丁目","koaza":"","lat":34.602278,"lng":135.699454,"zip":"6360811"},{"town":"勢野東二丁目","koaza":"","lat":34.60473,"lng":135.699223,"zip":"6360811"},{"town":"勢野東三丁目","koaza":"","lat":34.608021,"lng":135.699271,"zip":"6360811"},{"town":"勢野東四丁目","koaza":"","lat":34.605277,"lng":135.703256,"zip":"6360811"},{"town":"勢野東五丁目","koaza":"","lat":34.602537,"lng":135.703078,"zip":"6360811"},{"town":"勢野東六丁目","koaza":"","lat":34.601985,"lng":135.706906,"zip":"6360811"},{"town":"立野北一丁目","koaza":"","lat":34.5963,"lng":135.691848,"zip":"6360821"},{"town":"立野北二丁目","koaza":"","lat":34.596362,"lng":135.685776,"zip":"6360821"},{"town":"立野北三丁目","koaza":"","lat":34.59468,"lng":135.680093,"zip":"6360821"},{"town":"立野南一丁目","koaza":"","lat":34.591254,"lng":135.690519,"zip":"6360822"},{"town":"立野南二丁目","koaza":"","lat":34.590556,"lng":135.684977,"zip":"6360822"},{"town":"立野南三丁目","koaza":"","lat":34.58757,"lng":135.68375,"zip":"6360822"},{"town":"東信貴ケ丘一丁目","koaza":"","lat":34.606496,"lng":135.704167,"zip":"6360803"},{"town":"東信貴ケ丘二丁目","koaza":"","lat":34.608243,"lng":135.704654,"zip":"6360803"},{"town":"東信貴ケ丘三丁目","koaza":"","lat":34.609427,"lng":135.706054,"zip":"6360803"},{"town":"美松ケ丘西一丁目","koaza":"","lat":34.608448,"lng":135.701335,"zip":"6360804"},{"town":"美松ケ丘西二丁目","koaza":"","lat":34.611792,"lng":135.69848,"zip":"6360804"},{"town":"美松ケ丘東一丁目","koaza":"","lat":34.609726,"lng":135.702919,"zip":"6360805"},{"town":"美松ケ丘東二丁目","koaza":"","lat":34.612264,"lng":135.701328,"zip":"6360805"},{"town":"三室一丁目","koaza":"","lat":34.603001,"lng":135.70914,"zip":"6360802"},{"town":"三室二丁目","koaza":"","lat":34.604936,"lng":135.708793,"zip":"6360802"},{"town":"夕陽ケ丘","koaza":"","lat":34.60797,"lng":135.708167,"zip":"6360801"}]