[{"town":"大字櫟原","koaza":"","lat":34.645954,"lng":135.681028,"zip":"6360000"},{"town":"大字上庄","koaza":"","lat":34.639669,"lng":135.711222,"zip":"6360000"},{"town":"大字久安寺","koaza":"","lat":34.621857,"lng":135.667431,"zip":"6360000"},{"town":"大字越木塚","koaza":"","lat":34.620635,"lng":135.690556,"zip":"6360000"},{"town":"大字信貴山","koaza":"","lat":34.609751,"lng":135.669943,"zip":"6360000"},{"town":"大字信貴畑","koaza":"","lat":34.617475,"lng":135.68144,"zip":"6360000"},{"town":"大字椣原","koaza":"","lat":34.644627,"lng":135.716974,"zip":"6360000"},{"town":"大字下垣内","koaza":"","lat":34.625559,"lng":135.703737,"zip":"6360000"},{"town":"大字白石畑","koaza":"","lat":34.628025,"lng":135.717894,"zip":"6360000"},{"town":"大字椿井","koaza":"","lat":34.617256,"lng":135.710881,"zip":"6360000"},{"town":"大字梨本","koaza":"","lat":34.633674,"lng":135.698893,"zip":"6360000"},{"town":"大字鳴川","koaza":"","lat":34.655367,"lng":135.678165,"zip":"6360000"},{"town":"大字西向","koaza":"","lat":34.639154,"lng":135.697431,"zip":"6360000"},{"town":"大字平等寺","koaza":"","lat":34.624003,"lng":135.709665,"zip":"6360000"},{"town":"大字福貴","koaza":"","lat":34.631498,"lng":135.69305,"zip":"6360000"},{"town":"大字福貴畑","koaza":"","lat":34.633908,"lng":135.673659,"zip":"6360000"},{"town":"大字椹原","koaza":"","lat":34.616632,"lng":135.693946,"zip":"6360000"},{"town":"大字三里","koaza":"","lat":34.632626,"lng":135.71174,"zip":"6360000"},{"town":"大字若井","koaza":"","lat":34.621311,"lng":135.699428,"zip":"6360000"},{"town":"春日丘一丁目","koaza":"","lat":34.617417,"lng":135.701258,"zip":"6360915"},{"town":"春日丘二丁目","koaza":"","lat":34.61529,"lng":135.701356,"zip":"6360915"},{"town":"上庄一丁目","koaza":"","lat":34.639813,"lng":135.70202,"zip":"6360905"},{"town":"上庄二丁目","koaza":"","lat":34.640593,"lng":135.705528,"zip":"6360905"},{"town":"上庄三丁目","koaza":"","lat":34.6403,"lng":135.70776,"zip":"6360905"},{"town":"上庄四丁目","koaza":"","lat":34.63728,"lng":135.705619,"zip":"6360905"},{"town":"上庄五丁目","koaza":"","lat":34.637389,"lng":135.702143,"zip":"6360905"},{"town":"菊美台一丁目","koaza":"","lat":34.645709,"lng":135.707617,"zip":"6360906"},{"town":"菊美台二丁目","koaza":"","lat":34.645702,"lng":135.709796,"zip":"6360906"},{"town":"菊美台三丁目","koaza":"","lat":34.646136,"lng":135.712214,"zip":"6360906"},{"town":"菊美台四丁目","koaza":"","lat":34.646437,"lng":135.715056,"zip":"6360906"},{"town":"菊美台五丁目","koaza":"","lat":34.64817,"lng":135.712184,"zip":"6360906"},{"town":"北信貴ケ丘一丁目","koaza":"","lat":34.61158,"lng":135.706375,"zip":"6360913"},{"town":"北信貴ケ丘二丁目","koaza":"","lat":34.61112,"lng":135.708142,"zip":"6360913"},{"town":"竜田川一丁目","koaza":"","lat":34.614532,"lng":135.71166,"zip":"6360912"},{"town":"竜田川二丁目","koaza":"","lat":34.612413,"lng":135.711218,"zip":"6360912"},{"town":"竜田川三丁目","koaza":"","lat":34.611446,"lng":135.710156,"zip":"6360912"},{"town":"椿台一丁目","koaza":"","lat":34.642115,"lng":135.695867,"zip":"6360943"},{"town":"椿台二丁目","koaza":"","lat":34.641183,"lng":135.693283,"zip":"6360943"},{"town":"椿台三丁目","koaza":"","lat":34.642499,"lng":135.692419,"zip":"6360943"},{"town":"椿台四丁目","koaza":"","lat":34.643476,"lng":135.693881,"zip":"6360943"},{"town":"西宮一丁目","koaza":"","lat":34.620152,"lng":135.702774,"zip":"6360914"},{"town":"西宮二丁目","koaza":"","lat":34.617349,"lng":135.705442,"zip":"6360914"},{"town":"西宮三丁目","koaza":"","lat":34.617206,"lng":135.703844,"zip":"6360914"},{"town":"初香台一丁目","koaza":"","lat":34.627849,"lng":135.699617,"zip":"6360934"},{"town":"初香台二丁目","koaza":"","lat":34.626123,"lng":135.697982,"zip":"6360934"},{"town":"初香台三丁目","koaza":"","lat":34.625107,"lng":135.697822,"zip":"6360934"},{"town":"初香台四丁目","koaza":"","lat":34.624028,"lng":135.697128,"zip":"6360934"},{"town":"初香台五丁目","koaza":"","lat":34.624559,"lng":135.699757,"zip":"6360934"},{"town":"光ケ丘一丁目","koaza":"","lat":34.625742,"lng":135.701201,"zip":"6360935"},{"town":"光ケ丘二丁目","koaza":"","lat":34.625638,"lng":135.69945,"zip":"6360935"},{"town":"緑ケ丘一丁目","koaza":"","lat":34.644261,"lng":135.698062,"zip":"6360941"},{"town":"緑ケ丘二丁目","koaza":"","lat":34.642996,"lng":135.700159,"zip":"6360941"},{"town":"緑ケ丘三丁目","koaza":"","lat":34.644757,"lng":135.702,"zip":"6360941"},{"town":"緑ケ丘四丁目","koaza":"","lat":34.645841,"lng":135.700656,"zip":"6360941"},{"town":"緑ケ丘五丁目","koaza":"","lat":34.646476,"lng":135.698493,"zip":"6360941"},{"town":"緑ケ丘六丁目","koaza":"","lat":34.64803,"lng":135.697647,"zip":"6360941"},{"town":"吉新一丁目","koaza":"","lat":34.628256,"lng":135.701544,"zip":"6360932"},{"town":"吉新二丁目","koaza":"","lat":34.631734,"lng":135.701494,"zip":"6360932"},{"town":"吉新三丁目","koaza":"","lat":34.631729,"lng":135.703651,"zip":"6360932"},{"town":"吉新四丁目","koaza":"","lat":34.628678,"lng":135.703187,"zip":"6360932"},{"town":"若葉台一丁目","koaza":"","lat":34.635649,"lng":135.695782,"zip":"6360938"},{"town":"若葉台二丁目","koaza":"","lat":34.638491,"lng":135.693401,"zip":"6360938"},{"town":"若葉台三丁目","koaza":"","lat":34.636951,"lng":135.690465,"zip":"6360938"},{"town":"若葉台四丁目","koaza":"","lat":34.635698,"lng":135.692593,"zip":"6360938"},{"town":"若葉台五丁目","koaza":"","lat":34.634834,"lng":135.69459,"zip":"6360938"}]