[{"town":"青山台","koaza":"","lat":34.667971,"lng":135.700915,"zip":"6300239"},{"town":"あすか台","koaza":"","lat":34.709697,"lng":135.724932,"zip":"6300132"},{"town":"あすか野北一丁目","koaza":"","lat":34.714897,"lng":135.718385,"zip":"6300134"},{"town":"あすか野北二丁目","koaza":"","lat":34.713592,"lng":135.715422,"zip":"6300134"},{"town":"あすか野北三丁目","koaza":"","lat":34.713994,"lng":135.712326,"zip":"6300134"},{"town":"あすか野南一丁目","koaza":"","lat":34.711353,"lng":135.720318,"zip":"6300133"},{"town":"あすか野南二丁目","koaza":"","lat":34.709335,"lng":135.716207,"zip":"6300133"},{"town":"あすか野南三丁目","koaza":"","lat":34.708549,"lng":135.721455,"zip":"6300133"},{"town":"有里町","koaza":"","lat":34.670315,"lng":135.702147,"zip":"6300233"},{"town":"生駒台北","koaza":"","lat":34.705196,"lng":135.700499,"zip":"6300203"},{"town":"生駒台南","koaza":"","lat":34.703219,"lng":135.702856,"zip":"6300202"},{"town":"壱分町","koaza":"","lat":34.673875,"lng":135.708955,"zip":"6300222"},{"town":"小倉寺町","koaza":"","lat":34.673646,"lng":135.690653,"zip":"6300232"},{"town":"小瀬町","koaza":"","lat":34.663082,"lng":135.713938,"zip":"6300223"},{"town":"乙田町","koaza":"","lat":34.653331,"lng":135.721131,"zip":"6300227"},{"town":"鬼取町","koaza":"","lat":34.673386,"lng":135.681876,"zip":"6300237"},{"town":"上町","koaza":"","lat":34.718608,"lng":135.721738,"zip":"6300131"},{"town":"上町台","koaza":"","lat":34.727903,"lng":135.715918,"zip":"6300138"},{"town":"軽井沢町","koaza":"","lat":34.685629,"lng":135.694796,"zip":"6300265"},{"town":"北新町","koaza":"","lat":34.69472,"lng":135.691826,"zip":"6300245"},{"town":"北田原町","koaza":"","lat":34.738942,"lng":135.704701,"zip":"6300142"},{"town":"北大和一丁目","koaza":"","lat":34.725224,"lng":135.727459,"zip":"6300121"},{"town":"北大和二丁目","koaza":"","lat":34.724569,"lng":135.731841,"zip":"6300121"},{"town":"北大和三丁目","koaza":"","lat":34.72352,"lng":135.735403,"zip":"6300121"},{"town":"北大和四丁目","koaza":"","lat":34.728191,"lng":135.729261,"zip":"6300121"},{"town":"北大和五丁目","koaza":"","lat":34.726148,"lng":135.735006,"zip":"6300121"},{"town":"喜里が丘一丁目","koaza":"","lat":34.710093,"lng":135.69318,"zip":"6300248"},{"town":"喜里が丘二丁目","koaza":"","lat":34.710969,"lng":135.69074,"zip":"6300248"},{"town":"喜里が丘三丁目","koaza":"","lat":34.70798,"lng":135.691473,"zip":"6300248"},{"town":"小明町","koaza":"","lat":34.706079,"lng":135.707888,"zip":"6300201"},{"town":"光陽台","koaza":"","lat":34.699786,"lng":135.688087,"zip":"6300247"},{"town":"小平尾町","koaza":"","lat":34.656109,"lng":135.698405,"zip":"6300226"},{"town":"桜ケ丘","koaza":"","lat":34.699782,"lng":135.703169,"zip":"6300211"},{"town":"さつき台一丁目","koaza":"","lat":34.676218,"lng":135.716266,"zip":"6300221"},{"town":"さつき台二丁目","koaza":"","lat":34.675241,"lng":135.718684,"zip":"6300221"},{"town":"鹿ノ台北一丁目","koaza":"","lat":34.737938,"lng":135.7509,"zip":"6300111"},{"town":"鹿ノ台北二丁目","koaza":"","lat":34.738361,"lng":135.74815,"zip":"6300111"},{"town":"鹿ノ台北三丁目","koaza":"","lat":34.74056,"lng":135.747501,"zip":"6300111"},{"town":"鹿ノ台西一丁目","koaza":"","lat":34.735136,"lng":135.7463,"zip":"6300114"},{"town":"鹿ノ台西二丁目","koaza":"","lat":34.737503,"lng":135.746174,"zip":"6300114"},{"town":"鹿ノ台西三丁目","koaza":"","lat":34.738201,"lng":135.743463,"zip":"6300114"},{"town":"鹿ノ台東一丁目","koaza":"","lat":34.732428,"lng":135.753944,"zip":"6300112"},{"town":"鹿ノ台東二丁目","koaza":"","lat":34.734972,"lng":135.752472,"zip":"6300112"},{"town":"鹿ノ台東三丁目","koaza":"","lat":34.736629,"lng":135.754296,"zip":"6300112"},{"town":"鹿ノ台南一丁目","koaza":"","lat":34.731099,"lng":135.750696,"zip":"6300113"},{"town":"鹿ノ台南二丁目","koaza":"","lat":34.732856,"lng":135.748597,"zip":"6300113"},{"town":"鹿畑町","koaza":"","lat":34.731414,"lng":135.739362,"zip":"6300115"},{"town":"白庭台一丁目","koaza":"","lat":34.726916,"lng":135.711029,"zip":"6300136"},{"town":"白庭台二丁目","koaza":"","lat":34.725831,"lng":135.712883,"zip":"6300136"},{"town":"白庭台三丁目","koaza":"","lat":34.724527,"lng":135.714153,"zip":"6300136"},{"town":"白庭台四丁目","koaza":"","lat":34.721606,"lng":135.71398,"zip":"6300136"},{"town":"白庭台五丁目","koaza":"","lat":34.717992,"lng":135.714606,"zip":"6300136"},{"town":"白庭台六丁目","koaza":"","lat":34.719615,"lng":135.717766,"zip":"6300136"},{"town":"新旭ケ丘","koaza":"","lat":34.685324,"lng":135.704152,"zip":"6300253"},{"town":"新生駒台","koaza":"","lat":34.711047,"lng":135.702675,"zip":"6300242"},{"town":"大門町","koaza":"","lat":34.669004,"lng":135.69429,"zip":"6300238"},{"town":"高山町","koaza":"","lat":34.753837,"lng":135.723386,"zip":"6300101"},{"town":"谷田町","koaza":"","lat":34.695072,"lng":135.701581,"zip":"6300251"},{"town":"俵口町","koaza":"","lat":34.70171,"lng":135.680173,"zip":"6300243"},{"town":"辻町","koaza":"","lat":34.696258,"lng":135.710328,"zip":"6300212"},{"town":"中菜畑一丁目","koaza":"","lat":34.68473,"lng":135.707031,"zip":"6300263"},{"town":"中菜畑二丁目","koaza":"","lat":34.681744,"lng":135.70665,"zip":"6300263"},{"town":"仲之町","koaza":"","lat":34.6876,"lng":135.692409,"zip":"6300267"},{"town":"菜畑町","koaza":"","lat":34.680567,"lng":135.687466,"zip":"6300231"},{"town":"西旭ケ丘","koaza":"","lat":34.687335,"lng":135.698248,"zip":"6300261"},{"town":"西白庭台一丁目","koaza":"","lat":34.725322,"lng":135.707271,"zip":"6300137"},{"town":"西白庭台二丁目","koaza":"","lat":34.728825,"lng":135.706966,"zip":"6300137"},{"town":"西白庭台三丁目","koaza":"","lat":34.728785,"lng":135.709838,"zip":"6300137"},{"town":"西菜畑町","koaza":"","lat":34.680121,"lng":135.700814,"zip":"6300264"},{"town":"西畑町","koaza":"","lat":34.667956,"lng":135.680026,"zip":"6300236"},{"town":"西松ケ丘","koaza":"","lat":34.699524,"lng":135.692962,"zip":"6300246"},{"town":"萩の台","koaza":"","lat":34.659943,"lng":135.714375,"zip":"6300224"},{"town":"萩の台一丁目","koaza":"","lat":34.655561,"lng":135.709051,"zip":"6300224"},{"town":"萩の台二丁目","koaza":"","lat":34.65762,"lng":135.712524,"zip":"6300224"},{"town":"萩の台三丁目","koaza":"","lat":34.655369,"lng":135.711227,"zip":"6300224"},{"town":"萩の台四丁目","koaza":"","lat":34.65515,"lng":135.714556,"zip":"6300224"},{"town":"萩の台五丁目","koaza":"","lat":34.653013,"lng":135.712148,"zip":"6300224"},{"town":"萩原町","koaza":"","lat":34.665542,"lng":135.702094,"zip":"6300234"},{"town":"東旭ケ丘","koaza":"","lat":34.689127,"lng":135.700649,"zip":"6300254"},{"town":"東生駒一丁目","koaza":"","lat":34.689037,"lng":135.713265,"zip":"6300213"},{"town":"東生駒二丁目","koaza":"","lat":34.683813,"lng":135.71819,"zip":"6300213"},{"town":"東生駒三丁目","koaza":"","lat":34.681726,"lng":135.713924,"zip":"6300213"},{"town":"東生駒四丁目","koaza":"","lat":34.679853,"lng":135.717271,"zip":"6300213"},{"town":"東生駒月見町","koaza":"","lat":34.684276,"lng":135.712628,"zip":"6300214"},{"town":"東新町","koaza":"","lat":34.692295,"lng":135.70119,"zip":"6300258"},{"town":"東菜畑一丁目","koaza":"","lat":34.686888,"lng":135.712904,"zip":"6300215"},{"town":"東菜畑二丁目","koaza":"","lat":34.682346,"lng":135.709441,"zip":"6300215"},{"town":"東松ケ丘","koaza":"","lat":34.697941,"lng":135.698003,"zip":"6300244"},{"town":"東山町","koaza":"","lat":34.650743,"lng":135.710708,"zip":"6300225"},{"town":"ひかりが丘一丁目","koaza":"","lat":34.740898,"lng":135.713964,"zip":"6300141"},{"town":"ひかりが丘二丁目","koaza":"","lat":34.740127,"lng":135.71533,"zip":"6300141"},{"town":"ひかりが丘三丁目","koaza":"","lat":34.742379,"lng":135.71669,"zip":"6300141"},{"town":"藤尾町","koaza":"","lat":34.664239,"lng":135.687668,"zip":"6300235"},{"town":"本町","koaza":"","lat":34.690456,"lng":135.694847,"zip":"6300256"},{"town":"松美台","koaza":"","lat":34.711382,"lng":135.698968,"zip":"6300241"},{"town":"真弓一丁目","koaza":"","lat":34.721074,"lng":135.727264,"zip":"6300122"},{"town":"真弓二丁目","koaza":"","lat":34.722336,"lng":135.730075,"zip":"6300122"},{"town":"真弓三丁目","koaza":"","lat":34.720637,"lng":135.732374,"zip":"6300122"},{"town":"真弓四丁目","koaza":"","lat":34.718787,"lng":135.734224,"zip":"6300122"},{"town":"真弓南一丁目","koaza":"","lat":34.717218,"lng":135.731614,"zip":"6300123"},{"town":"真弓南二丁目","koaza":"","lat":34.715613,"lng":135.733694,"zip":"6300123"},{"town":"美鹿の台","koaza":"","lat":34.730994,"lng":135.743975,"zip":"6300116"},{"town":"緑ケ丘","koaza":"","lat":34.683885,"lng":135.699869,"zip":"6300262"},{"town":"南田原町","koaza":"","lat":34.715626,"lng":135.701971,"zip":"6300135"},{"town":"南山手台","koaza":"","lat":34.665533,"lng":135.720581,"zip":"6300228"},{"town":"元町一丁目","koaza":"","lat":34.692387,"lng":135.697134,"zip":"6300257"},{"town":"元町二丁目","koaza":"","lat":34.690784,"lng":135.690451,"zip":"6300257"},{"town":"門前町","koaza":"","lat":34.686946,"lng":135.688361,"zip":"6300266"},{"town":"山崎新町","koaza":"","lat":34.689788,"lng":135.696415,"zip":"6300255"},{"town":"山崎町","koaza":"","lat":34.689709,"lng":135.705497,"zip":"6300252"},{"town":"翠光台","koaza":"","lat":34.670397,"lng":135.71935,"zip":"6300229"}]