[{"town":"今在家","koaza":"","lat":34.521843,"lng":135.70433,"zip":"6390274"},{"town":"梅室","koaza":"","lat":34.468217,"lng":135.696147,"zip":"6392133"},{"town":"太田","koaza":"","lat":34.496248,"lng":135.702439,"zip":"6392153"},{"town":"大屋","koaza":"","lat":34.487183,"lng":135.711436,"zip":"6392145"},{"town":"忍海","koaza":"","lat":34.475799,"lng":135.731174,"zip":"6392123"},{"town":"大畑","koaza":"","lat":34.500214,"lng":135.715863,"zip":"6392152"},{"town":"柿本","koaza":"","lat":34.490602,"lng":135.731586,"zip":"6392111"},{"town":"勝根","koaza":"","lat":34.517318,"lng":135.710323,"zip":"6390275"},{"town":"葛木","koaza":"","lat":34.484699,"lng":135.720112,"zip":"6392144"},{"town":"加守","koaza":"","lat":34.533322,"lng":135.680863,"zip":"6390271"},{"town":"北花内","koaza":"","lat":34.486019,"lng":135.731493,"zip":"6392113"},{"town":"北道穗","koaza":"","lat":34.494661,"lng":135.723168,"zip":"6392100"},{"town":"木戸","koaza":"","lat":34.512931,"lng":135.714557,"zip":"6392161"},{"town":"新村","koaza":"","lat":34.477441,"lng":135.746156,"zip":"6392121"},{"town":"尺土","koaza":"","lat":34.508771,"lng":135.724778,"zip":"6392162"},{"town":"新在家","koaza":"","lat":34.523923,"lng":135.691674,"zip":"6390272"},{"town":"新庄","koaza":"","lat":34.487241,"lng":135.714891,"zip":"6392147"},{"town":"新町","koaza":"","lat":34.480758,"lng":135.737493,"zip":"6392127"},{"town":"染野","koaza":"","lat":34.522795,"lng":135.681464,"zip":"6390273"},{"town":"當麻","koaza":"","lat":34.515298,"lng":135.698515,"zip":"6390276"},{"town":"竹内","koaza":"","lat":34.508009,"lng":135.691011,"zip":"6392155"},{"town":"寺口","koaza":"","lat":34.479742,"lng":135.694521,"zip":"6392135"},{"town":"長尾","koaza":"","lat":34.510779,"lng":135.710515,"zip":"6392164"},{"town":"中戸","koaza":"","lat":34.493031,"lng":135.705625,"zip":"6392146"},{"town":"西辻","koaza":"","lat":34.475899,"lng":135.724196,"zip":"6392125"},{"town":"西室","koaza":"","lat":34.494919,"lng":135.726624,"zip":"6392103"},{"town":"薑","koaza":"","lat":34.474397,"lng":135.737743,"zip":"6392122"},{"town":"八川","koaza":"","lat":34.506825,"lng":135.715761,"zip":"6392163"},{"town":"林堂","koaza":"","lat":34.478773,"lng":135.721512,"zip":"6392131"},{"town":"東室","koaza":"","lat":34.49584,"lng":135.731784,"zip":"6392102"},{"town":"疋田","koaza":"","lat":34.502402,"lng":135.724658,"zip":"6392101"},{"town":"兵家","koaza":"","lat":34.498749,"lng":135.690498,"zip":"6392154"},{"town":"平岡","koaza":"","lat":34.47695,"lng":135.710919,"zip":"6392136"},{"town":"笛堂","koaza":"","lat":34.48728,"lng":135.742231,"zip":"6392112"},{"town":"笛吹","koaza":"","lat":34.47168,"lng":135.711374,"zip":"6392132"},{"town":"辨之庄","koaza":"","lat":34.494477,"lng":135.718447,"zip":"6392100"},{"town":"南今市","koaza":"","lat":34.503566,"lng":135.708735,"zip":"6392151"},{"town":"南花内","koaza":"","lat":34.48069,"lng":135.728763,"zip":"6392126"},{"town":"南藤井","koaza":"","lat":34.482987,"lng":135.713405,"zip":"6392137"},{"town":"南道穗","koaza":"","lat":34.488745,"lng":135.720057,"zip":"6392100"},{"town":"山口","koaza":"","lat":34.471553,"lng":135.702648,"zip":"6392134"},{"town":"山田","koaza":"","lat":34.477291,"lng":135.716071,"zip":"6392138"},{"town":"脇田","koaza":"","lat":34.470523,"lng":135.720857,"zip":"6392124"},{"town":"當麻","koaza":"元當麻方","lat":34.516332,"lng":135.695881,"zip":"6390276"},{"town":"當麻","koaza":"元西中方","lat":34.51396,"lng":135.705721,"zip":"6390276"},{"town":"當麻","koaza":"元大橋方","lat":34.516831,"lng":135.705926,"zip":"6390276"}]