[{"town":"旭ケ丘一丁目","koaza":"","lat":34.553926,"lng":135.69675,"zip":"6390266"},{"town":"旭ケ丘二丁目","koaza":"","lat":34.553138,"lng":135.693075,"zip":"6390266"},{"town":"旭ケ丘三丁目","koaza":"","lat":34.556642,"lng":135.692545,"zip":"6390266"},{"town":"旭ケ丘四丁目","koaza":"","lat":34.553729,"lng":135.689716,"zip":"6390266"},{"town":"旭ケ丘五丁目","koaza":"","lat":34.553693,"lng":135.68491,"zip":"6390266"},{"town":"穴虫","koaza":"","lat":34.543675,"lng":135.67403,"zip":"6390252"},{"town":"磯壁","koaza":"","lat":34.527143,"lng":135.698779,"zip":"6390236"},{"town":"磯壁一丁目","koaza":"","lat":34.53629,"lng":135.697056,"zip":"6390236"},{"town":"磯壁二丁目","koaza":"","lat":34.536732,"lng":135.700259,"zip":"6390236"},{"town":"磯壁三丁目","koaza":"","lat":34.537371,"lng":135.702456,"zip":"6390236"},{"town":"磯壁四丁目","koaza":"","lat":34.533949,"lng":135.702038,"zip":"6390236"},{"town":"磯壁五丁目","koaza":"","lat":34.532838,"lng":135.698229,"zip":"6390236"},{"town":"磯壁六丁目","koaza":"","lat":34.530243,"lng":135.702475,"zip":"6390236"},{"town":"磯壁七丁目","koaza":"","lat":34.529279,"lng":135.698523,"zip":"6390236"},{"town":"今泉","koaza":"","lat":34.560311,"lng":135.687798,"zip":"6390264"},{"town":"逢坂","koaza":"","lat":34.551914,"lng":135.685993,"zip":"6390251"},{"town":"逢坂一丁目","koaza":"","lat":34.543394,"lng":135.693655,"zip":"6390251"},{"town":"逢坂二丁目","koaza":"","lat":34.543711,"lng":135.690771,"zip":"6390251"},{"town":"逢坂三丁目","koaza":"","lat":34.545276,"lng":135.694042,"zip":"6390251"},{"town":"逢坂四丁目","koaza":"","lat":34.547799,"lng":135.695126,"zip":"6390251"},{"town":"逢坂五丁目","koaza":"","lat":34.547852,"lng":135.692622,"zip":"6390251"},{"town":"逢坂六丁目","koaza":"","lat":34.547371,"lng":135.690257,"zip":"6390251"},{"town":"逢坂七丁目","koaza":"","lat":34.550639,"lng":135.693877,"zip":"6390251"},{"town":"逢坂八丁目","koaza":"","lat":34.549647,"lng":135.690207,"zip":"6390251"},{"town":"鎌田","koaza":"","lat":34.524376,"lng":135.711389,"zip":"6390227"},{"town":"上中","koaza":"","lat":34.561332,"lng":135.702387,"zip":"6390265"},{"town":"瓦口","koaza":"","lat":34.535917,"lng":135.718844,"zip":"6390225"},{"town":"北今市一丁目","koaza":"","lat":34.547938,"lng":135.704194,"zip":"6390242"},{"town":"北今市二丁目","koaza":"","lat":34.55102,"lng":135.702616,"zip":"6390242"},{"town":"北今市三丁目","koaza":"","lat":34.547602,"lng":135.701218,"zip":"6390242"},{"town":"北今市四丁目","koaza":"","lat":34.551114,"lng":135.700872,"zip":"6390242"},{"town":"北今市五丁目","koaza":"","lat":34.54724,"lng":135.698227,"zip":"6390242"},{"town":"北今市六丁目","koaza":"","lat":34.549708,"lng":135.698264,"zip":"6390242"},{"town":"北今市七丁目","koaza":"","lat":34.551077,"lng":135.697396,"zip":"6390242"},{"town":"五位堂","koaza":"","lat":34.533987,"lng":135.7197,"zip":"6390226"},{"town":"五位堂一丁目","koaza":"","lat":34.532962,"lng":135.712938,"zip":"6390226"},{"town":"五位堂二丁目","koaza":"","lat":34.533126,"lng":135.714609,"zip":"6390226"},{"town":"五位堂三丁目","koaza":"","lat":34.533605,"lng":135.717674,"zip":"6390226"},{"town":"五位堂四丁目","koaza":"","lat":34.531651,"lng":135.717972,"zip":"6390226"},{"town":"五位堂五丁目","koaza":"","lat":34.528886,"lng":135.716281,"zip":"6390226"},{"town":"五位堂六丁目","koaza":"","lat":34.528592,"lng":135.718643,"zip":"6390226"},{"town":"五ケ所","koaza":"","lat":34.549114,"lng":135.716818,"zip":"6390221"},{"town":"下田西一丁目","koaza":"","lat":34.543318,"lng":135.704537,"zip":"6390231"},{"town":"下田西二丁目","koaza":"","lat":34.544004,"lng":135.70104,"zip":"6390231"},{"town":"下田西三丁目","koaza":"","lat":34.54073,"lng":135.701433,"zip":"6390231"},{"town":"下田西四丁目","koaza":"","lat":34.540522,"lng":135.705404,"zip":"6390231"},{"town":"下田東一丁目","koaza":"","lat":34.544586,"lng":135.705979,"zip":"6390232"},{"town":"下田東四丁目","koaza":"","lat":34.543789,"lng":135.708708,"zip":"6390232"},{"town":"下田東五丁目","koaza":"","lat":34.546517,"lng":135.708746,"zip":"6390232"},{"town":"関屋","koaza":"","lat":34.55495,"lng":135.670504,"zip":"6390255"},{"town":"関屋北一丁目","koaza":"","lat":34.560574,"lng":135.67608,"zip":"6390254"},{"town":"関屋北二丁目","koaza":"","lat":34.556918,"lng":135.671401,"zip":"6390254"},{"town":"関屋北三丁目","koaza":"","lat":34.559861,"lng":135.671612,"zip":"6390254"},{"town":"関屋北四丁目","koaza":"","lat":34.5633,"lng":135.672197,"zip":"6390254"},{"town":"関屋北五丁目","koaza":"","lat":34.559602,"lng":135.66742,"zip":"6390254"},{"town":"関屋北六丁目","koaza":"","lat":34.557222,"lng":135.665378,"zip":"6390254"},{"town":"関屋北七丁目","koaza":"","lat":34.557704,"lng":135.661776,"zip":"6390254"},{"town":"関屋北八丁目","koaza":"","lat":34.563461,"lng":135.664175,"zip":"6390254"},{"town":"高","koaza":"","lat":34.553802,"lng":135.702751,"zip":"6390241"},{"town":"高山台一丁目","koaza":"","lat":34.546981,"lng":135.682904,"zip":"6390256"},{"town":"高山台二丁目","koaza":"","lat":34.549012,"lng":135.680421,"zip":"6390256"},{"town":"高山台三丁目","koaza":"","lat":34.547617,"lng":135.676508,"zip":"6390256"},{"town":"田尻","koaza":"","lat":34.549029,"lng":135.657785,"zip":"6390253"},{"town":"西真美一丁目","koaza":"","lat":34.54348,"lng":135.712346,"zip":"6390222"},{"town":"西真美二丁目","koaza":"","lat":34.547573,"lng":135.713243,"zip":"6390222"},{"town":"西真美三丁目","koaza":"","lat":34.544009,"lng":135.716047,"zip":"6390222"},{"town":"尼寺","koaza":"","lat":34.572867,"lng":135.68432,"zip":"6390261"},{"town":"尼寺一丁目","koaza":"","lat":34.571987,"lng":135.703213,"zip":"6390261"},{"town":"尼寺二丁目","koaza":"","lat":34.572142,"lng":135.699861,"zip":"6390261"},{"town":"尼寺三丁目","koaza":"","lat":34.571443,"lng":135.695388,"zip":"6390261"},{"town":"白鳳台一丁目","koaza":"","lat":34.56893,"lng":135.696708,"zip":"6390262"},{"town":"白鳳台二丁目","koaza":"","lat":34.569032,"lng":135.692774,"zip":"6390262"},{"town":"畑","koaza":"","lat":34.537469,"lng":135.68215,"zip":"6390245"},{"town":"畑一丁目","koaza":"","lat":34.538416,"lng":135.696094,"zip":"6390245"},{"town":"畑二丁目","koaza":"","lat":34.539095,"lng":135.692559,"zip":"6390245"},{"town":"畑三丁目","koaza":"","lat":34.540711,"lng":135.692193,"zip":"6390245"},{"town":"畑四丁目","koaza":"","lat":34.53989,"lng":135.686743,"zip":"6390245"},{"town":"畑五丁目","koaza":"","lat":34.53734,"lng":135.691392,"zip":"6390245"},{"town":"畑六丁目","koaza":"","lat":34.535956,"lng":135.688693,"zip":"6390245"},{"town":"畑七丁目","koaza":"","lat":34.53699,"lng":135.685448,"zip":"6390245"},{"town":"平野","koaza":"","lat":34.56561,"lng":135.69235,"zip":"6390263"},{"town":"藤山一丁目","koaza":"","lat":34.542715,"lng":135.697569,"zip":"6390243"},{"town":"藤山二丁目","koaza":"","lat":34.544643,"lng":135.696865,"zip":"6390243"},{"town":"別所","koaza":"","lat":34.533545,"lng":135.723365,"zip":"6390224"},{"town":"本町","koaza":"","lat":34.541208,"lng":135.697827,"zip":"6390244"},{"town":"真美ヶ丘一丁目","koaza":"","lat":34.541244,"lng":135.717323,"zip":"6390200"},{"town":"真美ヶ丘二丁目","koaza":"","lat":34.540564,"lng":135.721477,"zip":"6390200"},{"town":"真美ヶ丘三丁目","koaza":"","lat":34.537974,"lng":135.723837,"zip":"6390200"},{"town":"真美ヶ丘四丁目","koaza":"","lat":34.535586,"lng":135.727322,"zip":"6390200"},{"town":"真美ヶ丘五丁目","koaza":"","lat":34.547212,"lng":135.719315,"zip":"6390200"},{"town":"真美ヶ丘六丁目","koaza":"","lat":34.543574,"lng":135.722292,"zip":"6390200"},{"town":"真美ヶ丘七丁目","koaza":"","lat":34.54216,"lng":135.725444,"zip":"6390200"},{"town":"良福寺","koaza":"","lat":34.529409,"lng":135.708067,"zip":"6390235"},{"town":"下田東三丁目","koaza":"","lat":34.5419,"lng":135.711667,"zip":"6390232"},{"town":"下田東二丁目","koaza":"","lat":34.541333,"lng":135.708432,"zip":"6390232"},{"town":"すみれ野一丁目","koaza":"","lat":34.540242,"lng":135.71264,"zip":"6390237"},{"town":"狐井","koaza":"","lat":34.536347,"lng":135.709592,"zip":"6390234"},{"town":"すみれ野二丁目","koaza":"","lat":34.538691,"lng":135.713887,"zip":"6390237"}]