[{"town":"大字池島","koaza":"","lat":32.040474,"lng":130.827042,"zip":"8894300"},{"town":"大字今西","koaza":"","lat":32.040589,"lng":130.840814,"zip":"8894300"},{"town":"大字内竪","koaza":"","lat":32.070267,"lng":130.728906,"zip":"8894300"},{"town":"大字浦","koaza":"","lat":32.023179,"lng":130.785898,"zip":"8894300"},{"town":"大字上江","koaza":"","lat":32.033122,"lng":130.849911,"zip":"8894300"},{"town":"大字榎田","koaza":"","lat":32.061526,"lng":130.810374,"zip":"8894300"},{"town":"大字大河平","koaza":"","lat":32.084206,"lng":130.922956,"zip":"8894300"},{"town":"大字岡松","koaza":"","lat":32.047349,"lng":130.751125,"zip":"8894300"},{"town":"大字小田","koaza":"","lat":32.059083,"lng":130.821456,"zip":"8894300"},{"town":"大字亀沢","koaza":"","lat":32.037653,"lng":130.751901,"zip":"8894300"},{"town":"大字栗下","koaza":"","lat":32.043538,"lng":130.812284,"zip":"8894300"},{"town":"大字西郷","koaza":"","lat":32.051021,"lng":130.789807,"zip":"8894300"},{"town":"大字坂元","koaza":"","lat":32.077053,"lng":130.848705,"zip":"8894300"},{"town":"大字島内","koaza":"","lat":32.047986,"lng":130.783209,"zip":"8894300"},{"town":"大字昌明寺","koaza":"","lat":32.082624,"lng":130.755928,"zip":"8894300"},{"town":"大字末永","koaza":"","lat":31.983445,"lng":130.846713,"zip":"8894300"},{"town":"大字杉水流","koaza":"","lat":32.048707,"lng":130.884362,"zip":"8894300"},{"town":"大字大明司","koaza":"","lat":32.058626,"lng":130.835884,"zip":"8894300"},{"town":"大字水流","koaza":"","lat":32.058405,"lng":130.769787,"zip":"8894300"},{"town":"大字永山","koaza":"","lat":32.044413,"lng":130.79981,"zip":"8894300"},{"town":"大字西川北","koaza":"","lat":32.080972,"lng":130.778182,"zip":"8894300"},{"town":"大字西長江浦","koaza":"","lat":32.005118,"lng":130.800703,"zip":"8894300"},{"town":"大字灰塚","koaza":"","lat":32.040629,"lng":130.803667,"zip":"8894300"},{"town":"大字原田","koaza":"","lat":32.021585,"lng":130.872275,"zip":"8894300"},{"town":"大字東川北","koaza":"","lat":32.077887,"lng":130.809479,"zip":"8894300"},{"town":"大字東長江浦","koaza":"","lat":31.989382,"lng":130.820558,"zip":"8894300"},{"town":"大字前田","koaza":"","lat":32.043096,"lng":130.852491,"zip":"8894300"},{"town":"大字向江","koaza":"","lat":32.050106,"lng":130.772797,"zip":"8894300"},{"town":"大字柳水流","koaza":"","lat":32.036772,"lng":130.762761,"zip":"8894300"},{"town":"大字湯田","koaza":"","lat":32.050175,"lng":130.797529,"zip":"8894300"},{"town":"大字大明司","koaza":"脇ノ下","lat":32.049655,"lng":130.836313,"zip":"8894300"},{"town":"大字原田","koaza":"札立","lat":32.046178,"lng":130.871737,"zip":"8894300"}]