[{"town":"大字伊倉","koaza":"","lat":32.064979,"lng":131.43508,"zip":"8891400"},{"town":"大字上富田","koaza":"","lat":32.062773,"lng":131.474031,"zip":"8891400"},{"town":"大字下富田","koaza":"","lat":32.052733,"lng":131.495886,"zip":"8891400"},{"town":"大字新田","koaza":"","lat":32.089135,"lng":131.443923,"zip":"8891400"},{"town":"大字日置","koaza":"","lat":32.086546,"lng":131.50478,"zip":"8891400"},{"town":"大字三納代","koaza":"","lat":32.082711,"lng":131.481608,"zip":"8891400"},{"town":"富田一丁目","koaza":"","lat":32.068116,"lng":131.49001,"zip":"8891411"},{"town":"富田二丁目","koaza":"","lat":32.06946,"lng":131.491298,"zip":"8891411"},{"town":"富田三丁目","koaza":"","lat":32.071157,"lng":131.493511,"zip":"8891411"},{"town":"富田北一丁目","koaza":"","lat":32.072533,"lng":131.494994,"zip":"8891415"},{"town":"富田北二丁目","koaza":"","lat":32.070729,"lng":131.497238,"zip":"8891415"},{"town":"富田西一丁目","koaza":"","lat":32.068233,"lng":131.487763,"zip":"8891413"},{"town":"富田西二丁目","koaza":"","lat":32.066374,"lng":131.487404,"zip":"8891413"},{"town":"富田西三丁目","koaza":"","lat":32.063544,"lng":131.486871,"zip":"8891413"},{"town":"富田東一丁目","koaza":"","lat":32.068093,"lng":131.493019,"zip":"8891412"},{"town":"富田東二丁目","koaza":"","lat":32.07018,"lng":131.495091,"zip":"8891412"},{"town":"富田東三丁目","koaza":"","lat":32.067775,"lng":131.494726,"zip":"8891412"},{"town":"富田東四丁目","koaza":"","lat":32.069437,"lng":131.496368,"zip":"8891412"},{"town":"富田南一丁目","koaza":"","lat":32.066249,"lng":131.489246,"zip":"8891414"},{"town":"富田南二丁目","koaza":"","lat":32.065833,"lng":131.49091,"zip":"8891414"},{"town":"富田南三丁目","koaza":"","lat":32.065721,"lng":131.492008,"zip":"8891414"},{"town":"富田南四丁目","koaza":"","lat":32.063174,"lng":131.488206,"zip":"8891414"}]