[{"town":"青島一丁目","koaza":"","lat":31.803978,"lng":131.464137,"zip":"8892162"},{"town":"青島二丁目","koaza":"","lat":31.801144,"lng":131.467885,"zip":"8892162"},{"town":"青島三丁目","koaza":"","lat":31.796047,"lng":131.470438,"zip":"8892162"},{"town":"青島四丁目","koaza":"","lat":31.796114,"lng":131.468481,"zip":"8892162"},{"town":"青島五丁目","koaza":"","lat":31.791511,"lng":131.468922,"zip":"8892162"},{"town":"青島六丁目","koaza":"","lat":31.792265,"lng":131.472363,"zip":"8892162"},{"town":"青島西一丁目","koaza":"","lat":31.803409,"lng":131.459862,"zip":"8892163"},{"town":"青島西二丁目","koaza":"","lat":31.800245,"lng":131.465279,"zip":"8892163"},{"town":"青葉町","koaza":"","lat":31.920869,"lng":131.436667,"zip":"8800842"},{"town":"旭一丁目","koaza":"","lat":31.909293,"lng":131.426002,"zip":"8800803"},{"town":"旭二丁目","koaza":"","lat":31.909361,"lng":131.428351,"zip":"8800803"},{"town":"吾妻町","koaza":"","lat":31.903785,"lng":131.432252,"zip":"8800864"},{"town":"生目台西一丁目","koaza":"","lat":31.909719,"lng":131.374262,"zip":"8800943"},{"town":"生目台西二丁目","koaza":"","lat":31.906058,"lng":131.372558,"zip":"8800943"},{"town":"生目台西三丁目","koaza":"","lat":31.907625,"lng":131.370245,"zip":"8800943"},{"town":"生目台西四丁目","koaza":"","lat":31.903186,"lng":131.371411,"zip":"8800943"},{"town":"生目台西五丁目","koaza":"","lat":31.901334,"lng":131.37007,"zip":"8800943"},{"town":"生目台東一丁目","koaza":"","lat":31.903502,"lng":131.3836,"zip":"8800942"},{"town":"生目台東二丁目","koaza":"","lat":31.901781,"lng":131.380137,"zip":"8800942"},{"town":"生目台東三丁目","koaza":"","lat":31.901145,"lng":131.376201,"zip":"8800942"},{"town":"生目台東四丁目","koaza":"","lat":31.905627,"lng":131.377382,"zip":"8800942"},{"town":"生目台東五丁目","koaza":"","lat":31.907101,"lng":131.381244,"zip":"8800942"},{"town":"池内町","koaza":"","lat":31.972979,"lng":131.41664,"zip":"8800041"},{"town":"一の宮町","koaza":"","lat":31.906553,"lng":131.444529,"zip":"8800854"},{"town":"浮城町","koaza":"","lat":31.930072,"lng":131.437779,"zip":"8800821"},{"town":"永楽町","koaza":"","lat":31.906003,"lng":131.433505,"zip":"8800872"},{"town":"江平中町","koaza":"","lat":31.923474,"lng":131.427294,"zip":"8800814"},{"town":"江平西一丁目","koaza":"","lat":31.926083,"lng":131.424793,"zip":"8800051"},{"town":"江平西二丁目","koaza":"","lat":31.929658,"lng":131.426286,"zip":"8800051"},{"town":"江平東一丁目","koaza":"","lat":31.927026,"lng":131.42721,"zip":"8800817"},{"town":"江平東二丁目","koaza":"","lat":31.930055,"lng":131.428452,"zip":"8800817"},{"town":"江平東町","koaza":"","lat":31.925392,"lng":131.429084,"zip":"8800817"},{"town":"江平町一丁目","koaza":"","lat":31.924103,"lng":131.425945,"zip":"8800815"},{"town":"老松一丁目","koaza":"","lat":31.911817,"lng":131.430856,"zip":"8800801"},{"town":"老松二丁目","koaza":"","lat":31.913574,"lng":131.431189,"zip":"8800801"},{"town":"大字赤江","koaza":"","lat":31.878836,"lng":131.448757,"zip":"8800000"},{"town":"大字跡江","koaza":"","lat":31.944673,"lng":131.385805,"zip":"8800000"},{"town":"大字有田","koaza":"","lat":31.94896,"lng":131.371141,"zip":"8800000"},{"town":"大字生目","koaza":"","lat":31.910732,"lng":131.369287,"zip":"8800000"},{"town":"大字糸原","koaza":"","lat":31.960341,"lng":131.357796,"zip":"8800000"},{"town":"大字浮田","koaza":"","lat":31.922773,"lng":131.379017,"zip":"8800000"},{"town":"大字内海","koaza":"","lat":31.748421,"lng":131.439376,"zip":"8800000"},{"town":"大字瓜生野","koaza":"","lat":31.984175,"lng":131.394637,"zip":"8800000"},{"town":"大字大瀬町","koaza":"","lat":31.987213,"lng":131.38275,"zip":"8800000"},{"town":"大字折生迫","koaza":"","lat":31.786119,"lng":131.462285,"zip":"8800000"},{"town":"大字加江田","koaza":"","lat":31.799716,"lng":131.430289,"zip":"8800000"},{"town":"大字鏡洲","koaza":"","lat":31.801279,"lng":131.380129,"zip":"8800000"},{"town":"大字柏原","koaza":"","lat":31.937854,"lng":131.370783,"zip":"8800000"},{"town":"大字金崎","koaza":"","lat":31.970117,"lng":131.362025,"zip":"8800000"},{"town":"大字上北方","koaza":"","lat":31.963962,"lng":131.405298,"zip":"8800000"},{"town":"大字熊野","koaza":"","lat":31.832978,"lng":131.441922,"zip":"8800000"},{"town":"大字郡司分","koaza":"","lat":31.855127,"lng":131.41632,"zip":"8800000"},{"town":"大字小松","koaza":"","lat":31.937302,"lng":131.402036,"zip":"8800000"},{"town":"大字塩路","koaza":"","lat":31.977809,"lng":131.473563,"zip":"8800000"},{"town":"大字島之内","koaza":"","lat":31.987792,"lng":131.454826,"zip":"8800000"},{"town":"大字田吉","koaza":"","lat":31.864439,"lng":131.449119,"zip":"8800000"},{"town":"大字堤内","koaza":"","lat":31.969783,"lng":131.346914,"zip":"8800000"},{"town":"大字恒久","koaza":"","lat":31.887745,"lng":131.407668,"zip":"8800000"},{"town":"大字富吉","koaza":"","lat":31.936562,"lng":131.353471,"zip":"8800000"},{"town":"大字長嶺","koaza":"","lat":31.923403,"lng":131.356183,"zip":"8800000"},{"town":"大字新名爪","koaza":"","lat":31.979863,"lng":131.425807,"zip":"8800000"},{"town":"大字広原","koaza":"","lat":31.998589,"lng":131.425836,"zip":"8800000"},{"town":"大字芳士","koaza":"","lat":31.965897,"lng":131.444767,"zip":"8800000"},{"town":"大字細江","koaza":"","lat":31.895298,"lng":131.342285,"zip":"8800000"},{"town":"大字本郷北方","koaza":"","lat":31.871156,"lng":131.427898,"zip":"8800000"},{"town":"大字本郷南方","koaza":"","lat":31.860457,"lng":131.436094,"zip":"8800000"},{"town":"大字吉野","koaza":"","lat":31.973456,"lng":131.335205,"zip":"8800000"},{"town":"大島町","koaza":"","lat":31.939104,"lng":131.438813,"zip":"8800824"},{"town":"太田一丁目","koaza":"","lat":31.903643,"lng":131.422578,"zip":"8800903"},{"town":"太田二丁目","koaza":"","lat":31.901661,"lng":131.42157,"zip":"8800903"},{"town":"太田三丁目","koaza":"","lat":31.89973,"lng":131.421303,"zip":"8800903"},{"town":"太田四丁目","koaza":"","lat":31.897587,"lng":131.420732,"zip":"8800903"},{"town":"大塚台西一丁目","koaza":"","lat":31.921608,"lng":131.38606,"zip":"8802105"},{"town":"大塚台西二丁目","koaza":"","lat":31.91626,"lng":131.382476,"zip":"8802105"},{"town":"大塚台西三丁目","koaza":"","lat":31.909623,"lng":131.382862,"zip":"8802105"},{"town":"大塚台東一丁目","koaza":"","lat":31.91961,"lng":131.387097,"zip":"8800952"},{"town":"大塚台東二丁目","koaza":"","lat":31.912422,"lng":131.384488,"zip":"8800952"},{"town":"大塚町","koaza":"","lat":31.916907,"lng":131.396303,"zip":"8800951"},{"town":"大坪町","koaza":"","lat":31.905691,"lng":131.406577,"zip":"8800933"},{"town":"大坪西一丁目","koaza":"","lat":31.897925,"lng":131.405188,"zip":"8800932"},{"town":"大坪西二丁目","koaza":"","lat":31.897202,"lng":131.403186,"zip":"8800932"},{"town":"大坪東一丁目","koaza":"","lat":31.903045,"lng":131.409106,"zip":"8800934"},{"town":"大坪東二丁目","koaza":"","lat":31.899451,"lng":131.408113,"zip":"8800934"},{"town":"大坪東三丁目","koaza":"","lat":31.897487,"lng":131.408473,"zip":"8800934"},{"town":"大橋一丁目","koaza":"","lat":31.920177,"lng":131.4147,"zip":"8800022"},{"town":"大橋二丁目","koaza":"","lat":31.920728,"lng":131.411641,"zip":"8800022"},{"town":"大橋三丁目","koaza":"","lat":31.921646,"lng":131.407025,"zip":"8800022"},{"town":"大淀一丁目","koaza":"","lat":31.901768,"lng":131.424658,"zip":"8800902"},{"town":"大淀二丁目","koaza":"","lat":31.899803,"lng":131.423544,"zip":"8800902"},{"town":"大淀三丁目","koaza":"","lat":31.89705,"lng":131.422123,"zip":"8800902"},{"town":"大淀四丁目","koaza":"","lat":31.89556,"lng":131.41997,"zip":"8800902"},{"town":"小戸町","koaza":"","lat":31.902806,"lng":131.453028,"zip":"8800857"},{"town":"薫る坂一丁目","koaza":"","lat":31.893543,"lng":131.399363,"zip":"8800947"},{"town":"薫る坂二丁目","koaza":"","lat":31.890163,"lng":131.401069,"zip":"8800947"},{"town":"学園木花台北一丁目","koaza":"","lat":31.833428,"lng":131.430288,"zip":"8892152"},{"town":"学園木花台北二丁目","koaza":"","lat":31.833322,"lng":131.426468,"zip":"8892152"},{"town":"学園木花台北三丁目","koaza":"","lat":31.832873,"lng":131.422729,"zip":"8892152"},{"town":"学園木花台桜一丁目","koaza":"","lat":31.827549,"lng":131.419917,"zip":"8892154"},{"town":"学園木花台桜二丁目","koaza":"","lat":31.82527,"lng":131.414293,"zip":"8892154"},{"town":"学園木花台西一丁目","koaza":"","lat":31.829479,"lng":131.413139,"zip":"8892155"},{"town":"学園木花台西二丁目","koaza":"","lat":31.832721,"lng":131.414334,"zip":"8892155"},{"town":"学園木花台南一丁目","koaza":"","lat":31.828709,"lng":131.427042,"zip":"8892153"},{"town":"学園木花台南二丁目","koaza":"","lat":31.826445,"lng":131.424435,"zip":"8892153"},{"town":"学園木花台南三丁目","koaza":"","lat":31.829901,"lng":131.423624,"zip":"8892153"},{"town":"上野町","koaza":"","lat":31.911702,"lng":131.420404,"zip":"8800011"},{"town":"川原町","koaza":"","lat":31.906096,"lng":131.424638,"zip":"8800866"},{"town":"祇園一丁目","koaza":"","lat":31.927233,"lng":131.408626,"zip":"8800024"},{"town":"祇園二丁目","koaza":"","lat":31.930668,"lng":131.409465,"zip":"8800024"},{"town":"祇園三丁目","koaza":"","lat":31.935394,"lng":131.41026,"zip":"8800024"},{"town":"祇園四丁目","koaza":"","lat":31.939669,"lng":131.409593,"zip":"8800024"},{"town":"北川内町","koaza":"","lat":31.899513,"lng":131.386014,"zip":"8800941"},{"town":"北権現町","koaza":"","lat":31.931623,"lng":131.432549,"zip":"8800823"},{"town":"北高松町","koaza":"","lat":31.916643,"lng":131.416765,"zip":"8800017"},{"town":"希望ケ丘一丁目","koaza":"","lat":31.860035,"lng":131.428678,"zip":"8800923"},{"town":"希望ケ丘二丁目","koaza":"","lat":31.857805,"lng":131.425414,"zip":"8800923"},{"town":"希望ケ丘三丁目","koaza":"","lat":31.859671,"lng":131.424284,"zip":"8800923"},{"town":"希望ケ丘四丁目","koaza":"","lat":31.858632,"lng":131.420834,"zip":"8800923"},{"town":"京塚一丁目","koaza":"","lat":31.898017,"lng":131.412504,"zip":"8800937"},{"town":"京塚二丁目","koaza":"","lat":31.89754,"lng":131.411043,"zip":"8800937"},{"town":"京塚町","koaza":"","lat":31.896375,"lng":131.412789,"zip":"8800938"},{"town":"清武町あさひ一丁目","koaza":"","lat":31.88019,"lng":131.408274,"zip":"8891609"},{"town":"清武町あさひ二丁目","koaza":"","lat":31.881354,"lng":131.408776,"zip":"8891609"},{"town":"清武町池田台","koaza":"","lat":31.87587,"lng":131.390816,"zip":"8891606"},{"town":"清武町池田台北","koaza":"","lat":31.880037,"lng":131.392216,"zip":"8891608"},{"town":"清武町今泉","koaza":"","lat":31.822521,"lng":131.35242,"zip":"8891602"},{"town":"清武町岡一丁目","koaza":"","lat":31.850436,"lng":131.39083,"zip":"8891612"},{"town":"清武町岡二丁目","koaza":"","lat":31.850799,"lng":131.388189,"zip":"8891612"},{"town":"清武町岡三丁目","koaza":"","lat":31.848285,"lng":131.388068,"zip":"8891612"},{"town":"清武町加納","koaza":"","lat":31.87104,"lng":131.387332,"zip":"8891607"},{"town":"清武町加納一丁目","koaza":"","lat":31.87221,"lng":131.396002,"zip":"8891607"},{"town":"清武町加納二丁目","koaza":"","lat":31.872776,"lng":131.398821,"zip":"8891607"},{"town":"清武町加納三丁目","koaza":"","lat":31.873987,"lng":131.401446,"zip":"8891607"},{"town":"清武町加納四丁目","koaza":"","lat":31.875338,"lng":131.403659,"zip":"8891607"},{"town":"清武町加納五丁目","koaza":"","lat":31.876515,"lng":131.406434,"zip":"8891607"},{"town":"清武町木原","koaza":"","lat":31.844402,"lng":131.403469,"zip":"8891601"},{"town":"清武町正手一丁目","koaza":"","lat":31.857671,"lng":131.387077,"zip":"8891603"},{"town":"清武町正手二丁目","koaza":"","lat":31.861101,"lng":131.387848,"zip":"8891603"},{"town":"清武町正手三丁目","koaza":"","lat":31.861285,"lng":131.384532,"zip":"8891603"},{"town":"清武町新町一丁目","koaza":"","lat":31.856492,"lng":131.395454,"zip":"8891611"},{"town":"清武町新町二丁目","koaza":"","lat":31.854571,"lng":131.395724,"zip":"8891611"},{"town":"清武町西新町","koaza":"","lat":31.853675,"lng":131.390284,"zip":"8891613"},{"town":"清武町船引","koaza":"","lat":31.869452,"lng":131.362322,"zip":"8891604"},{"town":"霧島一丁目","koaza":"","lat":31.926778,"lng":131.413855,"zip":"8800032"},{"town":"霧島二丁目","koaza":"","lat":31.929402,"lng":131.414031,"zip":"8800032"},{"town":"霧島三丁目","koaza":"","lat":31.932212,"lng":131.414228,"zip":"8800032"},{"town":"霧島四丁目","koaza":"","lat":31.934636,"lng":131.414399,"zip":"8800032"},{"town":"霧島五丁目","koaza":"","lat":31.937552,"lng":131.414524,"zip":"8800032"},{"town":"源藤町","koaza":"","lat":31.88493,"lng":131.412382,"zip":"8800927"},{"town":"江南一丁目","koaza":"","lat":31.906765,"lng":131.401728,"zip":"8800944"},{"town":"江南二丁目","koaza":"","lat":31.906082,"lng":131.399204,"zip":"8800944"},{"town":"江南三丁目","koaza":"","lat":31.909433,"lng":131.398297,"zip":"8800944"},{"town":"江南四丁目","koaza":"","lat":31.905695,"lng":131.396816,"zip":"8800944"},{"town":"小松台北町","koaza":"","lat":31.935218,"lng":131.393914,"zip":"8802113"},{"town":"小松台西一丁目","koaza":"","lat":31.932766,"lng":131.394905,"zip":"8800954"},{"town":"小松台西二丁目","koaza":"","lat":31.931697,"lng":131.393333,"zip":"8800954"},{"town":"小松台西三丁目","koaza":"","lat":31.928776,"lng":131.390415,"zip":"8800954"},{"town":"小松台東一丁目","koaza":"","lat":31.931069,"lng":131.396815,"zip":"8800953"},{"town":"小松台東二丁目","koaza":"","lat":31.929414,"lng":131.394884,"zip":"8800953"},{"town":"小松台東三丁目","koaza":"","lat":31.928153,"lng":131.392415,"zip":"8800953"},{"town":"小松台南町","koaza":"","lat":31.926817,"lng":131.391972,"zip":"8800956"},{"town":"権現町","koaza":"","lat":31.930131,"lng":131.434576,"zip":"8800822"},{"town":"桜ケ丘町","koaza":"","lat":31.928983,"lng":131.398088,"zip":"8800955"},{"town":"桜町","koaza":"","lat":31.950311,"lng":131.437892,"zip":"8800057"},{"town":"佐土原町石崎一丁目","koaza":"","lat":32.005692,"lng":131.474133,"zip":"8800213"},{"town":"佐土原町石崎二丁目","koaza":"","lat":32.00754,"lng":131.475287,"zip":"8800213"},{"town":"佐土原町石崎三丁目","koaza":"","lat":32.006862,"lng":131.476707,"zip":"8800213"},{"town":"佐土原町上田島","koaza":"","lat":32.049642,"lng":131.420615,"zip":"8800301"},{"town":"佐土原町下田島","koaza":"","lat":32.032694,"lng":131.481349,"zip":"8800211"},{"town":"佐土原町下富田","koaza":"","lat":32.040523,"lng":131.498303,"zip":"8800204"},{"town":"佐土原町下那珂","koaza":"","lat":32.004537,"lng":131.462935,"zip":"8800212"},{"town":"佐土原町西上那珂","koaza":"","lat":32.028495,"lng":131.399456,"zip":"8800302"},{"town":"佐土原町東上那珂","koaza":"","lat":32.024426,"lng":131.435168,"zip":"8800303"},{"town":"佐土原町松小路","koaza":"","lat":32.022334,"lng":131.476256,"zip":"8800214"},{"town":"潮見町","koaza":"","lat":31.904328,"lng":131.439093,"zip":"8800862"},{"town":"清水一丁目","koaza":"","lat":31.91948,"lng":131.421757,"zip":"8800021"},{"town":"清水二丁目","koaza":"","lat":31.919368,"lng":131.420131,"zip":"8800021"},{"town":"清水三丁目","koaza":"","lat":31.919682,"lng":131.417365,"zip":"8800021"},{"town":"下北方町","koaza":"","lat":31.946976,"lng":131.416748,"zip":"8800035"},{"town":"下原町","koaza":"","lat":31.922343,"lng":131.43336,"zip":"8800843"},{"town":"昭栄町","koaza":"","lat":31.912935,"lng":131.454739,"zip":"8800833"},{"town":"城ケ崎一丁目","koaza":"","lat":31.899004,"lng":131.427199,"zip":"8800917"},{"town":"城ケ崎二丁目","koaza":"","lat":31.898316,"lng":131.429135,"zip":"8800917"},{"town":"城ケ崎三丁目","koaza":"","lat":31.897311,"lng":131.431482,"zip":"8800917"},{"town":"城ケ崎四丁目","koaza":"","lat":31.895461,"lng":131.434333,"zip":"8800917"},{"town":"浄土江町","koaza":"","lat":31.912006,"lng":131.43451,"zip":"8800876"},{"town":"昭和町","koaza":"","lat":31.910408,"lng":131.436392,"zip":"8800874"},{"town":"新栄町","koaza":"","lat":31.909109,"lng":131.454278,"zip":"8800831"},{"town":"神宮一丁目","koaza":"","lat":31.932664,"lng":131.423587,"zip":"8800053"},{"town":"神宮二丁目","koaza":"","lat":31.937102,"lng":131.42363,"zip":"8800053"},{"town":"神宮町","koaza":"","lat":31.9405,"lng":131.426917,"zip":"8800054"},{"town":"神宮西一丁目","koaza":"","lat":31.936907,"lng":131.41878,"zip":"8800033"},{"town":"神宮西二丁目","koaza":"","lat":31.939133,"lng":131.418702,"zip":"8800033"},{"town":"神宮東一丁目","koaza":"","lat":31.933457,"lng":131.427014,"zip":"8800056"},{"town":"神宮東二丁目","koaza":"","lat":31.935818,"lng":131.427416,"zip":"8800056"},{"town":"神宮東三丁目","koaza":"","lat":31.9384,"lng":131.428643,"zip":"8800056"},{"town":"新城町","koaza":"","lat":31.926352,"lng":131.439607,"zip":"8800845"},{"town":"新別府町","koaza":"","lat":31.921418,"lng":131.455892,"zip":"8800834"},{"town":"末広一丁目","koaza":"","lat":31.911823,"lng":131.418278,"zip":"8800012"},{"town":"末広二丁目","koaza":"","lat":31.913958,"lng":131.414277,"zip":"8800012"},{"town":"瀬頭一丁目","koaza":"","lat":31.907026,"lng":131.429507,"zip":"8800867"},{"town":"瀬頭二丁目","koaza":"","lat":31.909456,"lng":131.430404,"zip":"8800867"},{"town":"瀬頭町","koaza":"","lat":31.906749,"lng":131.430697,"zip":"8800868"},{"town":"曽師町","koaza":"","lat":31.910937,"lng":131.44077,"zip":"8800875"},{"town":"大王町","koaza":"","lat":31.907035,"lng":131.439451,"zip":"8800871"},{"town":"大工一丁目","koaza":"","lat":31.91745,"lng":131.413968,"zip":"8800015"},{"town":"大工二丁目","koaza":"","lat":31.91751,"lng":131.410342,"zip":"8800015"},{"town":"大工三丁目","koaza":"","lat":31.91771,"lng":131.406017,"zip":"8800015"},{"town":"高岡町飯田","koaza":"","lat":31.968712,"lng":131.302773,"zip":"8802224"},{"town":"高岡町内山","koaza":"","lat":31.892359,"lng":131.216436,"zip":"8802221"},{"town":"高岡町浦之名","koaza":"","lat":31.949329,"lng":131.230061,"zip":"8802223"},{"town":"高岡町小山田","koaza":"","lat":31.92514,"lng":131.309232,"zip":"8802214"},{"town":"高岡町上倉永","koaza":"","lat":31.897635,"lng":131.309239,"zip":"8891713"},{"town":"高岡町紙屋","koaza":"","lat":31.984996,"lng":131.208728,"zip":"8802325"},{"town":"高岡町五町","koaza":"","lat":31.917132,"lng":131.266872,"zip":"8802222"},{"town":"高岡町下倉永","koaza":"","lat":31.938287,"lng":131.340155,"zip":"8802212"},{"town":"高岡町高浜","koaza":"","lat":31.941364,"lng":131.292287,"zip":"8802215"},{"town":"高岡町花見","koaza":"","lat":31.951037,"lng":131.336307,"zip":"8802211"},{"town":"高洲町","koaza":"","lat":31.899263,"lng":131.446071,"zip":"8800852"},{"town":"高千穂通一丁目","koaza":"","lat":31.917948,"lng":131.426909,"zip":"8800812"},{"town":"高千穂通二丁目","koaza":"","lat":31.917581,"lng":131.429077,"zip":"8800812"},{"town":"高松町","koaza":"","lat":31.914249,"lng":131.419182,"zip":"8800003"},{"town":"田代町","koaza":"","lat":31.90324,"lng":131.448683,"zip":"8800855"},{"town":"橘通西一丁目","koaza":"","lat":31.907902,"lng":131.420438,"zip":"8800001"},{"town":"橘通西二丁目","koaza":"","lat":31.911594,"lng":131.421722,"zip":"8800001"},{"town":"橘通西三丁目","koaza":"","lat":31.91497,"lng":131.422352,"zip":"8800001"},{"town":"橘通西四丁目","koaza":"","lat":31.918507,"lng":131.422954,"zip":"8800001"},{"town":"橘通西五丁目","koaza":"","lat":31.922273,"lng":131.423944,"zip":"8800001"},{"town":"橘通東一丁目","koaza":"","lat":31.907505,"lng":131.422613,"zip":"8800805"},{"town":"橘通東二丁目","koaza":"","lat":31.911601,"lng":131.423424,"zip":"8800805"},{"town":"橘通東三丁目","koaza":"","lat":31.914833,"lng":131.423965,"zip":"8800805"},{"town":"橘通東四丁目","koaza":"","lat":31.918197,"lng":131.42458,"zip":"8800805"},{"town":"橘通東五丁目","koaza":"","lat":31.922086,"lng":131.425455,"zip":"8800805"},{"town":"谷川一丁目","koaza":"","lat":31.903966,"lng":131.415118,"zip":"8800908"},{"town":"谷川二丁目","koaza":"","lat":31.905048,"lng":131.412753,"zip":"8800908"},{"town":"谷川三丁目","koaza":"","lat":31.904217,"lng":131.41129,"zip":"8800908"},{"town":"谷川町三丁目","koaza":"","lat":31.905481,"lng":131.40959,"zip":"8800909"},{"town":"田野町あけぼの一丁目","koaza":"","lat":31.83157,"lng":131.295148,"zip":"8891703"},{"town":"田野町あけぼの二丁目","koaza":"","lat":31.831856,"lng":131.293229,"zip":"8891703"},{"town":"田野町あけぼの三丁目","koaza":"","lat":31.829226,"lng":131.292718,"zip":"8891703"},{"town":"田野町あけぼの四丁目","koaza":"","lat":31.829417,"lng":131.294682,"zip":"8891703"},{"town":"田野町乙","koaza":"","lat":31.83563,"lng":131.264825,"zip":"8891702"},{"town":"田野町甲","koaza":"","lat":31.808732,"lng":131.296483,"zip":"8891701"},{"town":"千草町","koaza":"","lat":31.916408,"lng":131.419059,"zip":"8800006"},{"town":"中央通","koaza":"","lat":31.915179,"lng":131.421102,"zip":"8800002"},{"town":"月見ケ丘一丁目","koaza":"","lat":31.882484,"lng":131.423395,"zip":"8800926"},{"town":"月見ケ丘二丁目","koaza":"","lat":31.878202,"lng":131.421968,"zip":"8800926"},{"town":"月見ケ丘三丁目","koaza":"","lat":31.875341,"lng":131.418765,"zip":"8800926"},{"town":"月見ケ丘四丁目","koaza":"","lat":31.878265,"lng":131.418073,"zip":"8800926"},{"town":"月見ケ丘五丁目","koaza":"","lat":31.883286,"lng":131.417897,"zip":"8800926"},{"town":"月見ケ丘六丁目","koaza":"","lat":31.880151,"lng":131.413536,"zip":"8800926"},{"town":"月見ケ丘七丁目","koaza":"","lat":31.877986,"lng":131.414519,"zip":"8800926"},{"town":"恒久一丁目","koaza":"","lat":31.89619,"lng":131.425159,"zip":"8800913"},{"town":"恒久二丁目","koaza":"","lat":31.895157,"lng":131.427244,"zip":"8800913"},{"town":"恒久三丁目","koaza":"","lat":31.894009,"lng":131.429985,"zip":"8800913"},{"town":"恒久四丁目","koaza":"","lat":31.893452,"lng":131.433254,"zip":"8800913"},{"town":"恒久五丁目","koaza":"","lat":31.891851,"lng":131.436102,"zip":"8800913"},{"town":"恒久六丁目","koaza":"","lat":31.891073,"lng":131.439565,"zip":"8800913"},{"town":"恒久南一丁目","koaza":"","lat":31.892396,"lng":131.422794,"zip":"8800915"},{"town":"恒久南二丁目","koaza":"","lat":31.891058,"lng":131.424874,"zip":"8800915"},{"town":"恒久南三丁目","koaza":"","lat":31.890744,"lng":131.428321,"zip":"8800915"},{"town":"恒久南四丁目","koaza":"","lat":31.890712,"lng":131.432173,"zip":"8800915"},{"town":"鶴島一丁目","koaza":"","lat":31.90851,"lng":131.415571,"zip":"8800014"},{"town":"鶴島二丁目","koaza":"","lat":31.910243,"lng":131.411443,"zip":"8800014"},{"town":"鶴島三丁目","koaza":"","lat":31.91224,"lng":131.407549,"zip":"8800014"},{"town":"出来島町","koaza":"","lat":31.90169,"lng":131.436564,"zip":"8800861"},{"town":"天満一丁目","koaza":"","lat":31.900873,"lng":131.414532,"zip":"8800936"},{"town":"天満二丁目","koaza":"","lat":31.898106,"lng":131.414349,"zip":"8800936"},{"town":"天満三丁目","koaza":"","lat":31.89613,"lng":131.414836,"zip":"8800936"},{"town":"天満町","koaza":"","lat":31.900934,"lng":131.411172,"zip":"8800935"},{"town":"東宮一丁目","koaza":"","lat":31.850028,"lng":131.429725,"zip":"8800928"},{"town":"東宮二丁目","koaza":"","lat":31.85109,"lng":131.425109,"zip":"8800928"},{"town":"中津瀬町","koaza":"","lat":31.922643,"lng":131.417488,"zip":"8800025"},{"town":"中西町","koaza":"","lat":31.903705,"lng":131.443986,"zip":"8800853"},{"town":"中村西一丁目","koaza":"","lat":31.902499,"lng":131.418209,"zip":"8800905"},{"town":"中村西二丁目","koaza":"","lat":31.899664,"lng":131.417574,"zip":"8800905"},{"town":"中村西三丁目","koaza":"","lat":31.895523,"lng":131.416535,"zip":"8800905"},{"town":"中村東一丁目","koaza":"","lat":31.90231,"lng":131.419929,"zip":"8800904"},{"town":"中村東二丁目","koaza":"","lat":31.899209,"lng":131.41922,"zip":"8800904"},{"town":"中村東三丁目","koaza":"","lat":31.89567,"lng":131.417739,"zip":"8800904"},{"town":"波島一丁目","koaza":"","lat":31.938988,"lng":131.446614,"zip":"8800826"},{"town":"波島二丁目","koaza":"","lat":31.937924,"lng":131.448927,"zip":"8800826"},{"town":"西池町","koaza":"","lat":31.921443,"lng":131.419227,"zip":"8800027"},{"town":"錦本町","koaza":"","lat":31.921673,"lng":131.429731,"zip":"8800818"},{"town":"錦町","koaza":"","lat":31.917386,"lng":131.431007,"zip":"8800811"},{"town":"西高松町","koaza":"","lat":31.916179,"lng":131.413425,"zip":"8800016"},{"town":"花ケ島町","koaza":"","lat":31.948854,"lng":131.432017,"zip":"8800036"},{"town":"花殿町","koaza":"","lat":31.924476,"lng":131.418572,"zip":"8800026"},{"town":"花山手西一丁目","koaza":"","lat":31.903868,"lng":131.400353,"zip":"8800939"},{"town":"花山手西二丁目","koaza":"","lat":31.900275,"lng":131.396194,"zip":"8800939"},{"town":"花山手東一丁目","koaza":"","lat":31.904282,"lng":131.406882,"zip":"8800930"},{"town":"花山手東二丁目","koaza":"","lat":31.904243,"lng":131.403657,"zip":"8800930"},{"town":"花山手東三丁目","koaza":"","lat":31.900014,"lng":131.401701,"zip":"8800930"},{"town":"原町","koaza":"","lat":31.923804,"lng":131.422034,"zip":"8800007"},{"town":"稗原町","koaza":"","lat":31.908139,"lng":131.451021,"zip":"8800832"},{"town":"東大宮一丁目","koaza":"","lat":31.945605,"lng":131.435716,"zip":"8800825"},{"town":"東大宮二丁目","koaza":"","lat":31.948024,"lng":131.436647,"zip":"8800825"},{"town":"東大宮三丁目","koaza":"","lat":31.947744,"lng":131.440392,"zip":"8800825"},{"town":"東大宮四丁目","koaza":"","lat":31.944738,"lng":131.438643,"zip":"8800825"},{"town":"東大淀一丁目","koaza":"","lat":31.900359,"lng":131.42628,"zip":"8800901"},{"town":"東大淀二丁目","koaza":"","lat":31.895206,"lng":131.422057,"zip":"8800901"},{"town":"日ノ出町","koaza":"","lat":31.905804,"lng":131.451148,"zip":"8800856"},{"town":"広島一丁目","koaza":"","lat":31.914728,"lng":131.426363,"zip":"8800806"},{"town":"広島二丁目","koaza":"","lat":31.914479,"lng":131.429023,"zip":"8800806"},{"town":"福島町","koaza":"","lat":31.909455,"lng":131.402076,"zip":"8800946"},{"town":"福島町一丁目","koaza":"","lat":31.906355,"lng":131.409458,"zip":"8800946"},{"town":"福島町二丁目","koaza":"","lat":31.906593,"lng":131.408324,"zip":"8800946"},{"town":"福島町三丁目","koaza":"","lat":31.908539,"lng":131.406518,"zip":"8800946"},{"town":"船塚一丁目","koaza":"","lat":31.926291,"lng":131.41862,"zip":"8800031"},{"town":"船塚二丁目","koaza":"","lat":31.92929,"lng":131.418683,"zip":"8800031"},{"town":"船塚三丁目","koaza":"","lat":31.933422,"lng":131.418773,"zip":"8800031"},{"town":"古城町","koaza":"","lat":31.890483,"lng":131.379279,"zip":"8800931"},{"town":"平和が丘北町","koaza":"","lat":31.959569,"lng":131.413476,"zip":"8800046"},{"town":"平和が丘西町","koaza":"","lat":31.955923,"lng":131.412538,"zip":"8800047"},{"town":"平和が丘東町","koaza":"","lat":31.955357,"lng":131.414935,"zip":"8800042"},{"town":"別府町","koaza":"","lat":31.911777,"lng":131.428597,"zip":"8800802"},{"town":"堀川町","koaza":"","lat":31.909959,"lng":131.433432,"zip":"8800873"},{"town":"本郷一丁目","koaza":"","lat":31.866167,"lng":131.428864,"zip":"8800922"},{"town":"本郷二丁目","koaza":"","lat":31.863902,"lng":131.429796,"zip":"8800922"},{"town":"本郷三丁目","koaza":"","lat":31.863574,"lng":131.427975,"zip":"8800922"},{"town":"前原町","koaza":"","lat":31.904441,"lng":131.436089,"zip":"8800863"},{"town":"松橋一丁目","koaza":"","lat":31.909899,"lng":131.418063,"zip":"8800013"},{"town":"松橋二丁目","koaza":"","lat":31.912742,"lng":131.413889,"zip":"8800013"},{"town":"松山一丁目","koaza":"","lat":31.905759,"lng":131.426707,"zip":"8800865"},{"town":"松山二丁目","koaza":"","lat":31.904835,"lng":131.428624,"zip":"8800865"},{"town":"まなび野一丁目","koaza":"","lat":31.862992,"lng":131.420411,"zip":"8800929"},{"town":"まなび野二丁目","koaza":"","lat":31.860518,"lng":131.417257,"zip":"8800929"},{"town":"まなび野三丁目","koaza":"","lat":31.858738,"lng":131.416124,"zip":"8800929"},{"town":"丸島町","koaza":"","lat":31.921074,"lng":131.426834,"zip":"8800813"},{"town":"丸山一丁目","koaza":"","lat":31.926709,"lng":131.422666,"zip":"8800052"},{"town":"丸山二丁目","koaza":"","lat":31.92925,"lng":131.42342,"zip":"8800052"},{"town":"港一丁目","koaza":"","lat":31.899554,"lng":131.455015,"zip":"8800858"},{"town":"港二丁目","koaza":"","lat":31.906432,"lng":131.456749,"zip":"8800858"},{"town":"港三丁目","koaza":"","lat":31.910686,"lng":131.457534,"zip":"8800858"},{"town":"港東一丁目","koaza":"","lat":31.898455,"lng":131.459754,"zip":"8800851"},{"town":"港東二丁目","koaza":"","lat":31.898477,"lng":131.463237,"zip":"8800851"},{"town":"港東三丁目","koaza":"","lat":31.907678,"lng":131.465497,"zip":"8800851"},{"town":"南方町","koaza":"","lat":31.962045,"lng":131.424543,"zip":"8800037"},{"town":"南高松町","koaza":"","lat":31.914422,"lng":131.415426,"zip":"8800005"},{"town":"南花ケ島町","koaza":"","lat":31.941655,"lng":131.429693,"zip":"8800055"},{"town":"南町三丁目","koaza":"","lat":31.893571,"lng":131.415492,"zip":"8800906"},{"town":"宮崎駅東一丁目","koaza":"","lat":31.913744,"lng":131.434177,"zip":"8800879"},{"town":"宮崎駅東二丁目","koaza":"","lat":31.916719,"lng":131.434005,"zip":"8800879"},{"town":"宮崎駅東三丁目","koaza":"","lat":31.919049,"lng":131.433724,"zip":"8800879"},{"town":"宮田町","koaza":"","lat":31.911694,"lng":131.426048,"zip":"8800804"},{"town":"宮の元町","koaza":"","lat":31.888492,"lng":131.42801,"zip":"8800914"},{"town":"宮脇町","koaza":"","lat":31.914458,"lng":131.436869,"zip":"8800877"},{"town":"村角町","koaza":"","lat":31.954551,"lng":131.447116,"zip":"8800837"},{"town":"元宮町","koaza":"","lat":31.913604,"lng":131.417247,"zip":"8800004"},{"town":"柳丸町","koaza":"","lat":31.926209,"lng":131.434164,"zip":"8800844"},{"town":"矢の先町","koaza":"","lat":31.940452,"lng":131.418312,"zip":"8800034"},{"town":"大和町","koaza":"","lat":31.91784,"lng":131.437144,"zip":"8800878"},{"town":"吉村町","koaza":"","lat":31.919971,"lng":131.443962,"zip":"8800841"},{"town":"淀川一丁目","koaza":"","lat":31.905,"lng":131.418111,"zip":"8800907"},{"town":"淀川二丁目","koaza":"","lat":31.901903,"lng":131.416315,"zip":"8800907"},{"town":"淀川三丁目","koaza":"","lat":31.899405,"lng":131.415911,"zip":"8800907"},{"town":"和知川原一丁目","koaza":"","lat":31.923632,"lng":131.414804,"zip":"8800023"},{"town":"和知川原二丁目","koaza":"","lat":31.923907,"lng":131.412297,"zip":"8800023"},{"town":"和知川原三丁目","koaza":"","lat":31.924388,"lng":131.407924,"zip":"8800023"},{"town":"山崎町","koaza":"","lat":31.95495,"lng":131.467429,"zip":"8800836"},{"town":"阿波岐原町","koaza":"","lat":31.939431,"lng":131.459879,"zip":"8800835"},{"town":"大塚町","koaza":"柳ケ迫","lat":31.908143,"lng":131.387786,"zip":"8800951"},{"town":"古城町","koaza":"山ノ城","lat":31.893122,"lng":131.388758,"zip":"8800931"},{"town":"大塚町","koaza":"大迫南平","lat":31.904715,"lng":131.388298,"zip":"8800951"},{"town":"清武町加納","koaza":"甲","lat":31.866028,"lng":131.390443,"zip":"8891607"},{"town":"大塚町","koaza":"大坪","lat":31.915271,"lng":131.389797,"zip":"8800951"},{"town":"大塚町","koaza":"池ノ内","lat":31.925098,"lng":131.392191,"zip":"8800951"},{"town":"大塚町","koaza":"横立","lat":31.922355,"lng":131.392871,"zip":"8800951"},{"town":"北川内町","koaza":"乱橋","lat":31.905056,"lng":131.393764,"zip":"8800941"},{"town":"大塚町","koaza":"地蔵田","lat":31.90725,"lng":131.39288,"zip":"8800951"},{"town":"大塚町","koaza":"馬場崎","lat":31.913441,"lng":131.394056,"zip":"8800951"},{"town":"大塚町","koaza":"城ノ下","lat":31.915101,"lng":131.394423,"zip":"8800951"},{"town":"大塚町","koaza":"西ノ原","lat":31.92199,"lng":131.395135,"zip":"8800951"},{"town":"大塚町","koaza":"竹原","lat":31.918721,"lng":131.395279,"zip":"8800951"},{"town":"大塚町","koaza":"窪田","lat":31.913899,"lng":131.396048,"zip":"8800951"},{"town":"大塚町","koaza":"宮田","lat":31.914835,"lng":131.397965,"zip":"8800951"},{"town":"大塚町","koaza":"原","lat":31.921977,"lng":131.397859,"zip":"8800951"},{"town":"大塚町","koaza":"原ノ前","lat":31.920846,"lng":131.397892,"zip":"8800951"},{"town":"大塚町","koaza":"京園","lat":31.913108,"lng":131.399119,"zip":"8800951"},{"town":"大塚町","koaza":"竹下","lat":31.924429,"lng":131.399143,"zip":"8800951"},{"town":"大塚町","koaza":"樋ノ口","lat":31.919078,"lng":131.398995,"zip":"8800951"},{"town":"大塚町","koaza":"祝子前","lat":31.921371,"lng":131.399694,"zip":"8800951"},{"town":"大塚町","koaza":"弥堂ノ窪","lat":31.914359,"lng":131.399523,"zip":"8800951"},{"town":"大塚町","koaza":"水流","lat":31.912119,"lng":131.400703,"zip":"8800951"},{"town":"大塚町","koaza":"流合","lat":31.913713,"lng":131.400565,"zip":"8800951"},{"town":"大塚町","koaza":"時宗","lat":31.922161,"lng":131.400713,"zip":"8800951"},{"town":"福島町","koaza":"寺山","lat":31.909732,"lng":131.401078,"zip":"8800946"},{"town":"古城町","koaza":"丸尾","lat":31.882842,"lng":131.404457,"zip":"8800931"},{"town":"池内町","koaza":"数太木","lat":31.971742,"lng":131.408578,"zip":"8800041"},{"town":"大坪町","koaza":"西六月","lat":31.895539,"lng":131.407216,"zip":"8800933"},{"town":"源藤町","koaza":"葉山","lat":31.886641,"lng":131.410174,"zip":"8800927"},{"town":"池内町","koaza":"松尾下","lat":31.975397,"lng":131.408562,"zip":"8800041"},{"town":"源藤町","koaza":"源藤","lat":31.88433,"lng":131.411122,"zip":"8800927"},{"town":"大坪町","koaza":"尾崎","lat":31.895523,"lng":131.410052,"zip":"8800933"},{"town":"源藤町","koaza":"東田","lat":31.884961,"lng":131.412673,"zip":"8800927"},{"town":"源藤町","koaza":"池ノ内","lat":31.88273,"lng":131.413711,"zip":"8800927"},{"town":"池内町","koaza":"八幡田","lat":31.961187,"lng":131.413956,"zip":"8800041"},{"town":"池内町","koaza":"金丸","lat":31.968561,"lng":131.413055,"zip":"8800041"},{"town":"下北方町","koaza":"下郷","lat":31.944532,"lng":131.416669,"zip":"8800035"},{"town":"下北方町","koaza":"井手下南","lat":31.944815,"lng":131.419753,"zip":"8800035"},{"town":"下北方町","koaza":"平田","lat":31.943111,"lng":131.422253,"zip":"8800035"},{"town":"下北方町","koaza":"常盤元","lat":31.9417,"lng":131.426302,"zip":"8800035"},{"town":"下北方町","koaza":"島口","lat":31.943483,"lng":131.426285,"zip":"8800035"},{"town":"下北方町","koaza":"新地","lat":31.94427,"lng":131.428125,"zip":"8800035"},{"town":"花ケ島町","koaza":"瀬々町","lat":31.9493,"lng":131.430029,"zip":"8800036"},{"town":"花ケ島町","koaza":"小物町","lat":31.950199,"lng":131.430126,"zip":"8800036"},{"town":"花ケ島町","koaza":"椨ノ木","lat":31.952244,"lng":131.430623,"zip":"8800036"},{"town":"花ケ島町","koaza":"大原","lat":31.938697,"lng":131.431891,"zip":"8800036"},{"town":"花ケ島町","koaza":"屋形町","lat":31.95086,"lng":131.432296,"zip":"8800036"},{"town":"花ケ島町","koaza":"観音免","lat":31.95616,"lng":131.434495,"zip":"8800036"},{"town":"花ケ島町","koaza":"立野","lat":31.945334,"lng":131.432223,"zip":"8800036"},{"town":"花ケ島町","koaza":"新地橋","lat":31.951864,"lng":131.433325,"zip":"8800036"},{"town":"花ケ島町","koaza":"立毛","lat":31.955142,"lng":131.43428,"zip":"8800036"},{"town":"花ケ島町","koaza":"柳ノ丸","lat":31.958353,"lng":131.43545,"zip":"8800036"},{"town":"大島町","koaza":"原ノ前","lat":31.936052,"lng":131.438244,"zip":"8800824"},{"town":"大島町","koaza":"西田","lat":31.943395,"lng":131.437103,"zip":"8800824"},{"town":"花ケ島町","koaza":"小無田","lat":31.959079,"lng":131.437208,"zip":"8800036"},{"town":"大字芳士","koaza":"中原","lat":31.962296,"lng":131.43809,"zip":"8800000"},{"town":"大島町","koaza":"八杖","lat":31.932896,"lng":131.438634,"zip":"8800824"},{"town":"大島町","koaza":"天神前","lat":31.938639,"lng":131.43945,"zip":"8800824"},{"town":"大島町","koaza":"畑ケ田","lat":31.937957,"lng":131.440179,"zip":"8800824"},{"town":"大島町","koaza":"松ノ木下","lat":31.941784,"lng":131.441659,"zip":"8800824"},{"town":"大島町","koaza":"国草","lat":31.941955,"lng":131.440424,"zip":"8800824"},{"town":"大島町","koaza":"前田","lat":31.944755,"lng":131.441817,"zip":"8800824"},{"town":"村角町","koaza":"坪平","lat":31.951653,"lng":131.441577,"zip":"8800837"},{"town":"村角町","koaza":"島ノ前","lat":31.949936,"lng":131.441507,"zip":"8800837"},{"town":"村角町","koaza":"灰作","lat":31.947267,"lng":131.441605,"zip":"8800837"},{"town":"吉村町","koaza":"天神前","lat":31.931132,"lng":131.441991,"zip":"8800841"},{"town":"吉村町","koaza":"大町","lat":31.915316,"lng":131.443288,"zip":"8800841"},{"town":"吉村町","koaza":"西田","lat":31.920505,"lng":131.443498,"zip":"8800841"},{"town":"吉村町","koaza":"冬治","lat":31.92168,"lng":131.444745,"zip":"8800841"},{"town":"村角町","koaza":"前畑","lat":31.956115,"lng":131.444399,"zip":"8800837"},{"town":"大島町","koaza":"高崎","lat":31.942499,"lng":131.44458,"zip":"8800824"},{"town":"大島町","koaza":"南窪","lat":31.934715,"lng":131.445142,"zip":"8800824"},{"town":"吉村町","koaza":"下別府","lat":31.910113,"lng":131.447026,"zip":"8800841"},{"town":"阿波岐原町","koaza":"火切塚","lat":31.942078,"lng":131.450942,"zip":"8800835"},{"town":"新別府町","koaza":"麓","lat":31.923965,"lng":131.451145,"zip":"8800834"},{"town":"新別府町","koaza":"山宮","lat":31.9218,"lng":131.451569,"zip":"8800834"},{"town":"新別府町","koaza":"江ノ口","lat":31.923323,"lng":131.452211,"zip":"8800834"},{"town":"阿波岐原町","koaza":"坂元","lat":31.930396,"lng":131.452906,"zip":"8800835"},{"town":"新別府町","koaza":"江口","lat":31.924305,"lng":131.452428,"zip":"8800834"},{"town":"新別府町","koaza":"堂ノ前","lat":31.925776,"lng":131.454287,"zip":"8800834"},{"town":"新別府町","koaza":"雀田","lat":31.92053,"lng":131.455601,"zip":"8800834"},{"town":"阿波岐原町","koaza":"竹割","lat":31.930631,"lng":131.455607,"zip":"8800835"},{"town":"阿波岐原町","koaza":"請田","lat":31.934745,"lng":131.456536,"zip":"8800835"},{"town":"新別府町","koaza":"船戸","lat":31.925206,"lng":131.456964,"zip":"8800834"},{"town":"新別府町","koaza":"上和田","lat":31.92075,"lng":131.456821,"zip":"8800834"},{"town":"阿波岐原町","koaza":"坊ノ下","lat":31.938849,"lng":131.457444,"zip":"8800835"},{"town":"新別府町","koaza":"前浜","lat":31.926184,"lng":131.461804,"zip":"8800834"},{"town":"山崎町","koaza":"四郎房","lat":31.951953,"lng":131.459799,"zip":"8800836"},{"town":"阿波岐原町","koaza":"前浜","lat":31.939175,"lng":131.46253,"zip":"8800835"},{"town":"阿波岐原町","koaza":"産母","lat":31.962399,"lng":131.463779,"zip":"8800835"},{"town":"山崎町","koaza":"浜山","lat":31.954465,"lng":131.465945,"zip":"8800836"},{"town":"下北方町","koaza":"越ケ迫","lat":31.9466,"lng":131.416264,"zip":"8800035"},{"town":"池内町","koaza":"榎迫","lat":31.956041,"lng":131.417433,"zip":"8800041"}]