[{"town":"安賀多町一丁目","koaza":"","lat":32.57776,"lng":131.669891,"zip":"8820845"},{"town":"安賀多町二丁目","koaza":"","lat":32.575956,"lng":131.669653,"zip":"8820845"},{"town":"安賀多町三丁目","koaza":"","lat":32.574523,"lng":131.669158,"zip":"8820845"},{"town":"安賀多町四丁目","koaza":"","lat":32.572893,"lng":131.668976,"zip":"8820845"},{"town":"安賀多町五丁目","koaza":"","lat":32.571461,"lng":131.668402,"zip":"8820845"},{"town":"赤水町","koaza":"","lat":32.50765,"lng":131.706429,"zip":"8890517"},{"town":"旭ケ丘一丁目","koaza":"","lat":32.530873,"lng":131.681334,"zip":"8890507"},{"town":"旭ケ丘二丁目","koaza":"","lat":32.526491,"lng":131.682255,"zip":"8890507"},{"town":"旭ケ丘四丁目","koaza":"","lat":32.531208,"lng":131.678865,"zip":"8890507"},{"town":"旭ケ丘五丁目","koaza":"","lat":32.529528,"lng":131.679267,"zip":"8890507"},{"town":"旭ケ丘六丁目","koaza":"","lat":32.526459,"lng":131.681332,"zip":"8890507"},{"town":"旭町一丁目","koaza":"","lat":32.575187,"lng":131.670438,"zip":"8820847"},{"town":"旭町二丁目","koaza":"","lat":32.572843,"lng":131.670346,"zip":"8820847"},{"town":"旭町三丁目","koaza":"","lat":32.570398,"lng":131.671247,"zip":"8820847"},{"town":"旭町四丁目","koaza":"","lat":32.573403,"lng":131.674053,"zip":"8820847"},{"town":"旭町五丁目","koaza":"","lat":32.572056,"lng":131.675897,"zip":"8820847"},{"town":"旭町六丁目","koaza":"","lat":32.570606,"lng":131.674698,"zip":"8820847"},{"town":"旭町七丁目","koaza":"","lat":32.567839,"lng":131.673953,"zip":"8820847"},{"town":"愛宕町一丁目","koaza":"","lat":32.57053,"lng":131.668767,"zip":"8820872"},{"town":"愛宕町二丁目","koaza":"","lat":32.568651,"lng":131.667759,"zip":"8820872"},{"town":"愛宕町三丁目","koaza":"","lat":32.566235,"lng":131.668335,"zip":"8820872"},{"town":"愛宕山","koaza":"","lat":32.559356,"lng":131.663776,"zip":"8820871"},{"town":"天下町","koaza":"","lat":32.57447,"lng":131.621985,"zip":"8820071"},{"town":"粟野名町","koaza":"","lat":32.596133,"lng":131.684049,"zip":"8820025"},{"town":"伊形町","koaza":"","lat":32.529074,"lng":131.670237,"zip":"8890503"},{"town":"石田町","koaza":"","lat":32.535964,"lng":131.656751,"zip":"8890501"},{"town":"出北一丁目","koaza":"","lat":32.577048,"lng":131.679964,"zip":"8820856"},{"town":"出北二丁目","koaza":"","lat":32.574916,"lng":131.680125,"zip":"8820856"},{"town":"出北三丁目","koaza":"","lat":32.572899,"lng":131.680273,"zip":"8820856"},{"town":"出北四丁目","koaza":"","lat":32.571005,"lng":131.680409,"zip":"8820856"},{"town":"出北五丁目","koaza":"","lat":32.573994,"lng":131.684853,"zip":"8820856"},{"town":"出北六丁目","koaza":"","lat":32.574828,"lng":131.688268,"zip":"8820856"},{"town":"出口町","koaza":"","lat":32.574122,"lng":131.660254,"zip":"8820831"},{"town":"稲葉崎町一丁目","koaza":"","lat":32.60762,"lng":131.677946,"zip":"8820003"},{"town":"稲葉崎町二丁目","koaza":"","lat":32.607551,"lng":131.68106,"zip":"8820003"},{"town":"稲葉崎町三丁目","koaza":"","lat":32.611405,"lng":131.676677,"zip":"8820003"},{"town":"稲葉崎町四丁目","koaza":"","lat":32.613758,"lng":131.681378,"zip":"8820003"},{"town":"稲葉崎町五丁目","koaza":"","lat":32.616763,"lng":131.673349,"zip":"8820003"},{"town":"稲葉崎町六丁目","koaza":"","lat":32.619075,"lng":131.677223,"zip":"8820003"},{"town":"浦城町","koaza":"","lat":32.643216,"lng":131.739906,"zip":"8820095"},{"town":"恵比須町","koaza":"","lat":32.586801,"lng":131.670307,"zip":"8820046"},{"town":"追内町","koaza":"","lat":32.608726,"lng":131.731611,"zip":"8820013"},{"town":"大瀬町一丁目","koaza":"","lat":32.575938,"lng":131.665005,"zip":"8820841"},{"town":"大瀬町二丁目","koaza":"","lat":32.572912,"lng":131.666125,"zip":"8820841"},{"town":"大瀬町三丁目","koaza":"","lat":32.571433,"lng":131.667133,"zip":"8820841"},{"town":"大峡町","koaza":"","lat":32.637074,"lng":131.660581,"zip":"8820001"},{"town":"大門町","koaza":"","lat":32.602523,"lng":131.680747,"zip":"8820027"},{"town":"大武町","koaza":"","lat":32.595718,"lng":131.695277,"zip":"8820024"},{"town":"大貫町一丁目","koaza":"","lat":32.580558,"lng":131.656089,"zip":"8820803"},{"town":"大貫町二丁目","koaza":"","lat":32.576675,"lng":131.655149,"zip":"8820803"},{"town":"大貫町三丁目","koaza":"","lat":32.573469,"lng":131.654983,"zip":"8820803"},{"town":"大貫町四丁目","koaza":"","lat":32.575788,"lng":131.649991,"zip":"8820803"},{"town":"大貫町五丁目","koaza":"","lat":32.568885,"lng":131.650547,"zip":"8820803"},{"town":"大貫町六丁目","koaza":"","lat":32.566492,"lng":131.644725,"zip":"8820803"},{"town":"大野町","koaza":"","lat":32.624196,"lng":131.613588,"zip":"8820086"},{"town":"岡富町","koaza":"","lat":32.588215,"lng":131.659929,"zip":"8820056"},{"town":"岡元町","koaza":"","lat":32.569635,"lng":131.562785,"zip":"8820075"},{"town":"沖田町","koaza":"","lat":32.544825,"lng":131.667726,"zip":"8820876"},{"town":"尾崎町","koaza":"","lat":32.610443,"lng":131.661783,"zip":"8820006"},{"town":"卸本町","koaza":"","lat":32.577474,"lng":131.685272,"zip":"8820855"},{"town":"貝の畑町","koaza":"","lat":32.567745,"lng":131.597929,"zip":"8820073"},{"town":"樫山町一丁目","koaza":"","lat":32.601792,"lng":131.677391,"zip":"8820004"},{"town":"樫山町二丁目","koaza":"","lat":32.603881,"lng":131.67817,"zip":"8820004"},{"town":"樫山町三丁目","koaza":"","lat":32.604079,"lng":131.676717,"zip":"8820004"},{"town":"鹿小路","koaza":"","lat":32.632798,"lng":131.704284,"zip":"8820012"},{"town":"春日町一丁目","koaza":"","lat":32.577547,"lng":131.667433,"zip":"8820844"},{"town":"春日町二丁目","koaza":"","lat":32.576339,"lng":131.667734,"zip":"8820844"},{"town":"春日町三丁目","koaza":"","lat":32.575833,"lng":131.667271,"zip":"8820844"},{"town":"片田町","koaza":"","lat":32.549991,"lng":131.658652,"zip":"8820877"},{"town":"構口町一丁目","koaza":"","lat":32.559467,"lng":131.675939,"zip":"8820867"},{"town":"構口町二丁目","koaza":"","lat":32.557658,"lng":131.673352,"zip":"8820867"},{"town":"上伊形町","koaza":"","lat":32.527251,"lng":131.634718,"zip":"8890502"},{"town":"上大瀬町","koaza":"","lat":32.575039,"lng":131.6625,"zip":"8820833"},{"town":"上三輪町","koaza":"","lat":32.550362,"lng":131.56738,"zip":"8820885"},{"town":"川島町","koaza":"","lat":32.623241,"lng":131.704381,"zip":"8820017"},{"town":"川原崎町","koaza":"","lat":32.592213,"lng":131.679723,"zip":"8820033"},{"town":"祇園町一丁目","koaza":"","lat":32.584716,"lng":131.669021,"zip":"8820000"},{"town":"祇園町二丁目","koaza":"","lat":32.586224,"lng":131.668946,"zip":"8820000"},{"town":"北浦町市振","koaza":"","lat":32.723891,"lng":131.849342,"zip":"8890302"},{"town":"北浦町古江","koaza":"","lat":32.700217,"lng":131.807522,"zip":"8890301"},{"town":"北浦町三川内","koaza":"","lat":32.777665,"lng":131.802072,"zip":"8890304"},{"town":"北浦町宮野浦","koaza":"","lat":32.698661,"lng":131.845298,"zip":"8890303"},{"town":"北方町板上","koaza":"","lat":32.659596,"lng":131.508882,"zip":"8820121"},{"town":"北方町板下","koaza":"","lat":32.618469,"lng":131.534376,"zip":"8820122"},{"town":"北方町うそ越","koaza":"","lat":32.588971,"lng":131.529834,"zip":"8820123"},{"town":"北方町笠下","koaza":"","lat":32.54835,"lng":131.537983,"zip":"8820106"},{"town":"北方町上崎","koaza":"","lat":32.57038,"lng":131.501457,"zip":"8820126"},{"town":"北方町上鹿川","koaza":"","lat":32.712173,"lng":131.504605,"zip":"8820231"},{"town":"北方町川水流","koaza":"","lat":32.559692,"lng":131.513106,"zip":"8820125"},{"town":"北方町北久保山","koaza":"","lat":32.582922,"lng":131.523525,"zip":"8820129"},{"town":"北方町蔵田","koaza":"","lat":32.589344,"lng":131.506166,"zip":"8820127"},{"town":"北方町三ケ村","koaza":"","lat":32.637415,"lng":131.486161,"zip":"8820241"},{"town":"北方町椎畑","koaza":"","lat":32.614686,"lng":131.467295,"zip":"8820237"},{"town":"北方町下鹿川","koaza":"","lat":32.672395,"lng":131.472467,"zip":"8820232"},{"town":"北方町菅原","koaza":"","lat":32.640948,"lng":131.446904,"zip":"8820233"},{"town":"北方町曽木","koaza":"","lat":32.582408,"lng":131.550109,"zip":"8820124"},{"town":"北方町滝下","koaza":"","lat":32.608264,"lng":131.46665,"zip":"8820238"},{"town":"北方町角田","koaza":"","lat":32.562517,"lng":131.538605,"zip":"8820104"},{"town":"北方町早上","koaza":"","lat":32.592086,"lng":131.452377,"zip":"8820245"},{"town":"北方町早中","koaza":"","lat":32.580643,"lng":131.467003,"zip":"8820244"},{"town":"北方町早日渡","koaza":"","lat":32.585967,"lng":131.483509,"zip":"8820243"},{"town":"北方町日平","koaza":"","lat":32.618056,"lng":131.457098,"zip":"8820236"},{"town":"北方町藤の木","koaza":"","lat":32.623343,"lng":131.512886,"zip":"8820107"},{"town":"北方町槇峰","koaza":"","lat":32.625568,"lng":131.45534,"zip":"8820235"},{"town":"北方町南久保山","koaza":"","lat":32.574094,"lng":131.535043,"zip":"8820128"},{"town":"北方町美々地","koaza":"","lat":32.636997,"lng":131.463707,"zip":"8820234"},{"town":"北方町八峡","koaza":"","lat":32.610434,"lng":131.491315,"zip":"8820242"},{"town":"北川町長井","koaza":"","lat":32.662539,"lng":131.688294,"zip":"8890102"},{"town":"北小路","koaza":"","lat":32.585344,"lng":131.664065,"zip":"8820041"},{"town":"北新小路","koaza":"","lat":32.575639,"lng":131.66397,"zip":"8820834"},{"town":"北一ケ岡一丁目","koaza":"","lat":32.528124,"lng":131.675931,"zip":"8890505"},{"town":"北一ケ岡二丁目","koaza":"","lat":32.526923,"lng":131.676817,"zip":"8890505"},{"town":"北一ケ岡三丁目","koaza":"","lat":32.525886,"lng":131.679997,"zip":"8890505"},{"town":"北一ケ岡四丁目","koaza":"","lat":32.524515,"lng":131.676988,"zip":"8890505"},{"town":"北町一丁目","koaza":"","lat":32.583108,"lng":131.667352,"zip":"8820814"},{"town":"北町二丁目","koaza":"","lat":32.583125,"lng":131.665724,"zip":"8820814"},{"town":"共栄町","koaza":"","lat":32.565031,"lng":131.673546,"zip":"8820873"},{"town":"櫛津町","koaza":"","lat":32.501573,"lng":131.677992,"zip":"8890514"},{"town":"熊野江町","koaza":"","lat":32.69538,"lng":131.772757,"zip":"8890322"},{"town":"桑平町","koaza":"","lat":32.638991,"lng":131.630424,"zip":"8820091"},{"town":"神戸町","koaza":"","lat":32.600175,"lng":131.742215,"zip":"8820093"},{"town":"小川町","koaza":"","lat":32.590496,"lng":131.565476,"zip":"8820076"},{"town":"小野町","koaza":"","lat":32.549533,"lng":131.645065,"zip":"8820882"},{"town":"紺屋町一丁目","koaza":"","lat":32.584228,"lng":131.670428,"zip":"8820047"},{"town":"紺屋町二丁目","koaza":"","lat":32.584197,"lng":131.672732,"zip":"8820047"},{"town":"西小路","koaza":"","lat":32.572518,"lng":131.662158,"zip":"8820832"},{"town":"幸町一丁目","koaza":"","lat":32.587356,"lng":131.671615,"zip":"8820053"},{"town":"幸町二丁目","koaza":"","lat":32.588543,"lng":131.671671,"zip":"8820053"},{"town":"幸町三丁目","koaza":"","lat":32.58966,"lng":131.671682,"zip":"8820053"},{"town":"栄町","koaza":"","lat":32.58844,"lng":131.67035,"zip":"8820054"},{"town":"桜ケ丘一丁目","koaza":"","lat":32.607352,"lng":131.674243,"zip":"8820007"},{"town":"桜ケ丘二丁目","koaza":"","lat":32.611335,"lng":131.669317,"zip":"8820007"},{"town":"桜ケ丘三丁目","koaza":"","lat":32.620702,"lng":131.661229,"zip":"8820007"},{"town":"桜小路","koaza":"","lat":32.5786,"lng":131.661973,"zip":"8820816"},{"town":"桜園町","koaza":"","lat":32.594678,"lng":131.675211,"zip":"8820036"},{"town":"差木野町","koaza":"","lat":32.630599,"lng":131.688478,"zip":"8820002"},{"town":"佐野町","koaza":"","lat":32.622865,"lng":131.643449,"zip":"8820081"},{"town":"島浦町","koaza":"","lat":32.664717,"lng":131.821049,"zip":"8820096"},{"town":"下伊形町","koaza":"","lat":32.517867,"lng":131.667898,"zip":"8890504"},{"town":"下三輪町","koaza":"","lat":32.545076,"lng":131.611025,"zip":"8820883"},{"town":"昭和町一丁目","koaza":"","lat":32.585571,"lng":131.675807,"zip":"8820034"},{"town":"昭和町二丁目","koaza":"","lat":32.586655,"lng":131.679145,"zip":"8820034"},{"town":"昭和町三丁目","koaza":"","lat":32.589232,"lng":131.686248,"zip":"8820034"},{"town":"白石町","koaza":"","lat":32.619637,"lng":131.721898,"zip":"8820014"},{"town":"塩浜町一丁目","koaza":"","lat":32.54295,"lng":131.678739,"zip":"8820864"},{"town":"塩浜町二丁目","koaza":"","lat":32.542799,"lng":131.674038,"zip":"8820864"},{"town":"塩浜町三丁目","koaza":"","lat":32.539282,"lng":131.669929,"zip":"8820864"},{"town":"塩浜町四丁目","koaza":"","lat":32.537047,"lng":131.676594,"zip":"8820864"},{"town":"新小路一丁目","koaza":"","lat":32.572483,"lng":131.664653,"zip":"8820835"},{"town":"新小路二丁目","koaza":"","lat":32.57033,"lng":131.665957,"zip":"8820835"},{"town":"新浜町二丁目","koaza":"","lat":32.525642,"lng":131.685254,"zip":"8890512"},{"town":"新町","koaza":"","lat":32.580511,"lng":131.670815,"zip":"8820827"},{"town":"須崎町","koaza":"","lat":32.58197,"lng":131.674213,"zip":"8820825"},{"town":"須佐町","koaza":"","lat":32.643081,"lng":131.698888,"zip":"8820011"},{"town":"須美江町","koaza":"","lat":32.666842,"lng":131.759758,"zip":"8890321"},{"town":"瀬之口町一丁目","koaza":"","lat":32.585899,"lng":131.67153,"zip":"8820045"},{"town":"瀬之口町二丁目","koaza":"","lat":32.585894,"lng":131.67291,"zip":"8820045"},{"town":"惣領町","koaza":"","lat":32.58054,"lng":131.678008,"zip":"8820857"},{"town":"鯛名町","koaza":"","lat":32.505115,"lng":131.696568,"zip":"8890516"},{"town":"高千穂通","koaza":"","lat":32.588017,"lng":131.666303,"zip":"8820042"},{"town":"高野町","koaza":"","lat":32.585206,"lng":131.611057,"zip":"8820064"},{"town":"伊達町一丁目","koaza":"","lat":32.563938,"lng":131.673167,"zip":"8820874"},{"town":"伊達町二丁目","koaza":"","lat":32.561803,"lng":131.674052,"zip":"8820874"},{"town":"伊達町三丁目","koaza":"","lat":32.560524,"lng":131.67423,"zip":"8820874"},{"town":"中央通一丁目","koaza":"","lat":32.582949,"lng":131.66878,"zip":"8820824"},{"town":"中央通二丁目","koaza":"","lat":32.581617,"lng":131.668836,"zip":"8820824"},{"town":"中央通三丁目","koaza":"","lat":32.580005,"lng":131.669391,"zip":"8820824"},{"town":"恒富町一丁目","koaza":"","lat":32.571179,"lng":131.662261,"zip":"8820836"},{"town":"恒富町二丁目","koaza":"","lat":32.569965,"lng":131.662822,"zip":"8820836"},{"town":"恒富町三丁目","koaza":"","lat":32.568749,"lng":131.662876,"zip":"8820836"},{"town":"恒富町四丁目","koaza":"","lat":32.566464,"lng":131.663968,"zip":"8820836"},{"town":"鶴ケ丘一丁目","koaza":"","lat":32.544472,"lng":131.674435,"zip":"8820865"},{"town":"鶴ケ丘二丁目","koaza":"","lat":32.543551,"lng":131.670985,"zip":"8820865"},{"town":"天神小路","koaza":"","lat":32.580774,"lng":131.658833,"zip":"8820811"},{"town":"東海町","koaza":"","lat":32.596813,"lng":131.713817,"zip":"8820016"},{"town":"土々呂町一丁目","koaza":"","lat":32.516522,"lng":131.682119,"zip":"8890513"},{"town":"土々呂町二丁目","koaza":"","lat":32.512461,"lng":131.67928,"zip":"8890513"},{"town":"土々呂町三丁目","koaza":"","lat":32.511966,"lng":131.68226,"zip":"8890513"},{"town":"土々呂町四丁目","koaza":"","lat":32.508606,"lng":131.679913,"zip":"8890513"},{"town":"土々呂町五丁目","koaza":"","lat":32.508364,"lng":131.669954,"zip":"8890513"},{"town":"土々呂町六丁目","koaza":"","lat":32.50393,"lng":131.671713,"zip":"8890513"},{"town":"富美山町","koaza":"","lat":32.596649,"lng":131.660878,"zip":"8820051"},{"town":"永池町一丁目","koaza":"","lat":32.573299,"lng":131.667633,"zip":"8820843"},{"town":"永池町二丁目","koaza":"","lat":32.572063,"lng":131.667887,"zip":"8820843"},{"town":"中川原町一丁目","koaza":"","lat":32.593781,"lng":131.671949,"zip":"8820031"},{"town":"中川原町二丁目","koaza":"","lat":32.594751,"lng":131.670829,"zip":"8820031"},{"town":"中川原町三丁目","koaza":"","lat":32.595323,"lng":131.67317,"zip":"8820031"},{"town":"中川原町四丁目","koaza":"","lat":32.598967,"lng":131.676093,"zip":"8820031"},{"town":"中川原町五丁目","koaza":"","lat":32.599786,"lng":131.67311,"zip":"8820031"},{"town":"中島町一丁目","koaza":"","lat":32.577641,"lng":131.671855,"zip":"8820846"},{"town":"中島町二丁目","koaza":"","lat":32.579326,"lng":131.67423,"zip":"8820846"},{"town":"中島町三丁目","koaza":"","lat":32.577437,"lng":131.674881,"zip":"8820846"},{"town":"中島町四丁目","koaza":"","lat":32.576562,"lng":131.675348,"zip":"8820846"},{"town":"中の瀬町一丁目","koaza":"","lat":32.598278,"lng":131.678153,"zip":"8820032"},{"town":"中の瀬町二丁目","koaza":"","lat":32.595625,"lng":131.679906,"zip":"8820032"},{"town":"長浜町一丁目","koaza":"","lat":32.576654,"lng":131.692844,"zip":"8820854"},{"town":"長浜町二丁目","koaza":"","lat":32.572543,"lng":131.691627,"zip":"8820854"},{"town":"長浜町三丁目","koaza":"","lat":32.575412,"lng":131.697106,"zip":"8820854"},{"town":"長浜町四丁目","koaza":"","lat":32.56638,"lng":131.688951,"zip":"8820854"},{"town":"中町一丁目","koaza":"","lat":32.581793,"lng":131.667438,"zip":"8820823"},{"town":"中町二丁目","koaza":"","lat":32.581669,"lng":131.666096,"zip":"8820823"},{"town":"中三輪町","koaza":"","lat":32.546341,"lng":131.592749,"zip":"8820884"},{"town":"夏田町","koaza":"","lat":32.606959,"lng":131.66981,"zip":"8820005"},{"town":"西階町一丁目","koaza":"","lat":32.57067,"lng":131.641292,"zip":"8820804"},{"town":"西階町二丁目","koaza":"","lat":32.568484,"lng":131.636905,"zip":"8820804"},{"town":"西階町三丁目","koaza":"","lat":32.567349,"lng":131.629935,"zip":"8820804"},{"town":"野地町一丁目","koaza":"","lat":32.574511,"lng":131.644415,"zip":"8820802"},{"town":"野地町二丁目","koaza":"","lat":32.575694,"lng":131.642192,"zip":"8820802"},{"town":"野地町三丁目","koaza":"","lat":32.578739,"lng":131.647232,"zip":"8820802"},{"town":"野地町四丁目","koaza":"","lat":32.57975,"lng":131.64548,"zip":"8820802"},{"town":"野地町五丁目","koaza":"","lat":32.582218,"lng":131.650397,"zip":"8820802"},{"town":"野地町六丁目","koaza":"","lat":32.578957,"lng":131.640564,"zip":"8820802"},{"town":"萩町","koaza":"","lat":32.591831,"lng":131.67174,"zip":"8820052"},{"town":"博労町","koaza":"","lat":32.585679,"lng":131.670082,"zip":"8820044"},{"town":"浜砂一丁目","koaza":"","lat":32.579979,"lng":131.681232,"zip":"8820851"},{"town":"浜砂二丁目","koaza":"","lat":32.580575,"lng":131.683092,"zip":"8820851"},{"town":"浜砂三丁目","koaza":"","lat":32.580705,"lng":131.68576,"zip":"8820851"},{"town":"浜砂町","koaza":"","lat":32.583562,"lng":131.683667,"zip":"8820000"},{"town":"浜町","koaza":"","lat":32.559057,"lng":131.679988,"zip":"8820862"},{"town":"東浜砂町","koaza":"","lat":32.581196,"lng":131.692814,"zip":"8820852"},{"town":"東本小路","koaza":"","lat":32.58143,"lng":131.664064,"zip":"8820813"},{"town":"日の出町一丁目","koaza":"","lat":32.588125,"lng":131.674613,"zip":"8820035"},{"town":"日の出町二丁目","koaza":"","lat":32.590843,"lng":131.674251,"zip":"8820035"},{"town":"別府町","koaza":"","lat":32.566851,"lng":131.681281,"zip":"8820861"},{"town":"平田町","koaza":"","lat":32.589271,"lng":131.602902,"zip":"8820065"},{"town":"平原町一丁目","koaza":"","lat":32.555411,"lng":131.672817,"zip":"8820866"},{"town":"平原町二丁目","koaza":"","lat":32.551692,"lng":131.673318,"zip":"8820866"},{"town":"平原町三丁目","koaza":"","lat":32.549665,"lng":131.674336,"zip":"8820866"},{"town":"平原町四丁目","koaza":"","lat":32.547089,"lng":131.675435,"zip":"8820866"},{"town":"平原町五丁目","koaza":"","lat":32.549793,"lng":131.677292,"zip":"8820866"},{"town":"二ツ島町","koaza":"","lat":32.606459,"lng":131.700472,"zip":"8820022"},{"town":"船倉町一丁目","koaza":"","lat":32.582399,"lng":131.669848,"zip":"8820826"},{"town":"船倉町二丁目","koaza":"","lat":32.582498,"lng":131.671268,"zip":"8820826"},{"town":"古川町","koaza":"","lat":32.588396,"lng":131.649324,"zip":"8820063"},{"town":"古城町一丁目","koaza":"","lat":32.571942,"lng":131.658136,"zip":"8820837"},{"town":"古城町二丁目","koaza":"","lat":32.56866,"lng":131.659539,"zip":"8820837"},{"town":"古城町三丁目","koaza":"","lat":32.569091,"lng":131.656117,"zip":"8820837"},{"town":"古城町四丁目","koaza":"","lat":32.565608,"lng":131.658958,"zip":"8820837"},{"town":"古城町五丁目","koaza":"","lat":32.563691,"lng":131.654113,"zip":"8820837"},{"town":"方財町","koaza":"","lat":32.586673,"lng":131.694367,"zip":"8820853"},{"town":"祝子町","koaza":"","lat":32.61041,"lng":131.648144,"zip":"8820082"},{"town":"細見町","koaza":"","lat":32.569791,"lng":131.583533,"zip":"8820074"},{"town":"本小路","koaza":"","lat":32.582093,"lng":131.661326,"zip":"8820812"},{"town":"本町一丁目","koaza":"","lat":32.580148,"lng":131.667557,"zip":"8820821"},{"town":"本町二丁目","koaza":"","lat":32.579416,"lng":131.665755,"zip":"8820821"},{"town":"舞野町","koaza":"","lat":32.580029,"lng":131.591785,"zip":"8820066"},{"town":"牧町","koaza":"","lat":32.600704,"lng":131.696112,"zip":"8820023"},{"town":"松原町一丁目","koaza":"","lat":32.523285,"lng":131.683372,"zip":"8890511"},{"town":"松原町二丁目","koaza":"","lat":32.523022,"lng":131.681396,"zip":"8890511"},{"town":"松原町三丁目","koaza":"","lat":32.519668,"lng":131.68596,"zip":"8890511"},{"town":"松原町四丁目","koaza":"","lat":32.52051,"lng":131.681708,"zip":"8890511"},{"town":"松山町","koaza":"","lat":32.589117,"lng":131.636966,"zip":"8820062"},{"town":"水尻町","koaza":"","lat":32.607541,"lng":131.712488,"zip":"8820015"},{"town":"三須町","koaza":"","lat":32.561558,"lng":131.641976,"zip":"8820881"},{"town":"三ツ瀬町一丁目","koaza":"","lat":32.575108,"lng":131.667259,"zip":"8820842"},{"town":"三ツ瀬町二丁目","koaza":"","lat":32.574211,"lng":131.667327,"zip":"8820842"},{"town":"緑ケ丘一丁目","koaza":"","lat":32.560197,"lng":131.685914,"zip":"8820863"},{"town":"緑ケ丘二丁目","koaza":"","lat":32.555905,"lng":131.684205,"zip":"8820863"},{"town":"緑ケ丘三丁目","koaza":"","lat":32.552326,"lng":131.682518,"zip":"8820863"},{"town":"緑ケ丘四丁目","koaza":"","lat":32.549878,"lng":131.681771,"zip":"8820863"},{"town":"緑ケ丘五丁目","koaza":"","lat":32.545158,"lng":131.681577,"zip":"8820863"},{"town":"南一ケ岡一丁目","koaza":"","lat":32.520904,"lng":131.679889,"zip":"8890506"},{"town":"南一ケ岡二丁目","koaza":"","lat":32.521227,"lng":131.677928,"zip":"8890506"},{"town":"南一ケ岡三丁目","koaza":"","lat":32.521199,"lng":131.675326,"zip":"8890506"},{"town":"南一ケ岡四丁目","koaza":"","lat":32.517587,"lng":131.677365,"zip":"8890506"},{"town":"南一ケ岡五丁目","koaza":"","lat":32.515692,"lng":131.679214,"zip":"8890506"},{"town":"南一ケ岡六丁目","koaza":"","lat":32.518635,"lng":131.680154,"zip":"8890506"},{"town":"南一ケ岡七丁目","koaza":"","lat":32.51448,"lng":131.676694,"zip":"8890506"},{"town":"南町一丁目","koaza":"","lat":32.580923,"lng":131.667512,"zip":"8820822"},{"town":"南町二丁目","koaza":"","lat":32.58044,"lng":131.6658,"zip":"8820822"},{"town":"妙見町","koaza":"","lat":32.499596,"lng":131.687187,"zip":"8890515"},{"town":"妙町","koaza":"","lat":32.633836,"lng":131.62682,"zip":"8820087"},{"town":"行縢町","koaza":"","lat":32.612576,"lng":131.581168,"zip":"8820077"},{"town":"無鹿町一丁目","koaza":"","lat":32.610929,"lng":131.686103,"zip":"8820021"},{"town":"無鹿町二丁目","koaza":"","lat":32.608233,"lng":131.691537,"zip":"8820021"},{"town":"安井町","koaza":"","lat":32.610517,"lng":131.748904,"zip":"8820094"},{"town":"柳沢町一丁目","koaza":"","lat":32.579117,"lng":131.667962,"zip":"8820815"},{"town":"柳沢町二丁目","koaza":"","lat":32.57866,"lng":131.665695,"zip":"8820815"},{"town":"山下町一丁目","koaza":"","lat":32.588345,"lng":131.668583,"zip":"8820055"},{"town":"山下町二丁目","koaza":"","lat":32.590122,"lng":131.66823,"zip":"8820055"},{"town":"山下町三丁目","koaza":"","lat":32.59241,"lng":131.669004,"zip":"8820055"},{"town":"山月町一丁目","koaza":"","lat":32.594316,"lng":131.668859,"zip":"8820037"},{"town":"山月町二丁目","koaza":"","lat":32.596698,"lng":131.668935,"zip":"8820037"},{"town":"山月町三丁目","koaza":"","lat":32.598475,"lng":131.669418,"zip":"8820037"},{"town":"山月町四丁目","koaza":"","lat":32.600041,"lng":131.668792,"zip":"8820037"},{"town":"山月町五丁目","koaza":"","lat":32.601161,"lng":131.664102,"zip":"8820037"},{"town":"柚木町","koaza":"","lat":32.599521,"lng":131.652361,"zip":"8820083"},{"town":"柚の木田町","koaza":"","lat":32.601969,"lng":131.68752,"zip":"8820026"},{"town":"吉野町","koaza":"","lat":32.568107,"lng":131.614357,"zip":"8820072"},{"town":"若葉町一丁目","koaza":"","lat":32.553579,"lng":131.666668,"zip":"8820875"},{"town":"若葉町二丁目","koaza":"","lat":32.550605,"lng":131.668037,"zip":"8820875"},{"town":"野田一丁目","koaza":"","lat":32.579144,"lng":131.635203,"zip":"8820805"},{"town":"野田二丁目","koaza":"","lat":32.578987,"lng":131.632305,"zip":"8820805"},{"town":"野田三丁目","koaza":"","lat":32.576252,"lng":131.63441,"zip":"8820805"},{"town":"野田町","koaza":"","lat":32.575714,"lng":131.636936,"zip":"8820801"},{"town":"北方町二股","koaza":"","lat":32.650957,"lng":131.560037,"zip":"8820101"},{"town":"北川町川内名","koaza":"","lat":32.760994,"lng":131.668009,"zip":"8820097"},{"town":"宮長町","koaza":"","lat":32.672408,"lng":131.612716,"zip":"8820092"},{"town":"檜山","koaza":"","lat":32.684589,"lng":131.589608,"zip":"8820000"},{"town":"小峰町","koaza":"","lat":32.586978,"lng":131.62315,"zip":"8820061"},{"town":"鹿狩瀬町","koaza":"","lat":32.607606,"lng":131.611407,"zip":"8820085"},{"town":"宇和田町","koaza":"","lat":32.60454,"lng":131.637439,"zip":"8820084"},{"town":"新浜町一丁目","koaza":"","lat":32.535578,"lng":131.680869,"zip":"8890512"},{"town":"旭ケ丘","koaza":"","lat":32.534602,"lng":131.678296,"zip":"8890507"},{"town":"旭ケ丘三丁目","koaza":"","lat":32.53283,"lng":131.678449,"zip":"8890507"}]