[{"town":"伊勢ケ浜","koaza":"","lat":32.41451,"lng":131.649663,"zip":"8830003"},{"town":"上町","koaza":"","lat":32.424834,"lng":131.625545,"zip":"8830044"},{"town":"江良町一丁目","koaza":"","lat":32.422116,"lng":131.637771,"zip":"8830012"},{"town":"江良町二丁目","koaza":"","lat":32.422459,"lng":131.641099,"zip":"8830012"},{"town":"江良町三丁目","koaza":"","lat":32.420553,"lng":131.637969,"zip":"8830012"},{"town":"江良町四丁目","koaza":"","lat":32.420199,"lng":131.641952,"zip":"8830012"},{"town":"大字財光寺","koaza":"","lat":32.404672,"lng":131.62642,"zip":"8830000"},{"town":"大字財光寺往還町","koaza":"","lat":32.411385,"lng":131.626645,"zip":"8830000"},{"town":"大字財光寺沖町","koaza":"","lat":32.408391,"lng":131.625889,"zip":"8830000"},{"town":"大字幸脇","koaza":"","lat":32.348535,"lng":131.595347,"zip":"8830000"},{"town":"大字塩見","koaza":"","lat":32.418747,"lng":131.592846,"zip":"8830000"},{"town":"大字富高","koaza":"","lat":32.445474,"lng":131.591976,"zip":"8830000"},{"town":"大字日知屋","koaza":"","lat":32.433071,"lng":131.644903,"zip":"8830000"},{"town":"大字日知屋古田町","koaza":"","lat":32.424364,"lng":131.652686,"zip":"8830000"},{"town":"大字平岩","koaza":"","lat":32.377733,"lng":131.604034,"zip":"8830000"},{"town":"大字細島","koaza":"","lat":32.425839,"lng":131.665468,"zip":"8830000"},{"town":"梶木町一丁目","koaza":"","lat":32.451909,"lng":131.64198,"zip":"8830053"},{"town":"梶木町二丁目","koaza":"","lat":32.454997,"lng":131.644376,"zip":"8830053"},{"town":"亀崎一丁目","koaza":"","lat":32.431199,"lng":131.630184,"zip":"8830066"},{"town":"亀崎二丁目","koaza":"","lat":32.433243,"lng":131.628979,"zip":"8830066"},{"town":"亀崎三丁目","koaza":"","lat":32.434449,"lng":131.631992,"zip":"8830066"},{"town":"亀崎四丁目","koaza":"","lat":32.433,"lng":131.633283,"zip":"8830066"},{"town":"亀崎西一丁目","koaza":"","lat":32.436846,"lng":131.627788,"zip":"8830068"},{"town":"亀崎西二丁目","koaza":"","lat":32.436839,"lng":131.629963,"zip":"8830068"},{"town":"亀崎東一丁目","koaza":"","lat":32.4349,"lng":131.637554,"zip":"8830067"},{"town":"亀崎東二丁目","koaza":"","lat":32.435059,"lng":131.635588,"zip":"8830067"},{"town":"亀崎東三丁目","koaza":"","lat":32.436359,"lng":131.634109,"zip":"8830067"},{"town":"亀崎東四丁目","koaza":"","lat":32.438318,"lng":131.637872,"zip":"8830067"},{"town":"亀崎東五丁目","koaza":"","lat":32.440063,"lng":131.641112,"zip":"8830067"},{"town":"北町","koaza":"","lat":32.429316,"lng":131.625214,"zip":"8830041"},{"town":"北町一丁目","koaza":"","lat":32.429335,"lng":131.626832,"zip":"8830041"},{"town":"北町二丁目","koaza":"","lat":32.432265,"lng":131.626577,"zip":"8830041"},{"town":"北町三丁目","koaza":"","lat":32.43485,"lng":131.626863,"zip":"8830041"},{"town":"迎洋園一丁目","koaza":"","lat":32.434451,"lng":131.625581,"zip":"8830038"},{"town":"迎洋園二丁目","koaza":"","lat":32.434242,"lng":131.624336,"zip":"8830038"},{"town":"新生町一丁目","koaza":"","lat":32.42045,"lng":131.632589,"zip":"8830013"},{"town":"新生町二丁目","koaza":"","lat":32.420643,"lng":131.635309,"zip":"8830013"},{"town":"曽根町一丁目","koaza":"","lat":32.422098,"lng":131.644271,"zip":"8830011"},{"town":"曽根町二丁目","koaza":"","lat":32.422455,"lng":131.646567,"zip":"8830011"},{"town":"曽根町三丁目","koaza":"","lat":32.422961,"lng":131.64863,"zip":"8830011"},{"town":"曽根町四丁目","koaza":"","lat":32.422626,"lng":131.652921,"zip":"8830011"},{"town":"大王町一丁目","koaza":"","lat":32.442393,"lng":131.629266,"zip":"8830061"},{"town":"大王町二丁目","koaza":"","lat":32.447615,"lng":131.635001,"zip":"8830061"},{"town":"大王町三丁目","koaza":"","lat":32.443522,"lng":131.631443,"zip":"8830061"},{"town":"大王町四丁目","koaza":"","lat":32.443121,"lng":131.632833,"zip":"8830061"},{"town":"大王町五丁目","koaza":"","lat":32.439945,"lng":131.631111,"zip":"8830061"},{"town":"大王町六丁目","koaza":"","lat":32.439019,"lng":131.630396,"zip":"8830061"},{"town":"高砂町","koaza":"","lat":32.420374,"lng":131.629205,"zip":"8830042"},{"town":"竹島町","koaza":"","lat":32.44035,"lng":131.65808,"zip":"8830063"},{"town":"鶴町一丁目","koaza":"","lat":32.426423,"lng":131.628813,"zip":"8830052"},{"town":"鶴町二丁目","koaza":"","lat":32.426529,"lng":131.631184,"zip":"8830052"},{"town":"鶴町三丁目","koaza":"","lat":32.426665,"lng":131.633974,"zip":"8830052"},{"town":"東郷町下三ケ","koaza":"","lat":32.348514,"lng":131.387709,"zip":"8830213"},{"town":"東郷町坪谷","koaza":"","lat":32.348663,"lng":131.448727,"zip":"8830211"},{"town":"東郷町山陰乙","koaza":"","lat":32.377979,"lng":131.55255,"zip":"8891101"},{"town":"東郷町山陰己","koaza":"","lat":32.390316,"lng":131.482901,"zip":"8830105"},{"town":"東郷町山陰庚","koaza":"","lat":32.434269,"lng":131.514925,"zip":"8830107"},{"town":"東郷町山陰甲","koaza":"","lat":32.316415,"lng":131.501824,"zip":"8891121"},{"town":"東郷町山陰辛","koaza":"","lat":32.399194,"lng":131.510211,"zip":"8830106"},{"town":"東郷町山陰丁","koaza":"","lat":32.371664,"lng":131.512808,"zip":"8830109"},{"town":"東郷町山陰丙","koaza":"","lat":32.400689,"lng":131.534784,"zip":"8830102"},{"town":"東郷町山陰戊","koaza":"","lat":32.370066,"lng":131.477308,"zip":"8830104"},{"town":"永江町一丁目","koaza":"","lat":32.425877,"lng":131.638711,"zip":"8830015"},{"town":"永江町二丁目","koaza":"","lat":32.42381,"lng":131.637894,"zip":"8830015"},{"town":"永江町三丁目","koaza":"","lat":32.424264,"lng":131.640544,"zip":"8830015"},{"town":"中堀町一丁目","koaza":"","lat":32.420301,"lng":131.649495,"zip":"8830005"},{"town":"中堀町二丁目","koaza":"","lat":32.417991,"lng":131.649777,"zip":"8830005"},{"town":"中堀町三丁目","koaza":"","lat":32.417038,"lng":131.651011,"zip":"8830005"},{"town":"中町","koaza":"","lat":32.420679,"lng":131.625981,"zip":"8830046"},{"town":"浜町一丁目","koaza":"","lat":32.419562,"lng":131.646508,"zip":"8830004"},{"town":"浜町二丁目","koaza":"","lat":32.417719,"lng":131.647603,"zip":"8830004"},{"town":"浜町三丁目","koaza":"","lat":32.415745,"lng":131.647915,"zip":"8830004"},{"town":"原町一丁目","koaza":"","lat":32.423114,"lng":131.628827,"zip":"8830014"},{"town":"原町二丁目","koaza":"","lat":32.423009,"lng":131.630662,"zip":"8830014"},{"town":"原町三丁目","koaza":"","lat":32.423069,"lng":131.632872,"zip":"8830014"},{"town":"原町四丁目","koaza":"","lat":32.423314,"lng":131.635224,"zip":"8830014"},{"town":"春原町一丁目","koaza":"","lat":32.422761,"lng":131.621923,"zip":"8830035"},{"town":"春原町二丁目","koaza":"","lat":32.424881,"lng":131.620549,"zip":"8830035"},{"town":"比良町一丁目","koaza":"","lat":32.41479,"lng":131.619004,"zip":"8830031"},{"town":"比良町二丁目","koaza":"","lat":32.413757,"lng":131.622906,"zip":"8830031"},{"town":"比良町三丁目","koaza":"","lat":32.411852,"lng":131.622749,"zip":"8830031"},{"town":"比良町四丁目","koaza":"","lat":32.411905,"lng":131.61941,"zip":"8830031"},{"town":"比良町五丁目","koaza":"","lat":32.413951,"lng":131.616438,"zip":"8830031"},{"town":"平野町一丁目","koaza":"","lat":32.421117,"lng":131.652021,"zip":"8830002"},{"town":"平野町二丁目","koaza":"","lat":32.419431,"lng":131.652189,"zip":"8830002"},{"town":"不動寺","koaza":"","lat":32.438336,"lng":131.626512,"zip":"8830037"},{"town":"船場町","koaza":"","lat":32.444663,"lng":131.650128,"zip":"8830065"},{"town":"本町","koaza":"","lat":32.422697,"lng":131.625622,"zip":"8830045"},{"town":"南町","koaza":"","lat":32.420172,"lng":131.623651,"zip":"8830036"},{"town":"美々津町","koaza":"","lat":32.341302,"lng":131.568976,"zip":"8891111"},{"town":"都町","koaza":"","lat":32.426855,"lng":131.625918,"zip":"8830043"},{"town":"向江町一丁目","koaza":"","lat":32.429248,"lng":131.6306,"zip":"8830051"},{"town":"向江町二丁目","koaza":"","lat":32.430788,"lng":131.63401,"zip":"8830051"},{"town":"山下町一丁目","koaza":"","lat":32.41612,"lng":131.627324,"zip":"8830032"},{"town":"山手町","koaza":"","lat":32.418849,"lng":131.644156,"zip":"8830006"},{"town":"東郷町迫野内","koaza":"","lat":32.432549,"lng":131.497397,"zip":"8830111"},{"town":"東郷町八重原","koaza":"","lat":32.412972,"lng":131.491823,"zip":"8830108"},{"town":"大字塩見","koaza":"小堤","lat":32.407652,"lng":131.604419,"zip":"8830000"},{"town":"大字財光寺","koaza":"枦場","lat":32.417199,"lng":131.629224,"zip":"8830000"},{"town":"大字財光寺","koaza":"中ノ原","lat":32.404916,"lng":131.630251,"zip":"8830000"},{"town":"大字財光寺","koaza":"桃ノ木","lat":32.411774,"lng":131.631193,"zip":"8830000"},{"town":"大字財光寺","koaza":"沖ノ原","lat":32.407677,"lng":131.631999,"zip":"8830000"},{"town":"大字日知屋","koaza":"木原","lat":32.427269,"lng":131.636777,"zip":"8830000"},{"town":"大字日知屋","koaza":"玉田","lat":32.427926,"lng":131.642594,"zip":"8830000"}]