[{"town":"大字嵐田","koaza":"","lat":31.973649,"lng":131.316253,"zip":"8801100"},{"town":"大字伊左生","koaza":"","lat":32.016527,"lng":131.34472,"zip":"8801100"},{"town":"大字岩知野","koaza":"","lat":31.981912,"lng":131.371736,"zip":"8801100"},{"town":"大字木脇","koaza":"","lat":31.994492,"lng":131.365292,"zip":"8801100"},{"town":"大字三名","koaza":"","lat":32.011185,"lng":131.363023,"zip":"8801100"},{"town":"大字須志田","koaza":"","lat":32.015873,"lng":131.281706,"zip":"8801100"},{"town":"大字竹田","koaza":"","lat":31.998043,"lng":131.293298,"zip":"8801100"},{"town":"大字田尻","koaza":"","lat":31.983133,"lng":131.306067,"zip":"8801100"},{"town":"大字塚原","koaza":"","lat":31.978643,"lng":131.364077,"zip":"8801100"},{"town":"大字深年","koaza":"","lat":32.064677,"lng":131.243193,"zip":"8801100"},{"town":"大字本庄","koaza":"","lat":31.997206,"lng":131.330493,"zip":"8801100"},{"town":"大字宮王丸","koaza":"","lat":31.984299,"lng":131.346282,"zip":"8801100"},{"town":"大字向高","koaza":"","lat":31.989364,"lng":131.284605,"zip":"8801100"},{"town":"大字森永","koaza":"","lat":32.005104,"lng":131.285058,"zip":"8801100"},{"town":"大字八代北俣","koaza":"","lat":32.040154,"lng":131.323004,"zip":"8801100"},{"town":"大字八代南俣","koaza":"","lat":32.068844,"lng":131.279566,"zip":"8801100"},{"town":"大字岩知野","koaza":"元江","lat":31.978801,"lng":131.370678,"zip":"8801100"}]