[{"town":"庵川西一丁目","koaza":"","lat":32.485042,"lng":131.668851,"zip":"8890605"},{"town":"庵川西二丁目","koaza":"","lat":32.486885,"lng":131.670331,"zip":"8890605"},{"town":"庵川西三丁目","koaza":"","lat":32.489724,"lng":131.671184,"zip":"8890605"},{"town":"庵川西四丁目","koaza":"","lat":32.484936,"lng":131.672797,"zip":"8890605"},{"town":"庵川西五丁目","koaza":"","lat":32.483296,"lng":131.671204,"zip":"8890605"},{"town":"庵川西六丁目","koaza":"","lat":32.479904,"lng":131.671086,"zip":"8890605"},{"town":"大字庵川","koaza":"","lat":32.484361,"lng":131.695351,"zip":"8890600"},{"town":"大字加草","koaza":"","lat":32.501216,"lng":131.651022,"zip":"8890600"},{"town":"大字門川尾末","koaza":"","lat":32.480825,"lng":131.632633,"zip":"8890600"},{"town":"大字川内","koaza":"","lat":32.492551,"lng":131.570486,"zip":"8890600"},{"town":"加草一丁目","koaza":"","lat":32.48635,"lng":131.66257,"zip":"8890603"},{"town":"加草二丁目","koaza":"","lat":32.492136,"lng":131.663045,"zip":"8890603"},{"town":"加草三丁目","koaza":"","lat":32.491625,"lng":131.663997,"zip":"8890603"},{"town":"加草四丁目","koaza":"","lat":32.486454,"lng":131.664854,"zip":"8890603"},{"town":"加草五丁目","koaza":"","lat":32.483481,"lng":131.663757,"zip":"8890603"},{"town":"上町一丁目","koaza":"","lat":32.465973,"lng":131.647429,"zip":"8890614"},{"town":"上町二丁目","koaza":"","lat":32.465458,"lng":131.645872,"zip":"8890614"},{"town":"上町三丁目","koaza":"","lat":32.466454,"lng":131.645997,"zip":"8890614"},{"town":"上町四丁目","koaza":"","lat":32.467552,"lng":131.647072,"zip":"8890614"},{"town":"上町五丁目","koaza":"","lat":32.469315,"lng":131.647344,"zip":"8890614"},{"town":"上町六丁目","koaza":"","lat":32.468867,"lng":131.648187,"zip":"8890614"},{"town":"栄ケ丘一丁目","koaza":"","lat":32.48072,"lng":131.644733,"zip":"8890615"},{"town":"栄ケ丘二丁目","koaza":"","lat":32.47972,"lng":131.643111,"zip":"8890615"},{"town":"栄ケ丘三丁目","koaza":"","lat":32.478444,"lng":131.640883,"zip":"8890615"},{"town":"城ケ丘","koaza":"","lat":32.476926,"lng":131.647138,"zip":"8890624"},{"town":"須賀崎一丁目","koaza":"","lat":32.487344,"lng":131.666785,"zip":"8890601"},{"town":"須賀崎二丁目","koaza":"","lat":32.488618,"lng":131.667519,"zip":"8890601"},{"town":"須賀崎三丁目","koaza":"","lat":32.493083,"lng":131.664392,"zip":"8890601"},{"town":"須賀崎四丁目","koaza":"","lat":32.490036,"lng":131.668278,"zip":"8890601"},{"town":"須賀崎五丁目","koaza":"","lat":32.491297,"lng":131.66865,"zip":"8890601"},{"town":"中須一丁目","koaza":"","lat":32.467265,"lng":131.649778,"zip":"8890612"},{"town":"中須二丁目","koaza":"","lat":32.466824,"lng":131.648699,"zip":"8890612"},{"town":"中須三丁目","koaza":"","lat":32.468477,"lng":131.649674,"zip":"8890612"},{"town":"中須四丁目","koaza":"","lat":32.469183,"lng":131.650468,"zip":"8890612"},{"town":"中須五丁目","koaza":"","lat":32.470243,"lng":131.650922,"zip":"8890612"},{"town":"西栄町一丁目","koaza":"","lat":32.477077,"lng":131.650144,"zip":"8890622"},{"town":"西栄町二丁目","koaza":"","lat":32.479114,"lng":131.649138,"zip":"8890622"},{"town":"西栄町三丁目","koaza":"","lat":32.480537,"lng":131.649318,"zip":"8890622"},{"town":"西栄町四丁目","koaza":"","lat":32.48036,"lng":131.646213,"zip":"8890622"},{"town":"西栄町五丁目","koaza":"","lat":32.478611,"lng":131.64376,"zip":"8890622"},{"town":"東栄町一丁目","koaza":"","lat":32.474991,"lng":131.651075,"zip":"8890621"},{"town":"東栄町二丁目","koaza":"","lat":32.476881,"lng":131.651998,"zip":"8890621"},{"town":"東栄町三丁目","koaza":"","lat":32.478534,"lng":131.652891,"zip":"8890621"},{"town":"東栄町四丁目","koaza":"","lat":32.480162,"lng":131.653668,"zip":"8890621"},{"town":"平城西","koaza":"","lat":32.475443,"lng":131.643033,"zip":"8890626"},{"town":"平城東","koaza":"","lat":32.47377,"lng":131.644903,"zip":"8890625"},{"town":"本町一丁目","koaza":"","lat":32.470445,"lng":131.649405,"zip":"8890613"},{"town":"本町二丁目","koaza":"","lat":32.470957,"lng":131.649053,"zip":"8890613"},{"town":"南ケ丘一丁目","koaza":"","lat":32.459465,"lng":131.64241,"zip":"8890617"},{"town":"南ケ丘二丁目","koaza":"","lat":32.457895,"lng":131.641871,"zip":"8890617"},{"town":"南町一丁目","koaza":"","lat":32.463223,"lng":131.646978,"zip":"8890616"},{"town":"南町二丁目","koaza":"","lat":32.461594,"lng":131.646922,"zip":"8890616"},{"town":"南町三丁目","koaza":"","lat":32.458979,"lng":131.644994,"zip":"8890616"},{"town":"南町四丁目","koaza":"","lat":32.45932,"lng":131.647524,"zip":"8890616"},{"town":"南町五丁目","koaza":"","lat":32.459555,"lng":131.64942,"zip":"8890616"},{"town":"南町六丁目","koaza":"","lat":32.463518,"lng":131.649964,"zip":"8890616"},{"town":"宮ケ原一丁目","koaza":"","lat":32.482387,"lng":131.649349,"zip":"8890623"},{"town":"宮ケ原二丁目","koaza":"","lat":32.483922,"lng":131.650709,"zip":"8890623"},{"town":"宮ケ原三丁目","koaza":"","lat":32.484358,"lng":131.653038,"zip":"8890623"},{"town":"宮ケ原四丁目","koaza":"","lat":32.482002,"lng":131.652888,"zip":"8890623"},{"town":"宮ケ原五丁目","koaza":"","lat":32.485044,"lng":131.64946,"zip":"8890623"}]