[{"town":"旭一丁目","koaza":"","lat":32.111083,"lng":131.410127,"zip":"8810031"},{"town":"旭二丁目","koaza":"","lat":32.108545,"lng":131.411063,"zip":"8810031"},{"town":"有吉町一丁目","koaza":"","lat":32.107156,"lng":131.406529,"zip":"8810011"},{"town":"有吉町二丁目","koaza":"","lat":32.106751,"lng":131.408537,"zip":"8810011"},{"town":"有吉町三丁目","koaza":"","lat":32.106646,"lng":131.410483,"zip":"8810011"},{"town":"大字荒武","koaza":"","lat":32.040545,"lng":131.369459,"zip":"8810000"},{"town":"大字岩爪","koaza":"","lat":32.042276,"lng":131.381996,"zip":"8810000"},{"town":"大字岡富","koaza":"","lat":32.081084,"lng":131.415268,"zip":"8810000"},{"town":"大字尾八重","koaza":"","lat":32.246176,"lng":131.328615,"zip":"8810000"},{"town":"大字加勢","koaza":"","lat":32.085127,"lng":131.341339,"zip":"8810000"},{"town":"大字片内","koaza":"","lat":32.188662,"lng":131.3237,"zip":"8810000"},{"town":"大字鹿野田","koaza":"","lat":32.071148,"lng":131.388325,"zip":"8810000"},{"town":"大字上揚","koaza":"","lat":32.303963,"lng":131.225897,"zip":"8810000"},{"town":"大字上三財","koaza":"","lat":32.071236,"lng":131.315308,"zip":"8810000"},{"town":"大字清水","koaza":"","lat":32.097444,"lng":131.384693,"zip":"8810000"},{"town":"大字黒生野","koaza":"","lat":32.06575,"lng":131.415121,"zip":"8810000"},{"town":"大字現王島","koaza":"","lat":32.056008,"lng":131.424643,"zip":"8810000"},{"town":"大字寒川","koaza":"","lat":32.121833,"lng":131.253358,"zip":"8810000"},{"town":"大字下三財","koaza":"","lat":32.066707,"lng":131.35098,"zip":"8810000"},{"town":"大字銀鏡","koaza":"","lat":32.28097,"lng":131.264115,"zip":"8810000"},{"town":"大字茶臼原","koaza":"","lat":32.144116,"lng":131.417328,"zip":"8810000"},{"town":"大字調殿","koaza":"","lat":32.118094,"lng":131.411202,"zip":"8810000"},{"town":"大字妻","koaza":"","lat":32.108604,"lng":131.398762,"zip":"8810000"},{"town":"大字童子丸","koaza":"","lat":32.123755,"lng":131.399342,"zip":"8810000"},{"town":"大字藤田","koaza":"","lat":32.073604,"lng":131.3674,"zip":"8810000"},{"town":"大字都於郡町","koaza":"","lat":32.056377,"lng":131.379315,"zip":"8810000"},{"town":"大字中尾","koaza":"","lat":32.234055,"lng":131.284391,"zip":"8810000"},{"town":"大字八重","koaza":"","lat":32.235065,"lng":131.252159,"zip":"8810000"},{"town":"大字平郡","koaza":"","lat":32.092595,"lng":131.355973,"zip":"8810000"},{"town":"大字穂北","koaza":"","lat":32.187663,"lng":131.358302,"zip":"8810000"},{"town":"大字右松","koaza":"","lat":32.10793,"lng":131.420565,"zip":"8810000"},{"town":"大字南方","koaza":"","lat":32.155955,"lng":131.36079,"zip":"8810000"},{"town":"大字三納","koaza":"","lat":32.143109,"lng":131.313935,"zip":"8810000"},{"town":"大字三宅","koaza":"","lat":32.113757,"lng":131.385008,"zip":"8810000"},{"town":"大字山田","koaza":"","lat":32.043299,"lng":131.346778,"zip":"8810000"},{"town":"小野崎一丁目","koaza":"","lat":32.106707,"lng":131.404451,"zip":"8810012"},{"town":"小野崎二丁目","koaza":"","lat":32.104326,"lng":131.405156,"zip":"8810012"},{"town":"上町一丁目","koaza":"","lat":32.112994,"lng":131.406104,"zip":"8810021"},{"town":"上町二丁目","koaza":"","lat":32.115215,"lng":131.405889,"zip":"8810021"},{"town":"桜川町一丁目","koaza":"","lat":32.111303,"lng":131.404739,"zip":"8810022"},{"town":"桜川町二丁目","koaza":"","lat":32.109019,"lng":131.404677,"zip":"8810022"},{"town":"下妻","koaza":"","lat":32.105738,"lng":131.407712,"zip":"8810014"},{"town":"白馬町","koaza":"","lat":32.108636,"lng":131.409665,"zip":"8810032"},{"town":"新町一丁目","koaza":"","lat":32.11806,"lng":131.403736,"zip":"8810006"},{"town":"新町二丁目","koaza":"","lat":32.120189,"lng":131.401891,"zip":"8810006"},{"town":"聖陵町一丁目","koaza":"","lat":32.110491,"lng":131.401776,"zip":"8810015"},{"town":"聖陵町二丁目","koaza":"","lat":32.108335,"lng":131.401056,"zip":"8810015"},{"town":"中央町一丁目","koaza":"","lat":32.108097,"lng":131.406884,"zip":"8810035"},{"town":"中央町二丁目","koaza":"","lat":32.108583,"lng":131.408299,"zip":"8810035"},{"town":"妻町一丁目","koaza":"","lat":32.108936,"lng":131.406043,"zip":"8810034"},{"town":"妻町二丁目","koaza":"","lat":32.110246,"lng":131.40745,"zip":"8810034"},{"town":"妻町三丁目","koaza":"","lat":32.111056,"lng":131.406227,"zip":"8810034"},{"town":"水流崎町","koaza":"","lat":32.110643,"lng":131.408649,"zip":"8810036"},{"town":"中妻一丁目","koaza":"","lat":32.112943,"lng":131.408748,"zip":"8810024"},{"town":"中妻二丁目","koaza":"","lat":32.115192,"lng":131.407916,"zip":"8810024"},{"town":"右松一丁目","koaza":"","lat":32.104048,"lng":131.407775,"zip":"8810003"},{"town":"右松二丁目","koaza":"","lat":32.104478,"lng":131.410196,"zip":"8810003"},{"town":"右松三丁目","koaza":"","lat":32.101881,"lng":131.405896,"zip":"8810003"},{"town":"右松四丁目","koaza":"","lat":32.101674,"lng":131.407811,"zip":"8810003"},{"town":"右松五丁目","koaza":"","lat":32.101813,"lng":131.409979,"zip":"8810003"},{"town":"御舟町一丁目","koaza":"","lat":32.111642,"lng":131.403767,"zip":"8810016"},{"town":"御舟町二丁目","koaza":"","lat":32.108876,"lng":131.403484,"zip":"8810016"},{"town":"大字妻","koaza":"平田","lat":32.10503,"lng":131.399239,"zip":"8810000"},{"town":"大字右松","koaza":"三反田","lat":32.098156,"lng":131.400268,"zip":"8810000"},{"town":"大字右松","koaza":"嶋廻","lat":32.105429,"lng":131.40324,"zip":"8810000"}]