[{"town":"百目木","koaza":"","lat":37.541324,"lng":140.613203,"zip":"9640433"},{"town":"杉沢","koaza":"","lat":37.514564,"lng":140.570473,"zip":"9640302"},{"town":"初森","koaza":"","lat":37.514895,"lng":140.525769,"zip":"9640303"},{"town":"茂原","koaza":"","lat":37.537151,"lng":140.640832,"zip":"9640432"},{"town":"戸沢","koaza":"","lat":37.573642,"lng":140.605152,"zip":"9640201"},{"town":"下長折","koaza":"","lat":37.580757,"lng":140.508524,"zip":"9640316"},{"town":"成田","koaza":"","lat":37.53577,"lng":140.498635,"zip":"9640315"},{"town":"西勝田","koaza":"","lat":37.549402,"lng":140.51783,"zip":"9640314"},{"town":"作","koaza":"","lat":37.568873,"lng":140.492437,"zip":"9640944"},{"town":"明主内","koaza":"","lat":37.574024,"lng":140.495983,"zip":"9640943"},{"town":"大平中井","koaza":"","lat":37.578854,"lng":140.493786,"zip":"9640949"},{"town":"原セ山口","koaza":"","lat":37.582037,"lng":140.379278,"zip":"9640046"},{"town":"苗松","koaza":"","lat":37.563652,"lng":140.364157,"zip":"9640054"},{"town":"三雄山","koaza":"","lat":37.571654,"lng":140.368587,"zip":"9640058"},{"town":"大石ヶ作","koaza":"","lat":37.576681,"lng":140.36852,"zip":"9640000"},{"town":"箕輪三丁目","koaza":"","lat":37.572304,"lng":140.377276,"zip":"9640052"},{"town":"大坂","koaza":"","lat":37.582811,"lng":140.366119,"zip":"9640048"},{"town":"原セ上平","koaza":"","lat":37.58062,"lng":140.37533,"zip":"9640047"},{"town":"田沢","koaza":"","lat":37.564784,"lng":140.651392,"zip":"9640431"},{"town":"長折","koaza":"","lat":37.577046,"lng":140.527452,"zip":"9640311"},{"town":"太田","koaza":"","lat":37.58261,"lng":140.554889,"zip":"9640111"},{"town":"長下","koaza":"","lat":37.588826,"lng":140.500636,"zip":"9640923"},{"town":"小沢","koaza":"","lat":37.621662,"lng":140.48882,"zip":"9691513"},{"town":"下川崎","koaza":"","lat":37.630126,"lng":140.516796,"zip":"9691511"},{"town":"原セ才木","koaza":"","lat":37.588852,"lng":140.374471,"zip":"9640036"},{"town":"原セ仲谷地","koaza":"","lat":37.585481,"lng":140.3808,"zip":"9640049"},{"town":"原セ天ヶ作","koaza":"","lat":37.587394,"lng":140.386491,"zip":"9640000"},{"town":"原セ堰下","koaza":"","lat":37.590393,"lng":140.388754,"zip":"9640034"},{"town":"原セ日照田","koaza":"","lat":37.586123,"lng":140.392488,"zip":"9640041"},{"town":"高平","koaza":"","lat":37.583368,"lng":140.401638,"zip":"9640028"},{"town":"硯石","koaza":"","lat":37.586536,"lng":140.409071,"zip":"9640023"},{"town":"高越松ヶ作","koaza":"","lat":37.584511,"lng":140.414177,"zip":"9640000"},{"town":"成田日向","koaza":"","lat":37.586274,"lng":140.419884,"zip":"9640892"},{"town":"大壇","koaza":"","lat":37.586108,"lng":140.42397,"zip":"9640891"},{"town":"向原","koaza":"","lat":37.585032,"lng":140.426642,"zip":"9640916"},{"town":"金色","koaza":"","lat":37.58664,"lng":140.431144,"zip":"9640915"},{"town":"市海道","koaza":"","lat":37.587663,"lng":140.435246,"zip":"9640914"},{"town":"作田","koaza":"","lat":37.585804,"lng":140.440643,"zip":"9640986"},{"town":"冠木","koaza":"","lat":37.586921,"lng":140.445604,"zip":"9640987"},{"town":"上竹一丁目","koaza":"","lat":37.588358,"lng":140.449409,"zip":"9640912"},{"town":"上竹二丁目","koaza":"","lat":37.587004,"lng":140.452974,"zip":"9640912"},{"town":"平石高田一丁目","koaza":"","lat":37.581693,"lng":140.45834,"zip":"9640981"},{"town":"安達ヶ原二丁目","koaza":"","lat":37.589028,"lng":140.460127,"zip":"9640000"},{"town":"安達ヶ原一丁目","koaza":"","lat":37.587241,"lng":140.463872,"zip":"9640000"},{"town":"諸越谷","koaza":"","lat":37.583495,"lng":140.463734,"zip":"9640936"},{"town":"三合内","koaza":"","lat":37.584385,"lng":140.468325,"zip":"9640934"},{"town":"丑子内","koaza":"","lat":37.588296,"lng":140.470087,"zip":"9640932"},{"town":"西光内","koaza":"","lat":37.585332,"lng":140.473434,"zip":"9640933"},{"town":"上蓬田","koaza":"","lat":37.586444,"lng":140.477108,"zip":"9640926"},{"town":"蓬田","koaza":"","lat":37.589724,"lng":140.48173,"zip":"9640928"},{"town":"浅川","koaza":"","lat":37.58889,"lng":140.487478,"zip":"9640929"},{"town":"谷和子","koaza":"","lat":37.584215,"lng":140.489639,"zip":"9640925"},{"town":"中森","koaza":"","lat":37.588084,"lng":140.490506,"zip":"9640924"},{"town":"上川崎","koaza":"","lat":37.60458,"lng":140.494935,"zip":"9691512"},{"town":"上葉木坂","koaza":"","lat":37.616664,"lng":140.373655,"zip":"9640073"},{"town":"岳東町","koaza":"","lat":37.616604,"lng":140.363331,"zip":"9640072"},{"town":"大根畑","koaza":"","lat":37.629235,"lng":140.377033,"zip":"9640084"},{"town":"沢松倉","koaza":"","lat":37.640296,"lng":140.369403,"zip":"9640088"},{"town":"休石原","koaza":"","lat":37.63459,"lng":140.37802,"zip":"9640083"},{"town":"萩坂","koaza":"","lat":37.607758,"lng":140.372101,"zip":"9640039"},{"town":"立石","koaza":"","lat":37.600507,"lng":140.368411,"zip":"9640038"},{"town":"才木山","koaza":"","lat":37.591847,"lng":140.3707,"zip":"9640063"},{"town":"岳温泉横森","koaza":"","lat":37.586753,"lng":140.358893,"zip":"9640064"},{"town":"小関","koaza":"","lat":37.588799,"lng":140.350745,"zip":"9640065"},{"town":"渋川","koaza":"","lat":37.631459,"lng":140.445689,"zip":"9691403"},{"town":"東新殿","koaza":"","lat":37.533529,"lng":140.595883,"zip":"9640301"},{"town":"西新殿","koaza":"","lat":37.534661,"lng":140.561832,"zip":"9640304"},{"town":"小浜","koaza":"","lat":37.543141,"lng":140.50427,"zip":"9640313"},{"town":"上太田","koaza":"","lat":37.55489,"lng":140.559873,"zip":"9640321"},{"town":"上長折","koaza":"","lat":37.550248,"lng":140.535696,"zip":"9640312"},{"town":"式部内","koaza":"","lat":37.572431,"lng":140.499395,"zip":"9640942"},{"town":"水上","koaza":"","lat":37.580104,"lng":140.500428,"zip":"9640941"},{"town":"大久保一丁目","koaza":"","lat":37.533308,"lng":140.482761,"zip":"9640963"},{"town":"五月町二丁目","koaza":"","lat":37.533563,"lng":140.474327,"zip":"9640964"},{"town":"鈴石東町三丁目","koaza":"","lat":37.546271,"lng":140.486628,"zip":"9640962"},{"town":"大久保二丁目","koaza":"","lat":37.540104,"lng":140.482588,"zip":"9640963"},{"town":"鈴石東町二丁目","koaza":"","lat":37.546006,"lng":140.478309,"zip":"9640962"},{"town":"五月町一丁目","koaza":"","lat":37.535027,"lng":140.468931,"zip":"9640964"},{"town":"芹沢","koaza":"","lat":37.538492,"lng":140.466918,"zip":"9640965"},{"town":"五月町三丁目","koaza":"","lat":37.539893,"lng":140.475229,"zip":"9640964"},{"town":"鈴石東町一丁目","koaza":"","lat":37.548732,"lng":140.480035,"zip":"9640962"},{"town":"昭和町","koaza":"","lat":37.545287,"lng":140.470155,"zip":"9640966"},{"town":"南町","koaza":"","lat":37.542374,"lng":140.459109,"zip":"9640994"},{"town":"田町","koaza":"","lat":37.549104,"lng":140.459565,"zip":"9640993"},{"town":"錦町二丁目","koaza":"","lat":37.546206,"lng":140.452479,"zip":"9640995"},{"town":"菅田","koaza":"","lat":37.550934,"lng":140.430552,"zip":"9640836"},{"town":"瀬ノ上","koaza":"","lat":37.54741,"lng":140.425347,"zip":"9640841"},{"town":"坊主滝","koaza":"","lat":37.541202,"lng":140.419343,"zip":"9640843"},{"town":"在師","koaza":"","lat":37.542712,"lng":140.416618,"zip":"9640844"},{"town":"竹柄","koaza":"","lat":37.542,"lng":140.413846,"zip":"9640845"},{"town":"隠里","koaza":"","lat":37.547491,"lng":140.414972,"zip":"9640842"},{"town":"峠","koaza":"","lat":37.545023,"lng":140.410264,"zip":"9640846"},{"town":"八坂町","koaza":"","lat":37.555377,"lng":140.481838,"zip":"9640961"},{"town":"遠山","koaza":"","lat":37.562035,"lng":140.484868,"zip":"9640945"},{"town":"堀越","koaza":"","lat":37.56484,"lng":140.478281,"zip":"9640946"},{"town":"米五町","koaza":"","lat":37.556991,"lng":140.475574,"zip":"9640971"},{"town":"鈴石町","koaza":"","lat":37.551194,"lng":140.469635,"zip":"9640972"},{"town":"新生町","koaza":"","lat":37.560553,"lng":140.469209,"zip":"9640976"},{"town":"岡ノ内","koaza":"","lat":37.566624,"lng":140.471652,"zip":"9640975"},{"town":"錦町一丁目","koaza":"","lat":37.547688,"lng":140.446446,"zip":"9640995"},{"town":"平石町","koaza":"","lat":37.553992,"lng":140.463123,"zip":"9640973"},{"town":"平石三丁目","koaza":"","lat":37.555878,"lng":140.453127,"zip":"9640992"},{"town":"小高内","koaza":"","lat":37.561493,"lng":140.462416,"zip":"9640974"},{"town":"沖三丁目","koaza":"","lat":37.565996,"lng":140.461762,"zip":"9640955"},{"town":"大町","koaza":"","lat":37.552881,"lng":140.443252,"zip":"9640996"},{"town":"中町","koaza":"","lat":37.561358,"lng":140.453973,"zip":"9640991"},{"town":"江口","koaza":"","lat":37.557355,"lng":140.443254,"zip":"9640997"},{"town":"南トロミ","koaza":"","lat":37.563703,"lng":140.444784,"zip":"9640983"},{"town":"水神","koaza":"","lat":37.554256,"lng":140.434895,"zip":"9640835"},{"town":"十神","koaza":"","lat":37.554332,"lng":140.430632,"zip":"9640834"},{"town":"前田","koaza":"","lat":37.560204,"lng":140.437789,"zip":"9640831"},{"town":"落合","koaza":"","lat":37.559836,"lng":140.434265,"zip":"9640832"},{"town":"杉田仲之内","koaza":"","lat":37.557652,"lng":140.432576,"zip":"9640833"},{"town":"諏訪原","koaza":"","lat":37.562096,"lng":140.433701,"zip":"9640824"},{"town":"岩崎","koaza":"","lat":37.56466,"lng":140.431693,"zip":"9640823"},{"town":"七ツ段","koaza":"","lat":37.556144,"lng":140.427255,"zip":"9640837"},{"town":"借宿","koaza":"","lat":37.559967,"lng":140.429967,"zip":"9640838"},{"town":"下町","koaza":"","lat":37.561645,"lng":140.428371,"zip":"9640825"},{"town":"石ノ花","koaza":"","lat":37.563525,"lng":140.427789,"zip":"9640826"},{"town":"反返","koaza":"","lat":37.566456,"lng":140.428154,"zip":"9640827"},{"town":"片岸","koaza":"","lat":37.565385,"lng":140.425272,"zip":"9640863"},{"town":"向陽台","koaza":"","lat":37.556701,"lng":140.423714,"zip":"9640853"},{"town":"大沢","koaza":"","lat":37.551201,"lng":140.42056,"zip":"9640849"},{"town":"上平内","koaza":"","lat":37.554466,"lng":140.4157,"zip":"9640848"},{"town":"長者宮","koaza":"","lat":37.560723,"lng":140.424313,"zip":"9640852"},{"town":"反田","koaza":"","lat":37.563097,"lng":140.422914,"zip":"9640851"},{"town":"郡山台","koaza":"","lat":37.55764,"lng":140.420798,"zip":"9640854"},{"town":"成上","koaza":"","lat":37.556204,"lng":140.417858,"zip":"9640855"},{"town":"姫子松","koaza":"","lat":37.560017,"lng":140.416805,"zip":"9640858"},{"town":"中江","koaza":"","lat":37.563193,"lng":140.416985,"zip":"9640859"},{"town":"社前","koaza":"","lat":37.566019,"lng":140.419083,"zip":"9640864"},{"town":"薬師","koaza":"","lat":37.552964,"lng":140.411816,"zip":"9640847"},{"town":"西町","koaza":"","lat":37.555087,"lng":140.408751,"zip":"9640856"},{"town":"東町","koaza":"","lat":37.559378,"lng":140.413297,"zip":"9640857"},{"town":"住吉","koaza":"","lat":37.554605,"lng":140.405038,"zip":"9640867"},{"town":"杉田町一丁目","koaza":"","lat":37.562202,"lng":140.410301,"zip":"9640865"},{"town":"杉田町二丁目","koaza":"","lat":37.564945,"lng":140.411517,"zip":"9640865"},{"town":"長命","koaza":"","lat":37.559768,"lng":140.405106,"zip":"9640866"},{"town":"舘野四丁目","koaza":"","lat":37.563735,"lng":140.396032,"zip":"9640868"},{"town":"舘野原","koaza":"","lat":37.565384,"lng":140.393066,"zip":"9640051"},{"town":"箕輪二丁目","koaza":"","lat":37.563818,"lng":140.38402,"zip":"9640052"},{"town":"橋本","koaza":"","lat":37.57635,"lng":140.48968,"zip":"9640948"},{"town":"松林","koaza":"","lat":37.568511,"lng":140.482343,"zip":"9640947"},{"town":"沼ヶ作","koaza":"","lat":37.570476,"lng":140.475635,"zip":"9640000"},{"town":"神明石","koaza":"","lat":37.573656,"lng":140.481069,"zip":"9640952"},{"town":"宮本","koaza":"","lat":37.578197,"lng":140.484138,"zip":"9640951"},{"town":"竹ノ内","koaza":"","lat":37.579294,"lng":140.477561,"zip":"9640958"},{"town":"太子堂","koaza":"","lat":37.579374,"lng":140.473849,"zip":"9640957"},{"town":"沖二丁目","koaza":"","lat":37.57099,"lng":140.462999,"zip":"9640955"},{"town":"大稲場","koaza":"","lat":37.571704,"lng":140.469665,"zip":"9640954"},{"town":"木ノ崎","koaza":"","lat":37.577075,"lng":140.466842,"zip":"9640956"},{"town":"島ノ内","koaza":"","lat":37.580556,"lng":140.470221,"zip":"9640935"},{"town":"沖一丁目","koaza":"","lat":37.569977,"lng":140.456492,"zip":"9640955"},{"town":"赤井沢","koaza":"","lat":37.566907,"lng":140.452206,"zip":"9640982"},{"town":"平石高田三丁目","koaza":"","lat":37.575321,"lng":140.453235,"zip":"9640981"},{"town":"平石高田二丁目","koaza":"","lat":37.578528,"lng":140.456209,"zip":"9640981"},{"town":"北トロミ","koaza":"","lat":37.569855,"lng":140.444522,"zip":"9640984"},{"town":"舟石","koaza":"","lat":37.566967,"lng":140.436899,"zip":"9640822"},{"town":"平石高田四丁目","koaza":"","lat":37.576387,"lng":140.447726,"zip":"9640981"},{"town":"高田","koaza":"","lat":37.582648,"lng":140.448341,"zip":"9640985"},{"town":"宮戸","koaza":"","lat":37.574264,"lng":140.44376,"zip":"9640811"},{"town":"八万舘","koaza":"","lat":37.577492,"lng":140.442734,"zip":"9640803"},{"town":"下平","koaza":"","lat":37.577261,"lng":140.438436,"zip":"9640804"},{"town":"鐙摺石","koaza":"","lat":37.580632,"lng":140.442927,"zip":"9640802"},{"town":"向作田","koaza":"","lat":37.583533,"lng":140.43944,"zip":"9640801"},{"town":"舟形石","koaza":"","lat":37.569519,"lng":140.434607,"zip":"9640821"},{"town":"関","koaza":"","lat":37.572703,"lng":140.440409,"zip":"9640812"},{"town":"袋内","koaza":"","lat":37.568195,"lng":140.431152,"zip":"9640829"},{"town":"新林","koaza":"","lat":37.569702,"lng":140.426162,"zip":"9640828"},{"town":"遠西","koaza":"","lat":37.571732,"lng":140.431185,"zip":"9640814"},{"town":"舟形石山","koaza":"","lat":37.573386,"lng":140.433421,"zip":"9640813"},{"town":"下ノ内","koaza":"","lat":37.577593,"lng":140.434907,"zip":"9640805"},{"town":"唐谷山","koaza":"","lat":37.573717,"lng":140.429022,"zip":"9640815"},{"town":"不動","koaza":"","lat":37.578475,"lng":140.433075,"zip":"9640818"},{"town":"木藤次郎内","koaza":"","lat":37.581583,"lng":140.437034,"zip":"9640808"},{"town":"金色久保","koaza":"","lat":37.584208,"lng":140.434149,"zip":"9640807"},{"town":"高西","koaza":"","lat":37.577859,"lng":140.430256,"zip":"9640817"},{"town":"原田","koaza":"","lat":37.577256,"lng":140.42714,"zip":"9640816"},{"town":"中里","koaza":"","lat":37.577112,"lng":140.424164,"zip":"9640874"},{"town":"羽石","koaza":"","lat":37.582016,"lng":140.42893,"zip":"9640806"},{"town":"西池","koaza":"","lat":37.57242,"lng":140.424279,"zip":"9640861"},{"town":"杉田駄子内","koaza":"","lat":37.569703,"lng":140.4216,"zip":"9640862"},{"town":"大平山","koaza":"","lat":37.570555,"lng":140.416772,"zip":"9640869"},{"town":"槻木","koaza":"","lat":37.576263,"lng":140.420476,"zip":"9640875"},{"town":"東裏","koaza":"","lat":37.580863,"lng":140.42368,"zip":"9640873"},{"town":"新座","koaza":"","lat":37.576016,"lng":140.416873,"zip":"9640882"},{"town":"藤之前","koaza":"","lat":37.578181,"lng":140.415247,"zip":"9640881"},{"town":"藤太郎内","koaza":"","lat":37.584249,"lng":140.418956,"zip":"9640872"},{"town":"正法寺町","koaza":"","lat":37.580697,"lng":140.418617,"zip":"9640876"},{"town":"杉田町三丁目","koaza":"","lat":37.569909,"lng":140.412644,"zip":"9640865"},{"town":"下山田","koaza":"","lat":37.57395,"lng":140.413955,"zip":"9640883"},{"town":"舘野一丁目","koaza":"","lat":37.566651,"lng":140.405915,"zip":"9640868"},{"town":"舘野二丁目","koaza":"","lat":37.568734,"lng":140.400164,"zip":"9640868"},{"town":"大作","koaza":"","lat":37.573404,"lng":140.409818,"zip":"9640884"},{"town":"高越屋戸","koaza":"","lat":37.579594,"lng":140.412262,"zip":"9640885"},{"town":"中山田","koaza":"","lat":37.577927,"lng":140.40745,"zip":"9640026"},{"town":"井戸神","koaza":"","lat":37.581967,"lng":140.412732,"zip":"9640024"},{"town":"屋戸入","koaza":"","lat":37.581955,"lng":140.407734,"zip":"9640025"},{"town":"山田","koaza":"","lat":37.576176,"lng":140.40311,"zip":"9640027"},{"town":"舘野三丁目","koaza":"","lat":37.565836,"lng":140.398654,"zip":"9640868"},{"town":"原セ諏訪","koaza":"","lat":37.575755,"lng":140.397465,"zip":"9640043"},{"town":"原セ上ノ内","koaza":"","lat":37.573698,"lng":140.391839,"zip":"9640044"},{"town":"箕輪一丁目","koaza":"","lat":37.567707,"lng":140.386719,"zip":"9640052"},{"town":"乳母沢","koaza":"","lat":37.566046,"lng":140.377315,"zip":"9640053"},{"town":"原セ笠張","koaza":"","lat":37.575937,"lng":140.384773,"zip":"9640045"},{"town":"原セ大畑","koaza":"","lat":37.579795,"lng":140.389313,"zip":"9640042"},{"town":"雄平台","koaza":"","lat":37.577239,"lng":140.360451,"zip":"9640056"},{"town":"馬場平","koaza":"","lat":37.576538,"lng":140.349949,"zip":"9640055"},{"town":"小セ川","koaza":"","lat":37.593235,"lng":140.513644,"zip":"9640921"},{"town":"島寺","koaza":"","lat":37.590668,"lng":140.504434,"zip":"9640922"},{"town":"針道","koaza":"","lat":37.601955,"lng":140.593531,"zip":"9640202"},{"town":"木幡","koaza":"","lat":37.622133,"lng":140.551407,"zip":"9640203"},{"town":"智恵子の森二丁目","koaza":"","lat":37.59906,"lng":140.455609,"zip":"9691405"},{"town":"智恵子の森五丁目","koaza":"","lat":37.597316,"lng":140.453987,"zip":"9691405"},{"town":"智恵子の森三丁目","koaza":"","lat":37.598216,"lng":140.455737,"zip":"9691405"},{"town":"智恵子の森四丁目","koaza":"","lat":37.598707,"lng":140.453416,"zip":"9691405"},{"town":"智恵子の森一丁目","koaza":"","lat":37.600144,"lng":140.455817,"zip":"9691405"},{"town":"石畑","koaza":"","lat":37.592666,"lng":140.476479,"zip":"9640927"},{"town":"矢ノ戸","koaza":"","lat":37.595693,"lng":140.475494,"zip":"9640931"},{"town":"安達ヶ原五丁目","koaza":"","lat":37.590791,"lng":140.467535,"zip":"9640000"},{"town":"安達ヶ原六丁目","koaza":"","lat":37.593348,"lng":140.469551,"zip":"9640000"},{"town":"安達ヶ原七丁目","koaza":"","lat":37.597411,"lng":140.467729,"zip":"9640000"},{"town":"安達ヶ原三丁目","koaza":"","lat":37.590311,"lng":140.458997,"zip":"9640000"},{"town":"安達ヶ原四丁目","koaza":"","lat":37.595327,"lng":140.464126,"zip":"9640000"},{"town":"茶園一丁目","koaza":"","lat":37.58867,"lng":140.438586,"zip":"9640913"},{"town":"茶園二丁目","koaza":"","lat":37.589085,"lng":140.443287,"zip":"9640913"},{"town":"榎戸二丁目","koaza":"","lat":37.592423,"lng":140.45714,"zip":"9640937"},{"town":"榎戸一丁目","koaza":"","lat":37.593566,"lng":140.450063,"zip":"9640937"},{"town":"亀谷二丁目","koaza":"","lat":37.594043,"lng":140.444965,"zip":"9640911"},{"town":"根崎一丁目","koaza":"","lat":37.597475,"lng":140.448918,"zip":"9640903"},{"town":"根崎二丁目","koaza":"","lat":37.600962,"lng":140.449664,"zip":"9640903"},{"town":"竹田一丁目","koaza":"","lat":37.597986,"lng":140.444164,"zip":"9640902"},{"town":"竹田二丁目","koaza":"","lat":37.60131,"lng":140.445495,"zip":"9640902"},{"town":"本町二丁目","koaza":"","lat":37.590463,"lng":140.436135,"zip":"9640917"},{"town":"若宮二丁目","koaza":"","lat":37.58944,"lng":140.427423,"zip":"9640906"},{"town":"三保内","koaza":"","lat":37.588459,"lng":140.416194,"zip":"9640887"},{"town":"亀谷一丁目","koaza":"","lat":37.593424,"lng":140.440675,"zip":"9640911"},{"town":"郭内一丁目","koaza":"","lat":37.597189,"lng":140.438159,"zip":"9640904"},{"town":"郭内二丁目","koaza":"","lat":37.600708,"lng":140.438165,"zip":"9640904"},{"town":"本町一丁目","koaza":"","lat":37.593199,"lng":140.436332,"zip":"9640917"},{"town":"松岡","koaza":"","lat":37.592015,"lng":140.432403,"zip":"9640905"},{"town":"表一丁目","koaza":"","lat":37.606447,"lng":140.441831,"zip":"9640901"},{"town":"表二丁目","koaza":"","lat":37.607179,"lng":140.434979,"zip":"9640901"},{"town":"若宮一丁目","koaza":"","lat":37.593198,"lng":140.427541,"zip":"9640906"},{"town":"郭内三丁目","koaza":"","lat":37.597542,"lng":140.42919,"zip":"9640904"},{"town":"二伊滝一丁目","koaza":"","lat":37.598935,"lng":140.421991,"zip":"9640003"},{"town":"郭内四丁目","koaza":"","lat":37.601874,"lng":140.43028,"zip":"9640904"},{"town":"成田町一丁目","koaza":"","lat":37.592101,"lng":140.419414,"zip":"9640871"},{"town":"細野","koaza":"","lat":37.606468,"lng":140.428692,"zip":"9640907"},{"town":"永田一丁目","koaza":"","lat":37.590399,"lng":140.408369,"zip":"9640075"},{"town":"二伊滝二丁目","koaza":"","lat":37.602436,"lng":140.418765,"zip":"9640003"},{"town":"伊佐沼町一丁目","koaza":"","lat":37.609263,"lng":140.419908,"zip":"9640004"},{"town":"永田鍛治内","koaza":"","lat":37.595057,"lng":140.41054,"zip":"9640022"},{"town":"永田馬保内","koaza":"","lat":37.597142,"lng":140.409661,"zip":"9640021"},{"town":"成田町二丁目","koaza":"","lat":37.599062,"lng":140.416042,"zip":"9640871"},{"town":"永田才木","koaza":"","lat":37.600192,"lng":140.407143,"zip":"9640011"},{"town":"二伊滝三丁目","koaza":"","lat":37.606692,"lng":140.409838,"zip":"9640003"},{"town":"永田積内","koaza":"","lat":37.60104,"lng":140.400993,"zip":"9640012"},{"town":"永田御堂内","koaza":"","lat":37.603285,"lng":140.403575,"zip":"9640017"},{"town":"永田二丁目","koaza":"","lat":37.593246,"lng":140.402451,"zip":"9640075"},{"town":"永田三丁目","koaza":"","lat":37.590171,"lng":140.397775,"zip":"9640075"},{"town":"永田四丁目","koaza":"","lat":37.594423,"lng":140.394796,"zip":"9640075"},{"town":"永田五丁目","koaza":"","lat":37.598214,"lng":140.393918,"zip":"9640075"},{"town":"大森沢","koaza":"","lat":37.608073,"lng":140.398651,"zip":"9640016"},{"town":"永田六丁目","koaza":"","lat":37.603744,"lng":140.389067,"zip":"9640075"},{"town":"原セ川原","koaza":"","lat":37.593916,"lng":140.383206,"zip":"9640037"},{"town":"毘沙門堂","koaza":"","lat":37.59903,"lng":140.382205,"zip":"9640033"},{"town":"前原","koaza":"","lat":37.60729,"lng":140.390341,"zip":"9640031"},{"town":"毘沙門堂山","koaza":"","lat":37.605111,"lng":140.382329,"zip":"9640032"},{"town":"幸町","koaza":"","lat":37.627505,"lng":140.452195,"zip":"9640893"},{"town":"油井","koaza":"","lat":37.610614,"lng":140.460044,"zip":"9691404"},{"town":"塩沢町一丁目","koaza":"","lat":37.612579,"lng":140.428051,"zip":"9640897"},{"town":"三原町","koaza":"","lat":37.623418,"lng":140.442401,"zip":"9640895"},{"town":"末広町","koaza":"","lat":37.620898,"lng":140.43529,"zip":"9640896"},{"town":"坦子内","koaza":"","lat":37.627056,"lng":140.439436,"zip":"9640894"},{"town":"上原","koaza":"","lat":37.622154,"lng":140.428325,"zip":"9640898"},{"town":"中ノ目","koaza":"","lat":37.621993,"lng":140.421673,"zip":"9640001"},{"town":"塩沢町二丁目","koaza":"","lat":37.614348,"lng":140.417927,"zip":"9640897"},{"town":"伊佐沼町二丁目","koaza":"","lat":37.613956,"lng":140.407206,"zip":"9640004"},{"town":"湯川町","koaza":"","lat":37.619122,"lng":140.412539,"zip":"9640002"},{"town":"古家","koaza":"","lat":37.625534,"lng":140.4089,"zip":"9640007"},{"town":"鉄扇町","koaza":"","lat":37.627313,"lng":140.416856,"zip":"9640008"},{"town":"新田","koaza":"","lat":37.611478,"lng":140.386836,"zip":"9640013"},{"town":"笹屋","koaza":"","lat":37.62764,"lng":140.398907,"zip":"9640005"},{"town":"板目沢","koaza":"","lat":37.618564,"lng":140.393851,"zip":"9640015"},{"town":"二又","koaza":"","lat":37.632831,"lng":140.397373,"zip":"9640006"},{"town":"休石","koaza":"","lat":37.629733,"lng":140.386255,"zip":"9640082"},{"town":"上新田","koaza":"","lat":37.617511,"lng":140.388671,"zip":"9640014"},{"town":"米沢","koaza":"","lat":37.642185,"lng":140.474572,"zip":"9691402"},{"town":"吉倉","koaza":"","lat":37.64209,"lng":140.428901,"zip":"9691401"},{"town":"宮沢","koaza":"","lat":37.637982,"lng":140.383595,"zip":"9640081"},{"town":"岳温泉大和","koaza":"","lat":37.595333,"lng":140.356652,"zip":"9640062"},{"town":"岳温泉西大和","koaza":"","lat":37.597458,"lng":140.346894,"zip":"9640066"},{"town":"岳温泉二丁目","koaza":"","lat":37.602176,"lng":140.358478,"zip":"9640074"},{"town":"岳温泉一丁目","koaza":"","lat":37.606015,"lng":140.356452,"zip":"9640074"},{"town":"岳温泉深堀","koaza":"","lat":37.603655,"lng":140.349883,"zip":"9640061"},{"town":"岳温泉三丁目","koaza":"","lat":37.606629,"lng":140.350371,"zip":"9640074"},{"town":"岳温泉四丁目","koaza":"","lat":37.615594,"lng":140.35441,"zip":"9640074"},{"town":"栄町","koaza":"","lat":37.627659,"lng":140.362214,"zip":"9640071"},{"town":"大関","koaza":"","lat":37.627609,"lng":140.352743,"zip":"9640077"},{"town":"永田","koaza":"","lat":37.619862,"lng":140.330144,"zip":"9640075"},{"town":"不動平","koaza":"","lat":37.637178,"lng":140.3568,"zip":"9640085"},{"town":"木ノ根坂","koaza":"","lat":37.643911,"lng":140.346877,"zip":"9640087"},{"town":"塩沢","koaza":"","lat":37.642445,"lng":140.330254,"zip":"9640086"},{"town":"油井","koaza":"持東林","lat":37.612558,"lng":140.438568,"zip":"9691404"},{"town":"油井","koaza":"油井宿","lat":37.618052,"lng":140.438842,"zip":"9691404"},{"town":"渋川","koaza":"上原","lat":37.619447,"lng":140.440817,"zip":"9691403"},{"town":"油井","koaza":"持東林前","lat":37.611569,"lng":140.43981,"zip":"9691404"},{"town":"油井","koaza":"古川","lat":37.616953,"lng":140.443736,"zip":"9691404"},{"town":"油井","koaza":"谷地中","lat":37.619769,"lng":140.442761,"zip":"9691404"},{"town":"油井","koaza":"作ノ内","lat":37.614422,"lng":140.441695,"zip":"9691404"},{"town":"油井","koaza":"鶴巻","lat":37.605314,"lng":140.444357,"zip":"9691404"},{"town":"油井","koaza":"薬師堂","lat":37.613251,"lng":140.443485,"zip":"9691404"},{"town":"渋川","koaza":"揚山","lat":37.623073,"lng":140.446177,"zip":"9691403"},{"town":"油井","koaza":"宮下","lat":37.609486,"lng":140.446478,"zip":"9691404"},{"town":"油井","koaza":"証拠屋敷","lat":37.604072,"lng":140.447953,"zip":"9691404"},{"town":"油井","koaza":"川原","lat":37.615037,"lng":140.44954,"zip":"9691404"},{"town":"油井","koaza":"東宮下山","lat":37.607256,"lng":140.447868,"zip":"9691404"},{"town":"渋川","koaza":"原新田","lat":37.624436,"lng":140.449819,"zip":"9691403"},{"town":"油井","koaza":"飯出","lat":37.609472,"lng":140.449935,"zip":"9691404"},{"town":"油井","koaza":"入飯出","lat":37.607579,"lng":140.449326,"zip":"9691404"},{"town":"油井","koaza":"梨子木","lat":37.611408,"lng":140.448987,"zip":"9691404"},{"town":"油井","koaza":"作","lat":37.609881,"lng":140.452904,"zip":"9691404"},{"town":"油井","koaza":"荒井樋口","lat":37.598666,"lng":140.452148,"zip":"9691404"},{"town":"油井","koaza":"馬出町","lat":37.600429,"lng":140.453379,"zip":"9691404"},{"town":"油井","koaza":"守子作","lat":37.613634,"lng":140.452561,"zip":"9691404"},{"town":"油井","koaza":"屋戸","lat":37.603897,"lng":140.45362,"zip":"9691404"},{"town":"油井","koaza":"外走石","lat":37.59557,"lng":140.453285,"zip":"9691404"},{"town":"渋川","koaza":"沼前","lat":37.624016,"lng":140.455138,"zip":"9691403"},{"town":"油井","koaza":"石倉","lat":37.617591,"lng":140.455309,"zip":"9691404"},{"town":"油井","koaza":"南小豆田","lat":37.614592,"lng":140.453888,"zip":"9691404"},{"town":"油井","koaza":"漆原町","lat":37.601811,"lng":140.454906,"zip":"9691404"},{"town":"油井","koaza":"長谷堂","lat":37.620759,"lng":140.456326,"zip":"9691404"},{"town":"渋川","koaza":"北柿ノ内","lat":37.634536,"lng":140.456836,"zip":"9691403"},{"town":"油井","koaza":"八軒町","lat":37.602029,"lng":140.458121,"zip":"9691404"},{"town":"渋川","koaza":"下岩崎","lat":37.631285,"lng":140.459286,"zip":"9691403"},{"town":"渋川","koaza":"八介沢","lat":37.638856,"lng":140.459578,"zip":"9691403"},{"town":"油井","koaza":"北小豆田","lat":37.614512,"lng":140.456894,"zip":"9691404"},{"town":"油井","koaza":"勘解由畑","lat":37.616236,"lng":140.457431,"zip":"9691404"},{"town":"油井","koaza":"道光内","lat":37.604272,"lng":140.455802,"zip":"9691404"},{"town":"油井","koaza":"天皇舘腰","lat":37.595493,"lng":140.455029,"zip":"9691404"},{"town":"渋川","koaza":"向坂","lat":37.628351,"lng":140.457694,"zip":"9691403"},{"town":"油井","koaza":"新田町","lat":37.620467,"lng":140.461523,"zip":"9691404"},{"town":"油井","koaza":"台","lat":37.604827,"lng":140.457157,"zip":"9691404"},{"town":"吉倉","koaza":"下古屋","lat":37.64481,"lng":140.459705,"zip":"9691401"},{"town":"油井","koaza":"前作","lat":37.606537,"lng":140.458168,"zip":"9691404"},{"town":"渋川","koaza":"北裡","lat":37.62607,"lng":140.459809,"zip":"9691403"},{"town":"吉倉","koaza":"上古屋","lat":37.643103,"lng":140.458078,"zip":"9691401"},{"town":"渋川","koaza":"椙松","lat":37.63524,"lng":140.457934,"zip":"9691403"},{"town":"渋川","koaza":"二本柳","lat":37.624104,"lng":140.45918,"zip":"9691403"},{"town":"油井","koaza":"供中","lat":37.596875,"lng":140.460667,"zip":"9691404"},{"town":"油井","koaza":"福岡","lat":37.612078,"lng":140.460995,"zip":"9691404"},{"town":"油井","koaza":"道田","lat":37.605597,"lng":140.459434,"zip":"9691404"},{"town":"油井","koaza":"油井町","lat":37.617921,"lng":140.459906,"zip":"9691404"},{"town":"油井","koaza":"秋葉腰","lat":37.602506,"lng":140.459492,"zip":"9691404"},{"town":"油井","koaza":"中田","lat":37.605277,"lng":140.460228,"zip":"9691404"},{"town":"渋川","koaza":"東金成田","lat":37.632289,"lng":140.461435,"zip":"9691403"},{"town":"渋川","koaza":"下柿ノ内","lat":37.633487,"lng":140.459881,"zip":"9691403"},{"town":"渋川","koaza":"上払川","lat":37.632503,"lng":140.463459,"zip":"9691403"},{"town":"油井","koaza":"北向","lat":37.600251,"lng":140.460912,"zip":"9691404"},{"town":"渋川","koaza":"神明森","lat":37.634824,"lng":140.462578,"zip":"9691403"},{"town":"渋川","koaza":"柳下","lat":37.625256,"lng":140.461295,"zip":"9691403"},{"town":"渋川","koaza":"谷地橋","lat":37.623744,"lng":140.462351,"zip":"9691403"},{"town":"渋川","koaza":"大壇","lat":37.628642,"lng":140.46029,"zip":"9691403"},{"town":"油井","koaza":"川口","lat":37.603084,"lng":140.462459,"zip":"9691404"},{"town":"油井","koaza":"砂田","lat":37.60683,"lng":140.462917,"zip":"9691404"},{"town":"油井","koaza":"野辺","lat":37.60432,"lng":140.462151,"zip":"9691404"},{"town":"渋川","koaza":"脇久保","lat":37.634357,"lng":140.463011,"zip":"9691403"},{"town":"渋川","koaza":"向黒","lat":37.635811,"lng":140.462039,"zip":"9691403"},{"town":"油井","koaza":"田向","lat":37.617463,"lng":140.464828,"zip":"9691404"},{"town":"油井","koaza":"片倉","lat":37.619959,"lng":140.463982,"zip":"9691404"},{"town":"米沢","koaza":"大稲場","lat":37.645936,"lng":140.466313,"zip":"9691402"},{"town":"渋川","koaza":"羽山","lat":37.640885,"lng":140.463375,"zip":"9691403"},{"town":"渋川","koaza":"堂返","lat":37.639818,"lng":140.465506,"zip":"9691403"},{"town":"渋川","koaza":"神明","lat":37.635254,"lng":140.464621,"zip":"9691403"},{"town":"油井","koaza":"谷地","lat":37.609837,"lng":140.464777,"zip":"9691404"},{"town":"渋川","koaza":"下払川","lat":37.632336,"lng":140.466333,"zip":"9691403"},{"town":"渋川","koaza":"柴林","lat":37.629447,"lng":140.464242,"zip":"9691403"},{"town":"渋川","koaza":"下黒沼","lat":37.634424,"lng":140.465058,"zip":"9691403"},{"town":"渋川","koaza":"羽黒山","lat":37.637625,"lng":140.466137,"zip":"9691403"},{"town":"渋川","koaza":"宮前","lat":37.630595,"lng":140.467111,"zip":"9691403"},{"town":"米沢","koaza":"六斗蒔","lat":37.64703,"lng":140.465522,"zip":"9691402"},{"town":"油井","koaza":"天月堂","lat":37.61612,"lng":140.466032,"zip":"9691404"},{"town":"油井","koaza":"上中ノ内","lat":37.615319,"lng":140.467264,"zip":"9691404"},{"town":"油井","koaza":"河窪","lat":37.602761,"lng":140.466169,"zip":"9691404"},{"town":"油井","koaza":"界町山","lat":37.617261,"lng":140.465575,"zip":"9691404"},{"town":"油井","koaza":"無知ノ内","lat":37.620333,"lng":140.466122,"zip":"9691404"},{"town":"油井","koaza":"下中ノ内","lat":37.612865,"lng":140.465837,"zip":"9691404"},{"town":"油井","koaza":"一斗内","lat":37.609975,"lng":140.467017,"zip":"9691404"},{"town":"渋川","koaza":"宮久保","lat":37.63083,"lng":140.46633,"zip":"9691403"},{"town":"渋川","koaza":"小壇","lat":37.628063,"lng":140.465795,"zip":"9691403"},{"town":"渋川","koaza":"仲平","lat":37.637522,"lng":140.468723,"zip":"9691403"},{"town":"渋川","koaza":"囲壇","lat":37.623873,"lng":140.466709,"zip":"9691403"},{"town":"油井","koaza":"仁平内","lat":37.607189,"lng":140.46919,"zip":"9691404"},{"town":"油井","koaza":"中條","lat":37.616673,"lng":140.468456,"zip":"9691404"},{"town":"油井","koaza":"松葉","lat":37.610202,"lng":140.469187,"zip":"9691404"},{"town":"渋川","koaza":"舘前","lat":37.631172,"lng":140.469663,"zip":"9691403"},{"town":"油井","koaza":"大森腰","lat":37.61183,"lng":140.469696,"zip":"9691404"},{"town":"米沢","koaza":"根木内","lat":37.646727,"lng":140.470452,"zip":"9691402"},{"town":"油井","koaza":"松葉山","lat":37.609784,"lng":140.470128,"zip":"9691404"},{"town":"渋川","koaza":"後座内","lat":37.628707,"lng":140.472538,"zip":"9691403"},{"town":"油井","koaza":"遠北","lat":37.621603,"lng":140.471357,"zip":"9691404"},{"town":"上川崎","koaza":"藤兵内","lat":37.60318,"lng":140.470497,"zip":"9691512"},{"town":"米沢","koaza":"太師堂","lat":37.637955,"lng":140.473654,"zip":"9691402"},{"town":"渋川","koaza":"栗木内","lat":37.625291,"lng":140.471058,"zip":"9691403"},{"town":"油井","koaza":"硫黄田","lat":37.616317,"lng":140.471169,"zip":"9691404"},{"town":"渋川","koaza":"田子屋","lat":37.634485,"lng":140.47156,"zip":"9691403"},{"town":"渋川","koaza":"大森越","lat":37.613787,"lng":140.472312,"zip":"9691403"},{"town":"油井","koaza":"中北","lat":37.618597,"lng":140.471654,"zip":"9691404"},{"town":"渋川","koaza":"蛇森","lat":37.635251,"lng":140.468366,"zip":"9691403"},{"town":"渋川","koaza":"上田子屋","lat":37.634715,"lng":140.472649,"zip":"9691403"},{"town":"米沢","koaza":"山中","lat":37.643799,"lng":140.472125,"zip":"9691402"},{"town":"油井","koaza":"根柄山","lat":37.607782,"lng":140.471769,"zip":"9691404"},{"town":"渋川","koaza":"大桑田","lat":37.627964,"lng":140.476649,"zip":"9691403"},{"town":"米沢","koaza":"茶畑","lat":37.645725,"lng":140.472546,"zip":"9691402"},{"town":"渋川","koaza":"油王田","lat":37.616004,"lng":140.475983,"zip":"9691403"},{"town":"米沢","koaza":"山中下","lat":37.645339,"lng":140.473221,"zip":"9691402"},{"town":"渋川","koaza":"桑原","lat":37.630952,"lng":140.47322,"zip":"9691403"},{"town":"油井","koaza":"船山","lat":37.620327,"lng":140.474154,"zip":"9691404"},{"town":"渋川","koaza":"才ノ神","lat":37.626383,"lng":140.477472,"zip":"9691403"},{"town":"米沢","koaza":"小林","lat":37.644951,"lng":140.475877,"zip":"9691402"},{"town":"上川崎","koaza":"赤坂","lat":37.608229,"lng":140.474543,"zip":"9691512"},{"town":"渋川","koaza":"舟山","lat":37.62703,"lng":140.480444,"zip":"9691403"},{"town":"渋川","koaza":"木明内","lat":37.631814,"lng":140.476845,"zip":"9691403"},{"town":"米沢","koaza":"川原田","lat":37.638403,"lng":140.478465,"zip":"9691402"},{"town":"米沢","koaza":"名目志","lat":37.642134,"lng":140.476922,"zip":"9691402"},{"town":"米沢","koaza":"羽ノ木田","lat":37.650446,"lng":140.477846,"zip":"9691402"},{"town":"米沢","koaza":"松ノ木内","lat":37.645013,"lng":140.481428,"zip":"9691402"},{"town":"渋川","koaza":"赤木内","lat":37.632199,"lng":140.479349,"zip":"9691403"},{"town":"米沢","koaza":"原向","lat":37.649009,"lng":140.481411,"zip":"9691402"},{"town":"小沢","koaza":"中洞","lat":37.620362,"lng":140.480467,"zip":"9691513"},{"town":"米沢","koaza":"下川原田","lat":37.637002,"lng":140.481045,"zip":"9691402"},{"town":"米沢","koaza":"観音堂","lat":37.649444,"lng":140.482712,"zip":"9691402"},{"town":"小沢","koaza":"柳原","lat":37.631808,"lng":140.482998,"zip":"9691513"},{"town":"下川崎","koaza":"上平","lat":37.635194,"lng":140.483448,"zip":"9691511"},{"town":"小沢","koaza":"原","lat":37.628747,"lng":140.484678,"zip":"9691513"},{"town":"小沢","koaza":"下ノ内","lat":37.630923,"lng":140.491353,"zip":"9691513"},{"town":"西勝田","koaza":"杉内","lat":37.556645,"lng":140.501261,"zip":"9640314"},{"town":"小浜","koaza":"反町","lat":37.551973,"lng":140.50509,"zip":"9640313"},{"town":"西勝田","koaza":"鞍掛","lat":37.56338,"lng":140.503061,"zip":"9640314"},{"town":"西勝田","koaza":"安斎窪","lat":37.571593,"lng":140.50407,"zip":"9640314"},{"town":"下長折","koaza":"除","lat":37.573182,"lng":140.507258,"zip":"9640316"},{"town":"下長折","koaza":"藤","lat":37.583802,"lng":140.505889,"zip":"9640316"},{"town":"小浜","koaza":"新町","lat":37.562156,"lng":140.507777,"zip":"9640313"},{"town":"西勝田","koaza":"山下","lat":37.557534,"lng":140.506529,"zip":"9640314"},{"town":"小浜","koaza":"地堀","lat":37.542727,"lng":140.506513,"zip":"9640313"},{"town":"小浜","koaza":"鳥居町","lat":37.560047,"lng":140.508747,"zip":"9640313"},{"town":"下長折","koaza":"真角","lat":37.579842,"lng":140.510147,"zip":"9640316"},{"town":"西勝田","koaza":"つつじ山","lat":37.555305,"lng":140.510426,"zip":"9640314"},{"town":"小浜","koaza":"芳池","lat":37.555895,"lng":140.513117,"zip":"9640313"},{"town":"下長折","koaza":"前","lat":37.581994,"lng":140.511966,"zip":"9640316"},{"town":"小浜","koaza":"藤町","lat":37.559616,"lng":140.510285,"zip":"9640313"},{"town":"上長折","koaza":"片倉","lat":37.56277,"lng":140.516096,"zip":"9640312"},{"town":"上長折","koaza":"行部内","lat":37.558864,"lng":140.515806,"zip":"9640312"},{"town":"西勝田","koaza":"牛坂","lat":37.551383,"lng":140.515618,"zip":"9640314"},{"town":"上長折","koaza":"滝","lat":37.557893,"lng":140.518286,"zip":"9640312"},{"town":"下長折","koaza":"大柱","lat":37.577531,"lng":140.503763,"zip":"9640316"},{"town":"下長折","koaza":"移川","lat":37.576626,"lng":140.50685,"zip":"9640316"},{"town":"西勝田","koaza":"七合畑","lat":37.568532,"lng":140.501119,"zip":"9640314"},{"town":"西勝田","koaza":"樋ノ口","lat":37.569096,"lng":140.508094,"zip":"9640314"},{"town":"西勝田","koaza":"柏木田","lat":37.566543,"lng":140.504137,"zip":"9640314"},{"town":"西勝田","koaza":"舘ノ越","lat":37.57038,"lng":140.502776,"zip":"9640314"},{"town":"西勝田","koaza":"立坂","lat":37.567427,"lng":140.502376,"zip":"9640314"},{"town":"上長折","koaza":"下舘","lat":37.569188,"lng":140.510998,"zip":"9640312"},{"town":"小浜","koaza":"下舘","lat":37.563087,"lng":140.51342,"zip":"9640313"},{"town":"小浜","koaza":"北月山","lat":37.562155,"lng":140.5093,"zip":"9640313"},{"town":"小浜","koaza":"本町","lat":37.545787,"lng":140.505115,"zip":"9640313"},{"town":"小浜","koaza":"不動滝","lat":37.544036,"lng":140.501961,"zip":"9640313"},{"town":"米沢","koaza":"上米沢","lat":37.642587,"lng":140.475787,"zip":"9691402"},{"town":"米沢","koaza":"羽黒山","lat":37.643909,"lng":140.470538,"zip":"9691402"},{"town":"米沢","koaza":"水落","lat":37.64447,"lng":140.468479,"zip":"9691402"},{"town":"米沢","koaza":"沼下","lat":37.646394,"lng":140.467891,"zip":"9691402"},{"town":"米沢","koaza":"入ノ窪","lat":37.643688,"lng":140.465423,"zip":"9691402"},{"town":"米沢","koaza":"宝徳山","lat":37.642762,"lng":140.46805,"zip":"9691402"},{"town":"渋川","koaza":"羽黒下","lat":37.637078,"lng":140.470271,"zip":"9691403"},{"town":"渋川","koaza":"星地蔵","lat":37.636452,"lng":140.465283,"zip":"9691403"},{"town":"渋川","koaza":"黒沼","lat":37.637611,"lng":140.46359,"zip":"9691403"},{"town":"渋川","koaza":"黒谷地","lat":37.639652,"lng":140.462262,"zip":"9691403"},{"town":"吉倉","koaza":"臼石山","lat":37.645339,"lng":140.461885,"zip":"9691401"},{"town":"渋川","koaza":"石ケ森","lat":37.641307,"lng":140.461264,"zip":"9691403"},{"town":"渋川","koaza":"臼石","lat":37.642094,"lng":140.462621,"zip":"9691403"},{"town":"吉倉","koaza":"諏訪越","lat":37.64149,"lng":140.456291,"zip":"9691401"},{"town":"吉倉","koaza":"日黒","lat":37.639325,"lng":140.456113,"zip":"9691401"},{"town":"吉倉","koaza":"諏訪山","lat":37.642985,"lng":140.457578,"zip":"9691401"},{"town":"吉倉","koaza":"諏訪前","lat":37.644091,"lng":140.457529,"zip":"9691401"},{"town":"渋川","koaza":"取揚","lat":37.636257,"lng":140.456367,"zip":"9691403"},{"town":"渋川","koaza":"栗子森","lat":37.63754,"lng":140.46184,"zip":"9691403"},{"town":"渋川","koaza":"西角","lat":37.633181,"lng":140.468802,"zip":"9691403"},{"town":"渋川","koaza":"五郎兵衛","lat":37.63216,"lng":140.456646,"zip":"9691403"},{"town":"渋川","koaza":"閏井谷地","lat":37.630778,"lng":140.457379,"zip":"9691403"},{"town":"渋川","koaza":"向山","lat":37.627414,"lng":140.462187,"zip":"9691403"},{"town":"渋川","koaza":"下原","lat":37.62542,"lng":140.456238,"zip":"9691403"},{"town":"渋川","koaza":"大黒","lat":37.625104,"lng":140.467242,"zip":"9691403"},{"town":"渋川","koaza":"赤坂","lat":37.625162,"lng":140.465425,"zip":"9691403"},{"town":"渋川","koaza":"新木明内","lat":37.631039,"lng":140.477533,"zip":"9691403"},{"town":"下川崎","koaza":"名目津","lat":37.634273,"lng":140.484847,"zip":"9691511"},{"town":"渋川","koaza":"十文字","lat":37.628389,"lng":140.464191,"zip":"9691403"},{"town":"渋川","koaza":"八人首","lat":37.626507,"lng":140.465022,"zip":"9691403"},{"town":"油井","koaza":"堺ノ町","lat":37.618388,"lng":140.465491,"zip":"9691404"},{"town":"油井","koaza":"戸ノ内","lat":37.6153,"lng":140.463727,"zip":"9691404"},{"town":"油井","koaza":"腰巻","lat":37.615545,"lng":140.459801,"zip":"9691404"},{"town":"油井","koaza":"下谷地","lat":37.616072,"lng":140.461109,"zip":"9691404"},{"town":"上川崎","koaza":"源八坂","lat":37.609675,"lng":140.475218,"zip":"9691512"},{"town":"油井","koaza":"目黒内","lat":37.610333,"lng":140.472714,"zip":"9691404"},{"town":"油井","koaza":"五百田","lat":37.608561,"lng":140.470467,"zip":"9691404"},{"town":"油井","koaza":"大森越山","lat":37.611574,"lng":140.471164,"zip":"9691404"},{"town":"油井","koaza":"柳田","lat":37.6085,"lng":140.464646,"zip":"9691404"},{"town":"油井","koaza":"古屋敷","lat":37.611219,"lng":140.465335,"zip":"9691404"},{"town":"油井","koaza":"背戸谷地","lat":37.612113,"lng":140.463205,"zip":"9691404"},{"town":"油井","koaza":"舟橋","lat":37.609474,"lng":140.462585,"zip":"9691404"},{"town":"油井","koaza":"濡石","lat":37.608292,"lng":140.461378,"zip":"9691404"},{"town":"油井","koaza":"南屋敷","lat":37.602886,"lng":140.452639,"zip":"9691404"},{"town":"油井","koaza":"内走石","lat":37.600045,"lng":140.453957,"zip":"9691404"},{"town":"油井","koaza":"備後山","lat":37.602231,"lng":140.450175,"zip":"9691404"},{"town":"油井","koaza":"寺屋敷","lat":37.604327,"lng":140.450531,"zip":"9691404"},{"town":"油井","koaza":"金谷","lat":37.616522,"lng":140.445837,"zip":"9691404"},{"town":"油井","koaza":"桑原舘山","lat":37.612829,"lng":140.457817,"zip":"9691404"},{"town":"油井","koaza":"柿ノ作","lat":37.611839,"lng":140.45465,"zip":"9691404"},{"town":"油井","koaza":"やくし","lat":37.614505,"lng":140.445508,"zip":"9691404"},{"town":"油井","koaza":"東薬師堂","lat":37.610742,"lng":140.444012,"zip":"9691404"},{"town":"油井","koaza":"四道光内","lat":37.613323,"lng":140.447466,"zip":"9691404"},{"town":"油井","koaza":"根岸","lat":37.611743,"lng":140.433748,"zip":"9691404"},{"town":"油井","koaza":"根岸山","lat":37.613425,"lng":140.430997,"zip":"9691404"},{"town":"米沢","koaza":"沼頭","lat":37.640784,"lng":140.471966,"zip":"9691402"},{"town":"渋川","koaza":"舘","lat":37.63281,"lng":140.470868,"zip":"9691403"},{"town":"油井","koaza":"稲荷岫山","lat":37.617411,"lng":140.463776,"zip":"9691404"},{"town":"油井","koaza":"大窪","lat":37.616504,"lng":140.452812,"zip":"9691404"},{"town":"油井","koaza":"長谷堂山","lat":37.621566,"lng":140.452453,"zip":"9691404"},{"town":"油井","koaza":"堂入山","lat":37.621032,"lng":140.448932,"zip":"9691404"},{"town":"油井","koaza":"飯出山","lat":37.609559,"lng":140.448328,"zip":"9691404"},{"town":"油井","koaza":"四道向内山","lat":37.613998,"lng":140.446437,"zip":"9691404"},{"town":"油井","koaza":"庚申山","lat":37.606493,"lng":140.449077,"zip":"9691404"},{"town":"油井","koaza":"天王田","lat":37.602296,"lng":140.460461,"zip":"9691404"},{"town":"油井","koaza":"台山","lat":37.598827,"lng":140.459187,"zip":"9691404"},{"town":"油井","koaza":"簑掛","lat":37.597164,"lng":140.459158,"zip":"9691404"},{"town":"油井","koaza":"野辺川原","lat":37.604468,"lng":140.466713,"zip":"9691404"},{"town":"油井","koaza":"赤坂","lat":37.605341,"lng":140.467583,"zip":"9691404"},{"town":"油井","koaza":"赤坂山","lat":37.604682,"lng":140.470015,"zip":"9691404"},{"town":"油井","koaza":"石ケ崎山","lat":37.603524,"lng":140.47043,"zip":"9691404"},{"town":"油井","koaza":"大窪山","lat":37.617331,"lng":140.451068,"zip":"9691404"},{"town":"油井","koaza":"天王山","lat":37.617837,"lng":140.447453,"zip":"9691404"},{"town":"吉倉","koaza":"古屋前","lat":37.64298,"lng":140.460178,"zip":"9691401"},{"town":"吉倉","koaza":"広窪","lat":37.64485,"lng":140.460956,"zip":"9691401"},{"town":"成田","koaza":"柏崎","lat":37.529529,"lng":140.4881,"zip":"9640315"},{"town":"成田","koaza":"大木","lat":37.535418,"lng":140.490235,"zip":"9640315"},{"town":"成田","koaza":"越田","lat":37.538568,"lng":140.489724,"zip":"9640315"},{"town":"成田","koaza":"清水","lat":37.531269,"lng":140.493669,"zip":"9640315"},{"town":"成田","koaza":"戸ノ内","lat":37.540515,"lng":140.495941,"zip":"9640315"},{"town":"成田","koaza":"中井","lat":37.531864,"lng":140.497749,"zip":"9640315"},{"town":"下長折","koaza":"荒井","lat":37.583509,"lng":140.498638,"zip":"9640316"},{"town":"西勝田","koaza":"下太池田","lat":37.563962,"lng":140.499131,"zip":"9640314"},{"town":"成田","koaza":"米田","lat":37.540057,"lng":140.500241,"zip":"9640315"},{"town":"成田","koaza":"寺ノ前","lat":37.538419,"lng":140.498236,"zip":"9640315"},{"town":"成田","koaza":"南","lat":37.535525,"lng":140.499331,"zip":"9640315"},{"town":"成田","koaza":"町田","lat":37.527499,"lng":140.506764,"zip":"9640315"},{"town":"成田","koaza":"立石","lat":37.533014,"lng":140.505689,"zip":"9640315"},{"town":"下長折","koaza":"後向","lat":37.585303,"lng":140.510576,"zip":"9640316"},{"town":"下長折","koaza":"桜田","lat":37.587746,"lng":140.508964,"zip":"9640316"},{"town":"西勝田","koaza":"小僧壇","lat":37.555838,"lng":140.496353,"zip":"9640314"},{"town":"小浜","koaza":"古明神","lat":37.548953,"lng":140.502954,"zip":"9640313"},{"town":"小浜","koaza":"成田沢","lat":37.548893,"lng":140.500456,"zip":"9640313"},{"town":"小浜","koaza":"広惣内","lat":37.54061,"lng":140.502589,"zip":"9640313"},{"town":"成田","koaza":"大藤","lat":37.542755,"lng":140.501581,"zip":"9640315"},{"town":"成田","koaza":"梨ノ木","lat":37.543462,"lng":140.489465,"zip":"9640315"},{"town":"下長折","koaza":"越田","lat":37.588633,"lng":140.513884,"zip":"9640316"},{"town":"下長折","koaza":"小瀬川","lat":37.587426,"lng":140.51646,"zip":"9640316"},{"town":"下長折","koaza":"下ノ内","lat":37.583336,"lng":140.514551,"zip":"9640316"},{"town":"成田","koaza":"田畑内","lat":37.535158,"lng":140.495312,"zip":"9640315"},{"town":"油井","koaza":"根岸一丁目","lat":37.614219,"lng":140.432649,"zip":"9691404"}]