[{"town":"大字泉田","koaza":"","lat":37.887465,"lng":140.505805,"zip":"9691700"},{"town":"大字小坂","koaza":"","lat":37.895471,"lng":140.514199,"zip":"9691700"},{"town":"大字貝田","koaza":"","lat":37.908375,"lng":140.571341,"zip":"9691700"},{"town":"新内谷","koaza":"","lat":37.887932,"lng":140.531114,"zip":"9691780"},{"town":"新鳥取","koaza":"","lat":37.889547,"lng":140.527429,"zip":"9691789"},{"town":"小坂南","koaza":"","lat":37.887062,"lng":140.528709,"zip":"9691788"},{"town":"新小坂","koaza":"","lat":37.883964,"lng":140.526863,"zip":"9691787"},{"town":"板橋南","koaza":"","lat":37.874912,"lng":140.536012,"zip":"9691785"},{"town":"新泉田","koaza":"","lat":37.879485,"lng":140.523331,"zip":"9691786"},{"town":"大字川内","koaza":"","lat":37.869889,"lng":140.587413,"zip":"9691700"},{"town":"大字徳江","koaza":"","lat":37.863143,"lng":140.566599,"zip":"9691700"},{"town":"大字塚野目","koaza":"","lat":37.86727,"lng":140.547091,"zip":"9691700"},{"town":"大字藤田","koaza":"","lat":37.875182,"lng":140.548986,"zip":"9691700"},{"town":"大字西大枝","koaza":"","lat":37.876228,"lng":140.583523,"zip":"9691700"},{"town":"大字森山","koaza":"","lat":37.877988,"lng":140.564235,"zip":"9691700"},{"town":"大字大木戸","koaza":"","lat":37.891164,"lng":140.569921,"zip":"9691700"},{"town":"大字山崎","koaza":"","lat":37.881755,"lng":140.544281,"zip":"9691700"},{"town":"大字光明寺","koaza":"","lat":37.897151,"lng":140.58791,"zip":"9691700"},{"town":"大字高城","koaza":"","lat":37.890011,"lng":140.579239,"zip":"9691700"},{"town":"大字石母田","koaza":"","lat":37.896128,"lng":140.554396,"zip":"9691700"},{"town":"大字内谷","koaza":"","lat":37.895356,"lng":140.536674,"zip":"9691700"},{"town":"大字鳥取","koaza":"","lat":37.899312,"lng":140.523906,"zip":"9691700"},{"town":"大字泉田","koaza":"二階平","lat":37.883007,"lng":140.50774,"zip":"9691700"},{"town":"大字泉田","koaza":"新田","lat":37.885925,"lng":140.511363,"zip":"9691700"},{"town":"大字泉田","koaza":"川南","lat":37.883834,"lng":140.517655,"zip":"9691700"},{"town":"大字泉田","koaza":"普蔵","lat":37.880251,"lng":140.517282,"zip":"9691700"},{"town":"大字泉田","koaza":"初量","lat":37.88093,"lng":140.52006,"zip":"9691700"},{"town":"大字泉田","koaza":"川端","lat":37.882481,"lng":140.520878,"zip":"9691700"},{"town":"大字小坂","koaza":"西町裏","lat":37.890596,"lng":140.521078,"zip":"9691700"},{"town":"大字泉田","koaza":"源女","lat":37.88371,"lng":140.52155,"zip":"9691700"},{"town":"大字小坂","koaza":"小坂","lat":37.891049,"lng":140.523118,"zip":"9691700"},{"town":"大字小坂","koaza":"上前田","lat":37.886231,"lng":140.521982,"zip":"9691700"},{"town":"大字小坂","koaza":"カニ坂","lat":37.888633,"lng":140.525402,"zip":"9691700"},{"town":"大字小坂","koaza":"古内","lat":37.886933,"lng":140.522802,"zip":"9691700"},{"town":"大字泉田","koaza":"石田後","lat":37.878661,"lng":140.524439,"zip":"9691700"},{"town":"大字泉田","koaza":"畔田","lat":37.878793,"lng":140.525164,"zip":"9691700"},{"town":"大字泉田","koaza":"足洗","lat":37.881161,"lng":140.526149,"zip":"9691700"},{"town":"大字鳥取","koaza":"高瀬前","lat":37.886777,"lng":140.526802,"zip":"9691700"},{"town":"大字泉田","koaza":"立町","lat":37.880187,"lng":140.526261,"zip":"9691700"},{"town":"大字鳥取","koaza":"宿ノ淀","lat":37.891879,"lng":140.52459,"zip":"9691700"},{"town":"大字泉田","koaza":"寺ノ前","lat":37.879551,"lng":140.526964,"zip":"9691700"},{"town":"大字鳥取","koaza":"高瀬前道下","lat":37.887359,"lng":140.528889,"zip":"9691700"},{"town":"大字小坂","koaza":"前","lat":37.878952,"lng":140.532625,"zip":"9691700"},{"town":"大字鳥取","koaza":"沼田","lat":37.8931,"lng":140.52948,"zip":"9691700"},{"town":"大字内谷","koaza":"小山崎","lat":37.889783,"lng":140.529315,"zip":"9691700"},{"town":"大字泉田","koaza":"八島","lat":37.878262,"lng":140.529138,"zip":"9691700"},{"town":"大字内谷","koaza":"西前","lat":37.891958,"lng":140.53058,"zip":"9691700"},{"town":"大字小坂","koaza":"北畠","lat":37.882187,"lng":140.531781,"zip":"9691700"},{"town":"大字内谷","koaza":"西","lat":37.89326,"lng":140.532317,"zip":"9691700"},{"town":"大字内谷","koaza":"西堂","lat":37.884667,"lng":140.531286,"zip":"9691700"},{"town":"大字内谷","koaza":"矢木沢二","lat":37.895346,"lng":140.53261,"zip":"9691700"},{"town":"大字内谷","koaza":"舘脇","lat":37.892016,"lng":140.533818,"zip":"9691700"},{"town":"大字小坂","koaza":"川原","lat":37.883351,"lng":140.533451,"zip":"9691700"},{"town":"大字泉田","koaza":"馬場前","lat":37.876999,"lng":140.53271,"zip":"9691700"},{"town":"大字小坂","koaza":"塚田","lat":37.878026,"lng":140.535353,"zip":"9691700"},{"town":"大字山崎","koaza":"後柳","lat":37.882782,"lng":140.536288,"zip":"9691700"},{"town":"大字山崎","koaza":"前柳","lat":37.881327,"lng":140.536636,"zip":"9691700"},{"town":"大字内谷","koaza":"花舘","lat":37.895078,"lng":140.539116,"zip":"9691700"},{"town":"大字泉田","koaza":"堰下","lat":37.873341,"lng":140.537603,"zip":"9691700"},{"town":"大字小坂","koaza":"北窪","lat":37.876691,"lng":140.53803,"zip":"9691700"},{"town":"大字内谷","koaza":"三ツ森","lat":37.892146,"lng":140.539764,"zip":"9691700"},{"town":"大字山崎","koaza":"西畑","lat":37.88137,"lng":140.538067,"zip":"9691700"},{"town":"大字山崎","koaza":"火渡","lat":37.882273,"lng":140.539627,"zip":"9691700"},{"town":"大字山崎","koaza":"荒沢","lat":37.884123,"lng":140.541119,"zip":"9691700"},{"town":"大字小坂","koaza":"板橋","lat":37.874942,"lng":140.537059,"zip":"9691700"},{"town":"大字塚野目","koaza":"三本木","lat":37.872501,"lng":140.54074,"zip":"9691700"},{"town":"大字山崎","koaza":"舘","lat":37.881141,"lng":140.538972,"zip":"9691700"},{"town":"大字山崎","koaza":"太子堂","lat":37.876534,"lng":140.54024,"zip":"9691700"},{"town":"大字藤田","koaza":"太子堂","lat":37.874557,"lng":140.53941,"zip":"9691700"},{"town":"大字山崎","koaza":"熊野前","lat":37.878566,"lng":140.541499,"zip":"9691700"},{"town":"大字山崎","koaza":"舘東","lat":37.87968,"lng":140.54156,"zip":"9691700"},{"town":"大字山崎","koaza":"山道","lat":37.88335,"lng":140.541737,"zip":"9691700"},{"town":"大字藤田","koaza":"五反田","lat":37.873933,"lng":140.541701,"zip":"9691700"},{"town":"大字山崎","koaza":"一町田","lat":37.882171,"lng":140.541856,"zip":"9691700"},{"town":"大字塚野目","koaza":"下三本木","lat":37.871624,"lng":140.541617,"zip":"9691700"},{"town":"大字藤田","koaza":"南","lat":37.874436,"lng":140.544249,"zip":"9691700"},{"town":"大字藤田","koaza":"堤下","lat":37.874749,"lng":140.542784,"zip":"9691700"},{"town":"大字山崎","koaza":"深町","lat":37.882006,"lng":140.543068,"zip":"9691700"},{"town":"大字塚野目","koaza":"北寺田","lat":37.871844,"lng":140.542961,"zip":"9691700"},{"town":"大字山崎","koaza":"宮前","lat":37.878007,"lng":140.543576,"zip":"9691700"},{"town":"大字藤田","koaza":"中沢二","lat":37.873062,"lng":140.543363,"zip":"9691700"},{"town":"大字山崎","koaza":"沢田","lat":37.877043,"lng":140.54351,"zip":"9691700"},{"town":"大字山崎","koaza":"寺前","lat":37.88355,"lng":140.543856,"zip":"9691700"},{"town":"大字山崎","koaza":"宮舘","lat":37.8795,"lng":140.544266,"zip":"9691700"},{"town":"大字塚野目","koaza":"堀込","lat":37.869147,"lng":140.54507,"zip":"9691700"},{"town":"大字塚野目","koaza":"小原","lat":37.864068,"lng":140.544175,"zip":"9691700"},{"town":"大字藤田","koaza":"北","lat":37.876266,"lng":140.544823,"zip":"9691700"},{"town":"大字藤田","koaza":"日渡三","lat":37.873088,"lng":140.544536,"zip":"9691700"},{"town":"大字藤田","koaza":"日渡二","lat":37.871433,"lng":140.54532,"zip":"9691700"},{"town":"大字山崎","koaza":"水門","lat":37.885513,"lng":140.54544,"zip":"9691700"},{"town":"大字塚野目","koaza":"北塚","lat":37.865993,"lng":140.545663,"zip":"9691700"},{"town":"大字藤田","koaza":"日渡四","lat":37.874507,"lng":140.545671,"zip":"9691700"},{"town":"大字山崎","koaza":"堂ノ前","lat":37.880174,"lng":140.545691,"zip":"9691700"},{"town":"大字塚野目","koaza":"宮前","lat":37.864551,"lng":140.545463,"zip":"9691700"},{"town":"大字石母田","koaza":"上台","lat":37.888718,"lng":140.547203,"zip":"9691700"},{"town":"大字塚野目","koaza":"金屋","lat":37.864918,"lng":140.547651,"zip":"9691700"},{"town":"大字藤田","koaza":"藤田二","lat":37.874638,"lng":140.547249,"zip":"9691700"},{"town":"大字塚野目","koaza":"中沢","lat":37.869814,"lng":140.547426,"zip":"9691700"},{"town":"大字塚野目","koaza":"羽根通","lat":37.863111,"lng":140.547058,"zip":"9691700"},{"town":"大字石母田","koaza":"大清水","lat":37.887366,"lng":140.546686,"zip":"9691700"},{"town":"大字藤田","koaza":"藤田一","lat":37.875051,"lng":140.546258,"zip":"9691700"},{"town":"大字山崎","koaza":"堰下","lat":37.880728,"lng":140.546939,"zip":"9691700"},{"town":"大字石母田","koaza":"山口","lat":37.89148,"lng":140.547765,"zip":"9691700"},{"town":"大字藤田","koaza":"町裏","lat":37.876119,"lng":140.5467,"zip":"9691700"},{"town":"大字藤田","koaza":"皀林一","lat":37.873194,"lng":140.54745,"zip":"9691700"},{"town":"大字塚野目","koaza":"外畑","lat":37.869108,"lng":140.548539,"zip":"9691700"},{"town":"大字藤田","koaza":"宮前","lat":37.877549,"lng":140.548399,"zip":"9691700"},{"town":"大字塚野目","koaza":"沢","lat":37.865153,"lng":140.548001,"zip":"9691700"},{"town":"大字石母田","koaza":"台","lat":37.888731,"lng":140.549033,"zip":"9691700"},{"town":"大字山崎","koaza":"耕谷","lat":37.880707,"lng":140.549545,"zip":"9691700"},{"town":"大字藤田","koaza":"町尻一","lat":37.878865,"lng":140.548652,"zip":"9691700"},{"town":"大字塚野目","koaza":"正法寺","lat":37.862958,"lng":140.549433,"zip":"9691700"},{"town":"大字山崎","koaza":"小林","lat":37.882333,"lng":140.549002,"zip":"9691700"},{"town":"大字塚野目","koaza":"前畑","lat":37.864767,"lng":140.54987,"zip":"9691700"},{"town":"大字藤田","koaza":"中沢六","lat":37.869251,"lng":140.550345,"zip":"9691700"},{"town":"大字藤田","koaza":"古鹿島","lat":37.879476,"lng":140.549874,"zip":"9691700"},{"town":"大字藤田","koaza":"一丁田二","lat":37.875977,"lng":140.548781,"zip":"9691700"},{"town":"大字石母田","koaza":"細内","lat":37.89058,"lng":140.550037,"zip":"9691700"},{"town":"大字石母田","koaza":"山田","lat":37.898125,"lng":140.549978,"zip":"9691700"},{"town":"大字藤田","koaza":"沢田二","lat":37.878563,"lng":140.550112,"zip":"9691700"},{"town":"大字石母田","koaza":"割田","lat":37.88786,"lng":140.55083,"zip":"9691700"},{"town":"大字山崎","koaza":"南滝山","lat":37.881372,"lng":140.550722,"zip":"9691700"},{"town":"大字石母田","koaza":"蛭沢","lat":37.892636,"lng":140.54959,"zip":"9691700"},{"town":"大字藤田","koaza":"天王畑二","lat":37.880396,"lng":140.5512,"zip":"9691700"},{"town":"大字藤田","koaza":"日向三","lat":37.878069,"lng":140.550776,"zip":"9691700"},{"town":"大字石母田","koaza":"中ノ内","lat":37.893361,"lng":140.549849,"zip":"9691700"},{"town":"大字石母田","koaza":"荒屋敷","lat":37.890984,"lng":140.551408,"zip":"9691700"},{"town":"大字塚野目","koaza":"福田","lat":37.862128,"lng":140.553166,"zip":"9691700"},{"town":"大字徳江","koaza":"仏供田","lat":37.866929,"lng":140.552649,"zip":"9691700"},{"town":"大字藤田","koaza":"荒田","lat":37.876757,"lng":140.552833,"zip":"9691700"},{"town":"大字徳江","koaza":"熊野","lat":37.865334,"lng":140.554784,"zip":"9691700"},{"town":"大字藤田","koaza":"鶉町一","lat":37.871006,"lng":140.55389,"zip":"9691700"},{"town":"大字石母田","koaza":"硯石","lat":37.884228,"lng":140.552479,"zip":"9691700"},{"town":"大字石母田","koaza":"樋口","lat":37.89051,"lng":140.554015,"zip":"9691700"},{"town":"大字藤田","koaza":"滑沢一","lat":37.878167,"lng":140.555138,"zip":"9691700"},{"town":"大字藤田","koaza":"佐ノ田","lat":37.876479,"lng":140.555043,"zip":"9691700"},{"town":"大字森山","koaza":"滝東","lat":37.880754,"lng":140.555763,"zip":"9691700"},{"town":"大字藤田","koaza":"鶉町二","lat":37.870293,"lng":140.555634,"zip":"9691700"},{"town":"大字藤田","koaza":"鶉町三","lat":37.870824,"lng":140.555863,"zip":"9691700"},{"town":"大字藤田","koaza":"鶉町四","lat":37.872334,"lng":140.554881,"zip":"9691700"},{"town":"大字森山","koaza":"上野台","lat":37.882681,"lng":140.55735,"zip":"9691700"},{"town":"大字藤田","koaza":"滑沢二","lat":37.877656,"lng":140.554947,"zip":"9691700"},{"town":"大字徳江","koaza":"前原","lat":37.858338,"lng":140.556333,"zip":"9691700"},{"town":"大字徳江","koaza":"高田","lat":37.865313,"lng":140.55603,"zip":"9691700"},{"town":"大字徳江","koaza":"西","lat":37.862995,"lng":140.558764,"zip":"9691700"},{"town":"大字石母田","koaza":"上野","lat":37.884491,"lng":140.558392,"zip":"9691700"},{"town":"大字森山","koaza":"上鶉町","lat":37.870609,"lng":140.55815,"zip":"9691700"},{"town":"大字石母田","koaza":"築山","lat":37.891197,"lng":140.55844,"zip":"9691700"},{"town":"大字森山","koaza":"沢田","lat":37.874654,"lng":140.558785,"zip":"9691700"},{"town":"大字森山","koaza":"西上野","lat":37.883732,"lng":140.560426,"zip":"9691700"},{"town":"大字石母田","koaza":"深田","lat":37.889592,"lng":140.558466,"zip":"9691700"},{"town":"大字徳江","koaza":"原","lat":37.865942,"lng":140.558693,"zip":"9691700"},{"town":"大字森山","koaza":"宮前","lat":37.879674,"lng":140.559106,"zip":"9691700"},{"town":"大字森山","koaza":"舘西","lat":37.876238,"lng":140.560884,"zip":"9691700"},{"town":"大字石母田","koaza":"弁天沢","lat":37.889793,"lng":140.560882,"zip":"9691700"},{"town":"大字徳江","koaza":"佐野台","lat":37.862227,"lng":140.559757,"zip":"9691700"},{"town":"大字徳江","koaza":"北畑","lat":37.864321,"lng":140.560193,"zip":"9691700"},{"town":"大字森山","koaza":"南上野","lat":37.881521,"lng":140.561267,"zip":"9691700"},{"town":"大字森山","koaza":"沼頭","lat":37.870588,"lng":140.560488,"zip":"9691700"},{"town":"大字徳江","koaza":"雷神前","lat":37.86166,"lng":140.559787,"zip":"9691700"},{"town":"大字徳江","koaza":"沢田","lat":37.867123,"lng":140.561785,"zip":"9691700"},{"town":"大字森山","koaza":"中上野","lat":37.883765,"lng":140.562635,"zip":"9691700"},{"town":"大字森山","koaza":"下鶉町","lat":37.872022,"lng":140.561473,"zip":"9691700"},{"town":"大字徳江","koaza":"東","lat":37.862764,"lng":140.561418,"zip":"9691700"},{"town":"大字徳江","koaza":"親郷","lat":37.86528,"lng":140.563072,"zip":"9691700"},{"town":"大字徳江","koaza":"神明","lat":37.866089,"lng":140.56272,"zip":"9691700"},{"town":"大字森山","koaza":"峯窪","lat":37.879219,"lng":140.561459,"zip":"9691700"},{"town":"大字石母田","koaza":"笠松","lat":37.889096,"lng":140.561207,"zip":"9691700"},{"town":"大字徳江","koaza":"東原","lat":37.862098,"lng":140.562188,"zip":"9691700"},{"town":"大字森山","koaza":"中町","lat":37.876091,"lng":140.562038,"zip":"9691700"},{"town":"大字石母田","koaza":"国見山下","lat":37.888565,"lng":140.563995,"zip":"9691700"},{"town":"大字森山","koaza":"沖","lat":37.876077,"lng":140.563213,"zip":"9691700"},{"town":"大字森山","koaza":"辻西","lat":37.874842,"lng":140.563424,"zip":"9691700"},{"town":"大字徳江","koaza":"小林","lat":37.86266,"lng":140.563464,"zip":"9691700"},{"town":"大字森山","koaza":"東上野","lat":37.882822,"lng":140.564514,"zip":"9691700"},{"town":"大字森山","koaza":"辻南","lat":37.873665,"lng":140.564386,"zip":"9691700"},{"town":"大字森山","koaza":"壇ノ越","lat":37.872509,"lng":140.564343,"zip":"9691700"},{"town":"大字徳江","koaza":"山神","lat":37.865197,"lng":140.563847,"zip":"9691700"},{"town":"大字石母田","koaza":"国見前","lat":37.887179,"lng":140.563976,"zip":"9691700"},{"town":"大字森山","koaza":"行人壇","lat":37.870087,"lng":140.563225,"zip":"9691700"},{"town":"大字徳江","koaza":"中谷地田","lat":37.868695,"lng":140.564591,"zip":"9691700"},{"town":"大字徳江","koaza":"拾俵橋","lat":37.865743,"lng":140.563959,"zip":"9691700"},{"town":"大字森山","koaza":"西国見","lat":37.885452,"lng":140.56629,"zip":"9691700"},{"town":"大字森山","koaza":"寺前","lat":37.878663,"lng":140.563565,"zip":"9691700"},{"town":"大字徳江","koaza":"二階間々","lat":37.862898,"lng":140.565258,"zip":"9691700"},{"town":"大字徳江","koaza":"下谷地田","lat":37.868631,"lng":140.566686,"zip":"9691700"},{"town":"大字森山","koaza":"下上野","lat":37.88201,"lng":140.566742,"zip":"9691700"},{"town":"大字森山","koaza":"太田川","lat":37.869922,"lng":140.56598,"zip":"9691700"},{"town":"大字徳江","koaza":"団扇","lat":37.865327,"lng":140.566026,"zip":"9691700"},{"town":"大字徳江","koaza":"沼田","lat":37.863194,"lng":140.566395,"zip":"9691700"},{"town":"大字森山","koaza":"街道南","lat":37.873413,"lng":140.5674,"zip":"9691700"},{"town":"大字森山","koaza":"堀ノ内","lat":37.880974,"lng":140.567628,"zip":"9691700"},{"town":"大字森山","koaza":"薬師東","lat":37.88003,"lng":140.565109,"zip":"9691700"},{"town":"大字徳江","koaza":"中ノ内","lat":37.867545,"lng":140.567989,"zip":"9691700"},{"town":"大字徳江","koaza":"舘","lat":37.865172,"lng":140.567698,"zip":"9691700"},{"town":"大字森山","koaza":"辻東","lat":37.872557,"lng":140.567659,"zip":"9691700"},{"town":"大字高城","koaza":"家老","lat":37.902005,"lng":140.568487,"zip":"9691700"},{"town":"大字徳江","koaza":"北小屋","lat":37.868799,"lng":140.568538,"zip":"9691700"},{"town":"大字大木戸","koaza":"幡門場","lat":37.889216,"lng":140.569259,"zip":"9691700"},{"town":"大字徳江","koaza":"稗割","lat":37.859974,"lng":140.569798,"zip":"9691700"},{"town":"大字貝田","koaza":"日照田","lat":37.9033,"lng":140.570472,"zip":"9691700"},{"town":"大字大木戸","koaza":"国見山","lat":37.887861,"lng":140.569364,"zip":"9691700"},{"town":"大字徳江","koaza":"舘ケ崎","lat":37.86827,"lng":140.569706,"zip":"9691700"},{"town":"大字森山","koaza":"唐杉","lat":37.878888,"lng":140.569231,"zip":"9691700"},{"town":"大字徳江","koaza":"下川原","lat":37.864049,"lng":140.569951,"zip":"9691700"},{"town":"大字森山","koaza":"熊ノ前","lat":37.875378,"lng":140.569737,"zip":"9691700"},{"town":"大字森山","koaza":"八斗蒔","lat":37.873961,"lng":140.569992,"zip":"9691700"},{"town":"大字森山","koaza":"東新田","lat":37.870146,"lng":140.570414,"zip":"9691700"},{"town":"大字森山","koaza":"上元木","lat":37.875646,"lng":140.571365,"zip":"9691700"},{"town":"大字高城","koaza":"下家老","lat":37.899893,"lng":140.571151,"zip":"9691700"},{"town":"大字大木戸","koaza":"涌水","lat":37.887383,"lng":140.571598,"zip":"9691700"},{"town":"大字大木戸","koaza":"海道上","lat":37.895872,"lng":140.570056,"zip":"9691700"},{"town":"大字大木戸","koaza":"六角","lat":37.898558,"lng":140.570344,"zip":"9691700"},{"town":"大字大木戸","koaza":"原町","lat":37.89618,"lng":140.572076,"zip":"9691700"},{"town":"大字徳江","koaza":"長舘","lat":37.868417,"lng":140.572399,"zip":"9691700"},{"town":"大字大木戸","koaza":"北久保","lat":37.893989,"lng":140.571461,"zip":"9691700"},{"town":"大字大木戸","koaza":"富士見平","lat":37.888739,"lng":140.570872,"zip":"9691700"},{"town":"大字大木戸","koaza":"赤穂","lat":37.879079,"lng":140.572832,"zip":"9691700"},{"town":"大字大木戸","koaza":"西原","lat":37.880801,"lng":140.57308,"zip":"9691700"},{"town":"大字大木戸","koaza":"遠光原","lat":37.884962,"lng":140.57295,"zip":"9691700"},{"town":"大字森山","koaza":"姥懐","lat":37.870043,"lng":140.573188,"zip":"9691700"},{"town":"大字貝田","koaza":"石畑","lat":37.901833,"lng":140.572483,"zip":"9691700"},{"town":"大字大木戸","koaza":"高橋","lat":37.875576,"lng":140.573159,"zip":"9691700"},{"town":"大字森山","koaza":"東元木","lat":37.872151,"lng":140.573568,"zip":"9691700"},{"town":"大字貝田","koaza":"林","lat":37.905158,"lng":140.573632,"zip":"9691700"},{"town":"大字高城","koaza":"中山","lat":37.895177,"lng":140.574337,"zip":"9691700"},{"town":"大字大木戸","koaza":"五反田","lat":37.881844,"lng":140.574252,"zip":"9691700"},{"town":"大字大木戸","koaza":"大橋","lat":37.874448,"lng":140.574313,"zip":"9691700"},{"town":"大字大木戸","koaza":"岩塚","lat":37.889617,"lng":140.57627,"zip":"9691700"},{"town":"大字高城","koaza":"原","lat":37.896739,"lng":140.574921,"zip":"9691700"},{"town":"大字大木戸","koaza":"中橋","lat":37.876479,"lng":140.574242,"zip":"9691700"},{"town":"大字大木戸","koaza":"中穂","lat":37.878218,"lng":140.57439,"zip":"9691700"},{"town":"大字大木戸","koaza":"宮原","lat":37.887412,"lng":140.575733,"zip":"9691700"},{"town":"大字貝田","koaza":"平太郎沢","lat":37.906131,"lng":140.575018,"zip":"9691700"},{"town":"大字大木戸","koaza":"前","lat":37.878895,"lng":140.574669,"zip":"9691700"},{"town":"大字大木戸","koaza":"熊久根","lat":37.883114,"lng":140.575276,"zip":"9691700"},{"town":"大字大木戸","koaza":"正光寺","lat":37.881697,"lng":140.575612,"zip":"9691700"},{"town":"大字大木戸","koaza":"舘","lat":37.880513,"lng":140.575933,"zip":"9691700"},{"town":"大字貝田","koaza":"山ノ神前","lat":37.904462,"lng":140.576279,"zip":"9691700"},{"town":"大字大木戸","koaza":"孝徳","lat":37.882991,"lng":140.57634,"zip":"9691700"},{"town":"大字高城","koaza":"宮下","lat":37.891579,"lng":140.576756,"zip":"9691700"},{"town":"大字大木戸","koaza":"河原","lat":37.885365,"lng":140.576549,"zip":"9691700"},{"town":"大字西大枝","koaza":"石田","lat":37.870255,"lng":140.577371,"zip":"9691700"},{"town":"大字高城","koaza":"柴崎","lat":37.893648,"lng":140.576806,"zip":"9691700"},{"town":"大字高城","koaza":"西原","lat":37.887592,"lng":140.577156,"zip":"9691700"},{"town":"大字貝田","koaza":"山口","lat":37.907424,"lng":140.577582,"zip":"9691700"},{"town":"大字高城","koaza":"北原","lat":37.888679,"lng":140.577602,"zip":"9691700"},{"town":"大字貝田","koaza":"神ノ前","lat":37.906966,"lng":140.57864,"zip":"9691700"},{"town":"大字高城","koaza":"山居","lat":37.891596,"lng":140.579369,"zip":"9691700"},{"town":"大字西大枝","koaza":"原鍛治","lat":37.872967,"lng":140.578721,"zip":"9691700"},{"town":"大字貝田","koaza":"中ノ町","lat":37.90507,"lng":140.579254,"zip":"9691700"},{"town":"大字貝田","koaza":"切内","lat":37.904247,"lng":140.578974,"zip":"9691700"},{"town":"大字西大枝","koaza":"築舘","lat":37.873217,"lng":140.582342,"zip":"9691700"},{"town":"大字高城","koaza":"前","lat":37.884974,"lng":140.57788,"zip":"9691700"},{"town":"大字貝田","koaza":"大師","lat":37.906095,"lng":140.579699,"zip":"9691700"},{"town":"大字高城","koaza":"北","lat":37.886435,"lng":140.57981,"zip":"9691700"},{"town":"大字西大枝","koaza":"牛沢前","lat":37.875066,"lng":140.580422,"zip":"9691700"},{"town":"大字高城","koaza":"蓬田","lat":37.885001,"lng":140.58099,"zip":"9691700"},{"town":"大字高城","koaza":"川崎","lat":37.883614,"lng":140.580997,"zip":"9691700"},{"town":"大字高城","koaza":"弘前","lat":37.88696,"lng":140.581038,"zip":"9691700"},{"town":"大字西大枝","koaza":"水雲","lat":37.874837,"lng":140.581824,"zip":"9691700"},{"town":"大字高城","koaza":"石田","lat":37.889262,"lng":140.580247,"zip":"9691700"},{"town":"大字貝田","koaza":"滝山","lat":37.896911,"lng":140.581936,"zip":"9691700"},{"town":"大字貝田","koaza":"畑中","lat":37.906147,"lng":140.582005,"zip":"9691700"},{"town":"大字高城","koaza":"田中","lat":37.885756,"lng":140.583133,"zip":"9691700"},{"town":"大字西大枝","koaza":"王壇前","lat":37.878027,"lng":140.583157,"zip":"9691700"},{"town":"大字西大枝","koaza":"王壇","lat":37.880067,"lng":140.583108,"zip":"9691700"},{"town":"大字高城","koaza":"旗鉾","lat":37.888815,"lng":140.582622,"zip":"9691700"},{"town":"大字川内","koaza":"新割","lat":37.867958,"lng":140.584001,"zip":"9691700"},{"town":"大字光明寺","koaza":"沖","lat":37.889485,"lng":140.583201,"zip":"9691700"},{"town":"大字西大枝","koaza":"元寺西","lat":37.876568,"lng":140.58343,"zip":"9691700"},{"town":"大字光明寺","koaza":"土井","lat":37.891772,"lng":140.584955,"zip":"9691700"},{"town":"大字西大枝","koaza":"霞沢","lat":37.878179,"lng":140.585464,"zip":"9691700"},{"town":"大字西大枝","koaza":"水口","lat":37.880336,"lng":140.585606,"zip":"9691700"},{"town":"大字西大枝","koaza":"下金谷","lat":37.882868,"lng":140.585516,"zip":"9691700"},{"town":"大字光明寺","koaza":"沼","lat":37.894429,"lng":140.58512,"zip":"9691700"},{"town":"大字西大枝","koaza":"上金谷","lat":37.885443,"lng":140.585726,"zip":"9691700"},{"town":"大字川内","koaza":"柳原","lat":37.872539,"lng":140.584878,"zip":"9691700"},{"town":"大字光明寺","koaza":"山田","lat":37.891956,"lng":140.586903,"zip":"9691700"},{"town":"大字川内","koaza":"沖","lat":37.869633,"lng":140.586717,"zip":"9691700"},{"town":"大字川内","koaza":"小又","lat":37.872503,"lng":140.588128,"zip":"9691700"},{"town":"大字川内","koaza":"北川原","lat":37.873183,"lng":140.586961,"zip":"9691700"},{"town":"大字川内","koaza":"内上","lat":37.870635,"lng":140.587678,"zip":"9691700"},{"town":"大字西大枝","koaza":"尼ケ沢","lat":37.873808,"lng":140.587229,"zip":"9691700"},{"town":"大字西大枝","koaza":"新金谷","lat":37.883566,"lng":140.586755,"zip":"9691700"},{"town":"大字西大枝","koaza":"堤前","lat":37.876552,"lng":140.587566,"zip":"9691700"},{"town":"大字川内","koaza":"六百地","lat":37.868457,"lng":140.587908,"zip":"9691700"},{"town":"大字西大枝","koaza":"京田","lat":37.878133,"lng":140.587288,"zip":"9691700"},{"town":"大字西大枝","koaza":"西","lat":37.890543,"lng":140.588511,"zip":"9691700"},{"town":"大字光明寺","koaza":"西ノ内","lat":37.889225,"lng":140.588351,"zip":"9691700"},{"town":"大字西大枝","koaza":"窪","lat":37.877613,"lng":140.588557,"zip":"9691700"},{"town":"大字川内","koaza":"東","lat":37.869465,"lng":140.588427,"zip":"9691700"},{"town":"大字西大枝","koaza":"上台","lat":37.875115,"lng":140.587137,"zip":"9691700"},{"town":"大字川内","koaza":"三百地","lat":37.871488,"lng":140.588302,"zip":"9691700"},{"town":"大字西大枝","koaza":"竹ノ内","lat":37.875293,"lng":140.589684,"zip":"9691700"},{"town":"大字西大枝","koaza":"根岸","lat":37.889624,"lng":140.590179,"zip":"9691700"},{"town":"大字光明寺","koaza":"油内","lat":37.892996,"lng":140.590765,"zip":"9691700"},{"town":"大字西大枝","koaza":"尾高松","lat":37.888175,"lng":140.591781,"zip":"9691700"},{"town":"大字鳥取","koaza":"堰下","lat":37.893011,"lng":140.522147,"zip":"9691700"},{"town":"大字鳥取","koaza":"山田","lat":37.893182,"lng":140.525566,"zip":"9691700"},{"town":"大字鳥取","koaza":"水無","lat":37.89402,"lng":140.525478,"zip":"9691700"},{"town":"大字鳥取","koaza":"大門","lat":37.892145,"lng":140.528064,"zip":"9691700"},{"town":"大字鳥取","koaza":"深田","lat":37.891061,"lng":140.529382,"zip":"9691700"},{"town":"大字鳥取","koaza":"杉ノ入","lat":37.89142,"lng":140.528777,"zip":"9691700"},{"town":"大字鳥取","koaza":"米田","lat":37.889694,"lng":140.52802,"zip":"9691700"},{"town":"大字鳥取","koaza":"中ノ町","lat":37.890587,"lng":140.526535,"zip":"9691700"},{"town":"大字鳥取","koaza":"葭原","lat":37.888773,"lng":140.527471,"zip":"9691700"},{"town":"大字鳥取","koaza":"中島","lat":37.88838,"lng":140.526464,"zip":"9691700"},{"town":"大字小坂","koaza":"宮五郎内","lat":37.887736,"lng":140.520781,"zip":"9691700"},{"town":"大字泉田","koaza":"平林","lat":37.886232,"lng":140.518494,"zip":"9691700"},{"town":"大字泉田","koaza":"三ツ谷","lat":37.885292,"lng":140.519774,"zip":"9691700"},{"town":"大字泉田","koaza":"虚空蔵上","lat":37.881729,"lng":140.516851,"zip":"9691700"},{"town":"大字泉田","koaza":"沢端","lat":37.876819,"lng":140.52496,"zip":"9691700"},{"town":"大字泉田","koaza":"畔田前","lat":37.877802,"lng":140.527974,"zip":"9691700"},{"town":"大字泉田","koaza":"北ノ内","lat":37.880469,"lng":140.527154,"zip":"9691700"},{"town":"大字小坂","koaza":"木八丁","lat":37.880979,"lng":140.530973,"zip":"9691700"},{"town":"大字泉田","koaza":"道下","lat":37.877573,"lng":140.531884,"zip":"9691700"},{"town":"大字鳥取","koaza":"鳥取","lat":37.893771,"lng":140.526971,"zip":"9691700"},{"town":"大字内谷","koaza":"西脇","lat":37.894435,"lng":140.530697,"zip":"9691700"},{"town":"大字内谷","koaza":"桐目木一","lat":37.895004,"lng":140.531809,"zip":"9691700"},{"town":"大字内谷","koaza":"大橋","lat":37.889345,"lng":140.533383,"zip":"9691700"},{"town":"大字内谷","koaza":"五斗蒔","lat":37.88869,"lng":140.532785,"zip":"9691700"},{"town":"大字鳥取","koaza":"深山","lat":37.885689,"lng":140.528449,"zip":"9691700"},{"town":"大字小坂","koaza":"向川原","lat":37.887384,"lng":140.518317,"zip":"9691700"},{"town":"大字泉田","koaza":"赤坂","lat":37.885785,"lng":140.50858,"zip":"9691700"},{"town":"大字小坂","koaza":"柿木下","lat":37.884396,"lng":140.529848,"zip":"9691700"},{"town":"大字鳥取","koaza":"柿木下","lat":37.885457,"lng":140.530268,"zip":"9691700"},{"town":"大字山崎","koaza":"数田","lat":37.880474,"lng":140.543052,"zip":"9691700"},{"town":"大字山崎","koaza":"北口","lat":37.880328,"lng":140.544301,"zip":"9691700"},{"town":"大字山崎","koaza":"北古舘","lat":37.879134,"lng":140.544589,"zip":"9691700"},{"town":"大字山崎","koaza":"大坂","lat":37.878845,"lng":140.546416,"zip":"9691700"},{"town":"大字藤田","koaza":"町尻二","lat":37.878144,"lng":140.547722,"zip":"9691700"},{"town":"大字藤田","koaza":"沢田一","lat":37.878622,"lng":140.55148,"zip":"9691700"},{"town":"大字藤田","koaza":"一丁田一","lat":37.875946,"lng":140.550237,"zip":"9691700"},{"town":"大字藤田","koaza":"沢田四","lat":37.878802,"lng":140.55332,"zip":"9691700"},{"town":"大字藤田","koaza":"沢田三","lat":37.879735,"lng":140.552432,"zip":"9691700"},{"town":"大字藤田","koaza":"滝川二","lat":37.879194,"lng":140.555087,"zip":"9691700"},{"town":"大字藤田","koaza":"滝川四","lat":37.880881,"lng":140.553543,"zip":"9691700"},{"town":"大字藤田","koaza":"天王畑一","lat":37.881185,"lng":140.552523,"zip":"9691700"},{"town":"大字山崎","koaza":"東滝山","lat":37.882776,"lng":140.55211,"zip":"9691700"},{"town":"大字山崎","koaza":"滝山原","lat":37.883367,"lng":140.55238,"zip":"9691700"},{"town":"大字山崎","koaza":"小林後","lat":37.883555,"lng":140.547746,"zip":"9691700"},{"town":"大字山崎","koaza":"小林西","lat":37.882487,"lng":140.545584,"zip":"9691700"},{"town":"大字山崎","koaza":"上耕谷","lat":37.880082,"lng":140.548156,"zip":"9691700"},{"town":"大字藤田","koaza":"日向一","lat":37.876856,"lng":140.548535,"zip":"9691700"},{"town":"大字藤田","koaza":"一丁田三","lat":37.876473,"lng":140.54815,"zip":"9691700"},{"town":"大字藤田","koaza":"八斗蒔","lat":37.874438,"lng":140.549393,"zip":"9691700"},{"town":"大字藤田","koaza":"大枝道一","lat":37.875352,"lng":140.547481,"zip":"9691700"},{"town":"大字山崎","koaza":"滝山","lat":37.882687,"lng":140.550506,"zip":"9691700"},{"town":"大字内谷","koaza":"清上","lat":37.894503,"lng":140.537109,"zip":"9691700"},{"town":"大字内谷","koaza":"東","lat":37.891087,"lng":140.535896,"zip":"9691700"},{"town":"大字山崎","koaza":"上川前","lat":37.884317,"lng":140.534407,"zip":"9691700"},{"town":"大字山崎","koaza":"中川前","lat":37.885539,"lng":140.535454,"zip":"9691700"},{"town":"大字山崎","koaza":"下川前","lat":37.888322,"lng":140.540868,"zip":"9691700"},{"town":"大字内谷","koaza":"東前","lat":37.889951,"lng":140.53512,"zip":"9691700"},{"town":"大字小坂","koaza":"町田","lat":37.880347,"lng":140.53504,"zip":"9691700"},{"town":"大字小坂","koaza":"梅ノ町","lat":37.879006,"lng":140.536414,"zip":"9691700"},{"town":"大字山崎","koaza":"北町田","lat":37.877998,"lng":140.539565,"zip":"9691700"},{"town":"大字小坂","koaza":"笹ノ口","lat":37.87924,"lng":140.537648,"zip":"9691700"},{"town":"大字山崎","koaza":"中島","lat":37.880088,"lng":140.539044,"zip":"9691700"},{"town":"大字藤田","koaza":"観月台","lat":37.877053,"lng":140.542768,"zip":"9691700"},{"town":"大字山崎","koaza":"小舘","lat":37.876878,"lng":140.541849,"zip":"9691700"},{"town":"大字山崎","koaza":"南古舘","lat":37.877973,"lng":140.545228,"zip":"9691700"},{"town":"大字山崎","koaza":"堰ノ上","lat":37.881514,"lng":140.545936,"zip":"9691700"},{"town":"大字山崎","koaza":"手倉町","lat":37.882382,"lng":140.544345,"zip":"9691700"},{"town":"大字山崎","koaza":"柴崎","lat":37.881345,"lng":140.544534,"zip":"9691700"},{"town":"大字山崎","koaza":"上亀田","lat":37.884112,"lng":140.549551,"zip":"9691700"},{"town":"大字石母田","koaza":"榎下","lat":37.890027,"lng":140.551575,"zip":"9691700"},{"town":"大字石母田","koaza":"四斗蒔","lat":37.89124,"lng":140.553758,"zip":"9691700"},{"town":"大字石母田","koaza":"上ノ山","lat":37.891607,"lng":140.556607,"zip":"9691700"},{"town":"大字石母田","koaza":"横向","lat":37.890141,"lng":140.566227,"zip":"9691700"},{"town":"大字石母田","koaza":"薬師堂","lat":37.890875,"lng":140.559584,"zip":"9691700"},{"town":"大字石母田","koaza":"荒町","lat":37.889033,"lng":140.554784,"zip":"9691700"},{"town":"大字石母田","koaza":"舘ノ内","lat":37.889627,"lng":140.555892,"zip":"9691700"},{"town":"大字石母田","koaza":"下原","lat":37.893471,"lng":140.552231,"zip":"9691700"},{"town":"大字石母田","koaza":"西舘","lat":37.892626,"lng":140.553695,"zip":"9691700"},{"town":"大字石母田","koaza":"駒場","lat":37.893859,"lng":140.553414,"zip":"9691700"},{"town":"大字石母田","koaza":"上原","lat":37.895508,"lng":140.551604,"zip":"9691700"},{"town":"大字石母田","koaza":"盗人返","lat":37.897021,"lng":140.55198,"zip":"9691700"},{"town":"大字石母田","koaza":"芹沢","lat":37.895588,"lng":140.553538,"zip":"9691700"},{"town":"大字石母田","koaza":"藤ノ町","lat":37.887597,"lng":140.552782,"zip":"9691700"},{"town":"大字石母田","koaza":"五反田","lat":37.888614,"lng":140.552787,"zip":"9691700"},{"town":"大字石母田","koaza":"駒場山","lat":37.894843,"lng":140.554832,"zip":"9691700"},{"town":"大字鳥取","koaza":"沼田下","lat":37.892883,"lng":140.527689,"zip":"9691700"},{"town":"大字山崎","koaza":"曲田","lat":37.879692,"lng":140.537057,"zip":"9691700"},{"town":"大字山崎","koaza":"新田山","lat":37.886481,"lng":140.54492,"zip":"9691700"},{"town":"大字山崎","koaza":"山畑","lat":37.885321,"lng":140.54389,"zip":"9691700"},{"town":"大字山崎","koaza":"江下","lat":37.883465,"lng":140.545278,"zip":"9691700"},{"town":"大字藤田","koaza":"日向","lat":37.877714,"lng":140.551219,"zip":"9691700"},{"town":"大字藤田","koaza":"中沢五","lat":37.870879,"lng":140.547017,"zip":"9691700"},{"town":"大字藤田","koaza":"中沢一","lat":37.873262,"lng":140.541269,"zip":"9691700"},{"town":"大字塚野目","koaza":"南寺田","lat":37.870264,"lng":140.544334,"zip":"9691700"},{"town":"大字塚野目","koaza":"堰下","lat":37.866407,"lng":140.543931,"zip":"9691700"},{"town":"大字塚野目","koaza":"山伏塚","lat":37.86535,"lng":140.544187,"zip":"9691700"},{"town":"大字塚野目","koaza":"馬場ノ内","lat":37.864538,"lng":140.55254,"zip":"9691700"},{"town":"大字塚野目","koaza":"林","lat":37.863406,"lng":140.552414,"zip":"9691700"},{"town":"大字徳江","koaza":"反畑","lat":37.860518,"lng":140.557484,"zip":"9691700"},{"town":"大字徳江","koaza":"番匠田","lat":37.867016,"lng":140.555658,"zip":"9691700"},{"town":"大字徳江","koaza":"高橋","lat":37.86301,"lng":140.555931,"zip":"9691700"},{"town":"大字塚野目","koaza":"舘前","lat":37.862372,"lng":140.545843,"zip":"9691700"},{"town":"大字石母田","koaza":"鹿島","lat":37.88615,"lng":140.562266,"zip":"9691700"},{"town":"大字森山","koaza":"上野薬師","lat":37.880587,"lng":140.563501,"zip":"9691700"},{"town":"大字藤田","koaza":"北沖","lat":37.872987,"lng":140.552646,"zip":"9691700"},{"town":"大字藤田","koaza":"南沖二","lat":37.872033,"lng":140.552605,"zip":"9691700"},{"town":"大字藤田","koaza":"三本木一","lat":37.870726,"lng":140.55252,"zip":"9691700"},{"town":"大字森山","koaza":"中ノ目","lat":37.874087,"lng":140.561573,"zip":"9691700"},{"town":"大字森山","koaza":"五反田","lat":37.872967,"lng":140.562015,"zip":"9691700"},{"town":"大字森山","koaza":"別当","lat":37.870612,"lng":140.563918,"zip":"9691700"},{"town":"大字森山","koaza":"壇ノ前","lat":37.871298,"lng":140.566351,"zip":"9691700"},{"town":"大字森山","koaza":"西新田","lat":37.870172,"lng":140.567894,"zip":"9691700"},{"town":"大字徳江","koaza":"破越清水","lat":37.865494,"lng":140.560723,"zip":"9691700"},{"town":"大字大木戸","koaza":"明野原","lat":37.892882,"lng":140.570545,"zip":"9691700"},{"town":"大字大木戸","koaza":"新田山","lat":37.891182,"lng":140.57138,"zip":"9691700"},{"town":"大字大木戸","koaza":"竹ノ花","lat":37.888593,"lng":140.567789,"zip":"9691700"},{"town":"大字森山","koaza":"東国見","lat":37.886866,"lng":140.568227,"zip":"9691700"},{"town":"大字大木戸","koaza":"遠矢崎","lat":37.883116,"lng":140.571309,"zip":"9691700"},{"town":"大字森山","koaza":"中島","lat":37.8817,"lng":140.569793,"zip":"9691700"},{"town":"大字大木戸","koaza":"耕ノ内","lat":37.881391,"lng":140.57156,"zip":"9691700"},{"town":"大字大木戸","koaza":"手代田","lat":37.881463,"lng":140.571236,"zip":"9691700"},{"town":"大字高城","koaza":"広地","lat":37.88764,"lng":140.579688,"zip":"9691700"},{"town":"大字西大枝","koaza":"北谷地","lat":37.877014,"lng":140.581335,"zip":"9691700"},{"town":"大字西大枝","koaza":"原町","lat":37.876359,"lng":140.577766,"zip":"9691700"},{"town":"大字西大枝","koaza":"牛沢","lat":37.877205,"lng":140.579684,"zip":"9691700"},{"town":"大字西大枝","koaza":"中屋敷","lat":37.876297,"lng":140.576718,"zip":"9691700"},{"town":"大字森山","koaza":"西元木","lat":37.871894,"lng":140.571884,"zip":"9691700"},{"town":"大字西大枝","koaza":"古舘","lat":37.87392,"lng":140.583992,"zip":"9691700"},{"town":"大字西大枝","koaza":"熊ノ堂","lat":37.874737,"lng":140.585368,"zip":"9691700"},{"town":"大字西大枝","koaza":"堂ノ前","lat":37.873892,"lng":140.585166,"zip":"9691700"},{"town":"大字西大枝","koaza":"明泉","lat":37.874499,"lng":140.589972,"zip":"9691700"},{"town":"大字川内","koaza":"西","lat":37.87239,"lng":140.58345,"zip":"9691700"},{"town":"大字大木戸","koaza":"新田","lat":37.892201,"lng":140.571506,"zip":"9691700"},{"town":"大字大木戸","koaza":"霞原","lat":37.890223,"lng":140.571436,"zip":"9691700"},{"town":"大字大木戸","koaza":"岩塚山","lat":37.892003,"lng":140.574436,"zip":"9691700"},{"town":"大字大木戸","koaza":"宮原山","lat":37.887736,"lng":140.574482,"zip":"9691700"},{"town":"大字高城","koaza":"南","lat":37.880185,"lng":140.57862,"zip":"9691700"},{"town":"大字高城","koaza":"南畑","lat":37.883078,"lng":140.577948,"zip":"9691700"},{"town":"大字大木戸","koaza":"久保","lat":37.878558,"lng":140.578241,"zip":"9691700"},{"town":"大字大木戸","koaza":"沖田","lat":37.880294,"lng":140.577396,"zip":"9691700"},{"town":"大字西大枝","koaza":"入ノ内前","lat":37.874877,"lng":140.575573,"zip":"9691700"},{"town":"大字西大枝","koaza":"入ノ内","lat":37.875881,"lng":140.57574,"zip":"9691700"},{"town":"大字大木戸","koaza":"馬場","lat":37.87566,"lng":140.575149,"zip":"9691700"},{"town":"大字貝田","koaza":"道下","lat":37.906923,"lng":140.581198,"zip":"9691700"},{"town":"大字貝田","koaza":"松村","lat":37.907144,"lng":140.583722,"zip":"9691700"},{"town":"大字貝田","koaza":"柿場","lat":37.904537,"lng":140.580923,"zip":"9691700"},{"town":"大字貝田","koaza":"寺脇","lat":37.905094,"lng":140.577664,"zip":"9691700"},{"town":"大字貝田","koaza":"熊坂","lat":37.903184,"lng":140.573163,"zip":"9691700"},{"town":"大字貝田","koaza":"立久根","lat":37.904049,"lng":140.575064,"zip":"9691700"},{"town":"大字貝田","koaza":"百枚大沢","lat":37.901481,"lng":140.574286,"zip":"9691700"},{"town":"大字貝田","koaza":"町後","lat":37.902365,"lng":140.575378,"zip":"9691700"},{"town":"大字貝田","koaza":"町裏","lat":37.902978,"lng":140.576699,"zip":"9691700"},{"town":"大字貝田","koaza":"新田山","lat":37.898216,"lng":140.580385,"zip":"9691700"},{"town":"大字光明寺","koaza":"山岸","lat":37.895488,"lng":140.585792,"zip":"9691700"},{"town":"大字光明寺","koaza":"鹿野","lat":37.896392,"lng":140.5844,"zip":"9691700"},{"town":"大字光明寺","koaza":"鹿野山","lat":37.895195,"lng":140.582758,"zip":"9691700"},{"town":"大字光明寺","koaza":"滝沢","lat":37.893561,"lng":140.582368,"zip":"9691700"},{"town":"大字光明寺","koaza":"滝ノ下","lat":37.894052,"lng":140.58367,"zip":"9691700"},{"town":"大字高城","koaza":"古屋敷","lat":37.899116,"lng":140.575795,"zip":"9691700"},{"town":"大字貝田","koaza":"番城内","lat":37.895816,"lng":140.578908,"zip":"9691700"},{"town":"大字光明寺","koaza":"車","lat":37.893247,"lng":140.580667,"zip":"9691700"},{"town":"大字光明寺","koaza":"浜井場","lat":37.893064,"lng":140.582291,"zip":"9691700"},{"town":"大字光明寺","koaza":"志久","lat":37.892075,"lng":140.58341,"zip":"9691700"},{"town":"大字光明寺","koaza":"蔵ノ内","lat":37.890771,"lng":140.583012,"zip":"9691700"},{"town":"大字高城","koaza":"三川","lat":37.890819,"lng":140.580111,"zip":"9691700"},{"town":"大字光明寺","koaza":"運男","lat":37.887451,"lng":140.585346,"zip":"9691700"},{"town":"大字貝田","koaza":"沢中","lat":37.901669,"lng":140.581416,"zip":"9691700"},{"town":"大字光明寺","koaza":"芳沼","lat":37.892428,"lng":140.589085,"zip":"9691700"},{"town":"大字藤田","koaza":"日向二","lat":37.877636,"lng":140.550024,"zip":"9691700"},{"town":"大字藤田","koaza":"天上田","lat":37.880142,"lng":140.552518,"zip":"9691700"},{"town":"大字山崎","koaza":"下亀田","lat":37.883326,"lng":140.550703,"zip":"9691700"},{"town":"大字山崎","koaza":"小林東","lat":37.881695,"lng":140.548857,"zip":"9691700"},{"town":"大字内谷","koaza":"荒田","lat":37.882875,"lng":140.534096,"zip":"9691700"},{"town":"大字泉田","koaza":"堤尻","lat":37.886255,"lng":140.515861,"zip":"9691700"},{"town":"大字泉田","koaza":"川北","lat":37.883926,"lng":140.519396,"zip":"9691700"},{"town":"大字小坂","koaza":"上泉川","lat":37.892066,"lng":140.519778,"zip":"9691700"},{"town":"大字内谷","koaza":"東脇","lat":37.890363,"lng":140.536481,"zip":"9691700"},{"town":"大字内谷","koaza":"舘","lat":37.889717,"lng":140.531905,"zip":"9691700"},{"town":"大字小坂","koaza":"北町裏","lat":37.889299,"lng":140.524502,"zip":"9691700"},{"town":"大字小坂","koaza":"台","lat":37.888479,"lng":140.523028,"zip":"9691700"},{"town":"大字泉田","koaza":"持越","lat":37.886743,"lng":140.515955,"zip":"9691700"},{"town":"大字泉田","koaza":"馬場","lat":37.878389,"lng":140.532272,"zip":"9691700"},{"town":"大字山崎","koaza":"南町田","lat":37.876741,"lng":140.539181,"zip":"9691700"},{"town":"大字藤田","koaza":"中沢三","lat":37.872431,"lng":140.543679,"zip":"9691700"},{"town":"大字藤田","koaza":"三本木三","lat":37.872082,"lng":140.546854,"zip":"9691700"},{"town":"大字徳江","koaza":"久保田","lat":37.864585,"lng":140.558465,"zip":"9691700"},{"town":"大字徳江","koaza":"北久保","lat":37.869716,"lng":140.571062,"zip":"9691700"},{"town":"大字西大枝","koaza":"牛沢道下","lat":37.873689,"lng":140.57957,"zip":"9691700"},{"town":"大字西大枝","koaza":"並柳","lat":37.875455,"lng":140.582989,"zip":"9691700"},{"town":"大字西大枝","koaza":"宮ノ内","lat":37.888232,"lng":140.59085,"zip":"9691700"},{"town":"大字大木戸","koaza":"遠光原山","lat":37.886091,"lng":140.57324,"zip":"9691700"},{"town":"大字森山","koaza":"石戸内","lat":37.883178,"lng":140.566181,"zip":"9691700"},{"town":"大字石母田","koaza":"芳田","lat":37.888169,"lng":140.558155,"zip":"9691700"},{"town":"大字石母田","koaza":"横町","lat":37.889538,"lng":140.556712,"zip":"9691700"},{"town":"大字石母田","koaza":"唐松","lat":37.894943,"lng":140.548761,"zip":"9691700"},{"town":"大字山崎","koaza":"小舘脇","lat":37.879923,"lng":140.543467,"zip":"9691700"},{"town":"大字山崎","koaza":"宮後","lat":37.879799,"lng":140.54365,"zip":"9691700"}]