[{"town":"大字成田","koaza":"","lat":37.844661,"lng":140.493773,"zip":"9691600"},{"town":"大字松原","koaza":"","lat":37.836914,"lng":140.48541,"zip":"9691600"},{"town":"大字上郡","koaza":"","lat":37.84438,"lng":140.532048,"zip":"9691600"},{"town":"字狐崎","koaza":"","lat":37.834861,"lng":140.531823,"zip":"9691600"},{"town":"字砂子沢四","koaza":"","lat":37.837217,"lng":140.529984,"zip":"9691600"},{"town":"字砂子沢三","koaza":"","lat":37.837148,"lng":140.526844,"zip":"9691600"},{"town":"字砂子沢二","koaza":"","lat":37.837087,"lng":140.523994,"zip":"9691600"},{"town":"字落合","koaza":"","lat":37.837937,"lng":140.521301,"zip":"9691600"},{"town":"字杉ノ前","koaza":"","lat":37.837931,"lng":140.518883,"zip":"9691600"},{"town":"字鳥居田","koaza":"","lat":37.836011,"lng":140.515568,"zip":"9691600"},{"town":"字白銀","koaza":"","lat":37.836143,"lng":140.511025,"zip":"9691600"},{"town":"字金原","koaza":"","lat":37.836447,"lng":140.512801,"zip":"9691600"},{"town":"字興福寺","koaza":"","lat":37.835612,"lng":140.509737,"zip":"9691600"},{"town":"大字平沢","koaza":"","lat":37.850881,"lng":140.498021,"zip":"9691600"},{"town":"大字南半田","koaza":"","lat":37.87341,"lng":140.492449,"zip":"9691600"},{"town":"大字北半田","koaza":"","lat":37.88306,"lng":140.49732,"zip":"9691600"},{"town":"字西八串","koaza":"","lat":37.835575,"lng":140.534306,"zip":"9691600"},{"town":"字東八串","koaza":"","lat":37.834851,"lng":140.536267,"zip":"9691600"},{"town":"字下川原","koaza":"","lat":37.831168,"lng":140.533719,"zip":"9691600"},{"town":"字砂子沢五","koaza":"","lat":37.835237,"lng":140.528021,"zip":"9691600"},{"town":"字新川原","koaza":"","lat":37.834225,"lng":140.52186,"zip":"9691600"},{"town":"字砂子沢一","koaza":"","lat":37.834162,"lng":140.524427,"zip":"9691600"},{"town":"字中島","koaza":"","lat":37.832123,"lng":140.512846,"zip":"9691600"},{"town":"字苅又","koaza":"","lat":37.834622,"lng":140.513535,"zip":"9691600"},{"town":"字界","koaza":"","lat":37.829151,"lng":140.509349,"zip":"9691600"},{"town":"字三角","koaza":"","lat":37.830915,"lng":140.511133,"zip":"9691600"},{"town":"字台下","koaza":"","lat":37.833149,"lng":140.510965,"zip":"9691600"},{"town":"字蒲田","koaza":"","lat":37.830383,"lng":140.507631,"zip":"9691600"},{"town":"字赤坂","koaza":"","lat":37.83014,"lng":140.505583,"zip":"9691600"},{"town":"字台","koaza":"","lat":37.833438,"lng":140.509774,"zip":"9691600"},{"town":"字一里壇","koaza":"","lat":37.828638,"lng":140.504137,"zip":"9691600"},{"town":"字和尚堂","koaza":"","lat":37.841646,"lng":140.517234,"zip":"9691600"},{"town":"字赤川原","koaza":"","lat":37.838042,"lng":140.531533,"zip":"9691600"},{"town":"字佐野","koaza":"","lat":37.84044,"lng":140.52345,"zip":"9691600"},{"town":"字堰下","koaza":"","lat":37.850131,"lng":140.523257,"zip":"9691600"},{"town":"字仮屋","koaza":"","lat":37.840572,"lng":140.52077,"zip":"9691600"},{"town":"字六角","koaza":"","lat":37.838573,"lng":140.516169,"zip":"9691600"},{"town":"字新和町","koaza":"","lat":37.840369,"lng":140.516577,"zip":"9691600"},{"town":"字藪内","koaza":"","lat":37.838792,"lng":140.513263,"zip":"9691600"},{"town":"字下釜","koaza":"","lat":37.841023,"lng":140.522451,"zip":"9691600"},{"town":"字庫場","koaza":"","lat":37.840582,"lng":140.519544,"zip":"9691600"},{"town":"字陣屋","koaza":"","lat":37.842897,"lng":140.520085,"zip":"9691600"},{"town":"字舘","koaza":"","lat":37.844711,"lng":140.52186,"zip":"9691600"},{"town":"字沢","koaza":"","lat":37.845742,"lng":140.520037,"zip":"9691600"},{"town":"字町裏","koaza":"","lat":37.848626,"lng":140.519983,"zip":"9691600"},{"town":"字堰合","koaza":"","lat":37.850375,"lng":140.520978,"zip":"9691600"},{"town":"字南町","koaza":"","lat":37.840745,"lng":140.518258,"zip":"9691600"},{"town":"字新吉町二丁目","koaza":"","lat":37.841864,"lng":140.516261,"zip":"9691600"},{"town":"字道場前","koaza":"","lat":37.843001,"lng":140.517574,"zip":"9691600"},{"town":"字新吉町一丁目","koaza":"","lat":37.84279,"lng":140.516288,"zip":"9691600"},{"town":"字寺坂二","koaza":"","lat":37.842947,"lng":140.516829,"zip":"9691600"},{"town":"字寺坂一","koaza":"","lat":37.84204,"lng":140.515311,"zip":"9691600"},{"town":"字諏訪","koaza":"","lat":37.841113,"lng":140.513736,"zip":"9691600"},{"town":"字本町","koaza":"","lat":37.845131,"lng":140.518524,"zip":"9691600"},{"town":"字桑島三","koaza":"","lat":37.845667,"lng":140.516578,"zip":"9691600"},{"town":"字西町","koaza":"","lat":37.843906,"lng":140.516127,"zip":"9691600"},{"town":"字新町","koaza":"","lat":37.843041,"lng":140.513865,"zip":"9691600"},{"town":"字桑島四","koaza":"","lat":37.845311,"lng":140.514407,"zip":"9691600"},{"town":"字桑島二","koaza":"","lat":37.848323,"lng":140.516568,"zip":"9691600"},{"town":"字北町","koaza":"","lat":37.848043,"lng":140.518457,"zip":"9691600"},{"town":"字東大隅","koaza":"","lat":37.850096,"lng":140.516431,"zip":"9691600"},{"town":"字桑島一","koaza":"","lat":37.847568,"lng":140.514817,"zip":"9691600"},{"town":"字桑島五","koaza":"","lat":37.847562,"lng":140.512398,"zip":"9691600"},{"town":"字西大隅","koaza":"","lat":37.850139,"lng":140.51485,"zip":"9691600"},{"town":"字芝堤","koaza":"","lat":37.852097,"lng":140.515294,"zip":"9691600"},{"town":"字田植","koaza":"","lat":37.837388,"lng":140.509154,"zip":"9691600"},{"town":"大字伊達崎","koaza":"","lat":37.849496,"lng":140.553922,"zip":"9691600"},{"town":"大字下郡","koaza":"","lat":37.850544,"lng":140.537474,"zip":"9691600"},{"town":"字東段","koaza":"","lat":37.852038,"lng":140.519976,"zip":"9691600"},{"town":"字西段","koaza":"","lat":37.85215,"lng":140.516844,"zip":"9691600"},{"town":"字上町","koaza":"","lat":37.851561,"lng":140.518358,"zip":"9691600"},{"town":"大字谷地","koaza":"","lat":37.860902,"lng":140.530714,"zip":"9691600"},{"town":"大字万正寺","koaza":"","lat":37.848263,"lng":140.50832,"zip":"9691600"},{"town":"大字松原","koaza":"柳沢前","lat":37.831661,"lng":140.478076,"zip":"9691600"},{"town":"大字松原","koaza":"諏訪","lat":37.832614,"lng":140.481013,"zip":"9691600"},{"town":"大字松原","koaza":"新田","lat":37.830513,"lng":140.480868,"zip":"9691600"},{"town":"大字松原","koaza":"西原","lat":37.833109,"lng":140.482015,"zip":"9691600"},{"town":"大字松原","koaza":"川原","lat":37.831713,"lng":140.483733,"zip":"9691600"},{"town":"大字松原","koaza":"北向","lat":37.830639,"lng":140.4838,"zip":"9691600"},{"town":"大字松原","koaza":"新田前","lat":37.829563,"lng":140.484437,"zip":"9691600"},{"town":"大字松原","koaza":"東前","lat":37.832839,"lng":140.484355,"zip":"9691600"},{"town":"大字松原","koaza":"舘","lat":37.836705,"lng":140.487922,"zip":"9691600"},{"town":"大字松原","koaza":"狸内","lat":37.831928,"lng":140.487032,"zip":"9691600"},{"town":"大字松原","koaza":"道下","lat":37.832476,"lng":140.486206,"zip":"9691600"},{"town":"大字松原","koaza":"下舘","lat":37.834253,"lng":140.486851,"zip":"9691600"},{"town":"大字松原","koaza":"中島","lat":37.830433,"lng":140.488563,"zip":"9691600"},{"town":"大字松原","koaza":"舘ノ前","lat":37.833071,"lng":140.488706,"zip":"9691600"},{"town":"大字松原","koaza":"弁天沢","lat":37.836094,"lng":140.491599,"zip":"9691600"},{"town":"大字松原","koaza":"堂ノ前","lat":37.829354,"lng":140.491429,"zip":"9691600"},{"town":"大字松原","koaza":"姫松","lat":37.833606,"lng":140.494748,"zip":"9691600"},{"town":"大字松原","koaza":"大沢","lat":37.836392,"lng":140.494603,"zip":"9691600"},{"town":"大字成田","koaza":"荒井","lat":37.842219,"lng":140.494641,"zip":"9691600"},{"town":"大字松原","koaza":"堰下","lat":37.830439,"lng":140.494564,"zip":"9691600"},{"town":"大字成田","koaza":"白銀","lat":37.843552,"lng":140.495981,"zip":"9691600"},{"town":"大字成田","koaza":"表替","lat":37.845984,"lng":140.496195,"zip":"9691600"},{"town":"大字松原","koaza":"橋本","lat":37.837444,"lng":140.495924,"zip":"9691600"},{"town":"大字成田","koaza":"道添","lat":37.844628,"lng":140.49677,"zip":"9691600"},{"town":"大字成田","koaza":"堰上","lat":37.837785,"lng":140.498166,"zip":"9691600"},{"town":"大字成田","koaza":"坊ノ内","lat":37.835945,"lng":140.498896,"zip":"9691600"},{"town":"大字成田","koaza":"土井ノ内","lat":37.829462,"lng":140.500394,"zip":"9691600"},{"town":"大字成田","koaza":"堰下","lat":37.837868,"lng":140.499687,"zip":"9691600"},{"town":"大字平沢","koaza":"上城","lat":37.850599,"lng":140.500091,"zip":"9691600"},{"town":"大字成田","koaza":"馬場","lat":37.833331,"lng":140.503481,"zip":"9691600"},{"town":"大字成田","koaza":"下宿","lat":37.836686,"lng":140.501289,"zip":"9691600"},{"town":"大字成田","koaza":"引地","lat":37.838123,"lng":140.501343,"zip":"9691600"},{"town":"大字平沢","koaza":"寺下","lat":37.845016,"lng":140.501473,"zip":"9691600"},{"town":"大字平沢","koaza":"仲城","lat":37.850258,"lng":140.50153,"zip":"9691600"},{"town":"大字成田","koaza":"円久寺","lat":37.835948,"lng":140.501539,"zip":"9691600"},{"town":"大字平沢","koaza":"滝","lat":37.846712,"lng":140.502845,"zip":"9691600"},{"town":"大字成田","koaza":"東向田","lat":37.830112,"lng":140.502954,"zip":"9691600"},{"town":"大字成田","koaza":"小峯前","lat":37.839853,"lng":140.503103,"zip":"9691600"},{"town":"大字平沢","koaza":"山中","lat":37.850951,"lng":140.503636,"zip":"9691600"},{"town":"大字平沢","koaza":"寺山","lat":37.84459,"lng":140.503735,"zip":"9691600"},{"town":"大字成田","koaza":"中丸","lat":37.839057,"lng":140.504063,"zip":"9691600"},{"town":"大字万正寺","koaza":"清水前","lat":37.841158,"lng":140.505376,"zip":"9691600"},{"town":"大字万正寺","koaza":"滝ノ沢","lat":37.845033,"lng":140.506144,"zip":"9691600"},{"town":"大字万正寺","koaza":"上ノ内前","lat":37.846395,"lng":140.50738,"zip":"9691600"},{"town":"大字万正寺","koaza":"中峯","lat":37.85192,"lng":140.508017,"zip":"9691600"},{"town":"大字万正寺","koaza":"薬師堂","lat":37.850524,"lng":140.509094,"zip":"9691600"},{"town":"大字万正寺","koaza":"沼田前","lat":37.848974,"lng":140.509031,"zip":"9691600"},{"town":"大字万正寺","koaza":"坂町","lat":37.852937,"lng":140.508894,"zip":"9691600"},{"town":"大字万正寺","koaza":"往還端","lat":37.840298,"lng":140.511873,"zip":"9691600"},{"town":"大字万正寺","koaza":"大榧","lat":37.851936,"lng":140.511427,"zip":"9691600"},{"town":"大字万正寺","koaza":"下万正寺","lat":37.841873,"lng":140.510478,"zip":"9691600"},{"town":"大字万正寺","koaza":"中道","lat":37.845967,"lng":140.512856,"zip":"9691600"},{"town":"大字万正寺","koaza":"道心畑","lat":37.843685,"lng":140.512404,"zip":"9691600"},{"town":"大字北半田","koaza":"銀山","lat":37.880021,"lng":140.511824,"zip":"9691600"},{"town":"大字北半田","koaza":"銀山南下","lat":37.877636,"lng":140.514386,"zip":"9691600"},{"town":"大字北半田","koaza":"栗和田","lat":37.878529,"lng":140.518069,"zip":"9691600"},{"town":"大字谷地","koaza":"追分","lat":37.856864,"lng":140.519546,"zip":"9691600"},{"town":"大字谷地","koaza":"道下","lat":37.853909,"lng":140.521025,"zip":"9691600"},{"town":"大字北半田","koaza":"北前","lat":37.878747,"lng":140.519624,"zip":"9691600"},{"town":"大字北半田","koaza":"飛ル内","lat":37.871967,"lng":140.519962,"zip":"9691600"},{"town":"大字谷地","koaza":"道合","lat":37.858852,"lng":140.520577,"zip":"9691600"},{"town":"大字北半田","koaza":"道上","lat":37.878758,"lng":140.520452,"zip":"9691600"},{"town":"大字谷地","koaza":"上割付","lat":37.858221,"lng":140.522217,"zip":"9691600"},{"town":"大字谷地","koaza":"石塚","lat":37.856221,"lng":140.521521,"zip":"9691600"},{"town":"大字谷地","koaza":"北道合","lat":37.860512,"lng":140.522174,"zip":"9691600"},{"town":"大字谷地","koaza":"南","lat":37.85416,"lng":140.522092,"zip":"9691600"},{"town":"大字谷地","koaza":"道上","lat":37.861382,"lng":140.523785,"zip":"9691600"},{"town":"大字上郡","koaza":"常水","lat":37.853214,"lng":140.525986,"zip":"9691600"},{"town":"大字上郡","koaza":"林泉寺","lat":37.848734,"lng":140.525534,"zip":"9691600"},{"town":"大字谷地","koaza":"荒屋敷","lat":37.855811,"lng":140.524758,"zip":"9691600"},{"town":"大字上郡","koaza":"根岸前","lat":37.845014,"lng":140.526874,"zip":"9691600"},{"town":"大字上郡","koaza":"檪下","lat":37.843646,"lng":140.525838,"zip":"9691600"},{"town":"大字北半田","koaza":"関ノ内","lat":37.875097,"lng":140.526802,"zip":"9691600"},{"town":"大字上郡","koaza":"羽山後","lat":37.851449,"lng":140.526551,"zip":"9691600"},{"town":"大字谷地","koaza":"南道場","lat":37.856153,"lng":140.526905,"zip":"9691600"},{"town":"大字北半田","koaza":"田中","lat":37.87074,"lng":140.527086,"zip":"9691600"},{"town":"大字谷地","koaza":"北道場","lat":37.858565,"lng":140.526743,"zip":"9691600"},{"town":"大字上郡","koaza":"上代","lat":37.852189,"lng":140.529178,"zip":"9691600"},{"town":"大字上郡","koaza":"弁慶","lat":37.848032,"lng":140.527211,"zip":"9691600"},{"town":"大字上郡","koaza":"下佐野","lat":37.841855,"lng":140.527261,"zip":"9691600"},{"town":"大字谷地","koaza":"遠畑","lat":37.859937,"lng":140.528923,"zip":"9691600"},{"town":"大字谷地","koaza":"作田","lat":37.863239,"lng":140.530845,"zip":"9691600"},{"town":"大字谷地","koaza":"久保","lat":37.860797,"lng":140.528171,"zip":"9691600"},{"town":"大字谷地","koaza":"寺前","lat":37.8584,"lng":140.530062,"zip":"9691600"},{"town":"大字谷地","koaza":"中谷地","lat":37.862117,"lng":140.533584,"zip":"9691600"},{"town":"大字上郡","koaza":"平石","lat":37.849483,"lng":140.53105,"zip":"9691600"},{"town":"大字上郡","koaza":"坂下","lat":37.846758,"lng":140.529715,"zip":"9691600"},{"town":"大字上郡","koaza":"宮北","lat":37.843387,"lng":140.532463,"zip":"9691600"},{"town":"大字谷地","koaza":"新井","lat":37.867287,"lng":140.531947,"zip":"9691600"},{"town":"大字谷地","koaza":"百目木","lat":37.862281,"lng":140.531346,"zip":"9691600"},{"town":"大字上郡","koaza":"吉内","lat":37.841252,"lng":140.531138,"zip":"9691600"},{"town":"大字下郡","koaza":"新田","lat":37.851969,"lng":140.532627,"zip":"9691600"},{"town":"大字上郡","koaza":"平石前","lat":37.847705,"lng":140.53266,"zip":"9691600"},{"town":"大字上郡","koaza":"馬場郷","lat":37.840763,"lng":140.532242,"zip":"9691600"},{"town":"大字上郡","koaza":"宮前","lat":37.841472,"lng":140.532558,"zip":"9691600"},{"town":"大字谷地","koaza":"下高屋","lat":37.856722,"lng":140.532774,"zip":"9691600"},{"town":"大字上郡","koaza":"熊ノ平","lat":37.849374,"lng":140.533709,"zip":"9691600"},{"town":"大字北半田","koaza":"畑中南","lat":37.872108,"lng":140.533155,"zip":"9691600"},{"town":"大字下郡","koaza":"遠上","lat":37.848873,"lng":140.536389,"zip":"9691600"},{"town":"大字上郡","koaza":"番丁田","lat":37.844216,"lng":140.534406,"zip":"9691600"},{"town":"大字上郡","koaza":"金谷神","lat":37.840986,"lng":140.533491,"zip":"9691600"},{"town":"大字上郡","koaza":"熊ノ前","lat":37.847972,"lng":140.534082,"zip":"9691600"},{"town":"大字上郡","koaza":"五郎内","lat":37.843305,"lng":140.534094,"zip":"9691600"},{"town":"大字上郡","koaza":"三ッ筬","lat":37.839696,"lng":140.534273,"zip":"9691600"},{"town":"大字北半田","koaza":"丁名内","lat":37.871533,"lng":140.534585,"zip":"9691600"},{"town":"大字下郡","koaza":"横山","lat":37.85372,"lng":140.534865,"zip":"9691600"},{"town":"大字北半田","koaza":"鍛治屋敷","lat":37.86735,"lng":140.535887,"zip":"9691600"},{"town":"大字谷地","koaza":"一本松","lat":37.862964,"lng":140.534752,"zip":"9691600"},{"town":"大字下郡","koaza":"舘西","lat":37.851817,"lng":140.535999,"zip":"9691600"},{"town":"大字上郡","koaza":"五郎内前","lat":37.842355,"lng":140.536277,"zip":"9691600"},{"town":"大字上郡","koaza":"菜洗場","lat":37.844523,"lng":140.536006,"zip":"9691600"},{"town":"大字北半田","koaza":"平沢田","lat":37.869063,"lng":140.535897,"zip":"9691600"},{"town":"大字谷地","koaza":"六丁目","lat":37.864809,"lng":140.535886,"zip":"9691600"},{"town":"大字谷地","koaza":"稲荷","lat":37.863255,"lng":140.53673,"zip":"9691600"},{"town":"大字谷地","koaza":"観音堂","lat":37.861274,"lng":140.536547,"zip":"9691600"},{"town":"大字上郡","koaza":"菜洗場前","lat":37.843696,"lng":140.536559,"zip":"9691600"},{"town":"大字谷地","koaza":"門元","lat":37.865923,"lng":140.536684,"zip":"9691600"},{"town":"大字下郡","koaza":"八幡前","lat":37.850025,"lng":140.538324,"zip":"9691600"},{"town":"大字下郡","koaza":"苗松","lat":37.848695,"lng":140.540342,"zip":"9691600"},{"town":"大字北半田","koaza":"一本木","lat":37.873141,"lng":140.538503,"zip":"9691600"},{"town":"大字北半田","koaza":"足ノ町","lat":37.868982,"lng":140.538881,"zip":"9691600"},{"town":"大字北半田","koaza":"鍛治屋敷前","lat":37.867893,"lng":140.537864,"zip":"9691600"},{"town":"大字上郡","koaza":"下沖沢田","lat":37.845302,"lng":140.538482,"zip":"9691600"},{"town":"大字下郡","koaza":"八幡","lat":37.850844,"lng":140.538296,"zip":"9691600"},{"town":"大字下郡","koaza":"曲松","lat":37.851492,"lng":140.539403,"zip":"9691600"},{"town":"大字北半田","koaza":"間所","lat":37.870288,"lng":140.539379,"zip":"9691600"},{"town":"大字下郡","koaza":"堂ノ前","lat":37.850193,"lng":140.539743,"zip":"9691600"},{"town":"大字下郡","koaza":"柿ノ口","lat":37.848057,"lng":140.541587,"zip":"9691600"},{"town":"大字下郡","koaza":"細町","lat":37.850409,"lng":140.541027,"zip":"9691600"},{"town":"大字谷地","koaza":"山塚","lat":37.868042,"lng":140.542205,"zip":"9691600"},{"town":"大字下郡","koaza":"榎","lat":37.850675,"lng":140.54241,"zip":"9691600"},{"town":"大字伊達崎","koaza":"吉沼","lat":37.849132,"lng":140.543698,"zip":"9691600"},{"town":"大字伊達崎","koaza":"西舘","lat":37.856168,"lng":140.542826,"zip":"9691600"},{"town":"大字伊達崎","koaza":"前堂ケ島","lat":37.858201,"lng":140.54642,"zip":"9691600"},{"town":"大字下郡","koaza":"鶴巻","lat":37.850717,"lng":140.543784,"zip":"9691600"},{"town":"大字伊達崎","koaza":"西六反田","lat":37.85326,"lng":140.54428,"zip":"9691600"},{"town":"大字伊達崎","koaza":"西柳ノ目","lat":37.849208,"lng":140.544726,"zip":"9691600"},{"town":"大字伊達崎","koaza":"中屋敷","lat":37.851916,"lng":140.546987,"zip":"9691600"},{"town":"大字伊達崎","koaza":"前田","lat":37.849811,"lng":140.544758,"zip":"9691600"},{"town":"大字伊達崎","koaza":"東舘","lat":37.856046,"lng":140.545801,"zip":"9691600"},{"town":"大字伊達崎","koaza":"西北沢","lat":37.859847,"lng":140.548024,"zip":"9691600"},{"town":"大字伊達崎","koaza":"宮ノ前","lat":37.849435,"lng":140.549749,"zip":"9691600"},{"town":"大字伊達崎","koaza":"北沢","lat":37.858806,"lng":140.550067,"zip":"9691600"},{"town":"大字伊達崎","koaza":"下門田","lat":37.848619,"lng":140.551167,"zip":"9691600"},{"town":"大字伊達崎","koaza":"竹ノ内","lat":37.858329,"lng":140.549079,"zip":"9691600"},{"town":"大字伊達崎","koaza":"南","lat":37.85714,"lng":140.551901,"zip":"9691600"},{"town":"大字伊達崎","koaza":"西前敷","lat":37.851167,"lng":140.551958,"zip":"9691600"},{"town":"大字伊達崎","koaza":"安貝内","lat":37.849449,"lng":140.55181,"zip":"9691600"},{"town":"大字伊達崎","koaza":"東柳ノ目","lat":37.846506,"lng":140.55108,"zip":"9691600"},{"town":"大字伊達崎","koaza":"百目木","lat":37.847797,"lng":140.552407,"zip":"9691600"},{"town":"大字伊達崎","koaza":"五反田","lat":37.859562,"lng":140.552747,"zip":"9691600"},{"town":"大字伊達崎","koaza":"平田代","lat":37.85028,"lng":140.551194,"zip":"9691600"},{"town":"大字伊達崎","koaza":"前敷","lat":37.851589,"lng":140.553164,"zip":"9691600"},{"town":"大字伊達崎","koaza":"松ノ口","lat":37.857638,"lng":140.553446,"zip":"9691600"},{"town":"大字伊達崎","koaza":"道林","lat":37.849342,"lng":140.55528,"zip":"9691600"},{"town":"大字伊達崎","koaza":"中北沢","lat":37.858253,"lng":140.553651,"zip":"9691600"},{"town":"大字伊達崎","koaza":"小和助","lat":37.85095,"lng":140.553936,"zip":"9691600"},{"town":"大字伊達崎","koaza":"畑ケ田","lat":37.852961,"lng":140.554558,"zip":"9691600"},{"town":"大字伊達崎","koaza":"前川原","lat":37.847811,"lng":140.555557,"zip":"9691600"},{"town":"大字伊達崎","koaza":"下北沢","lat":37.859255,"lng":140.554463,"zip":"9691600"},{"town":"大字伊達崎","koaza":"前川原田","lat":37.848416,"lng":140.554649,"zip":"9691600"},{"town":"大字伊達崎","koaza":"前子段","lat":37.849936,"lng":140.556477,"zip":"9691600"},{"town":"大字伊達崎","koaza":"舟場西","lat":37.841802,"lng":140.558178,"zip":"9691600"},{"town":"大字伊達崎","koaza":"三本橋","lat":37.851956,"lng":140.559625,"zip":"9691600"},{"town":"大字北半田","koaza":"銀山東","lat":37.879098,"lng":140.515202,"zip":"9691600"},{"town":"大字北半田","koaza":"十分一","lat":37.878107,"lng":140.516006,"zip":"9691600"},{"town":"大字万正寺","koaza":"平沢道","lat":37.852172,"lng":140.504969,"zip":"9691600"},{"town":"大字平沢","koaza":"山居","lat":37.846536,"lng":140.49959,"zip":"9691600"},{"town":"大字成田","koaza":"堀込","lat":37.842252,"lng":140.496829,"zip":"9691600"},{"town":"大字成田","koaza":"山岸","lat":37.844492,"lng":140.495333,"zip":"9691600"},{"town":"大字成田","koaza":"西中丸","lat":37.841409,"lng":140.492519,"zip":"9691600"},{"town":"大字松原","koaza":"熊ノ前","lat":37.840455,"lng":140.493845,"zip":"9691600"},{"town":"大字松原","koaza":"北田","lat":37.830578,"lng":140.492263,"zip":"9691600"},{"town":"大字松原","koaza":"前田","lat":37.829655,"lng":140.495583,"zip":"9691600"},{"town":"大字松原","koaza":"川原田","lat":37.833035,"lng":140.495567,"zip":"9691600"},{"town":"大字成田","koaza":"久保","lat":37.837599,"lng":140.502835,"zip":"9691600"},{"town":"大字万正寺","koaza":"山屋敷","lat":37.843136,"lng":140.50562,"zip":"9691600"},{"town":"大字万正寺","koaza":"苗代場","lat":37.843826,"lng":140.507198,"zip":"9691600"},{"town":"大字万正寺","koaza":"石方","lat":37.84458,"lng":140.507875,"zip":"9691600"},{"town":"大字万正寺","koaza":"淡海端","lat":37.845207,"lng":140.506639,"zip":"9691600"},{"town":"大字万正寺","koaza":"上ノ内","lat":37.846493,"lng":140.506591,"zip":"9691600"},{"town":"大字万正寺","koaza":"古釈迦堂","lat":37.847526,"lng":140.507499,"zip":"9691600"},{"town":"大字万正寺","koaza":"沼田下","lat":37.848558,"lng":140.50979,"zip":"9691600"},{"town":"大字万正寺","koaza":"前","lat":37.851286,"lng":140.510344,"zip":"9691600"},{"town":"大字万正寺","koaza":"的場","lat":37.849865,"lng":140.510154,"zip":"9691600"},{"town":"大字万正寺","koaza":"上ノ町","lat":37.851134,"lng":140.511768,"zip":"9691600"},{"town":"大字万正寺","koaza":"東","lat":37.853698,"lng":140.510185,"zip":"9691600"},{"town":"大字万正寺","koaza":"芝堤上","lat":37.85302,"lng":140.511491,"zip":"9691600"},{"town":"大字万正寺","koaza":"舘ノ下","lat":37.854303,"lng":140.512826,"zip":"9691600"},{"town":"大字万正寺","koaza":"内窪","lat":37.852798,"lng":140.513571,"zip":"9691600"},{"town":"大字万正寺","koaza":"弁天水","lat":37.844517,"lng":140.512614,"zip":"9691600"},{"town":"大字上郡","koaza":"仲丸","lat":37.847018,"lng":140.520965,"zip":"9691600"},{"town":"大字上郡","koaza":"堰下","lat":37.851856,"lng":140.523915,"zip":"9691600"},{"town":"大字上郡","koaza":"柳下","lat":37.850291,"lng":140.525984,"zip":"9691600"},{"town":"大字下郡","koaza":"中丸","lat":37.855062,"lng":140.535544,"zip":"9691600"},{"town":"大字下郡","koaza":"西原","lat":37.855798,"lng":140.536196,"zip":"9691600"},{"town":"大字上郡","koaza":"沖河原","lat":37.835627,"lng":140.537597,"zip":"9691600"},{"town":"大字伊達崎","koaza":"出シ","lat":37.840799,"lng":140.555976,"zip":"9691600"},{"town":"大字伊達崎","koaza":"巻目","lat":37.839743,"lng":140.553199,"zip":"9691600"},{"town":"大字伊達崎","koaza":"東六反田","lat":37.851788,"lng":140.547924,"zip":"9691600"},{"town":"大字伊達崎","koaza":"宮ノ内","lat":37.850949,"lng":140.550641,"zip":"9691600"},{"town":"大字伊達崎","koaza":"熊ノ後","lat":37.851584,"lng":140.549041,"zip":"9691600"},{"town":"大字伊達崎","koaza":"北前敷","lat":37.853032,"lng":140.55181,"zip":"9691600"},{"town":"大字伊達崎","koaza":"横町","lat":37.855951,"lng":140.548916,"zip":"9691600"},{"town":"大字伊達崎","koaza":"沼辺後","lat":37.855911,"lng":140.551662,"zip":"9691600"},{"town":"大字伊達崎","koaza":"目古町","lat":37.856461,"lng":140.551968,"zip":"9691600"},{"town":"大字伊達崎","koaza":"下高野向","lat":37.859063,"lng":140.544393,"zip":"9691600"},{"town":"大字伊達崎","koaza":"六角","lat":37.858996,"lng":140.547886,"zip":"9691600"},{"town":"大字伊達崎","koaza":"舘下","lat":37.858338,"lng":140.547931,"zip":"9691600"},{"town":"大字伊達崎","koaza":"台","lat":37.860974,"lng":140.545803,"zip":"9691600"},{"town":"大字下郡","koaza":"古舘","lat":37.854004,"lng":140.539158,"zip":"9691600"},{"town":"大字下郡","koaza":"宅見","lat":37.854718,"lng":140.540559,"zip":"9691600"},{"town":"大字下郡","koaza":"舘ノ内","lat":37.851849,"lng":140.537496,"zip":"9691600"},{"town":"大字下郡","koaza":"壇ノ越","lat":37.853294,"lng":140.530405,"zip":"9691600"},{"town":"大字下郡","koaza":"日暮","lat":37.85311,"lng":140.53273,"zip":"9691600"},{"town":"大字谷地","koaza":"南谷地","lat":37.857297,"lng":140.528517,"zip":"9691600"},{"town":"大字谷地","koaza":"西原","lat":37.856527,"lng":140.530276,"zip":"9691600"},{"town":"大字上郡","koaza":"羽山沢","lat":37.852475,"lng":140.524387,"zip":"9691600"},{"town":"大字谷地","koaza":"形土","lat":37.854795,"lng":140.522889,"zip":"9691600"},{"town":"大字谷地","koaza":"石近","lat":37.856747,"lng":140.523597,"zip":"9691600"},{"town":"大字谷地","koaza":"添","lat":37.857531,"lng":140.522452,"zip":"9691600"},{"town":"大字谷地","koaza":"塚下","lat":37.856712,"lng":140.520184,"zip":"9691600"},{"town":"大字万正寺","koaza":"天神森","lat":37.842008,"lng":140.509763,"zip":"9691600"},{"town":"大字万正寺","koaza":"橋ノ北","lat":37.842491,"lng":140.509386,"zip":"9691600"},{"town":"大字万正寺","koaza":"倉本裡","lat":37.843242,"lng":140.508432,"zip":"9691600"},{"town":"大字万正寺","koaza":"上ノ前","lat":37.840929,"lng":140.506753,"zip":"9691600"},{"town":"大字万正寺","koaza":"東原前","lat":37.840681,"lng":140.50756,"zip":"9691600"},{"town":"大字万正寺","koaza":"妻田","lat":37.841554,"lng":140.508272,"zip":"9691600"},{"town":"大字万正寺","koaza":"宮ノ西","lat":37.84063,"lng":140.509092,"zip":"9691600"},{"town":"大字万正寺","koaza":"天神川原","lat":37.841103,"lng":140.509416,"zip":"9691600"},{"town":"大字万正寺","koaza":"網田崎","lat":37.838297,"lng":140.511319,"zip":"9691600"},{"town":"大字成田","koaza":"二本木","lat":37.835003,"lng":140.505406,"zip":"9691600"},{"town":"大字成田","koaza":"湯大道","lat":37.836393,"lng":140.504577,"zip":"9691600"},{"town":"大字成田","koaza":"元宿","lat":37.834758,"lng":140.507135,"zip":"9691600"},{"town":"大字成田","koaza":"百目木","lat":37.836678,"lng":140.508295,"zip":"9691600"},{"town":"大字松原","koaza":"向田","lat":37.82816,"lng":140.493043,"zip":"9691600"},{"town":"大字松原","koaza":"田中前","lat":37.828332,"lng":140.495038,"zip":"9691600"},{"town":"大字松原","koaza":"千刈田","lat":37.83557,"lng":140.496973,"zip":"9691600"},{"town":"大字松原","koaza":"沢田","lat":37.835564,"lng":140.495468,"zip":"9691600"},{"town":"大字成田","koaza":"舘ノ腰","lat":37.840299,"lng":140.497756,"zip":"9691600"},{"town":"大字万正寺","koaza":"堰上","lat":37.849615,"lng":140.513289,"zip":"9691600"},{"town":"大字万正寺","koaza":"中屋敷","lat":37.846093,"lng":140.50972,"zip":"9691600"},{"town":"大字万正寺","koaza":"半田道","lat":37.853408,"lng":140.514583,"zip":"9691600"},{"town":"大字万正寺","koaza":"石薬師","lat":37.856201,"lng":140.513861,"zip":"9691600"},{"town":"大字万正寺","koaza":"上川原","lat":37.85512,"lng":140.513917,"zip":"9691600"},{"town":"大字上郡","koaza":"寒清水","lat":37.853774,"lng":140.523748,"zip":"9691600"},{"town":"大字上郡","koaza":"堰上","lat":37.852716,"lng":140.521862,"zip":"9691600"},{"town":"大字谷地","koaza":"上屋","lat":37.854572,"lng":140.526842,"zip":"9691600"},{"town":"大字下郡","koaza":"遠原","lat":37.853717,"lng":140.527911,"zip":"9691600"},{"town":"大字上郡","koaza":"常西寺","lat":37.847599,"lng":140.528962,"zip":"9691600"},{"town":"大字上郡","koaza":"観音沢","lat":37.847834,"lng":140.530225,"zip":"9691600"},{"town":"大字上郡","koaza":"古寺","lat":37.846496,"lng":140.526943,"zip":"9691600"},{"town":"大字上郡","koaza":"文吾舘","lat":37.846954,"lng":140.524891,"zip":"9691600"},{"town":"大字上郡","koaza":"楽","lat":37.848315,"lng":140.522808,"zip":"9691600"},{"town":"大字上郡","koaza":"内記","lat":37.848978,"lng":140.521132,"zip":"9691600"},{"town":"大字万正寺","koaza":"上ノ台","lat":37.841577,"lng":140.512084,"zip":"9691600"},{"town":"大字万正寺","koaza":"墓裡","lat":37.842662,"lng":140.511672,"zip":"9691600"},{"town":"大字万正寺","koaza":"下堰端","lat":37.838311,"lng":140.509723,"zip":"9691600"},{"town":"大字成田","koaza":"中宿","lat":37.834112,"lng":140.508755,"zip":"9691600"},{"town":"大字成田","koaza":"新宿","lat":37.832098,"lng":140.506365,"zip":"9691600"},{"town":"大字成田","koaza":"牛沢妻","lat":37.831222,"lng":140.496782,"zip":"9691600"},{"town":"大字伊達崎","koaza":"下西","lat":37.855354,"lng":140.541677,"zip":"9691600"},{"town":"大字伊達崎","koaza":"南沢","lat":37.85401,"lng":140.543481,"zip":"9691600"},{"town":"大字谷地","koaza":"藤唐巻","lat":37.860416,"lng":140.532976,"zip":"9691600"},{"town":"大字谷地","koaza":"中沼","lat":37.860397,"lng":140.531057,"zip":"9691600"},{"town":"大字谷地","koaza":"梨ノ木町","lat":37.861683,"lng":140.52595,"zip":"9691600"},{"town":"大字谷地","koaza":"久仁内","lat":37.860065,"lng":140.525634,"zip":"9691600"},{"town":"大字万正寺","koaza":"産ケ沢","lat":37.838544,"lng":140.510679,"zip":"9691600"},{"town":"大字万正寺","koaza":"穴田","lat":37.839114,"lng":140.509355,"zip":"9691600"},{"town":"大字万正寺","koaza":"道東","lat":37.83967,"lng":140.512224,"zip":"9691600"},{"town":"大字万正寺","koaza":"倉本","lat":37.843336,"lng":140.509229,"zip":"9691600"},{"town":"大字万正寺","koaza":"倉本前","lat":37.843128,"lng":140.51001,"zip":"9691600"},{"town":"大字万正寺","koaza":"桑島","lat":37.849209,"lng":140.511601,"zip":"9691600"},{"town":"大字万正寺","koaza":"土手下","lat":37.847303,"lng":140.50935,"zip":"9691600"},{"town":"大字万正寺","koaza":"沼田脇","lat":37.848662,"lng":140.508038,"zip":"9691600"},{"town":"大字平沢","koaza":"本屋敷","lat":37.850171,"lng":140.504301,"zip":"9691600"},{"town":"大字平沢","koaza":"常陸","lat":37.848589,"lng":140.505344,"zip":"9691600"},{"town":"大字万正寺","koaza":"上桑島","lat":37.848664,"lng":140.513065,"zip":"9691600"},{"town":"大字万正寺","koaza":"東桑島","lat":37.848223,"lng":140.513666,"zip":"9691600"},{"town":"大字上郡","koaza":"根岸","lat":37.844224,"lng":140.524232,"zip":"9691600"},{"town":"大字松原","koaza":"下堰下","lat":37.831181,"lng":140.493357,"zip":"9691600"},{"town":"大字成田","koaza":"天上庵","lat":37.842274,"lng":140.49824,"zip":"9691600"},{"town":"大字万正寺","koaza":"清水","lat":37.842369,"lng":140.50492,"zip":"9691600"},{"town":"大字成田","koaza":"小峯","lat":37.840855,"lng":140.503195,"zip":"9691600"},{"town":"大字万正寺","koaza":"南屋敷","lat":37.845432,"lng":140.50791,"zip":"9691600"},{"town":"大字万正寺","koaza":"沼田","lat":37.849445,"lng":140.508424,"zip":"9691600"},{"town":"大字万正寺","koaza":"化粧道","lat":37.853472,"lng":140.506094,"zip":"9691600"},{"town":"大字北半田","koaza":"大門先","lat":37.876208,"lng":140.516153,"zip":"9691600"},{"town":"大字北半田","koaza":"熊野","lat":37.876365,"lng":140.518085,"zip":"9691600"},{"town":"大字北半田","koaza":"銀山南","lat":37.878678,"lng":140.510884,"zip":"9691600"},{"town":"大字北半田","koaza":"高野","lat":37.878723,"lng":140.51686,"zip":"9691600"},{"town":"大字北半田","koaza":"御免町","lat":37.874839,"lng":140.518321,"zip":"9691600"},{"town":"大字北半田","koaza":"栗和田前南","lat":37.876439,"lng":140.519925,"zip":"9691600"},{"town":"大字北半田","koaza":"中下南","lat":37.874452,"lng":140.522907,"zip":"9691600"},{"town":"大字北半田","koaza":"町下","lat":37.874593,"lng":140.520943,"zip":"9691600"},{"town":"大字北半田","koaza":"赤瀬","lat":37.872823,"lng":140.522358,"zip":"9691600"},{"town":"大字北半田","koaza":"二又","lat":37.87357,"lng":140.522521,"zip":"9691600"},{"town":"大字万正寺","koaza":"飯米場","lat":37.844114,"lng":140.510423,"zip":"9691600"},{"town":"大字上郡","koaza":"西畑","lat":37.842671,"lng":140.529294,"zip":"9691600"},{"town":"大字谷地","koaza":"下割付","lat":37.858947,"lng":140.523446,"zip":"9691600"},{"town":"大字谷地","koaza":"道窪","lat":37.860054,"lng":140.523654,"zip":"9691600"},{"town":"大字谷地","koaza":"高橋沢","lat":37.865145,"lng":140.529685,"zip":"9691600"},{"town":"大字谷地","koaza":"川上","lat":37.86432,"lng":140.528482,"zip":"9691600"},{"town":"大字谷地","koaza":"高橋","lat":37.863779,"lng":140.527615,"zip":"9691600"},{"town":"大字北半田","koaza":"堰下","lat":37.869667,"lng":140.531219,"zip":"9691600"},{"town":"大字北半田","koaza":"西ノ内","lat":37.870385,"lng":140.532372,"zip":"9691600"},{"town":"大字北半田","koaza":"丁名内南","lat":37.87093,"lng":140.533449,"zip":"9691600"},{"town":"大字北半田","koaza":"富屋田","lat":37.87244,"lng":140.53157,"zip":"9691600"},{"town":"大字北半田","koaza":"峯","lat":37.871323,"lng":140.531548,"zip":"9691600"},{"town":"大字北半田","koaza":"畑中","lat":37.872453,"lng":140.534015,"zip":"9691600"},{"town":"大字北半田","koaza":"畑中東","lat":37.873365,"lng":140.535677,"zip":"9691600"},{"town":"大字北半田","koaza":"水口","lat":37.872261,"lng":140.536246,"zip":"9691600"},{"town":"大字北半田","koaza":"堀ノ内","lat":37.870505,"lng":140.537107,"zip":"9691600"},{"town":"大字北半田","koaza":"水口前","lat":37.871601,"lng":140.536704,"zip":"9691600"},{"town":"大字北半田","koaza":"堀ノ内北","lat":37.870167,"lng":140.53853,"zip":"9691600"},{"town":"大字北半田","koaza":"一本木前","lat":37.872059,"lng":140.538877,"zip":"9691600"},{"town":"大字北半田","koaza":"畑合","lat":37.870975,"lng":140.540693,"zip":"9691600"},{"town":"大字北半田","koaza":"一本木東","lat":37.872838,"lng":140.539153,"zip":"9691600"},{"town":"大字北半田","koaza":"丁名内東","lat":37.870562,"lng":140.535267,"zip":"9691600"},{"town":"大字北半田","koaza":"下ノ内東","lat":37.869404,"lng":140.53471,"zip":"9691600"},{"town":"大字北半田","koaza":"西ノ内東","lat":37.869643,"lng":140.533486,"zip":"9691600"},{"town":"大字松原","koaza":"山田","lat":37.837449,"lng":140.489488,"zip":"9691600"},{"town":"大字松原","koaza":"坂下","lat":37.831714,"lng":140.479703,"zip":"9691600"},{"town":"大字北半田","koaza":"寺向","lat":37.874007,"lng":140.529864,"zip":"9691600"},{"town":"大字北半田","koaza":"上坊ノ内","lat":37.873115,"lng":140.527334,"zip":"9691600"},{"town":"大字北半田","koaza":"古舘","lat":37.872929,"lng":140.528483,"zip":"9691600"},{"town":"大字北半田","koaza":"堀ノ内脇","lat":37.870836,"lng":140.537722,"zip":"9691600"},{"town":"大字北半田","koaza":"水口前北","lat":37.871933,"lng":140.53737,"zip":"9691600"},{"town":"大字北半田","koaza":"寺ノ内","lat":37.872951,"lng":140.530373,"zip":"9691600"},{"town":"大字谷地","koaza":"中下","lat":37.857902,"lng":140.531305,"zip":"9691600"},{"town":"大字谷地","koaza":"前畑","lat":37.858885,"lng":140.532463,"zip":"9691600"},{"town":"大字谷地","koaza":"明堂","lat":37.858367,"lng":140.532651,"zip":"9691600"},{"town":"大字谷地","koaza":"北","lat":37.865682,"lng":140.534471,"zip":"9691600"},{"town":"大字伊達崎","koaza":"中前敷","lat":37.851742,"lng":140.55421,"zip":"9691600"},{"town":"大字松原","koaza":"西弁天沢","lat":37.836573,"lng":140.489983,"zip":"9691600"},{"town":"大字北半田","koaza":"西田上","lat":37.873392,"lng":140.517323,"zip":"9691600"},{"town":"大字南半田","koaza":"再光","lat":37.872321,"lng":140.513572,"zip":"9691600"},{"town":"大字南半田","koaza":"水抜","lat":37.875922,"lng":140.513322,"zip":"9691600"},{"town":"大字南半田","koaza":"天沼前","lat":37.875654,"lng":140.515633,"zip":"9691600"},{"town":"大字南半田","koaza":"竹ノ下","lat":37.860718,"lng":140.502634,"zip":"9691600"},{"town":"大字南半田","koaza":"明神堂","lat":37.858885,"lng":140.502798,"zip":"9691600"},{"town":"大字南半田","koaza":"上","lat":37.859673,"lng":140.504776,"zip":"9691600"},{"town":"大字南半田","koaza":"窪","lat":37.858706,"lng":140.508934,"zip":"9691600"},{"town":"大字南半田","koaza":"窪角","lat":37.859803,"lng":140.507352,"zip":"9691600"},{"town":"大字南半田","koaza":"中窪","lat":37.859856,"lng":140.509003,"zip":"9691600"},{"town":"大字南半田","koaza":"出崎","lat":37.860431,"lng":140.509581,"zip":"9691600"},{"town":"大字南半田","koaza":"仁井屋","lat":37.860508,"lng":140.508507,"zip":"9691600"},{"town":"大字南半田","koaza":"駿河舘","lat":37.857838,"lng":140.512576,"zip":"9691600"},{"town":"大字南半田","koaza":"南坂下","lat":37.853897,"lng":140.515286,"zip":"9691600"},{"town":"大字南半田","koaza":"薩摩","lat":37.855229,"lng":140.514701,"zip":"9691600"},{"town":"大字南半田","koaza":"北薩摩","lat":37.856598,"lng":140.516784,"zip":"9691600"},{"town":"大字南半田","koaza":"二本木","lat":37.853259,"lng":140.517289,"zip":"9691600"},{"town":"大字南半田","koaza":"六角","lat":37.854132,"lng":140.517037,"zip":"9691600"},{"town":"大字南半田","koaza":"行人段","lat":37.856351,"lng":140.517591,"zip":"9691600"},{"town":"大字南半田","koaza":"榎下","lat":37.857858,"lng":140.516642,"zip":"9691600"},{"town":"大字南半田","koaza":"北坂下","lat":37.858554,"lng":140.514719,"zip":"9691600"},{"town":"大字南半田","koaza":"寺下","lat":37.859876,"lng":140.516597,"zip":"9691600"},{"town":"大字南半田","koaza":"内城","lat":37.861395,"lng":140.516324,"zip":"9691600"},{"town":"大字南半田","koaza":"桐ケ窪","lat":37.8601,"lng":140.518239,"zip":"9691600"},{"town":"大字南半田","koaza":"南大梅寺","lat":37.861517,"lng":140.520766,"zip":"9691600"},{"town":"大字南半田","koaza":"大梅寺","lat":37.863106,"lng":140.521424,"zip":"9691600"},{"town":"大字南半田","koaza":"八幡代","lat":37.862655,"lng":140.517636,"zip":"9691600"},{"town":"大字南半田","koaza":"八幡","lat":37.863229,"lng":140.524019,"zip":"9691600"},{"town":"大字南半田","koaza":"八幡阿部","lat":37.864846,"lng":140.524371,"zip":"9691600"},{"town":"大字南半田","koaza":"大保","lat":37.864888,"lng":140.527562,"zip":"9691600"},{"town":"大字南半田","koaza":"八幡前","lat":37.863409,"lng":140.522743,"zip":"9691600"},{"town":"大字南半田","koaza":"田町","lat":37.866761,"lng":140.523327,"zip":"9691600"},{"town":"大字南半田","koaza":"南田町","lat":37.864214,"lng":140.52284,"zip":"9691600"},{"town":"大字南半田","koaza":"八反田","lat":37.864276,"lng":140.520905,"zip":"9691600"},{"town":"大字南半田","koaza":"雁木","lat":37.86508,"lng":140.521508,"zip":"9691600"},{"town":"大字南半田","koaza":"上田町","lat":37.865868,"lng":140.521805,"zip":"9691600"},{"town":"大字南半田","koaza":"川口","lat":37.866222,"lng":140.524521,"zip":"9691600"},{"town":"大字南半田","koaza":"円明寺","lat":37.867353,"lng":140.528721,"zip":"9691600"},{"town":"大字南半田","koaza":"道下","lat":37.868465,"lng":140.52304,"zip":"9691600"},{"town":"大字南半田","koaza":"上桜田","lat":37.870014,"lng":140.523677,"zip":"9691600"},{"town":"大字南半田","koaza":"下田町","lat":37.867116,"lng":140.521857,"zip":"9691600"},{"town":"大字南半田","koaza":"京田","lat":37.868249,"lng":140.522031,"zip":"9691600"},{"town":"大字南半田","koaza":"下川原","lat":37.867039,"lng":140.519067,"zip":"9691600"},{"town":"大字南半田","koaza":"女郎橋","lat":37.870942,"lng":140.521011,"zip":"9691600"},{"town":"大字南半田","koaza":"押出","lat":37.868284,"lng":140.518934,"zip":"9691600"},{"town":"大字南半田","koaza":"黒太郎","lat":37.868741,"lng":140.517149,"zip":"9691600"},{"town":"大字南半田","koaza":"上川原","lat":37.867835,"lng":140.51693,"zip":"9691600"},{"town":"大字南半田","koaza":"木ノ下","lat":37.869148,"lng":140.515599,"zip":"9691600"},{"town":"大字南半田","koaza":"山下","lat":37.869633,"lng":140.516463,"zip":"9691600"},{"town":"大字南半田","koaza":"沢入","lat":37.867701,"lng":140.515755,"zip":"9691600"},{"town":"大字南半田","koaza":"山神堂","lat":37.869144,"lng":140.514169,"zip":"9691600"},{"town":"大字南半田","koaza":"北木ノ下","lat":37.869295,"lng":140.514913,"zip":"9691600"},{"town":"大字南半田","koaza":"大林","lat":37.868157,"lng":140.514979,"zip":"9691600"},{"town":"大字南半田","koaza":"一ノ堰","lat":37.866185,"lng":140.51148,"zip":"9691600"},{"town":"大字南半田","koaza":"中北前","lat":37.865289,"lng":140.519537,"zip":"9691600"},{"town":"大字南半田","koaza":"五反田","lat":37.865615,"lng":140.519773,"zip":"9691600"},{"town":"大字南半田","koaza":"台","lat":37.863735,"lng":140.519777,"zip":"9691600"},{"town":"大字南半田","koaza":"蘭梅","lat":37.861166,"lng":140.514927,"zip":"9691600"},{"town":"大字南半田","koaza":"高田","lat":37.86471,"lng":140.515442,"zip":"9691600"},{"town":"大字南半田","koaza":"日ノ入林","lat":37.861888,"lng":140.510391,"zip":"9691600"},{"town":"大字南半田","koaza":"薬師堂","lat":37.862725,"lng":140.5068,"zip":"9691600"},{"town":"大字南半田","koaza":"日ノ入","lat":37.864024,"lng":140.505174,"zip":"9691600"},{"town":"大字南半田","koaza":"志田ノ内前","lat":37.873494,"lng":140.518489,"zip":"9691600"},{"town":"大字南半田","koaza":"鍛治屋沢","lat":37.860178,"lng":140.51115,"zip":"9691600"},{"town":"大字下郡","koaza":"寺前","lat":37.85138,"lng":140.535872,"zip":"9691600"}]