[{"town":"山木屋","koaza":"","lat":37.59049,"lng":140.678713,"zip":"9601501"},{"town":"飯坂","koaza":"","lat":37.670943,"lng":140.638728,"zip":"9601401"},{"town":"小綱木","koaza":"","lat":37.632425,"lng":140.637354,"zip":"9601402"},{"town":"字壁沢","koaza":"","lat":37.670662,"lng":140.611432,"zip":"9601400"},{"town":"字西戸ノ内","koaza":"","lat":37.66936,"lng":140.609685,"zip":"9601400"},{"town":"字道場","koaza":"","lat":37.669681,"lng":140.608281,"zip":"9601400"},{"town":"字石川","koaza":"","lat":37.669933,"lng":140.606685,"zip":"9601400"},{"town":"字寺前","koaza":"","lat":37.669661,"lng":140.60464,"zip":"9601400"},{"town":"字宮町","koaza":"","lat":37.66899,"lng":140.601116,"zip":"9601400"},{"town":"字天神入","koaza":"","lat":37.670781,"lng":140.601375,"zip":"9601400"},{"town":"字宮前","koaza":"","lat":37.668657,"lng":140.59891,"zip":"9601400"},{"town":"大字鶴沢","koaza":"","lat":37.668332,"lng":140.571957,"zip":"9601400"},{"town":"字宮ノ入","koaza":"","lat":37.669244,"lng":140.595989,"zip":"9601400"},{"town":"大字小島","koaza":"","lat":37.697148,"lng":140.622397,"zip":"9601400"},{"town":"大字小神","koaza":"","lat":37.676706,"lng":140.582695,"zip":"9601400"},{"town":"字道内","koaza":"","lat":37.666152,"lng":140.611631,"zip":"9601400"},{"town":"字細田","koaza":"","lat":37.649447,"lng":140.609159,"zip":"9601400"},{"town":"字鶴子","koaza":"","lat":37.647544,"lng":140.605063,"zip":"9601400"},{"town":"大綱木","koaza":"","lat":37.628582,"lng":140.598079,"zip":"9601403"},{"town":"字広畑","koaza":"","lat":37.649508,"lng":140.600589,"zip":"9601400"},{"town":"字新湯","koaza":"","lat":37.655313,"lng":140.616959,"zip":"9601400"},{"town":"字橋本","koaza":"","lat":37.655543,"lng":140.611267,"zip":"9601400"},{"town":"字仲ノ内","koaza":"","lat":37.653726,"lng":140.610273,"zip":"9601400"},{"town":"字仁井町","koaza":"","lat":37.651192,"lng":140.605593,"zip":"9601400"},{"town":"字上桜","koaza":"","lat":37.652751,"lng":140.603151,"zip":"9601400"},{"town":"字舘ノ腰","koaza":"","lat":37.655711,"lng":140.604195,"zip":"9601400"},{"town":"字小作","koaza":"","lat":37.657826,"lng":140.609891,"zip":"9601400"},{"town":"字大作","koaza":"","lat":37.658734,"lng":140.612324,"zip":"9601400"},{"town":"字東大清水","koaza":"","lat":37.660677,"lng":140.614027,"zip":"9601400"},{"town":"字賤ノ田","koaza":"","lat":37.660721,"lng":140.610745,"zip":"9601400"},{"town":"字大清水","koaza":"","lat":37.663954,"lng":140.609173,"zip":"9601400"},{"town":"字後庵","koaza":"","lat":37.665732,"lng":140.610323,"zip":"9601400"},{"town":"字舘","koaza":"","lat":37.667782,"lng":140.610929,"zip":"9601400"},{"town":"字中島","koaza":"","lat":37.667736,"lng":140.608371,"zip":"9601400"},{"town":"字大内","koaza":"","lat":37.666602,"lng":140.607967,"zip":"9601400"},{"town":"字根本","koaza":"","lat":37.665244,"lng":140.606753,"zip":"9601400"},{"town":"字寺久保","koaza":"","lat":37.662449,"lng":140.606246,"zip":"9601400"},{"town":"字後田","koaza":"","lat":37.665663,"lng":140.604452,"zip":"9601400"},{"town":"字本町","koaza":"","lat":37.667565,"lng":140.605797,"zip":"9601400"},{"town":"字新宮","koaza":"","lat":37.658598,"lng":140.604213,"zip":"9601400"},{"town":"字川原田","koaza":"","lat":37.657433,"lng":140.606906,"zip":"9601400"},{"town":"字新中町","koaza":"","lat":37.660616,"lng":140.604851,"zip":"9601400"},{"town":"字池ノ入","koaza":"","lat":37.660313,"lng":140.601195,"zip":"9601400"},{"town":"字日和田","koaza":"","lat":37.663029,"lng":140.600361,"zip":"9601400"},{"town":"字段ノ腰","koaza":"","lat":37.663461,"lng":140.598406,"zip":"9601400"},{"town":"字鉄炮町","koaza":"","lat":37.663373,"lng":140.602943,"zip":"9601400"},{"town":"字八反田","koaza":"","lat":37.665405,"lng":140.601198,"zip":"9601400"},{"town":"字瓦町","koaza":"","lat":37.666346,"lng":140.602722,"zip":"9601400"},{"town":"字中丁","koaza":"","lat":37.667998,"lng":140.603844,"zip":"9601400"},{"town":"字竹ノ内","koaza":"","lat":37.667236,"lng":140.601096,"zip":"9601400"},{"town":"字五百田","koaza":"","lat":37.66554,"lng":140.598924,"zip":"9601400"},{"town":"字柏崎","koaza":"","lat":37.661979,"lng":140.597238,"zip":"9601400"},{"town":"字樋ノ口","koaza":"","lat":37.664703,"lng":140.597223,"zip":"9601400"},{"town":"字宮ノ脇","koaza":"","lat":37.667607,"lng":140.597563,"zip":"9601400"},{"town":"字赤坂","koaza":"","lat":37.666636,"lng":140.59589,"zip":"9601400"},{"town":"大字東福沢","koaza":"","lat":37.647624,"lng":140.588173,"zip":"9601400"},{"town":"大字西福沢","koaza":"","lat":37.641792,"lng":140.573288,"zip":"9601400"},{"town":"字延命神","koaza":"","lat":37.674726,"lng":140.60308,"zip":"9601400"},{"town":"字海老ヶ作","koaza":"","lat":37.676263,"lng":140.603596,"zip":"9601400"},{"town":"字七窪","koaza":"","lat":37.67177,"lng":140.609942,"zip":"9601400"},{"town":"字倉ヶ作","koaza":"","lat":37.671974,"lng":140.607429,"zip":"9601400"},{"town":"字壺ヶ作","koaza":"","lat":37.671145,"lng":140.60529,"zip":"9601400"},{"town":"字二ノ久保","koaza":"","lat":37.67368,"lng":140.603342,"zip":"9601400"},{"town":"字早坂","koaza":"","lat":37.67263,"lng":140.602385,"zip":"9601400"},{"town":"字草ヶ入","koaza":"","lat":37.671547,"lng":140.600092,"zip":"9601400"},{"town":"字桜ヶ作","koaza":"","lat":37.671134,"lng":140.599047,"zip":"9601400"},{"town":"字戸ノ入","koaza":"","lat":37.675011,"lng":140.608106,"zip":"9601400"},{"town":"字元屋敷","koaza":"","lat":37.673832,"lng":140.606368,"zip":"9601400"},{"town":"字新田","koaza":"","lat":37.67802,"lng":140.606283,"zip":"9601400"},{"town":"字三百田","koaza":"","lat":37.679434,"lng":140.60398,"zip":"9601400"},{"town":"字下拍子","koaza":"","lat":37.675941,"lng":140.605448,"zip":"9601400"},{"town":"字獅子喰田","koaza":"","lat":37.674662,"lng":140.599862,"zip":"9601400"},{"town":"字葭ヶ入","koaza":"","lat":37.673654,"lng":140.597701,"zip":"9601400"},{"town":"字布引","koaza":"","lat":37.67854,"lng":140.601362,"zip":"9601400"},{"town":"字七曲","koaza":"","lat":37.67124,"lng":140.597881,"zip":"9601400"},{"town":"字百枚田","koaza":"","lat":37.674257,"lng":140.598049,"zip":"9601400"},{"town":"大字羽田","koaza":"","lat":37.686293,"lng":140.573966,"zip":"9601400"},{"town":"大字秋山","koaza":"","lat":37.69977,"lng":140.55837,"zip":"9601400"},{"town":"大字鶴沢","koaza":"峯崎","lat":37.671889,"lng":140.563028,"zip":"9601400"},{"town":"大字羽田","koaza":"平","lat":37.674409,"lng":140.562311,"zip":"9601400"},{"town":"大字鶴沢","koaza":"西ノ平","lat":37.674727,"lng":140.563303,"zip":"9601400"},{"town":"大字鶴沢","koaza":"向田","lat":37.673635,"lng":140.564151,"zip":"9601400"},{"town":"大字羽田","koaza":"畝歩内","lat":37.675227,"lng":140.564105,"zip":"9601400"},{"town":"大字鶴沢","koaza":"界","lat":37.675321,"lng":140.564743,"zip":"9601400"},{"town":"大字鶴沢","koaza":"大松作","lat":37.667291,"lng":140.565514,"zip":"9601400"},{"town":"大字鶴沢","koaza":"石保町","lat":37.667813,"lng":140.567289,"zip":"9601400"},{"town":"大字鶴沢","koaza":"遠西","lat":37.67668,"lng":140.567161,"zip":"9601400"},{"town":"大字鶴沢","koaza":"社前","lat":37.673324,"lng":140.56599,"zip":"9601400"},{"town":"大字鶴沢","koaza":"清水入","lat":37.675044,"lng":140.567496,"zip":"9601400"},{"town":"大字鶴沢","koaza":"西ノ内","lat":37.673581,"lng":140.568505,"zip":"9601400"},{"town":"大字鶴沢","koaza":"下沖免","lat":37.675673,"lng":140.567918,"zip":"9601400"},{"town":"大字鶴沢","koaza":"一本松","lat":37.661028,"lng":140.570013,"zip":"9601400"},{"town":"大字鶴沢","koaza":"円音","lat":37.66539,"lng":140.569456,"zip":"9601400"},{"town":"大字鶴沢","koaza":"元内","lat":37.669544,"lng":140.569125,"zip":"9601400"},{"town":"大字鶴沢","koaza":"永作","lat":37.667719,"lng":140.568953,"zip":"9601400"},{"town":"大字鶴沢","koaza":"上沖免","lat":37.676193,"lng":140.571173,"zip":"9601400"},{"town":"大字小神","koaza":"鍛治内","lat":37.675813,"lng":140.572466,"zip":"9601400"},{"town":"大字鶴沢","koaza":"中田","lat":37.666877,"lng":140.572201,"zip":"9601400"},{"town":"大字鶴沢","koaza":"舘ノ内","lat":37.666334,"lng":140.574563,"zip":"9601400"},{"town":"大字鶴沢","koaza":"中西","lat":37.670576,"lng":140.573104,"zip":"9601400"},{"town":"大字鶴沢","koaza":"松作","lat":37.657265,"lng":140.573503,"zip":"9601400"},{"town":"大字小神","koaza":"行人段","lat":37.677378,"lng":140.572879,"zip":"9601400"},{"town":"大字小神","koaza":"西ノ内","lat":37.677997,"lng":140.575138,"zip":"9601400"},{"town":"大字鶴沢","koaza":"池ノ上","lat":37.664164,"lng":140.574009,"zip":"9601400"},{"town":"大字鶴沢","koaza":"大原","lat":37.662231,"lng":140.576526,"zip":"9601400"},{"town":"大字鶴沢","koaza":"学校前","lat":37.665796,"lng":140.575899,"zip":"9601400"},{"town":"大字鶴沢","koaza":"芦ヶ作","lat":37.669608,"lng":140.574347,"zip":"9601400"},{"town":"大字小神","koaza":"弥五郎内","lat":37.675727,"lng":140.575499,"zip":"9601400"},{"town":"大字小神","koaza":"道合内","lat":37.68269,"lng":140.575447,"zip":"9601400"},{"town":"大字鶴沢","koaza":"東","lat":37.667235,"lng":140.577799,"zip":"9601400"},{"town":"大字鶴沢","koaza":"鶴東","lat":37.66497,"lng":140.578504,"zip":"9601400"},{"town":"大字小神","koaza":"赤羽根","lat":37.675157,"lng":140.578198,"zip":"9601400"},{"town":"大字鶴沢","koaza":"古堺田","lat":37.663599,"lng":140.578218,"zip":"9601400"},{"town":"大字鶴沢","koaza":"鶴生田","lat":37.658167,"lng":140.577762,"zip":"9601400"},{"town":"大字小神","koaza":"大老内","lat":37.678006,"lng":140.57846,"zip":"9601400"},{"town":"大字小神","koaza":"山王","lat":37.674683,"lng":140.580594,"zip":"9601400"},{"town":"大字小神","koaza":"田代内","lat":37.675767,"lng":140.580415,"zip":"9601400"},{"town":"大字小神","koaza":"柳地内","lat":37.672782,"lng":140.58186,"zip":"9601400"},{"town":"大字小神","koaza":"寺前","lat":37.675085,"lng":140.583537,"zip":"9601400"},{"town":"大字鶴沢","koaza":"鍛治内","lat":37.667428,"lng":140.58289,"zip":"9601400"},{"town":"大字鶴沢","koaza":"松ヶ窪","lat":37.661694,"lng":140.58525,"zip":"9601400"},{"town":"大字小神","koaza":"板倉内","lat":37.672609,"lng":140.583927,"zip":"9601400"},{"town":"大字鶴沢","koaza":"上通","lat":37.664613,"lng":140.585115,"zip":"9601400"},{"town":"大字小神","koaza":"下都ノ内","lat":37.67534,"lng":140.586222,"zip":"9601400"},{"town":"大字東福沢","koaza":"祭田","lat":37.650814,"lng":140.588849,"zip":"9601400"},{"town":"大字東福沢","koaza":"小高屋敷","lat":37.656835,"lng":140.590191,"zip":"9601400"},{"town":"大字小神","koaza":"南","lat":37.671297,"lng":140.58709,"zip":"9601400"},{"town":"大字小神","koaza":"台","lat":37.673428,"lng":140.587543,"zip":"9601400"},{"town":"大字小神","koaza":"荒屋敷","lat":37.674801,"lng":140.586809,"zip":"9601400"},{"town":"大字小神","koaza":"長戸","lat":37.667648,"lng":140.586952,"zip":"9601400"},{"town":"大字小神","koaza":"杉ノ内","lat":37.675131,"lng":140.590443,"zip":"9601400"},{"town":"大字東福沢","koaza":"古内","lat":37.658007,"lng":140.591133,"zip":"9601400"},{"town":"大字東福沢","koaza":"六百田","lat":37.640244,"lng":140.59081,"zip":"9601400"},{"town":"大字東福沢","koaza":"才ノ神","lat":37.653784,"lng":140.588183,"zip":"9601400"},{"town":"大字鶴沢","koaza":"戸ノ内","lat":37.668567,"lng":140.58998,"zip":"9601400"},{"town":"大字鶴沢","koaza":"油田","lat":37.666245,"lng":140.59091,"zip":"9601400"},{"town":"大字鶴沢","koaza":"村社前","lat":37.66576,"lng":140.589295,"zip":"9601400"},{"town":"大字東福沢","koaza":"向香田","lat":37.643858,"lng":140.591862,"zip":"9601400"},{"town":"大字東福沢","koaza":"糠戸内","lat":37.659096,"lng":140.592868,"zip":"9601400"},{"town":"大字東福沢","koaza":"坊ノ入","lat":37.654351,"lng":140.590341,"zip":"9601400"},{"town":"大字東福沢","koaza":"双六","lat":37.661318,"lng":140.592298,"zip":"9601400"},{"town":"大字鶴沢","koaza":"胡麻作","lat":37.669736,"lng":140.592239,"zip":"9601400"},{"town":"大字鶴沢","koaza":"笛田","lat":37.665181,"lng":140.592488,"zip":"9601400"},{"town":"大字東福沢","koaza":"熊ノ宮","lat":37.66194,"lng":140.595318,"zip":"9601400"},{"town":"大字東福沢","koaza":"田畑","lat":37.65579,"lng":140.592681,"zip":"9601400"},{"town":"大字鶴沢","koaza":"窪中","lat":37.67125,"lng":140.594789,"zip":"9601400"},{"town":"大字鶴沢","koaza":"京田","lat":37.664462,"lng":140.594607,"zip":"9601400"},{"town":"大字東福沢","koaza":"暮シノ内","lat":37.654097,"lng":140.597224,"zip":"9601400"},{"town":"大字鶴沢","koaza":"川端","lat":37.665273,"lng":140.596222,"zip":"9601400"},{"town":"大字東福沢","koaza":"兎田","lat":37.659407,"lng":140.596841,"zip":"9601400"},{"town":"小綱木","koaza":"反田","lat":37.65023,"lng":140.611523,"zip":"9601402"},{"town":"飯坂","koaza":"合ノ内","lat":37.6739,"lng":140.612072,"zip":"9601401"},{"town":"飯坂","koaza":"壁沢","lat":37.673177,"lng":140.612572,"zip":"9601401"},{"town":"飯坂","koaza":"六枚","lat":37.677555,"lng":140.613279,"zip":"9601401"},{"town":"小綱木","koaza":"松ノ口","lat":37.648373,"lng":140.61363,"zip":"9601402"},{"town":"飯坂","koaza":"関ノ上","lat":37.676489,"lng":140.614059,"zip":"9601401"},{"town":"飯坂","koaza":"落合","lat":37.675322,"lng":140.613854,"zip":"9601401"},{"town":"飯坂","koaza":"山ノ神","lat":37.68095,"lng":140.616592,"zip":"9601401"},{"town":"小綱木","koaza":"太師堂","lat":37.651331,"lng":140.616159,"zip":"9601402"},{"town":"飯坂","koaza":"滝沢","lat":37.679962,"lng":140.61386,"zip":"9601401"},{"town":"小綱木","koaza":"細久保","lat":37.648741,"lng":140.614698,"zip":"9601402"},{"town":"小綱木","koaza":"宮田","lat":37.647329,"lng":140.614806,"zip":"9601402"},{"town":"飯坂","koaza":"下谷沢","lat":37.663626,"lng":140.617213,"zip":"9601401"},{"town":"小綱木","koaza":"上ノ台","lat":37.647868,"lng":140.617139,"zip":"9601402"},{"town":"小綱木","koaza":"仲田","lat":37.645666,"lng":140.615706,"zip":"9601402"},{"town":"飯坂","koaza":"米子田","lat":37.665546,"lng":140.615989,"zip":"9601401"},{"town":"飯坂","koaza":"八幡","lat":37.678594,"lng":140.615323,"zip":"9601401"},{"town":"飯坂","koaza":"工ミ堂","lat":37.678318,"lng":140.616282,"zip":"9601401"},{"town":"飯坂","koaza":"諏訪","lat":37.669367,"lng":140.617689,"zip":"9601401"},{"town":"飯坂","koaza":"上中居","lat":37.670283,"lng":140.62077,"zip":"9601401"},{"town":"飯坂","koaza":"古内","lat":37.668368,"lng":140.621941,"zip":"9601401"},{"town":"飯坂","koaza":"下中居","lat":37.669354,"lng":140.619899,"zip":"9601401"},{"town":"飯坂","koaza":"前中居","lat":37.666963,"lng":140.622508,"zip":"9601401"},{"town":"飯坂","koaza":"松木内","lat":37.671232,"lng":140.623459,"zip":"9601401"},{"town":"飯坂","koaza":"南古堂道内","lat":37.668382,"lng":140.625832,"zip":"9601401"},{"town":"飯坂","koaza":"北古堂道内","lat":37.67107,"lng":140.627093,"zip":"9601401"},{"town":"飯坂","koaza":"羽前場","lat":37.670445,"lng":140.628638,"zip":"9601401"},{"town":"飯坂","koaza":"山下","lat":37.669685,"lng":140.630067,"zip":"9601401"},{"town":"飯坂","koaza":"町裏","lat":37.670597,"lng":140.630817,"zip":"9601401"},{"town":"飯坂","koaza":"東町裏","lat":37.669761,"lng":140.632121,"zip":"9601401"},{"town":"飯坂","koaza":"二反窪","lat":37.668422,"lng":140.632672,"zip":"9601401"},{"town":"飯坂","koaza":"津満","lat":37.666943,"lng":140.633869,"zip":"9601401"},{"town":"飯坂","koaza":"下成栗","lat":37.66586,"lng":140.630726,"zip":"9601401"},{"town":"飯坂","koaza":"上成栗","lat":37.666351,"lng":140.63328,"zip":"9601401"},{"town":"飯坂","koaza":"越戸","lat":37.677195,"lng":140.612636,"zip":"9601401"},{"town":"飯坂","koaza":"八反田","lat":37.667394,"lng":140.618914,"zip":"9601401"},{"town":"飯坂","koaza":"古中道","lat":37.667423,"lng":140.615248,"zip":"9601401"},{"town":"飯坂","koaza":"的板田","lat":37.664816,"lng":140.612959,"zip":"9601401"},{"town":"飯坂","koaza":"中道","lat":37.665993,"lng":140.613818,"zip":"9601401"},{"town":"大字鶴沢","koaza":"餅石","lat":37.66406,"lng":140.591663,"zip":"9601400"},{"town":"大字鶴沢","koaza":"細越","lat":37.666324,"lng":140.593965,"zip":"9601400"},{"town":"大字鶴沢","koaza":"伊豆後","lat":37.665722,"lng":140.58752,"zip":"9601400"},{"town":"大字鶴沢","koaza":"中山","lat":37.664167,"lng":140.588175,"zip":"9601400"},{"town":"大字鶴沢","koaza":"堂ノ窪","lat":37.667334,"lng":140.581658,"zip":"9601400"},{"town":"大字鶴沢","koaza":"滝本","lat":37.665718,"lng":140.582891,"zip":"9601400"},{"town":"大字鶴沢","koaza":"西町","lat":37.670447,"lng":140.565686,"zip":"9601400"},{"town":"大字鶴沢","koaza":"馬場","lat":37.672345,"lng":140.568232,"zip":"9601400"},{"town":"大字鶴沢","koaza":"宮清水","lat":37.675044,"lng":140.568551,"zip":"9601400"},{"town":"大字鶴沢","koaza":"宮","lat":37.67188,"lng":140.570509,"zip":"9601400"},{"town":"大字鶴沢","koaza":"宮前","lat":37.671776,"lng":140.569893,"zip":"9601400"},{"town":"大字鶴沢","koaza":"中西前","lat":37.670402,"lng":140.571973,"zip":"9601400"},{"town":"大字鶴沢","koaza":"甲森","lat":37.672697,"lng":140.571626,"zip":"9601400"},{"town":"大字小神","koaza":"正道","lat":37.673233,"lng":140.585265,"zip":"9601400"},{"town":"大字小神","koaza":"吉吾","lat":37.670146,"lng":140.584339,"zip":"9601400"},{"town":"小綱木","koaza":"中戸ノ内","lat":37.650793,"lng":140.61225,"zip":"9601402"},{"town":"小綱木","koaza":"上戸ノ内","lat":37.651553,"lng":140.61139,"zip":"9601402"},{"town":"飯坂","koaza":"稗ヶ作","lat":37.667027,"lng":140.620572,"zip":"9601401"},{"town":"大字東福沢","koaza":"一本木沢","lat":37.649942,"lng":140.594054,"zip":"9601400"},{"town":"大字東福沢","koaza":"小谷野","lat":37.656463,"lng":140.582361,"zip":"9601400"},{"town":"大字東福沢","koaza":"外田","lat":37.657228,"lng":140.58469,"zip":"9601400"},{"town":"大字鶴沢","koaza":"下中島","lat":37.666511,"lng":140.588053,"zip":"9601400"},{"town":"大字鶴沢","koaza":"柿ノ窪","lat":37.667662,"lng":140.579892,"zip":"9601400"},{"town":"大字鶴沢","koaza":"八羽内","lat":37.669121,"lng":140.581878,"zip":"9601400"},{"town":"大字鶴沢","koaza":"辻","lat":37.668536,"lng":140.571287,"zip":"9601400"},{"town":"大字鶴沢","koaza":"林山","lat":37.670615,"lng":140.579619,"zip":"9601400"},{"town":"大字鶴沢","koaza":"下ノ沢","lat":37.667056,"lng":140.594496,"zip":"9601400"},{"town":"大字鶴沢","koaza":"長畑","lat":37.672052,"lng":140.595774,"zip":"9601400"},{"town":"大字鶴沢","koaza":"神ノ前","lat":37.671222,"lng":140.592794,"zip":"9601400"},{"town":"大字鶴沢","koaza":"宮ノ脇","lat":37.673113,"lng":140.573524,"zip":"9601400"},{"town":"大字鶴沢","koaza":"細入","lat":37.668054,"lng":140.591772,"zip":"9601400"},{"town":"大字鶴沢","koaza":"鹿野","lat":37.66895,"lng":140.591975,"zip":"9601400"},{"town":"飯坂","koaza":"諏訪山","lat":37.66983,"lng":140.615965,"zip":"9601401"},{"town":"飯坂","koaza":"梅ノ窪","lat":37.664942,"lng":140.621585,"zip":"9601401"},{"town":"大字東福沢","koaza":"柏葉","lat":37.647154,"lng":140.59241,"zip":"9601400"},{"town":"大字東福沢","koaza":"万所内","lat":37.657465,"lng":140.593876,"zip":"9601400"},{"town":"大字東福沢","koaza":"万所内山","lat":37.656729,"lng":140.598985,"zip":"9601400"},{"town":"大字東福沢","koaza":"西田","lat":37.656628,"lng":140.592875,"zip":"9601400"},{"town":"大字東福沢","koaza":"一反田","lat":37.653416,"lng":140.593162,"zip":"9601400"},{"town":"大字東福沢","koaza":"反畑","lat":37.654578,"lng":140.581394,"zip":"9601400"},{"town":"大字東福沢","koaza":"宮下","lat":37.653773,"lng":140.583843,"zip":"9601400"},{"town":"大字東福沢","koaza":"桑ノ久保","lat":37.651324,"lng":140.584209,"zip":"9601400"},{"town":"大字小神","koaza":"清水ヶ作","lat":37.674114,"lng":140.575334,"zip":"9601400"},{"town":"大字小神","koaza":"東地内","lat":37.677383,"lng":140.575434,"zip":"9601400"},{"town":"大字小神","koaza":"城ノ内","lat":37.674374,"lng":140.582186,"zip":"9601400"},{"town":"大字小神","koaza":"空久保","lat":37.671318,"lng":140.58188,"zip":"9601400"},{"town":"大字鶴沢","koaza":"桜窪","lat":37.662515,"lng":140.578935,"zip":"9601400"},{"town":"飯坂","koaza":"芋ヶ作","lat":37.663701,"lng":140.61319,"zip":"9601401"},{"town":"大字鶴沢","koaza":"菖蒲田","lat":37.665418,"lng":140.566093,"zip":"9601400"},{"town":"大字鶴沢","koaza":"十郎内","lat":37.669412,"lng":140.56489,"zip":"9601400"},{"town":"大字鶴沢","koaza":"雁ヶ作","lat":37.667487,"lng":140.561916,"zip":"9601400"},{"town":"大字鶴沢","koaza":"西崎","lat":37.66456,"lng":140.560853,"zip":"9601400"},{"town":"大字鶴沢","koaza":"梅ヶ作","lat":37.669016,"lng":140.56362,"zip":"9601400"},{"town":"大字鶴沢","koaza":"山弓山","lat":37.664797,"lng":140.56289,"zip":"9601400"},{"town":"大字鶴沢","koaza":"新田","lat":37.667741,"lng":140.564436,"zip":"9601400"},{"town":"大字鶴沢","koaza":"下矢川田","lat":37.665324,"lng":140.56483,"zip":"9601400"},{"town":"大字鶴沢","koaza":"峰","lat":37.670893,"lng":140.562755,"zip":"9601400"},{"town":"大字鶴沢","koaza":"上矢川田","lat":37.664727,"lng":140.563256,"zip":"9601400"}]