[{"town":"対馬館町","koaza":"","lat":37.480625,"lng":139.915821,"zip":"9650847"},{"town":"神指町橋本","koaza":"","lat":37.506,"lng":139.90921,"zip":"9650080"},{"town":"飯盛三丁目","koaza":"","lat":37.503082,"lng":139.949546,"zip":"9650007"},{"town":"八角町","koaza":"","lat":37.503425,"lng":139.945306,"zip":"9650009"},{"town":"河東町工業団地","koaza":"","lat":37.546714,"lng":139.955612,"zip":"9693464"},{"town":"神指町大字中四合","koaza":"","lat":37.506306,"lng":139.895541,"zip":"9650000"},{"town":"大戸町大字高川","koaza":"","lat":37.372992,"lng":139.966305,"zip":"9650000"},{"town":"東山町大字湯川","koaza":"","lat":37.441501,"lng":139.969578,"zip":"9650000"},{"town":"大戸町大字大川","koaza":"","lat":37.334782,"lng":139.918977,"zip":"9650000"},{"town":"湊町大字平潟","koaza":"","lat":37.435559,"lng":140.044704,"zip":"9650000"},{"town":"湊町大字原","koaza":"","lat":37.446922,"lng":140.019812,"zip":"9650000"},{"town":"湊町大字赤井","koaza":"","lat":37.496431,"lng":140.003196,"zip":"9650000"},{"town":"湊町大字共和","koaza":"","lat":37.469924,"lng":140.012074,"zip":"9650000"},{"town":"門田町大字黒岩","koaza":"","lat":37.476091,"lng":139.935823,"zip":"9650000"},{"town":"門田町大字面川","koaza":"","lat":37.442833,"lng":139.915159,"zip":"9650000"},{"town":"北会津町下荒井","koaza":"","lat":37.504958,"lng":139.86386,"zip":"9650111"},{"town":"北会津町新在家","koaza":"","lat":37.470367,"lng":139.874847,"zip":"9696006"},{"town":"北会津町東麻生","koaza":"","lat":37.483537,"lng":139.872565,"zip":"9650134"},{"town":"北会津町下野","koaza":"","lat":37.45728,"lng":139.873221,"zip":"9696013"},{"town":"北会津町金屋","koaza":"","lat":37.464106,"lng":139.875283,"zip":"9696012"},{"town":"北会津町西麻生","koaza":"","lat":37.479939,"lng":139.86659,"zip":"9696003"},{"town":"北会津町松野","koaza":"","lat":37.473384,"lng":139.874063,"zip":"9696005"},{"town":"北会津町北後庵","koaza":"","lat":37.469187,"lng":139.869174,"zip":"9696007"},{"town":"北会津町中荒井","koaza":"","lat":37.492721,"lng":139.875666,"zip":"9650131"},{"town":"神指町西城戸","koaza":"","lat":37.502885,"lng":139.899187,"zip":"9650081"},{"town":"西七日町","koaza":"","lat":37.503507,"lng":139.916305,"zip":"9650045"},{"town":"五月町","koaza":"","lat":37.500761,"lng":139.912554,"zip":"9650047"},{"town":"一箕町大字八幡","koaza":"","lat":37.506147,"lng":139.952243,"zip":"9650000"},{"town":"飯盛一丁目","koaza":"","lat":37.502774,"lng":139.952921,"zip":"9650007"},{"town":"一箕町大字八角","koaza":"","lat":37.504279,"lng":139.947076,"zip":"9650000"},{"town":"滝沢町","koaza":"","lat":37.504329,"lng":139.94289,"zip":"9650022"},{"town":"平安町","koaza":"","lat":37.501346,"lng":139.94199,"zip":"9650026"},{"town":"旭町","koaza":"","lat":37.501086,"lng":139.938821,"zip":"9650032"},{"town":"蚕養町","koaza":"","lat":37.504517,"lng":139.937187,"zip":"9650023"},{"town":"相生町","koaza":"","lat":37.501692,"lng":139.935854,"zip":"9650031"},{"town":"昭和町","koaza":"","lat":37.504018,"lng":139.934302,"zip":"9650038"},{"town":"馬場本町","koaza":"","lat":37.501719,"lng":139.933383,"zip":"9650036"},{"town":"中央二丁目","koaza":"","lat":37.502217,"lng":139.931423,"zip":"9650037"},{"town":"大町二丁目","koaza":"","lat":37.5031,"lng":139.928766,"zip":"9650042"},{"town":"城北町","koaza":"","lat":37.503555,"lng":139.925096,"zip":"9650043"},{"town":"金川町","koaza":"","lat":37.504675,"lng":139.921968,"zip":"9650056"},{"town":"神指町大字黒川","koaza":"","lat":37.505426,"lng":139.906317,"zip":"9650000"},{"town":"北会津町蟹川","koaza":"","lat":37.506879,"lng":139.879416,"zip":"9650121"},{"town":"一箕町大字金堀","koaza":"","lat":37.511708,"lng":139.978469,"zip":"9650000"},{"town":"河東町八田","koaza":"","lat":37.53896,"lng":139.979064,"zip":"9693451"},{"town":"北会津町十二所","koaza":"","lat":37.502321,"lng":139.843172,"zip":"9650128"},{"town":"北会津町本田","koaza":"","lat":37.503429,"lng":139.850479,"zip":"9650129"},{"town":"北会津町真宮","koaza":"","lat":37.520619,"lng":139.868724,"zip":"9650101"},{"town":"真宮新町南四丁目","koaza":"","lat":37.521258,"lng":139.873877,"zip":"9650103"},{"town":"真宮新町北二丁目","koaza":"","lat":37.524123,"lng":139.870713,"zip":"9650102"},{"town":"真宮新町北一丁目","koaza":"","lat":37.524404,"lng":139.872814,"zip":"9650102"},{"town":"真宮新町北四丁目","koaza":"","lat":37.528871,"lng":139.870284,"zip":"9650102"},{"town":"大戸町宮内","koaza":"","lat":37.417483,"lng":139.918542,"zip":"9695113"},{"town":"大戸町小谷平沢","koaza":"","lat":37.377146,"lng":139.917267,"zip":"9695145"},{"town":"大戸町小谷西村","koaza":"","lat":37.384351,"lng":139.922096,"zip":"9695144"},{"town":"大戸町上小塩","koaza":"","lat":37.367393,"lng":139.921367,"zip":"9695132"},{"town":"大戸町小谷原","koaza":"","lat":37.382561,"lng":139.92366,"zip":"9695143"},{"town":"大戸町大字芦牧","koaza":"","lat":37.363983,"lng":139.909354,"zip":"9650000"},{"town":"大戸町上三寄大豆田","koaza":"","lat":37.388862,"lng":139.933527,"zip":"9695123"},{"town":"大戸町小谷川端","koaza":"","lat":37.386466,"lng":139.928533,"zip":"9695141"},{"town":"大戸町小谷坂下","koaza":"","lat":37.387505,"lng":139.925028,"zip":"9695142"},{"town":"大戸町大字小谷","koaza":"","lat":37.365367,"lng":139.916995,"zip":"9650000"},{"town":"大戸町上三寄香塩","koaza":"","lat":37.397011,"lng":139.933807,"zip":"9695122"},{"town":"大戸町大字上三寄","koaza":"","lat":37.407281,"lng":139.924187,"zip":"9650000"},{"town":"大戸町上三寄南原","koaza":"","lat":37.40376,"lng":139.926175,"zip":"9695121"},{"town":"大戸町上雨屋","koaza":"","lat":37.41151,"lng":139.922657,"zip":"9695114"},{"town":"湊町大字静潟","koaza":"","lat":37.462527,"lng":140.036328,"zip":"9650000"},{"town":"北青木","koaza":"","lat":37.479933,"lng":139.938263,"zip":"9650824"},{"town":"北会津町水季の里","koaza":"","lat":37.476693,"lng":139.89315,"zip":"9696015"},{"town":"北会津町古舘","koaza":"","lat":37.475667,"lng":139.89165,"zip":"9650000"},{"town":"北会津町ほたるの森","koaza":"","lat":37.49594,"lng":139.874794,"zip":"9650132"},{"town":"花春町","koaza":"","lat":37.49041,"lng":139.943374,"zip":"9650804"},{"town":"城東町","koaza":"","lat":37.486765,"lng":139.936073,"zip":"9650807"},{"town":"城南町","koaza":"","lat":37.485588,"lng":139.928555,"zip":"9650809"},{"town":"南町","koaza":"","lat":37.484539,"lng":139.928337,"zip":"9650808"},{"town":"米代二丁目","koaza":"","lat":37.486461,"lng":139.923039,"zip":"9650875"},{"town":"米代一丁目","koaza":"","lat":37.488744,"lng":139.923679,"zip":"9650875"},{"town":"城前","koaza":"","lat":37.490799,"lng":139.936124,"zip":"9650803"},{"town":"追手町","koaza":"","lat":37.488529,"lng":139.930187,"zip":"9650873"},{"town":"山鹿町","koaza":"","lat":37.490858,"lng":139.924289,"zip":"9650876"},{"town":"慶山二丁目","koaza":"","lat":37.494068,"lng":139.950936,"zip":"9650812"},{"town":"南千石町","koaza":"","lat":37.492572,"lng":139.942723,"zip":"9650816"},{"town":"和田二丁目","koaza":"","lat":37.499237,"lng":139.951217,"zip":"9650811"},{"town":"慶山一丁目","koaza":"","lat":37.493982,"lng":139.947328,"zip":"9650812"},{"town":"飯盛二丁目","koaza":"","lat":37.500953,"lng":139.948402,"zip":"9650007"},{"town":"和田一丁目","koaza":"","lat":37.498705,"lng":139.949213,"zip":"9650811"},{"town":"東千石三丁目","koaza":"","lat":37.498513,"lng":139.947094,"zip":"9650818"},{"town":"桧町","koaza":"","lat":37.500976,"lng":139.944699,"zip":"9650008"},{"town":"東千石二丁目","koaza":"","lat":37.498462,"lng":139.944604,"zip":"9650818"},{"town":"東千石一丁目","koaza":"","lat":37.49659,"lng":139.945364,"zip":"9650818"},{"town":"花畑東","koaza":"","lat":37.499465,"lng":139.941617,"zip":"9650027"},{"town":"千石町","koaza":"","lat":37.49566,"lng":139.94179,"zip":"9650817"},{"town":"行仁町","koaza":"","lat":37.497245,"lng":139.937517,"zip":"9650033"},{"town":"徒之町","koaza":"","lat":37.492565,"lng":139.936616,"zip":"9650802"},{"town":"宮町","koaza":"","lat":37.494346,"lng":139.937235,"zip":"9650801"},{"town":"上町","koaza":"","lat":37.49809,"lng":139.934228,"zip":"9650034"},{"town":"馬場町","koaza":"","lat":37.498665,"lng":139.932032,"zip":"9650035"},{"town":"東栄町","koaza":"","lat":37.493281,"lng":139.93069,"zip":"9650872"},{"town":"栄町","koaza":"","lat":37.496157,"lng":139.930875,"zip":"9650871"},{"town":"中央一丁目","koaza":"","lat":37.499073,"lng":139.930036,"zip":"9650037"},{"town":"西栄町","koaza":"","lat":37.493858,"lng":139.925217,"zip":"9650877"},{"town":"大町一丁目","koaza":"","lat":37.499911,"lng":139.927373,"zip":"9650042"},{"town":"中町","koaza":"","lat":37.4969,"lng":139.925844,"zip":"9650878"},{"town":"北会津町二日町","koaza":"","lat":37.495051,"lng":139.884425,"zip":"9650133"},{"town":"大戸町石村","koaza":"","lat":37.432912,"lng":139.913212,"zip":"9695111"},{"town":"大戸町下雨屋","koaza":"","lat":37.420417,"lng":139.919047,"zip":"9695112"},{"town":"門田町大字堤沢","koaza":"","lat":37.448145,"lng":139.937648,"zip":"9650000"},{"town":"門田町大字一ノ堰","koaza":"","lat":37.455974,"lng":139.913461,"zip":"9650000"},{"town":"北会津町東小松","koaza":"","lat":37.473086,"lng":139.889309,"zip":"9696188"},{"town":"北会津町小松","koaza":"","lat":37.466837,"lng":139.886738,"zip":"9696189"},{"town":"東山町大字湯本","koaza":"","lat":37.476474,"lng":139.963858,"zip":"9650000"},{"town":"東山町大字石山","koaza":"","lat":37.487713,"lng":139.951734,"zip":"9650000"},{"town":"花見ケ丘三丁目","koaza":"","lat":37.483377,"lng":139.941469,"zip":"9650822"},{"town":"建福寺前","koaza":"","lat":37.482588,"lng":139.938988,"zip":"9650823"},{"town":"門田町大字御山","koaza":"","lat":37.46455,"lng":139.928837,"zip":"9650000"},{"town":"東年貢二丁目","koaza":"","lat":37.472784,"lng":139.927369,"zip":"9650839"},{"town":"天神町","koaza":"","lat":37.481229,"lng":139.933995,"zip":"9650832"},{"town":"東年貢一丁目","koaza":"","lat":37.474929,"lng":139.927798,"zip":"9650839"},{"town":"古川町","koaza":"","lat":37.47706,"lng":139.928226,"zip":"9650838"},{"town":"明和町","koaza":"","lat":37.479079,"lng":139.928042,"zip":"9650833"},{"town":"表町","koaza":"","lat":37.481664,"lng":139.928763,"zip":"9650831"},{"town":"西年貢二丁目","koaza":"","lat":37.475496,"lng":139.923194,"zip":"9650830"},{"town":"錦町","koaza":"","lat":37.482322,"lng":139.923811,"zip":"9650837"},{"town":"門田町大字中野","koaza":"","lat":37.468238,"lng":139.921801,"zip":"9650000"},{"town":"門田町大字年貢町","koaza":"","lat":37.471045,"lng":139.926302,"zip":"9650000"},{"town":"西年貢一丁目","koaza":"","lat":37.478034,"lng":139.922523,"zip":"9650830"},{"town":"館馬町","koaza":"","lat":37.480502,"lng":139.922798,"zip":"9650835"},{"town":"南花畑","koaza":"","lat":37.485098,"lng":139.922464,"zip":"9650874"},{"town":"館脇町","koaza":"","lat":37.481666,"lng":139.918979,"zip":"9650836"},{"town":"門田町大字日吉","koaza":"","lat":37.477046,"lng":139.915244,"zip":"9650000"},{"town":"桜町","koaza":"","lat":37.480319,"lng":139.911671,"zip":"9650854"},{"town":"北会津町上米塚","koaza":"","lat":37.465665,"lng":139.896514,"zip":"9696183"},{"town":"北会津町三本松","koaza":"","lat":37.475205,"lng":139.894737,"zip":"9696184"},{"town":"北会津町両堂","koaza":"","lat":37.475974,"lng":139.883475,"zip":"9696180"},{"town":"湯川南","koaza":"","lat":37.48588,"lng":139.947004,"zip":"9650821"},{"town":"花見ケ丘一丁目","koaza":"","lat":37.485787,"lng":139.941559,"zip":"9650822"},{"town":"花見ケ丘二丁目","koaza":"","lat":37.486039,"lng":139.944185,"zip":"9650822"},{"town":"宝町","koaza":"","lat":37.487243,"lng":139.940663,"zip":"9650806"},{"town":"天寧寺町","koaza":"","lat":37.488421,"lng":139.947093,"zip":"9650805"},{"town":"城西町","koaza":"","lat":37.484133,"lng":139.91595,"zip":"9650864"},{"town":"湯川町","koaza":"","lat":37.488795,"lng":139.918804,"zip":"9650863"},{"town":"川原町","koaza":"","lat":37.488574,"lng":139.915687,"zip":"9650865"},{"town":"七日町","koaza":"","lat":37.500799,"lng":139.922182,"zip":"9650044"},{"town":"本町","koaza":"","lat":37.49352,"lng":139.918832,"zip":"9650862"},{"town":"日新町","koaza":"","lat":37.497513,"lng":139.920591,"zip":"9650861"},{"town":"新横町","koaza":"","lat":37.491511,"lng":139.916117,"zip":"9650866"},{"town":"緑町","koaza":"","lat":37.495372,"lng":139.913543,"zip":"9650867"},{"town":"八日町","koaza":"","lat":37.499921,"lng":139.915891,"zip":"9650046"},{"town":"材木町一丁目","koaza":"","lat":37.487745,"lng":139.911834,"zip":"9650853"},{"town":"日吉町","koaza":"","lat":37.489987,"lng":139.909167,"zip":"9650852"},{"town":"幕内東町","koaza":"","lat":37.489823,"lng":139.905718,"zip":"9650856"},{"town":"御旗町","koaza":"","lat":37.492985,"lng":139.911144,"zip":"9650851"},{"town":"柳原町一丁目","koaza":"","lat":37.49271,"lng":139.906644,"zip":"9650857"},{"town":"柳原町二丁目","koaza":"","lat":37.495016,"lng":139.907108,"zip":"9650857"},{"town":"柳原町四丁目","koaza":"","lat":37.493363,"lng":139.904122,"zip":"9650857"},{"town":"柳原町三丁目","koaza":"","lat":37.496511,"lng":139.904147,"zip":"9650857"},{"town":"北会津町下米塚","koaza":"","lat":37.485153,"lng":139.886658,"zip":"9696185"},{"town":"北会津町柏原","koaza":"","lat":37.481042,"lng":139.878087,"zip":"9696182"},{"town":"北会津町古麻生","koaza":"","lat":37.472921,"lng":139.868055,"zip":"9696004"},{"town":"北会津町麻生新田","koaza":"","lat":37.479838,"lng":139.858329,"zip":"9696002"},{"town":"北会津町西後庵","koaza":"","lat":37.464816,"lng":139.865594,"zip":"9696011"},{"town":"北会津町大島","koaza":"","lat":37.474455,"lng":139.862399,"zip":"9696008"},{"town":"北会津町今和泉","koaza":"","lat":37.493763,"lng":139.864839,"zip":"9650136"},{"town":"北会津町天満","koaza":"","lat":37.484703,"lng":139.854686,"zip":"9696001"},{"town":"北会津町寺堀","koaza":"","lat":37.489089,"lng":139.861321,"zip":"9650135"},{"town":"北会津町鷺林","koaza":"","lat":37.497337,"lng":139.855473,"zip":"9650126"},{"town":"北会津町宮袋","koaza":"","lat":37.488721,"lng":139.854607,"zip":"9650124"},{"town":"北会津町宮袋新田","koaza":"","lat":37.496471,"lng":139.845129,"zip":"9650127"},{"town":"神指町東城戸","koaza":"","lat":37.508937,"lng":139.905173,"zip":"9650089"},{"town":"神指町高瀬新田","koaza":"","lat":37.516659,"lng":139.900338,"zip":"9650087"},{"town":"神指町本丸","koaza":"","lat":37.510901,"lng":139.892453,"zip":"9650086"},{"town":"神指町如来堂","koaza":"","lat":37.509025,"lng":139.891523,"zip":"9650085"},{"town":"神指町高瀬","koaza":"","lat":37.51571,"lng":139.895755,"zip":"9650063"},{"town":"神指町上神指","koaza":"","lat":37.517625,"lng":139.888206,"zip":"9650083"},{"town":"神指町榎木檀","koaza":"","lat":37.52176,"lng":139.895046,"zip":"9650082"},{"town":"神指町東神指","koaza":"","lat":37.521733,"lng":139.891241,"zip":"9650084"},{"town":"神指町天満","koaza":"","lat":37.504421,"lng":139.899225,"zip":"9650069"},{"town":"神指町小見","koaza":"","lat":37.504297,"lng":139.893833,"zip":"9650068"},{"town":"神指町下神指","koaza":"","lat":37.527571,"lng":139.884098,"zip":"9650067"},{"town":"神指町横沼","koaza":"","lat":37.530025,"lng":139.883058,"zip":"9650066"},{"town":"大塚一丁目","koaza":"","lat":37.515192,"lng":139.951393,"zip":"9650014"},{"town":"大塚二丁目","koaza":"","lat":37.515607,"lng":139.948037,"zip":"9650014"},{"town":"北滝沢一丁目","koaza":"","lat":37.512628,"lng":139.951044,"zip":"9650015"},{"town":"中島町","koaza":"","lat":37.509968,"lng":139.950408,"zip":"9650016"},{"town":"北滝沢二丁目","koaza":"","lat":37.512088,"lng":139.947506,"zip":"9650015"},{"town":"山見町","koaza":"","lat":37.508085,"lng":139.941666,"zip":"9650021"},{"town":"白虎町","koaza":"","lat":37.508691,"lng":139.935195,"zip":"9650024"},{"town":"扇町","koaza":"","lat":37.512517,"lng":139.934483,"zip":"9650025"},{"town":"中央三丁目","koaza":"","lat":37.505198,"lng":139.932715,"zip":"9650037"},{"town":"駅前町","koaza":"","lat":37.508953,"lng":139.930528,"zip":"9650041"},{"town":"石堂町","koaza":"","lat":37.50798,"lng":139.927823,"zip":"9650055"},{"town":"町北町大字石堂","koaza":"","lat":37.509333,"lng":139.924848,"zip":"9650000"},{"town":"河東町広田","koaza":"","lat":37.545888,"lng":139.928158,"zip":"9693471"},{"town":"高野町上沼","koaza":"","lat":37.541445,"lng":139.919211,"zip":"9650073"},{"town":"高野町橋本木流","koaza":"","lat":37.543496,"lng":139.914069,"zip":"9650072"},{"town":"河東町南高野","koaza":"","lat":37.556571,"lng":139.938341,"zip":"9693441"},{"town":"河東町熊野堂","koaza":"","lat":37.56014,"lng":139.920149,"zip":"9693421"},{"town":"河東町倉橋","koaza":"","lat":37.533857,"lng":139.92712,"zip":"9693463"},{"town":"高野町平塚","koaza":"","lat":37.538392,"lng":139.915577,"zip":"9650074"},{"town":"高野町中前田","koaza":"","lat":37.527731,"lng":139.928622,"zip":"9650075"},{"town":"インター西","koaza":"","lat":37.524294,"lng":139.914748,"zip":"9650059"},{"town":"高野町大字中沼","koaza":"","lat":37.533129,"lng":139.914572,"zip":"9650000"},{"town":"高野町大字上高野","koaza":"","lat":37.526997,"lng":139.907211,"zip":"9650000"},{"town":"町北町中沢西","koaza":"","lat":37.514505,"lng":139.902683,"zip":"9650088"},{"town":"神指町大字高瀬","koaza":"","lat":37.513716,"lng":139.898131,"zip":"9650000"},{"town":"町北町大字中沢","koaza":"","lat":37.521646,"lng":139.901622,"zip":"9650000"},{"town":"高野町大字柳川","koaza":"","lat":37.538502,"lng":139.899657,"zip":"9650000"},{"town":"高野町大字木流","koaza":"","lat":37.54367,"lng":139.907333,"zip":"9650000"},{"town":"河東町郡山","koaza":"","lat":37.550523,"lng":139.91911,"zip":"9693481"},{"town":"河東町谷沢","koaza":"","lat":37.555284,"lng":139.907933,"zip":"9693482"},{"town":"高野町大字界沢","koaza":"","lat":37.540474,"lng":139.888879,"zip":"9650000"},{"town":"河東町代田","koaza":"","lat":37.563822,"lng":139.903638,"zip":"9693412"},{"town":"一箕町松長六丁目","koaza":"","lat":37.525354,"lng":139.959963,"zip":"9650001"},{"town":"一箕町松長三丁目","koaza":"","lat":37.528735,"lng":139.956806,"zip":"9650001"},{"town":"一箕町松長四丁目","koaza":"","lat":37.527045,"lng":139.958166,"zip":"9650001"},{"town":"一箕町松長五丁目","koaza":"","lat":37.5279,"lng":139.962582,"zip":"9650001"},{"town":"一箕町松長二丁目","koaza":"","lat":37.528042,"lng":139.953247,"zip":"9650001"},{"town":"一箕町松長一丁目","koaza":"","lat":37.531654,"lng":139.956755,"zip":"9650001"},{"town":"真宮新町南一丁目","koaza":"","lat":37.513302,"lng":139.876764,"zip":"9650103"},{"town":"真宮新町南三丁目","koaza":"","lat":37.51808,"lng":139.874987,"zip":"9650103"},{"town":"真宮新町南二丁目","koaza":"","lat":37.51777,"lng":139.877211,"zip":"9650103"},{"town":"神指町大字高久","koaza":"","lat":37.540348,"lng":139.877701,"zip":"9650000"},{"town":"橋本二丁目","koaza":"","lat":37.504283,"lng":139.911104,"zip":"9650048"},{"town":"橋本一丁目","koaza":"","lat":37.504886,"lng":139.912472,"zip":"9650048"},{"town":"河東町金田","koaza":"","lat":37.542192,"lng":139.951616,"zip":"9693462"},{"town":"河東町浅山","koaza":"","lat":37.54853,"lng":139.940706,"zip":"9693461"},{"town":"河東町大田原","koaza":"","lat":37.571438,"lng":139.922995,"zip":"9693411"},{"town":"河東町岡田","koaza":"","lat":37.574857,"lng":139.913725,"zip":"9693401"},{"town":"河東町福島","koaza":"","lat":37.574468,"lng":139.902507,"zip":"9693402"},{"town":"町北町大字藤室","koaza":"","lat":37.513502,"lng":139.9163,"zip":"9650000"},{"town":"一箕町大字松長","koaza":"","lat":37.522689,"lng":139.956563,"zip":"9650000"},{"town":"堤町","koaza":"","lat":37.517847,"lng":139.950891,"zip":"9650013"},{"town":"居合町","koaza":"","lat":37.518981,"lng":139.947567,"zip":"9650012"},{"town":"鶴賀町","koaza":"","lat":37.523059,"lng":139.946211,"zip":"9650011"},{"town":"一箕町大字亀賀","koaza":"","lat":37.516543,"lng":139.939368,"zip":"9650000"},{"town":"町北町大字上荒久田","koaza":"","lat":37.516423,"lng":139.926879,"zip":"9650000"},{"town":"町北町谷地","koaza":"","lat":37.520701,"lng":139.931706,"zip":"9650051"},{"town":"町北町大字始","koaza":"","lat":37.521322,"lng":139.922384,"zip":"9650000"},{"town":"一箕町大字鶴賀","koaza":"","lat":37.524787,"lng":139.940449,"zip":"9650000"},{"town":"河東町東長原","koaza":"","lat":37.564436,"lng":139.948156,"zip":"9693431"},{"town":"河東町広野","koaza":"","lat":37.566561,"lng":139.934229,"zip":"9693422"},{"town":"北会津町白山","koaza":"","lat":37.510927,"lng":139.866145,"zip":"9650112"},{"town":"北会津町中里","koaza":"","lat":37.514204,"lng":139.867537,"zip":"9650110"},{"town":"北会津町舘","koaza":"","lat":37.51615,"lng":139.855389,"zip":"9650115"},{"town":"北会津町安良田","koaza":"","lat":37.5098,"lng":139.854064,"zip":"9650113"},{"town":"北会津町宮ノ下","koaza":"","lat":37.513715,"lng":139.850093,"zip":"9650114"},{"town":"北会津町石原","koaza":"","lat":37.516142,"lng":139.861543,"zip":"9650118"},{"town":"真宮新町北三丁目","koaza":"","lat":37.528325,"lng":139.868428,"zip":"9650102"},{"town":"北会津町田村山","koaza":"","lat":37.521466,"lng":139.860151,"zip":"9650117"},{"town":"北会津町出尻","koaza":"","lat":37.520114,"lng":139.852359,"zip":"9650116"},{"town":"北会津町和泉","koaza":"","lat":37.525882,"lng":139.853042,"zip":"9650107"},{"town":"神指町大字北四合","koaza":"","lat":37.524884,"lng":139.886989,"zip":"9650000"},{"town":"材木町二丁目","koaza":"","lat":37.484004,"lng":139.911439,"zip":"9650853"},{"town":"飯寺北一丁目","koaza":"","lat":37.4839,"lng":139.908064,"zip":"9650848"},{"town":"神指町大字南四合","koaza":"","lat":37.491255,"lng":139.897416,"zip":"9650000"},{"town":"門田町大字飯寺","koaza":"","lat":37.474274,"lng":139.904489,"zip":"9650000"},{"town":"幕内南町","koaza":"","lat":37.484176,"lng":139.904656,"zip":"9650849"},{"town":"門田町大字徳久","koaza":"","lat":37.469521,"lng":139.915919,"zip":"9650000"},{"town":"門田町工業団地","koaza":"","lat":37.466708,"lng":139.910322,"zip":"9650845"},{"town":"住吉町","koaza":"","lat":37.48674,"lng":139.906658,"zip":"9650855"},{"town":"門田町根岸東","koaza":"","lat":37.449298,"lng":139.921667,"zip":"9650829"},{"town":"門田町堤沢","koaza":"","lat":37.455844,"lng":139.923984,"zip":"9650827"},{"town":"北会津町宮袋","koaza":"舘ノ内","lat":37.488887,"lng":139.852585,"zip":"9650124"},{"town":"北会津町田村山","koaza":"塚越","lat":37.521727,"lng":139.861285,"zip":"9650117"},{"town":"北会津町寺堀","koaza":"四百苅","lat":37.489789,"lng":139.863183,"zip":"9650135"},{"town":"北会津町下荒井","koaza":"八幡前","lat":37.50796,"lng":139.867359,"zip":"9650111"},{"town":"北会津町下荒井","koaza":"上ノ台","lat":37.502017,"lng":139.86738,"zip":"9650111"},{"town":"北会津町下荒井","koaza":"矢倉林","lat":37.498466,"lng":139.869851,"zip":"9650111"},{"town":"北会津町東麻生","koaza":"宮田","lat":37.485684,"lng":139.870473,"zip":"9650134"},{"town":"北会津町下荒井","koaza":"中里前","lat":37.509252,"lng":139.871918,"zip":"9650111"},{"town":"北会津町中荒井","koaza":"西舘","lat":37.495662,"lng":139.872273,"zip":"9650131"},{"town":"北会津町中荒井","koaza":"宮西","lat":37.493058,"lng":139.873722,"zip":"9650131"},{"town":"北会津町真宮","koaza":"真渡","lat":37.516692,"lng":139.87368,"zip":"9650101"},{"town":"北会津町中荒井","koaza":"諏訪前","lat":37.491375,"lng":139.874015,"zip":"9650131"},{"town":"北会津町中荒井","koaza":"墓前","lat":37.497709,"lng":139.874961,"zip":"9650131"},{"town":"北会津町中荒井","koaza":"梁場","lat":37.496426,"lng":139.875028,"zip":"9650131"},{"town":"神指町大字高久","koaza":"高久","lat":37.539175,"lng":139.877469,"zip":"9650000"},{"town":"北会津町真宮","koaza":"礫","lat":37.512409,"lng":139.875073,"zip":"9650101"},{"town":"神指町大字高久","koaza":"北條","lat":37.543169,"lng":139.876821,"zip":"9650000"},{"town":"北会津町蟹川","koaza":"小出","lat":37.502768,"lng":139.875503,"zip":"9650121"},{"town":"北会津町新在家","koaza":"西川端","lat":37.470441,"lng":139.877221,"zip":"9696006"},{"town":"北会津町蟹川","koaza":"小出分","lat":37.502666,"lng":139.876593,"zip":"9650121"},{"town":"北会津町中荒井","koaza":"中川原","lat":37.49364,"lng":139.878333,"zip":"9650131"},{"town":"北会津町蟹川","koaza":"川崎","lat":37.50386,"lng":139.879373,"zip":"9650121"},{"town":"北会津町両堂","koaza":"大泉","lat":37.473852,"lng":139.878788,"zip":"9696180"},{"town":"北会津町小松","koaza":"北面","lat":37.470877,"lng":139.87948,"zip":"9696189"},{"town":"北会津町蟹川","koaza":"上川崎","lat":37.512738,"lng":139.880374,"zip":"9650121"},{"town":"神指町大字高久","koaza":"東高久","lat":37.543254,"lng":139.881798,"zip":"9650000"},{"town":"北会津町蟹川","koaza":"村東","lat":37.502785,"lng":139.882235,"zip":"9650121"},{"town":"神指町大字北四合","koaza":"伊丹堂","lat":37.523402,"lng":139.882506,"zip":"9650000"},{"town":"北会津町二日町","koaza":"下川原","lat":37.496383,"lng":139.881778,"zip":"9650133"},{"town":"北会津町下米塚","koaza":"小姓","lat":37.48436,"lng":139.883933,"zip":"9696185"},{"town":"神指町下神指","koaza":"若干泥","lat":37.527189,"lng":139.884514,"zip":"9650067"},{"town":"神指町大字北四合","koaza":"横沼前丙","lat":37.529968,"lng":139.884026,"zip":"9650000"},{"town":"北会津町両堂","koaza":"宮ノ下","lat":37.474279,"lng":139.886025,"zip":"9696180"},{"town":"北会津町下米塚","koaza":"宮の腰","lat":37.482065,"lng":139.884918,"zip":"9696185"},{"town":"北会津町下米塚","koaza":"古屋敷","lat":37.481513,"lng":139.888658,"zip":"9696185"},{"town":"神指町大字北四合","koaza":"堂ノ下丁","lat":37.528483,"lng":139.886036,"zip":"9650000"},{"town":"北会津町東小松","koaza":"舘ノ内","lat":37.471913,"lng":139.886636,"zip":"9696188"},{"town":"神指町大字北四合","koaza":"東神指","lat":37.522878,"lng":139.887442,"zip":"9650000"},{"town":"神指町大字北四合","koaza":"下吉六甲","lat":37.51754,"lng":139.888367,"zip":"9650000"},{"town":"北会津町東小松","koaza":"北古川","lat":37.47474,"lng":139.88846,"zip":"9696188"},{"town":"神指町大字北四合","koaza":"横沼東","lat":37.528115,"lng":139.888376,"zip":"9650000"},{"town":"高野町大字界沢","koaza":"村西","lat":37.537127,"lng":139.888819,"zip":"9650000"},{"town":"北会津町東小松","koaza":"南古川","lat":37.472793,"lng":139.891325,"zip":"9696188"},{"town":"高野町大字界沢","koaza":"界沢","lat":37.542342,"lng":139.890406,"zip":"9650000"},{"town":"神指町大字北四合","koaza":"榎木檀","lat":37.525641,"lng":139.891587,"zip":"9650000"},{"town":"神指町大字北四合","koaza":"小二百苅乙","lat":37.52166,"lng":139.890553,"zip":"9650000"},{"town":"北会津町下米塚","koaza":"高田街道上","lat":37.479639,"lng":139.891495,"zip":"9696185"},{"town":"神指町大字中四合","koaza":"村添丁","lat":37.509508,"lng":139.891836,"zip":"9650000"},{"town":"神指町高瀬","koaza":"大田","lat":37.51117,"lng":139.892718,"zip":"9650063"},{"town":"神指町大字南四合","koaza":"才ノ神","lat":37.499694,"lng":139.896248,"zip":"9650000"},{"town":"神指町大字北四合","koaza":"榎木下乙","lat":37.523197,"lng":139.892891,"zip":"9650000"},{"town":"神指町高瀬","koaza":"五百地","lat":37.514374,"lng":139.893675,"zip":"9650063"},{"town":"高野町大字柳川","koaza":"吉田","lat":37.536673,"lng":139.893904,"zip":"9650000"},{"town":"神指町大字中四合","koaza":"小見前","lat":37.501762,"lng":139.895213,"zip":"9650000"},{"town":"北会津町三本松","koaza":"中大川向","lat":37.475233,"lng":139.894517,"zip":"9696184"},{"town":"神指町高瀬","koaza":"高瀬","lat":37.515483,"lng":139.895651,"zip":"9650063"},{"town":"河東町福島","koaza":"西屋敷","lat":37.570144,"lng":139.898435,"zip":"9693402"},{"town":"神指町大字南四合","koaza":"深川西","lat":37.493572,"lng":139.896067,"zip":"9650000"},{"town":"高野町大字柳川","koaza":"森台","lat":37.543789,"lng":139.897823,"zip":"9650000"},{"town":"神指町大字中四合","koaza":"寺西","lat":37.503779,"lng":139.896207,"zip":"9650000"},{"town":"神指町大字南四合","koaza":"幕内西","lat":37.48872,"lng":139.897269,"zip":"9650000"},{"town":"河東町代田","koaza":"戌亥","lat":37.566414,"lng":139.90266,"zip":"9693412"},{"town":"神指町高瀬","koaza":"大道東","lat":37.518408,"lng":139.9004,"zip":"9650063"},{"town":"河東町代田","koaza":"大坪","lat":37.563109,"lng":139.899695,"zip":"9693412"},{"town":"神指町大字南四合","koaza":"深川","lat":37.493362,"lng":139.899438,"zip":"9650000"},{"town":"神指町大字中四合","koaza":"宮西","lat":37.506632,"lng":139.897954,"zip":"9650000"},{"town":"神指町高瀬","koaza":"滑田","lat":37.517636,"lng":139.899303,"zip":"9650063"},{"town":"高野町大字柳川","koaza":"下高野","lat":37.536233,"lng":139.90199,"zip":"9650000"},{"town":"神指町大字南四合","koaza":"深川東","lat":37.496557,"lng":139.899456,"zip":"9650000"},{"town":"神指町大字南四合","koaza":"幕内","lat":37.489077,"lng":139.901806,"zip":"9650000"},{"town":"神指町大字中四合","koaza":"村東甲","lat":37.504813,"lng":139.901729,"zip":"9650000"},{"town":"門田町大字飯寺","koaza":"村西","lat":37.477621,"lng":139.904506,"zip":"9650000"},{"town":"町北町大字中沢","koaza":"中地","lat":37.52464,"lng":139.902456,"zip":"9650000"},{"town":"河東町代田","koaza":"代田","lat":37.562078,"lng":139.903776,"zip":"9693412"},{"town":"神指町大字南四合","koaza":"幕内北","lat":37.492446,"lng":139.902393,"zip":"9650000"},{"town":"神指町大字南四合","koaza":"幕内南","lat":37.485181,"lng":139.901728,"zip":"9650000"},{"town":"町北町大字中沢","koaza":"新田","lat":37.515407,"lng":139.902772,"zip":"9650000"},{"town":"神指町大字南四合","koaza":"柳原","lat":37.495074,"lng":139.902035,"zip":"9650000"},{"town":"河東町福島","koaza":"大曲","lat":37.570205,"lng":139.904745,"zip":"9693402"},{"town":"門田町大字飯寺","koaza":"上川原","lat":37.468777,"lng":139.90568,"zip":"9650000"},{"town":"河東町代田","koaza":"北畑","lat":37.568015,"lng":139.905524,"zip":"9693412"},{"town":"高野町大字木流","koaza":"木流","lat":37.543853,"lng":139.905517,"zip":"9650000"},{"town":"町北町大字中沢","koaza":"平沢","lat":37.516663,"lng":139.907627,"zip":"9650000"},{"town":"神指町大字中四合","koaza":"千苅","lat":37.501875,"lng":139.904337,"zip":"9650000"},{"town":"河東町福島","koaza":"島原","lat":37.579608,"lng":139.908565,"zip":"9693402"},{"town":"門田町大字飯寺","koaza":"村東","lat":37.47498,"lng":139.906677,"zip":"9650000"},{"town":"神指町大字黒川","koaza":"三ツ谷甲","lat":37.505113,"lng":139.904741,"zip":"9650000"},{"town":"神指町大字黒川","koaza":"村南","lat":37.507417,"lng":139.904877,"zip":"9650000"},{"town":"大戸町大字芦牧","koaza":"下タ平","lat":37.366356,"lng":139.912114,"zip":"9650000"},{"town":"高野町大字木流","koaza":"橋本","lat":37.54279,"lng":139.911683,"zip":"9650000"},{"town":"高野町橋本木流","koaza":"町畑","lat":37.544351,"lng":139.912155,"zip":"9650072"},{"town":"神指町大字黒川","koaza":"三ツ谷前甲","lat":37.505053,"lng":139.905434,"zip":"9650000"},{"town":"河東町谷沢","koaza":"十文字","lat":37.554065,"lng":139.907841,"zip":"9693482"},{"town":"神指町大字黒川","koaza":"村前","lat":37.507214,"lng":139.906352,"zip":"9650000"},{"town":"神指町大字黒川","koaza":"城戸前","lat":37.506773,"lng":139.905748,"zip":"9650000"},{"town":"河東町谷沢","koaza":"高畑","lat":37.557439,"lng":139.907964,"zip":"9693482"},{"town":"高野町大字中沼","koaza":"鶴沼","lat":37.535618,"lng":139.908366,"zip":"9650000"},{"town":"河東町谷沢","koaza":"沢目","lat":37.55938,"lng":139.90724,"zip":"9693482"},{"town":"高野町大字上高野","koaza":"村内","lat":37.526745,"lng":139.909241,"zip":"9650000"},{"town":"門田町大字一ノ堰","koaza":"土手外","lat":37.462613,"lng":139.908399,"zip":"9650000"},{"town":"高野町大字上高野","koaza":"村前","lat":37.522893,"lng":139.91015,"zip":"9650000"},{"town":"神指町大字黒川","koaza":"芦野","lat":37.506974,"lng":139.908309,"zip":"9650000"},{"town":"門田町大字徳久","koaza":"竹之元","lat":37.470788,"lng":139.914037,"zip":"9650000"},{"town":"神指町大字黒川","koaza":"石上","lat":37.511743,"lng":139.909535,"zip":"9650000"},{"town":"大戸町大字芦牧","koaza":"壇ノ下","lat":37.365411,"lng":139.910859,"zip":"9650000"},{"town":"河東町谷沢","koaza":"京手","lat":37.558452,"lng":139.911647,"zip":"9693482"},{"town":"門田町大字一ノ堰","koaza":"村西","lat":37.459082,"lng":139.910638,"zip":"9650000"},{"town":"門田町大字日吉","koaza":"丑渕","lat":37.476956,"lng":139.911487,"zip":"9650000"},{"town":"河東町岡田","koaza":"岡谷地","lat":37.573773,"lng":139.910337,"zip":"9693401"},{"town":"河東町郡山","koaza":"西原","lat":37.547113,"lng":139.910685,"zip":"9693481"},{"town":"神指町大字黒川","koaza":"湯川東","lat":37.508701,"lng":139.912921,"zip":"9650000"},{"town":"河東町岡田","koaza":"方便","lat":37.574759,"lng":139.918779,"zip":"9693401"},{"town":"町北町大字藤室","koaza":"横道","lat":37.515954,"lng":139.911388,"zip":"9650000"},{"town":"門田町大字面川","koaza":"花坂","lat":37.44589,"lng":139.914192,"zip":"9650000"},{"town":"河東町郡山","koaza":"本宮","lat":37.552626,"lng":139.911078,"zip":"9693481"},{"town":"河東町大田原","koaza":"高水口","lat":37.567631,"lng":139.912609,"zip":"9693411"},{"town":"河東町福島","koaza":"簗前","lat":37.580946,"lng":139.911831,"zip":"9693402"},{"town":"河東町福島","koaza":"東面","lat":37.580056,"lng":139.914448,"zip":"9693402"},{"town":"河東町郡山","koaza":"南保子田","lat":37.547908,"lng":139.911833,"zip":"9693481"},{"town":"町北町大字藤室","koaza":"藤室","lat":37.51199,"lng":139.916815,"zip":"9650000"},{"town":"河東町郡山","koaza":"村東","lat":37.553874,"lng":139.912251,"zip":"9693481"},{"town":"町北町大字藤室","koaza":"道下","lat":37.518382,"lng":139.914141,"zip":"9650000"},{"town":"高野町大字中沼","koaza":"下沼木","lat":37.53325,"lng":139.912406,"zip":"9650000"},{"town":"町北町大字藤室","koaza":"達摩","lat":37.516376,"lng":139.914236,"zip":"9650000"},{"town":"大戸町大字小谷","koaza":"湯ノ平","lat":37.370481,"lng":139.917522,"zip":"9650000"},{"town":"高野町大字中沼","koaza":"沼木","lat":37.530794,"lng":139.915011,"zip":"9650000"},{"town":"高野町大字中沼","koaza":"西坂才甲","lat":37.533894,"lng":139.914388,"zip":"9650000"},{"town":"河東町郡山","koaza":"二本杉","lat":37.548667,"lng":139.915874,"zip":"9693481"},{"town":"門田町大字面川","koaza":"荒町","lat":37.435993,"lng":139.914818,"zip":"9650000"},{"town":"門田町大字日吉","koaza":"笊籬田","lat":37.477309,"lng":139.915204,"zip":"9650000"},{"town":"河東町大田原","koaza":"村中","lat":37.565907,"lng":139.917103,"zip":"9693411"},{"town":"高野町大字中沼","koaza":"中坂才甲","lat":37.534267,"lng":139.915807,"zip":"9650000"},{"town":"門田町大字一ノ堰","koaza":"羽黒前","lat":37.446883,"lng":139.915678,"zip":"9650000"},{"town":"門田町大字面川","koaza":"中島","lat":37.441854,"lng":139.914186,"zip":"9650000"},{"town":"町北町大字始","koaza":"宮前","lat":37.518352,"lng":139.916511,"zip":"9650000"},{"town":"門田町大字一ノ堰","koaza":"村東","lat":37.462548,"lng":139.915225,"zip":"9650000"},{"town":"河東町郡山","koaza":"北郡","lat":37.5501,"lng":139.916395,"zip":"9693481"},{"town":"河東町熊野堂","koaza":"櫓","lat":37.563101,"lng":139.916756,"zip":"9693421"},{"town":"町北町大字始","koaza":"中ノ明","lat":37.515895,"lng":139.916991,"zip":"9650000"},{"town":"門田町大字面川","koaza":"館堀","lat":37.434037,"lng":139.919012,"zip":"9650000"},{"town":"高野町大字中沼","koaza":"堰前","lat":37.527485,"lng":139.918367,"zip":"9650000"},{"town":"河東町郡山","koaza":"古宮","lat":37.547973,"lng":139.917842,"zip":"9693481"},{"town":"門田町大字面川","koaza":"根岸","lat":37.44737,"lng":139.922269,"zip":"9650000"},{"town":"町北町大字始","koaza":"屋敷","lat":37.52236,"lng":139.91944,"zip":"9650000"},{"town":"河東町大田原","koaza":"村東","lat":37.567865,"lng":139.921921,"zip":"9693411"},{"town":"門田町大字面川","koaza":"清水上","lat":37.437225,"lng":139.918505,"zip":"9650000"},{"town":"門田町大字日吉","koaza":"小金井","lat":37.477826,"lng":139.919703,"zip":"9650000"},{"town":"河東町郡山","koaza":"金道","lat":37.553531,"lng":139.924324,"zip":"9693481"},{"town":"河東町熊野堂","koaza":"村内","lat":37.561208,"lng":139.920741,"zip":"9693421"},{"town":"高野町大字中沼","koaza":"四百苅乙","lat":37.530801,"lng":139.919173,"zip":"9650000"},{"town":"河東町大田原","koaza":"鴨田","lat":37.57192,"lng":139.923031,"zip":"9693411"},{"town":"高野町大字中沼","koaza":"沼川沿","lat":37.529732,"lng":139.919751,"zip":"9650000"},{"town":"町北町大字始","koaza":"観音前","lat":37.517489,"lng":139.92024,"zip":"9650000"},{"town":"門田町大字中野","koaza":"村南","lat":37.46951,"lng":139.920179,"zip":"9650000"},{"town":"門田町大字中野","koaza":"屋敷","lat":37.471067,"lng":139.922625,"zip":"9650000"},{"town":"河東町熊野堂","koaza":"原田","lat":37.55726,"lng":139.921304,"zip":"9693421"},{"town":"門田町大字堤沢","koaza":"道西","lat":37.456619,"lng":139.920991,"zip":"9650000"},{"town":"門田町大字面川","koaza":"上野","lat":37.43959,"lng":139.920128,"zip":"9650000"},{"town":"町北町大字始","koaza":"見島","lat":37.524942,"lng":139.922732,"zip":"9650000"},{"town":"門田町大字中野","koaza":"村北","lat":37.473295,"lng":139.921549,"zip":"9650000"},{"town":"門田町大字中野","koaza":"大道西","lat":37.465783,"lng":139.921639,"zip":"9650000"},{"town":"町北町大字藤室","koaza":"藤室南","lat":37.508055,"lng":139.921365,"zip":"9650000"},{"town":"門田町大字御山","koaza":"村上","lat":37.462846,"lng":139.925846,"zip":"9650000"},{"town":"河東町大田原","koaza":"柏原","lat":37.574281,"lng":139.924629,"zip":"9693411"},{"town":"町北町大字始","koaza":"根柄","lat":37.524293,"lng":139.921659,"zip":"9650000"},{"town":"町北町大字上荒久田","koaza":"宮下","lat":37.5174,"lng":139.924523,"zip":"9650000"},{"town":"門田町大字堤沢","koaza":"下村","lat":37.452013,"lng":139.924067,"zip":"9650000"},{"town":"門田町大字堤沢","koaza":"中田","lat":37.456771,"lng":139.923236,"zip":"9650000"},{"town":"町北町大字始","koaza":"深町","lat":37.521148,"lng":139.923626,"zip":"9650000"},{"town":"門田町大字堤沢","koaza":"北村","lat":37.458372,"lng":139.927368,"zip":"9650000"},{"town":"門田町大字中野","koaza":"大道東","lat":37.465013,"lng":139.922579,"zip":"9650000"},{"town":"河東町郡山","koaza":"一揆塚","lat":37.549216,"lng":139.922878,"zip":"9693481"},{"town":"町北町大字始","koaza":"下荒久田","lat":37.522846,"lng":139.924415,"zip":"9650000"},{"town":"門田町大字御山","koaza":"村中","lat":37.464425,"lng":139.928042,"zip":"9650000"},{"town":"河東町熊野堂","koaza":"南原","lat":37.556665,"lng":139.924879,"zip":"9693421"},{"town":"門田町大字御山","koaza":"村下","lat":37.468323,"lng":139.927255,"zip":"9650000"},{"town":"門田町大字年貢町","koaza":"大道東","lat":37.470523,"lng":139.924486,"zip":"9650000"},{"town":"町北町大字石堂","koaza":"赤丘","lat":37.509841,"lng":139.92474,"zip":"9650000"},{"town":"町北町大字始","koaza":"北台","lat":37.520294,"lng":139.926342,"zip":"9650000"},{"town":"河東町広野","koaza":"割石","lat":37.56492,"lng":139.926906,"zip":"9693422"},{"town":"河東町倉橋","koaza":"難波","lat":37.537478,"lng":139.92916,"zip":"9693463"},{"town":"河東町大田原","koaza":"堂島","lat":37.576092,"lng":139.925588,"zip":"9693411"},{"town":"河東町郡山","koaza":"休ミ石","lat":37.551683,"lng":139.925781,"zip":"9693481"},{"town":"河東町広田","koaza":"田中原","lat":37.539403,"lng":139.926209,"zip":"9693471"},{"town":"河東町郡山","koaza":"中子山","lat":37.549583,"lng":139.926436,"zip":"9693481"},{"town":"町北町大字上荒久田","koaza":"崖下","lat":37.51292,"lng":139.925528,"zip":"9650000"},{"town":"河東町倉橋","koaza":"藤倉","lat":37.532748,"lng":139.932342,"zip":"9693463"},{"town":"門田町大字堤沢","koaza":"上村","lat":37.4517,"lng":139.927029,"zip":"9650000"},{"town":"河東町広田","koaza":"六丁","lat":37.544279,"lng":139.92827,"zip":"9693471"},{"town":"町北町大字上荒久田","koaza":"村北","lat":37.518432,"lng":139.928149,"zip":"9650000"},{"town":"門田町大字御山","koaza":"樋越","lat":37.464798,"lng":139.926894,"zip":"9650000"},{"town":"町北町大字上荒久田","koaza":"石尻","lat":37.513457,"lng":139.926725,"zip":"9650000"},{"town":"一箕町大字鶴賀","koaza":"村西","lat":37.524764,"lng":139.932085,"zip":"9650000"},{"town":"河東町熊野堂","koaza":"山神","lat":37.568335,"lng":139.927892,"zip":"9693421"},{"town":"町北町大字上荒久田","koaza":"古屋敷","lat":37.514923,"lng":139.928535,"zip":"9650000"},{"town":"河東町金田","koaza":"古宮","lat":37.539926,"lng":139.928347,"zip":"9693462"},{"town":"河東町広田","koaza":"横堀","lat":37.550477,"lng":139.930764,"zip":"9693471"},{"town":"河東町広田","koaza":"沢目","lat":37.547563,"lng":139.929352,"zip":"9693471"},{"town":"河東町南高野","koaza":"向原","lat":37.551303,"lng":139.930512,"zip":"9693441"},{"town":"町北町大字上荒久田","koaza":"鈴木新田","lat":37.521418,"lng":139.92869,"zip":"9650000"},{"town":"町北町大字上荒久田","koaza":"畑村東","lat":37.51347,"lng":139.929101,"zip":"9650000"},{"town":"河東町広田","koaza":"広田","lat":37.549452,"lng":139.932457,"zip":"9693471"},{"town":"河東町広田","koaza":"塩新","lat":37.543571,"lng":139.931978,"zip":"9693471"},{"town":"河東町倉橋","koaza":"倉道","lat":37.53035,"lng":139.934509,"zip":"9693463"},{"town":"河東町倉橋","koaza":"槻木","lat":37.530905,"lng":139.929466,"zip":"9693463"},{"town":"河東町広野","koaza":"光森前","lat":37.56347,"lng":139.930447,"zip":"9693422"},{"town":"町北町大字上荒久田","koaza":"鈴木","lat":37.517416,"lng":139.93033,"zip":"9650000"},{"town":"河東町広野","koaza":"俵早稲田","lat":37.56425,"lng":139.931647,"zip":"9693422"},{"town":"河東町広野","koaza":"北高野","lat":37.571248,"lng":139.932947,"zip":"9693422"},{"town":"河東町広野","koaza":"冬木沢","lat":37.562548,"lng":139.932455,"zip":"9693422"},{"town":"門田町大字黒岩","koaza":"大坪","lat":37.47405,"lng":139.93317,"zip":"9650000"},{"town":"河東町南高野","koaza":"南高野","lat":37.555829,"lng":139.933927,"zip":"9693441"},{"town":"河東町金田","koaza":"塩庭","lat":37.54274,"lng":139.936289,"zip":"9693462"},{"town":"一箕町大字亀賀","koaza":"川西","lat":37.518812,"lng":139.933997,"zip":"9650000"},{"town":"一箕町大字鶴賀","koaza":"下柳原","lat":37.52273,"lng":139.933542,"zip":"9650000"},{"town":"門田町大字御山","koaza":"中村","lat":37.46174,"lng":139.932917,"zip":"9650000"},{"town":"一箕町大字亀賀","koaza":"村前","lat":37.515811,"lng":139.934389,"zip":"9650000"},{"town":"門田町大字黒岩","koaza":"石高","lat":37.470341,"lng":139.936598,"zip":"9650000"},{"town":"河東町東長原","koaza":"原田","lat":37.559681,"lng":139.937437,"zip":"9693431"},{"town":"門田町大字御山","koaza":"館ノ内","lat":37.463562,"lng":139.933548,"zip":"9650000"},{"town":"門田町大字御山","koaza":"三島","lat":37.465822,"lng":139.934603,"zip":"9650000"},{"town":"河東町広野","koaza":"日吉","lat":37.563742,"lng":139.934605,"zip":"9693422"},{"town":"河東町広田","koaza":"堤","lat":37.551831,"lng":139.934064,"zip":"9693471"},{"town":"門田町大字御山","koaza":"館山甲","lat":37.454131,"lng":139.940175,"zip":"9650000"},{"town":"河東町広田","koaza":"堤西","lat":37.552637,"lng":139.933934,"zip":"9693471"},{"town":"門田町大字御山","koaza":"三分一","lat":37.469136,"lng":139.935568,"zip":"9650000"},{"town":"一箕町大字亀賀","koaza":"北柳原","lat":37.520822,"lng":139.934592,"zip":"9650000"},{"town":"門田町大字黒岩","koaza":"南青木","lat":37.47669,"lng":139.936341,"zip":"9650000"},{"town":"河東町浅山","koaza":"仲田","lat":37.547709,"lng":139.935465,"zip":"9693461"},{"town":"河東町広野","koaza":"浮世段","lat":37.567056,"lng":139.938594,"zip":"9693422"},{"town":"河東町広野","koaza":"茶臼森","lat":37.567247,"lng":139.936836,"zip":"9693422"},{"town":"門田町大字黒岩","koaza":"若宮","lat":37.473741,"lng":139.937193,"zip":"9650000"},{"town":"河東町広田","koaza":"堤東","lat":37.553024,"lng":139.936669,"zip":"9693471"},{"town":"一箕町大字鶴賀","koaza":"上居合","lat":37.522169,"lng":139.940742,"zip":"9650000"},{"town":"河東町広田","koaza":"東","lat":37.552021,"lng":139.938614,"zip":"9693471"},{"town":"一箕町大字亀賀","koaza":"郷之原","lat":37.518214,"lng":139.941248,"zip":"9650000"},{"town":"河東町南高野","koaza":"小松原","lat":37.557508,"lng":139.93869,"zip":"9693441"},{"town":"一箕町大字亀賀","koaza":"藤原","lat":37.513654,"lng":139.940455,"zip":"9650000"},{"town":"一箕町大字鶴賀","koaza":"船ケ森西","lat":37.525495,"lng":139.941678,"zip":"9650000"},{"town":"河東町東長原","koaza":"東高野","lat":37.556781,"lng":139.950589,"zip":"9693431"},{"town":"河東町浅山","koaza":"伊勢前","lat":37.551972,"lng":139.939943,"zip":"9693461"},{"town":"河東町浅山","koaza":"北山","lat":37.551367,"lng":139.941581,"zip":"9693461"},{"town":"河東町金田","koaza":"駒板","lat":37.540097,"lng":139.942634,"zip":"9693462"},{"town":"一箕町大字鶴賀","koaza":"船ケ森北","lat":37.52714,"lng":139.942369,"zip":"9650000"},{"town":"門田町大字黒岩","koaza":"嫋竹ケ丘","lat":37.478648,"lng":139.940598,"zip":"9650000"},{"town":"河東町浅山","koaza":"戌亥","lat":37.552723,"lng":139.940632,"zip":"9693461"},{"town":"河東町南高野","koaza":"葉山","lat":37.555358,"lng":139.944205,"zip":"9693441"},{"town":"河東町広田","koaza":"緑ケ丘","lat":37.554676,"lng":139.941452,"zip":"9693471"},{"town":"河東町金田","koaza":"村前","lat":37.538485,"lng":139.942634,"zip":"9693462"},{"town":"河東町広野","koaza":"杉山","lat":37.56225,"lng":139.9424,"zip":"9693422"},{"town":"一箕町大字八幡","koaza":"八幡","lat":37.509373,"lng":139.944022,"zip":"9650000"},{"town":"河東町金田","koaza":"中田","lat":37.534671,"lng":139.943786,"zip":"9693462"},{"town":"河東町東長原","koaza":"長谷地","lat":37.563357,"lng":139.948397,"zip":"9693431"},{"town":"河東町浅山","koaza":"浅野","lat":37.547518,"lng":139.945359,"zip":"9693461"},{"town":"一箕町大字鶴賀","koaza":"下居合","lat":37.526447,"lng":139.94465,"zip":"9650000"},{"town":"河東町金田","koaza":"東台","lat":37.536324,"lng":139.945423,"zip":"9693462"},{"town":"河東町東長原","koaza":"空也原","lat":37.568059,"lng":139.94646,"zip":"9693431"},{"town":"一箕町大字八幡","koaza":"門田","lat":37.505768,"lng":139.946037,"zip":"9650000"},{"town":"河東町南高野","koaza":"高塚","lat":37.556082,"lng":139.947885,"zip":"9693441"},{"town":"河東町金田","koaza":"古川","lat":37.543871,"lng":139.945453,"zip":"9693462"},{"town":"一箕町大字松長","koaza":"下松窪","lat":37.531569,"lng":139.947777,"zip":"9650000"},{"town":"一箕町大字八幡","koaza":"墓料","lat":37.509291,"lng":139.948408,"zip":"9650000"},{"town":"一箕町大字鶴賀","koaza":"船ケ森","lat":37.52826,"lng":139.945343,"zip":"9650000"},{"town":"河東町浅山","koaza":"沼田","lat":37.551322,"lng":139.948503,"zip":"9693461"},{"town":"河東町浅山","koaza":"大石","lat":37.553825,"lng":139.946382,"zip":"9693461"},{"town":"一箕町大字鶴賀","koaza":"船ケ森東","lat":37.524476,"lng":139.94972,"zip":"9650000"},{"town":"一箕町大字鶴賀","koaza":"堤","lat":37.519381,"lng":139.945479,"zip":"9650000"},{"town":"河東町金田","koaza":"村中","lat":37.544625,"lng":139.946483,"zip":"9693462"},{"town":"一箕町大字八角","koaza":"中村東","lat":37.504357,"lng":139.947099,"zip":"9650000"},{"town":"河東町金田","koaza":"金沢","lat":37.540338,"lng":139.948762,"zip":"9693462"},{"town":"河東町金田","koaza":"藤倉新田","lat":37.535866,"lng":139.948382,"zip":"9693462"},{"town":"一箕町大字八幡","koaza":"滝沢","lat":37.506304,"lng":139.950459,"zip":"9650000"},{"town":"一箕町大字八幡","koaza":"牛ケ墓","lat":37.504571,"lng":139.949777,"zip":"9650000"},{"town":"河東町浅山","koaza":"古寄","lat":37.548203,"lng":139.951463,"zip":"9693461"},{"town":"河東町東長原","koaza":"一本木","lat":37.567187,"lng":139.948818,"zip":"9693431"},{"town":"東山町大字石山","koaza":"天寧","lat":37.487343,"lng":139.951686,"zip":"9650000"},{"town":"一箕町大字松長","koaza":"上松窪","lat":37.533976,"lng":139.952133,"zip":"9650000"},{"town":"一箕町大字松長","koaza":"下長原","lat":37.523828,"lng":139.95393,"zip":"9650000"},{"town":"一箕町大字松長","koaza":"南雨沼","lat":37.519801,"lng":139.954224,"zip":"9650000"},{"town":"河東町金田","koaza":"上ノ山下","lat":37.54266,"lng":139.950997,"zip":"9693462"},{"town":"河東町浅山","koaza":"堂ケ入","lat":37.552798,"lng":139.952026,"zip":"9693461"},{"town":"河東町金田","koaza":"長坂","lat":37.550782,"lng":139.95334,"zip":"9693462"},{"town":"一箕町大字鶴賀","koaza":"苅林","lat":37.522822,"lng":139.952438,"zip":"9650000"},{"town":"河東町浅山","koaza":"寄の内","lat":37.544526,"lng":139.9523,"zip":"9693461"},{"town":"一箕町大字八幡","koaza":"三島","lat":37.507889,"lng":139.953902,"zip":"9650000"},{"town":"一箕町大字八幡","koaza":"弁天下","lat":37.504822,"lng":139.952684,"zip":"9650000"},{"town":"一箕町大字八幡","koaza":"柏木","lat":37.516006,"lng":139.958623,"zip":"9650000"},{"town":"一箕町大字八幡","koaza":"堰下","lat":37.516786,"lng":139.955346,"zip":"9650000"},{"town":"東山町大字石山","koaza":"院内","lat":37.481483,"lng":139.957719,"zip":"9650000"},{"town":"一箕町大字松長","koaza":"上長原","lat":37.521669,"lng":139.961202,"zip":"9650000"},{"town":"一箕町大字八幡","koaza":"坂下","lat":37.506063,"lng":139.956677,"zip":"9650000"},{"town":"河東町八田","koaza":"漆沢","lat":37.551208,"lng":139.962882,"zip":"9693451"},{"town":"一箕町大字八幡","koaza":"躑躅山甲","lat":37.513174,"lng":139.965421,"zip":"9650000"},{"town":"河東町八田","koaza":"明ル坂道下","lat":37.531473,"lng":139.961671,"zip":"9693451"},{"town":"河東町八田","koaza":"道下","lat":37.534066,"lng":139.960691,"zip":"9693451"},{"town":"東山町大字湯本","koaza":"寺屋敷","lat":37.479654,"lng":139.96153,"zip":"9650000"},{"town":"東山町大字湯本","koaza":"下原","lat":37.474522,"lng":139.962324,"zip":"9650000"},{"town":"河東町八田","koaza":"前田","lat":37.539636,"lng":139.964913,"zip":"9693451"},{"town":"河東町八田","koaza":"坂ノ上","lat":37.540824,"lng":139.959596,"zip":"9693451"},{"town":"一箕町大字鶴賀","koaza":"八幡吹屋","lat":37.518202,"lng":139.966054,"zip":"9650000"},{"town":"一箕町大字鶴賀","koaza":"吹屋","lat":37.519244,"lng":139.969078,"zip":"9650000"},{"town":"河東町八田","koaza":"家西","lat":37.537562,"lng":139.970163,"zip":"9693451"},{"town":"河東町八田","koaza":"稲荷沢","lat":37.539324,"lng":139.969833,"zip":"9693451"},{"town":"河東町八田","koaza":"八田野","lat":37.544566,"lng":139.974389,"zip":"9693451"},{"town":"一箕町大字八幡","koaza":"石ケ森","lat":37.519711,"lng":139.974124,"zip":"9650000"},{"town":"一箕町大字金堀","koaza":"長坂","lat":37.512452,"lng":139.974175,"zip":"9650000"},{"town":"河東町八田","koaza":"宮前","lat":37.548633,"lng":139.972557,"zip":"9693451"},{"town":"河東町八田","koaza":"稲荷丁","lat":37.5366,"lng":139.973798,"zip":"9693451"},{"town":"河東町八田","koaza":"家東","lat":37.535753,"lng":139.974712,"zip":"9693451"},{"town":"河東町八田","koaza":"七ッ森","lat":37.536186,"lng":139.977577,"zip":"9693451"},{"town":"河東町八田","koaza":"谷地田","lat":37.540027,"lng":139.977412,"zip":"9693451"},{"town":"一箕町大字金堀","koaza":"橋本","lat":37.511666,"lng":139.979012,"zip":"9650000"},{"town":"河東町八田","koaza":"西平","lat":37.532437,"lng":139.979773,"zip":"9693451"},{"town":"河東町八田","koaza":"東平","lat":37.531509,"lng":139.981162,"zip":"9693451"},{"town":"河東町八田","koaza":"横手","lat":37.54133,"lng":139.980133,"zip":"9693451"},{"town":"河東町八田","koaza":"中坪","lat":37.53051,"lng":139.980997,"zip":"9693451"},{"town":"河東町八田","koaza":"丸山","lat":37.526906,"lng":139.980957,"zip":"9693451"},{"town":"河東町八田","koaza":"桜石","lat":37.547076,"lng":139.988755,"zip":"9693451"},{"town":"河東町八田","koaza":"茱萸木原甲","lat":37.540319,"lng":139.988824,"zip":"9693451"},{"town":"湊町大字赤井","koaza":"穴切","lat":37.509802,"lng":139.990203,"zip":"9650000"},{"town":"河東町八田","koaza":"大野原","lat":37.521804,"lng":139.99388,"zip":"9693451"},{"town":"河東町八田","koaza":"竹蕨","lat":37.517603,"lng":139.990219,"zip":"9693451"},{"town":"河東町八田","koaza":"下ノ家","lat":37.516273,"lng":139.990341,"zip":"9693451"},{"town":"河東町八田","koaza":"沢目","lat":37.517796,"lng":139.991684,"zip":"9693451"},{"town":"湊町大字赤井","koaza":"廻戸大窪","lat":37.506815,"lng":139.992747,"zip":"9650000"},{"town":"湊町大字赤井","koaza":"小坂","lat":37.503836,"lng":139.994567,"zip":"9650000"},{"town":"湊町大字赤井","koaza":"赤井","lat":37.496101,"lng":140.000112,"zip":"9650000"},{"town":"湊町大字赤井","koaza":"丸内","lat":37.497296,"lng":140.002508,"zip":"9650000"},{"town":"湊町大字赤井","koaza":"笹山原甲","lat":37.511601,"lng":140.012996,"zip":"9650000"},{"town":"湊町大字赤井","koaza":"戸ノ口","lat":37.519286,"lng":140.019541,"zip":"9650000"},{"town":"河東町熊野堂","koaza":"高舘","lat":37.564148,"lng":139.918693,"zip":"9693421"},{"town":"河東町熊野堂","koaza":"佛山","lat":37.566683,"lng":139.925052,"zip":"9693421"},{"town":"河東町南高野","koaza":"高塚山","lat":37.557537,"lng":139.943224,"zip":"9693441"},{"town":"河東町広田","koaza":"長峯","lat":37.547902,"lng":139.933611,"zip":"9693471"},{"town":"河東町郡山","koaza":"獅子山","lat":37.550497,"lng":139.925524,"zip":"9693481"},{"town":"河東町郡山","koaza":"東","lat":37.550448,"lng":139.923089,"zip":"9693481"},{"town":"河東町郡山","koaza":"中屋敷","lat":37.550897,"lng":139.921325,"zip":"9693481"},{"town":"河東町郡山","koaza":"金道山","lat":37.549962,"lng":139.921333,"zip":"9693481"},{"town":"河東町谷沢","koaza":"前田","lat":37.552687,"lng":139.908532,"zip":"9693482"},{"town":"河東町郡山","koaza":"村北","lat":37.554289,"lng":139.910479,"zip":"9693481"},{"town":"高野町大字中沼","koaza":"東坂才甲","lat":37.533704,"lng":139.917949,"zip":"9650000"},{"town":"高野町大字上高野","koaza":"畑田","lat":37.526601,"lng":139.910835,"zip":"9650000"},{"town":"神指町大字北四合","koaza":"東川原","lat":37.521566,"lng":139.897085,"zip":"9650000"},{"town":"神指町大字北四合","koaza":"宮ノ後乙","lat":37.521714,"lng":139.894393,"zip":"9650000"},{"town":"神指町大字北四合","koaza":"夫婦檀","lat":37.520906,"lng":139.895435,"zip":"9650000"},{"town":"神指町大字北四合","koaza":"宮前","lat":37.521343,"lng":139.892498,"zip":"9650000"},{"town":"神指町高瀬","koaza":"五百苅","lat":37.517365,"lng":139.895941,"zip":"9650063"},{"town":"神指町大字中四合","koaza":"町道下","lat":37.504847,"lng":139.896092,"zip":"9650000"},{"town":"神指町大字中四合","koaza":"若宮丙","lat":37.504213,"lng":139.896043,"zip":"9650000"},{"town":"神指町大字中四合","koaza":"村西","lat":37.504382,"lng":139.896811,"zip":"9650000"},{"town":"神指町大字南四合","koaza":"鍛治屋敷","lat":37.498229,"lng":139.894938,"zip":"9650000"},{"town":"神指町大字南四合","koaza":"幕内東","lat":37.485583,"lng":139.90245,"zip":"9650000"},{"town":"町北町大字上荒久田","koaza":"千畑","lat":37.512834,"lng":139.931281,"zip":"9650000"},{"town":"一箕町大字亀賀","koaza":"村東","lat":37.519277,"lng":139.936053,"zip":"9650000"},{"town":"一箕町大字八幡","koaza":"中島","lat":37.509101,"lng":139.950622,"zip":"9650000"},{"town":"河東町金田","koaza":"松窪","lat":37.535457,"lng":139.944561,"zip":"9693462"},{"town":"河東町金田","koaza":"川窪","lat":37.540427,"lng":139.938105,"zip":"9693462"},{"town":"神指町高瀬","koaza":"中川原","lat":37.512236,"lng":139.903401,"zip":"9650063"},{"town":"神指町大字黒川","koaza":"村北","lat":37.512449,"lng":139.905141,"zip":"9650000"},{"town":"神指町大字黒川","koaza":"三ツ谷西","lat":37.506468,"lng":139.904796,"zip":"9650000"},{"town":"神指町大字黒川","koaza":"橋本","lat":37.50516,"lng":139.909177,"zip":"9650000"},{"town":"神指町大字黒川","koaza":"石引道上","lat":37.505097,"lng":139.908366,"zip":"9650000"},{"town":"神指町大字黒川","koaza":"中川原甲","lat":37.504231,"lng":139.909985,"zip":"9650000"},{"town":"門田町大字年貢町","koaza":"大道西","lat":37.473485,"lng":139.923737,"zip":"9650000"},{"town":"一箕町大字鶴賀","koaza":"石畑","lat":37.522438,"lng":139.96956,"zip":"9650000"},{"town":"河東町代田","koaza":"岩田","lat":37.562562,"lng":139.905277,"zip":"9693412"},{"town":"河東町熊野堂","koaza":"龍塚","lat":37.565517,"lng":139.920014,"zip":"9693421"},{"town":"河東町広野","koaza":"蒲谷地","lat":37.568107,"lng":139.936484,"zip":"9693422"},{"town":"河東町金田","koaza":"畑田","lat":37.544056,"lng":139.936263,"zip":"9693462"},{"town":"河東町倉橋","koaza":"鏡山","lat":37.532257,"lng":139.941987,"zip":"9693463"},{"town":"河東町八田","koaza":"明ル坂","lat":37.534341,"lng":139.9596,"zip":"9693451"},{"town":"河東町八田","koaza":"家後","lat":37.541332,"lng":139.966353,"zip":"9693451"},{"town":"河東町八田","koaza":"石山","lat":37.539866,"lng":139.966369,"zip":"9693451"},{"town":"河東町八田","koaza":"坂ノ上丙","lat":37.53658,"lng":139.963554,"zip":"9693451"},{"town":"河東町八田","koaza":"越戸","lat":37.535109,"lng":139.970649,"zip":"9693451"},{"town":"河東町八田","koaza":"石坂","lat":37.532026,"lng":139.96974,"zip":"9693451"},{"town":"河東町八田","koaza":"韮窪","lat":37.534636,"lng":139.964086,"zip":"9693451"},{"town":"河東町八田","koaza":"村東","lat":37.537941,"lng":139.965357,"zip":"9693451"},{"town":"河東町八田","koaza":"稲荷原","lat":37.537377,"lng":139.971486,"zip":"9693451"},{"town":"河東町八田","koaza":"三千小屋","lat":37.541922,"lng":139.980269,"zip":"9693451"},{"town":"河東町八田","koaza":"田ノ神松","lat":37.542589,"lng":139.979233,"zip":"9693451"},{"town":"河東町八田","koaza":"別当","lat":37.533694,"lng":139.984808,"zip":"9693451"},{"town":"河東町八田","koaza":"長田","lat":37.532648,"lng":139.98054,"zip":"9693451"},{"town":"河東町八田","koaza":"高野下","lat":37.533389,"lng":139.976951,"zip":"9693451"},{"town":"河東町八田","koaza":"作来場","lat":37.528128,"lng":139.981984,"zip":"9693451"},{"town":"河東町八田","koaza":"鍋沼","lat":37.535316,"lng":139.996345,"zip":"9693451"},{"town":"河東町八田","koaza":"東箕輪","lat":37.512994,"lng":139.997132,"zip":"9693451"},{"town":"河東町八田","koaza":"西箕輪","lat":37.514458,"lng":139.992564,"zip":"9693451"},{"town":"一箕町大字金堀","koaza":"古道","lat":37.507153,"lng":139.980743,"zip":"9650000"},{"town":"北会津町三本松","koaza":"上大川向","lat":37.473871,"lng":139.894164,"zip":"9696184"},{"town":"北会津町上米塚","koaza":"村北","lat":37.468306,"lng":139.897242,"zip":"9696183"},{"town":"北会津町上米塚","koaza":"村東","lat":37.467473,"lng":139.89832,"zip":"9696183"},{"town":"北会津町三本松","koaza":"下大川向","lat":37.48015,"lng":139.892621,"zip":"9696184"},{"town":"北会津町下荒井","koaza":"馬場川原","lat":37.50054,"lng":139.871764,"zip":"9650111"},{"town":"北会津町下荒井","koaza":"宮ノ東","lat":37.499192,"lng":139.872115,"zip":"9650111"},{"town":"北会津町蟹川","koaza":"川崎分","lat":37.504833,"lng":139.878049,"zip":"9650121"},{"town":"神指町大字中四合","koaza":"天満","lat":37.503154,"lng":139.89744,"zip":"9650000"},{"town":"神指町大字中四合","koaza":"西城戸西","lat":37.502525,"lng":139.896616,"zip":"9650000"},{"town":"町北町大字中沢","koaza":"落合甲","lat":37.519786,"lng":139.90229,"zip":"9650000"},{"town":"町北町大字中沢","koaza":"土手下","lat":37.516741,"lng":139.903178,"zip":"9650000"},{"town":"門田町大字面川","koaza":"中江","lat":37.444722,"lng":139.915955,"zip":"9650000"},{"town":"門田町大字面川","koaza":"村西","lat":37.439497,"lng":139.919357,"zip":"9650000"},{"town":"門田町大字面川","koaza":"山ノ上","lat":37.435917,"lng":139.92693,"zip":"9650000"},{"town":"河東町金田","koaza":"西原","lat":37.544879,"lng":139.935418,"zip":"9693462"},{"town":"神指町大字黒川","koaza":"街道西","lat":37.51088,"lng":139.906613,"zip":"9650000"},{"town":"神指町大字黒川","koaza":"村東際","lat":37.509951,"lng":139.907912,"zip":"9650000"},{"town":"神指町大字黒川","koaza":"坂川原","lat":37.508743,"lng":139.907526,"zip":"9650000"},{"town":"神指町大字黒川","koaza":"古川","lat":37.507844,"lng":139.90751,"zip":"9650000"},{"town":"門田町大字黒岩","koaza":"城南","lat":37.478053,"lng":139.934958,"zip":"9650000"},{"town":"門田町大字黒岩","koaza":"手代曽根山","lat":37.484215,"lng":139.947387,"zip":"9650000"},{"town":"門田町大字黒岩","koaza":"花見ケ丘","lat":37.481868,"lng":139.948171,"zip":"9650000"},{"town":"東山町大字湯本","koaza":"上原","lat":37.474551,"lng":139.963433,"zip":"9650000"},{"town":"東山町大字湯本","koaza":"村東","lat":37.477669,"lng":139.96371,"zip":"9650000"},{"town":"東山町大字湯本","koaza":"居平","lat":37.478123,"lng":139.962389,"zip":"9650000"},{"town":"大戸町大字芦牧","koaza":"峠","lat":37.365373,"lng":139.915525,"zip":"9650000"},{"town":"大戸町上小塩","koaza":"遅谷","lat":37.364584,"lng":139.918773,"zip":"9695132"},{"town":"河東町南高野","koaza":"金剛田","lat":37.55583,"lng":139.92898,"zip":"9693441"},{"town":"河東町東長原","koaza":"草倉山","lat":37.562775,"lng":139.94392,"zip":"9693431"},{"town":"河東町八田","koaza":"漆窪","lat":37.528707,"lng":139.977402,"zip":"9693451"},{"town":"一箕町大字八幡","koaza":"北滝沢","lat":37.512249,"lng":139.944581,"zip":"9650000"},{"town":"一箕町大字八幡","koaza":"三十苅甲","lat":37.508327,"lng":139.952178,"zip":"9650000"},{"town":"河東町八田","koaza":"戸ノ口堰下","lat":37.528695,"lng":140.014211,"zip":"9693451"},{"town":"河東町八田","koaza":"石ケ坂","lat":37.539912,"lng":140.008771,"zip":"9693451"},{"town":"一箕町大字鶴賀","koaza":"丸山越","lat":37.525643,"lng":139.970858,"zip":"9650000"},{"town":"一箕町大字八幡","koaza":"真板倉乙","lat":37.499305,"lng":139.953539,"zip":"9650000"},{"town":"東山町大字湯本","koaza":"積リ","lat":37.479549,"lng":139.960716,"zip":"9650000"},{"town":"東山町大字湯本","koaza":"牧戸","lat":37.461798,"lng":139.977859,"zip":"9650000"},{"town":"一箕町大字鶴賀","koaza":"水下","lat":37.521768,"lng":139.97081,"zip":"9650000"},{"town":"一箕町大字八幡","koaza":"吹屋山","lat":37.519425,"lng":139.971646,"zip":"9650000"},{"town":"一箕町大字鶴賀","koaza":"高山","lat":37.519637,"lng":139.967317,"zip":"9650000"},{"town":"東山町大字湯本","koaza":"上湯本","lat":37.468111,"lng":139.962669,"zip":"9650000"},{"town":"東山町大字湯本","koaza":"滝の湯","lat":37.479526,"lng":139.96006,"zip":"9650000"},{"town":"東山町大字湯本","koaza":"川向","lat":37.464331,"lng":139.959182,"zip":"9650000"},{"town":"門田町大字黒岩","koaza":"村東","lat":37.477047,"lng":139.940148,"zip":"9650000"},{"town":"神指町大字黒川","koaza":"薬師川原","lat":37.50873,"lng":139.908814,"zip":"9650000"},{"town":"神指町大字黒川","koaza":"東城戸","lat":37.505992,"lng":139.907253,"zip":"9650000"},{"town":"神指町大字黒川","koaza":"三ツ谷東甲","lat":37.502529,"lng":139.907599,"zip":"9650000"},{"town":"門田町大字黒岩","koaza":"五百山丙","lat":37.483409,"lng":139.947007,"zip":"9650000"},{"town":"神指町大字北四合","koaza":"家ノ下丁","lat":37.530201,"lng":139.885364,"zip":"9650000"},{"town":"神指町大字北四合","koaza":"花川作丙","lat":37.529455,"lng":139.886004,"zip":"9650000"},{"town":"神指町大字北四合","koaza":"割田","lat":37.529812,"lng":139.886244,"zip":"9650000"},{"town":"町北町大字中沢","koaza":"大道西上甲","lat":37.51351,"lng":139.903362,"zip":"9650000"},{"town":"町北町大字中沢","koaza":"大道西下甲","lat":37.514378,"lng":139.903068,"zip":"9650000"}]