[{"town":"大字音金","koaza":"","lat":37.177516,"lng":139.883748,"zip":"9695300"},{"town":"大字塩生","koaza":"","lat":37.238834,"lng":139.875983,"zip":"9695300"},{"town":"大字沢田","koaza":"","lat":37.229792,"lng":139.858319,"zip":"9695300"},{"town":"大字落合","koaza":"","lat":37.217169,"lng":139.857224,"zip":"9695300"},{"town":"大字白岩","koaza":"","lat":37.27225,"lng":139.935794,"zip":"9695300"},{"town":"大字澳田","koaza":"","lat":37.249082,"lng":139.930464,"zip":"9695300"},{"town":"大字中妻","koaza":"","lat":37.25751,"lng":139.885336,"zip":"9695300"},{"town":"大字合川","koaza":"","lat":37.233906,"lng":139.882695,"zip":"9695300"},{"town":"大字高陦","koaza":"","lat":37.305111,"lng":139.945756,"zip":"9695300"},{"town":"大字大内","koaza":"","lat":37.334475,"lng":139.857736,"zip":"9695300"},{"town":"大字湯野上","koaza":"","lat":37.304606,"lng":139.89029,"zip":"9695300"},{"town":"大字大沢","koaza":"","lat":37.299881,"lng":139.869747,"zip":"9695300"},{"town":"大字弥五島","koaza":"","lat":37.275815,"lng":139.884792,"zip":"9695300"},{"town":"大字栄富","koaza":"","lat":37.26978,"lng":139.846319,"zip":"9695300"},{"town":"大字豊成","koaza":"","lat":37.240446,"lng":139.83432,"zip":"9695300"},{"town":"大字小沼崎","koaza":"","lat":37.334538,"lng":139.897903,"zip":"9695300"},{"town":"大字野際新田","koaza":"","lat":37.186307,"lng":139.928284,"zip":"9695300"},{"town":"大字南倉沢","koaza":"","lat":37.204997,"lng":139.936386,"zip":"9695300"},{"town":"大字大松川","koaza":"","lat":37.221564,"lng":139.897099,"zip":"9695300"},{"town":"大字枝松","koaza":"","lat":37.288662,"lng":139.966903,"zip":"9695300"},{"town":"大字中山","koaza":"","lat":37.298814,"lng":139.835384,"zip":"9695300"},{"town":"大字戸赤","koaza":"","lat":37.262207,"lng":139.745969,"zip":"9695300"}]