[{"town":"八総","koaza":"","lat":37.091497,"lng":139.624259,"zip":"9670314"},{"town":"多々石","koaza":"","lat":37.159446,"lng":139.580939,"zip":"9670502"},{"town":"湯ノ花","koaza":"","lat":37.030691,"lng":139.557993,"zip":"9670333"},{"town":"糸沢","koaza":"","lat":37.110921,"lng":139.711582,"zip":"9670014"},{"town":"宮里","koaza":"","lat":37.052733,"lng":139.480442,"zip":"9670347"},{"town":"栗生沢","koaza":"","lat":37.126738,"lng":139.806577,"zip":"9670011"},{"town":"中荒井","koaza":"","lat":37.166502,"lng":139.762088,"zip":"9670005"},{"town":"滝原","koaza":"","lat":37.075928,"lng":139.68206,"zip":"9670015"},{"town":"関本","koaza":"","lat":37.136527,"lng":139.74974,"zip":"9670013"},{"town":"川島","koaza":"","lat":37.142509,"lng":139.762607,"zip":"9670012"},{"town":"針生","koaza":"","lat":37.171093,"lng":139.644856,"zip":"9670026"},{"town":"吉高","koaza":"","lat":37.087961,"lng":139.531534,"zip":"9670336"},{"town":"押戸","koaza":"","lat":37.084778,"lng":139.532749,"zip":"9670331"},{"town":"水石","koaza":"","lat":37.088672,"lng":139.539431,"zip":"9670307"},{"town":"戸中","koaza":"","lat":37.087727,"lng":139.544668,"zip":"9670305"},{"town":"熨斗戸","koaza":"","lat":37.099892,"lng":139.560412,"zip":"9670312"},{"town":"高杖原","koaza":"","lat":37.110152,"lng":139.615523,"zip":"9670315"},{"town":"岩下","koaza":"","lat":37.079933,"lng":139.604495,"zip":"9670323"},{"town":"精舎","koaza":"","lat":37.089664,"lng":139.59483,"zip":"9670322"},{"town":"伊与戸","koaza":"","lat":37.087066,"lng":139.573392,"zip":"9670317"},{"town":"大桃","koaza":"","lat":37.069782,"lng":139.433788,"zip":"9670515"},{"town":"宮沢","koaza":"","lat":37.169847,"lng":139.48854,"zip":"9670505"},{"town":"浜野","koaza":"","lat":37.152598,"lng":139.501359,"zip":"9670504"},{"town":"内川","koaza":"","lat":37.144803,"lng":139.476233,"zip":"9670511"},{"town":"耻風","koaza":"","lat":37.136396,"lng":139.497167,"zip":"9670512"},{"town":"穴原","koaza":"","lat":37.116145,"lng":139.495576,"zip":"9670341"},{"town":"上ノ原","koaza":"","lat":37.07967,"lng":139.490228,"zip":"9670344"},{"town":"田島","koaza":"","lat":37.195357,"lng":139.776918,"zip":"9670004"},{"town":"水無","koaza":"","lat":37.165227,"lng":139.827062,"zip":"9670003"},{"town":"藤生","koaza":"","lat":37.166228,"lng":139.705972,"zip":"9670016"},{"town":"永田","koaza":"","lat":37.193521,"lng":139.744092,"zip":"9670006"},{"town":"塩江","koaza":"","lat":37.207752,"lng":139.747435,"zip":"9670022"},{"town":"高野","koaza":"","lat":37.231433,"lng":139.743721,"zip":"9670021"},{"town":"小塩","koaza":"","lat":37.190292,"lng":139.490556,"zip":"9670506"},{"town":"古町","koaza":"","lat":37.172952,"lng":139.527282,"zip":"9670501"},{"town":"静川","koaza":"","lat":37.211597,"lng":139.668308,"zip":"9670025"},{"town":"青柳","koaza":"","lat":37.204115,"lng":139.503038,"zip":"9670507"},{"town":"鴇巣","koaza":"","lat":37.241771,"lng":139.542962,"zip":"9670621"},{"town":"宮床","koaza":"","lat":37.251813,"lng":139.542025,"zip":"9670622"},{"town":"和泉田","koaza":"","lat":37.280655,"lng":139.504394,"zip":"9670641"},{"town":"番屋","koaza":"","lat":37.066521,"lng":139.61778,"zip":"9670324"},{"town":"水引","koaza":"","lat":37.042415,"lng":139.518719,"zip":"9670334"},{"town":"角生","koaza":"","lat":37.076448,"lng":139.531151,"zip":"9670332"},{"town":"貝原","koaza":"","lat":37.077004,"lng":139.528377,"zip":"9670335"},{"town":"新田原","koaza":"","lat":37.089285,"lng":139.553005,"zip":"9670311"},{"town":"井桁","koaza":"","lat":37.09599,"lng":139.584879,"zip":"9670321"},{"town":"松戸原","koaza":"","lat":37.091245,"lng":139.53263,"zip":"9670304"},{"town":"福渡","koaza":"","lat":37.098383,"lng":139.5261,"zip":"9670303"},{"town":"大久保","koaza":"","lat":37.102471,"lng":139.598023,"zip":"9670319"},{"town":"森戸","koaza":"","lat":37.101355,"lng":139.584347,"zip":"9670313"},{"town":"中ノ井","koaza":"","lat":37.102864,"lng":139.535912,"zip":"9670000"},{"town":"前沢","koaza":"","lat":37.098362,"lng":139.520742,"zip":"9670306"},{"town":"たのせ","koaza":"","lat":37.117185,"lng":139.503068,"zip":"9670301"},{"town":"塩ノ原","koaza":"","lat":37.117745,"lng":139.527653,"zip":"9670302"},{"town":"白沢","koaza":"","lat":37.147783,"lng":139.525556,"zip":"9670503"},{"town":"小高林","koaza":"","lat":37.092117,"lng":139.49099,"zip":"9670343"},{"town":"助木生","koaza":"","lat":37.100795,"lng":139.492409,"zip":"9670342"},{"town":"大原","koaza":"","lat":37.135879,"lng":139.469358,"zip":"9670513"},{"town":"小立岩","koaza":"","lat":37.12789,"lng":139.434849,"zip":"9670514"},{"town":"田部","koaza":"","lat":37.194107,"lng":139.80795,"zip":"9670002"},{"town":"丹藤","koaza":"","lat":37.217734,"lng":139.773491,"zip":"9670007"},{"town":"長野","koaza":"","lat":37.21274,"lng":139.824914,"zip":"9670001"},{"town":"福米沢","koaza":"","lat":37.213336,"lng":139.722092,"zip":"9670023"},{"town":"金井沢","koaza":"","lat":37.214083,"lng":139.703818,"zip":"9670024"},{"town":"木伏","koaza":"","lat":37.20076,"lng":139.530596,"zip":"9670601"},{"town":"水根沢","koaza":"","lat":37.2051,"lng":139.533173,"zip":"9670602"},{"town":"東","koaza":"","lat":37.210131,"lng":139.555742,"zip":"9670605"},{"town":"大新田","koaza":"","lat":37.213271,"lng":139.533094,"zip":"9670603"},{"town":"大橋","koaza":"","lat":37.214148,"lng":139.530475,"zip":"9670604"},{"town":"山口","koaza":"","lat":37.232544,"lng":139.544922,"zip":"9670611"},{"town":"小野島","koaza":"","lat":37.265153,"lng":139.534009,"zip":"9670642"},{"town":"界","koaza":"","lat":37.266842,"lng":139.540376,"zip":"9670631"},{"town":"片貝","koaza":"","lat":37.275134,"lng":139.52974,"zip":"9670632"},{"town":"富山","koaza":"","lat":37.278158,"lng":139.522253,"zip":"9670633"},{"town":"下山","koaza":"","lat":37.283398,"lng":139.512797,"zip":"9670634"},{"town":"小塩","koaza":"仲田","lat":37.180044,"lng":139.521344,"zip":"9670506"},{"town":"青柳","koaza":"居平","lat":37.193145,"lng":139.526889,"zip":"9670507"},{"town":"古町","koaza":"千苅","lat":37.173173,"lng":139.525493,"zip":"9670501"},{"town":"古町","koaza":"中川原","lat":37.179078,"lng":139.525572,"zip":"9670501"},{"town":"青柳","koaza":"久川","lat":37.190085,"lng":139.527776,"zip":"9670507"},{"town":"古町","koaza":"居平","lat":37.177871,"lng":139.528092,"zip":"9670501"},{"town":"古町","koaza":"舘跡","lat":37.175883,"lng":139.526851,"zip":"9670501"},{"town":"古町","koaza":"石原","lat":37.173492,"lng":139.52756,"zip":"9670501"},{"town":"古町","koaza":"太子堂","lat":37.186076,"lng":139.527615,"zip":"9670501"},{"town":"古町","koaza":"西町尻","lat":37.181347,"lng":139.527731,"zip":"9670501"},{"town":"古町","koaza":"東町尻","lat":37.181508,"lng":139.530064,"zip":"9670501"},{"town":"古町","koaza":"小沼","lat":37.184024,"lng":139.529954,"zip":"9670501"},{"town":"古町","koaza":"小沼尻","lat":37.187409,"lng":139.53022,"zip":"9670501"},{"town":"古町","koaza":"東居平","lat":37.177347,"lng":139.529904,"zip":"9670501"},{"town":"多々石","koaza":"居平","lat":37.175085,"lng":139.532776,"zip":"9670502"},{"town":"永田","koaza":"大道上","lat":37.202341,"lng":139.754518,"zip":"9670006"},{"town":"永田","koaza":"観音前","lat":37.202557,"lng":139.755457,"zip":"9670006"},{"town":"永田","koaza":"穴沢","lat":37.201467,"lng":139.75667,"zip":"9670006"},{"town":"永田","koaza":"上背戸","lat":37.203393,"lng":139.758379,"zip":"9670006"},{"town":"永田","koaza":"枇杷影","lat":37.200818,"lng":139.75912,"zip":"9670006"},{"town":"永田","koaza":"庚申壇","lat":37.2019,"lng":139.758731,"zip":"9670006"},{"town":"丹藤","koaza":"上川原","lat":37.203948,"lng":139.76228,"zip":"9670007"},{"town":"永田","koaza":"風下","lat":37.204009,"lng":139.760185,"zip":"9670006"},{"town":"田島","koaza":"西上川原乙","lat":37.198343,"lng":139.76311,"zip":"9670004"},{"town":"丹藤","koaza":"松下","lat":37.207096,"lng":139.767172,"zip":"9670007"},{"town":"田島","koaza":"西町甲","lat":37.202047,"lng":139.767373,"zip":"9670004"},{"town":"田島","koaza":"谷地甲","lat":37.202102,"lng":139.769334,"zip":"9670004"},{"town":"田島","koaza":"行司","lat":37.204127,"lng":139.769667,"zip":"9670004"},{"town":"田島","koaza":"上町甲","lat":37.201658,"lng":139.771482,"zip":"9670004"},{"town":"田島","koaza":"元八幡甲","lat":37.20256,"lng":139.771007,"zip":"9670004"},{"town":"丹藤","koaza":"中川原","lat":37.207559,"lng":139.771813,"zip":"9670007"},{"town":"田島","koaza":"後町甲","lat":37.202553,"lng":139.773141,"zip":"9670004"},{"town":"丹藤","koaza":"向川原","lat":37.207725,"lng":139.77379,"zip":"9670007"},{"town":"田島","koaza":"大坪","lat":37.205514,"lng":139.773453,"zip":"9670004"},{"town":"田島","koaza":"中町甲","lat":37.201025,"lng":139.774528,"zip":"9670004"},{"town":"田島","koaza":"後原甲","lat":37.197578,"lng":139.774994,"zip":"9670004"},{"town":"田島","koaza":"会下甲","lat":37.194678,"lng":139.774702,"zip":"9670004"},{"town":"田島","koaza":"宮本甲","lat":37.206821,"lng":139.7778,"zip":"9670004"},{"town":"田島","koaza":"本町甲","lat":37.201792,"lng":139.777804,"zip":"9670004"},{"town":"田島","koaza":"田島柳","lat":37.203246,"lng":139.777765,"zip":"9670004"},{"town":"田島","koaza":"寺前甲","lat":37.198424,"lng":139.778612,"zip":"9670004"},{"town":"田島","koaza":"宮本東","lat":37.206008,"lng":139.779949,"zip":"9670004"},{"town":"田島","koaza":"東荒井甲","lat":37.202676,"lng":139.781332,"zip":"9670004"},{"town":"田島","koaza":"東荒井","lat":37.203634,"lng":139.782225,"zip":"9670004"},{"town":"田島","koaza":"天道沢甲","lat":37.20004,"lng":139.781794,"zip":"9670004"},{"town":"田島","koaza":"折橋甲","lat":37.208321,"lng":139.784363,"zip":"9670004"},{"town":"田島","koaza":"観音寺","lat":37.200341,"lng":139.783145,"zip":"9670004"},{"town":"田島","koaza":"北下原甲","lat":37.20652,"lng":139.786491,"zip":"9670004"},{"town":"田島","koaza":"北下原","lat":37.20693,"lng":139.788304,"zip":"9670004"},{"town":"田島","koaza":"南下原","lat":37.202644,"lng":139.791669,"zip":"9670004"},{"town":"田島","koaza":"皀平甲","lat":37.200668,"lng":139.794045,"zip":"9670004"},{"town":"田島","koaza":"田部原","lat":37.208561,"lng":139.802608,"zip":"9670004"},{"town":"田部","koaza":"上原","lat":37.202699,"lng":139.803875,"zip":"9670002"},{"town":"田部","koaza":"下原","lat":37.205912,"lng":139.805956,"zip":"9670002"},{"town":"長野","koaza":"道下","lat":37.214323,"lng":139.806442,"zip":"9670001"},{"town":"古町","koaza":"上居平","lat":37.174934,"lng":139.529053,"zip":"9670501"},{"town":"田島","koaza":"下田甲","lat":37.208765,"lng":139.786479,"zip":"9670004"},{"town":"田島","koaza":"下東荒井甲","lat":37.206686,"lng":139.784622,"zip":"9670004"},{"town":"田島","koaza":"荒井","lat":37.204458,"lng":139.782998,"zip":"9670004"},{"town":"田島","koaza":"東町甲","lat":37.201734,"lng":139.779875,"zip":"9670004"},{"town":"田島","koaza":"観音寺甲","lat":37.199431,"lng":139.781296,"zip":"9670004"},{"town":"田島","koaza":"鎌倉崎","lat":37.20033,"lng":139.764754,"zip":"9670004"},{"town":"田島","koaza":"鎌倉崎乙","lat":37.201604,"lng":139.764688,"zip":"9670004"},{"town":"田島","koaza":"赤蟻甲","lat":37.204039,"lng":139.772126,"zip":"9670004"},{"town":"田島","koaza":"西番場甲","lat":37.202968,"lng":139.775364,"zip":"9670004"},{"town":"田島","koaza":"愛宕山甲","lat":37.199615,"lng":139.772143,"zip":"9670004"},{"town":"田島","koaza":"大坪甲","lat":37.204311,"lng":139.773283,"zip":"9670004"},{"town":"田島","koaza":"横林甲","lat":37.201716,"lng":139.787078,"zip":"9670004"},{"town":"田島","koaza":"横町甲","lat":37.201972,"lng":139.783348,"zip":"9670004"},{"town":"田島","koaza":"新町乙","lat":37.195076,"lng":139.764963,"zip":"9670004"},{"town":"田島","koaza":"根小屋甲","lat":37.19829,"lng":139.770084,"zip":"9670004"},{"town":"田島","koaza":"丸山甲","lat":37.20048,"lng":139.767542,"zip":"9670004"},{"town":"田島","koaza":"下村乙","lat":37.200889,"lng":139.766185,"zip":"9670004"},{"town":"田島","koaza":"行司甲","lat":37.203469,"lng":139.766399,"zip":"9670004"},{"town":"田島","koaza":"田島柳甲","lat":37.202667,"lng":139.779349,"zip":"9670004"},{"town":"田島","koaza":"欠落甲","lat":37.194093,"lng":139.770174,"zip":"9670004"}]