[{"town":"大字黒谷","koaza":"","lat":37.255803,"lng":139.400807,"zip":"9680400"},{"town":"大字塩ノ岐","koaza":"","lat":37.262219,"lng":139.460452,"zip":"9680400"},{"town":"大字梁取","koaza":"","lat":37.300997,"lng":139.494561,"zip":"9680400"},{"town":"大字布沢","koaza":"","lat":37.336133,"lng":139.492857,"zip":"9680400"},{"town":"大字小川","koaza":"","lat":37.324255,"lng":139.364258,"zip":"9680400"},{"town":"大字田子倉","koaza":"","lat":37.269579,"lng":139.29574,"zip":"9680400"},{"town":"大字荒島","koaza":"","lat":37.31305,"lng":139.384323,"zip":"9680400"},{"town":"大字坂田","koaza":"","lat":37.325611,"lng":139.453284,"zip":"9680400"},{"town":"大字只見","koaza":"","lat":37.345171,"lng":139.313243,"zip":"9680400"},{"town":"大字石伏","koaza":"","lat":37.324845,"lng":139.298592,"zip":"9680400"},{"town":"大字楢戸","koaza":"","lat":37.301596,"lng":139.327747,"zip":"9680400"},{"town":"大字黒沢","koaza":"","lat":37.351899,"lng":139.344528,"zip":"9680400"},{"town":"大字十島","koaza":"","lat":37.389484,"lng":139.364337,"zip":"9680400"},{"town":"大字塩沢","koaza":"","lat":37.411618,"lng":139.356003,"zip":"9680400"},{"town":"大字蒲生","koaza":"","lat":37.392763,"lng":139.313771,"zip":"9680400"},{"town":"大字二軒在家","koaza":"","lat":37.296729,"lng":139.458083,"zip":"9680400"},{"town":"大字小林","koaza":"","lat":37.307768,"lng":139.462463,"zip":"9680400"},{"town":"大字大倉","koaza":"","lat":37.296296,"lng":139.440164,"zip":"9680400"},{"town":"大字長浜","koaza":"","lat":37.297772,"lng":139.391423,"zip":"9680400"},{"town":"大字亀岡","koaza":"","lat":37.318435,"lng":139.4285,"zip":"9680400"},{"town":"大字熊倉","koaza":"","lat":37.318261,"lng":139.40673,"zip":"9680400"},{"town":"大字福井","koaza":"","lat":37.303887,"lng":139.350763,"zip":"9680400"},{"town":"大字叶津","koaza":"","lat":37.373706,"lng":139.276924,"zip":"9680400"},{"town":"大字寄岩","koaza":"","lat":37.375834,"lng":139.349406,"zip":"9680400"}]