[{"town":"原町区江井","koaza":"","lat":37.589291,"lng":141.001775,"zip":"9750047"},{"town":"小高区南小高","koaza":"","lat":37.562081,"lng":140.998007,"zip":"9750000"},{"town":"小高区下浦","koaza":"","lat":37.514172,"lng":141.008643,"zip":"9792146"},{"town":"小高区行津","koaza":"","lat":37.519193,"lng":141.000609,"zip":"9792152"},{"town":"小高区水谷","koaza":"","lat":37.53786,"lng":140.994366,"zip":"9792132"},{"town":"小高区蛯沢","koaza":"","lat":37.534095,"lng":141.009989,"zip":"9792143"},{"town":"小高区耳谷","koaza":"","lat":37.530407,"lng":140.982528,"zip":"9792151"},{"town":"小高区泉沢","koaza":"","lat":37.544034,"lng":140.990495,"zip":"9792133"},{"town":"小高区福岡","koaza":"","lat":37.55386,"lng":141.012181,"zip":"9792131"},{"town":"小高区岡田","koaza":"","lat":37.555973,"lng":140.99951,"zip":"9792134"},{"town":"小高区東町三丁目","koaza":"","lat":37.566365,"lng":140.99523,"zip":"9792121"},{"town":"原町区小木迫","koaza":"","lat":37.580961,"lng":140.984245,"zip":"9750000"},{"town":"小高区大井","koaza":"","lat":37.568432,"lng":141.003505,"zip":"9792103"},{"town":"小高区女場","koaza":"","lat":37.542618,"lng":141.009379,"zip":"9792147"},{"town":"原町区","koaza":"","lat":37.607693,"lng":140.861605,"zip":"9750039"},{"town":"原町区小浜","koaza":"","lat":37.595149,"lng":141.019696,"zip":"9750043"},{"town":"原町区下江井","koaza":"","lat":37.584894,"lng":141.012499,"zip":"9750044"},{"town":"原町区金沢","koaza":"","lat":37.668523,"lng":141.001881,"zip":"9750021"},{"town":"原町区片倉","koaza":"","lat":37.579884,"lng":140.890265,"zip":"9750058"},{"town":"原町区馬場","koaza":"","lat":37.597467,"lng":140.896152,"zip":"9750063"},{"town":"小高区羽倉","koaza":"","lat":37.582438,"lng":140.928592,"zip":"9792175"},{"town":"小高区北鳩原","koaza":"","lat":37.58081,"lng":140.954059,"zip":"9792171"},{"town":"原町区鶴谷","koaza":"","lat":37.591089,"lng":140.963734,"zip":"9750056"},{"town":"原町区高","koaza":"","lat":37.601467,"lng":140.994279,"zip":"9750054"},{"town":"原町区大甕","koaza":"","lat":37.605746,"lng":141.00474,"zip":"9750049"},{"town":"原町区雫","koaza":"","lat":37.610182,"lng":141.018326,"zip":"9750042"},{"town":"原町区北原","koaza":"","lat":37.625217,"lng":140.990211,"zip":"9750037"},{"town":"原町区萱浜","koaza":"","lat":37.625583,"lng":141.011417,"zip":"9750036"},{"town":"原町区上渋佐","koaza":"","lat":37.639165,"lng":141.000142,"zip":"9750034"},{"town":"原町区泉","koaza":"","lat":37.647555,"lng":141.008519,"zip":"9750023"},{"town":"原町区北泉","koaza":"","lat":37.655027,"lng":141.012635,"zip":"9750022"},{"town":"原町区高倉","koaza":"","lat":37.639266,"lng":140.874838,"zip":"9750077"},{"town":"原町区大原","koaza":"","lat":37.668838,"lng":140.886108,"zip":"9750079"},{"town":"原町区深野","koaza":"","lat":37.670799,"lng":140.925791,"zip":"9750071"},{"town":"原町区上北高平","koaza":"","lat":37.665641,"lng":140.959771,"zip":"9750027"},{"town":"鹿島区塩崎","koaza":"","lat":37.680302,"lng":140.959294,"zip":"9792332"},{"town":"鹿島区川子","koaza":"","lat":37.674973,"lng":140.978601,"zip":"9792324"},{"town":"鹿島区大内","koaza":"","lat":37.679893,"lng":140.993622,"zip":"9792322"},{"town":"鹿島区南右田","koaza":"","lat":37.689909,"lng":141.000074,"zip":"9792314"},{"town":"鹿島区北右田","koaza":"","lat":37.699958,"lng":140.988944,"zip":"9792313"},{"town":"鹿島区南海老","koaza":"","lat":37.705047,"lng":141.004014,"zip":"9792312"},{"town":"鹿島区北海老","koaza":"","lat":37.713583,"lng":140.996872,"zip":"9792311"},{"town":"鹿島区北屋形","koaza":"","lat":37.724201,"lng":140.98852,"zip":"9792303"},{"town":"鹿島区上栃窪","koaza":"","lat":37.721817,"lng":140.864286,"zip":"9792462"},{"town":"鹿島区橲原","koaza":"","lat":37.69099,"lng":140.874112,"zip":"9792454"},{"town":"小高区浦尻","koaza":"","lat":37.519978,"lng":141.025702,"zip":"9792145"},{"town":"小高区井田川","koaza":"","lat":37.527063,"lng":141.019563,"zip":"9792144"},{"town":"小高区角部内","koaza":"","lat":37.541317,"lng":141.02166,"zip":"9792142"},{"town":"小高区村上","koaza":"","lat":37.560305,"lng":141.024897,"zip":"9792141"},{"town":"原町区小沢","koaza":"","lat":37.579969,"lng":141.021836,"zip":"9750045"},{"town":"小高区塚原","koaza":"","lat":37.568079,"lng":141.017892,"zip":"9792104"},{"town":"原町区堤谷","koaza":"","lat":37.578793,"lng":141.006985,"zip":"9750046"},{"town":"小高区上浦","koaza":"","lat":37.51867,"lng":140.986678,"zip":"9792153"},{"town":"小高区神山","koaza":"","lat":37.525746,"lng":140.962488,"zip":"9792154"},{"town":"小高区上根沢","koaza":"","lat":37.540663,"lng":140.96453,"zip":"9792155"},{"town":"小高区大田和","koaza":"","lat":37.545552,"lng":140.94925,"zip":"9792163"},{"town":"小高区川房","koaza":"","lat":37.530651,"lng":140.917016,"zip":"9792164"},{"town":"小高区南町二丁目","koaza":"","lat":37.559615,"lng":140.99529,"zip":"9792122"},{"town":"小高区東町二丁目","koaza":"","lat":37.564401,"lng":140.994868,"zip":"9792121"},{"town":"小高区南町一丁目","koaza":"","lat":37.560318,"lng":140.993184,"zip":"9792122"},{"town":"小高区東町一丁目","koaza":"","lat":37.562751,"lng":140.994589,"zip":"9792121"},{"town":"小高区田町二丁目","koaza":"","lat":37.56146,"lng":140.991352,"zip":"9792112"},{"town":"小高区田町一丁目","koaza":"","lat":37.561675,"lng":140.989555,"zip":"9792112"},{"town":"小高区本町一丁目","koaza":"","lat":37.563508,"lng":140.992206,"zip":"9792124"},{"town":"小高区本町二丁目","koaza":"","lat":37.565889,"lng":140.992737,"zip":"9792124"},{"town":"小高区大町一丁目","koaza":"","lat":37.563977,"lng":140.990098,"zip":"9792123"},{"town":"小高区大町二丁目","koaza":"","lat":37.565914,"lng":140.990817,"zip":"9792123"},{"town":"小高区仲町一丁目","koaza":"","lat":37.564418,"lng":140.987879,"zip":"9792111"},{"town":"小高区仲町二丁目","koaza":"","lat":37.566295,"lng":140.988579,"zip":"9792111"},{"town":"小高区関場二丁目","koaza":"","lat":37.560749,"lng":140.986151,"zip":"9792113"},{"town":"小高区関場一丁目","koaza":"","lat":37.562352,"lng":140.986502,"zip":"9792113"},{"town":"小高区吉名","koaza":"","lat":37.551891,"lng":140.985261,"zip":"9792157"},{"town":"小高区西町二丁目","koaza":"","lat":37.561476,"lng":140.981823,"zip":"9792114"},{"town":"小高区藤木二丁目","koaza":"","lat":37.56132,"lng":140.979825,"zip":"9792161"},{"town":"小高区西町一丁目","koaza":"","lat":37.563731,"lng":140.983863,"zip":"9792114"},{"town":"小高区上町二丁目","koaza":"","lat":37.566561,"lng":140.985638,"zip":"9792115"},{"town":"小高区上町一丁目","koaza":"","lat":37.56505,"lng":140.985274,"zip":"9792115"},{"town":"小高区藤木一丁目","koaza":"","lat":37.563987,"lng":140.980054,"zip":"9792161"},{"town":"小高区小屋木","koaza":"","lat":37.54876,"lng":140.963288,"zip":"9792156"},{"town":"小高区飯崎","koaza":"","lat":37.556849,"lng":140.960389,"zip":"9792162"},{"town":"小高区小高","koaza":"","lat":37.570138,"lng":140.987414,"zip":"9792102"},{"town":"小高区片草","koaza":"","lat":37.575768,"lng":140.972786,"zip":"9792101"},{"town":"小高区小谷","koaza":"","lat":37.568818,"lng":140.963589,"zip":"9792173"},{"town":"小高区南鳩原","koaza":"","lat":37.572733,"lng":140.95271,"zip":"9792172"},{"town":"小高区大富","koaza":"","lat":37.566297,"lng":140.923872,"zip":"9792174"},{"town":"原町区米々沢","koaza":"","lat":37.59716,"lng":141.006329,"zip":"9750048"},{"town":"原町区下渋佐","koaza":"","lat":37.637157,"lng":141.016175,"zip":"9750035"},{"town":"原町区益田","koaza":"","lat":37.602733,"lng":140.976722,"zip":"9750053"},{"town":"原町区矢川原","koaza":"","lat":37.598711,"lng":140.949785,"zip":"9750057"},{"town":"原町区上太田","koaza":"","lat":37.604649,"lng":140.950551,"zip":"9750059"},{"town":"原町区下太田","koaza":"","lat":37.615478,"lng":140.985105,"zip":"9750041"},{"town":"原町区日の出町","koaza":"","lat":37.631897,"lng":140.986938,"zip":"9750038"},{"town":"原町区青葉町三丁目","koaza":"","lat":37.631118,"lng":140.976987,"zip":"9750039"},{"town":"原町区青葉町二丁目","koaza":"","lat":37.63205,"lng":140.974077,"zip":"9750039"},{"town":"原町区青葉町四丁目","koaza":"","lat":37.628565,"lng":140.974078,"zip":"9750039"},{"town":"原町区二見町三丁目","koaza":"","lat":37.632958,"lng":140.970477,"zip":"9750005"},{"town":"原町区二見町四丁目","koaza":"","lat":37.629417,"lng":140.967339,"zip":"9750005"},{"town":"原町区二見町二丁目","koaza":"","lat":37.634268,"lng":140.96894,"zip":"9750005"},{"town":"原町区二見町一丁目","koaza":"","lat":37.634293,"lng":140.965855,"zip":"9750005"},{"town":"原町区本陣前二丁目","koaza":"","lat":37.621778,"lng":140.952748,"zip":"9750062"},{"town":"原町区橋本町四丁目","koaza":"","lat":37.626665,"lng":140.96104,"zip":"9750006"},{"town":"原町区牛来","koaza":"","lat":37.621756,"lng":140.969409,"zip":"9750051"},{"town":"原町区中太田","koaza":"","lat":37.614875,"lng":140.962063,"zip":"9750052"},{"town":"原町区橋本町三丁目","koaza":"","lat":37.629304,"lng":140.961259,"zip":"9750006"},{"town":"原町区本陣前一丁目","koaza":"","lat":37.624322,"lng":140.9547,"zip":"9750062"},{"town":"原町区南町四丁目","koaza":"","lat":37.627878,"lng":140.95675,"zip":"9750007"},{"town":"原町区橋本町二丁目","koaza":"","lat":37.631893,"lng":140.962628,"zip":"9750006"},{"town":"原町区橋本町一丁目","koaza":"","lat":37.634833,"lng":140.962663,"zip":"9750006"},{"town":"原町区南町三丁目","koaza":"","lat":37.63193,"lng":140.957206,"zip":"9750007"},{"town":"原町区南町二丁目","koaza":"","lat":37.634956,"lng":140.958008,"zip":"9750007"},{"town":"原町区国見町二丁目","koaza":"","lat":37.62759,"lng":140.953142,"zip":"9750015"},{"town":"原町区国見町一丁目","koaza":"","lat":37.63156,"lng":140.954308,"zip":"9750015"},{"town":"原町区国見町三丁目","koaza":"","lat":37.626462,"lng":140.949192,"zip":"9750015"},{"town":"原町区上町一丁目","koaza":"","lat":37.632195,"lng":140.951995,"zip":"9750013"},{"town":"原町区本陣前三丁目","koaza":"","lat":37.619139,"lng":140.949984,"zip":"9750062"},{"town":"原町区上町三丁目","koaza":"","lat":37.628346,"lng":140.947879,"zip":"9750013"},{"town":"原町区上町二丁目","koaza":"","lat":37.631586,"lng":140.948241,"zip":"9750013"},{"town":"原町区押釜","koaza":"","lat":37.625126,"lng":140.916501,"zip":"9750064"},{"town":"原町区高見町二丁目","koaza":"","lat":37.636154,"lng":140.985022,"zip":"9750033"},{"town":"原町区青葉町一丁目","koaza":"","lat":37.633384,"lng":140.978526,"zip":"9750039"},{"town":"原町区桜井町一丁目","koaza":"","lat":37.637854,"lng":140.978526,"zip":"9750032"},{"town":"原町区高見町一丁目","koaza":"","lat":37.640178,"lng":140.986292,"zip":"9750033"},{"town":"原町区桜井町二丁目","koaza":"","lat":37.640502,"lng":140.979359,"zip":"9750032"},{"town":"原町区下高平","koaza":"","lat":37.646395,"lng":140.987726,"zip":"9750025"},{"town":"原町区旭町四丁目","koaza":"","lat":37.63544,"lng":140.972774,"zip":"9750004"},{"town":"原町区旭町二丁目","koaza":"","lat":37.637694,"lng":140.970344,"zip":"9750004"},{"town":"原町区錦町一丁目","koaza":"","lat":37.638598,"lng":140.973016,"zip":"9750031"},{"town":"原町区旭町三丁目","koaza":"","lat":37.635887,"lng":140.969179,"zip":"9750004"},{"town":"原町区旭町一丁目","koaza":"","lat":37.637781,"lng":140.967183,"zip":"9750004"},{"town":"原町区大町三丁目","koaza":"","lat":37.63964,"lng":140.968021,"zip":"9750001"},{"town":"原町区栄町三丁目","koaza":"","lat":37.637125,"lng":140.964763,"zip":"9750003"},{"town":"原町区栄町二丁目","koaza":"","lat":37.637586,"lng":140.962338,"zip":"9750003"},{"town":"原町区大町二丁目","koaza":"","lat":37.640047,"lng":140.963967,"zip":"9750001"},{"town":"原町区錦町二丁目","koaza":"","lat":37.641953,"lng":140.970575,"zip":"9750031"},{"town":"原町区東町三丁目","koaza":"","lat":37.642559,"lng":140.966199,"zip":"9750002"},{"town":"原町区錦町三丁目","koaza":"","lat":37.644106,"lng":140.969025,"zip":"9750031"},{"town":"原町区東町二丁目","koaza":"","lat":37.64268,"lng":140.963527,"zip":"9750002"},{"town":"原町区栄町一丁目","koaza":"","lat":37.637707,"lng":140.960584,"zip":"9750003"},{"town":"原町区大町一丁目","koaza":"","lat":37.640097,"lng":140.961261,"zip":"9750001"},{"town":"原町区南町一丁目","koaza":"","lat":37.637526,"lng":140.958463,"zip":"9750007"},{"town":"原町区本町一丁目","koaza":"","lat":37.63938,"lng":140.958306,"zip":"9750008"},{"town":"原町区三島町一丁目","koaza":"","lat":37.635717,"lng":140.954885,"zip":"9750012"},{"town":"原町区三島町二丁目","koaza":"","lat":37.639958,"lng":140.954245,"zip":"9750012"},{"town":"原町区西町二丁目","koaza":"","lat":37.635228,"lng":140.951036,"zip":"9750014"},{"town":"原町区西町一丁目","koaza":"","lat":37.637432,"lng":140.949918,"zip":"9750014"},{"town":"原町区仲町二丁目","koaza":"","lat":37.639479,"lng":140.949828,"zip":"9750016"},{"town":"原町区東町一丁目","koaza":"","lat":37.642871,"lng":140.961295,"zip":"9750002"},{"town":"原町区本町二丁目","koaza":"","lat":37.641816,"lng":140.958653,"zip":"9750008"},{"town":"原町区本町三丁目","koaza":"","lat":37.644178,"lng":140.958252,"zip":"9750008"},{"town":"原町区三島町三丁目","koaza":"","lat":37.642832,"lng":140.955544,"zip":"9750012"},{"town":"原町区小川町","koaza":"","lat":37.647397,"lng":140.959862,"zip":"9750011"},{"town":"原町区北町","koaza":"","lat":37.646352,"lng":140.951941,"zip":"9750018"},{"town":"原町区西町三丁目","koaza":"","lat":37.63361,"lng":140.945553,"zip":"9750014"},{"town":"原町区仲町一丁目","koaza":"","lat":37.641891,"lng":140.94964,"zip":"9750016"},{"town":"原町区仲町三丁目","koaza":"","lat":37.639405,"lng":140.946949,"zip":"9750016"},{"town":"原町区牛越","koaza":"","lat":37.642742,"lng":140.944134,"zip":"9750017"},{"town":"原町区大木戸","koaza":"","lat":37.624932,"lng":140.940985,"zip":"9750061"},{"town":"原町区石神","koaza":"","lat":37.639941,"lng":140.922216,"zip":"9750075"},{"town":"原町区下北高平","koaza":"","lat":37.65543,"lng":140.98792,"zip":"9750024"},{"town":"原町区上高平","koaza":"","lat":37.649823,"lng":140.965432,"zip":"9750026"},{"town":"原町区北新田","koaza":"","lat":37.657472,"lng":140.952889,"zip":"9750073"},{"town":"原町区長野","koaza":"","lat":37.650936,"lng":140.939193,"zip":"9750074"},{"town":"原町区北長野","koaza":"","lat":37.656016,"lng":140.938293,"zip":"9750072"},{"town":"原町区信田沢","koaza":"","lat":37.650886,"lng":140.919931,"zip":"9750076"},{"town":"原町区大谷","koaza":"","lat":37.649336,"lng":140.898677,"zip":"9750078"},{"town":"鹿島区烏崎","koaza":"","lat":37.678957,"lng":141.006918,"zip":"9792323"},{"town":"鹿島区西町三丁目","koaza":"","lat":37.709897,"lng":140.95876,"zip":"9792334"},{"town":"鹿島区あさひ","koaza":"","lat":37.699529,"lng":140.970642,"zip":"9792336"},{"town":"鹿島区小島田","koaza":"","lat":37.690456,"lng":140.984439,"zip":"9792321"},{"town":"鹿島区江垂","koaza":"","lat":37.691004,"lng":140.96911,"zip":"9792331"},{"town":"鹿島区小池","koaza":"","lat":37.6918,"lng":140.926931,"zip":"9792453"},{"town":"鹿島区西町一丁目","koaza":"","lat":37.703485,"lng":140.964824,"zip":"9792334"},{"town":"鹿島区南屋形","koaza":"","lat":37.712483,"lng":140.973597,"zip":"9792304"},{"town":"鹿島区西町二丁目","koaza":"","lat":37.707061,"lng":140.962,"zip":"9792334"},{"town":"鹿島区鹿島","koaza":"","lat":37.701819,"lng":140.974803,"zip":"9792335"},{"town":"鹿島区寺内","koaza":"","lat":37.692757,"lng":140.949607,"zip":"9792333"},{"town":"鹿島区牛河内","koaza":"","lat":37.706636,"lng":140.950805,"zip":"9792443"},{"town":"鹿島区岡和田","koaza":"","lat":37.712199,"lng":140.947141,"zip":"9792444"},{"town":"鹿島区小山田","koaza":"","lat":37.707724,"lng":140.916784,"zip":"9792452"},{"town":"鹿島区永田","koaza":"","lat":37.718584,"lng":140.96186,"zip":"9792305"},{"town":"鹿島区角川原","koaza":"","lat":37.725791,"lng":140.934925,"zip":"9792441"},{"town":"鹿島区浮田","koaza":"","lat":37.71638,"lng":140.927777,"zip":"9792451"},{"town":"鹿島区山下","koaza":"","lat":37.726044,"lng":140.917477,"zip":"9792461"},{"town":"鹿島区南柚木","koaza":"","lat":37.73013,"lng":140.967014,"zip":"9792302"},{"town":"鹿島区永渡","koaza":"","lat":37.734239,"lng":140.949933,"zip":"9792301"},{"town":"鹿島区横手","koaza":"","lat":37.724582,"lng":140.945957,"zip":"9792442"},{"town":"鹿島区御山","koaza":"","lat":37.737527,"lng":140.912475,"zip":"9792464"},{"town":"鹿島区栃窪","koaza":"","lat":37.729758,"lng":140.895778,"zip":"9792463"},{"town":"小高区","koaza":"","lat":37.555263,"lng":140.893728,"zip":"9792133"},{"town":"小高区金谷","koaza":"","lat":37.549636,"lng":140.922315,"zip":"9792165"},{"town":"原町区陣ケ崎","koaza":"","lat":37.613205,"lng":140.944931,"zip":"9750065"},{"town":"鹿島区小池","koaza":"宮前","lat":37.689439,"lng":140.92084,"zip":"9792453"},{"town":"小高区羽倉","koaza":"中ノ木戸","lat":37.589108,"lng":140.923187,"zip":"9792175"},{"town":"原町区深野","koaza":"風越","lat":37.661478,"lng":140.91568,"zip":"9750071"},{"town":"原町区片倉","koaza":"八重米坂","lat":37.595013,"lng":140.915961,"zip":"9750058"},{"town":"原町区深野","koaza":"塩塚","lat":37.663805,"lng":140.917422,"zip":"9750071"},{"town":"原町区馬場","koaza":"萱堀子","lat":37.601972,"lng":140.920053,"zip":"9750063"},{"town":"小高区羽倉","koaza":"堀口","lat":37.581308,"lng":140.919577,"zip":"9792175"},{"town":"小高区羽倉","koaza":"君ケ沢","lat":37.583992,"lng":140.934307,"zip":"9792175"},{"town":"鹿島区山下","koaza":"中ノ坪","lat":37.728799,"lng":140.918557,"zip":"9792461"},{"town":"鹿島区小池","koaza":"ミタラセ","lat":37.686766,"lng":140.921465,"zip":"9792453"},{"town":"鹿島区山下","koaza":"中ノ内","lat":37.723596,"lng":140.925524,"zip":"9792461"},{"town":"鹿島区山下","koaza":"馬見塚","lat":37.725677,"lng":140.922852,"zip":"9792461"},{"town":"原町区馬場","koaza":"垣ノ内","lat":37.605153,"lng":140.922694,"zip":"9750063"},{"town":"原町区馬場","koaza":"原","lat":37.608094,"lng":140.932198,"zip":"9750063"},{"town":"原町区石神","koaza":"川原田","lat":37.633795,"lng":140.919662,"zip":"9750075"},{"town":"原町区押釜","koaza":"前田","lat":37.627171,"lng":140.921505,"zip":"9750064"},{"town":"原町区押釜","koaza":"戸鳥土","lat":37.631507,"lng":140.922358,"zip":"9750064"},{"town":"原町区信田沢","koaza":"道ノ上","lat":37.654493,"lng":140.91983,"zip":"9750076"},{"town":"原町区片倉","koaza":"市渡戸","lat":37.59701,"lng":140.920847,"zip":"9750058"},{"town":"原町区深野","koaza":"小池田","lat":37.66962,"lng":140.919902,"zip":"9750071"},{"town":"原町区深野","koaza":"関場","lat":37.666809,"lng":140.924522,"zip":"9750071"},{"town":"原町区石神","koaza":"石神","lat":37.637412,"lng":140.922631,"zip":"9750075"},{"town":"原町区深野","koaza":"荒戸沢","lat":37.668002,"lng":140.921587,"zip":"9750071"},{"town":"原町区深野","koaza":"庚塚","lat":37.663668,"lng":140.924129,"zip":"9750071"},{"town":"小高区大富","koaza":"荻窪","lat":37.557846,"lng":140.921842,"zip":"9792174"},{"town":"原町区信田沢","koaza":"馬場田","lat":37.660598,"lng":140.921776,"zip":"9750076"},{"town":"原町区石神","koaza":"遣子内","lat":37.636664,"lng":140.921923,"zip":"9750075"},{"town":"原町区馬場","koaza":"中内","lat":37.606751,"lng":140.923443,"zip":"9750063"},{"town":"原町区信田沢","koaza":"上信田","lat":37.657505,"lng":140.922782,"zip":"9750076"},{"town":"原町区馬場","koaza":"石住","lat":37.598766,"lng":140.923173,"zip":"9750063"},{"town":"原町区深野","koaza":"竹ノ内","lat":37.670372,"lng":140.924152,"zip":"9750071"},{"town":"鹿島区小山田","koaza":"隠町","lat":37.711362,"lng":140.925409,"zip":"9792452"},{"town":"原町区深野","koaza":"西内","lat":37.668576,"lng":140.924943,"zip":"9750071"},{"town":"原町区石神","koaza":"中山","lat":37.63869,"lng":140.923645,"zip":"9750075"},{"town":"原町区石神","koaza":"杉内","lat":37.638485,"lng":140.924686,"zip":"9750075"},{"town":"原町区馬場","koaza":"赤柴","lat":37.621184,"lng":140.929519,"zip":"9750063"},{"town":"原町区深野","koaza":"台畑","lat":37.6619,"lng":140.927708,"zip":"9750071"},{"town":"鹿島区小池","koaza":"台畑","lat":37.687093,"lng":140.926098,"zip":"9792453"},{"town":"原町区押釜","koaza":"神田","lat":37.627917,"lng":140.924769,"zip":"9750064"},{"town":"原町区信田沢","koaza":"堂下","lat":37.650268,"lng":140.923952,"zip":"9750076"},{"town":"原町区石神","koaza":"中居","lat":37.636458,"lng":140.926341,"zip":"9750075"},{"town":"原町区信田沢","koaza":"中屋鋪","lat":37.648326,"lng":140.924886,"zip":"9750076"},{"town":"原町区押釜","koaza":"原","lat":37.631743,"lng":140.929066,"zip":"9750064"},{"town":"原町区信田沢","koaza":"熊野内","lat":37.659176,"lng":140.92486,"zip":"9750076"},{"town":"鹿島区小池","koaza":"原畑","lat":37.688393,"lng":140.934577,"zip":"9792453"},{"town":"原町区片倉","koaza":"片倉","lat":37.597121,"lng":140.922405,"zip":"9750058"},{"town":"原町区押釜","koaza":"本内","lat":37.629424,"lng":140.925351,"zip":"9750064"},{"town":"鹿島区横手","koaza":"白坂前","lat":37.73679,"lng":140.927282,"zip":"9792442"},{"town":"原町区石神","koaza":"赤坂","lat":37.642026,"lng":140.926875,"zip":"9750075"},{"town":"原町区馬場","koaza":"下中内","lat":37.610439,"lng":140.928597,"zip":"9750063"},{"town":"鹿島区角川原","koaza":"西川原","lat":37.731601,"lng":140.927122,"zip":"9792441"},{"town":"原町区信田沢","koaza":"原","lat":37.657806,"lng":140.928899,"zip":"9750076"},{"town":"原町区馬場","koaza":"切付","lat":37.613923,"lng":140.928273,"zip":"9750063"},{"town":"原町区石神","koaza":"高茂内","lat":37.64029,"lng":140.927417,"zip":"9750075"},{"town":"鹿島区浮田","koaza":"一丁田","lat":37.722369,"lng":140.926971,"zip":"9792451"},{"town":"原町区深野","koaza":"仲ノ内","lat":37.670192,"lng":140.927043,"zip":"9750071"},{"town":"原町区片倉","koaza":"岩下","lat":37.597803,"lng":140.928151,"zip":"9750058"},{"town":"鹿島区小山田","koaza":"戸ノ内","lat":37.708796,"lng":140.934254,"zip":"9792452"},{"town":"原町区深野","koaza":"北長信田","lat":37.664065,"lng":140.925944,"zip":"9750071"},{"town":"原町区信田沢","koaza":"新田原","lat":37.660184,"lng":140.92568,"zip":"9750076"},{"town":"原町区深野","koaza":"力石","lat":37.66931,"lng":140.929498,"zip":"9750071"},{"town":"鹿島区角川原","koaza":"前川原","lat":37.723757,"lng":140.93385,"zip":"9792441"},{"town":"原町区信田沢","koaza":"日照田","lat":37.647532,"lng":140.929186,"zip":"9750076"},{"town":"原町区深野","koaza":"宮前","lat":37.670648,"lng":140.930684,"zip":"9750071"},{"town":"原町区馬場","koaza":"欠下","lat":37.621938,"lng":140.931707,"zip":"9750063"},{"town":"原町区石神","koaza":"中川原","lat":37.639603,"lng":140.930322,"zip":"9750075"},{"town":"原町区大木戸","koaza":"西原","lat":37.633294,"lng":140.931433,"zip":"9750061"},{"town":"原町区押釜","koaza":"高田","lat":37.629004,"lng":140.929883,"zip":"9750064"},{"town":"小高区金谷","koaza":"若林","lat":37.550146,"lng":140.936442,"zip":"9792165"},{"town":"原町区大木戸","koaza":"北西原","lat":37.636241,"lng":140.93081,"zip":"9750061"},{"town":"鹿島区浮田","koaza":"野中","lat":37.718952,"lng":140.932073,"zip":"9792451"},{"town":"鹿島区小池","koaza":"小草","lat":37.697454,"lng":140.933747,"zip":"9792453"},{"town":"原町区上太田","koaza":"石積","lat":37.602868,"lng":140.935265,"zip":"9750059"},{"town":"原町区馬場","koaza":"下荒井","lat":37.620407,"lng":140.932058,"zip":"9750063"},{"town":"小高区川房","koaza":"四ツ栗","lat":37.534873,"lng":140.939449,"zip":"9792164"},{"town":"原町区深野","koaza":"中川原","lat":37.666812,"lng":140.931176,"zip":"9750071"},{"town":"鹿島区浮田","koaza":"車川","lat":37.72341,"lng":140.929932,"zip":"9792451"},{"town":"原町区信田沢","koaza":"原田","lat":37.654927,"lng":140.93096,"zip":"9750076"},{"town":"原町区石神","koaza":"北畑","lat":37.643054,"lng":140.931705,"zip":"9750075"},{"town":"原町区矢川原","koaza":"隠椴","lat":37.599615,"lng":140.933114,"zip":"9750057"},{"town":"原町区信田沢","koaza":"欅","lat":37.655353,"lng":140.932275,"zip":"9750076"},{"town":"原町区深野","koaza":"下欠","lat":37.660001,"lng":140.933486,"zip":"9750071"},{"town":"原町区押釜","koaza":"道久","lat":37.63,"lng":140.933418,"zip":"9750064"},{"town":"原町区長野","koaza":"上田","lat":37.653771,"lng":140.935005,"zip":"9750074"},{"town":"原町区北長野","koaza":"南原田","lat":37.65548,"lng":140.937709,"zip":"9750072"},{"town":"原町区深野","koaza":"荒屋舗","lat":37.667568,"lng":140.934298,"zip":"9750071"},{"town":"原町区北長野","koaza":"北原田","lat":37.658931,"lng":140.938015,"zip":"9750072"},{"town":"原町区深野","koaza":"原田","lat":37.661607,"lng":140.936513,"zip":"9750071"},{"town":"原町区深野","koaza":"舘","lat":37.673098,"lng":140.935372,"zip":"9750071"},{"town":"原町区長野","koaza":"洞","lat":37.64667,"lng":140.933902,"zip":"9750074"},{"town":"原町区石神","koaza":"坂下","lat":37.64414,"lng":140.937211,"zip":"9750075"},{"town":"原町区大木戸","koaza":"南東方","lat":37.622835,"lng":140.939935,"zip":"9750061"},{"town":"原町区深野","koaza":"的場","lat":37.664136,"lng":140.934924,"zip":"9750071"},{"town":"原町区大木戸","koaza":"南原","lat":37.615735,"lng":140.940455,"zip":"9750061"},{"town":"原町区上北高平","koaza":"入道迫","lat":37.679378,"lng":140.938932,"zip":"9750027"},{"town":"鹿島区小池","koaza":"善徳","lat":37.696852,"lng":140.938209,"zip":"9792453"},{"town":"原町区大木戸","koaza":"大切橋","lat":37.631929,"lng":140.936268,"zip":"9750061"},{"town":"原町区大木戸","koaza":"八方内","lat":37.635902,"lng":140.937901,"zip":"9750061"},{"town":"小高区小谷","koaza":"摩辰","lat":37.565292,"lng":140.943502,"zip":"9792173"},{"town":"原町区矢川原","koaza":"西内","lat":37.600948,"lng":140.940755,"zip":"9750057"},{"town":"原町区大木戸","koaza":"大茶園","lat":37.630279,"lng":140.937076,"zip":"9750061"},{"town":"原町区大木戸","koaza":"仏場","lat":37.628541,"lng":140.937284,"zip":"9750061"},{"town":"鹿島区浮田","koaza":"浮田","lat":37.715897,"lng":140.938129,"zip":"9792451"},{"town":"原町区牛越","koaza":"辻内","lat":37.637841,"lng":140.937365,"zip":"9750017"},{"town":"鹿島区小池","koaza":"新山","lat":37.701389,"lng":140.940662,"zip":"9792453"},{"town":"原町区牛越","koaza":"遠藤","lat":37.637376,"lng":140.938694,"zip":"9750017"},{"town":"原町区大木戸","koaza":"松島","lat":37.625717,"lng":140.942552,"zip":"9750061"},{"town":"原町区長野","koaza":"南原","lat":37.6519,"lng":140.941595,"zip":"9750074"},{"town":"原町区深野","koaza":"百目木","lat":37.670651,"lng":140.940515,"zip":"9750071"},{"town":"原町区牛越","koaza":"搗屋前","lat":37.640531,"lng":140.938992,"zip":"9750017"},{"town":"原町区大木戸","koaza":"東方","lat":37.629296,"lng":140.941606,"zip":"9750061"},{"town":"原町区大木戸","koaza":"金場","lat":37.638376,"lng":140.943945,"zip":"9750061"},{"town":"原町区牛越","koaza":"東北","lat":37.641608,"lng":140.942625,"zip":"9750017"},{"town":"原町区深野","koaza":"幸根房内","lat":37.664266,"lng":140.93925,"zip":"9750071"},{"town":"鹿島区寺内","koaza":"菖蒲苅場","lat":37.695145,"lng":140.945089,"zip":"9792333"},{"town":"原町区長野","koaza":"杢正内","lat":37.654416,"lng":140.942768,"zip":"9750074"},{"town":"原町区上太田","koaza":"堰場","lat":37.603749,"lng":140.944587,"zip":"9750059"},{"town":"原町区深野","koaza":"江迎","lat":37.664198,"lng":140.940107,"zip":"9750071"},{"town":"原町区上北高平","koaza":"西高松","lat":37.668722,"lng":140.948194,"zip":"9750027"},{"town":"原町区牛越","koaza":"鎌田","lat":37.64712,"lng":140.946177,"zip":"9750017"},{"town":"原町区牛越","koaza":"糀屋","lat":37.64037,"lng":140.942212,"zip":"9750017"},{"town":"原町区北新田","koaza":"横上","lat":37.663287,"lng":140.943318,"zip":"9750073"},{"town":"鹿島区小池","koaza":"長沼","lat":37.69642,"lng":140.943412,"zip":"9792453"},{"town":"原町区上北高平","koaza":"高松","lat":37.66373,"lng":140.952038,"zip":"9750027"},{"town":"原町区長野","koaza":"広畑","lat":37.655925,"lng":140.944305,"zip":"9750074"},{"town":"原町区牛越","koaza":"高田","lat":37.641421,"lng":140.94518,"zip":"9750017"},{"town":"原町区北新田","koaza":"川原田","lat":37.658233,"lng":140.94591,"zip":"9750073"},{"town":"小高区南鳩原","koaza":"台畑","lat":37.570423,"lng":140.95134,"zip":"9792172"},{"town":"原町区北新田","koaza":"信田","lat":37.659531,"lng":140.946471,"zip":"9750073"},{"town":"原町区矢川原","koaza":"堂ノ前","lat":37.600379,"lng":140.945669,"zip":"9750057"},{"town":"鹿島区寺内","koaza":"権現沢","lat":37.693145,"lng":140.952159,"zip":"9792333"},{"town":"鹿島区牛河内","koaza":"与手五郎内","lat":37.704723,"lng":140.948329,"zip":"9792443"},{"town":"鹿島区横手","koaza":"西原田","lat":37.725085,"lng":140.950583,"zip":"9792442"},{"town":"鹿島区寺内","koaza":"八幡林","lat":37.696579,"lng":140.951724,"zip":"9792333"},{"town":"小高区北鳩原","koaza":"椴木下","lat":37.582013,"lng":140.954988,"zip":"9792171"},{"town":"原町区北長野","koaza":"塚腰","lat":37.654532,"lng":140.947043,"zip":"9750072"},{"town":"原町区牛越","koaza":"下川原","lat":37.643549,"lng":140.945963,"zip":"9750017"},{"town":"鹿島区岡和田","koaza":"沢田","lat":37.710284,"lng":140.948717,"zip":"9792444"},{"town":"鹿島区寺内","koaza":"中町","lat":37.700244,"lng":140.953065,"zip":"9792333"},{"town":"原町区牛越","koaza":"舘下","lat":37.644561,"lng":140.944481,"zip":"9750017"},{"town":"原町区北長野","koaza":"山居前","lat":37.653656,"lng":140.949768,"zip":"9750072"},{"town":"原町区北新田","koaza":"前沢目","lat":37.656274,"lng":140.957247,"zip":"9750073"},{"town":"原町区北新田","koaza":"五反田","lat":37.654707,"lng":140.94831,"zip":"9750073"},{"town":"原町区上太田","koaza":"後田","lat":37.610879,"lng":140.954099,"zip":"9750059"},{"town":"鹿島区永渡","koaza":"西永渡","lat":37.73392,"lng":140.95083,"zip":"9792301"},{"town":"原町区上太田","koaza":"北中平","lat":37.60431,"lng":140.949558,"zip":"9750059"},{"town":"原町区上太田","koaza":"坂下","lat":37.605467,"lng":140.949905,"zip":"9750059"},{"town":"鹿島区寺内","koaza":"北町","lat":37.699867,"lng":140.950649,"zip":"9792333"},{"town":"鹿島区永渡","koaza":"東永渡","lat":37.73423,"lng":140.953877,"zip":"9792301"},{"town":"原町区北新田","koaza":"東畑","lat":37.661515,"lng":140.952351,"zip":"9750073"},{"town":"小高区北鳩原","koaza":"仲内","lat":37.582249,"lng":140.950503,"zip":"9792171"},{"town":"小高区飯崎","koaza":"北原","lat":37.557068,"lng":140.959132,"zip":"9792162"},{"town":"原町区北新田","koaza":"中川原","lat":37.660969,"lng":140.951393,"zip":"9750073"},{"town":"鹿島区寺内","koaza":"三里","lat":37.704162,"lng":140.953459,"zip":"9792333"},{"town":"小高区飯崎","koaza":"南原","lat":37.553045,"lng":140.957248,"zip":"9792162"},{"town":"原町区上太田","koaza":"陣ケ崎","lat":37.608904,"lng":140.947055,"zip":"9750059"},{"town":"原町区北新田","koaza":"西内","lat":37.654807,"lng":140.953061,"zip":"9750073"},{"town":"鹿島区塩崎","koaza":"蛇沼","lat":37.682285,"lng":140.952844,"zip":"9792332"},{"town":"原町区上太田","koaza":"前田","lat":37.608524,"lng":140.95441,"zip":"9750059"},{"town":"原町区上太田","koaza":"上ノ内","lat":37.606696,"lng":140.954122,"zip":"9750059"},{"town":"鹿島区寺内","koaza":"塚合","lat":37.701558,"lng":140.952811,"zip":"9792333"},{"town":"小高区南鳩原","koaza":"南迫","lat":37.568871,"lng":140.953582,"zip":"9792172"},{"town":"鹿島区寺内","koaza":"大谷地","lat":37.695479,"lng":140.955049,"zip":"9792333"},{"town":"鹿島区寺内","koaza":"狐畑","lat":37.705056,"lng":140.953793,"zip":"9792333"},{"town":"鹿島区寺内","koaza":"佛方","lat":37.701904,"lng":140.954125,"zip":"9792333"},{"town":"原町区北新田","koaza":"本町","lat":37.651852,"lng":140.95681,"zip":"9750073"},{"town":"鹿島区南柚木","koaza":"宮前","lat":37.731493,"lng":140.960323,"zip":"9792302"},{"town":"鹿島区南柚木","koaza":"南西谷地","lat":37.735032,"lng":140.95678,"zip":"9792302"},{"town":"鹿島区横手","koaza":"北原田","lat":37.722592,"lng":140.954222,"zip":"9792442"},{"town":"原町区上北高平","koaza":"東高松","lat":37.666482,"lng":140.959755,"zip":"9750027"},{"town":"鹿島区南柚木","koaza":"相馬清水","lat":37.739146,"lng":140.960263,"zip":"9792302"},{"town":"鹿島区横手","koaza":"北ノ内","lat":37.719909,"lng":140.955846,"zip":"9792442"},{"town":"原町区北新田","koaza":"諏訪","lat":37.659229,"lng":140.955668,"zip":"9750073"},{"town":"原町区上太田","koaza":"新橋","lat":37.612151,"lng":140.955715,"zip":"9750059"},{"town":"原町区矢川原","koaza":"下川原","lat":37.602556,"lng":140.95795,"zip":"9750057"},{"town":"鹿島区寺内","koaza":"落合","lat":37.70496,"lng":140.958352,"zip":"9792333"},{"town":"鹿島区寺内","koaza":"清水","lat":37.700743,"lng":140.955531,"zip":"9792333"},{"town":"小高区小谷","koaza":"道摩塚","lat":37.569089,"lng":140.957035,"zip":"9792173"},{"town":"原町区矢川原","koaza":"広田","lat":37.600598,"lng":140.956065,"zip":"9750057"},{"town":"鹿島区寺内","koaza":"尾張屋敷","lat":37.702678,"lng":140.955687,"zip":"9792333"},{"town":"小高区神山","koaza":"長畑","lat":37.526452,"lng":140.96874,"zip":"9792154"},{"town":"原町区上太田","koaza":"中島","lat":37.607113,"lng":140.958707,"zip":"9750059"},{"town":"小高区小屋木","koaza":"幅下","lat":37.54949,"lng":140.956117,"zip":"9792156"},{"town":"原町区中太田","koaza":"天狗田","lat":37.61808,"lng":140.95723,"zip":"9750052"},{"town":"原町区北新田","koaza":"広田","lat":37.658314,"lng":140.959482,"zip":"9750073"},{"town":"原町区上太田","koaza":"内堀子","lat":37.60859,"lng":140.958471,"zip":"9750059"},{"town":"小高区飯崎","koaza":"西原","lat":37.558204,"lng":140.957203,"zip":"9792162"},{"town":"鹿島区寺内","koaza":"的場","lat":37.702312,"lng":140.956891,"zip":"9792333"},{"town":"鹿島区寺内","koaza":"歓頂木","lat":37.703415,"lng":140.955824,"zip":"9792333"},{"town":"鹿島区寺内","koaza":"西舘","lat":37.698776,"lng":140.959243,"zip":"9792333"},{"town":"小高区小屋木","koaza":"上阿弥","lat":37.548284,"lng":140.959941,"zip":"9792156"},{"town":"小高区飯崎","koaza":"大畑","lat":37.559398,"lng":140.960467,"zip":"9792162"},{"town":"鹿島区寺内","koaza":"迎田","lat":37.698085,"lng":140.962061,"zip":"9792333"},{"town":"原町区中太田","koaza":"西内","lat":37.613584,"lng":140.958658,"zip":"9750052"},{"town":"鹿島区寺内","koaza":"舘内","lat":37.700492,"lng":140.96052,"zip":"9792333"},{"town":"原町区中太田","koaza":"後迫","lat":37.618993,"lng":140.959779,"zip":"9750052"},{"town":"原町区鶴谷","koaza":"割羽迫","lat":37.592029,"lng":140.959109,"zip":"9750056"},{"town":"鹿島区塩崎","koaza":"別当迫","lat":37.687985,"lng":140.963075,"zip":"9792332"},{"town":"原町区矢川原","koaza":"前迫","lat":37.59836,"lng":140.964116,"zip":"9750057"},{"town":"鹿島区横手","koaza":"八斗蒔","lat":37.714891,"lng":140.959942,"zip":"9792442"},{"town":"原町区上太田","koaza":"町川原","lat":37.605332,"lng":140.959691,"zip":"9750059"},{"town":"小高区小谷","koaza":"山大道","lat":37.567958,"lng":140.957261,"zip":"9792173"},{"town":"原町区上高平","koaza":"中里","lat":37.652395,"lng":140.962457,"zip":"9750026"},{"town":"小高区小谷","koaza":"官上","lat":37.570429,"lng":140.961391,"zip":"9792173"},{"town":"小高区小屋木","koaza":"桜関","lat":37.548362,"lng":140.961779,"zip":"9792156"},{"town":"鹿島区寺内","koaza":"東前田","lat":37.699648,"lng":140.960876,"zip":"9792333"},{"town":"原町区牛来","koaza":"出口","lat":37.621665,"lng":140.963674,"zip":"9750051"},{"town":"原町区中太田","koaza":"堀内","lat":37.606807,"lng":140.964271,"zip":"9750052"},{"town":"原町区矢川原","koaza":"堂ノ内","lat":37.603249,"lng":140.961846,"zip":"9750057"},{"town":"鹿島区横手","koaza":"町田","lat":37.711039,"lng":140.962047,"zip":"9792442"},{"town":"鹿島区横手","koaza":"柳町","lat":37.712967,"lng":140.961498,"zip":"9792442"},{"town":"原町区北新田","koaza":"一ノ坪","lat":37.6554,"lng":140.961671,"zip":"9750073"},{"town":"原町区中太田","koaza":"八重草","lat":37.610833,"lng":140.962187,"zip":"9750052"},{"town":"小高区小屋木","koaza":"市阿弥","lat":37.546268,"lng":140.963631,"zip":"9792156"},{"town":"小高区飯崎","koaza":"迎山","lat":37.563818,"lng":140.963427,"zip":"9792162"},{"town":"鹿島区塩崎","koaza":"房田","lat":37.678883,"lng":140.964677,"zip":"9792332"},{"town":"原町区上北高平","koaza":"上北沢","lat":37.66614,"lng":140.965349,"zip":"9750027"},{"town":"原町区上北高平","koaza":"植松","lat":37.658174,"lng":140.963479,"zip":"9750027"},{"town":"小高区小屋木","koaza":"幅下前","lat":37.551434,"lng":140.963348,"zip":"9792156"},{"town":"原町区鶴谷","koaza":"南迫","lat":37.590182,"lng":140.965535,"zip":"9750056"},{"town":"小高区小屋木","koaza":"籠田","lat":37.550592,"lng":140.967433,"zip":"9792156"},{"town":"小高区飯崎","koaza":"根崎","lat":37.560711,"lng":140.966106,"zip":"9792162"},{"town":"小高区上根沢","koaza":"糟内","lat":37.545002,"lng":140.964745,"zip":"9792155"},{"town":"鹿島区南柚木","koaza":"二反田","lat":37.733568,"lng":140.964292,"zip":"9792302"},{"town":"鹿島区鹿島","koaza":"サヤノ前","lat":37.707832,"lng":140.963964,"zip":"9792335"},{"town":"原町区矢川原","koaza":"川原内","lat":37.602914,"lng":140.965665,"zip":"9750057"},{"town":"鹿島区鹿島","koaza":"石川内","lat":37.706797,"lng":140.964766,"zip":"9792335"},{"town":"原町区中太田","koaza":"別所","lat":37.609464,"lng":140.969061,"zip":"9750052"},{"town":"鹿島区鹿島","koaza":"北畑","lat":37.705513,"lng":140.966639,"zip":"9792335"},{"town":"原町区上高平","koaza":"川原","lat":37.64746,"lng":140.96808,"zip":"9750026"},{"town":"原町区上高平","koaza":"柳町","lat":37.651895,"lng":140.968597,"zip":"9750026"},{"town":"原町区益田","koaza":"雫川","lat":37.604799,"lng":140.967673,"zip":"9750053"},{"town":"鹿島区塩崎","koaza":"大月平","lat":37.677896,"lng":140.965347,"zip":"9792332"},{"town":"小高区飯崎","koaza":"原","lat":37.556157,"lng":140.966422,"zip":"9792162"},{"town":"小高区片草","koaza":"権現段","lat":37.580433,"lng":140.971866,"zip":"9792101"},{"town":"鹿島区江垂","koaza":"堂前","lat":37.696572,"lng":140.966785,"zip":"9792331"},{"town":"原町区上北高平","koaza":"比丘尼沢","lat":37.669092,"lng":140.967902,"zip":"9750027"},{"town":"鹿島区鹿島","koaza":"町","lat":37.702583,"lng":140.96789,"zip":"9792335"},{"town":"鹿島区鹿島","koaza":"北田","lat":37.708036,"lng":140.967199,"zip":"9792335"},{"town":"原町区中太田","koaza":"舘腰","lat":37.611005,"lng":140.967571,"zip":"9750052"},{"town":"鹿島区塩崎","koaza":"西ノ入","lat":37.68185,"lng":140.967823,"zip":"9792332"},{"town":"原町区中太田","koaza":"洞","lat":37.615066,"lng":140.967792,"zip":"9750052"},{"town":"鹿島区南柚木","koaza":"仲板","lat":37.734283,"lng":140.97023,"zip":"9792302"},{"town":"鹿島区鹿島","koaza":"大河内","lat":37.699927,"lng":140.96756,"zip":"9792335"},{"town":"原町区牛来","koaza":"釈迦前","lat":37.6236,"lng":140.969384,"zip":"9750051"},{"town":"小高区飯崎","koaza":"杉平","lat":37.556851,"lng":140.97181,"zip":"9792162"},{"town":"小高区飯崎","koaza":"南台","lat":37.559198,"lng":140.96918,"zip":"9792162"},{"town":"鹿島区南柚木","koaza":"堤田","lat":37.739817,"lng":140.966535,"zip":"9792302"},{"town":"原町区益田","koaza":"塩釜","lat":37.605597,"lng":140.970166,"zip":"9750053"},{"town":"鹿島区鹿島","koaza":"御前ノ内","lat":37.70178,"lng":140.970098,"zip":"9792335"},{"town":"小高区小谷","koaza":"鍛冶前","lat":37.566898,"lng":140.96911,"zip":"9792173"},{"town":"小高区飯崎","koaza":"北台","lat":37.561349,"lng":140.970438,"zip":"9792162"},{"town":"原町区上高平","koaza":"竹下","lat":37.656713,"lng":140.971318,"zip":"9750026"},{"town":"鹿島区南屋形","koaza":"前畑","lat":37.715759,"lng":140.973059,"zip":"9792304"},{"town":"鹿島区鹿島","koaza":"一本榎","lat":37.704308,"lng":140.970731,"zip":"9792335"},{"town":"鹿島区江垂","koaza":"中舘","lat":37.691093,"lng":140.971673,"zip":"9792331"},{"town":"小高区神山","koaza":"池ノ沢","lat":37.523321,"lng":140.967657,"zip":"9792154"},{"town":"鹿島区鹿島","koaza":"中町","lat":37.702575,"lng":140.97271,"zip":"9792335"},{"town":"小高区飯崎","koaza":"歓請内","lat":37.559695,"lng":140.971824,"zip":"9792162"},{"town":"原町区牛来","koaza":"久保","lat":37.616236,"lng":140.969658,"zip":"9750051"},{"town":"原町区下太田","koaza":"松崎","lat":37.610908,"lng":140.970133,"zip":"9750041"},{"town":"原町区益田","koaza":"仲山","lat":37.60342,"lng":140.971681,"zip":"9750053"},{"town":"原町区鶴谷","koaza":"長峯","lat":37.588389,"lng":140.973384,"zip":"9750056"},{"town":"原町区上高平","koaza":"西殿前","lat":37.647033,"lng":140.972706,"zip":"9750026"},{"town":"小高区片草","koaza":"一里段","lat":37.573397,"lng":140.972842,"zip":"9792101"},{"town":"原町区牛来","koaza":"石橋","lat":37.622521,"lng":140.972642,"zip":"9750051"},{"town":"小高区飯崎","koaza":"西根田","lat":37.561713,"lng":140.972146,"zip":"9792162"},{"town":"鹿島区川子","koaza":"三斗蒔","lat":37.670952,"lng":140.974976,"zip":"9792324"},{"town":"原町区益田","koaza":"久保田","lat":37.6069,"lng":140.974231,"zip":"9750053"},{"town":"原町区下太田","koaza":"中ノ内","lat":37.609755,"lng":140.972299,"zip":"9750041"},{"town":"原町区下太田","koaza":"深町","lat":37.612971,"lng":140.974628,"zip":"9750041"},{"town":"鹿島区鹿島","koaza":"北千倉","lat":37.700869,"lng":140.972648,"zip":"9792335"},{"town":"原町区牛来","koaza":"島崎","lat":37.614366,"lng":140.972783,"zip":"9750051"},{"town":"小高区小屋木","koaza":"宮前","lat":37.549036,"lng":140.97275,"zip":"9792156"},{"town":"原町区上北高平","koaza":"京塚","lat":37.658701,"lng":140.975143,"zip":"9750027"},{"town":"鹿島区南柚木","koaza":"矢ノ目川添","lat":37.736077,"lng":140.977259,"zip":"9792302"},{"town":"原町区上北高平","koaza":"北沢","lat":37.662671,"lng":140.970371,"zip":"9750027"},{"town":"鹿島区鹿島","koaza":"下舘","lat":37.699435,"lng":140.973865,"zip":"9792335"},{"town":"原町区牛来","koaza":"南谷地","lat":37.617931,"lng":140.974436,"zip":"9750051"},{"town":"小高区小屋木","koaza":"前畑","lat":37.549887,"lng":140.97612,"zip":"9792156"},{"town":"原町区牛来","koaza":"大塚","lat":37.626129,"lng":140.976385,"zip":"9750051"},{"town":"小高区上根沢","koaza":"迎平","lat":37.543701,"lng":140.977881,"zip":"9792155"},{"town":"原町区上高平","koaza":"高田","lat":37.647152,"lng":140.975562,"zip":"9750026"},{"town":"原町区鶴谷","koaza":"八斗蒔","lat":37.592232,"lng":140.975132,"zip":"9750056"},{"town":"原町区上北高平","koaza":"西谷地","lat":37.64923,"lng":140.97361,"zip":"9750027"},{"town":"小高区片草","koaza":"日光塚","lat":37.575776,"lng":140.976206,"zip":"9792101"},{"town":"原町区下太田","koaza":"藤沼","lat":37.613298,"lng":140.976914,"zip":"9750041"},{"town":"原町区益田","koaza":"寺ノ前","lat":37.602583,"lng":140.976469,"zip":"9750053"},{"town":"鹿島区鹿島","koaza":"広町","lat":37.70075,"lng":140.976275,"zip":"9792335"},{"town":"鹿島区江垂","koaza":"北船橋","lat":37.691837,"lng":140.976824,"zip":"9792331"},{"town":"原町区上北高平","koaza":"天神谷地","lat":37.650598,"lng":140.977517,"zip":"9750027"},{"town":"原町区牛来","koaza":"西谷地","lat":37.622929,"lng":140.975486,"zip":"9750051"},{"town":"原町区上北高平","koaza":"中谷地","lat":37.65689,"lng":140.97824,"zip":"9750027"},{"town":"原町区鶴谷","koaza":"後迫","lat":37.596905,"lng":140.980668,"zip":"9750056"},{"town":"鹿島区南屋形","koaza":"松本","lat":37.713943,"lng":140.978077,"zip":"9792304"},{"town":"原町区益田","koaza":"栢木下","lat":37.607219,"lng":140.978953,"zip":"9750053"},{"town":"原町区上高平","koaza":"沢田","lat":37.647055,"lng":140.979667,"zip":"9750026"},{"town":"鹿島区北海老","koaza":"藤金沢","lat":37.716951,"lng":140.978752,"zip":"9792311"},{"town":"原町区牛来","koaza":"東谷地","lat":37.62253,"lng":140.977876,"zip":"9750051"},{"town":"小高区吉名","koaza":"中村平","lat":37.556157,"lng":140.979766,"zip":"9792157"},{"town":"小高区上浦","koaza":"中村迫","lat":37.521222,"lng":140.989775,"zip":"9792153"},{"town":"小高区上浦","koaza":"宮田","lat":37.522847,"lng":140.981941,"zip":"9792153"},{"town":"鹿島区小島田","koaza":"立谷","lat":37.691001,"lng":140.981073,"zip":"9792321"},{"town":"原町区下太田","koaza":"榎町","lat":37.609556,"lng":140.983011,"zip":"9750041"},{"town":"原町区北原","koaza":"大塚","lat":37.62709,"lng":140.981715,"zip":"9750037"},{"town":"原町区上北高平","koaza":"曲田","lat":37.659177,"lng":140.982714,"zip":"9750027"},{"town":"原町区下太田","koaza":"小原","lat":37.618233,"lng":140.980516,"zip":"9750041"},{"town":"小高区小高","koaza":"上広畑","lat":37.5729,"lng":140.981961,"zip":"9792102"},{"town":"小高区吉名","koaza":"玉ノ木下","lat":37.560197,"lng":140.982333,"zip":"9792157"},{"town":"原町区北原","koaza":"前山","lat":37.624566,"lng":140.982025,"zip":"9750037"},{"town":"鹿島区小島田","koaza":"原畑","lat":37.686962,"lng":140.980917,"zip":"9792321"},{"town":"鹿島区川子","koaza":"滝沢","lat":37.672649,"lng":140.983684,"zip":"9792324"},{"town":"鹿島区南屋形","koaza":"山畑","lat":37.713909,"lng":140.981426,"zip":"9792304"},{"town":"原町区金沢","koaza":"堤上","lat":37.666135,"lng":140.977279,"zip":"9750021"},{"town":"原町区下北高平","koaza":"杉内","lat":37.652112,"lng":140.983755,"zip":"9750024"},{"town":"鹿島区小島田","koaza":"大原","lat":37.688538,"lng":140.983265,"zip":"9792321"},{"town":"鹿島区北右田","koaza":"百目木","lat":37.700074,"lng":140.982835,"zip":"9792313"},{"town":"鹿島区北右田","koaza":"手戸田","lat":37.704067,"lng":140.982678,"zip":"9792313"},{"town":"鹿島区北屋形","koaza":"田野入","lat":37.721826,"lng":140.985878,"zip":"9792303"},{"town":"鹿島区川子","koaza":"深沢","lat":37.680114,"lng":140.984953,"zip":"9792324"},{"town":"鹿島区北右田","koaza":"成就坊","lat":37.704139,"lng":140.983253,"zip":"9792313"},{"town":"鹿島区北右田","koaza":"三角","lat":37.705315,"lng":140.983035,"zip":"9792313"},{"town":"原町区下北高平","koaza":"北中谷地","lat":37.65742,"lng":140.983298,"zip":"9750024"},{"town":"原町区下北高平","koaza":"西沢目","lat":37.651028,"lng":140.982847,"zip":"9750024"},{"town":"原町区北原","koaza":"平","lat":37.624867,"lng":140.985529,"zip":"9750037"},{"town":"小高区小高","koaza":"上入迫","lat":37.57139,"lng":140.986976,"zip":"9792102"},{"town":"原町区下高平","koaza":"谷中","lat":37.649609,"lng":140.984858,"zip":"9750025"},{"town":"原町区益田","koaza":"道坂","lat":37.605882,"lng":140.984162,"zip":"9750053"},{"town":"鹿島区大内","koaza":"松下","lat":37.681344,"lng":140.985843,"zip":"9792322"},{"town":"原町区下高平","koaza":"御屋敷","lat":37.647486,"lng":140.985755,"zip":"9750025"},{"town":"原町区下北高平","koaza":"堂下","lat":37.660052,"lng":140.985741,"zip":"9750024"},{"town":"原町区下太田","koaza":"川内迫","lat":37.61668,"lng":140.984766,"zip":"9750041"},{"town":"鹿島区北海老","koaza":"大畑","lat":37.705888,"lng":140.985664,"zip":"9792311"},{"town":"鹿島区北右田","koaza":"薬師堂","lat":37.698068,"lng":140.985121,"zip":"9792313"},{"town":"鹿島区北右田","koaza":"柳町","lat":37.698758,"lng":140.985227,"zip":"9792313"},{"town":"鹿島区北右田","koaza":"高田","lat":37.70438,"lng":140.984773,"zip":"9792313"},{"town":"原町区益田","koaza":"姫作","lat":37.604118,"lng":140.984885,"zip":"9750053"},{"town":"原町区下太田","koaza":"塚田","lat":37.610082,"lng":140.985955,"zip":"9750041"},{"town":"原町区高","koaza":"大豆柄内","lat":37.603851,"lng":140.986663,"zip":"9750054"},{"town":"小高区耳谷","koaza":"根本","lat":37.532265,"lng":140.988278,"zip":"9792151"},{"town":"原町区小木迫","koaza":"薄畑","lat":37.584255,"lng":140.984128,"zip":"9750000"},{"town":"原町区金沢","koaza":"物見山","lat":37.668113,"lng":140.987895,"zip":"9750021"},{"town":"原町区高","koaza":"古内","lat":37.601916,"lng":140.990211,"zip":"9750054"},{"town":"原町区鶴谷","koaza":"五治郎内","lat":37.592071,"lng":140.986974,"zip":"9750056"},{"town":"小高区泉沢","koaza":"薬師前","lat":37.543761,"lng":140.990827,"zip":"9792133"},{"town":"原町区下高平","koaza":"如来堂","lat":37.647093,"lng":140.986958,"zip":"9750025"},{"town":"原町区金沢","koaza":"堤下","lat":37.664138,"lng":140.988471,"zip":"9750021"},{"town":"原町区高","koaza":"金井神","lat":37.604677,"lng":140.988563,"zip":"9750054"},{"town":"原町区小木迫","koaza":"向畑","lat":37.579837,"lng":140.9921,"zip":"9750000"},{"town":"原町区金沢","koaza":"追合","lat":37.669362,"lng":140.993517,"zip":"9750021"},{"town":"原町区下北高平","koaza":"古舘","lat":37.653443,"lng":140.988881,"zip":"9750024"},{"town":"小高区小高","koaza":"城下","lat":37.568093,"lng":140.988764,"zip":"9792102"},{"town":"原町区下北高平","koaza":"中谷地","lat":37.654128,"lng":140.987101,"zip":"9750024"},{"town":"鹿島区大内","koaza":"長岡","lat":37.680146,"lng":140.98904,"zip":"9792322"},{"town":"鹿島区北海老","koaza":"北ノ内","lat":37.704281,"lng":140.988616,"zip":"9792311"},{"town":"原町区北原","koaza":"赤坂","lat":37.621253,"lng":140.99115,"zip":"9750037"},{"town":"原町区下高平","koaza":"川原","lat":37.646505,"lng":140.989228,"zip":"9750025"},{"town":"原町区下北高平","koaza":"北ノ根","lat":37.655564,"lng":140.98799,"zip":"9750024"},{"town":"原町区北原","koaza":"前谷地","lat":37.624062,"lng":140.990657,"zip":"9750037"},{"town":"小高区泉沢","koaza":"大久","lat":37.547159,"lng":140.988895,"zip":"9792133"},{"town":"原町区金沢","koaza":"広平","lat":37.663674,"lng":140.990674,"zip":"9750021"},{"town":"鹿島区北海老","koaza":"山田","lat":37.710998,"lng":140.98822,"zip":"9792311"},{"town":"原町区上渋佐","koaza":"原田","lat":37.637138,"lng":140.992967,"zip":"9750034"},{"town":"原町区北原","koaza":"本屋敷","lat":37.627828,"lng":140.985322,"zip":"9750037"},{"town":"原町区高","koaza":"板ノ上","lat":37.600039,"lng":140.989815,"zip":"9750054"},{"town":"原町区下北高平","koaza":"荷渡","lat":37.656484,"lng":140.99375,"zip":"9750024"},{"town":"小高区吉名","koaza":"宮迫","lat":37.559759,"lng":140.989297,"zip":"9792157"},{"town":"小高区耳谷","koaza":"露ノ内","lat":37.527758,"lng":140.995318,"zip":"9792151"},{"town":"原町区下北高平","koaza":"赤宇津木","lat":37.652346,"lng":140.990595,"zip":"9750024"},{"town":"原町区高","koaza":"竹ノ内","lat":37.60387,"lng":140.989962,"zip":"9750054"},{"town":"原町区下北高平","koaza":"北山","lat":37.659628,"lng":140.99022,"zip":"9750024"},{"town":"鹿島区大内","koaza":"舘下","lat":37.68077,"lng":140.993363,"zip":"9792322"},{"town":"鹿島区北右田","koaza":"塔場","lat":37.697973,"lng":140.99113,"zip":"9792313"},{"town":"鹿島区大内","koaza":"南舘下","lat":37.679971,"lng":140.994647,"zip":"9792322"},{"town":"鹿島区北右田","koaza":"八龍町","lat":37.700248,"lng":140.99086,"zip":"9792313"},{"town":"原町区北原","koaza":"沢目","lat":37.626682,"lng":140.991633,"zip":"9750037"},{"town":"原町区高","koaza":"大久保前","lat":37.596802,"lng":140.989476,"zip":"9750054"},{"town":"原町区下高平","koaza":"荒井前","lat":37.649508,"lng":140.993535,"zip":"9750025"},{"town":"原町区北原","koaza":"中谷地","lat":37.625066,"lng":140.991519,"zip":"9750037"},{"town":"鹿島区北海老","koaza":"松坂","lat":37.710227,"lng":140.990067,"zip":"9792311"},{"town":"原町区萱浜","koaza":"巣掛場","lat":37.631914,"lng":140.995436,"zip":"9750036"},{"town":"原町区北原","koaza":"巣掛場","lat":37.629622,"lng":140.993281,"zip":"9750037"},{"town":"小高区小高","koaza":"堂前","lat":37.571022,"lng":140.991482,"zip":"9792102"},{"town":"小高区吉名","koaza":"宮迫台","lat":37.558129,"lng":140.991213,"zip":"9792157"},{"town":"鹿島区北右田","koaza":"沼田","lat":37.699841,"lng":140.992574,"zip":"9792313"},{"town":"鹿島区北右田","koaza":"八斗蒔","lat":37.694805,"lng":140.993623,"zip":"9792313"},{"town":"原町区高","koaza":"御稲荷","lat":37.595832,"lng":140.994756,"zip":"9750054"},{"town":"原町区上渋佐","koaza":"原畑","lat":37.639715,"lng":140.995756,"zip":"9750034"},{"town":"鹿島区南右田","koaza":"中ノ内","lat":37.692877,"lng":140.994603,"zip":"9792314"},{"town":"原町区金沢","koaza":"割田","lat":37.665878,"lng":140.995778,"zip":"9750021"},{"town":"鹿島区北右田","koaza":"桶師屋","lat":37.697915,"lng":140.994904,"zip":"9792313"},{"town":"原町区下高平","koaza":"内川原","lat":37.64776,"lng":140.993332,"zip":"9750025"},{"town":"小高区小高","koaza":"舘","lat":37.569377,"lng":140.993676,"zip":"9792102"},{"town":"原町区北原","koaza":"東原","lat":37.620015,"lng":140.995825,"zip":"9750037"},{"town":"原町区泉","koaza":"広畑","lat":37.650214,"lng":140.997757,"zip":"9750023"},{"town":"鹿島区北右田","koaza":"竹花","lat":37.696341,"lng":140.995013,"zip":"9792313"},{"town":"原町区萱浜","koaza":"六貫山","lat":37.628097,"lng":140.999046,"zip":"9750036"},{"town":"原町区高","koaza":"弥勒堂","lat":37.597459,"lng":140.996544,"zip":"9750054"},{"town":"原町区北泉","koaza":"堤下","lat":37.659143,"lng":140.996819,"zip":"9750022"},{"town":"鹿島区北海老","koaza":"六角","lat":37.706661,"lng":140.99437,"zip":"9792311"},{"town":"原町区大甕","koaza":"東迫","lat":37.612278,"lng":140.995283,"zip":"9750049"},{"town":"鹿島区北海老","koaza":"林崎","lat":37.705233,"lng":140.995557,"zip":"9792311"},{"town":"原町区雫","koaza":"蛭沢","lat":37.615994,"lng":140.998803,"zip":"9750042"},{"town":"原町区北原","koaza":"細谷地","lat":37.625969,"lng":140.995957,"zip":"9750037"},{"town":"鹿島区北右田","koaza":"宮田","lat":37.69556,"lng":140.995825,"zip":"9792313"},{"town":"鹿島区大内","koaza":"宮前","lat":37.679259,"lng":140.996146,"zip":"9792322"},{"town":"原町区北原","koaza":"岩見堀子","lat":37.624651,"lng":140.99799,"zip":"9750037"},{"town":"原町区大甕","koaza":"戸屋下","lat":37.610951,"lng":140.998413,"zip":"9750049"},{"town":"原町区高","koaza":"芦ノ坪","lat":37.604768,"lng":140.997767,"zip":"9750054"},{"town":"小高区大井","koaza":"観音前","lat":37.565722,"lng":140.998571,"zip":"9792103"},{"town":"鹿島区北海老","koaza":"鍛治内","lat":37.706844,"lng":140.997253,"zip":"9792311"},{"town":"鹿島区大内","koaza":"堤下","lat":37.678669,"lng":140.997333,"zip":"9792322"},{"town":"鹿島区北右田","koaza":"北染師","lat":37.697294,"lng":140.998334,"zip":"9792313"},{"town":"原町区江井","koaza":"辻内","lat":37.591009,"lng":140.998559,"zip":"9750047"},{"town":"原町区雫","koaza":"上江","lat":37.61805,"lng":140.998367,"zip":"9750042"},{"town":"鹿島区北海老","koaza":"堂ケ迫","lat":37.706807,"lng":140.998654,"zip":"9792311"},{"town":"原町区金沢","koaza":"荒治郎","lat":37.662462,"lng":141.001738,"zip":"9750021"},{"town":"原町区高","koaza":"北ノ内","lat":37.598514,"lng":140.999728,"zip":"9750054"},{"town":"鹿島区北海老","koaza":"姥懐","lat":37.721241,"lng":140.99857,"zip":"9792311"},{"town":"原町区萱浜","koaza":"原ノ山","lat":37.631725,"lng":141.001718,"zip":"9750036"},{"town":"鹿島区北右田","koaza":"染師","lat":37.696245,"lng":140.998237,"zip":"9792313"},{"town":"小高区水谷","koaza":"武州","lat":37.542101,"lng":140.999602,"zip":"9792132"},{"town":"原町区金沢","koaza":"谷地中","lat":37.667867,"lng":140.999655,"zip":"9750021"},{"town":"小高区大井","koaza":"花輪下","lat":37.568362,"lng":141.003395,"zip":"9792103"},{"town":"原町区金沢","koaza":"鳥井沢","lat":37.67175,"lng":141.001377,"zip":"9750021"},{"town":"鹿島区北右田","koaza":"稲荷田","lat":37.696281,"lng":140.99993,"zip":"9792313"},{"town":"原町区堤谷","koaza":"北境田","lat":37.581725,"lng":141.000779,"zip":"9750046"},{"town":"原町区江井","koaza":"南迫","lat":37.590089,"lng":140.999977,"zip":"9750047"},{"town":"原町区上渋佐","koaza":"前屋敷","lat":37.637555,"lng":140.999745,"zip":"9750034"},{"town":"小高区泉沢","koaza":"小谷津","lat":37.54327,"lng":141.002209,"zip":"9792133"},{"town":"原町区大甕","koaza":"梨木下","lat":37.610984,"lng":141.000652,"zip":"9750049"},{"town":"小高区大井","koaza":"深町","lat":37.563263,"lng":141.001524,"zip":"9792103"},{"town":"原町区江井","koaza":"明知","lat":37.585044,"lng":141.003057,"zip":"9750047"},{"town":"小高区岡田","koaza":"反町","lat":37.560535,"lng":141.004015,"zip":"9792134"},{"town":"原町区江井","koaza":"東前","lat":37.594652,"lng":141.001369,"zip":"9750047"},{"town":"原町区泉","koaza":"町畑","lat":37.647423,"lng":141.002544,"zip":"9750023"},{"town":"原町区雫","koaza":"塔場下","lat":37.612493,"lng":141.001873,"zip":"9750042"},{"town":"原町区上渋佐","koaza":"南谷地","lat":37.638388,"lng":141.002197,"zip":"9750034"},{"town":"原町区江井","koaza":"大光内","lat":37.593524,"lng":141.000996,"zip":"9750047"},{"town":"原町区萱浜","koaza":"一本松","lat":37.623909,"lng":141.004969,"zip":"9750036"},{"town":"原町区萱浜","koaza":"広谷地","lat":37.624865,"lng":141.000149,"zip":"9750036"},{"town":"原町区上渋佐","koaza":"寺崎","lat":37.642738,"lng":141.004076,"zip":"9750034"},{"town":"鹿島区北海老","koaza":"大森","lat":37.708207,"lng":141.002688,"zip":"9792311"},{"town":"原町区萱浜","koaza":"堀子目","lat":37.625885,"lng":141.002364,"zip":"9750036"},{"town":"鹿島区北右田","koaza":"軍塚","lat":37.697666,"lng":141.004404,"zip":"9792313"},{"town":"小高区大井","koaza":"田中前","lat":37.566306,"lng":141.004396,"zip":"9792103"},{"town":"原町区泉","koaza":"舘腰","lat":37.648582,"lng":141.002856,"zip":"9750023"},{"town":"原町区雫","koaza":"南大江下","lat":37.616324,"lng":141.0022,"zip":"9750042"},{"town":"原町区江井","koaza":"仁坂","lat":37.588038,"lng":141.003371,"zip":"9750047"},{"town":"鹿島区烏崎","koaza":"鳥居作","lat":37.675952,"lng":141.004529,"zip":"9792323"},{"town":"原町区上渋佐","koaza":"北谷地","lat":37.635467,"lng":140.998632,"zip":"9750034"},{"town":"原町区雫","koaza":"福田","lat":37.616532,"lng":141.004475,"zip":"9750042"},{"town":"原町区北泉","koaza":"浦頭","lat":37.66003,"lng":141.003269,"zip":"9750022"},{"town":"小高区蛯沢","koaza":"藤沼","lat":37.533536,"lng":141.004661,"zip":"9792143"},{"town":"小高区大井","koaza":"宮前","lat":37.573129,"lng":141.003229,"zip":"9792103"},{"town":"小高区岡田","koaza":"塩行","lat":37.555881,"lng":141.003832,"zip":"9792134"},{"town":"鹿島区北海老","koaza":"釜舟戸西","lat":37.718242,"lng":141.004544,"zip":"9792311"},{"town":"原町区江井","koaza":"大代","lat":37.589779,"lng":141.004256,"zip":"9750047"},{"town":"鹿島区南海老","koaza":"西畑","lat":37.705844,"lng":141.004392,"zip":"9792312"},{"town":"小高区福岡","koaza":"有山","lat":37.552683,"lng":141.005531,"zip":"9792131"},{"town":"小高区岡田","koaza":"仲川原田","lat":37.560846,"lng":141.008178,"zip":"9792134"},{"town":"原町区大甕","koaza":"舘","lat":37.606203,"lng":141.004688,"zip":"9750049"},{"town":"原町区江井","koaza":"下沼","lat":37.591784,"lng":141.00418,"zip":"9750047"},{"town":"小高区大井","koaza":"白幡前","lat":37.571061,"lng":141.005827,"zip":"9792103"},{"town":"原町区雫","koaza":"聖下","lat":37.612775,"lng":141.008249,"zip":"9750042"},{"town":"原町区泉","koaza":"山辺","lat":37.654085,"lng":141.004361,"zip":"9750023"},{"town":"原町区萱浜","koaza":"北才ノ上","lat":37.624017,"lng":141.010636,"zip":"9750036"},{"town":"原町区大甕","koaza":"鶴蒔","lat":37.609424,"lng":141.007771,"zip":"9750049"},{"town":"原町区泉","koaza":"塚越","lat":37.649537,"lng":141.004975,"zip":"9750023"},{"town":"原町区泉","koaza":"町池","lat":37.652785,"lng":141.007018,"zip":"9750023"},{"town":"鹿島区北海老","koaza":"釜舟戸北","lat":37.720988,"lng":141.00487,"zip":"9792311"},{"town":"小高区下浦","koaza":"西ノ内","lat":37.518385,"lng":141.006414,"zip":"9792146"},{"town":"原町区下江井","koaza":"小谷津","lat":37.585978,"lng":141.006901,"zip":"9750044"},{"town":"原町区泉","koaza":"前向","lat":37.645004,"lng":141.00876,"zip":"9750023"},{"town":"鹿島区南海老","koaza":"大森","lat":37.707634,"lng":141.004772,"zip":"9792312"},{"town":"原町区金沢","koaza":"西山","lat":37.665397,"lng":141.007475,"zip":"9750021"},{"town":"原町区萱浜","koaza":"赤沼","lat":37.630433,"lng":141.010849,"zip":"9750036"},{"town":"鹿島区北海老","koaza":"港口","lat":37.721067,"lng":141.007238,"zip":"9792311"},{"town":"小高区大井","koaza":"上山畑","lat":37.573032,"lng":141.007495,"zip":"9792103"},{"town":"小高区蛯沢","koaza":"東堂下","lat":37.530398,"lng":141.009773,"zip":"9792143"},{"town":"原町区北泉","koaza":"西走","lat":37.655389,"lng":141.008284,"zip":"9750022"},{"town":"原町区大甕","koaza":"酒井","lat":37.603074,"lng":141.007367,"zip":"9750049"},{"town":"鹿島区北海老","koaza":"釜舟戸","lat":37.718681,"lng":141.008157,"zip":"9792311"},{"town":"小高区女場","koaza":"屋中作","lat":37.542377,"lng":141.006852,"zip":"9792147"},{"town":"原町区米々沢","koaza":"谷地畑","lat":37.596809,"lng":141.007093,"zip":"9750048"},{"town":"小高区大井","koaza":"東平","lat":37.569144,"lng":141.007233,"zip":"9792103"},{"town":"原町区萱浜","koaza":"見谷地","lat":37.629145,"lng":141.008865,"zip":"9750036"},{"town":"鹿島区南海老","koaza":"竹ノ内","lat":37.705638,"lng":141.007927,"zip":"9792312"},{"town":"鹿島区南海老","koaza":"北原","lat":37.710507,"lng":141.009174,"zip":"9792312"},{"town":"原町区大甕","koaza":"林崎","lat":37.606936,"lng":141.008344,"zip":"9750049"},{"town":"小高区福岡","koaza":"柏下","lat":37.547367,"lng":141.007489,"zip":"9792131"},{"town":"原町区萱浜","koaza":"愛原","lat":37.621661,"lng":141.009753,"zip":"9750036"},{"town":"原町区堤谷","koaza":"神ノ前","lat":37.581533,"lng":141.005592,"zip":"9750046"},{"town":"原町区金沢","koaza":"水神崎","lat":37.663606,"lng":141.008849,"zip":"9750021"},{"town":"鹿島区烏崎","koaza":"北谷地","lat":37.681189,"lng":141.008644,"zip":"9792323"},{"town":"小高区蛯沢","koaza":"大又","lat":37.535566,"lng":141.014181,"zip":"9792143"},{"town":"鹿島区南海老","koaza":"北町","lat":37.707932,"lng":141.008842,"zip":"9792312"},{"town":"鹿島区烏崎","koaza":"六平作","lat":37.675403,"lng":141.008426,"zip":"9792323"},{"town":"原町区堤谷","koaza":"根田","lat":37.581481,"lng":141.010399,"zip":"9750046"},{"town":"小高区大井","koaza":"原迫","lat":37.569976,"lng":141.01148,"zip":"9792103"},{"town":"小高区大井","koaza":"高野迫","lat":37.573869,"lng":141.011285,"zip":"9792103"},{"town":"原町区北泉","koaza":"脇","lat":37.659159,"lng":141.009905,"zip":"9750022"},{"town":"原町区大甕","koaza":"森合東","lat":37.599313,"lng":141.010099,"zip":"9750049"},{"town":"原町区下江井","koaza":"台","lat":37.584464,"lng":141.008823,"zip":"9750044"},{"town":"原町区萱浜","koaza":"南才ノ上","lat":37.62213,"lng":141.011935,"zip":"9750036"},{"town":"小高区下浦","koaza":"腰細","lat":37.513909,"lng":141.013239,"zip":"9792146"},{"town":"原町区大甕","koaza":"坂下","lat":37.602658,"lng":141.009478,"zip":"9750049"},{"town":"原町区下江井","koaza":"北向","lat":37.582855,"lng":141.010132,"zip":"9750044"},{"town":"原町区雫","koaza":"原田","lat":37.615149,"lng":141.010384,"zip":"9750042"},{"town":"原町区泉","koaza":"寺家前","lat":37.649493,"lng":141.011214,"zip":"9750023"},{"town":"原町区江井","koaza":"大北","lat":37.591241,"lng":141.011999,"zip":"9750047"},{"town":"鹿島区烏崎","koaza":"宮田","lat":37.675972,"lng":141.010447,"zip":"9792323"},{"town":"原町区下渋佐","koaza":"仲西","lat":37.638078,"lng":141.011269,"zip":"9750035"},{"town":"原町区雫","koaza":"五畝田","lat":37.616697,"lng":141.011717,"zip":"9750042"},{"town":"原町区雫","koaza":"袖原","lat":37.599025,"lng":141.015079,"zip":"9750042"},{"town":"鹿島区烏崎","koaza":"浜","lat":37.67778,"lng":141.01164,"zip":"9792323"},{"town":"原町区雫","koaza":"会泉塚","lat":37.610719,"lng":141.012027,"zip":"9750042"},{"town":"鹿島区烏崎","koaza":"寺下","lat":37.676495,"lng":141.011935,"zip":"9792323"},{"town":"原町区下渋佐","koaza":"南谷地","lat":37.636345,"lng":141.013118,"zip":"9750035"},{"town":"原町区北泉","koaza":"南走","lat":37.651279,"lng":141.014831,"zip":"9750022"},{"town":"鹿島区烏崎","koaza":"戸屋","lat":37.674718,"lng":141.013188,"zip":"9792323"},{"town":"鹿島区烏崎","koaza":"町","lat":37.675736,"lng":141.012847,"zip":"9792323"},{"town":"原町区萱浜","koaza":"切付","lat":37.628295,"lng":141.013677,"zip":"9750036"},{"town":"原町区萱浜","koaza":"才ノ下","lat":37.624212,"lng":141.014518,"zip":"9750036"},{"town":"原町区雫","koaza":"野馬道","lat":37.614496,"lng":141.013132,"zip":"9750042"},{"town":"小高区福岡","koaza":"下岩崎","lat":37.552755,"lng":141.011399,"zip":"9792131"},{"town":"原町区雫","koaza":"犬這","lat":37.615723,"lng":141.014921,"zip":"9750042"},{"town":"原町区北泉","koaza":"地蔵堂","lat":37.655598,"lng":141.016041,"zip":"9750022"},{"town":"小高区角部内","koaza":"市ノ谷","lat":37.548056,"lng":141.021608,"zip":"9792142"},{"town":"小高区蛯沢","koaza":"広畑","lat":37.539783,"lng":141.019454,"zip":"9792143"},{"town":"原町区泉","koaza":"町","lat":37.64774,"lng":141.014771,"zip":"9750023"},{"town":"原町区金沢","koaza":"舟沢","lat":37.661381,"lng":141.01762,"zip":"9750021"},{"town":"原町区萱浜","koaza":"西田","lat":37.62516,"lng":141.015586,"zip":"9750036"},{"town":"原町区雫","koaza":"山畑","lat":37.60393,"lng":141.019105,"zip":"9750042"},{"town":"原町区萱浜","koaza":"蔵前","lat":37.627637,"lng":141.015452,"zip":"9750036"},{"town":"小高区浦尻","koaza":"原田","lat":37.513938,"lng":141.017781,"zip":"9792145"},{"town":"原町区泉","koaza":"町下","lat":37.648518,"lng":141.017625,"zip":"9750023"},{"town":"原町区雫","koaza":"京塚沢","lat":37.610106,"lng":141.018739,"zip":"9750042"},{"town":"原町区下渋佐","koaza":"後川","lat":37.638889,"lng":141.017483,"zip":"9750035"},{"town":"原町区小沢","koaza":"上戸屋迫","lat":37.577284,"lng":141.020757,"zip":"9750045"},{"town":"原町区下渋佐","koaza":"赤沼","lat":37.636805,"lng":141.019753,"zip":"9750035"},{"town":"小高区浦尻","koaza":"大塚","lat":37.518599,"lng":141.021135,"zip":"9792145"},{"town":"小高区塚原","koaza":"沼ノ上","lat":37.572614,"lng":141.021108,"zip":"9792104"},{"town":"原町区雫","koaza":"北迫田","lat":37.61551,"lng":141.019964,"zip":"9750042"},{"town":"原町区下渋佐","koaza":"大橋","lat":37.638009,"lng":141.019644,"zip":"9750035"},{"town":"原町区小沢","koaza":"折戸","lat":37.57844,"lng":141.019136,"zip":"9750045"},{"town":"原町区小浜","koaza":"間形沢","lat":37.604313,"lng":141.024166,"zip":"9750043"},{"town":"原町区小浜","koaza":"丸山","lat":37.593556,"lng":141.020598,"zip":"9750043"},{"town":"原町区小沢","koaza":"下戸屋迫","lat":37.576655,"lng":141.023583,"zip":"9750045"},{"town":"小高区塚原","koaza":"浜田","lat":37.57185,"lng":141.022371,"zip":"9792104"},{"town":"原町区雫","koaza":"権現下","lat":37.607905,"lng":141.022464,"zip":"9750042"},{"town":"小高区村上","koaza":"西谷地","lat":37.555409,"lng":141.023417,"zip":"9792141"},{"town":"小高区角部内","koaza":"北台","lat":37.547574,"lng":141.023743,"zip":"9792142"},{"town":"小高区角部内","koaza":"南台","lat":37.545463,"lng":141.026225,"zip":"9792142"},{"town":"小高区村上","koaza":"前谷地","lat":37.552475,"lng":141.024484,"zip":"9792141"},{"town":"小高区浦尻","koaza":"中林崎","lat":37.513887,"lng":141.026305,"zip":"9792145"},{"town":"小高区村上","koaza":"西谷地南坪","lat":37.554454,"lng":141.023484,"zip":"9792141"},{"town":"小高区塚原","koaza":"釜ノ上","lat":37.573499,"lng":141.024709,"zip":"9792104"},{"town":"原町区小浜","koaza":"西内","lat":37.591312,"lng":141.024063,"zip":"9750043"},{"town":"小高区村上","koaza":"仲川原","lat":37.558673,"lng":141.025614,"zip":"9792141"},{"town":"原町区小浜","koaza":"滝下","lat":37.597149,"lng":141.023332,"zip":"9750043"},{"town":"小高区村上","koaza":"舘腰","lat":37.55621,"lng":141.026129,"zip":"9792141"},{"town":"小高区井田川","koaza":"南新田","lat":37.529803,"lng":141.02862,"zip":"9792144"},{"town":"小高区角部内","koaza":"反田","lat":37.544936,"lng":141.027352,"zip":"9792142"},{"town":"小高区角部内","koaza":"谷地","lat":37.54761,"lng":141.027954,"zip":"9792142"},{"town":"小高区角部内","koaza":"貝塚","lat":37.546677,"lng":141.027779,"zip":"9792142"},{"town":"小高区浦尻","koaza":"原","lat":37.514023,"lng":141.031192,"zip":"9792145"},{"town":"小高区浦尻","koaza":"北原","lat":37.518541,"lng":141.030766,"zip":"9792145"},{"town":"鹿島区浮田","koaza":"西大谷地","lat":37.717114,"lng":140.928234,"zip":"9792451"},{"town":"鹿島区浮田","koaza":"上浮田","lat":37.719255,"lng":140.928157,"zip":"9792451"},{"town":"鹿島区横手","koaza":"川原","lat":37.708311,"lng":140.963199,"zip":"9792442"},{"town":"鹿島区鹿島","koaza":"沼ノ内","lat":37.705922,"lng":140.965428,"zip":"9792335"},{"town":"鹿島区鹿島","koaza":"鍛治内","lat":37.703196,"lng":140.9677,"zip":"9792335"},{"town":"鹿島区鹿島","koaza":"瀬戸畑","lat":37.701203,"lng":140.966856,"zip":"9792335"},{"town":"鹿島区鹿島","koaza":"岩妻","lat":37.699863,"lng":140.974947,"zip":"9792335"},{"town":"鹿島区寺内","koaza":"中才","lat":37.703865,"lng":140.958273,"zip":"9792333"},{"town":"鹿島区寺内","koaza":"南町","lat":37.698734,"lng":140.951458,"zip":"9792333"},{"town":"原町区深野","koaza":"舘前","lat":37.670279,"lng":140.934557,"zip":"9750071"},{"town":"原町区深野","koaza":"木戸内","lat":37.668119,"lng":140.92948,"zip":"9750071"},{"town":"原町区深野","koaza":"南長信田","lat":37.663634,"lng":140.927739,"zip":"9750071"},{"town":"原町区深野","koaza":"西沢目","lat":37.66412,"lng":140.933388,"zip":"9750071"},{"town":"原町区信田沢","koaza":"北関ノ内","lat":37.661561,"lng":140.919368,"zip":"9750076"},{"town":"原町区信田沢","koaza":"八反田","lat":37.660252,"lng":140.918242,"zip":"9750076"},{"town":"原町区信田沢","koaza":"東原","lat":37.656198,"lng":140.930354,"zip":"9750076"},{"town":"原町区信田沢","koaza":"北原","lat":37.657963,"lng":140.930617,"zip":"9750076"},{"town":"原町区深野","koaza":"本内","lat":37.668312,"lng":140.933327,"zip":"9750071"},{"town":"原町区深野","koaza":"川原","lat":37.669409,"lng":140.935978,"zip":"9750071"},{"town":"原町区石神","koaza":"南高茂内","lat":37.638702,"lng":140.928368,"zip":"9750075"},{"town":"原町区押釜","koaza":"山鳥迫","lat":37.62624,"lng":140.918737,"zip":"9750064"},{"town":"原町区押釜","koaza":"内畑","lat":37.629007,"lng":140.927363,"zip":"9750064"},{"town":"原町区石神","koaza":"北明内","lat":37.64511,"lng":140.930631,"zip":"9750075"},{"town":"原町区信田沢","koaza":"嶺崎","lat":37.652266,"lng":140.921664,"zip":"9750076"},{"town":"原町区信田沢","koaza":"内城","lat":37.650322,"lng":140.923183,"zip":"9750076"},{"town":"原町区信田沢","koaza":"尼ケ折","lat":37.647534,"lng":140.931719,"zip":"9750076"},{"town":"小高区大田和","koaza":"南川原","lat":37.541701,"lng":140.946728,"zip":"9792163"},{"town":"小高区小屋木","koaza":"金谷神","lat":37.5468,"lng":140.955157,"zip":"9792156"},{"town":"小高区飯崎","koaza":"烏内","lat":37.560925,"lng":140.968463,"zip":"9792162"},{"town":"小高区飯崎","koaza":"十日林","lat":37.55806,"lng":140.972182,"zip":"9792162"},{"town":"小高区飯崎","koaza":"仲沖","lat":37.560827,"lng":140.974762,"zip":"9792162"},{"town":"小高区飯崎","koaza":"田中前","lat":37.560598,"lng":140.973314,"zip":"9792162"},{"town":"小高区小屋木","koaza":"障子口","lat":37.550319,"lng":140.971772,"zip":"9792156"},{"town":"小高区小屋木","koaza":"宮後","lat":37.551419,"lng":140.973075,"zip":"9792156"},{"town":"小高区上根沢","koaza":"堂北","lat":37.547881,"lng":140.97264,"zip":"9792155"},{"town":"小高区上根沢","koaza":"原畑","lat":37.545126,"lng":140.971364,"zip":"9792155"},{"town":"小高区上根沢","koaza":"原下","lat":37.546457,"lng":140.97086,"zip":"9792155"},{"town":"小高区上根沢","koaza":"水溜","lat":37.547769,"lng":140.970774,"zip":"9792155"},{"town":"小高区小屋木","koaza":"広畑","lat":37.547692,"lng":140.967339,"zip":"9792156"},{"town":"小高区上根沢","koaza":"田畑","lat":37.545443,"lng":140.967838,"zip":"9792155"},{"town":"小高区上根沢","koaza":"堀込","lat":37.542058,"lng":140.966026,"zip":"9792155"},{"town":"小高区飯崎","koaza":"坂下","lat":37.552121,"lng":140.96537,"zip":"9792162"},{"town":"小高区吉名","koaza":"西迫","lat":37.556791,"lng":140.978965,"zip":"9792157"},{"town":"小高区吉名","koaza":"玉ノ木平","lat":37.557962,"lng":140.981628,"zip":"9792157"},{"town":"小高区吉名","koaza":"白山","lat":37.556025,"lng":140.983024,"zip":"9792157"},{"town":"小高区吉名","koaza":"漆原","lat":37.557035,"lng":140.988553,"zip":"9792157"},{"town":"小高区吉名","koaza":"長迫","lat":37.552865,"lng":140.987363,"zip":"9792157"},{"town":"小高区岡田","koaza":"万ケ迫","lat":37.554362,"lng":140.993978,"zip":"9792134"},{"town":"小高区小高","koaza":"水谷迫","lat":37.571974,"lng":140.993342,"zip":"9792102"},{"town":"小高区小高","koaza":"下入迫","lat":37.570688,"lng":140.989364,"zip":"9792102"},{"town":"小高区下浦","koaza":"坂下","lat":37.515991,"lng":141.008766,"zip":"9792146"},{"town":"小高区下浦","koaza":"畑ケ迫","lat":37.515594,"lng":141.010964,"zip":"9792146"},{"town":"小高区女場","koaza":"堤田","lat":37.540006,"lng":141.004969,"zip":"9792147"},{"town":"小高区泉沢","koaza":"戸ノ内前","lat":37.547045,"lng":140.99554,"zip":"9792133"},{"town":"小高区福岡","koaza":"別当迫","lat":37.55385,"lng":141.004992,"zip":"9792131"},{"town":"小高区泉沢","koaza":"反町","lat":37.547101,"lng":141.002502,"zip":"9792133"},{"town":"小高区福岡","koaza":"白山","lat":37.54963,"lng":141.006449,"zip":"9792131"},{"town":"小高区福岡","koaza":"山田","lat":37.551972,"lng":141.004575,"zip":"9792131"},{"town":"小高区泉沢","koaza":"一里壇","lat":37.548963,"lng":140.989346,"zip":"9792133"},{"town":"小高区岡田","koaza":"叺林","lat":37.549897,"lng":140.992649,"zip":"9792134"},{"town":"小高区女場","koaza":"明地","lat":37.544457,"lng":141.009872,"zip":"9792147"},{"town":"小高区女場","koaza":"中里","lat":37.547224,"lng":141.01332,"zip":"9792147"},{"town":"小高区女場","koaza":"滝尻","lat":37.547801,"lng":141.015273,"zip":"9792147"},{"town":"小高区女場","koaza":"八木平","lat":37.54629,"lng":141.016289,"zip":"9792147"},{"town":"小高区女場","koaza":"山田","lat":37.541361,"lng":141.012086,"zip":"9792147"},{"town":"小高区福岡","koaza":"上岩崎","lat":37.552052,"lng":141.008717,"zip":"9792131"},{"town":"小高区岡田","koaza":"下川原田","lat":37.56053,"lng":141.01014,"zip":"9792134"},{"town":"原町区小沢","koaza":"小沢","lat":37.581563,"lng":141.023599,"zip":"9750045"},{"town":"小高区小高","koaza":"古城","lat":37.569024,"lng":140.989569,"zip":"9792102"},{"town":"小高区片草","koaza":"行徳","lat":37.578552,"lng":140.973477,"zip":"9792101"},{"town":"小高区小谷","koaza":"渋谷迫","lat":37.567021,"lng":140.950697,"zip":"9792173"},{"town":"小高区小谷","koaza":"赤坂","lat":37.563538,"lng":140.94391,"zip":"9792173"},{"town":"小高区南鳩原","koaza":"西畑","lat":37.576607,"lng":140.950634,"zip":"9792172"},{"town":"小高区小谷","koaza":"龍ケ迫","lat":37.570987,"lng":140.957419,"zip":"9792173"},{"town":"小高区小谷","koaza":"西台","lat":37.57302,"lng":140.957394,"zip":"9792173"},{"town":"原町区江井","koaza":"西山","lat":37.591763,"lng":140.996621,"zip":"9750047"},{"town":"原町区小木迫","koaza":"堂西","lat":37.585099,"lng":140.991013,"zip":"9750000"},{"town":"原町区小木迫","koaza":"光明迫","lat":37.584698,"lng":140.995994,"zip":"9750000"},{"town":"原町区小木迫","koaza":"五斗蒔","lat":37.584186,"lng":140.979885,"zip":"9750000"},{"town":"小高区小谷","koaza":"入ノ迫","lat":37.566841,"lng":140.959811,"zip":"9792173"},{"town":"小高区小谷","koaza":"門前","lat":37.567915,"lng":140.959946,"zip":"9792173"},{"town":"原町区矢川原","koaza":"高掛","lat":37.599543,"lng":140.934549,"zip":"9750057"},{"town":"原町区馬場","koaza":"後谷地","lat":37.610003,"lng":140.921045,"zip":"9750063"},{"town":"原町区馬場","koaza":"糯田","lat":37.608517,"lng":140.918681,"zip":"9750063"},{"town":"原町区馬場","koaza":"滝","lat":37.598874,"lng":140.910772,"zip":"9750063"},{"town":"原町区馬場","koaza":"広畑","lat":37.601082,"lng":140.914036,"zip":"9750063"},{"town":"原町区馬場","koaza":"川久保","lat":37.598062,"lng":140.915319,"zip":"9750063"},{"town":"原町区馬場","koaza":"石倉","lat":37.599908,"lng":140.916268,"zip":"9750063"},{"town":"小高区飯崎","koaza":"坊前","lat":37.558081,"lng":140.97624,"zip":"9792162"},{"town":"小高区泉沢","koaza":"浪岩","lat":37.549165,"lng":140.988054,"zip":"9792133"},{"town":"原町区馬場","koaza":"台","lat":37.602494,"lng":140.913031,"zip":"9750063"},{"town":"原町区馬場","koaza":"薬師前","lat":37.601231,"lng":140.912248,"zip":"9750063"},{"town":"原町区馬場","koaza":"栗林","lat":37.615435,"lng":140.92461,"zip":"9750063"},{"town":"鹿島区江垂","koaza":"日向","lat":37.688407,"lng":140.970003,"zip":"9792331"},{"town":"鹿島区北右田","koaza":"釼宮","lat":37.702028,"lng":140.989576,"zip":"9792313"},{"town":"鹿島区北右田","koaza":"田島","lat":37.702175,"lng":140.988495,"zip":"9792313"},{"town":"鹿島区北海老","koaza":"反畑","lat":37.707517,"lng":140.994949,"zip":"9792311"},{"town":"鹿島区北海老","koaza":"迫田","lat":37.710243,"lng":140.995257,"zip":"9792311"},{"town":"鹿島区北海老","koaza":"北畑","lat":37.709362,"lng":140.99415,"zip":"9792311"},{"town":"鹿島区北海老","koaza":"荒屋","lat":37.708964,"lng":140.990595,"zip":"9792311"},{"town":"鹿島区北海老","koaza":"玉貫","lat":37.70998,"lng":141.001348,"zip":"9792311"},{"town":"鹿島区北海老","koaza":"水神","lat":37.709884,"lng":140.996795,"zip":"9792311"},{"town":"鹿島区南海老","koaza":"南町","lat":37.705962,"lng":141.009435,"zip":"9792312"},{"town":"鹿島区南右田","koaza":"二ツ沼","lat":37.692375,"lng":141.010707,"zip":"9792314"},{"town":"鹿島区北海老","koaza":"釜舟戸東","lat":37.718819,"lng":141.008979,"zip":"9792311"},{"town":"鹿島区北海老","koaza":"明神前","lat":37.7175,"lng":141.0009,"zip":"9792311"},{"town":"鹿島区北海老","koaza":"糠塚","lat":37.715166,"lng":141.001373,"zip":"9792311"},{"town":"鹿島区北海老","koaza":"入ウ田","lat":37.715715,"lng":140.993755,"zip":"9792311"},{"town":"鹿島区北海老","koaza":"房迫","lat":37.717048,"lng":140.994342,"zip":"9792311"},{"town":"鹿島区北海老","koaza":"大迫","lat":37.720067,"lng":140.992823,"zip":"9792311"},{"town":"鹿島区北海老","koaza":"西庭","lat":37.719419,"lng":140.990441,"zip":"9792311"},{"town":"鹿島区北海老","koaza":"鳥バミ","lat":37.716896,"lng":140.988097,"zip":"9792311"},{"town":"鹿島区北海老","koaza":"町尻","lat":37.711166,"lng":140.985505,"zip":"9792311"},{"town":"鹿島区南屋形","koaza":"北原","lat":37.711857,"lng":140.983715,"zip":"9792304"},{"town":"鹿島区南海老","koaza":"中谷地","lat":37.702955,"lng":141.00903,"zip":"9792312"},{"town":"鹿島区南海老","koaza":"蛭沼","lat":37.702988,"lng":141.009926,"zip":"9792312"},{"town":"鹿島区南海老","koaza":"竹ノ内前","lat":37.703585,"lng":141.007467,"zip":"9792312"},{"town":"鹿島区北右田","koaza":"浜田","lat":37.695184,"lng":141.004517,"zip":"9792313"},{"town":"鹿島区南右田","koaza":"蛭田","lat":37.690588,"lng":141.008064,"zip":"9792314"},{"town":"鹿島区永渡","koaza":"永渡","lat":37.731237,"lng":140.951475,"zip":"9792301"},{"town":"鹿島区永渡","koaza":"尾張沢","lat":37.740198,"lng":140.942099,"zip":"9792301"},{"town":"鹿島区横手","koaza":"広谷地","lat":37.735531,"lng":140.929375,"zip":"9792442"},{"town":"鹿島区南柚木","koaza":"西谷地","lat":37.738371,"lng":140.955045,"zip":"9792302"},{"town":"鹿島区南柚木","koaza":"西久保","lat":37.737144,"lng":140.966234,"zip":"9792302"},{"town":"鹿島区南柚木","koaza":"境田","lat":37.740627,"lng":140.966931,"zip":"9792302"},{"town":"原町区深野","koaza":"搗屋","lat":37.66428,"lng":140.937972,"zip":"9750071"},{"town":"原町区深野","koaza":"前田","lat":37.663175,"lng":140.934303,"zip":"9750071"},{"town":"原町区北長野","koaza":"台","lat":37.659667,"lng":140.943869,"zip":"9750072"},{"town":"原町区石神","koaza":"下川原","lat":37.641077,"lng":140.934327,"zip":"9750075"},{"town":"原町区上高平","koaza":"一ノ坪","lat":37.654257,"lng":140.963865,"zip":"9750026"},{"town":"原町区北長野","koaza":"万五郎","lat":37.651857,"lng":140.952059,"zip":"9750072"},{"town":"原町区北長野","koaza":"沢目","lat":37.656424,"lng":140.945582,"zip":"9750072"},{"town":"原町区押釜","koaza":"山下","lat":37.625664,"lng":140.931754,"zip":"9750064"},{"town":"原町区矢川原","koaza":"寺山","lat":37.598112,"lng":140.941754,"zip":"9750057"},{"town":"原町区鶴谷","koaza":"池袋","lat":37.593513,"lng":140.949045,"zip":"9750056"},{"town":"原町区矢川原","koaza":"熊下","lat":37.600777,"lng":140.951575,"zip":"9750057"},{"town":"原町区上太田","koaza":"礼堂内","lat":37.604872,"lng":140.956675,"zip":"9750059"},{"town":"原町区鶴谷","koaza":"牛踏","lat":37.586523,"lng":140.975074,"zip":"9750056"},{"town":"原町区鶴谷","koaza":"坂下","lat":37.595005,"lng":140.966243,"zip":"9750056"},{"town":"原町区鶴谷","koaza":"台畑","lat":37.595216,"lng":140.971573,"zip":"9750056"},{"town":"原町区益田","koaza":"西迫","lat":37.600094,"lng":140.96901,"zip":"9750053"},{"town":"原町区牛来","koaza":"穴田","lat":37.620043,"lng":140.964997,"zip":"9750051"},{"town":"原町区牛来","koaza":"南平","lat":37.618983,"lng":140.966295,"zip":"9750051"},{"town":"原町区牛来","koaza":"八龍前","lat":37.623553,"lng":140.966925,"zip":"9750051"},{"town":"原町区牛来","koaza":"行師田","lat":37.618921,"lng":140.971096,"zip":"9750051"},{"town":"原町区中太田","koaza":"与太郎内","lat":37.612566,"lng":140.960669,"zip":"9750052"},{"town":"原町区中太田","koaza":"新橋","lat":37.611317,"lng":140.958455,"zip":"9750052"},{"town":"鹿島区南海老","koaza":"釜前","lat":37.705889,"lng":141.010459,"zip":"9792312"},{"town":"鹿島区大内","koaza":"松迫","lat":37.674091,"lng":141.000364,"zip":"9792322"},{"town":"鹿島区大内","koaza":"宮下","lat":37.676875,"lng":140.998421,"zip":"9792322"},{"town":"鹿島区大内","koaza":"大久保","lat":37.674391,"lng":140.997097,"zip":"9792322"},{"town":"鹿島区大内","koaza":"滝沢","lat":37.678052,"lng":140.996371,"zip":"9792322"},{"town":"原町区上高平","koaza":"芦ノ口前","lat":37.651222,"lng":140.970135,"zip":"9750026"},{"town":"原町区上高平","koaza":"堂坂","lat":37.657216,"lng":140.969774,"zip":"9750026"},{"town":"原町区上高平","koaza":"植松下","lat":37.656363,"lng":140.964006,"zip":"9750026"},{"town":"原町区牛越","koaza":"山崎","lat":37.645886,"lng":140.943415,"zip":"9750017"},{"town":"原町区上北高平","koaza":"貝餅","lat":37.654417,"lng":140.978544,"zip":"9750027"},{"town":"原町区上北高平","koaza":"太鼓田","lat":37.654538,"lng":140.976906,"zip":"9750027"},{"town":"原町区下太田","koaza":"高田","lat":37.609004,"lng":140.976367,"zip":"9750041"},{"town":"原町区高","koaza":"鍛治内","lat":37.598449,"lng":140.991508,"zip":"9750054"},{"town":"原町区高","koaza":"小太郎内","lat":37.601655,"lng":140.992237,"zip":"9750054"},{"town":"原町区高","koaza":"城ノ内","lat":37.599658,"lng":140.993724,"zip":"9750054"},{"town":"原町区高","koaza":"舘ノ内","lat":37.598944,"lng":140.995414,"zip":"9750054"},{"town":"原町区高","koaza":"中平","lat":37.596742,"lng":140.99292,"zip":"9750054"},{"town":"原町区益田","koaza":"大迫","lat":37.60107,"lng":140.979918,"zip":"9750053"},{"town":"原町区米々沢","koaza":"竹ノ花","lat":37.597419,"lng":141.00251,"zip":"9750048"},{"town":"原町区高","koaza":"北川原","lat":37.599734,"lng":140.996886,"zip":"9750054"},{"town":"原町区江井","koaza":"馬場","lat":37.592876,"lng":141.001973,"zip":"9750047"},{"town":"原町区江井","koaza":"堀内前","lat":37.592139,"lng":141.002358,"zip":"9750047"},{"town":"原町区米々沢","koaza":"松木内","lat":37.596689,"lng":141.00997,"zip":"9750048"},{"town":"原町区米々沢","koaza":"川畑","lat":37.595393,"lng":141.008392,"zip":"9750048"},{"town":"原町区米々沢","koaza":"沢田","lat":37.595559,"lng":141.011084,"zip":"9750048"},{"town":"原町区大甕","koaza":"観音前","lat":37.59798,"lng":141.01082,"zip":"9750049"},{"town":"原町区小浜","koaza":"大迫","lat":37.59619,"lng":141.016397,"zip":"9750043"},{"town":"原町区小浜","koaza":"野馬沢","lat":37.598755,"lng":141.025947,"zip":"9750043"},{"town":"原町区北原","koaza":"江下","lat":37.623351,"lng":140.995287,"zip":"9750037"},{"town":"原町区鶴谷","koaza":"輪ノ内","lat":37.594298,"lng":140.982334,"zip":"9750056"},{"town":"原町区高","koaza":"高林","lat":37.596266,"lng":140.986754,"zip":"9750054"},{"town":"原町区江井","koaza":"地蔵前","lat":37.5922,"lng":140.998121,"zip":"9750047"},{"town":"原町区江井","koaza":"妙見迫","lat":37.587743,"lng":140.995928,"zip":"9750047"},{"town":"原町区鶴谷","koaza":"南谷地","lat":37.589207,"lng":140.989382,"zip":"9750056"},{"town":"原町区鶴谷","koaza":"上ノ台","lat":37.591206,"lng":140.984434,"zip":"9750056"},{"town":"原町区堤谷","koaza":"境田","lat":37.575849,"lng":141.004688,"zip":"9750046"},{"town":"原町区堤谷","koaza":"林崎","lat":37.577646,"lng":141.001762,"zip":"9750046"},{"town":"小高区大井","koaza":"住吉","lat":37.572746,"lng":140.997732,"zip":"9792103"},{"town":"小高区吉名","koaza":"岩屋堂","lat":37.555202,"lng":140.990509,"zip":"9792157"},{"town":"小高区岡田","koaza":"薬師堂","lat":37.556967,"lng":140.993196,"zip":"9792134"},{"town":"小高区岡田","koaza":"養子坊","lat":37.555107,"lng":140.993187,"zip":"9792134"},{"town":"小高区岡田","koaza":"山田","lat":37.554717,"lng":140.99946,"zip":"9792134"},{"town":"小高区岡田","koaza":"南ノ内","lat":37.554036,"lng":140.996758,"zip":"9792134"},{"town":"小高区吉名","koaza":"中坪","lat":37.559991,"lng":140.984152,"zip":"9792157"},{"town":"原町区下太田","koaza":"道内迫","lat":37.614476,"lng":140.979305,"zip":"9750041"},{"town":"原町区北原","koaza":"境堀","lat":37.628602,"lng":140.988607,"zip":"9750037"},{"town":"鹿島区烏崎","koaza":"南入","lat":37.673803,"lng":141.012844,"zip":"9792323"},{"town":"鹿島区烏崎","koaza":"寺前","lat":37.675666,"lng":141.011471,"zip":"9792323"},{"town":"鹿島区烏崎","koaza":"南谷地","lat":37.677017,"lng":141.011124,"zip":"9792323"},{"town":"原町区金沢","koaza":"前田","lat":37.66448,"lng":141.012387,"zip":"9750021"},{"town":"原町区金沢","koaza":"鳥打沢","lat":37.667413,"lng":141.007271,"zip":"9750021"},{"town":"原町区泉","koaza":"宮前","lat":37.651684,"lng":141.010518,"zip":"9750023"},{"town":"原町区泉","koaza":"寺前","lat":37.653876,"lng":141.001139,"zip":"9750023"},{"town":"原町区泉","koaza":"根渡","lat":37.655439,"lng":140.996406,"zip":"9750023"},{"town":"原町区上高平","koaza":"川原町","lat":37.64965,"lng":140.966803,"zip":"9750026"},{"town":"原町区上高平","koaza":"宮前","lat":37.649869,"lng":140.968615,"zip":"9750026"},{"town":"原町区上北高平","koaza":"新山前","lat":37.659826,"lng":140.976773,"zip":"9750027"},{"town":"原町区上高平","koaza":"前明","lat":37.648038,"lng":140.972872,"zip":"9750026"},{"town":"原町区高","koaza":"薬師堂","lat":37.595041,"lng":140.997596,"zip":"9750054"},{"town":"原町区江井","koaza":"俵合内","lat":37.589874,"lng":141.001357,"zip":"9750047"},{"town":"原町区堤谷","koaza":"薬師前","lat":37.582054,"lng":141.002361,"zip":"9750046"},{"town":"小高区岡田","koaza":"天神前","lat":37.556929,"lng":140.995731,"zip":"9792134"},{"town":"小高区岡田","koaza":"町屋敷","lat":37.556882,"lng":140.998015,"zip":"9792134"},{"town":"小高区岡田","koaza":"北ノ内","lat":37.55836,"lng":140.99369,"zip":"9792134"},{"town":"原町区鶴谷","koaza":"大沢","lat":37.587709,"lng":140.981136,"zip":"9750056"},{"town":"原町区鶴谷","koaza":"北迎","lat":37.593847,"lng":140.978374,"zip":"9750056"},{"town":"原町区矢川原","koaza":"田中","lat":37.601391,"lng":140.962816,"zip":"9750057"},{"town":"原町区石神","koaza":"北渕内","lat":37.644223,"lng":140.926899,"zip":"9750075"},{"town":"鹿島区烏崎","koaza":"原田","lat":37.67644,"lng":141.007557,"zip":"9792323"},{"town":"原町区上高平","koaza":"宮後","lat":37.654365,"lng":140.972375,"zip":"9750026"},{"town":"原町区下高平","koaza":"堂後","lat":37.646847,"lng":140.982129,"zip":"9750025"},{"town":"原町区下高平","koaza":"牛渡前","lat":37.648805,"lng":140.990153,"zip":"9750025"},{"town":"原町区上渋佐","koaza":"沖田","lat":37.640572,"lng":140.999598,"zip":"9750034"},{"town":"原町区中太田","koaza":"八重畑","lat":37.615209,"lng":140.965219,"zip":"9750052"},{"town":"原町区中太田","koaza":"西畑","lat":37.615157,"lng":140.961304,"zip":"9750052"},{"town":"原町区牛来","koaza":"東後迫","lat":37.616846,"lng":140.977118,"zip":"9750051"},{"town":"原町区大甕","koaza":"森合","lat":37.600776,"lng":141.007006,"zip":"9750049"},{"town":"原町区大甕","koaza":"舟橋","lat":37.611771,"lng":140.992086,"zip":"9750049"},{"town":"原町区大甕","koaza":"西迫","lat":37.611021,"lng":140.99042,"zip":"9750049"},{"town":"原町区萱浜","koaza":"原畑","lat":37.630405,"lng":141.005631,"zip":"9750036"},{"town":"原町区泉","koaza":"須賀内","lat":37.643946,"lng":141.007446,"zip":"9750023"},{"town":"原町区泉","koaza":"舘前","lat":37.647271,"lng":141.016679,"zip":"9750023"},{"town":"原町区泉","koaza":"前川原","lat":37.643906,"lng":141.019142,"zip":"9750023"},{"town":"鹿島区烏崎","koaza":"牛島","lat":37.683525,"lng":141.010842,"zip":"9792323"},{"town":"小高区吉名","koaza":"西長迫","lat":37.55226,"lng":140.989703,"zip":"9792157"},{"town":"小高区岡田","koaza":"十王迫","lat":37.551861,"lng":140.992482,"zip":"9792134"},{"town":"原町区江井","koaza":"上沼","lat":37.590673,"lng":141.002988,"zip":"9750047"},{"town":"原町区江井","koaza":"向畑","lat":37.590661,"lng":141.002005,"zip":"9750047"},{"town":"原町区大甕","koaza":"山岸","lat":37.602599,"lng":141.00613,"zip":"9750049"},{"town":"原町区雫","koaza":"台畑","lat":37.612748,"lng":141.02181,"zip":"9750042"},{"town":"原町区雫","koaza":"上ノ台","lat":37.611329,"lng":141.021561,"zip":"9750042"},{"town":"原町区下渋佐","koaza":"湊","lat":37.62638,"lng":141.020687,"zip":"9750035"},{"town":"原町区萱浜","koaza":"百目木","lat":37.625846,"lng":141.015774,"zip":"9750036"},{"town":"原町区下渋佐","koaza":"大身","lat":37.636859,"lng":141.023067,"zip":"9750035"},{"town":"原町区下渋佐","koaza":"平","lat":37.638017,"lng":141.021899,"zip":"9750035"},{"town":"原町区北原","koaza":"木戸脇","lat":37.629787,"lng":140.983454,"zip":"9750037"},{"town":"原町区大甕","koaza":"十日迫","lat":37.609236,"lng":141.003842,"zip":"9750049"},{"town":"原町区下太田","koaza":"川内前","lat":37.616481,"lng":140.98191,"zip":"9750041"},{"town":"鹿島区烏崎","koaza":"石崎","lat":37.679803,"lng":141.011085,"zip":"9792323"},{"town":"鹿島区川子","koaza":"堤下","lat":37.672967,"lng":140.967977,"zip":"9792324"}]