[{"town":"大字山田岡","koaza":"","lat":37.250943,"lng":140.990574,"zip":"9790600"},{"town":"大字山田浜","koaza":"","lat":37.250489,"lng":141.009303,"zip":"9790600"},{"town":"大字下小塙","koaza":"","lat":37.263041,"lng":140.989717,"zip":"9790600"},{"town":"大字北田","koaza":"","lat":37.275122,"lng":141.00043,"zip":"9790600"},{"town":"大字井出","koaza":"","lat":37.293962,"lng":140.987306,"zip":"9790600"},{"town":"大字上繁岡","koaza":"","lat":37.307608,"lng":140.984242,"zip":"9790600"},{"town":"大字前原","koaza":"","lat":37.265702,"lng":141.006613,"zip":"9790600"},{"town":"大字下繁岡","koaza":"","lat":37.288686,"lng":141.01437,"zip":"9790600"},{"town":"大字波倉","koaza":"","lat":37.305302,"lng":141.01583,"zip":"9790600"},{"town":"大字上小塙","koaza":"","lat":37.270716,"lng":140.96868,"zip":"9790600"},{"town":"大字大谷","koaza":"","lat":37.282991,"lng":140.977302,"zip":"9790600"},{"town":"大字上繁岡","koaza":"中平","lat":37.306121,"lng":140.970058,"zip":"9790600"},{"town":"大字大谷","koaza":"寺下","lat":37.2784,"lng":140.974353,"zip":"9790600"},{"town":"大字大谷","koaza":"名合沢","lat":37.281517,"lng":140.975321,"zip":"9790600"},{"town":"大字大谷","koaza":"堂ノ内","lat":37.279271,"lng":140.976778,"zip":"9790600"},{"town":"大字大谷","koaza":"仲平","lat":37.281265,"lng":140.976981,"zip":"9790600"},{"town":"大字大谷","koaza":"宮前","lat":37.277925,"lng":140.976929,"zip":"9790600"},{"town":"大字上繁岡","koaza":"奥海","lat":37.308156,"lng":140.9813,"zip":"9790600"},{"town":"大字上小塙","koaza":"袖山川原","lat":37.276064,"lng":140.978462,"zip":"9790600"},{"town":"大字上繁岡","koaza":"下奥海","lat":37.30026,"lng":140.983816,"zip":"9790600"},{"town":"大字上小塙","koaza":"中川原","lat":37.276314,"lng":140.985168,"zip":"9790600"},{"town":"大字井出","koaza":"広内","lat":37.299717,"lng":140.982562,"zip":"9790600"},{"town":"大字井出","koaza":"八石","lat":37.286766,"lng":140.993401,"zip":"9790600"},{"town":"大字大谷","koaza":"天神","lat":37.282081,"lng":140.981041,"zip":"9790600"},{"town":"大字大谷","koaza":"仲田","lat":37.280007,"lng":140.981904,"zip":"9790600"},{"town":"大字上小塙","koaza":"宮前","lat":37.270704,"lng":140.983527,"zip":"9790600"},{"town":"大字上小塙","koaza":"地蔵堂","lat":37.275228,"lng":140.983783,"zip":"9790600"},{"town":"大字大谷","koaza":"磐前","lat":37.281306,"lng":140.983804,"zip":"9790600"},{"town":"大字井出","koaza":"苅集","lat":37.292671,"lng":140.985886,"zip":"9790600"},{"town":"大字上繁岡","koaza":"苅集","lat":37.296466,"lng":140.984593,"zip":"9790600"},{"town":"大字大谷","koaza":"上ノ原","lat":37.287331,"lng":140.985649,"zip":"9790600"},{"town":"大字下小塙","koaza":"上ノ原","lat":37.262947,"lng":140.990691,"zip":"9790600"},{"town":"大字下小塙","koaza":"焼野","lat":37.258241,"lng":140.988038,"zip":"9790600"},{"town":"大字大谷","koaza":"海法地","lat":37.281516,"lng":140.986157,"zip":"9790600"},{"town":"大字上繁岡","koaza":"二枚橋","lat":37.304256,"lng":140.990697,"zip":"9790600"},{"town":"大字上小塙","koaza":"結名田","lat":37.272383,"lng":140.986508,"zip":"9790600"},{"town":"大字山田岡","koaza":"仲丸","lat":37.244816,"lng":140.993183,"zip":"9790600"},{"town":"大字大谷","koaza":"鐘突堂","lat":37.283147,"lng":140.990625,"zip":"9790600"},{"town":"大字上小塙","koaza":"宮田","lat":37.272463,"lng":140.989885,"zip":"9790600"},{"town":"大字山田岡","koaza":"羽黒山","lat":37.250192,"lng":140.993453,"zip":"9790600"},{"town":"大字上繁岡","koaza":"山根","lat":37.306716,"lng":140.993207,"zip":"9790600"},{"town":"大字大谷","koaza":"熊野","lat":37.278691,"lng":140.992859,"zip":"9790600"},{"town":"大字上繁岡","koaza":"小六郎","lat":37.297522,"lng":140.997637,"zip":"9790600"},{"town":"大字上小塙","koaza":"中島","lat":37.269478,"lng":140.990569,"zip":"9790600"},{"town":"大字上小塙","koaza":"大師作","lat":37.274198,"lng":140.99183,"zip":"9790600"},{"town":"大字山田岡","koaza":"名古谷","lat":37.255656,"lng":140.993935,"zip":"9790600"},{"town":"大字井出","koaza":"木屋下","lat":37.28822,"lng":140.991103,"zip":"9790600"},{"town":"大字山田岡","koaza":"後沢","lat":37.259696,"lng":140.993289,"zip":"9790600"},{"town":"大字北田","koaza":"鐘突堂","lat":37.2819,"lng":140.993439,"zip":"9790600"},{"town":"大字井出","koaza":"萩平","lat":37.292341,"lng":140.992572,"zip":"9790600"},{"town":"大字下小塙","koaza":"大倉平","lat":37.264788,"lng":140.993683,"zip":"9790600"},{"town":"大字下小塙","koaza":"広畑","lat":37.26313,"lng":140.994604,"zip":"9790600"},{"town":"大字下小塙","koaza":"四斗蒔","lat":37.268298,"lng":140.994016,"zip":"9790600"},{"town":"大字下小塙","koaza":"佐野","lat":37.261156,"lng":140.996828,"zip":"9790600"},{"town":"大字上繁岡","koaza":"山神","lat":37.301915,"lng":140.998616,"zip":"9790600"},{"town":"大字北田","koaza":"寺脇","lat":37.274894,"lng":140.996845,"zip":"9790600"},{"town":"大字井出","koaza":"浄光西","lat":37.293245,"lng":140.996977,"zip":"9790600"},{"town":"大字山田岡","koaza":"松ノ口","lat":37.255617,"lng":140.996565,"zip":"9790600"},{"town":"大字山田岡","koaza":"大堤入","lat":37.250094,"lng":140.997541,"zip":"9790600"},{"town":"大字下小塙","koaza":"一ツ屋","lat":37.268654,"lng":140.998299,"zip":"9790600"},{"town":"大字山田岡","koaza":"小堤","lat":37.248058,"lng":141.000165,"zip":"9790600"},{"town":"大字山田岡","koaza":"伯母袋","lat":37.250582,"lng":140.998861,"zip":"9790600"},{"town":"大字井出","koaza":"西原","lat":37.281317,"lng":140.999355,"zip":"9790600"},{"town":"大字下小塙","koaza":"府ノ内","lat":37.267114,"lng":140.998889,"zip":"9790600"},{"town":"大字山田岡","koaza":"南作","lat":37.253924,"lng":140.998068,"zip":"9790600"},{"town":"大字北田","koaza":"台","lat":37.274162,"lng":140.99936,"zip":"9790600"},{"town":"大字北田","koaza":"中川原","lat":37.273208,"lng":140.999354,"zip":"9790600"},{"town":"大字北田","koaza":"後原","lat":37.275619,"lng":140.999466,"zip":"9790600"},{"town":"大字北田","koaza":"下山根","lat":37.276633,"lng":141.003813,"zip":"9790600"},{"town":"大字井出","koaza":"浄光東","lat":37.292667,"lng":141.001759,"zip":"9790600"},{"town":"大字上繁岡","koaza":"才連","lat":37.300748,"lng":141.003753,"zip":"9790600"},{"town":"大字下小塙","koaza":"聖天","lat":37.265607,"lng":140.999795,"zip":"9790600"},{"town":"大字山田岡","koaza":"根ッ子原","lat":37.247487,"lng":141.003007,"zip":"9790600"},{"town":"大字前原","koaza":"金剛川原","lat":37.268675,"lng":141.001343,"zip":"9790600"},{"town":"大字前原","koaza":"作助","lat":37.270424,"lng":141.002715,"zip":"9790600"},{"town":"大字下小塙","koaza":"延木戸","lat":37.266853,"lng":141.001267,"zip":"9790600"},{"town":"大字井出","koaza":"木屋","lat":37.281464,"lng":141.001505,"zip":"9790600"},{"town":"大字下小塙","koaza":"町","lat":37.262592,"lng":141.001288,"zip":"9790600"},{"town":"大字北田","koaza":"細内","lat":37.275322,"lng":141.00105,"zip":"9790600"},{"town":"大字北田","koaza":"段ノ越","lat":37.272621,"lng":141.003999,"zip":"9790600"},{"town":"大字山田岡","koaza":"小舘","lat":37.252088,"lng":141.00416,"zip":"9790600"},{"town":"大字前原","koaza":"田中内","lat":37.26455,"lng":141.002744,"zip":"9790600"},{"town":"大字前原","koaza":"延木戸","lat":37.265426,"lng":141.002652,"zip":"9790600"},{"town":"大字井出","koaza":"五里内","lat":37.28688,"lng":141.002693,"zip":"9790600"},{"town":"大字山田岡","koaza":"町東","lat":37.255765,"lng":141.003287,"zip":"9790600"},{"town":"大字山田岡","koaza":"駅内","lat":37.255677,"lng":141.002562,"zip":"9790600"},{"town":"大字山田岡","koaza":"一升平","lat":37.258136,"lng":141.002819,"zip":"9790600"},{"town":"大字下繁岡","koaza":"林東","lat":37.29527,"lng":141.010529,"zip":"9790600"},{"town":"大字井出","koaza":"高橋","lat":37.284166,"lng":141.004192,"zip":"9790600"},{"town":"大字前原","koaza":"付念田","lat":37.262919,"lng":141.004514,"zip":"9790600"},{"town":"大字前原","koaza":"岡崎","lat":37.266544,"lng":141.00467,"zip":"9790600"},{"town":"大字波倉","koaza":"原","lat":37.300417,"lng":141.013342,"zip":"9790600"},{"town":"大字山田岡","koaza":"大町","lat":37.255009,"lng":141.007355,"zip":"9790600"},{"town":"大字井出","koaza":"田仲","lat":37.28153,"lng":141.007586,"zip":"9790600"},{"town":"大字前原","koaza":"大木田","lat":37.259433,"lng":141.007197,"zip":"9790600"},{"town":"大字山田浜","koaza":"羽出庭","lat":37.251324,"lng":141.006605,"zip":"9790600"},{"town":"大字前原","koaza":"海法地","lat":37.264499,"lng":141.007524,"zip":"9790600"},{"town":"大字山田岡","koaza":"下岩沢","lat":37.242547,"lng":141.009145,"zip":"9790600"},{"town":"大字山田浜","koaza":"関場","lat":37.258176,"lng":141.008381,"zip":"9790600"},{"town":"大字波倉","koaza":"細谷","lat":37.311486,"lng":141.009495,"zip":"9790600"},{"town":"大字山田浜","koaza":"蜂作","lat":37.258782,"lng":141.008348,"zip":"9790600"},{"town":"大字井出","koaza":"舘ノ沢","lat":37.285299,"lng":141.010677,"zip":"9790600"},{"town":"大字下繁岡","koaza":"赤粉","lat":37.286697,"lng":141.01001,"zip":"9790600"},{"town":"大字前原","koaza":"宿田","lat":37.264631,"lng":141.010374,"zip":"9790600"},{"town":"大字山田浜","koaza":"上ノ代","lat":37.251998,"lng":141.010569,"zip":"9790600"},{"town":"大字山田浜","koaza":"破町","lat":37.256862,"lng":141.010515,"zip":"9790600"},{"town":"大字前原","koaza":"浜城","lat":37.260122,"lng":141.010173,"zip":"9790600"},{"town":"大字前原","koaza":"浜川田","lat":37.262497,"lng":141.010504,"zip":"9790600"},{"town":"大字下繁岡","koaza":"南代","lat":37.287473,"lng":141.013491,"zip":"9790600"},{"town":"大字波倉","koaza":"北向","lat":37.313934,"lng":141.024702,"zip":"9790600"},{"town":"大字山田浜","koaza":"後中","lat":37.258976,"lng":141.012388,"zip":"9790600"},{"town":"大字北田","koaza":"天神","lat":37.267775,"lng":141.012488,"zip":"9790600"},{"town":"大字山田浜","koaza":"仏房","lat":37.256777,"lng":141.01228,"zip":"9790600"},{"town":"大字井出","koaza":"本釜","lat":37.274448,"lng":141.015881,"zip":"9790600"},{"town":"大字下繁岡","koaza":"家前","lat":37.285708,"lng":141.015961,"zip":"9790600"},{"town":"大字下繁岡","koaza":"大谷地","lat":37.289524,"lng":141.013734,"zip":"9790600"},{"town":"大字波倉","koaza":"五反田","lat":37.309639,"lng":141.017696,"zip":"9790600"},{"town":"大字波倉","koaza":"小浜作","lat":37.315976,"lng":141.021721,"zip":"9790600"},{"town":"大字波倉","koaza":"横枕","lat":37.306916,"lng":141.021659,"zip":"9790600"},{"town":"大字井出","koaza":"向ノ内","lat":37.289388,"lng":141.001158,"zip":"9790600"},{"town":"大字大谷","koaza":"山根","lat":37.283925,"lng":140.986423,"zip":"9790600"},{"town":"大字大谷","koaza":"堤下","lat":37.283261,"lng":140.980881,"zip":"9790600"},{"town":"大字上小塙","koaza":"中山","lat":37.272119,"lng":140.97856,"zip":"9790600"},{"town":"大字上小塙","koaza":"小山","lat":37.273081,"lng":140.981238,"zip":"9790600"},{"town":"大字上小塙","koaza":"成子内","lat":37.270533,"lng":140.988886,"zip":"9790600"},{"town":"大字上小塙","koaza":"懐内","lat":37.27114,"lng":140.985703,"zip":"9790600"},{"town":"大字上小塙","koaza":"根ツ子原","lat":37.268195,"lng":140.986657,"zip":"9790600"},{"town":"大字上小塙","koaza":"寺後","lat":37.269134,"lng":140.989034,"zip":"9790600"},{"town":"大字上小塙","koaza":"馬場前","lat":37.269256,"lng":140.986458,"zip":"9790600"},{"town":"大字上繁岡","koaza":"松ケ岡","lat":37.302088,"lng":140.971334,"zip":"9790600"},{"town":"大字井出","koaza":"鹿島","lat":37.29473,"lng":140.979399,"zip":"9790600"},{"town":"大字大谷","koaza":"今中","lat":37.278054,"lng":140.979163,"zip":"9790600"},{"town":"大字大谷","koaza":"西代","lat":37.279361,"lng":140.974008,"zip":"9790600"},{"town":"大字上小塙","koaza":"鍛治屋","lat":37.268054,"lng":140.988322,"zip":"9790600"},{"town":"大字下小塙","koaza":"風呂内","lat":37.266951,"lng":140.990301,"zip":"9790600"},{"town":"大字下小塙","koaza":"戸崎","lat":37.266842,"lng":140.992898,"zip":"9790600"},{"town":"大字下小塙","koaza":"稲荷前","lat":37.26608,"lng":140.994095,"zip":"9790600"},{"town":"大字下小塙","koaza":"大木下","lat":37.267357,"lng":140.996315,"zip":"9790600"},{"town":"大字下小塙","koaza":"麦入","lat":37.265654,"lng":140.998398,"zip":"9790600"},{"town":"大字下小塙","koaza":"久保田","lat":37.263613,"lng":140.997504,"zip":"9790600"},{"town":"大字山田岡","koaza":"広畑","lat":37.259692,"lng":140.996882,"zip":"9790600"},{"town":"大字山田浜","koaza":"林下","lat":37.248951,"lng":141.010861,"zip":"9790600"},{"town":"大字山田浜","koaza":"代東","lat":37.250281,"lng":141.011578,"zip":"9790600"},{"town":"大字山田浜","koaza":"仲入","lat":37.25396,"lng":141.01251,"zip":"9790600"},{"town":"大字井出","koaza":"上ノ原","lat":37.272311,"lng":141.011192,"zip":"9790600"},{"town":"大字北田","koaza":"上ノ原","lat":37.269675,"lng":141.01255,"zip":"9790600"},{"town":"大字北田","koaza":"合張","lat":37.27657,"lng":141.004909,"zip":"9790600"},{"town":"大字北田","koaza":"上山根","lat":37.280785,"lng":140.996109,"zip":"9790600"},{"town":"大字井出","koaza":"谷地","lat":37.278498,"lng":141.006453,"zip":"9790600"},{"town":"大字波倉","koaza":"腰巻","lat":37.306749,"lng":141.018812,"zip":"9790600"},{"town":"大字波倉","koaza":"鎌田","lat":37.307313,"lng":141.0217,"zip":"9790600"},{"town":"大字波倉","koaza":"浜畑","lat":37.308284,"lng":141.022442,"zip":"9790600"},{"town":"大字下繁岡","koaza":"篠柄","lat":37.291495,"lng":141.011054,"zip":"9790600"},{"town":"大字井出","koaza":"奥海","lat":37.296564,"lng":140.988161,"zip":"9790600"},{"town":"大字上繁岡","koaza":"中原","lat":37.305035,"lng":140.983307,"zip":"9790600"},{"town":"大字井出","koaza":"所布","lat":37.296978,"lng":140.978479,"zip":"9790600"},{"town":"大字井出","koaza":"立石","lat":37.299611,"lng":140.977624,"zip":"9790600"},{"town":"大字井出","koaza":"仲丸","lat":37.294924,"lng":140.992284,"zip":"9790600"},{"town":"大字井出","koaza":"清太郎","lat":37.294974,"lng":140.977296,"zip":"9790600"},{"town":"大字北田","koaza":"仏坊","lat":37.27642,"lng":140.994953,"zip":"9790600"},{"town":"大字北田","koaza":"堂後","lat":37.27536,"lng":140.99521,"zip":"9790600"},{"town":"大字上小塙","koaza":"岩下","lat":37.271615,"lng":140.988248,"zip":"9790600"},{"town":"大字上小塙","koaza":"山道","lat":37.268252,"lng":140.984899,"zip":"9790600"},{"town":"大字下小塙","koaza":"月山寺後","lat":37.262167,"lng":140.996171,"zip":"9790600"},{"town":"大字山田岡","koaza":"南広畑","lat":37.253944,"lng":140.995434,"zip":"9790600"},{"town":"大字山田岡","koaza":"寺西","lat":37.255845,"lng":140.998623,"zip":"9790600"},{"town":"大字山田岡","koaza":"寺後","lat":37.255504,"lng":140.999587,"zip":"9790600"},{"town":"大字山田岡","koaza":"上ノ台","lat":37.254759,"lng":140.998832,"zip":"9790600"},{"town":"大字山田岡","koaza":"榎下","lat":37.255249,"lng":141.000829,"zip":"9790600"},{"town":"大字山田岡","koaza":"坂西","lat":37.257471,"lng":141.001298,"zip":"9790600"},{"town":"大字山田岡","koaza":"梨木平","lat":37.255991,"lng":141.000954,"zip":"9790600"},{"town":"大字山田岡","koaza":"古駅","lat":37.256385,"lng":141.000102,"zip":"9790600"},{"town":"大字山田岡","koaza":"五里内","lat":37.258154,"lng":140.999734,"zip":"9790600"},{"town":"大字山田岡","koaza":"宮下","lat":37.257288,"lng":140.998981,"zip":"9790600"},{"town":"大字下小塙","koaza":"街道東","lat":37.260179,"lng":141.001731,"zip":"9790600"},{"town":"大字前原","koaza":"研下","lat":37.260631,"lng":141.002647,"zip":"9790600"},{"town":"大字前原","koaza":"寺後","lat":37.263742,"lng":141.003656,"zip":"9790600"},{"town":"大字前原","koaza":"中川原","lat":37.269709,"lng":141.003848,"zip":"9790600"},{"town":"大字井出","koaza":"代","lat":37.273591,"lng":141.014201,"zip":"9790600"},{"town":"大字井出","koaza":"前沢","lat":37.27507,"lng":141.010587,"zip":"9790600"},{"town":"大字井出","koaza":"小田","lat":37.275225,"lng":141.014279,"zip":"9790600"},{"town":"大字北田","koaza":"金堂地","lat":37.269076,"lng":141.009494,"zip":"9790600"},{"town":"大字北田","koaza":"新田東","lat":37.273621,"lng":141.004556,"zip":"9790600"},{"town":"大字前原","koaza":"葉ノ木原","lat":37.268413,"lng":141.004808,"zip":"9790600"},{"town":"大字下小塙","koaza":"片町","lat":37.260851,"lng":141.001896,"zip":"9790600"},{"town":"大字山田岡","koaza":"北向","lat":37.257513,"lng":141.000506,"zip":"9790600"},{"town":"大字山田岡","koaza":"坂下","lat":37.258805,"lng":141.000255,"zip":"9790600"},{"town":"大字上小塙","koaza":"戸崎","lat":37.267398,"lng":140.991985,"zip":"9790600"},{"town":"大字山田岡","koaza":"北越","lat":37.258901,"lng":140.998298,"zip":"9790600"},{"town":"大字山田岡","koaza":"町尻","lat":37.25773,"lng":141.002372,"zip":"9790600"},{"town":"大字山田岡","koaza":"新堤入","lat":37.252054,"lng":140.992011,"zip":"9790600"},{"town":"大字前原","koaza":"寺前","lat":37.262818,"lng":141.002802,"zip":"9790600"},{"town":"大字波倉","koaza":"汐ノ作","lat":37.306342,"lng":141.010958,"zip":"9790600"},{"town":"大字下繁岡","koaza":"小谷地","lat":37.282854,"lng":141.016978,"zip":"9790600"},{"town":"大字下繁岡","koaza":"植松","lat":37.283524,"lng":141.014053,"zip":"9790600"},{"town":"大字下繁岡","koaza":"野中沢","lat":37.293119,"lng":141.017966,"zip":"9790600"},{"town":"大字下繁岡","koaza":"一丁坪","lat":37.289201,"lng":141.019008,"zip":"9790600"},{"town":"大字井出","koaza":"小豆田","lat":37.287903,"lng":140.998094,"zip":"9790600"},{"town":"大字井出","koaza":"上ノ岡","lat":37.285958,"lng":141.00064,"zip":"9790600"},{"town":"大字下小塙","koaza":"仲川原","lat":37.272436,"lng":140.994583,"zip":"9790600"},{"town":"大字下小塙","koaza":"清水","lat":37.270835,"lng":140.998128,"zip":"9790600"},{"town":"大字北田","koaza":"権現下","lat":37.272989,"lng":141.001313,"zip":"9790600"},{"town":"大字北田","koaza":"大道下","lat":37.271578,"lng":141.004557,"zip":"9790600"},{"town":"大字山田岡","koaza":"八幡西","lat":37.25869,"lng":140.999163,"zip":"9790600"},{"town":"大字山田岡","koaza":"堂ノ下","lat":37.259699,"lng":140.998642,"zip":"9790600"},{"town":"大字山田岡","koaza":"石空","lat":37.258586,"lng":140.997259,"zip":"9790600"},{"town":"大字山田岡","koaza":"竹之花","lat":37.257604,"lng":140.996976,"zip":"9790600"},{"town":"大字山田浜","koaza":"甚四郎前","lat":37.259258,"lng":141.011066,"zip":"9790600"},{"town":"大字山田浜","koaza":"山道北","lat":37.258252,"lng":141.010346,"zip":"9790600"},{"town":"大字山田岡","koaza":"中ノ城","lat":37.247506,"lng":141.00663,"zip":"9790600"},{"town":"大字上小塙","koaza":"袖山","lat":37.275332,"lng":140.973514,"zip":"9790600"}]