[{"town":"塩川町諏訪町三丁目","koaza":"","lat":37.601145,"lng":139.883273,"zip":"9693526"},{"town":"塩川町諏訪町二丁目","koaza":"","lat":37.599185,"lng":139.884975,"zip":"9693526"},{"town":"塩川町諏訪町一丁目","koaza":"","lat":37.596978,"lng":139.886297,"zip":"9693526"},{"town":"塩川町御殿場六丁目","koaza":"","lat":37.59774,"lng":139.879016,"zip":"9693527"},{"town":"塩川町御殿場五丁目","koaza":"","lat":37.599678,"lng":139.881637,"zip":"9693527"},{"town":"塩川町御殿場四丁目","koaza":"","lat":37.597214,"lng":139.88166,"zip":"9693527"},{"town":"塩川町御殿場三丁目","koaza":"","lat":37.595321,"lng":139.881895,"zip":"9693527"},{"town":"塩川町御殿場二丁目","koaza":"","lat":37.596676,"lng":139.884729,"zip":"9693527"},{"town":"塩川町御殿場一丁目","koaza":"","lat":37.594503,"lng":139.88502,"zip":"9693527"},{"town":"塩川町遠田","koaza":"","lat":37.593876,"lng":139.86921,"zip":"9693534"},{"town":"塩川町金橋","koaza":"","lat":37.589055,"lng":139.923633,"zip":"9693505"},{"town":"塩川町常世","koaza":"","lat":37.613462,"lng":139.952652,"zip":"9693502"},{"town":"熊倉町新合","koaza":"","lat":37.626111,"lng":139.978336,"zip":"9660023"},{"town":"松山町村松","koaza":"","lat":37.672049,"lng":139.871153,"zip":"9660902"},{"town":"字一丁目","koaza":"","lat":37.655616,"lng":139.872673,"zip":"9660000"},{"town":"字西籠田","koaza":"","lat":37.644242,"lng":139.871383,"zip":"9660000"},{"town":"豊川町米室","koaza":"","lat":37.636437,"lng":139.859106,"zip":"9660914"},{"town":"字桜ガ丘二丁目","koaza":"","lat":37.663854,"lng":139.873286,"zip":"9660000"},{"town":"豊川町沢部","koaza":"","lat":37.621906,"lng":139.859286,"zip":"9660913"},{"town":"豊川町一井","koaza":"","lat":37.62767,"lng":139.874415,"zip":"9660912"},{"town":"字前田上","koaza":"","lat":37.644789,"lng":139.871528,"zip":"9660000"},{"town":"字永久","koaza":"","lat":37.645955,"lng":139.872519,"zip":"9660000"},{"town":"字大道田","koaza":"","lat":37.647167,"lng":139.871768,"zip":"9660000"},{"town":"字町尻東","koaza":"","lat":37.648617,"lng":139.871992,"zip":"9660000"},{"town":"字三丁目","koaza":"","lat":37.650179,"lng":139.871147,"zip":"9660000"},{"town":"字二丁目","koaza":"","lat":37.652831,"lng":139.872051,"zip":"9660000"},{"town":"字諏訪","koaza":"","lat":37.654063,"lng":139.868576,"zip":"9660000"},{"town":"字花園","koaza":"","lat":37.656781,"lng":139.869411,"zip":"9660000"},{"town":"字経壇","koaza":"","lat":37.658846,"lng":139.869806,"zip":"9660000"},{"town":"字常盤台","koaza":"","lat":37.667114,"lng":139.873007,"zip":"9660000"},{"town":"塩川町吉沖","koaza":"","lat":37.614162,"lng":139.868532,"zip":"9693539"},{"town":"塩川町天沼","koaza":"","lat":37.602252,"lng":139.863629,"zip":"9693538"},{"town":"山都町蓬莱","koaza":"","lat":37.690771,"lng":139.720436,"zip":"9694104"},{"town":"高郷町西羽賀","koaza":"","lat":37.601199,"lng":139.752037,"zip":"9694311"},{"town":"高郷町夏井","koaza":"","lat":37.613804,"lng":139.752711,"zip":"9694315"},{"town":"高郷町川井","koaza":"","lat":37.629813,"lng":139.742298,"zip":"9694314"},{"town":"山都町","koaza":"","lat":37.645742,"lng":139.760206,"zip":"9694107"},{"town":"高郷町磐見","koaza":"","lat":37.653321,"lng":139.730011,"zip":"9694304"},{"town":"岩月町宮津","koaza":"","lat":37.681323,"lng":139.903488,"zip":"9660002"},{"town":"関柴町関柴","koaza":"","lat":37.693658,"lng":139.928139,"zip":"9660011"},{"town":"岩月町橿野","koaza":"","lat":37.659312,"lng":139.894572,"zip":"9660003"},{"town":"関柴町下柴","koaza":"","lat":37.679141,"lng":139.928835,"zip":"9660012"},{"town":"岩月町入田付","koaza":"","lat":37.723433,"lng":139.933327,"zip":"9660001"},{"town":"岩月町喜多方","koaza":"","lat":37.664891,"lng":139.882548,"zip":"9660004"},{"town":"松山町鳥見山","koaza":"","lat":37.688572,"lng":139.877598,"zip":"9660901"},{"town":"熱塩加納町相田","koaza":"","lat":37.768157,"lng":139.884386,"zip":"9660108"},{"town":"字青葉台","koaza":"","lat":37.669036,"lng":139.868332,"zip":"9660000"},{"town":"上三宮町上三宮","koaza":"","lat":37.688235,"lng":139.862798,"zip":"9660931"},{"town":"熱塩加納町米岡","koaza":"","lat":37.73405,"lng":139.857259,"zip":"9660104"},{"town":"松山町大飯坂","koaza":"","lat":37.660839,"lng":139.85937,"zip":"9660903"},{"town":"上三宮町吉川","koaza":"","lat":37.66765,"lng":139.836841,"zip":"9660932"},{"town":"山都町一川","koaza":"","lat":37.663539,"lng":139.812853,"zip":"9694102"},{"town":"山都町相川","koaza":"","lat":37.684781,"lng":139.789222,"zip":"9694107"},{"town":"山都町木幡","koaza":"","lat":37.665911,"lng":139.774405,"zip":"9694103"},{"town":"山都町一ノ木","koaza":"","lat":37.778806,"lng":139.765782,"zip":"9694108"},{"town":"山都町早稲谷","koaza":"","lat":37.703272,"lng":139.749325,"zip":"9694109"},{"town":"熱塩加納町熱塩","koaza":"","lat":37.777561,"lng":139.939257,"zip":"9660101"},{"town":"熱塩加納町宮川","koaza":"","lat":37.749536,"lng":139.822195,"zip":"9660105"},{"town":"熱塩加納町加納","koaza":"","lat":37.783387,"lng":139.851265,"zip":"9660103"},{"town":"字四百苅","koaza":"","lat":37.651392,"lng":139.881799,"zip":"9660000"},{"town":"字北町上","koaza":"","lat":37.658994,"lng":139.877353,"zip":"9660000"},{"town":"東桜ガ丘一丁目","koaza":"","lat":37.662537,"lng":139.877731,"zip":"9660007"},{"town":"熊倉町雄国","koaza":"","lat":37.629021,"lng":139.943776,"zip":"9660022"},{"town":"字原田","koaza":"","lat":37.654015,"lng":139.885882,"zip":"9660000"},{"town":"字大谷地田","koaza":"","lat":37.649289,"lng":139.884631,"zip":"9660000"},{"town":"字銭田","koaza":"","lat":37.653438,"lng":139.884776,"zip":"9660000"},{"town":"字越巻","koaza":"","lat":37.653155,"lng":139.88373,"zip":"9660000"},{"town":"字広面","koaza":"","lat":37.650376,"lng":139.884683,"zip":"9660000"},{"town":"字台添","koaza":"","lat":37.650552,"lng":139.886184,"zip":"9660000"},{"town":"字石田","koaza":"","lat":37.651776,"lng":139.882853,"zip":"9660000"},{"town":"字南原","koaza":"","lat":37.655131,"lng":139.887392,"zip":"9660000"},{"town":"字沢ノ目","koaza":"","lat":37.651926,"lng":139.887694,"zip":"9660000"},{"town":"字柳清水","koaza":"","lat":37.65665,"lng":139.886967,"zip":"9660000"},{"town":"字中台","koaza":"","lat":37.658079,"lng":139.88825,"zip":"9660000"},{"town":"字二本木","koaza":"","lat":37.658525,"lng":139.886904,"zip":"9660000"},{"town":"字畑台","koaza":"","lat":37.658736,"lng":139.888524,"zip":"9660000"},{"town":"字上江","koaza":"","lat":37.656002,"lng":139.885864,"zip":"9660000"},{"town":"字瀬戸","koaza":"","lat":37.658253,"lng":139.885867,"zip":"9660000"},{"town":"字下江","koaza":"","lat":37.65538,"lng":139.884279,"zip":"9660000"},{"town":"字蒔田","koaza":"","lat":37.655895,"lng":139.882681,"zip":"9660000"},{"town":"字梨子ノ木","koaza":"","lat":37.657961,"lng":139.884636,"zip":"9660000"},{"town":"字井戸尻","koaza":"","lat":37.650879,"lng":139.881589,"zip":"9660000"},{"town":"字南条","koaza":"","lat":37.652187,"lng":139.879171,"zip":"9660000"},{"town":"字六枚長","koaza":"","lat":37.651747,"lng":139.880016,"zip":"9660000"},{"town":"字江中子","koaza":"","lat":37.649139,"lng":139.880231,"zip":"9660000"},{"town":"字東町","koaza":"","lat":37.6524,"lng":139.881549,"zip":"9660000"},{"town":"字桜町","koaza":"","lat":37.656736,"lng":139.880974,"zip":"9660000"},{"town":"字舞台田","koaza":"","lat":37.65762,"lng":139.88271,"zip":"9660000"},{"town":"字長面","koaza":"","lat":37.654158,"lng":139.88205,"zip":"9660000"},{"town":"字西町","koaza":"","lat":37.653346,"lng":139.878708,"zip":"9660000"},{"town":"字南町","koaza":"","lat":37.65391,"lng":139.880242,"zip":"9660000"},{"town":"字惣座宮","koaza":"","lat":37.654549,"lng":139.877307,"zip":"9660000"},{"town":"字五ノ神","koaza":"","lat":37.654267,"lng":139.878772,"zip":"9660000"},{"town":"字大豆田","koaza":"","lat":37.655902,"lng":139.881088,"zip":"9660000"},{"town":"字中町","koaza":"","lat":37.655213,"lng":139.879925,"zip":"9660000"},{"town":"字加登","koaza":"","lat":37.657769,"lng":139.880726,"zip":"9660000"},{"town":"字北町","koaza":"","lat":37.657105,"lng":139.879409,"zip":"9660000"},{"town":"字宮西","koaza":"","lat":37.655228,"lng":139.877336,"zip":"9660000"},{"town":"字寺南","koaza":"","lat":37.655734,"lng":139.878494,"zip":"9660000"},{"town":"字村西","koaza":"","lat":37.655832,"lng":139.877326,"zip":"9660000"},{"town":"字寺西","koaza":"","lat":37.656312,"lng":139.877463,"zip":"9660000"},{"town":"字馬場","koaza":"","lat":37.657271,"lng":139.877925,"zip":"9660000"},{"town":"字東川原田","koaza":"","lat":37.647568,"lng":139.876036,"zip":"9660000"},{"town":"字稲荷宮","koaza":"","lat":37.647317,"lng":139.877036,"zip":"9660000"},{"town":"字川原田西","koaza":"","lat":37.644839,"lng":139.876441,"zip":"9660000"},{"town":"字行作","koaza":"","lat":37.644224,"lng":139.874856,"zip":"9660000"},{"town":"字谷地田上","koaza":"","lat":37.645416,"lng":139.874807,"zip":"9660000"},{"town":"字東籠田","koaza":"","lat":37.643843,"lng":139.872548,"zip":"9660000"},{"town":"字川下","koaza":"","lat":37.643352,"lng":139.873429,"zip":"9660000"},{"town":"字中島","koaza":"","lat":37.646307,"lng":139.875139,"zip":"9660000"},{"town":"字柳原","koaza":"","lat":37.647894,"lng":139.87518,"zip":"9660000"},{"town":"字百苅田","koaza":"","lat":37.646242,"lng":139.874196,"zip":"9660000"},{"town":"字大坪","koaza":"","lat":37.644782,"lng":139.87298,"zip":"9660000"},{"town":"字小田","koaza":"","lat":37.646528,"lng":139.873261,"zip":"9660000"},{"town":"字稲清水","koaza":"","lat":37.657236,"lng":139.876519,"zip":"9660000"},{"town":"字落合","koaza":"","lat":37.657634,"lng":139.875249,"zip":"9660000"},{"town":"字桜ガ丘一丁目","koaza":"","lat":37.660147,"lng":139.873458,"zip":"9660000"},{"town":"東桜ガ丘二丁目","koaza":"","lat":37.662255,"lng":139.875557,"zip":"9660007"},{"town":"塩川町中屋沢","koaza":"","lat":37.601452,"lng":139.936506,"zip":"9693504"},{"town":"塩川町五合","koaza":"","lat":37.609071,"lng":139.919366,"zip":"9693503"},{"town":"塩川町窪","koaza":"","lat":37.600151,"lng":139.897986,"zip":"9693506"},{"town":"塩川町小府根","koaza":"","lat":37.608274,"lng":139.896052,"zip":"9693532"},{"town":"塩川町","koaza":"","lat":37.596676,"lng":139.888224,"zip":"9693538"},{"town":"塩川町三吉","koaza":"","lat":37.623292,"lng":139.907018,"zip":"9693501"},{"town":"塩川町新江木","koaza":"","lat":37.610678,"lng":139.887883,"zip":"9693533"},{"town":"塩川町新井田谷地","koaza":"","lat":37.614374,"lng":139.877707,"zip":"9693531"},{"town":"塩川町源太屋敷","koaza":"","lat":37.619704,"lng":139.884493,"zip":"9693539"},{"town":"熊倉町都","koaza":"","lat":37.643449,"lng":139.947435,"zip":"9660021"},{"town":"熊倉町熊倉","koaza":"","lat":37.64052,"lng":139.918616,"zip":"9660024"},{"town":"関柴町豊芦","koaza":"","lat":37.638599,"lng":139.901997,"zip":"9660013"},{"town":"関柴町西勝","koaza":"","lat":37.638804,"lng":139.893499,"zip":"9660014"},{"town":"字台","koaza":"","lat":37.650675,"lng":139.887317,"zip":"9660000"},{"town":"豊川町高堂太","koaza":"","lat":37.62869,"lng":139.890729,"zip":"9660911"},{"town":"字西四ツ谷","koaza":"","lat":37.650436,"lng":139.877964,"zip":"9660000"},{"town":"字屋敷免","koaza":"","lat":37.64906,"lng":139.882544,"zip":"9660000"},{"town":"関柴町上高額","koaza":"","lat":37.641951,"lng":139.885704,"zip":"9660015"},{"town":"字さつきが丘","koaza":"","lat":37.641512,"lng":139.876189,"zip":"9660000"},{"town":"字下川向","koaza":"","lat":37.651531,"lng":139.876599,"zip":"9660000"},{"town":"字六百苅","koaza":"","lat":37.647776,"lng":139.874253,"zip":"9660000"},{"town":"字梅竹","koaza":"","lat":37.649814,"lng":139.875344,"zip":"9660000"},{"town":"字御清水南","koaza":"","lat":37.64778,"lng":139.872887,"zip":"9660000"},{"town":"字沢ノ免","koaza":"","lat":37.649368,"lng":139.873397,"zip":"9660000"},{"town":"字御清水","koaza":"","lat":37.650617,"lng":139.873698,"zip":"9660000"},{"town":"字御清水東","koaza":"","lat":37.651075,"lng":139.874564,"zip":"9660000"},{"town":"字谷地田","koaza":"","lat":37.650299,"lng":139.872721,"zip":"9660000"},{"town":"字細田","koaza":"","lat":37.65133,"lng":139.873027,"zip":"9660000"},{"town":"関柴町三津井","koaza":"","lat":37.64824,"lng":139.901763,"zip":"9660017"},{"town":"関柴町平林","koaza":"","lat":37.656127,"lng":139.903272,"zip":"9660016"},{"town":"字小田付道下","koaza":"","lat":37.651905,"lng":139.875179,"zip":"9660000"},{"town":"字上川向","koaza":"","lat":37.653733,"lng":139.875417,"zip":"9660000"},{"town":"字中川原","koaza":"","lat":37.65458,"lng":139.875995,"zip":"9660000"},{"town":"字緑町","koaza":"","lat":37.653197,"lng":139.874697,"zip":"9660000"},{"town":"字小田付道上","koaza":"","lat":37.654494,"lng":139.87422,"zip":"9660000"},{"town":"字沼田","koaza":"","lat":37.655131,"lng":139.875029,"zip":"9660000"},{"town":"字水上","koaza":"","lat":37.656955,"lng":139.873526,"zip":"9660000"},{"town":"字押切二丁目","koaza":"","lat":37.651047,"lng":139.861079,"zip":"9660000"},{"town":"字清水が丘三丁目","koaza":"","lat":37.660355,"lng":139.867936,"zip":"9660000"},{"town":"字清水が丘一丁目","koaza":"","lat":37.664438,"lng":139.869772,"zip":"9660000"},{"town":"字清水台一丁目","koaza":"","lat":37.666605,"lng":139.869715,"zip":"9660000"},{"town":"字清水台三丁目","koaza":"","lat":37.663634,"lng":139.867153,"zip":"9660000"},{"town":"字清水台二丁目","koaza":"","lat":37.666376,"lng":139.867811,"zip":"9660000"},{"town":"字押切南一丁目","koaza":"","lat":37.646496,"lng":139.861053,"zip":"9660000"},{"town":"字押切南二丁目","koaza":"","lat":37.647616,"lng":139.858683,"zip":"9660000"},{"town":"字押切三丁目","koaza":"","lat":37.650976,"lng":139.859391,"zip":"9660000"},{"town":"字押切東一丁目","koaza":"","lat":37.657372,"lng":139.866704,"zip":"9660000"},{"town":"塩川町会知","koaza":"","lat":37.601435,"lng":139.850275,"zip":"9693535"},{"town":"塩川町大田木","koaza":"","lat":37.607398,"lng":139.839366,"zip":"9693536"},{"town":"高郷町大田賀","koaza":"","lat":37.60475,"lng":139.774334,"zip":"9694316"},{"town":"塩川町四奈川","koaza":"","lat":37.616294,"lng":139.858439,"zip":"9693537"},{"town":"慶徳町新宮","koaza":"","lat":37.622105,"lng":139.827874,"zip":"9660923"},{"town":"慶徳町山科","koaza":"","lat":37.615767,"lng":139.814826,"zip":"9660924"},{"town":"字大道端","koaza":"","lat":37.640325,"lng":139.869259,"zip":"9660000"},{"town":"字向谷地","koaza":"","lat":37.637186,"lng":139.865904,"zip":"9660000"},{"town":"字大谷地","koaza":"","lat":37.637971,"lng":139.86767,"zip":"9660000"},{"town":"字三百苅","koaza":"","lat":37.638321,"lng":139.865323,"zip":"9660000"},{"town":"字千苅新道下","koaza":"","lat":37.641792,"lng":139.865768,"zip":"9660000"},{"town":"字中谷地","koaza":"","lat":37.64024,"lng":139.867178,"zip":"9660000"},{"town":"字五百苅","koaza":"","lat":37.639359,"lng":139.865054,"zip":"9660000"},{"town":"字砂子田","koaza":"","lat":37.640891,"lng":139.864668,"zip":"9660000"},{"town":"字長内","koaza":"","lat":37.643339,"lng":139.869803,"zip":"9660000"},{"town":"字一本木下","koaza":"","lat":37.645152,"lng":139.870191,"zip":"9660000"},{"town":"字一本木上","koaza":"","lat":37.646352,"lng":139.870261,"zip":"9660000"},{"town":"字町尻西","koaza":"","lat":37.648463,"lng":139.870444,"zip":"9660000"},{"town":"字寺田","koaza":"","lat":37.648132,"lng":139.869146,"zip":"9660000"},{"town":"字扇田","koaza":"","lat":37.649311,"lng":139.868552,"zip":"9660000"},{"town":"字前田","koaza":"","lat":37.649855,"lng":139.869526,"zip":"9660000"},{"town":"字常盤町","koaza":"","lat":37.650915,"lng":139.868734,"zip":"9660000"},{"town":"字中田","koaza":"","lat":37.642293,"lng":139.867054,"zip":"9660000"},{"town":"字町田下","koaza":"","lat":37.644092,"lng":139.868015,"zip":"9660000"},{"town":"字町田","koaza":"","lat":37.645489,"lng":139.867851,"zip":"9660000"},{"town":"字七百苅","koaza":"","lat":37.646896,"lng":139.868798,"zip":"9660000"},{"town":"字下川原","koaza":"","lat":37.64281,"lng":139.86434,"zip":"9660000"},{"town":"字千苅道上","koaza":"","lat":37.643778,"lng":139.863678,"zip":"9660000"},{"town":"字千苅中道上","koaza":"","lat":37.644358,"lng":139.86477,"zip":"9660000"},{"town":"字千苅","koaza":"","lat":37.645098,"lng":139.865909,"zip":"9660000"},{"town":"字天満前","koaza":"","lat":37.646511,"lng":139.866066,"zip":"9660000"},{"town":"字太子堂","koaza":"","lat":37.645446,"lng":139.862847,"zip":"9660000"},{"town":"字古寺","koaza":"","lat":37.648548,"lng":139.867627,"zip":"9660000"},{"town":"字市道","koaza":"","lat":37.649736,"lng":139.867278,"zip":"9660000"},{"town":"字寺町南","koaza":"","lat":37.651802,"lng":139.867368,"zip":"9660000"},{"town":"字北原","koaza":"","lat":37.649422,"lng":139.865859,"zip":"9660000"},{"town":"字慶徳道下","koaza":"","lat":37.650821,"lng":139.867521,"zip":"9660000"},{"town":"字慶徳道上","koaza":"","lat":37.651853,"lng":139.86522,"zip":"9660000"},{"town":"字町北","koaza":"","lat":37.648152,"lng":139.864981,"zip":"9660000"},{"town":"字町西","koaza":"","lat":37.646881,"lng":139.86352,"zip":"9660000"},{"town":"字番帳免","koaza":"","lat":37.648871,"lng":139.86338,"zip":"9660000"},{"town":"字長源段","koaza":"","lat":37.647175,"lng":139.862654,"zip":"9660000"},{"town":"字舘野","koaza":"","lat":37.649973,"lng":139.864511,"zip":"9660000"},{"town":"字通船場","koaza":"","lat":37.650325,"lng":139.862563,"zip":"9660000"},{"town":"慶徳町豊岡","koaza":"","lat":37.633041,"lng":139.83072,"zip":"9660922"},{"town":"山都町三津合","koaza":"","lat":37.625029,"lng":139.769688,"zip":"9694105"},{"town":"字寺町","koaza":"","lat":37.652176,"lng":139.869094,"zip":"9660000"},{"town":"字御茶屋","koaza":"","lat":37.652901,"lng":139.870504,"zip":"9660000"},{"town":"字押切東二丁目","koaza":"","lat":37.654187,"lng":139.864937,"zip":"9660000"},{"town":"字経壇東","koaza":"","lat":37.659192,"lng":139.871195,"zip":"9660000"},{"town":"字中清水","koaza":"","lat":37.660641,"lng":139.869541,"zip":"9660000"},{"town":"字清水が丘二丁目","koaza":"","lat":37.662253,"lng":139.868871,"zip":"9660000"},{"town":"字蝦蟆渕","koaza":"","lat":37.660684,"lng":139.870235,"zip":"9660000"},{"town":"字押切一丁目","koaza":"","lat":37.657811,"lng":139.864571,"zip":"9660000"},{"town":"字飯田道上","koaza":"","lat":37.661179,"lng":139.864104,"zip":"9660000"},{"town":"慶徳町松舞家","koaza":"","lat":37.64842,"lng":139.839862,"zip":"9660921"},{"town":"山都町小舟寺","koaza":"","lat":37.64954,"lng":139.801977,"zip":"9694101"},{"town":"高郷町池ノ原","koaza":"","lat":37.595709,"lng":139.729727,"zip":"9694312"},{"town":"高郷町塩坪","koaza":"","lat":37.612218,"lng":139.74018,"zip":"9694313"},{"town":"高郷町峯","koaza":"","lat":37.604379,"lng":139.71615,"zip":"9694302"},{"town":"高郷町上郷","koaza":"","lat":37.625807,"lng":139.724909,"zip":"9694301"},{"town":"高郷町揚津","koaza":"","lat":37.622759,"lng":139.695304,"zip":"9694303"},{"town":"岩月町大都","koaza":"","lat":37.690866,"lng":139.889746,"zip":"9660005"},{"town":"熱塩加納町山田","koaza":"","lat":37.717079,"lng":139.89163,"zip":"9660102"},{"town":"上三宮町三谷","koaza":"","lat":37.686951,"lng":139.832451,"zip":"9660933"},{"town":"山都町朝倉","koaza":"","lat":37.704292,"lng":139.811729,"zip":"9694106"},{"town":"慶徳町山科","koaza":"山崎","lat":37.610257,"lng":139.822554,"zip":"9660924"},{"town":"慶徳町豊岡","koaza":"今町","lat":37.632286,"lng":139.830145,"zip":"9660922"},{"town":"慶徳町山科","koaza":"家ノ下","lat":37.609273,"lng":139.824397,"zip":"9660924"},{"town":"慶徳町新宮","koaza":"招木","lat":37.616391,"lng":139.830414,"zip":"9660923"},{"town":"慶徳町新宮","koaza":"畑中","lat":37.618061,"lng":139.833882,"zip":"9660923"},{"town":"慶徳町新宮","koaza":"新宮","lat":37.619238,"lng":139.833607,"zip":"9660923"},{"town":"慶徳町豊岡","koaza":"本町","lat":37.630257,"lng":139.835286,"zip":"9660922"},{"town":"慶徳町松舞家","koaza":"木曽ノ原","lat":37.637632,"lng":139.837697,"zip":"9660921"},{"town":"慶徳町新宮","koaza":"前田","lat":37.623473,"lng":139.837774,"zip":"9660923"},{"town":"上三宮町三谷","koaza":"寺前","lat":37.68976,"lng":139.838454,"zip":"9660933"},{"town":"上三宮町三谷","koaza":"山本","lat":37.691576,"lng":139.839578,"zip":"9660933"},{"town":"慶徳町豊岡","koaza":"高木","lat":37.63053,"lng":139.843323,"zip":"9660922"},{"town":"慶徳町豊岡","koaza":"中江","lat":37.626883,"lng":139.840829,"zip":"9660922"},{"town":"慶徳町松舞家","koaza":"北ノ窪","lat":37.643493,"lng":139.845341,"zip":"9660921"},{"town":"上三宮町三谷","koaza":"五分一","lat":37.694657,"lng":139.843949,"zip":"9660933"},{"town":"上三宮町三谷","koaza":"下三山道南","lat":37.677595,"lng":139.842931,"zip":"9660933"},{"town":"熱塩加納町宮川","koaza":"三島前","lat":37.711821,"lng":139.843111,"zip":"9660105"},{"town":"塩川町大田木","koaza":"塚田","lat":37.609358,"lng":139.846666,"zip":"9693536"},{"town":"上三宮町三谷","koaza":"村北道北","lat":37.690289,"lng":139.843317,"zip":"9660933"},{"town":"上三宮町三谷","koaza":"西村","lat":37.676688,"lng":139.843605,"zip":"9660933"},{"town":"熱塩加納町宮川","koaza":"寺ノ前","lat":37.700795,"lng":139.844067,"zip":"9660105"},{"town":"上三宮町吉川","koaza":"別当屋敷","lat":37.67206,"lng":139.843388,"zip":"9660932"},{"town":"上三宮町吉川","koaza":"北中","lat":37.672758,"lng":139.84482,"zip":"9660932"},{"town":"慶徳町松舞家","koaza":"下古屋敷","lat":37.651623,"lng":139.844931,"zip":"9660921"},{"town":"上三宮町吉川","koaza":"北原","lat":37.669312,"lng":139.845033,"zip":"9660932"},{"town":"熱塩加納町宮川","koaza":"堰下","lat":37.712023,"lng":139.845479,"zip":"9660105"},{"town":"上三宮町吉川","koaza":"舘中","lat":37.66694,"lng":139.845731,"zip":"9660932"},{"town":"上三宮町吉川","koaza":"林下","lat":37.667156,"lng":139.844305,"zip":"9660932"},{"town":"上三宮町三谷","koaza":"北屋敷","lat":37.679473,"lng":139.843991,"zip":"9660933"},{"town":"上三宮町三谷","koaza":"屋敷中","lat":37.677405,"lng":139.845238,"zip":"9660933"},{"town":"上三宮町吉川","koaza":"南中","lat":37.672087,"lng":139.844672,"zip":"9660932"},{"town":"上三宮町三谷","koaza":"前畑","lat":37.675417,"lng":139.845181,"zip":"9660933"},{"town":"慶徳町松舞家","koaza":"丑ノ尾","lat":37.657094,"lng":139.845585,"zip":"9660921"},{"town":"慶徳町松舞家","koaza":"反町","lat":37.640643,"lng":139.846017,"zip":"9660921"},{"town":"上三宮町吉川","koaza":"三島","lat":37.673736,"lng":139.845262,"zip":"9660932"},{"town":"慶徳町松舞家","koaza":"原添","lat":37.638799,"lng":139.846452,"zip":"9660921"},{"town":"慶徳町松舞家","koaza":"鶴巻田","lat":37.651769,"lng":139.846623,"zip":"9660921"},{"town":"塩川町四奈川","koaza":"壇の腰","lat":37.614046,"lng":139.848072,"zip":"9693537"},{"town":"塩川町四奈川","koaza":"能力","lat":37.620727,"lng":139.849339,"zip":"9693537"},{"town":"慶徳町豊岡","koaza":"反町","lat":37.635716,"lng":139.849144,"zip":"9660922"},{"town":"塩川町会知","koaza":"大町","lat":37.605394,"lng":139.849932,"zip":"9693535"},{"town":"上三宮町吉川","koaza":"見頃","lat":37.664852,"lng":139.847384,"zip":"9660932"},{"town":"熱塩加納町宮川","koaza":"三軒屋敷","lat":37.700136,"lng":139.84862,"zip":"9660105"},{"town":"慶徳町松舞家","koaza":"舞台田","lat":37.645975,"lng":139.84721,"zip":"9660921"},{"town":"慶徳町松舞家","koaza":"台田","lat":37.657928,"lng":139.848537,"zip":"9660921"},{"town":"慶徳町松舞家","koaza":"堰場","lat":37.648717,"lng":139.848964,"zip":"9660921"},{"town":"塩川町会知","koaza":"薄毛","lat":37.612744,"lng":139.850812,"zip":"9693535"},{"town":"上三宮町吉川","koaza":"原田","lat":37.668041,"lng":139.852201,"zip":"9660932"},{"town":"慶徳町松舞家","koaza":"舞台田前","lat":37.64507,"lng":139.849727,"zip":"9660921"},{"town":"慶徳町松舞家","koaza":"新町","lat":37.654921,"lng":139.84938,"zip":"9660921"},{"town":"熱塩加納町宮川","koaza":"悪水出シ","lat":37.715712,"lng":139.850288,"zip":"9660105"},{"town":"慶徳町松舞家","koaza":"家ノ前","lat":37.644522,"lng":139.851171,"zip":"9660921"},{"town":"塩川町四奈川","koaza":"木戸口","lat":37.616013,"lng":139.85076,"zip":"9693537"},{"town":"慶徳町豊岡","koaza":"川原田","lat":37.636255,"lng":139.850763,"zip":"9660922"},{"town":"豊川町米室","koaza":"古開","lat":37.626851,"lng":139.851952,"zip":"9660914"},{"town":"塩川町四奈川","koaza":"中道","lat":37.609498,"lng":139.854607,"zip":"9693537"},{"town":"上三宮町吉川","koaza":"反田","lat":37.665504,"lng":139.85229,"zip":"9660932"},{"town":"塩川町四奈川","koaza":"石田","lat":37.617144,"lng":139.851377,"zip":"9693537"},{"town":"塩川町四奈川","koaza":"前田","lat":37.606289,"lng":139.853211,"zip":"9693537"},{"town":"上三宮町吉川","koaza":"新屋敷","lat":37.661615,"lng":139.85231,"zip":"9660932"},{"town":"慶徳町松舞家","koaza":"走下り","lat":37.648532,"lng":139.851583,"zip":"9660921"},{"town":"慶徳町松舞家","koaza":"上川","lat":37.650517,"lng":139.853054,"zip":"9660921"},{"town":"熱塩加納町加納","koaza":"屋敷内","lat":37.702009,"lng":139.854193,"zip":"9660103"},{"town":"上三宮町吉川","koaza":"長泥","lat":37.665108,"lng":139.856452,"zip":"9660932"},{"town":"塩川町四奈川","koaza":"西鎧召","lat":37.610284,"lng":139.856059,"zip":"9693537"},{"town":"豊川町米室","koaza":"柳原","lat":37.629478,"lng":139.85419,"zip":"9660914"},{"town":"豊川町米室","koaza":"太郎丸","lat":37.639133,"lng":139.8581,"zip":"9660914"},{"town":"豊川町米室","koaza":"三条川原","lat":37.638595,"lng":139.854137,"zip":"9660914"},{"town":"上三宮町吉川","koaza":"下三宮","lat":37.674834,"lng":139.8554,"zip":"9660932"},{"town":"上三宮町吉川","koaza":"北川原","lat":37.676947,"lng":139.854781,"zip":"9660932"},{"town":"熱塩加納町加納","koaza":"古屋敷","lat":37.697697,"lng":139.8552,"zip":"9660103"},{"town":"松山町大飯坂","koaza":"窪田","lat":37.652931,"lng":139.856302,"zip":"9660903"},{"town":"松山町大飯坂","koaza":"村前","lat":37.651998,"lng":139.857542,"zip":"9660903"},{"town":"熱塩加納町加納","koaza":"村東","lat":37.709076,"lng":139.857096,"zip":"9660103"},{"town":"松山町大飯坂","koaza":"大念佛","lat":37.658116,"lng":139.856367,"zip":"9660903"},{"town":"熱塩加納町加納","koaza":"根岸","lat":37.706284,"lng":139.862578,"zip":"9660103"},{"town":"熱塩加納町加納","koaza":"西土合","lat":37.708171,"lng":139.857204,"zip":"9660103"},{"town":"熱塩加納町加納","koaza":"妻ノ神","lat":37.695591,"lng":139.857326,"zip":"9660103"},{"town":"上三宮町上三宮","koaza":"池田","lat":37.689606,"lng":139.858221,"zip":"9660931"},{"town":"豊川町米室","koaza":"綾金","lat":37.63291,"lng":139.860548,"zip":"9660914"},{"town":"松山町大飯坂","koaza":"黒沢川端","lat":37.665401,"lng":139.859564,"zip":"9660903"},{"town":"塩川町四奈川","koaza":"若宮","lat":37.615571,"lng":139.859129,"zip":"9693537"},{"town":"豊川町沢部","koaza":"長尾","lat":37.624631,"lng":139.862346,"zip":"9660913"},{"town":"塩川町四奈川","koaza":"東鎧召","lat":37.609596,"lng":139.859879,"zip":"9693537"},{"town":"松山町大飯坂","koaza":"前田","lat":37.664968,"lng":139.86137,"zip":"9660903"},{"town":"上三宮町上三宮","koaza":"下松原","lat":37.68162,"lng":139.860674,"zip":"9660931"},{"town":"塩川町天沼","koaza":"貝沼","lat":37.601979,"lng":139.862781,"zip":"9693538"},{"town":"豊川町米室","koaza":"舘跡","lat":37.643603,"lng":139.85999,"zip":"9660914"},{"town":"塩川町四奈川","koaza":"万力","lat":37.616195,"lng":139.859373,"zip":"9693537"},{"town":"熱塩加納町加納","koaza":"稲荷前","lat":37.697095,"lng":139.859769,"zip":"9660103"},{"town":"熱塩加納町加納","koaza":"下谷地林","lat":37.699136,"lng":139.860326,"zip":"9660103"},{"town":"松山町大飯坂","koaza":"家ノ前","lat":37.669584,"lng":139.861536,"zip":"9660903"},{"town":"塩川町吉沖","koaza":"細田","lat":37.617373,"lng":139.862158,"zip":"9693539"},{"town":"上三宮町上三宮","koaza":"籬山","lat":37.686296,"lng":139.863459,"zip":"9660931"},{"town":"塩川町吉沖","koaza":"岩田","lat":37.610326,"lng":139.86206,"zip":"9693539"},{"town":"豊川町米室","koaza":"綾金北","lat":37.633729,"lng":139.862352,"zip":"9660914"},{"town":"豊川町沢部","koaza":"鹿島","lat":37.626098,"lng":139.863163,"zip":"9660913"},{"town":"熱塩加納町米岡","koaza":"下台","lat":37.720066,"lng":139.862711,"zip":"9660104"},{"town":"塩川町吉沖","koaza":"亀ケ台","lat":37.619297,"lng":139.86298,"zip":"9693539"},{"town":"上三宮町上三宮","koaza":"村尻","lat":37.682587,"lng":139.862377,"zip":"9660931"},{"town":"豊川町米室","koaza":"村北","lat":37.633717,"lng":139.864309,"zip":"9660914"},{"town":"松山町村松","koaza":"上川原","lat":37.67653,"lng":139.867428,"zip":"9660902"},{"town":"松山町大飯坂","koaza":"切添","lat":37.668751,"lng":139.863513,"zip":"9660903"},{"town":"熱塩加納町加納","koaza":"家ノ前原","lat":37.693764,"lng":139.864301,"zip":"9660103"},{"town":"熱塩加納町加納","koaza":"堰東","lat":37.695674,"lng":139.865342,"zip":"9660103"},{"town":"松山町大飯坂","koaza":"東高侭","lat":37.662937,"lng":139.864957,"zip":"9660903"},{"town":"松山町大飯坂","koaza":"大荒井","lat":37.671654,"lng":139.863758,"zip":"9660903"},{"town":"上三宮町上三宮","koaza":"荒町道東","lat":37.690437,"lng":139.866792,"zip":"9660931"},{"town":"塩川町天沼","koaza":"木ノ下","lat":37.601291,"lng":139.865923,"zip":"9693538"},{"town":"上三宮町吉川","koaza":"字押切","lat":37.672965,"lng":139.863819,"zip":"9660932"},{"town":"松山町村松","koaza":"寺分","lat":37.666398,"lng":139.866685,"zip":"9660902"},{"town":"塩川町吉沖","koaza":"久子ノ内","lat":37.60925,"lng":139.868217,"zip":"9693539"},{"town":"塩川町吉沖","koaza":"柴城","lat":37.615988,"lng":139.867742,"zip":"9693539"},{"town":"松山町鳥見山","koaza":"堰上","lat":37.70106,"lng":139.868151,"zip":"9660901"},{"town":"松山町村松","koaza":"馬道上","lat":37.672176,"lng":139.869539,"zip":"9660902"},{"town":"豊川町米室","koaza":"免田","lat":37.635023,"lng":139.868049,"zip":"9660914"},{"town":"塩川町遠田","koaza":"田向屋敷","lat":37.599157,"lng":139.869174,"zip":"9693534"},{"town":"塩川町吉沖","koaza":"西村","lat":37.620223,"lng":139.868527,"zip":"9693539"},{"town":"熱塩加納町加納","koaza":"鷲田山","lat":37.71162,"lng":139.8712,"zip":"9660103"},{"town":"松山町鳥見山","koaza":"松原","lat":37.7033,"lng":139.874284,"zip":"9660901"},{"town":"豊川町米室","koaza":"高吉","lat":37.635069,"lng":139.869646,"zip":"9660914"},{"town":"松山町鳥見山","koaza":"南屋敷","lat":37.692257,"lng":139.872317,"zip":"9660901"},{"town":"塩川町吉沖","koaza":"反町","lat":37.616264,"lng":139.870574,"zip":"9693539"},{"town":"塩川町遠田","koaza":"前田","lat":37.600436,"lng":139.870077,"zip":"9693534"},{"town":"松山町鳥見山","koaza":"下堰下","lat":37.677913,"lng":139.869676,"zip":"9660901"},{"town":"松山町村松","koaza":"北原","lat":37.682067,"lng":139.869355,"zip":"9660902"},{"town":"豊川町一井","koaza":"釈迦堂","lat":37.627212,"lng":139.870081,"zip":"9660912"},{"town":"松山町村松","koaza":"常盤町","lat":37.671247,"lng":139.870838,"zip":"9660902"},{"town":"松山町鳥見山","koaza":"街道西","lat":37.685862,"lng":139.870921,"zip":"9660901"},{"town":"熱塩加納町加納","koaza":"五目","lat":37.715267,"lng":139.872002,"zip":"9660103"},{"town":"熱塩加納町相田","koaza":"大森","lat":37.719368,"lng":139.874481,"zip":"9660108"},{"town":"松山町鳥見山","koaza":"上新屋敷","lat":37.697401,"lng":139.872773,"zip":"9660901"},{"town":"塩川町遠田","koaza":"新屋敷","lat":37.591645,"lng":139.871803,"zip":"9693534"},{"town":"熱塩加納町加納","koaza":"根岸山","lat":37.716179,"lng":139.875709,"zip":"9660103"},{"town":"塩川町天沼","koaza":"第六","lat":37.606766,"lng":139.875096,"zip":"9693538"},{"town":"松山町鳥見山","koaza":"下五郎四郎","lat":37.677014,"lng":139.872926,"zip":"9660901"},{"town":"松山町鳥見山","koaza":"上屋敷","lat":37.693211,"lng":139.873146,"zip":"9660901"},{"town":"豊川町米室","koaza":"アカト","lat":37.639365,"lng":139.873261,"zip":"9660914"},{"town":"熱塩加納町山田","koaza":"道西","lat":37.713253,"lng":139.875712,"zip":"9660102"},{"town":"松山町鳥見山","koaza":"桑木田","lat":37.679425,"lng":139.87363,"zip":"9660901"},{"town":"塩川町遠田","koaza":"谷地中","lat":37.589457,"lng":139.873676,"zip":"9693534"},{"town":"塩川町遠田","koaza":"寺内","lat":37.591877,"lng":139.87419,"zip":"9693534"},{"town":"松山町鳥見山","koaza":"村前","lat":37.683572,"lng":139.874605,"zip":"9660901"},{"town":"豊川町米室","koaza":"三本杉","lat":37.633959,"lng":139.874538,"zip":"9660914"},{"town":"松山町村松","koaza":"台畑","lat":37.665914,"lng":139.874621,"zip":"9660902"},{"town":"塩川町遠田","koaza":"舘ノ腰","lat":37.591529,"lng":139.875816,"zip":"9693534"},{"town":"豊川町一井","koaza":"家北","lat":37.626039,"lng":139.873376,"zip":"9660912"},{"town":"松山町鳥見山","koaza":"上堀田","lat":37.671057,"lng":139.875623,"zip":"9660901"},{"town":"松山町鳥見山","koaza":"下天神","lat":37.661549,"lng":139.875673,"zip":"9660901"},{"town":"松山町村松","koaza":"桜清水","lat":37.672993,"lng":139.874718,"zip":"9660902"},{"town":"関柴町上高額","koaza":"新井堰","lat":37.644794,"lng":139.877618,"zip":"9660015"},{"town":"塩川町遠田","koaza":"東谷地","lat":37.599449,"lng":139.879694,"zip":"9693534"},{"town":"松山町鳥見山","koaza":"北屋敷","lat":37.684504,"lng":139.879043,"zip":"9660901"},{"town":"熱塩加納町相田","koaza":"東原","lat":37.724864,"lng":139.879358,"zip":"9660108"},{"town":"松山町鳥見山","koaza":"本村屋敷","lat":37.687771,"lng":139.8812,"zip":"9660901"},{"town":"岩月町大都","koaza":"前田","lat":37.672825,"lng":139.879287,"zip":"9660005"},{"town":"松山町鳥見山","koaza":"百目前","lat":37.674566,"lng":139.879263,"zip":"9660901"},{"town":"熱塩加納町相田","koaza":"中道東","lat":37.722832,"lng":139.879846,"zip":"9660108"},{"town":"塩川町新井田谷地","koaza":"新井田谷地","lat":37.616695,"lng":139.88123,"zip":"9693531"},{"town":"塩川町遠田","koaza":"沼上","lat":37.597304,"lng":139.879258,"zip":"9693534"},{"town":"塩川町新江木","koaza":"館跡","lat":37.608186,"lng":139.8817,"zip":"9693533"},{"town":"塩川町新井田谷地","koaza":"原新田","lat":37.611677,"lng":139.879889,"zip":"9693531"},{"town":"豊川町一井","koaza":"五百苅","lat":37.625373,"lng":139.880432,"zip":"9660912"},{"town":"熱塩加納町山田","koaza":"堂ノ下","lat":37.725625,"lng":139.880301,"zip":"9660102"},{"town":"豊川町一井","koaza":"中田","lat":37.632255,"lng":139.879156,"zip":"9660912"},{"town":"松山町鳥見山","koaza":"家ノ根","lat":37.693139,"lng":139.880519,"zip":"9660901"},{"town":"熱塩加納町山田","koaza":"赤崎","lat":37.718889,"lng":139.880807,"zip":"9660102"},{"town":"関柴町上高額","koaza":"家ノ北","lat":37.646178,"lng":139.881504,"zip":"9660015"},{"town":"塩川町源太屋敷","koaza":"下石橋","lat":37.616149,"lng":139.881488,"zip":"9693539"},{"town":"関柴町上高額","koaza":"西村","lat":37.643268,"lng":139.882394,"zip":"9660015"},{"town":"関柴町上高額","koaza":"五百苅","lat":37.639736,"lng":139.882056,"zip":"9660015"},{"town":"熱塩加納町熱塩","koaza":"前田","lat":37.73032,"lng":139.876102,"zip":"9660101"},{"town":"熱塩加納町熱塩","koaza":"雀田","lat":37.729772,"lng":139.881515,"zip":"9660101"},{"town":"塩川町新井田谷地","koaza":"百五拾刈","lat":37.617667,"lng":139.881739,"zip":"9693531"},{"town":"塩川町","koaza":"恵比寿喜田","lat":37.60001,"lng":139.883553,"zip":"9693538"},{"town":"熱塩加納町熱塩","koaza":"向川原下","lat":37.730795,"lng":139.882498,"zip":"9660101"},{"town":"塩川町","koaza":"蛭田","lat":37.601388,"lng":139.883116,"zip":"9693538"},{"town":"岩月町大都","koaza":"大名","lat":37.686703,"lng":139.884263,"zip":"9660005"},{"town":"関柴町上高額","koaza":"宮越","lat":37.645284,"lng":139.883501,"zip":"9660015"},{"town":"岩月町大都","koaza":"西村","lat":37.69196,"lng":139.883416,"zip":"9660005"},{"town":"関柴町西勝","koaza":"西原","lat":37.63886,"lng":139.887807,"zip":"9660014"},{"town":"塩川町","koaza":"西ノ新田","lat":37.595994,"lng":139.885157,"zip":"9693538"},{"town":"岩月町大都","koaza":"西畑","lat":37.683624,"lng":139.884245,"zip":"9660005"},{"town":"岩月町大都","koaza":"荒田","lat":37.677149,"lng":139.884607,"zip":"9660005"},{"town":"豊川町高堂太","koaza":"高里","lat":37.632221,"lng":139.88662,"zip":"9660911"},{"town":"岩月町大都","koaza":"東村","lat":37.693579,"lng":139.884744,"zip":"9660005"},{"town":"豊川町高堂太","koaza":"阿久戸","lat":37.630238,"lng":139.884716,"zip":"9660911"},{"town":"熱塩加納町山田","koaza":"坊平","lat":37.722473,"lng":139.885184,"zip":"9660102"},{"town":"塩川町新江木","koaza":"新井田","lat":37.612102,"lng":139.885547,"zip":"9693533"},{"town":"塩川町源太屋敷","koaza":"前畑","lat":37.620516,"lng":139.885055,"zip":"9693539"},{"town":"塩川町","koaza":"源屋","lat":37.598234,"lng":139.886412,"zip":"9693538"},{"town":"関柴町上高額","koaza":"上中","lat":37.643745,"lng":139.88594,"zip":"9660015"},{"town":"塩川町","koaza":"諏訪町","lat":37.5967,"lng":139.886864,"zip":"9693538"},{"town":"岩月町大都","koaza":"堂ノ前","lat":37.690987,"lng":139.88912,"zip":"9660005"},{"town":"岩月町宮津","koaza":"南沢田","lat":37.659642,"lng":139.887242,"zip":"9660002"},{"town":"岩月町宮津","koaza":"笹ノ上","lat":37.667287,"lng":139.88873,"zip":"9660002"},{"town":"塩川町","koaza":"石橋","lat":37.595685,"lng":139.886942,"zip":"9693538"},{"town":"関柴町上高額","koaza":"割田","lat":37.640356,"lng":139.887896,"zip":"9660015"},{"town":"岩月町喜多方","koaza":"稲村東","lat":37.6656,"lng":139.88756,"zip":"9660004"},{"town":"塩川町小府根","koaza":"五百刈","lat":37.603454,"lng":139.889533,"zip":"9693532"},{"town":"塩川町","koaza":"岡ノ前","lat":37.596294,"lng":139.888546,"zip":"9693538"},{"town":"岩月町宮津","koaza":"大門","lat":37.674757,"lng":139.888322,"zip":"9660002"},{"town":"岩月町宮津","koaza":"西馬場","lat":37.660983,"lng":139.889561,"zip":"9660002"},{"town":"塩川町","koaza":"東岡","lat":37.597538,"lng":139.888362,"zip":"9693538"},{"town":"豊川町高堂太","koaza":"橋向","lat":37.622118,"lng":139.893341,"zip":"9660911"},{"town":"塩川町小府根","koaza":"屋敷","lat":37.605761,"lng":139.890121,"zip":"9693532"},{"town":"岩月町宮津","koaza":"広面","lat":37.666468,"lng":139.890216,"zip":"9660002"},{"town":"塩川町","koaza":"新町","lat":37.594266,"lng":139.890458,"zip":"9693538"},{"town":"塩川町","koaza":"新丁","lat":37.596011,"lng":139.88963,"zip":"9693538"},{"town":"関柴町上高額","koaza":"東原","lat":37.645595,"lng":139.889221,"zip":"9660015"},{"town":"塩川町","koaza":"中町","lat":37.592744,"lng":139.889079,"zip":"9693538"},{"town":"豊川町高堂太","koaza":"免田","lat":37.630327,"lng":139.891076,"zip":"9660911"},{"town":"岩月町橿野","koaza":"菅原","lat":37.654944,"lng":139.889008,"zip":"9660003"},{"town":"岩月町橿野","koaza":"三ツ堀西","lat":37.65796,"lng":139.890259,"zip":"9660003"},{"town":"岩月町宮津","koaza":"西田窪","lat":37.670599,"lng":139.890003,"zip":"9660002"},{"town":"塩川町","koaza":"東栄町一丁目","lat":37.591615,"lng":139.891127,"zip":"9693538"},{"town":"塩川町新江木","koaza":"橋本前田","lat":37.61238,"lng":139.890481,"zip":"9693533"},{"town":"岩月町大都","koaza":"寺西","lat":37.682575,"lng":139.891532,"zip":"9660005"},{"town":"塩川町","koaza":"身神","lat":37.598208,"lng":139.889997,"zip":"9693538"},{"town":"塩川町","koaza":"米沢町","lat":37.595758,"lng":139.890203,"zip":"9693538"},{"town":"塩川町","koaza":"町北","lat":37.597813,"lng":139.890534,"zip":"9693538"},{"town":"岩月町宮津","koaza":"柏原廻り","lat":37.677989,"lng":139.891712,"zip":"9660002"},{"town":"岩月町宮津","koaza":"中山","lat":37.686087,"lng":139.895862,"zip":"9660002"},{"town":"塩川町","koaza":"東栄町二丁目","lat":37.593877,"lng":139.891475,"zip":"9693538"},{"town":"塩川町","koaza":"東栄町四丁目","lat":37.596866,"lng":139.891841,"zip":"9693538"},{"town":"塩川町","koaza":"東栄町三丁目","lat":37.596771,"lng":139.891128,"zip":"9693538"},{"town":"塩川町新江木","koaza":"谷地田","lat":37.609036,"lng":139.891438,"zip":"9693533"},{"town":"岩月町宮津","koaza":"原田","lat":37.674643,"lng":139.892046,"zip":"9660002"},{"town":"岩月町橿野","koaza":"舘野","lat":37.650737,"lng":139.893155,"zip":"9660003"},{"town":"塩川町","koaza":"大在家","lat":37.602692,"lng":139.893239,"zip":"9693538"},{"town":"塩川町新江木","koaza":"上の台","lat":37.618558,"lng":139.892127,"zip":"9693533"},{"town":"塩川町小府根","koaza":"道下","lat":37.613501,"lng":139.89187,"zip":"9693532"},{"town":"豊川町高堂太","koaza":"村中","lat":37.625881,"lng":139.893364,"zip":"9660911"},{"town":"岩月町宮津","koaza":"台田","lat":37.665833,"lng":139.89222,"zip":"9660002"},{"town":"塩川町新江木","koaza":"畑ケ田","lat":37.611423,"lng":139.892777,"zip":"9693533"},{"town":"関柴町上高額","koaza":"角畑","lat":37.648814,"lng":139.893242,"zip":"9660015"},{"town":"塩川町小府根","koaza":"曽谷田","lat":37.616017,"lng":139.890898,"zip":"9693532"},{"town":"塩川町","koaza":"東栄町五丁目","lat":37.594296,"lng":139.89418,"zip":"9693538"},{"town":"塩川町","koaza":"東栄町六丁目","lat":37.592377,"lng":139.894151,"zip":"9693538"},{"town":"岩月町宮津","koaza":"岩崎","lat":37.677778,"lng":139.89451,"zip":"9660002"},{"town":"関柴町三津井","koaza":"松島","lat":37.64861,"lng":139.894595,"zip":"9660017"},{"town":"岩月町宮津","koaza":"銭神","lat":37.667291,"lng":139.894318,"zip":"9660002"},{"town":"豊川町高堂太","koaza":"稲荷田","lat":37.636858,"lng":139.897561,"zip":"9660911"},{"town":"豊川町高堂太","koaza":"堂畑","lat":37.631947,"lng":139.892594,"zip":"9660911"},{"town":"岩月町橿野","koaza":"下前田","lat":37.658194,"lng":139.895582,"zip":"9660003"},{"town":"塩川町小府根","koaza":"大在家","lat":37.608937,"lng":139.899261,"zip":"9693532"},{"town":"塩川町窪","koaza":"上窪","lat":37.606074,"lng":139.899093,"zip":"9693506"},{"town":"岩月町宮津","koaza":"長窪","lat":37.690482,"lng":139.897005,"zip":"9660002"},{"town":"岩月町宮津","koaza":"大沢","lat":37.67794,"lng":139.897188,"zip":"9660002"},{"town":"岩月町橿野","koaza":"馬場","lat":37.665299,"lng":139.896588,"zip":"9660003"},{"town":"岩月町橿野","koaza":"松島","lat":37.653849,"lng":139.896596,"zip":"9660003"},{"town":"岩月町宮津","koaza":"滝川","lat":37.668823,"lng":139.89649,"zip":"9660002"},{"town":"塩川町三吉","koaza":"利根川","lat":37.617789,"lng":139.900517,"zip":"9693501"},{"town":"岩月町橿野","koaza":"白山前","lat":37.65802,"lng":139.897501,"zip":"9660003"},{"town":"岩月町宮津","koaza":"東原","lat":37.6772,"lng":139.898667,"zip":"9660002"},{"town":"関柴町三津井","koaza":"堂ノ上","lat":37.64808,"lng":139.898785,"zip":"9660017"},{"town":"関柴町平林","koaza":"下段","lat":37.651442,"lng":139.898457,"zip":"9660016"},{"town":"塩川町三吉","koaza":"反田","lat":37.624286,"lng":139.90144,"zip":"9693501"},{"town":"岩月町宮津","koaza":"中田付","lat":37.670319,"lng":139.898507,"zip":"9660002"},{"town":"関柴町平林","koaza":"信濃","lat":37.656697,"lng":139.899696,"zip":"9660016"},{"town":"岩月町橿野","koaza":"黒田","lat":37.66526,"lng":139.902099,"zip":"9660003"},{"town":"塩川町常世","koaza":"萱場","lat":37.614098,"lng":139.90291,"zip":"9693502"},{"town":"塩川町三吉","koaza":"家ノ前","lat":37.619626,"lng":139.90551,"zip":"9693501"},{"town":"岩月町宮津","koaza":"勝耕作","lat":37.681759,"lng":139.902173,"zip":"9660002"},{"town":"塩川町三吉","koaza":"大道畑","lat":37.622772,"lng":139.902119,"zip":"9693501"},{"town":"塩川町三吉","koaza":"地蔵免","lat":37.620733,"lng":139.902736,"zip":"9693501"},{"town":"関柴町関柴","koaza":"西城","lat":37.670192,"lng":139.903637,"zip":"9660011"},{"town":"岩月町入田付","koaza":"東桜壇","lat":37.684968,"lng":139.902684,"zip":"9660001"},{"town":"関柴町豊芦","koaza":"村中","lat":37.632681,"lng":139.902171,"zip":"9660013"},{"town":"関柴町関柴","koaza":"六百苅","lat":37.663686,"lng":139.90271,"zip":"9660011"},{"town":"関柴町三津井","koaza":"下川原","lat":37.647739,"lng":139.902532,"zip":"9660017"},{"town":"関柴町三津井","koaza":"堀込","lat":37.645063,"lng":139.902569,"zip":"9660017"},{"town":"関柴町平林","koaza":"政所","lat":37.653341,"lng":139.902251,"zip":"9660016"},{"town":"関柴町関柴","koaza":"大田","lat":37.667483,"lng":139.904006,"zip":"9660011"},{"town":"関柴町関柴","koaza":"打入","lat":37.677667,"lng":139.907778,"zip":"9660011"},{"town":"関柴町三津井","koaza":"七反","lat":37.646215,"lng":139.905187,"zip":"9660017"},{"town":"関柴町関柴","koaza":"石ノ堂","lat":37.664629,"lng":139.904507,"zip":"9660011"},{"town":"岩月町宮津","koaza":"惣社原","lat":37.686055,"lng":139.904181,"zip":"9660002"},{"town":"関柴町三津井","koaza":"稲荷前","lat":37.651662,"lng":139.905165,"zip":"9660017"},{"town":"岩月町入田付","koaza":"原添","lat":37.688161,"lng":139.905964,"zip":"9660001"},{"town":"関柴町関柴","koaza":"川又","lat":37.6662,"lng":139.906491,"zip":"9660011"},{"town":"関柴町豊芦","koaza":"三城目","lat":37.638038,"lng":139.907175,"zip":"9660013"},{"town":"関柴町三津井","koaza":"畑ケ中","lat":37.65424,"lng":139.908043,"zip":"9660017"},{"town":"関柴町三津井","koaza":"柴田","lat":37.651698,"lng":139.907782,"zip":"9660017"},{"town":"関柴町平林","koaza":"宮西","lat":37.659423,"lng":139.907494,"zip":"9660016"},{"town":"関柴町平林","koaza":"南ノ前","lat":37.656532,"lng":139.906118,"zip":"9660016"},{"town":"関柴町豊芦","koaza":"四ツ屋","lat":37.633876,"lng":139.90712,"zip":"9660013"},{"town":"塩川町三吉","koaza":"中ノ目","lat":37.62891,"lng":139.908148,"zip":"9693501"},{"town":"塩川町常世","koaza":"諏訪田","lat":37.616847,"lng":139.908077,"zip":"9693502"},{"town":"塩川町金橋","koaza":"千刈","lat":37.59069,"lng":139.907867,"zip":"9693505"},{"town":"塩川町常世","koaza":"西町","lat":37.614925,"lng":139.910297,"zip":"9693502"},{"town":"塩川町金橋","koaza":"金川","lat":37.586279,"lng":139.908047,"zip":"9693505"},{"town":"関柴町関柴","koaza":"関柴","lat":37.66493,"lng":139.908733,"zip":"9660011"},{"town":"塩川町中屋沢","koaza":"竹花","lat":37.603142,"lng":139.912443,"zip":"9693504"},{"town":"関柴町関柴","koaza":"平石","lat":37.681798,"lng":139.924355,"zip":"9660011"},{"town":"塩川町金橋","koaza":"江添","lat":37.592239,"lng":139.910886,"zip":"9693505"},{"town":"熊倉町熊倉","koaza":"柳原北","lat":37.635202,"lng":139.909734,"zip":"9660024"},{"town":"関柴町豊芦","koaza":"中里","lat":37.644386,"lng":139.911227,"zip":"9660013"},{"town":"関柴町三津井","koaza":"天宮","lat":37.65419,"lng":139.910605,"zip":"9660017"},{"town":"熊倉町熊倉","koaza":"柳原","lat":37.635794,"lng":139.911158,"zip":"9660024"},{"town":"関柴町下柴","koaza":"天神前","lat":37.65872,"lng":139.911678,"zip":"9660012"},{"town":"塩川町金橋","koaza":"渕ノ上","lat":37.583604,"lng":139.913666,"zip":"9693505"},{"town":"塩川町三吉","koaza":"宮ノ目","lat":37.626315,"lng":139.913056,"zip":"9693501"},{"town":"関柴町関柴","koaza":"高橋","lat":37.667537,"lng":139.913617,"zip":"9660011"},{"town":"塩川町中屋沢","koaza":"田中","lat":37.601538,"lng":139.914998,"zip":"9693504"},{"town":"関柴町下柴","koaza":"台","lat":37.667129,"lng":139.914392,"zip":"9660012"},{"town":"熊倉町熊倉","koaza":"舞台田","lat":37.635039,"lng":139.913325,"zip":"9660024"},{"town":"熊倉町熊倉","koaza":"八丁","lat":37.641296,"lng":139.915092,"zip":"9660024"},{"town":"塩川町常世","koaza":"上村","lat":37.614855,"lng":139.913703,"zip":"9693502"},{"town":"関柴町豊芦","koaza":"道下","lat":37.64552,"lng":139.913919,"zip":"9660013"},{"town":"塩川町中屋沢","koaza":"竹屋","lat":37.602924,"lng":139.917083,"zip":"9693504"},{"town":"熊倉町熊倉","koaza":"下川原","lat":37.633801,"lng":139.915175,"zip":"9660024"},{"town":"熊倉町新合","koaza":"金沢丙","lat":37.624634,"lng":139.91874,"zip":"9660023"},{"town":"関柴町下柴","koaza":"道尻","lat":37.657424,"lng":139.91585,"zip":"9660012"},{"town":"関柴町下柴","koaza":"樋口","lat":37.668254,"lng":139.917408,"zip":"9660012"},{"town":"熊倉町熊倉","koaza":"熊倉","lat":37.640565,"lng":139.923197,"zip":"9660024"},{"town":"塩川町三吉","koaza":"比丘尼屋敷","lat":37.624615,"lng":139.917019,"zip":"9693501"},{"town":"関柴町下柴","koaza":"小松","lat":37.664646,"lng":139.917777,"zip":"9660012"},{"town":"熊倉町熊倉","koaza":"大竹","lat":37.643431,"lng":139.921643,"zip":"9660024"},{"town":"塩川町三吉","koaza":"大道上","lat":37.620339,"lng":139.919157,"zip":"9693501"},{"town":"熊倉町熊倉","koaza":"宮西端","lat":37.641761,"lng":139.919903,"zip":"9660024"},{"town":"熊倉町熊倉","koaza":"西裏","lat":37.640789,"lng":139.921849,"zip":"9660024"},{"town":"熊倉町新合","koaza":"小沼甲","lat":37.632715,"lng":139.922265,"zip":"9660023"},{"town":"熊倉町都","koaza":"高柳乙","lat":37.638373,"lng":139.925557,"zip":"9660021"},{"town":"熊倉町新合","koaza":"辻道下甲","lat":37.629248,"lng":139.921848,"zip":"9660023"},{"town":"熊倉町熊倉","koaza":"杉ノ下","lat":37.6444,"lng":139.924419,"zip":"9660024"},{"town":"熊倉町都","koaza":"村中甲","lat":37.636513,"lng":139.924814,"zip":"9660021"},{"town":"塩川町五合","koaza":"松崎","lat":37.606888,"lng":139.92612,"zip":"9693503"},{"town":"塩川町五合","koaza":"森ノ下","lat":37.610458,"lng":139.92691,"zip":"9693503"},{"town":"塩川町五合","koaza":"上原","lat":37.613047,"lng":139.927825,"zip":"9693503"},{"town":"熊倉町都","koaza":"宮ノ前丙","lat":37.644078,"lng":139.933984,"zip":"9660021"},{"town":"塩川町常世","koaza":"蟹沢","lat":37.614955,"lng":139.929159,"zip":"9693502"},{"town":"塩川町常世","koaza":"下山ノ神","lat":37.614052,"lng":139.930186,"zip":"9693502"},{"town":"熊倉町都","koaza":"輪具丙","lat":37.646632,"lng":139.93702,"zip":"9660021"},{"town":"熱塩加納町山田","koaza":"山新田","lat":37.721536,"lng":139.878888,"zip":"9660102"},{"town":"松山町鳥見山","koaza":"三町歩","lat":37.708128,"lng":139.883968,"zip":"9660901"},{"town":"松山町鳥見山","koaza":"三百苅","lat":37.703873,"lng":139.878005,"zip":"9660901"},{"town":"熱塩加納町宮川","koaza":"並桜","lat":37.698776,"lng":139.847547,"zip":"9660105"},{"town":"熱塩加納町宮川","koaza":"墓ノ西","lat":37.699833,"lng":139.84365,"zip":"9660105"},{"town":"熱塩加納町宮川","koaza":"南原","lat":37.69932,"lng":139.843147,"zip":"9660105"},{"town":"上三宮町三谷","koaza":"老家","lat":37.694057,"lng":139.839006,"zip":"9660933"},{"town":"上三宮町三谷","koaza":"譲屋","lat":37.687366,"lng":139.843817,"zip":"9660933"},{"town":"上三宮町三谷","koaza":"南宅地","lat":37.688439,"lng":139.845471,"zip":"9660933"},{"town":"上三宮町三谷","koaza":"山本東","lat":37.68911,"lng":139.842002,"zip":"9660933"},{"town":"上三宮町三谷","koaza":"馬場ノ上","lat":37.678634,"lng":139.843239,"zip":"9660933"},{"town":"上三宮町三谷","koaza":"般若田道上","lat":37.678843,"lng":139.844072,"zip":"9660933"},{"town":"上三宮町吉川","koaza":"越法田","lat":37.666745,"lng":139.846913,"zip":"9660932"},{"town":"上三宮町吉川","koaza":"清水尻","lat":37.661158,"lng":139.850875,"zip":"9660932"},{"town":"上三宮町吉川","koaza":"開伝原","lat":37.660137,"lng":139.851906,"zip":"9660932"},{"town":"松山町大飯坂","koaza":"山郷道下","lat":37.650746,"lng":139.85478,"zip":"9660903"},{"town":"慶徳町松舞家","koaza":"中台","lat":37.652801,"lng":139.852451,"zip":"9660921"},{"town":"慶徳町松舞家","koaza":"中原","lat":37.651428,"lng":139.851315,"zip":"9660921"},{"town":"松山町大飯坂","koaza":"坂井","lat":37.653095,"lng":139.858249,"zip":"9660903"},{"town":"松山町大飯坂","koaza":"小荒井道上","lat":37.653553,"lng":139.860931,"zip":"9660903"},{"town":"豊川町米室","koaza":"赤稲田","lat":37.642727,"lng":139.873354,"zip":"9660914"},{"town":"豊川町米室","koaza":"大上川原","lat":37.644293,"lng":139.876865,"zip":"9660914"},{"town":"関柴町上高額","koaza":"広面","lat":37.645429,"lng":139.877878,"zip":"9660015"},{"town":"松山町大飯坂","koaza":"南黒沢","lat":37.66068,"lng":139.858029,"zip":"9660903"},{"town":"松山町大飯坂","koaza":"見頃道下","lat":37.659369,"lng":139.857747,"zip":"9660903"},{"town":"豊川町米室","koaza":"二本杉","lat":37.643995,"lng":139.871451,"zip":"9660914"},{"town":"豊川町米室","koaza":"志津","lat":37.641099,"lng":139.87262,"zip":"9660914"},{"town":"豊川町米室","koaza":"地宗作","lat":37.639556,"lng":139.874526,"zip":"9660914"},{"town":"豊川町米室","koaza":"宮ノ中","lat":37.634611,"lng":139.874038,"zip":"9660914"},{"town":"豊川町米室","koaza":"樋ノ下","lat":37.634128,"lng":139.874063,"zip":"9660914"},{"town":"豊川町米室","koaza":"谷地田","lat":37.634799,"lng":139.874946,"zip":"9660914"},{"town":"豊川町一井","koaza":"間々ノ上","lat":37.632134,"lng":139.874959,"zip":"9660912"},{"town":"豊川町一井","koaza":"千苅","lat":37.630685,"lng":139.878905,"zip":"9660912"},{"town":"豊川町一井","koaza":"古屋敷","lat":37.631952,"lng":139.875802,"zip":"9660912"},{"town":"豊川町一井","koaza":"八百苅","lat":37.634503,"lng":139.876982,"zip":"9660912"},{"town":"豊川町一井","koaza":"才ノ神","lat":37.634098,"lng":139.878365,"zip":"9660912"},{"town":"豊川町一井","koaza":"三百苅","lat":37.632808,"lng":139.876064,"zip":"9660912"},{"town":"豊川町一井","koaza":"前田","lat":37.623733,"lng":139.876418,"zip":"9660912"},{"town":"関柴町上高額","koaza":"境田","lat":37.6471,"lng":139.88214,"zip":"9660015"},{"town":"関柴町上高額","koaza":"新堀","lat":37.646724,"lng":139.887739,"zip":"9660015"},{"town":"関柴町上高額","koaza":"ネハコ","lat":37.638948,"lng":139.886135,"zip":"9660015"},{"town":"関柴町上高額","koaza":"前田","lat":37.641677,"lng":139.885453,"zip":"9660015"},{"town":"関柴町上高額","koaza":"樋口","lat":37.645233,"lng":139.885419,"zip":"9660015"},{"town":"関柴町上高額","koaza":"北町","lat":37.647989,"lng":139.887086,"zip":"9660015"},{"town":"関柴町上高額","koaza":"大分","lat":37.646176,"lng":139.892882,"zip":"9660015"},{"town":"関柴町西勝","koaza":"砂田","lat":37.636829,"lng":139.892274,"zip":"9660014"},{"town":"関柴町西勝","koaza":"唐八","lat":37.636432,"lng":139.892969,"zip":"9660014"},{"town":"関柴町西勝","koaza":"五百苅","lat":37.635384,"lng":139.890374,"zip":"9660014"},{"town":"関柴町西勝","koaza":"鴨屋敷","lat":37.632771,"lng":139.889825,"zip":"9660014"},{"town":"豊川町高堂太","koaza":"西前田","lat":37.624194,"lng":139.892437,"zip":"9660911"},{"town":"豊川町高堂太","koaza":"矢剥","lat":37.62705,"lng":139.89331,"zip":"9660911"},{"town":"塩川町源太屋敷","koaza":"早稲田","lat":37.62048,"lng":139.883881,"zip":"9693539"},{"town":"塩川町新江木","koaza":"村北","lat":37.616953,"lng":139.885375,"zip":"9693533"},{"town":"塩川町新江木","koaza":"高木","lat":37.611715,"lng":139.891672,"zip":"9693533"},{"town":"塩川町新江木","koaza":"駒形","lat":37.604692,"lng":139.885132,"zip":"9693533"},{"town":"塩川町","koaza":"諏訪前","lat":37.602069,"lng":139.885527,"zip":"9693538"},{"town":"塩川町","koaza":"藤ノ木","lat":37.599184,"lng":139.89216,"zip":"9693538"},{"town":"塩川町","koaza":"高道","lat":37.600011,"lng":139.891613,"zip":"9693538"},{"town":"塩川町","koaza":"舘ノ内","lat":37.593633,"lng":139.887025,"zip":"9693538"},{"town":"塩川町","koaza":"清水岸","lat":37.591832,"lng":139.888229,"zip":"9693538"},{"town":"塩川町新江木","koaza":"角庄","lat":37.603685,"lng":139.881044,"zip":"9693533"},{"town":"熱塩加納町山田","koaza":"元屋敷","lat":37.713555,"lng":139.880271,"zip":"9660102"},{"town":"熱塩加納町山田","koaza":"羽山","lat":37.714964,"lng":139.880283,"zip":"9660102"},{"town":"熱塩加納町加納","koaza":"堰上","lat":37.700103,"lng":139.857065,"zip":"9660103"},{"town":"熱塩加納町加納","koaza":"中道下","lat":37.70021,"lng":139.85809,"zip":"9660103"},{"town":"熱塩加納町加納","koaza":"白五輪","lat":37.699244,"lng":139.858161,"zip":"9660103"},{"town":"熱塩加納町加納","koaza":"柿木田","lat":37.699477,"lng":139.855867,"zip":"9660103"},{"town":"熱塩加納町加納","koaza":"鷲田境","lat":37.699651,"lng":139.856613,"zip":"9660103"},{"town":"熱塩加納町加納","koaza":"舞台田","lat":37.698322,"lng":139.858156,"zip":"9660103"},{"town":"熱塩加納町加納","koaza":"竹ノ花","lat":37.695589,"lng":139.856203,"zip":"9660103"},{"town":"熱塩加納町加納","koaza":"五十苅","lat":37.697872,"lng":139.856957,"zip":"9660103"},{"town":"熱塩加納町加納","koaza":"根ノ上","lat":37.696926,"lng":139.85676,"zip":"9660103"},{"town":"熱塩加納町加納","koaza":"大道下","lat":37.693507,"lng":139.853305,"zip":"9660103"},{"town":"熱塩加納町加納","koaza":"舘ノ北","lat":37.694065,"lng":139.856528,"zip":"9660103"},{"town":"熱塩加納町加納","koaza":"舘ノ東","lat":37.690747,"lng":139.857121,"zip":"9660103"},{"town":"熱塩加納町加納","koaza":"下原道西","lat":37.691933,"lng":139.858163,"zip":"9660103"},{"town":"熱塩加納町加納","koaza":"下原道下","lat":37.6908,"lng":139.858234,"zip":"9660103"},{"town":"松山町鳥見山","koaza":"大道東下ノ切","lat":37.696911,"lng":139.875328,"zip":"9660901"},{"town":"松山町鳥見山","koaza":"四方屋敷","lat":37.694087,"lng":139.872453,"zip":"9660901"},{"town":"上三宮町上三宮","koaza":"切境","lat":37.693427,"lng":139.867619,"zip":"9660931"},{"town":"松山町鳥見山","koaza":"中屋敷","lat":37.690216,"lng":139.872383,"zip":"9660901"},{"town":"上三宮町上三宮","koaza":"東川原","lat":37.684363,"lng":139.866917,"zip":"9660931"},{"town":"上三宮町上三宮","koaza":"村東一","lat":37.684512,"lng":139.865407,"zip":"9660931"},{"town":"上三宮町上三宮","koaza":"八日町道上","lat":37.685648,"lng":139.859844,"zip":"9660931"},{"town":"上三宮町上三宮","koaza":"山王下","lat":37.687253,"lng":139.859621,"zip":"9660931"},{"town":"上三宮町上三宮","koaza":"諏訪林","lat":37.686365,"lng":139.86132,"zip":"9660931"},{"town":"上三宮町三谷","koaza":"村北道南","lat":37.68855,"lng":139.84235,"zip":"9660933"},{"town":"上三宮町三谷","koaza":"西宅地","lat":37.686647,"lng":139.843611,"zip":"9660933"},{"town":"上三宮町三谷","koaza":"村南","lat":37.686687,"lng":139.844508,"zip":"9660933"},{"town":"上三宮町上三宮","koaza":"堰上","lat":37.685251,"lng":139.860947,"zip":"9660931"},{"town":"上三宮町上三宮","koaza":"村尻大道下","lat":37.683292,"lng":139.864559,"zip":"9660931"},{"town":"松山町村松","koaza":"町尻","lat":37.6689,"lng":139.872521,"zip":"9660902"},{"town":"松山町村松","koaza":"大坪","lat":37.669498,"lng":139.872643,"zip":"9660902"},{"town":"松山町村松","koaza":"石田","lat":37.668371,"lng":139.870808,"zip":"9660902"},{"town":"松山町大飯坂","koaza":"飯田","lat":37.664382,"lng":139.864907,"zip":"9660903"},{"town":"松山町村松","koaza":"小荒井道西","lat":37.663556,"lng":139.870946,"zip":"9660902"},{"town":"岩月町喜多方","koaza":"下り堀上","lat":37.666344,"lng":139.886217,"zip":"9660004"},{"town":"岩月町喜多方","koaza":"林崎","lat":37.668236,"lng":139.887739,"zip":"9660004"},{"town":"岩月町宮津","koaza":"西原","lat":37.66793,"lng":139.888607,"zip":"9660002"},{"town":"岩月町宮津","koaza":"家ノ前","lat":37.675884,"lng":139.894738,"zip":"9660002"},{"town":"岩月町宮津","koaza":"原ノ坊","lat":37.676881,"lng":139.891931,"zip":"9660002"},{"town":"岩月町宮津","koaza":"若宮","lat":37.673422,"lng":139.890907,"zip":"9660002"},{"town":"岩月町宮津","koaza":"弘海壇","lat":37.67218,"lng":139.889731,"zip":"9660002"},{"town":"熱塩加納町加納","koaza":"北原","lat":37.69818,"lng":139.859175,"zip":"9660103"},{"town":"熱塩加納町加納","koaza":"鷲田","lat":37.697187,"lng":139.858165,"zip":"9660103"},{"town":"熱塩加納町加納","koaza":"藤平田","lat":37.693527,"lng":139.856644,"zip":"9660103"},{"town":"松山町鳥見山","koaza":"村北","lat":37.689591,"lng":139.874847,"zip":"9660901"},{"town":"松山町鳥見山","koaza":"上中村道上","lat":37.687818,"lng":139.875638,"zip":"9660901"},{"town":"松山町鳥見山","koaza":"上中村道下","lat":37.686253,"lng":139.876594,"zip":"9660901"},{"town":"松山町鳥見山","koaza":"中井戸尻","lat":37.685197,"lng":139.873896,"zip":"9660901"},{"town":"松山町鳥見山","koaza":"上井戸尻","lat":37.6866,"lng":139.874858,"zip":"9660901"},{"town":"松山町鳥見山","koaza":"山ノ神","lat":37.688722,"lng":139.881252,"zip":"9660901"},{"town":"岩月町大都","koaza":"石神","lat":37.685377,"lng":139.886039,"zip":"9660005"},{"town":"岩月町大都","koaza":"中川原後","lat":37.683008,"lng":139.884983,"zip":"9660005"},{"town":"岩月町大都","koaza":"宮ノ前","lat":37.686509,"lng":139.888034,"zip":"9660005"},{"town":"岩月町大都","koaza":"番状免","lat":37.68934,"lng":139.888796,"zip":"9660005"},{"town":"岩月町宮津","koaza":"寺山","lat":37.686128,"lng":139.900727,"zip":"9660002"},{"town":"関柴町関柴","koaza":"赤坂","lat":37.669523,"lng":139.906283,"zip":"9660011"},{"town":"松山町鳥見山","koaza":"大豆田","lat":37.686819,"lng":139.873315,"zip":"9660901"},{"town":"松山町鳥見山","koaza":"街道東","lat":37.685678,"lng":139.872135,"zip":"9660901"},{"town":"松山町鳥見山","koaza":"太夫屋敷","lat":37.691971,"lng":139.880416,"zip":"9660901"},{"town":"関柴町下柴","koaza":"的場","lat":37.661163,"lng":139.914358,"zip":"9660012"},{"town":"関柴町下柴","koaza":"芝原前","lat":37.662404,"lng":139.917511,"zip":"9660012"},{"town":"関柴町下柴","koaza":"東住","lat":37.659017,"lng":139.914869,"zip":"9660012"},{"town":"関柴町平林","koaza":"土合","lat":37.657593,"lng":139.906504,"zip":"9660016"},{"town":"関柴町三津井","koaza":"唐八","lat":37.651611,"lng":139.902434,"zip":"9660017"},{"town":"関柴町三津井","koaza":"堰下","lat":37.652306,"lng":139.903783,"zip":"9660017"},{"town":"関柴町三津井","koaza":"前田","lat":37.647914,"lng":139.897412,"zip":"9660017"},{"town":"関柴町三津井","koaza":"西巻田","lat":37.6472,"lng":139.89882,"zip":"9660017"},{"town":"関柴町三津井","koaza":"堂ノ下","lat":37.647925,"lng":139.896185,"zip":"9660017"},{"town":"岩月町喜多方","koaza":"稲村","lat":37.666247,"lng":139.88436,"zip":"9660004"},{"town":"岩月町宮津","koaza":"馬場","lat":37.663607,"lng":139.892683,"zip":"9660002"},{"town":"関柴町関柴","koaza":"赤坂前","lat":37.66827,"lng":139.90682,"zip":"9660011"},{"town":"関柴町関柴","koaza":"戊亥谷地","lat":37.667369,"lng":139.906593,"zip":"9660011"},{"town":"関柴町関柴","koaza":"村東","lat":37.666422,"lng":139.910848,"zip":"9660011"},{"town":"関柴町下柴","koaza":"家ノ後","lat":37.666526,"lng":139.920569,"zip":"9660012"},{"town":"関柴町下柴","koaza":"市道上","lat":37.659105,"lng":139.91659,"zip":"9660012"},{"town":"関柴町下柴","koaza":"山道上","lat":37.660389,"lng":139.917575,"zip":"9660012"},{"town":"関柴町三津井","koaza":"京出","lat":37.649823,"lng":139.902862,"zip":"9660017"},{"town":"関柴町三津井","koaza":"原前","lat":37.647482,"lng":139.901544,"zip":"9660017"},{"town":"関柴町西勝","koaza":"三島","lat":37.639527,"lng":139.900347,"zip":"9660014"},{"town":"関柴町西勝","koaza":"宮ノ下","lat":37.640562,"lng":139.899574,"zip":"9660014"},{"town":"関柴町三津井","koaza":"原田前","lat":37.64929,"lng":139.895364,"zip":"9660017"},{"town":"松山町鳥見山","koaza":"下中村道下","lat":37.683802,"lng":139.876284,"zip":"9660901"},{"town":"松山町村松","koaza":"行人壇","lat":37.676098,"lng":139.874353,"zip":"9660902"},{"town":"松山町村松","koaza":"上原","lat":37.678365,"lng":139.875045,"zip":"9660902"},{"town":"松山町鳥見山","koaza":"桜清水","lat":37.675561,"lng":139.875858,"zip":"9660901"},{"town":"松山町鳥見山","koaza":"百目北","lat":37.675907,"lng":139.877614,"zip":"9660901"},{"town":"岩月町大都","koaza":"舘ノ内","lat":37.676284,"lng":139.880195,"zip":"9660005"},{"town":"岩月町大都","koaza":"阿合","lat":37.675266,"lng":139.879896,"zip":"9660005"},{"town":"岩月町大都","koaza":"諏訪前","lat":37.673428,"lng":139.881038,"zip":"9660005"},{"town":"岩月町大都","koaza":"田向","lat":37.672861,"lng":139.881755,"zip":"9660005"},{"town":"岩月町宮津","koaza":"西荒田","lat":37.676855,"lng":139.893577,"zip":"9660002"},{"town":"岩月町宮津","koaza":"小原","lat":37.677788,"lng":139.892702,"zip":"9660002"},{"town":"岩月町宮津","koaza":"火付沢","lat":37.678137,"lng":139.902164,"zip":"9660002"},{"town":"岩月町宮津","koaza":"北原","lat":37.674216,"lng":139.901229,"zip":"9660002"},{"town":"岩月町宮津","koaza":"堤田","lat":37.672427,"lng":139.900434,"zip":"9660002"},{"town":"岩月町宮津","koaza":"飛屋敷","lat":37.67112,"lng":139.896807,"zip":"9660002"},{"town":"岩月町宮津","koaza":"滝川前","lat":37.667595,"lng":139.894935,"zip":"9660002"},{"town":"岩月町宮津","koaza":"宮東","lat":37.666874,"lng":139.893738,"zip":"9660002"},{"town":"岩月町宮津","koaza":"西ノ後","lat":37.667536,"lng":139.892031,"zip":"9660002"},{"town":"岩月町宮津","koaza":"小市作","lat":37.664447,"lng":139.891169,"zip":"9660002"},{"town":"岩月町宮津","koaza":"台","lat":37.664777,"lng":139.893674,"zip":"9660002"},{"town":"岩月町宮津","koaza":"下村前","lat":37.662969,"lng":139.890105,"zip":"9660002"},{"town":"岩月町宮津","koaza":"下村","lat":37.663927,"lng":139.891617,"zip":"9660002"},{"town":"岩月町橿野","koaza":"台畑","lat":37.661867,"lng":139.897796,"zip":"9660003"},{"town":"岩月町喜多方","koaza":"渕ノ下","lat":37.659587,"lng":139.881634,"zip":"9660004"},{"town":"関柴町平林","koaza":"八幡","lat":37.65869,"lng":139.909058,"zip":"9660016"},{"town":"関柴町平林","koaza":"五厘","lat":37.658916,"lng":139.908031,"zip":"9660016"},{"town":"関柴町平林","koaza":"古屋敷","lat":37.65728,"lng":139.90856,"zip":"9660016"},{"town":"熊倉町熊倉","koaza":"クネ添","lat":37.643181,"lng":139.923255,"zip":"9660024"},{"town":"熊倉町熊倉","koaza":"柳内","lat":37.644513,"lng":139.927867,"zip":"9660024"},{"town":"熊倉町熊倉","koaza":"物江","lat":37.644413,"lng":139.930704,"zip":"9660024"},{"town":"熊倉町熊倉","koaza":"壇ノ前","lat":37.642272,"lng":139.92277,"zip":"9660024"},{"town":"熊倉町熊倉","koaza":"宮西","lat":37.642422,"lng":139.921547,"zip":"9660024"},{"town":"熊倉町都","koaza":"三百苅乙","lat":37.639546,"lng":139.927555,"zip":"9660021"},{"town":"熊倉町都","koaza":"諏訪後乙","lat":37.640489,"lng":139.926114,"zip":"9660021"},{"town":"熊倉町都","koaza":"町尻東乙","lat":37.636853,"lng":139.92375,"zip":"9660021"},{"town":"熊倉町新合","koaza":"村東甲","lat":37.631457,"lng":139.922023,"zip":"9660023"},{"town":"熊倉町新合","koaza":"辻乙","lat":37.627939,"lng":139.919569,"zip":"9660023"},{"town":"熊倉町新合","koaza":"羽黒森","lat":37.625449,"lng":139.920675,"zip":"9660023"},{"town":"熊倉町熊倉","koaza":"柳原添","lat":37.633997,"lng":139.911921,"zip":"9660024"},{"town":"塩川町三吉","koaza":"堂ノ前","lat":37.629565,"lng":139.910532,"zip":"9693501"},{"town":"塩川町三吉","koaza":"台ノ目","lat":37.628194,"lng":139.906706,"zip":"9693501"},{"town":"塩川町三吉","koaza":"冠木","lat":37.627362,"lng":139.90524,"zip":"9693501"},{"town":"塩川町三吉","koaza":"沢田","lat":37.624562,"lng":139.904513,"zip":"9693501"},{"town":"塩川町三吉","koaza":"風田","lat":37.624127,"lng":139.905993,"zip":"9693501"},{"town":"関柴町豊芦","koaza":"村前","lat":37.632051,"lng":139.902017,"zip":"9660013"},{"town":"上三宮町上三宮","koaza":"寺田","lat":37.682315,"lng":139.866284,"zip":"9660931"},{"town":"松山町鳥見山","koaza":"川原田","lat":37.682463,"lng":139.872176,"zip":"9660901"},{"town":"松山町鳥見山","koaza":"五郎四郎","lat":37.677235,"lng":139.872994,"zip":"9660901"},{"town":"松山町鳥見山","koaza":"上堰下","lat":37.680247,"lng":139.870894,"zip":"9660901"},{"town":"岩月町橿野","koaza":"中堀","lat":37.656317,"lng":139.891229,"zip":"9660003"},{"town":"岩月町橿野","koaza":"台","lat":37.657103,"lng":139.892716,"zip":"9660003"},{"town":"岩月町橿野","koaza":"前","lat":37.655807,"lng":139.893118,"zip":"9660003"},{"town":"岩月町橿野","koaza":"上前田","lat":37.661354,"lng":139.89575,"zip":"9660003"},{"town":"関柴町平林","koaza":"井戸尻","lat":37.661327,"lng":139.90091,"zip":"9660016"},{"town":"関柴町平林","koaza":"反田","lat":37.657543,"lng":139.90414,"zip":"9660016"},{"town":"関柴町平林","koaza":"地利前","lat":37.657664,"lng":139.905292,"zip":"9660016"},{"town":"関柴町平林","koaza":"姥柳","lat":37.660828,"lng":139.901911,"zip":"9660016"},{"town":"関柴町関柴","koaza":"姥柳","lat":37.662458,"lng":139.902687,"zip":"9660011"},{"town":"関柴町平林","koaza":"関田","lat":37.661014,"lng":139.903597,"zip":"9660016"},{"town":"関柴町平林","koaza":"前田","lat":37.658571,"lng":139.901594,"zip":"9660016"},{"town":"関柴町平林","koaza":"本坊","lat":37.658891,"lng":139.899705,"zip":"9660016"},{"town":"岩月町橿野","koaza":"三ツ堀","lat":37.658352,"lng":139.892485,"zip":"9660003"},{"town":"岩月町橿野","koaza":"下台北","lat":37.659331,"lng":139.893951,"zip":"9660003"},{"town":"岩月町橿野","koaza":"下台前","lat":37.653049,"lng":139.888996,"zip":"9660003"},{"town":"岩月町橿野","koaza":"遠下前","lat":37.649158,"lng":139.889413,"zip":"9660003"},{"town":"岩月町橿野","koaza":"土用在家","lat":37.653153,"lng":139.889398,"zip":"9660003"},{"town":"関柴町西勝","koaza":"舘ノ内","lat":37.638041,"lng":139.890955,"zip":"9660014"},{"town":"関柴町西勝","koaza":"清水尻","lat":37.637371,"lng":139.891152,"zip":"9660014"},{"town":"関柴町西勝","koaza":"下勝南","lat":37.635301,"lng":139.891602,"zip":"9660014"},{"town":"豊川町米室","koaza":"道端","lat":37.643068,"lng":139.872202,"zip":"9660914"},{"town":"豊川町米室","koaza":"上川原","lat":37.641001,"lng":139.874112,"zip":"9660914"},{"town":"豊川町米室","koaza":"遠瀬戸","lat":37.636848,"lng":139.871178,"zip":"9660914"},{"town":"豊川町米室","koaza":"地蔵免","lat":37.637752,"lng":139.876547,"zip":"9660914"},{"town":"関柴町下柴","koaza":"後田","lat":37.660297,"lng":139.913976,"zip":"9660012"},{"town":"関柴町下柴","koaza":"大門口","lat":37.659191,"lng":139.914294,"zip":"9660012"},{"town":"松山町鳥見山","koaza":"下原","lat":37.679233,"lng":139.872455,"zip":"9660901"},{"town":"上三宮町吉川","koaza":"井戸尻","lat":37.674032,"lng":139.855986,"zip":"9660932"},{"town":"上三宮町吉川","koaza":"川原田","lat":37.667647,"lng":139.857028,"zip":"9660932"},{"town":"上三宮町吉川","koaza":"上新田","lat":37.667676,"lng":139.85614,"zip":"9660932"},{"town":"上三宮町吉川","koaza":"中川原","lat":37.667829,"lng":139.848045,"zip":"9660932"},{"town":"上三宮町吉川","koaza":"橋向","lat":37.668404,"lng":139.847096,"zip":"9660932"},{"town":"松山町大飯坂","koaza":"堀向","lat":37.665804,"lng":139.861479,"zip":"9660903"},{"town":"松山町大飯坂","koaza":"下川端","lat":37.669816,"lng":139.864434,"zip":"9660903"},{"town":"松山町鳥見山","koaza":"二貫分前","lat":37.672618,"lng":139.877753,"zip":"9660901"},{"town":"松山町鳥見山","koaza":"沢田","lat":37.671766,"lng":139.876312,"zip":"9660901"},{"town":"松山町大飯坂","koaza":"山道","lat":37.671982,"lng":139.86251,"zip":"9660903"},{"town":"岩月町喜多方","koaza":"稲村西","lat":37.664984,"lng":139.882549,"zip":"9660004"},{"town":"岩月町喜多方","koaza":"北井戸尻","lat":37.663735,"lng":139.883586,"zip":"9660004"},{"town":"岩月町喜多方","koaza":"鬼渡","lat":37.663581,"lng":139.882367,"zip":"9660004"},{"town":"岩月町喜多方","koaza":"別免桜壇","lat":37.661957,"lng":139.881859,"zip":"9660004"},{"town":"塩川町","koaza":"反町","lat":37.594775,"lng":139.888394,"zip":"9693538"},{"town":"塩川町","koaza":"西岡","lat":37.597642,"lng":139.88535,"zip":"9693538"},{"town":"塩川町新江木","koaza":"岡田","lat":37.606224,"lng":139.881802,"zip":"9693533"},{"town":"豊川町沢部","koaza":"宮下","lat":37.616844,"lng":139.855396,"zip":"9660913"},{"town":"塩川町四奈川","koaza":"三百刈","lat":37.610345,"lng":139.854553,"zip":"9693537"},{"town":"慶徳町豊岡","koaza":"重壇","lat":37.624475,"lng":139.839908,"zip":"9660922"},{"town":"慶徳町新宮","koaza":"前田道南","lat":37.62143,"lng":139.837716,"zip":"9660923"},{"town":"慶徳町新宮","koaza":"舘内","lat":37.621158,"lng":139.836201,"zip":"9660923"},{"town":"慶徳町新宮","koaza":"熊野","lat":37.619209,"lng":139.8313,"zip":"9660923"},{"town":"慶徳町新宮","koaza":"水上","lat":37.620642,"lng":139.832579,"zip":"9660923"},{"town":"慶徳町山科","koaza":"天神塚","lat":37.613798,"lng":139.828015,"zip":"9660924"},{"town":"慶徳町山科","koaza":"二渡","lat":37.609641,"lng":139.822237,"zip":"9660924"},{"town":"慶徳町山科","koaza":"蔵東","lat":37.609297,"lng":139.821824,"zip":"9660924"},{"town":"塩川町吉沖","koaza":"東袋","lat":37.610208,"lng":139.86886,"zip":"9693539"},{"town":"塩川町五合","koaza":"横道下","lat":37.612558,"lng":139.924925,"zip":"9693503"},{"town":"塩川町五合","koaza":"家ノ前","lat":37.612297,"lng":139.926364,"zip":"9693503"},{"town":"塩川町新井田谷地","koaza":"古内","lat":37.613298,"lng":139.879341,"zip":"9693531"},{"town":"塩川町源太屋敷","koaza":"大道端","lat":37.613607,"lng":139.881514,"zip":"9693539"},{"town":"塩川町新井田谷地","koaza":"火畑田","lat":37.616187,"lng":139.877518,"zip":"9693531"},{"town":"豊川町一井","koaza":"井後田","lat":37.619837,"lng":139.875219,"zip":"9660912"},{"town":"豊川町一井","koaza":"入宇田","lat":37.630307,"lng":139.875307,"zip":"9660912"},{"town":"豊川町沢部","koaza":"荒分","lat":37.625246,"lng":139.869042,"zip":"9660913"},{"town":"豊川町沢部","koaza":"於申壇","lat":37.626332,"lng":139.869285,"zip":"9660913"},{"town":"豊川町一井","koaza":"犬坊作","lat":37.629626,"lng":139.872569,"zip":"9660912"},{"town":"豊川町一井","koaza":"笊田","lat":37.624003,"lng":139.874482,"zip":"9660912"},{"town":"豊川町一井","koaza":"御伊勢前","lat":37.624798,"lng":139.875983,"zip":"9660912"},{"town":"豊川町一井","koaza":"六百苅","lat":37.623498,"lng":139.875436,"zip":"9660912"},{"town":"豊川町一井","koaza":"下川原","lat":37.626767,"lng":139.867613,"zip":"9660912"},{"town":"塩川町大田木","koaza":"上屋敷","lat":37.615156,"lng":139.84241,"zip":"9693536"},{"town":"慶徳町豊岡","koaza":"木曽原","lat":37.635429,"lng":139.837228,"zip":"9660922"},{"town":"慶徳町松舞家","koaza":"一本柳","lat":37.641704,"lng":139.851232,"zip":"9660921"},{"town":"豊川町米室","koaza":"二条川原","lat":37.640707,"lng":139.855412,"zip":"9660914"},{"town":"豊川町米室","koaza":"宮ノ西","lat":37.64056,"lng":139.855945,"zip":"9660914"},{"town":"豊川町米室","koaza":"宮ノ前","lat":37.641019,"lng":139.857362,"zip":"9660914"},{"town":"豊川町米室","koaza":"西谷地","lat":37.642678,"lng":139.859125,"zip":"9660914"},{"town":"豊川町米室","koaza":"宮ノ下","lat":37.639224,"lng":139.855269,"zip":"9660914"},{"town":"慶徳町豊岡","koaza":"京八田","lat":37.632768,"lng":139.845361,"zip":"9660922"},{"town":"豊川町米室","koaza":"前川原","lat":37.636242,"lng":139.872099,"zip":"9660914"},{"town":"豊川町米室","koaza":"大橋本","lat":37.636206,"lng":139.873372,"zip":"9660914"},{"town":"慶徳町松舞家","koaza":"石田","lat":37.653594,"lng":139.849102,"zip":"9660921"},{"town":"慶徳町松舞家","koaza":"道下","lat":37.654763,"lng":139.848702,"zip":"9660921"},{"town":"慶徳町松舞家","koaza":"上川原","lat":37.6578,"lng":139.852854,"zip":"9660921"},{"town":"慶徳町松舞家","koaza":"台ノ下","lat":37.654876,"lng":139.85127,"zip":"9660921"},{"town":"岩月町喜多方","koaza":"北村西","lat":37.665622,"lng":139.88181,"zip":"9660004"},{"town":"岩月町喜多方","koaza":"清水尻","lat":37.664394,"lng":139.885632,"zip":"9660004"},{"town":"関柴町平林","koaza":"文宅","lat":37.659603,"lng":139.905115,"zip":"9660016"},{"town":"関柴町三津井","koaza":"下政所","lat":37.650992,"lng":139.900281,"zip":"9660017"},{"town":"関柴町三津井","koaza":"東巻田","lat":37.648008,"lng":139.899998,"zip":"9660017"},{"town":"上三宮町吉川","koaza":"四分一","lat":37.666026,"lng":139.852342,"zip":"9660932"},{"town":"上三宮町吉川","koaza":"弥五作","lat":37.66658,"lng":139.852223,"zip":"9660932"},{"town":"上三宮町吉川","koaza":"北広畑","lat":37.664576,"lng":139.845985,"zip":"9660932"},{"town":"上三宮町吉川","koaza":"南広畑","lat":37.661964,"lng":139.8459,"zip":"9660932"},{"town":"上三宮町吉川","koaza":"瀧ノ沢","lat":37.66046,"lng":139.846179,"zip":"9660932"},{"town":"上三宮町吉川","koaza":"黒沢","lat":37.65767,"lng":139.855683,"zip":"9660932"},{"town":"松山町大飯坂","koaza":"五百苅","lat":37.653151,"lng":139.857579,"zip":"9660903"},{"town":"豊川町米室","koaza":"渕馬作","lat":37.645082,"lng":139.86199,"zip":"9660914"},{"town":"豊川町米室","koaza":"家ノ西","lat":37.644316,"lng":139.861422,"zip":"9660914"},{"town":"豊川町米室","koaza":"橋元","lat":37.64065,"lng":139.862652,"zip":"9660914"},{"town":"豊川町米室","koaza":"舘ノ越","lat":37.637076,"lng":139.868027,"zip":"9660914"},{"town":"岩月町喜多方","koaza":"桜壇道東","lat":37.663072,"lng":139.882595,"zip":"9660004"},{"town":"岩月町喜多方","koaza":"大橋本","lat":37.662871,"lng":139.883221,"zip":"9660004"},{"town":"岩月町喜多方","koaza":"深田","lat":37.661092,"lng":139.882571,"zip":"9660004"},{"town":"岩月町喜多方","koaza":"渕ノ上","lat":37.661418,"lng":139.881922,"zip":"9660004"},{"town":"岩月町喜多方","koaza":"北沢ノ目","lat":37.662307,"lng":139.879379,"zip":"9660004"},{"town":"岩月町宮津","koaza":"南谷地","lat":37.665553,"lng":139.894773,"zip":"9660002"},{"town":"岩月町宮津","koaza":"東谷地","lat":37.665715,"lng":139.894471,"zip":"9660002"},{"town":"岩月町橿野","koaza":"長面","lat":37.656097,"lng":139.896871,"zip":"9660003"},{"town":"関柴町平林","koaza":"深田","lat":37.655386,"lng":139.899011,"zip":"9660016"},{"town":"関柴町平林","koaza":"長尾佐","lat":37.654577,"lng":139.901094,"zip":"9660016"},{"town":"関柴町平林","koaza":"道西","lat":37.655649,"lng":139.902435,"zip":"9660016"},{"town":"関柴町平林","koaza":"新屋敷","lat":37.653671,"lng":139.899736,"zip":"9660016"},{"town":"豊川町米室","koaza":"中田","lat":37.640768,"lng":139.872905,"zip":"9660914"},{"town":"豊川町米室","koaza":"サカリ","lat":37.638266,"lng":139.871635,"zip":"9660914"},{"town":"豊川町米室","koaza":"若宮","lat":37.635991,"lng":139.868417,"zip":"9660914"},{"town":"豊川町米室","koaza":"村東","lat":37.63682,"lng":139.872543,"zip":"9660914"},{"town":"慶徳町松舞家","koaza":"若宮","lat":37.6485,"lng":139.847221,"zip":"9660921"},{"town":"慶徳町松舞家","koaza":"上田","lat":37.647966,"lng":139.846126,"zip":"9660921"},{"town":"慶徳町松舞家","koaza":"三貫堰","lat":37.641577,"lng":139.848284,"zip":"9660921"},{"town":"豊川町米室","koaza":"棘垣","lat":37.643896,"lng":139.856502,"zip":"9660914"},{"town":"豊川町米室","koaza":"山道下","lat":37.644981,"lng":139.85892,"zip":"9660914"},{"town":"慶徳町豊岡","koaza":"柳町","lat":37.63466,"lng":139.84501,"zip":"9660922"},{"town":"豊川町米室","koaza":"能力堰下","lat":37.638505,"lng":139.854958,"zip":"9660914"},{"town":"豊川町米室","koaza":"村前","lat":37.631234,"lng":139.861154,"zip":"9660914"},{"town":"豊川町米室","koaza":"車地蔵","lat":37.644365,"lng":139.859944,"zip":"9660914"},{"town":"関柴町西勝","koaza":"吉原","lat":37.64145,"lng":139.898598,"zip":"9660014"},{"town":"関柴町西勝","koaza":"谷地田","lat":37.640747,"lng":139.897893,"zip":"9660014"},{"town":"関柴町豊芦","koaza":"村西","lat":37.635475,"lng":139.900086,"zip":"9660013"},{"town":"豊川町高堂太","koaza":"東上川原","lat":37.628259,"lng":139.898622,"zip":"9660911"},{"town":"関柴町豊芦","koaza":"石仏","lat":37.632549,"lng":139.901056,"zip":"9660013"},{"town":"熊倉町熊倉","koaza":"高畑","lat":37.643369,"lng":139.928509,"zip":"9660024"},{"town":"関柴町平林","koaza":"七百苅","lat":37.654256,"lng":139.901935,"zip":"9660016"},{"town":"豊川町高堂太","koaza":"村東","lat":37.634657,"lng":139.888425,"zip":"9660911"},{"town":"関柴町西勝","koaza":"井戸尻","lat":37.633969,"lng":139.890638,"zip":"9660014"},{"town":"関柴町西勝","koaza":"古屋敷","lat":37.635217,"lng":139.889461,"zip":"9660014"},{"town":"豊川町高堂太","koaza":"穴田","lat":37.63144,"lng":139.888183,"zip":"9660911"},{"town":"豊川町米室","koaza":"仏ノ前","lat":37.63828,"lng":139.871039,"zip":"9660914"},{"town":"豊川町米室","koaza":"堰田","lat":37.638719,"lng":139.870393,"zip":"9660914"},{"town":"豊川町米室","koaza":"五条川原","lat":37.623391,"lng":139.846659,"zip":"9660914"},{"town":"松山町大飯坂","koaza":"西高侭","lat":37.664677,"lng":139.862973,"zip":"9660903"},{"town":"関柴町西勝","koaza":"大坪","lat":37.633353,"lng":139.892359,"zip":"9660014"},{"town":"塩川町大田木","koaza":"家の西","lat":37.611091,"lng":139.847206,"zip":"9693536"},{"town":"塩川町大田木","koaza":"橋本分","lat":37.612715,"lng":139.840072,"zip":"9693536"},{"town":"塩川町大田木","koaza":"田原","lat":37.612273,"lng":139.839787,"zip":"9693536"},{"town":"塩川町大田木","koaza":"中屋敷","lat":37.61351,"lng":139.839767,"zip":"9693536"},{"town":"慶徳町山科","koaza":"天神免","lat":37.610362,"lng":139.824875,"zip":"9660924"},{"town":"熊倉町熊倉","koaza":"大門","lat":37.64578,"lng":139.930352,"zip":"9660024"},{"town":"熊倉町都","koaza":"下川端丙","lat":37.648356,"lng":139.933047,"zip":"9660021"}]