[{"town":"松坂","koaza":"","lat":37.32511,"lng":139.765102,"zip":"9696200"},{"town":"福重岡","koaza":"","lat":37.427827,"lng":139.869784,"zip":"9696144"},{"town":"東尾岐","koaza":"","lat":37.364242,"lng":139.822565,"zip":"9696232"},{"town":"氷玉","koaza":"","lat":37.400916,"lng":139.873876,"zip":"9696143"},{"town":"宮川","koaza":"","lat":37.37116,"lng":139.771749,"zip":"9696243"},{"town":"大石","koaza":"","lat":37.430913,"lng":139.90423,"zip":"9696131"},{"town":"藤家舘","koaza":"","lat":37.430953,"lng":139.85528,"zip":"9696200"},{"town":"旭市川","koaza":"","lat":37.397326,"lng":139.852876,"zip":"9696222"},{"town":"旭寺入","koaza":"","lat":37.409854,"lng":139.839743,"zip":"9696223"},{"town":"旭無量","koaza":"","lat":37.406899,"lng":139.822876,"zip":"9696224"},{"town":"橋丸","koaza":"","lat":37.451356,"lng":139.867369,"zip":"9696211"},{"town":"字西沖","koaza":"","lat":37.443058,"lng":139.87272,"zip":"9696200"},{"town":"字堂ノ前","koaza":"","lat":37.446686,"lng":139.874001,"zip":"9696200"},{"town":"尾岐窪","koaza":"","lat":37.422386,"lng":139.809452,"zip":"9696231"},{"town":"西本","koaza":"","lat":37.413597,"lng":139.771533,"zip":"9696245"},{"town":"上平","koaza":"","lat":37.455546,"lng":139.74845,"zip":"9696407"},{"town":"米田","koaza":"","lat":37.501304,"lng":139.818955,"zip":"9696405"},{"town":"佐賀瀬川","koaza":"","lat":37.494509,"lng":139.787934,"zip":"9696406"},{"town":"鶴野辺","koaza":"","lat":37.503188,"lng":139.83473,"zip":"9696403"},{"town":"小沢","koaza":"","lat":37.516164,"lng":139.808362,"zip":"9696409"},{"town":"沼田","koaza":"","lat":37.513702,"lng":139.790597,"zip":"9696408"},{"town":"穂馬","koaza":"","lat":37.395325,"lng":139.902614,"zip":"9696135"},{"town":"大室","koaza":"","lat":37.400711,"lng":139.801085,"zip":"9696242"},{"town":"西尾","koaza":"","lat":37.406274,"lng":139.79206,"zip":"9696244"},{"town":"字村上","koaza":"","lat":37.441399,"lng":139.880336,"zip":"9696200"},{"town":"字三日町上","koaza":"","lat":37.444686,"lng":139.89655,"zip":"9696200"},{"town":"字東谷地","koaza":"","lat":37.448903,"lng":139.893272,"zip":"9696200"},{"town":"字中道下","koaza":"","lat":37.448824,"lng":139.889689,"zip":"9696200"},{"town":"字黒沢","koaza":"","lat":37.45012,"lng":139.881926,"zip":"9696200"},{"town":"字北浦","koaza":"","lat":37.451153,"lng":139.886382,"zip":"9696200"},{"town":"字瀬戸屋前","koaza":"","lat":37.45347,"lng":139.889002,"zip":"9696200"},{"town":"字松原際","koaza":"","lat":37.454359,"lng":139.889211,"zip":"9696200"},{"town":"字杉","koaza":"","lat":37.454959,"lng":139.88241,"zip":"9696200"},{"town":"字本郷前川原","koaza":"","lat":37.457782,"lng":139.88172,"zip":"9696200"},{"town":"字簗場上","koaza":"","lat":37.451881,"lng":139.895464,"zip":"9696200"},{"town":"字車川原","koaza":"","lat":37.452901,"lng":139.894687,"zip":"9696200"},{"town":"字思堀向","koaza":"","lat":37.456225,"lng":139.893098,"zip":"9696200"},{"town":"字上村東","koaza":"","lat":37.457332,"lng":139.902343,"zip":"9696200"},{"town":"字上村西道下","koaza":"","lat":37.457482,"lng":139.89974,"zip":"9696200"},{"town":"字石切畑","koaza":"","lat":37.451044,"lng":139.882742,"zip":"9696200"},{"town":"字六日町","koaza":"","lat":37.446601,"lng":139.904584,"zip":"9696200"},{"town":"字家東","koaza":"","lat":37.450414,"lng":139.902987,"zip":"9696200"},{"town":"字惣印東","koaza":"","lat":37.45395,"lng":139.902992,"zip":"9696200"},{"town":"字向川原","koaza":"","lat":37.451473,"lng":139.901591,"zip":"9696200"},{"town":"字御用地","koaza":"","lat":37.448747,"lng":139.901472,"zip":"9696200"},{"town":"字御用地跡","koaza":"","lat":37.452033,"lng":139.896771,"zip":"9696200"},{"town":"字三日町","koaza":"","lat":37.44512,"lng":139.895153,"zip":"9696200"},{"town":"字本郷高田町","koaza":"","lat":37.445625,"lng":139.891714,"zip":"9696200"},{"town":"字本郷道東","koaza":"","lat":37.447089,"lng":139.892323,"zip":"9696200"},{"town":"字寺ノ前","koaza":"","lat":37.44993,"lng":139.891287,"zip":"9696200"},{"town":"字真々川","koaza":"","lat":37.449092,"lng":139.889494,"zip":"9696200"},{"town":"字本郷上","koaza":"","lat":37.450708,"lng":139.890297,"zip":"9696200"},{"town":"字大八郷","koaza":"","lat":37.443144,"lng":139.880267,"zip":"9696200"},{"town":"字倉田","koaza":"","lat":37.442978,"lng":139.882915,"zip":"9696200"},{"town":"字本郷道西","koaza":"","lat":37.447869,"lng":139.887105,"zip":"9696200"},{"town":"字清水川","koaza":"","lat":37.451226,"lng":139.883766,"zip":"9696200"},{"town":"字横堀下","koaza":"","lat":37.446313,"lng":139.881316,"zip":"9696200"},{"town":"字本郷","koaza":"","lat":37.450304,"lng":139.886847,"zip":"9696200"},{"town":"字延命寺前","koaza":"","lat":37.447267,"lng":139.882657,"zip":"9696200"},{"town":"字蛇ノ宮","koaza":"","lat":37.44889,"lng":139.880611,"zip":"9696200"},{"town":"字本郷千苅","koaza":"","lat":37.44202,"lng":139.878186,"zip":"9696200"},{"town":"字本郷村西","koaza":"","lat":37.444041,"lng":139.877958,"zip":"9696200"},{"town":"字丸山","koaza":"","lat":37.446708,"lng":139.879238,"zip":"9696200"},{"town":"字宮後","koaza":"","lat":37.446645,"lng":139.8772,"zip":"9696200"},{"town":"字北原","koaza":"","lat":37.449045,"lng":139.878647,"zip":"9696200"},{"town":"字穴田","koaza":"","lat":37.449142,"lng":139.8752,"zip":"9696200"},{"town":"字宗頤町","koaza":"","lat":37.457178,"lng":139.900794,"zip":"9696200"},{"town":"字上村西道上","koaza":"","lat":37.456601,"lng":139.899089,"zip":"9696200"},{"town":"字上村北","koaza":"","lat":37.45868,"lng":139.899888,"zip":"9696200"},{"town":"字舩場","koaza":"","lat":37.448615,"lng":139.896886,"zip":"9696200"},{"town":"字黒川","koaza":"","lat":37.457906,"lng":139.899285,"zip":"9696200"},{"town":"字惣印南","koaza":"","lat":37.453921,"lng":139.900009,"zip":"9696200"},{"town":"字新用地","koaza":"","lat":37.45365,"lng":139.896504,"zip":"9696200"},{"town":"字黒川内","koaza":"","lat":37.457745,"lng":139.896098,"zip":"9696200"},{"town":"字思堀","koaza":"","lat":37.456838,"lng":139.894897,"zip":"9696200"},{"town":"字瀬戸町","koaza":"","lat":37.453095,"lng":139.890954,"zip":"9696200"},{"town":"字川原町北","koaza":"","lat":37.45681,"lng":139.887183,"zip":"9696200"},{"town":"字新町","koaza":"","lat":37.456248,"lng":139.891605,"zip":"9696200"},{"town":"字惣印","koaza":"","lat":37.459305,"lng":139.89656,"zip":"9696200"},{"town":"字家西","koaza":"","lat":37.457379,"lng":139.891391,"zip":"9696200"},{"town":"字駅前","koaza":"","lat":37.4591,"lng":139.894246,"zip":"9696200"},{"town":"字竹原","koaza":"","lat":37.461061,"lng":139.892803,"zip":"9696200"},{"town":"字本屋敷","koaza":"","lat":37.457861,"lng":139.889495,"zip":"9696200"},{"town":"字広面","koaza":"","lat":37.461363,"lng":139.88856,"zip":"9696200"},{"town":"字川原町","koaza":"","lat":37.455229,"lng":139.886782,"zip":"9696200"},{"town":"字山道上","koaza":"","lat":37.45206,"lng":139.882213,"zip":"9696200"},{"town":"字北川原","koaza":"","lat":37.452479,"lng":139.885949,"zip":"9696200"},{"town":"字権現堂","koaza":"","lat":37.459377,"lng":139.883186,"zip":"9696200"},{"town":"字本郷道上","koaza":"","lat":37.454439,"lng":139.881467,"zip":"9696200"},{"town":"字下川原","koaza":"","lat":37.451673,"lng":139.87573,"zip":"9696200"},{"town":"字山道下","koaza":"","lat":37.452451,"lng":139.879015,"zip":"9696200"},{"town":"字荒井前","koaza":"","lat":37.456761,"lng":139.881071,"zip":"9696200"},{"town":"字清水台","koaza":"","lat":37.453926,"lng":139.875379,"zip":"9696200"},{"town":"字近右エ門田","koaza":"","lat":37.459339,"lng":139.886054,"zip":"9696200"},{"town":"字舘ノ廻","koaza":"","lat":37.460457,"lng":139.88112,"zip":"9696200"},{"town":"字旱泥","koaza":"","lat":37.459991,"lng":139.877122,"zip":"9696200"},{"town":"字荒井","koaza":"","lat":37.459002,"lng":139.881088,"zip":"9696200"},{"town":"字地尻","koaza":"","lat":37.466026,"lng":139.842217,"zip":"9696200"},{"town":"字観音北","koaza":"","lat":37.465346,"lng":139.842977,"zip":"9696200"},{"town":"字高田道西","koaza":"","lat":37.474399,"lng":139.837909,"zip":"9696200"},{"town":"蛇喰","koaza":"","lat":37.445855,"lng":139.760481,"zip":"9696200"},{"town":"旭舘端","koaza":"","lat":37.432513,"lng":139.83847,"zip":"9696200"},{"town":"旭三寄","koaza":"","lat":37.429492,"lng":139.823113,"zip":"9696225"},{"town":"冨川","koaza":"","lat":37.444208,"lng":139.840062,"zip":"9696214"},{"town":"旭杉原","koaza":"","lat":37.437989,"lng":139.826742,"zip":"9696226"},{"town":"杉屋","koaza":"","lat":37.445442,"lng":139.815915,"zip":"9696253"},{"town":"吉田","koaza":"","lat":37.434094,"lng":139.796754,"zip":"9696241"},{"town":"松岸","koaza":"","lat":37.43838,"lng":139.805965,"zip":"9696252"},{"town":"字大道端","koaza":"","lat":37.466843,"lng":139.856302,"zip":"9696200"},{"town":"字水戸","koaza":"","lat":37.466273,"lng":139.853052,"zip":"9696200"},{"town":"字東川原","koaza":"","lat":37.46659,"lng":139.849961,"zip":"9696200"},{"town":"勝原","koaza":"","lat":37.448456,"lng":139.845456,"zip":"9696213"},{"town":"字文珠東","koaza":"","lat":37.458004,"lng":139.840583,"zip":"9696200"},{"town":"字宮林","koaza":"","lat":37.455656,"lng":139.841037,"zip":"9696200"},{"town":"字内川原","koaza":"","lat":37.46373,"lng":139.846594,"zip":"9696200"},{"town":"下堀","koaza":"","lat":37.459952,"lng":139.854259,"zip":"9696215"},{"town":"字外川原","koaza":"","lat":37.461139,"lng":139.845081,"zip":"9696200"},{"town":"字法憧寺東","koaza":"","lat":37.45997,"lng":139.842042,"zip":"9696200"},{"town":"字宮北","koaza":"","lat":37.45923,"lng":139.841239,"zip":"9696200"},{"town":"字文珠西","koaza":"","lat":37.458442,"lng":139.839593,"zip":"9696200"},{"town":"字清龍寺北","koaza":"","lat":37.460257,"lng":139.840529,"zip":"9696200"},{"town":"字法憧寺北","koaza":"","lat":37.463567,"lng":139.84322,"zip":"9696200"},{"town":"字法憧寺南","koaza":"","lat":37.461554,"lng":139.841076,"zip":"9696200"},{"town":"字御蔵南","koaza":"","lat":37.459465,"lng":139.83717,"zip":"9696200"},{"town":"字舘ノ南","koaza":"","lat":37.460649,"lng":139.836245,"zip":"9696200"},{"town":"字川添","koaza":"","lat":37.463121,"lng":139.838352,"zip":"9696200"},{"town":"字新丁屋敷","koaza":"","lat":37.461283,"lng":139.837316,"zip":"9696200"},{"town":"字西裏屋敷添","koaza":"","lat":37.462343,"lng":139.838087,"zip":"9696200"},{"town":"字鹿島","koaza":"","lat":37.463072,"lng":139.844407,"zip":"9696200"},{"town":"字新丁西","koaza":"","lat":37.467492,"lng":139.840172,"zip":"9696200"},{"town":"字西裏","koaza":"","lat":37.467978,"lng":139.839719,"zip":"9696200"},{"town":"字龍興寺北","koaza":"","lat":37.464052,"lng":139.838855,"zip":"9696200"},{"town":"字高田","koaza":"","lat":37.460221,"lng":139.83871,"zip":"9696200"},{"town":"字漆原北","koaza":"","lat":37.459216,"lng":139.835424,"zip":"9696200"},{"town":"字舘ノ越","koaza":"","lat":37.461488,"lng":139.833668,"zip":"9696200"},{"town":"字布才地","koaza":"","lat":37.462123,"lng":139.830991,"zip":"9696200"},{"town":"上戸原","koaza":"","lat":37.454153,"lng":139.818906,"zip":"9696256"},{"town":"永井野","koaza":"","lat":37.451009,"lng":139.832084,"zip":"9696251"},{"town":"字上江","koaza":"","lat":37.464105,"lng":139.826671,"zip":"9696200"},{"town":"荻窪","koaza":"","lat":37.447115,"lng":139.789934,"zip":"9696254"},{"town":"松沢","koaza":"","lat":37.453948,"lng":139.792713,"zip":"9696255"},{"town":"字宮里","koaza":"","lat":37.47056,"lng":139.859308,"zip":"9696200"},{"town":"字安田","koaza":"","lat":37.47234,"lng":139.854146,"zip":"9696200"},{"town":"字高田前川原","koaza":"","lat":37.470668,"lng":139.853094,"zip":"9696200"},{"town":"字高田村東","koaza":"","lat":37.471554,"lng":139.856977,"zip":"9696200"},{"town":"字宮ノ腰","koaza":"","lat":37.474313,"lng":139.854139,"zip":"9696200"},{"town":"字家ノ下","koaza":"","lat":37.480079,"lng":139.850095,"zip":"9696200"},{"town":"字台ノ下","koaza":"","lat":37.470789,"lng":139.849733,"zip":"9696200"},{"town":"字高田道東","koaza":"","lat":37.475468,"lng":139.84139,"zip":"9696200"},{"town":"字高田道上","koaza":"","lat":37.468028,"lng":139.845732,"zip":"9696200"},{"town":"字谷地前","koaza":"","lat":37.469725,"lng":139.842761,"zip":"9696200"},{"town":"字御田","koaza":"","lat":37.47129,"lng":139.842774,"zip":"9696200"},{"town":"字柳台","koaza":"","lat":37.470233,"lng":139.84167,"zip":"9696200"},{"town":"字沼尻","koaza":"","lat":37.474683,"lng":139.834299,"zip":"9696200"},{"town":"字油田","koaza":"","lat":37.468857,"lng":139.834171,"zip":"9696200"},{"town":"字沼ノ上","koaza":"","lat":37.471302,"lng":139.830519,"zip":"9696200"},{"town":"八木沢","koaza":"","lat":37.474549,"lng":139.80767,"zip":"9696273"},{"town":"赤留","koaza":"","lat":37.465746,"lng":139.79933,"zip":"9696272"},{"town":"字佐布川","koaza":"","lat":37.478847,"lng":139.849927,"zip":"9696200"},{"town":"寺崎","koaza":"","lat":37.481202,"lng":139.829108,"zip":"9696271"},{"town":"境野","koaza":"","lat":37.486769,"lng":139.8381,"zip":"9696404"},{"town":"雀林","koaza":"","lat":37.487413,"lng":139.817479,"zip":"9696274"},{"town":"字堰下","koaza":"","lat":37.458387,"lng":139.895522,"zip":"9696200"},{"town":"字上村南","koaza":"","lat":37.456581,"lng":139.900445,"zip":"9696200"},{"town":"字竹ノ花","koaza":"","lat":37.473661,"lng":139.847478,"zip":"9696200"},{"town":"新屋敷","koaza":"","lat":37.51642,"lng":139.838053,"zip":"9696402"},{"town":"和田目","koaza":"","lat":37.525727,"lng":139.831562,"zip":"9696401"},{"town":"立石田","koaza":"","lat":37.517593,"lng":139.820596,"zip":"9696411"},{"town":"字中川原","koaza":"","lat":37.482256,"lng":139.851468,"zip":"9696200"},{"town":"字中新田","koaza":"","lat":37.488178,"lng":139.8487,"zip":"9696200"},{"town":"字松ノ木田","koaza":"","lat":37.484178,"lng":139.845271,"zip":"9696200"},{"town":"字権現宮南","koaza":"","lat":37.468721,"lng":139.846147,"zip":"9696200"},{"town":"字坂ノ下道下","koaza":"","lat":37.483655,"lng":139.847596,"zip":"9696200"},{"town":"字坂ノ下道上","koaza":"","lat":37.483091,"lng":139.846383,"zip":"9696200"},{"town":"字本郷入口道上","koaza":"","lat":37.451044,"lng":139.900286,"zip":"9696200"},{"town":"字谷地","koaza":"","lat":37.469386,"lng":139.842813,"zip":"9696200"},{"town":"字権現宮","koaza":"","lat":37.46979,"lng":139.846422,"zip":"9696200"},{"town":"字三本松","koaza":"","lat":37.45891,"lng":139.878893,"zip":"9696200"},{"town":"字高田中川原道下","koaza":"","lat":37.484742,"lng":139.847529,"zip":"9696200"},{"town":"冨川","koaza":"向川原","lat":37.440958,"lng":139.822352,"zip":"9696214"},{"town":"永井野","koaza":"上町","lat":37.443823,"lng":139.826984,"zip":"9696251"},{"town":"永井野","koaza":"東川原","lat":37.44473,"lng":139.828996,"zip":"9696251"},{"town":"永井野","koaza":"永井野","lat":37.451004,"lng":139.835343,"zip":"9696251"},{"town":"永井野","koaza":"堂ノ前","lat":37.448696,"lng":139.830543,"zip":"9696251"},{"town":"永井野","koaza":"中町","lat":37.446445,"lng":139.829572,"zip":"9696251"},{"town":"永井野","koaza":"漆原","lat":37.457148,"lng":139.832181,"zip":"9696251"},{"town":"永井野","koaza":"下町","lat":37.448923,"lng":139.832443,"zip":"9696251"},{"town":"永井野","koaza":"八月田","lat":37.453678,"lng":139.833895,"zip":"9696251"},{"town":"冨川","koaza":"上中川","lat":37.443723,"lng":139.834878,"zip":"9696214"},{"town":"永井野","koaza":"下川原","lat":37.451366,"lng":139.837287,"zip":"9696251"},{"town":"冨川","koaza":"松ケ下","lat":37.446704,"lng":139.835949,"zip":"9696214"},{"town":"永井野","koaza":"岩ノ神","lat":37.454273,"lng":139.838217,"zip":"9696251"},{"town":"字高田","koaza":"甲","lat":37.461709,"lng":139.839808,"zip":"9696200"},{"town":"永井野","koaza":"皆地","lat":37.456994,"lng":139.835099,"zip":"9696251"},{"town":"字宮林","koaza":"甲","lat":37.456112,"lng":139.838876,"zip":"9696200"},{"town":"字柳台","koaza":"甲","lat":37.469695,"lng":139.841298,"zip":"9696200"},{"town":"字法憧寺南","koaza":"甲","lat":37.460973,"lng":139.840965,"zip":"9696200"},{"town":"勝原","koaza":"竹原","lat":37.452315,"lng":139.843214,"zip":"9696213"},{"town":"字外川原","koaza":"甲","lat":37.461685,"lng":139.845512,"zip":"9696200"},{"town":"下堀","koaza":"中川","lat":37.45838,"lng":139.847564,"zip":"9696215"},{"town":"下堀","koaza":"村南","lat":37.456842,"lng":139.845727,"zip":"9696215"},{"town":"字権現宮南","koaza":"甲","lat":37.468531,"lng":139.846381,"zip":"9696200"},{"town":"字坂ノ下道下","koaza":"甲","lat":37.484033,"lng":139.847095,"zip":"9696200"},{"town":"字安田","koaza":"乙","lat":37.472592,"lng":139.853672,"zip":"9696200"},{"town":"福重岡","koaza":"福光丙","lat":37.43345,"lng":139.86392,"zip":"9696144"},{"town":"福重岡","koaza":"屋敷廻乙","lat":37.433951,"lng":139.87199,"zip":"9696144"},{"town":"福重岡","koaza":"八重松甲","lat":37.432535,"lng":139.875311,"zip":"9696144"},{"town":"福重岡","koaza":"八重松前","lat":37.431256,"lng":139.874542,"zip":"9696144"},{"town":"福重岡","koaza":"家ノ後甲","lat":37.433243,"lng":139.875577,"zip":"9696144"},{"town":"福重岡","koaza":"桜ノ下甲","lat":37.435049,"lng":139.879672,"zip":"9696144"},{"town":"氷玉","koaza":"福永丙","lat":37.428129,"lng":139.880428,"zip":"9696143"},{"town":"字三本松","koaza":"甲","lat":37.458864,"lng":139.878994,"zip":"9696200"},{"town":"氷玉","koaza":"古屋敷丙","lat":37.428304,"lng":139.883076,"zip":"9696143"},{"town":"氷玉","koaza":"壇ノ前丙","lat":37.436311,"lng":139.881914,"zip":"9696143"},{"town":"字杉","koaza":"甲","lat":37.455014,"lng":139.882782,"zip":"9696200"},{"town":"字川原町","koaza":"甲","lat":37.4547,"lng":139.888211,"zip":"9696200"},{"town":"氷玉","koaza":"相川丁","lat":37.434582,"lng":139.889428,"zip":"9696143"},{"town":"字本郷道西","koaza":"甲","lat":37.449189,"lng":139.888118,"zip":"9696200"},{"town":"字瀬戸屋前","koaza":"甲","lat":37.453644,"lng":139.888504,"zip":"9696200"},{"town":"字川原町北","koaza":"甲","lat":37.456884,"lng":139.887777,"zip":"9696200"},{"town":"字本郷上","koaza":"甲","lat":37.45054,"lng":139.890416,"zip":"9696200"},{"town":"大石","koaza":"仲田","lat":37.443322,"lng":139.889564,"zip":"9696131"},{"town":"大石","koaza":"西光寺前","lat":37.44392,"lng":139.890283,"zip":"9696131"},{"town":"大石","koaza":"柳窪","lat":37.441472,"lng":139.893271,"zip":"9696131"},{"town":"字向川原","koaza":"甲","lat":37.451562,"lng":139.900732,"zip":"9696200"},{"town":"大石","koaza":"東左下リ","lat":37.421115,"lng":139.898255,"zip":"9696131"},{"town":"穂馬","koaza":"滝ノ後甲","lat":37.418843,"lng":139.900899,"zip":"9696135"},{"town":"字家東","koaza":"甲","lat":37.451718,"lng":139.903525,"zip":"9696200"},{"town":"大石","koaza":"並木","lat":37.418682,"lng":139.901737,"zip":"9696131"},{"town":"大石","koaza":"家北","lat":37.431825,"lng":139.902851,"zip":"9696131"},{"town":"大石","koaza":"左下リ道下","lat":37.419611,"lng":139.902827,"zip":"9696131"},{"town":"大石","koaza":"大門際","lat":37.420845,"lng":139.903105,"zip":"9696131"},{"town":"字六日町","koaza":"甲","lat":37.448015,"lng":139.904662,"zip":"9696200"},{"town":"穂馬","koaza":"天国甲","lat":37.406254,"lng":139.913849,"zip":"9696135"},{"town":"穂馬","koaza":"家廻乙","lat":37.401376,"lng":139.920765,"zip":"9696135"},{"town":"字法憧寺北","koaza":"甲","lat":37.462049,"lng":139.843138,"zip":"9696200"},{"town":"下堀","koaza":"村東","lat":37.456872,"lng":139.850324,"zip":"9696215"},{"town":"永井野","koaza":"正月田","lat":37.453822,"lng":139.832964,"zip":"9696251"},{"town":"永井野","koaza":"宮前","lat":37.446603,"lng":139.828274,"zip":"9696251"},{"town":"冨川","koaza":"中川原","lat":37.442832,"lng":139.830359,"zip":"9696214"},{"town":"字谷地","koaza":"甲","lat":37.46931,"lng":139.842966,"zip":"9696200"},{"town":"字権現宮","koaza":"甲","lat":37.469316,"lng":139.845406,"zip":"9696200"},{"town":"永井野","koaza":"六月田","lat":37.451434,"lng":139.835102,"zip":"9696251"},{"town":"字石切畑","koaza":"甲","lat":37.451585,"lng":139.886131,"zip":"9696200"},{"town":"字本郷","koaza":"甲","lat":37.451251,"lng":139.888619,"zip":"9696200"},{"town":"字瀬戸町","koaza":"甲","lat":37.452505,"lng":139.889663,"zip":"9696200"},{"town":"大石","koaza":"柳窪前","lat":37.442064,"lng":139.891288,"zip":"9696131"},{"town":"大石","koaza":"海老屋敷","lat":37.440484,"lng":139.891017,"zip":"9696131"},{"town":"氷玉","koaza":"家登丁","lat":37.435617,"lng":139.889076,"zip":"9696143"},{"town":"福重岡","koaza":"根柄丙","lat":37.434846,"lng":139.863661,"zip":"9696144"},{"town":"福重岡","koaza":"堂山丙","lat":37.433387,"lng":139.865017,"zip":"9696144"},{"town":"福重岡","koaza":"倉崎乙","lat":37.433987,"lng":139.865794,"zip":"9696144"},{"town":"氷玉","koaza":"殿田","lat":37.43074,"lng":139.882122,"zip":"9696143"},{"town":"氷玉","koaza":"上駒場丙","lat":37.43261,"lng":139.881279,"zip":"9696143"},{"town":"氷玉","koaza":"呑ケ窪丙","lat":37.4309,"lng":139.88148,"zip":"9696143"},{"town":"大石","koaza":"日影","lat":37.423461,"lng":139.893472,"zip":"9696131"},{"town":"穂馬","koaza":"下川原乙","lat":37.402617,"lng":139.922089,"zip":"9696135"},{"town":"穂馬","koaza":"堀ノ内甲","lat":37.414867,"lng":139.904329,"zip":"9696135"},{"town":"大石","koaza":"大門前","lat":37.417954,"lng":139.903179,"zip":"9696131"},{"town":"大石","koaza":"東寺田","lat":37.432222,"lng":139.907073,"zip":"9696131"},{"town":"穂馬","koaza":"後田甲","lat":37.406484,"lng":139.913209,"zip":"9696135"},{"town":"穂馬","koaza":"神ノ前","lat":37.416702,"lng":139.902961,"zip":"9696135"},{"town":"穂馬","koaza":"滝ノ原甲","lat":37.409828,"lng":139.913463,"zip":"9696135"}]