[{"town":"大山","koaza":"","lat":37.55421,"lng":140.380661,"zip":"9691301"},{"town":"玉井","koaza":"","lat":37.552145,"lng":140.318782,"zip":"9640091"},{"town":"玉井","koaza":"長井坂","lat":37.550176,"lng":140.312429,"zip":"9640091"},{"town":"大山","koaza":"南小屋","lat":37.564438,"lng":140.332065,"zip":"9691301"},{"town":"玉井","koaza":"相の沢","lat":37.509491,"lng":140.325176,"zip":"9640091"},{"town":"玉井","koaza":"東光","lat":37.570734,"lng":140.334216,"zip":"9640091"},{"town":"玉井","koaza":"小高倉","lat":37.556223,"lng":140.33462,"zip":"9640091"},{"town":"玉井","koaza":"中屋敷","lat":37.512144,"lng":140.328182,"zip":"9640091"},{"town":"玉井","koaza":"吉丸山","lat":37.530818,"lng":140.331647,"zip":"9640091"},{"town":"玉井","koaza":"南作","lat":37.538278,"lng":140.330232,"zip":"9640091"},{"town":"玉井","koaza":"蒲坂","lat":37.536895,"lng":140.329747,"zip":"9640091"},{"town":"玉井","koaza":"定場坂","lat":37.548401,"lng":140.325067,"zip":"9640091"},{"town":"玉井","koaza":"定場","lat":37.54568,"lng":140.33129,"zip":"9640091"},{"town":"玉井","koaza":"弥三郎平","lat":37.533679,"lng":140.330935,"zip":"9640091"},{"town":"玉井","koaza":"川前","lat":37.54088,"lng":140.33211,"zip":"9640091"},{"town":"玉井","koaza":"間黒","lat":37.539152,"lng":140.334767,"zip":"9640091"},{"town":"玉井","koaza":"問屋場","lat":37.530324,"lng":140.333822,"zip":"9640091"},{"town":"玉井","koaza":"名官林","lat":37.534719,"lng":140.33472,"zip":"9640091"},{"town":"玉井","koaza":"前ケ岳","lat":37.576817,"lng":140.336531,"zip":"9640091"},{"town":"玉井","koaza":"前問屋場","lat":37.529361,"lng":140.335963,"zip":"9640091"},{"town":"玉井","koaza":"又兵衛山","lat":37.525606,"lng":140.346288,"zip":"9640091"},{"town":"玉井","koaza":"稲場","lat":37.538123,"lng":140.336074,"zip":"9640091"},{"town":"玉井","koaza":"茱塚","lat":37.539122,"lng":140.337604,"zip":"9640091"},{"town":"玉井","koaza":"石坊","lat":37.537348,"lng":140.340117,"zip":"9640091"},{"town":"玉井","koaza":"長久保","lat":37.577668,"lng":140.342747,"zip":"9640091"},{"town":"玉井","koaza":"永畑","lat":37.533975,"lng":140.338173,"zip":"9640091"},{"town":"玉井","koaza":"小高倉山","lat":37.555357,"lng":140.342846,"zip":"9640091"},{"town":"玉井","koaza":"出新田","lat":37.535925,"lng":140.340096,"zip":"9640091"},{"town":"大山","koaza":"大皿久保","lat":37.572304,"lng":140.348913,"zip":"9691301"},{"town":"玉井","koaza":"横堀平","lat":37.559515,"lng":140.34695,"zip":"9640091"},{"town":"玉井","koaza":"田中","lat":37.546699,"lng":140.345441,"zip":"9640091"},{"town":"玉井","koaza":"黒沢","lat":37.548835,"lng":140.344632,"zip":"9640091"},{"town":"玉井","koaza":"打方内","lat":37.541194,"lng":140.345868,"zip":"9640091"},{"town":"玉井","koaza":"六角","lat":37.542349,"lng":140.349117,"zip":"9640091"},{"town":"玉井","koaza":"矢口","lat":37.548953,"lng":140.346704,"zip":"9640091"},{"town":"玉井","koaza":"天王下","lat":37.547425,"lng":140.34983,"zip":"9640091"},{"town":"玉井","koaza":"大木原","lat":37.544085,"lng":140.349203,"zip":"9640091"},{"town":"玉井","koaza":"上額沢","lat":37.557054,"lng":140.350289,"zip":"9640091"},{"town":"玉井","koaza":"上窪","lat":37.550876,"lng":140.351017,"zip":"9640091"},{"town":"玉井","koaza":"久保山","lat":37.547211,"lng":140.353936,"zip":"9640091"},{"town":"大山","koaza":"大橋平","lat":37.557818,"lng":140.353364,"zip":"9691301"},{"town":"玉井","koaza":"岡谷地","lat":37.545845,"lng":140.351273,"zip":"9640091"},{"town":"大山","koaza":"前皿久保","lat":37.566895,"lng":140.352387,"zip":"9691301"},{"town":"玉井","koaza":"竹ノ内","lat":37.541957,"lng":140.352545,"zip":"9640091"},{"town":"玉井","koaza":"上長峰","lat":37.538476,"lng":140.353289,"zip":"9640091"},{"town":"玉井","koaza":"馬場平","lat":37.57804,"lng":140.352725,"zip":"9640091"},{"town":"玉井","koaza":"竹ノ花","lat":37.551494,"lng":140.352015,"zip":"9640091"},{"town":"玉井","koaza":"庚申","lat":37.537562,"lng":140.357382,"zip":"9640091"},{"town":"玉井","koaza":"中谷地","lat":37.551688,"lng":140.353957,"zip":"9640091"},{"town":"玉井","koaza":"袖窪","lat":37.546274,"lng":140.356432,"zip":"9640091"},{"town":"玉井","koaza":"大石","lat":37.549646,"lng":140.358201,"zip":"9640091"},{"town":"玉井","koaza":"大谷地","lat":37.554264,"lng":140.357186,"zip":"9640091"},{"town":"玉井","koaza":"中山","lat":37.547437,"lng":140.359016,"zip":"9640091"},{"town":"玉井","koaza":"大橋","lat":37.553122,"lng":140.359065,"zip":"9640091"},{"town":"玉井","koaza":"芝崎","lat":37.534333,"lng":140.356546,"zip":"9640091"},{"town":"玉井","koaza":"小名倉","lat":37.522181,"lng":140.3616,"zip":"9640091"},{"town":"玉井","koaza":"前原","lat":37.54977,"lng":140.359731,"zip":"9640091"},{"town":"玉井","koaza":"石山","lat":37.542569,"lng":140.360079,"zip":"9640091"},{"town":"玉井","koaza":"石保呂","lat":37.545622,"lng":140.360074,"zip":"9640091"},{"town":"玉井","koaza":"細田","lat":37.537523,"lng":140.360671,"zip":"9640091"},{"town":"大山","koaza":"天王","lat":37.55083,"lng":140.363094,"zip":"9691301"},{"town":"玉井","koaza":"五所宮","lat":37.544215,"lng":140.363196,"zip":"9640091"},{"town":"大山","koaza":"三ツ森","lat":37.556392,"lng":140.364682,"zip":"9691301"},{"town":"玉井","koaza":"石橋","lat":37.531311,"lng":140.363526,"zip":"9640091"},{"town":"大山","koaza":"宇曽豆","lat":37.547954,"lng":140.362808,"zip":"9691301"},{"town":"玉井","koaza":"西庵","lat":37.53549,"lng":140.366598,"zip":"9640091"},{"town":"玉井","koaza":"三合内","lat":37.546519,"lng":140.361633,"zip":"9640091"},{"town":"玉井","koaza":"福間","lat":37.529111,"lng":140.364211,"zip":"9640091"},{"town":"玉井","koaza":"午房内","lat":37.531677,"lng":140.365788,"zip":"9640091"},{"town":"玉井","koaza":"百々目木","lat":37.544349,"lng":140.36591,"zip":"9640091"},{"town":"玉井","koaza":"薄黒内","lat":37.53257,"lng":140.367484,"zip":"9640091"},{"town":"玉井","koaza":"戸ノ内","lat":37.539668,"lng":140.365663,"zip":"9640091"},{"town":"大山","koaza":"原","lat":37.546255,"lng":140.365547,"zip":"9691301"},{"town":"玉井","koaza":"大黒内","lat":37.528597,"lng":140.366259,"zip":"9640091"},{"town":"玉井","koaza":"馬場","lat":37.530606,"lng":140.365917,"zip":"9640091"},{"town":"大山","koaza":"小泉","lat":37.548728,"lng":140.366548,"zip":"9691301"},{"town":"玉井","koaza":"神明","lat":37.518818,"lng":140.366408,"zip":"9640091"},{"town":"玉井","koaza":"五里田","lat":37.518526,"lng":140.369104,"zip":"9640091"},{"town":"玉井","koaza":"板髭","lat":37.540408,"lng":140.367067,"zip":"9640091"},{"town":"玉井","koaza":"中道","lat":37.519584,"lng":140.367377,"zip":"9640091"},{"town":"大山","koaza":"上原","lat":37.545041,"lng":140.367465,"zip":"9691301"},{"town":"玉井","koaza":"三合目","lat":37.541123,"lng":140.368529,"zip":"9640091"},{"town":"玉井","koaza":"南町","lat":37.528408,"lng":140.369921,"zip":"9640091"},{"town":"大山","koaza":"長曽根","lat":37.551768,"lng":140.370525,"zip":"9691301"},{"town":"玉井","koaza":"反田","lat":37.522814,"lng":140.370277,"zip":"9640091"},{"town":"玉井","koaza":"台","lat":37.534523,"lng":140.368149,"zip":"9640091"},{"town":"玉井","koaza":"舘","lat":37.524596,"lng":140.369049,"zip":"9640091"},{"town":"大山","koaza":"鳥喰","lat":37.546108,"lng":140.369557,"zip":"9691301"},{"town":"玉井","koaza":"星内","lat":37.536249,"lng":140.370633,"zip":"9640091"},{"town":"大山","koaza":"鞍掛","lat":37.54767,"lng":140.371016,"zip":"9691301"},{"town":"玉井","koaza":"町","lat":37.529624,"lng":140.370003,"zip":"9640091"},{"town":"大山","koaza":"上新座","lat":37.553595,"lng":140.370192,"zip":"9691301"},{"town":"玉井","koaza":"角川","lat":37.532082,"lng":140.372373,"zip":"9640091"},{"town":"玉井","koaza":"東町","lat":37.525712,"lng":140.371805,"zip":"9640091"},{"town":"玉井","koaza":"北東町","lat":37.53012,"lng":140.372213,"zip":"9640091"},{"town":"玉井","koaza":"馬喰内","lat":37.534976,"lng":140.373465,"zip":"9640091"},{"town":"大山","koaza":"行屋","lat":37.541093,"lng":140.37284,"zip":"9691301"},{"town":"玉井","koaza":"町尻","lat":37.527097,"lng":140.373518,"zip":"9640091"},{"town":"大山","koaza":"深谷","lat":37.55853,"lng":140.379412,"zip":"9691301"},{"town":"大山","koaza":"荒久","lat":37.542028,"lng":140.373548,"zip":"9691301"},{"town":"大山","koaza":"角道","lat":37.54766,"lng":140.37357,"zip":"9691301"},{"town":"玉井","koaza":"中田","lat":37.529121,"lng":140.374229,"zip":"9640091"},{"town":"大山","koaza":"六社山","lat":37.543163,"lng":140.373794,"zip":"9691301"},{"town":"玉井","koaza":"中原","lat":37.534061,"lng":140.376122,"zip":"9640091"},{"town":"大山","koaza":"仲ノ沢","lat":37.540907,"lng":140.376837,"zip":"9691301"},{"town":"玉井","koaza":"北ノ内","lat":37.535772,"lng":140.373911,"zip":"9640091"},{"town":"玉井","koaza":"下谷地","lat":37.521203,"lng":140.376582,"zip":"9640091"},{"town":"大山","koaza":"川内","lat":37.552498,"lng":140.37508,"zip":"9691301"},{"town":"玉井","koaza":"吉苗内","lat":37.521441,"lng":140.380593,"zip":"9640091"},{"town":"大山","koaza":"神原田","lat":37.543657,"lng":140.377048,"zip":"9691301"},{"town":"大山","koaza":"三合目","lat":37.539336,"lng":140.378923,"zip":"9691301"},{"town":"玉井","koaza":"江田","lat":37.535365,"lng":140.378756,"zip":"9640091"},{"town":"大山","koaza":"日中内","lat":37.540593,"lng":140.37902,"zip":"9691301"},{"town":"大山","koaza":"後川","lat":37.546888,"lng":140.379503,"zip":"9691301"},{"town":"大山","koaza":"前田","lat":37.537708,"lng":140.380242,"zip":"9691301"},{"town":"玉井","koaza":"道谷地","lat":37.52587,"lng":140.381379,"zip":"9640091"},{"town":"大山","koaza":"半在家","lat":37.553363,"lng":140.382048,"zip":"9691301"},{"town":"大山","koaza":"木ノ下","lat":37.545084,"lng":140.383593,"zip":"9691301"},{"town":"大山","koaza":"仲ノ在家","lat":37.557359,"lng":140.382324,"zip":"9691301"},{"town":"大山","koaza":"当地内","lat":37.558967,"lng":140.382685,"zip":"9691301"},{"town":"大山","koaza":"荒屋敷","lat":37.541648,"lng":140.381721,"zip":"9691301"},{"town":"玉井","koaza":"不動滝","lat":37.523336,"lng":140.381979,"zip":"9640091"},{"town":"大山","koaza":"住吉","lat":37.540197,"lng":140.382749,"zip":"9691301"},{"town":"大山","koaza":"仲ノ内","lat":37.546865,"lng":140.385308,"zip":"9691301"},{"town":"大山","koaza":"椚山赤坂","lat":37.549006,"lng":140.382529,"zip":"9691301"},{"town":"玉井","koaza":"入海","lat":37.527425,"lng":140.383445,"zip":"9640091"},{"town":"大山","koaza":"藤ノ木","lat":37.556091,"lng":140.383599,"zip":"9691301"},{"town":"大山","koaza":"二子塚","lat":37.538304,"lng":140.384809,"zip":"9691301"},{"town":"玉井","koaza":"袋内","lat":37.522777,"lng":140.383959,"zip":"9640091"},{"town":"大山","koaza":"草津川","lat":37.561991,"lng":140.388053,"zip":"9691301"},{"town":"玉井","koaza":"水口","lat":37.523633,"lng":140.385058,"zip":"9640091"},{"town":"大山","koaza":"大江田中","lat":37.544522,"lng":140.38809,"zip":"9691301"},{"town":"大山","koaza":"仲谷地","lat":37.559266,"lng":140.387576,"zip":"9691301"},{"town":"大山","koaza":"舘","lat":37.556641,"lng":140.388238,"zip":"9691301"},{"town":"大山","koaza":"椚山仲田","lat":37.553029,"lng":140.387399,"zip":"9691301"},{"town":"大山","koaza":"谷地","lat":37.546096,"lng":140.389183,"zip":"9691301"},{"town":"玉井","koaza":"南矢中","lat":37.528095,"lng":140.387904,"zip":"9640091"},{"town":"大山","koaza":"小次郎内","lat":37.534865,"lng":140.390857,"zip":"9691301"},{"town":"玉井","koaza":"矢中","lat":37.529016,"lng":140.387981,"zip":"9640091"},{"town":"大山","koaza":"新三島","lat":37.538212,"lng":140.393016,"zip":"9691301"},{"town":"大山","koaza":"下高野","lat":37.541089,"lng":140.38976,"zip":"9691301"},{"town":"大山","koaza":"石位","lat":37.543462,"lng":140.390102,"zip":"9691301"},{"town":"大山","koaza":"大坪","lat":37.551274,"lng":140.390376,"zip":"9691301"},{"town":"大山","koaza":"下谷地","lat":37.558507,"lng":140.391402,"zip":"9691301"},{"town":"大山","koaza":"戸ノ内","lat":37.533814,"lng":140.390594,"zip":"9691301"},{"town":"大山","koaza":"西向","lat":37.548543,"lng":140.392999,"zip":"9691301"},{"town":"大山","koaza":"大江地蔵堂","lat":37.533315,"lng":140.392493,"zip":"9691301"},{"town":"大山","koaza":"北新田","lat":37.539654,"lng":140.393133,"zip":"9691301"},{"town":"大山","koaza":"高久","lat":37.560791,"lng":140.393166,"zip":"9691301"},{"town":"大山","koaza":"北谷地","lat":37.535473,"lng":140.393572,"zip":"9691301"},{"town":"大山","koaza":"宮下","lat":37.533256,"lng":140.395774,"zip":"9691301"},{"town":"大山","koaza":"象目田","lat":37.557488,"lng":140.395592,"zip":"9691301"},{"town":"大山","koaza":"仲江","lat":37.543563,"lng":140.398224,"zip":"9691301"},{"town":"大山","koaza":"大江仲田","lat":37.536684,"lng":140.397458,"zip":"9691301"},{"town":"大山","koaza":"弓谷地","lat":37.535175,"lng":140.395793,"zip":"9691301"},{"town":"大山","koaza":"壇","lat":37.532011,"lng":140.396176,"zip":"9691301"},{"town":"大山","koaza":"玉貫","lat":37.5401,"lng":140.396429,"zip":"9691301"},{"town":"大山","koaza":"広松","lat":37.5331,"lng":140.397666,"zip":"9691301"},{"town":"大山","koaza":"堰合","lat":37.554411,"lng":140.397944,"zip":"9691301"},{"town":"大山","koaza":"東","lat":37.546728,"lng":140.401188,"zip":"9691301"},{"town":"大山","koaza":"柿崎","lat":37.538514,"lng":140.400752,"zip":"9691301"},{"town":"大山","koaza":"鍛治内","lat":37.539791,"lng":140.4027,"zip":"9691301"},{"town":"大山","koaza":"島向","lat":37.541304,"lng":140.4026,"zip":"9691301"},{"town":"大山","koaza":"仲北","lat":37.543162,"lng":140.403467,"zip":"9691301"},{"town":"大山","koaza":"諏訪山","lat":37.532557,"lng":140.402524,"zip":"9691301"},{"town":"大山","koaza":"下田","lat":37.534971,"lng":140.402641,"zip":"9691301"},{"town":"大山","koaza":"堂ケ久保","lat":37.554289,"lng":140.402829,"zip":"9691301"},{"town":"大山","koaza":"岩ケ作","lat":37.540212,"lng":140.404542,"zip":"9691301"},{"town":"大山","koaza":"岩高","lat":37.540314,"lng":140.407063,"zip":"9691301"},{"town":"大山","koaza":"愛宕","lat":37.541403,"lng":140.407389,"zip":"9691301"},{"town":"玉井","koaza":"雨ケ沢","lat":37.571723,"lng":140.325989,"zip":"9640091"},{"town":"玉井","koaza":"コリン前","lat":37.554217,"lng":140.352407,"zip":"9640091"},{"town":"玉井","koaza":"下額沢","lat":37.55567,"lng":140.352827,"zip":"9640091"},{"town":"玉井","koaza":"畑中","lat":37.555188,"lng":140.356685,"zip":"9640091"},{"town":"大山","koaza":"山崎後","lat":37.552697,"lng":140.365907,"zip":"9691301"},{"town":"大山","koaza":"大橋","lat":37.555374,"lng":140.358159,"zip":"9691301"},{"town":"大山","koaza":"仲川原","lat":37.554369,"lng":140.363794,"zip":"9691301"},{"town":"玉井","koaza":"地蔵面","lat":37.542897,"lng":140.358548,"zip":"9640091"},{"town":"玉井","koaza":"谷地山","lat":37.544963,"lng":140.353501,"zip":"9640091"},{"town":"玉井","koaza":"山崎","lat":37.540753,"lng":140.357493,"zip":"9640091"},{"town":"玉井","koaza":"荒池","lat":37.534406,"lng":140.354318,"zip":"9640091"},{"town":"玉井","koaza":"荒池山","lat":37.534254,"lng":140.35291,"zip":"9640091"},{"town":"玉井","koaza":"油渕","lat":37.546283,"lng":140.336809,"zip":"9640091"},{"town":"玉井","koaza":"上宇津野","lat":37.548652,"lng":140.338214,"zip":"9640091"},{"town":"玉井","koaza":"岩玉","lat":37.54884,"lng":140.335194,"zip":"9640091"},{"town":"玉井","koaza":"本揃","lat":37.545594,"lng":140.343148,"zip":"9640091"},{"town":"玉井","koaza":"北宇津野","lat":37.547377,"lng":140.339734,"zip":"9640091"},{"town":"玉井","koaza":"五ノ神","lat":37.54862,"lng":140.34055,"zip":"9640091"},{"town":"玉井","koaza":"中ケ井内","lat":37.55076,"lng":140.33948,"zip":"9640091"},{"town":"玉井","koaza":"西ノ内","lat":37.553001,"lng":140.339692,"zip":"9640091"},{"town":"大山","koaza":"羽山","lat":37.548434,"lng":140.407477,"zip":"9691301"},{"town":"大山","koaza":"高屋敷","lat":37.544876,"lng":140.406758,"zip":"9691301"},{"town":"大山","koaza":"宮ノ前","lat":37.554274,"lng":140.377287,"zip":"9691301"},{"town":"大山","koaza":"上ノ台","lat":37.55443,"lng":140.380751,"zip":"9691301"},{"town":"玉井","koaza":"堺","lat":37.537614,"lng":140.375567,"zip":"9640091"},{"town":"玉井","koaza":"行人田","lat":37.538534,"lng":140.375748,"zip":"9640091"},{"town":"大山","koaza":"池下","lat":37.547749,"lng":140.375895,"zip":"9691301"},{"town":"大山","koaza":"川崎後","lat":37.549362,"lng":140.375612,"zip":"9691301"},{"town":"玉井","koaza":"山口","lat":37.526587,"lng":140.361151,"zip":"9640091"},{"town":"玉井","koaza":"山口瀬戸","lat":37.525509,"lng":140.357919,"zip":"9640091"},{"town":"玉井","koaza":"築舘","lat":37.528754,"lng":140.361346,"zip":"9640091"},{"town":"玉井","koaza":"中森","lat":37.531592,"lng":140.359968,"zip":"9640091"},{"town":"玉井","koaza":"西中森","lat":37.532713,"lng":140.3586,"zip":"9640091"},{"town":"玉井","koaza":"茂作","lat":37.520128,"lng":140.365671,"zip":"9640091"},{"town":"玉井","koaza":"名倉","lat":37.520682,"lng":140.362929,"zip":"9640091"},{"town":"玉井","koaza":"愛宕下","lat":37.519339,"lng":140.364304,"zip":"9640091"},{"town":"玉井","koaza":"高根","lat":37.529334,"lng":140.333819,"zip":"9640091"},{"town":"玉井","koaza":"曲藤","lat":37.518688,"lng":140.330211,"zip":"9640091"},{"town":"玉井","koaza":"鳶巣","lat":37.52397,"lng":140.327759,"zip":"9640091"},{"town":"玉井","koaza":"行人屋敷","lat":37.553791,"lng":140.347851,"zip":"9640091"},{"town":"玉井","koaza":"相応寺","lat":37.552048,"lng":140.346149,"zip":"9640091"},{"town":"玉井","koaza":"糀免","lat":37.552769,"lng":140.346182,"zip":"9640091"},{"town":"大山","koaza":"前山","lat":37.5386,"lng":140.409241,"zip":"9691301"},{"town":"大山","koaza":"山王","lat":37.537702,"lng":140.407368,"zip":"9691301"},{"town":"大山","koaza":"三島","lat":37.538863,"lng":140.388996,"zip":"9691301"},{"town":"大山","koaza":"上高野","lat":37.540991,"lng":140.386774,"zip":"9691301"},{"town":"大山","koaza":"破橋","lat":37.542831,"lng":140.390721,"zip":"9691301"},{"town":"大山","koaza":"南新田","lat":37.538807,"lng":140.393058,"zip":"9691301"},{"town":"大山","koaza":"五反田","lat":37.548567,"lng":140.390314,"zip":"9691301"},{"town":"大山","koaza":"天岩","lat":37.550006,"lng":140.391509,"zip":"9691301"},{"town":"大山","koaza":"力持","lat":37.55325,"lng":140.375334,"zip":"9691301"},{"town":"大山","koaza":"花林","lat":37.550103,"lng":140.375451,"zip":"9691301"},{"town":"大山","koaza":"川崎原","lat":37.549316,"lng":140.38006,"zip":"9691301"},{"town":"大山","koaza":"明路内","lat":37.556776,"lng":140.378787,"zip":"9691301"},{"town":"大山","koaza":"新座","lat":37.554932,"lng":140.371873,"zip":"9691301"},{"town":"大山","koaza":"新座後","lat":37.5573,"lng":140.371735,"zip":"9691301"},{"town":"大山","koaza":"山崎","lat":37.552037,"lng":140.366323,"zip":"9691301"},{"town":"大山","koaza":"後谷地","lat":37.549101,"lng":140.367821,"zip":"9691301"},{"town":"玉井","koaza":"羽前場","lat":37.543761,"lng":140.346603,"zip":"9640091"},{"town":"玉井","koaza":"罫乾壇","lat":37.540811,"lng":140.342592,"zip":"9640091"},{"town":"玉井","koaza":"畑田","lat":37.540686,"lng":140.340428,"zip":"9640091"},{"town":"玉井","koaza":"西池下","lat":37.537762,"lng":140.347761,"zip":"9640091"},{"town":"玉井","koaza":"稲荷郷","lat":37.538727,"lng":140.346478,"zip":"9640091"},{"town":"玉井","koaza":"池下","lat":37.537052,"lng":140.350028,"zip":"9640091"},{"town":"玉井","koaza":"西永峰","lat":37.538457,"lng":140.349019,"zip":"9640091"},{"town":"玉井","koaza":"中芝崎","lat":37.532713,"lng":140.356959,"zip":"9640091"},{"town":"玉井","koaza":"大名倉","lat":37.518235,"lng":140.359625,"zip":"9640091"},{"town":"玉井","koaza":"大名倉山","lat":37.519369,"lng":140.351553,"zip":"9640091"},{"town":"玉井","koaza":"登計森","lat":37.517045,"lng":140.34126,"zip":"9640091"},{"town":"玉井","koaza":"牛ケ背森","lat":37.537571,"lng":140.327874,"zip":"9640091"},{"town":"玉井","koaza":"坂下","lat":37.542682,"lng":140.328123,"zip":"9640091"},{"town":"玉井","koaza":"立道","lat":37.54171,"lng":140.319715,"zip":"9640091"},{"town":"玉井","koaza":"古屋敷","lat":37.542049,"lng":140.333388,"zip":"9640091"},{"town":"玉井","koaza":"瀬戸","lat":37.5438,"lng":140.331567,"zip":"9640091"},{"town":"大山","koaza":"皿久保","lat":37.569958,"lng":140.34051,"zip":"9691301"},{"town":"大山","koaza":"山王山","lat":37.537884,"lng":140.404697,"zip":"9691301"},{"town":"大山","koaza":"向山","lat":37.534072,"lng":140.405596,"zip":"9691301"},{"town":"玉井","koaza":"小菅","lat":37.544833,"lng":140.341191,"zip":"9640091"},{"town":"玉井","koaza":"山城","lat":37.545929,"lng":140.338909,"zip":"9640091"},{"town":"玉井","koaza":"椚平","lat":37.542421,"lng":140.338095,"zip":"9640091"},{"town":"玉井","koaza":"原","lat":37.543991,"lng":140.335684,"zip":"9640091"},{"town":"玉井","koaza":"台田","lat":37.544512,"lng":140.339231,"zip":"9640091"},{"town":"玉井","koaza":"大壇","lat":37.537453,"lng":140.362839,"zip":"9640091"},{"town":"玉井","koaza":"的場","lat":37.53814,"lng":140.371358,"zip":"9640091"},{"town":"玉井","koaza":"東三合目","lat":37.538517,"lng":140.37221,"zip":"9640091"},{"town":"玉井","koaza":"宮前","lat":37.537926,"lng":140.367882,"zip":"9640091"},{"town":"大山","koaza":"鷺内","lat":37.557648,"lng":140.39889,"zip":"9691301"},{"town":"大山","koaza":"椚山地蔵堂","lat":37.556422,"lng":140.400825,"zip":"9691301"},{"town":"大山","koaza":"馬尽","lat":37.545872,"lng":140.403967,"zip":"9691301"},{"town":"大山","koaza":"田池","lat":37.544343,"lng":140.402775,"zip":"9691301"},{"town":"大山","koaza":"向原","lat":37.5493,"lng":140.396736,"zip":"9691301"},{"town":"大山","koaza":"荒池","lat":37.549608,"lng":140.403395,"zip":"9691301"},{"town":"大山","koaza":"狐森","lat":37.55291,"lng":140.399741,"zip":"9691301"}]