[{"town":"成田原町","koaza":"","lat":37.23054,"lng":140.368999,"zip":"9690402"},{"town":"大宮","koaza":"","lat":37.226568,"lng":140.37294,"zip":"9690402"},{"town":"池の台","koaza":"","lat":37.236763,"lng":140.372295,"zip":"9690402"},{"town":"北町","koaza":"","lat":37.242645,"lng":140.371294,"zip":"9690402"},{"town":"本町","koaza":"","lat":37.255991,"lng":140.3492,"zip":"9690401"},{"town":"桜町","koaza":"","lat":37.255678,"lng":140.36279,"zip":"9690401"},{"town":"豊田","koaza":"","lat":37.259246,"lng":140.369992,"zip":"9690401"},{"town":"岡ノ内","koaza":"","lat":37.255198,"lng":140.339508,"zip":"9690401"},{"town":"前山","koaza":"","lat":37.251509,"lng":140.336392,"zip":"9690401"},{"town":"東鹿島","koaza":"","lat":37.267441,"lng":140.371982,"zip":"9690401"},{"town":"池ノ原","koaza":"","lat":37.254501,"lng":140.353319,"zip":"9690401"},{"town":"不時沼","koaza":"","lat":37.256475,"lng":140.346323,"zip":"9690401"},{"town":"仁井田","koaza":"","lat":37.256598,"lng":140.33314,"zip":"9690401"},{"town":"緑町","koaza":"","lat":37.249936,"lng":140.353922,"zip":"9690404"},{"town":"中央","koaza":"","lat":37.25088,"lng":140.343177,"zip":"9690404"},{"town":"新町","koaza":"","lat":37.241821,"lng":140.380316,"zip":"9690402"},{"town":"成田","koaza":"","lat":37.234494,"lng":140.382596,"zip":"9690402"},{"town":"東河原","koaza":"","lat":37.234982,"lng":140.390107,"zip":"9690402"},{"town":"河原","koaza":"","lat":37.230765,"lng":140.388609,"zip":"9690402"},{"town":"諏訪町","koaza":"","lat":37.227319,"lng":140.382558,"zip":"9690402"},{"town":"成田東","koaza":"","lat":37.241095,"lng":140.386324,"zip":"9690402"},{"town":"境","koaza":"","lat":37.247291,"lng":140.334205,"zip":"9690401"},{"town":"豊郷中","koaza":"","lat":37.240261,"lng":140.360898,"zip":"9690404"},{"town":"豊郷","koaza":"","lat":37.233021,"lng":140.36166,"zip":"9690404"},{"town":"大山","koaza":"","lat":37.227925,"lng":140.349534,"zip":"9690404"},{"town":"羽鳥","koaza":"","lat":37.238216,"lng":140.354881,"zip":"9690404"},{"town":"旭町","koaza":"","lat":37.246238,"lng":140.351882,"zip":"9690404"},{"town":"東町","koaza":"","lat":37.241039,"lng":140.347294,"zip":"9690404"},{"town":"中町","koaza":"","lat":37.246136,"lng":140.340543,"zip":"9690404"},{"town":"笠石原町","koaza":"","lat":37.235354,"lng":140.342039,"zip":"9690404"},{"town":"久来石","koaza":"","lat":37.231758,"lng":140.329611,"zip":"9690403"},{"town":"笠石","koaza":"","lat":37.238367,"lng":140.33597,"zip":"9690404"},{"town":"小栗山","koaza":"","lat":37.237497,"lng":140.320914,"zip":"9690403"},{"town":"桜岡","koaza":"","lat":37.244112,"lng":140.327504,"zip":"9690403"},{"town":"借宿","koaza":"","lat":37.250532,"lng":140.324303,"zip":"9690403"},{"town":"堀米","koaza":"","lat":37.2278,"lng":140.359325,"zip":"9690404"},{"town":"城ノ内","koaza":"","lat":37.228563,"lng":140.320015,"zip":"9690403"},{"town":"岡の台","koaza":"","lat":37.247937,"lng":140.362313,"zip":"9690404"},{"town":"南町","koaza":"","lat":37.225582,"lng":140.337928,"zip":"9690404"},{"town":"久来石南","koaza":"","lat":37.219653,"lng":140.324305,"zip":"9690403"},{"town":"堂前","koaza":"","lat":37.244516,"lng":140.316968,"zip":"9690403"},{"town":"鏡沼","koaza":"","lat":37.263813,"lng":140.353738,"zip":"9690401"},{"town":"大池","koaza":"","lat":37.268498,"lng":140.352585,"zip":"9690401"},{"town":"五斗蒔町","koaza":"","lat":37.261221,"lng":140.345531,"zip":"9690401"},{"town":"鏡田かげ沼町","koaza":"","lat":37.268635,"lng":140.344293,"zip":"9690401"},{"town":"南高久田","koaza":"","lat":37.262089,"lng":140.360245,"zip":"9690401"},{"town":"鹿島","koaza":"","lat":37.269236,"lng":140.364982,"zip":"9690401"},{"town":"川崎町","koaza":"","lat":37.265732,"lng":140.340893,"zip":"9690401"},{"town":"高久田","koaza":"","lat":37.269735,"lng":140.359129,"zip":"9690401"},{"town":"蒲之沢町","koaza":"","lat":37.27363,"lng":140.356187,"zip":"9690401"},{"town":"深内町","koaza":"","lat":37.274728,"lng":140.344533,"zip":"9690401"}]