[{"town":"稲沢","koaza":"","lat":37.507708,"lng":140.499123,"zip":"9691201"},{"town":"松沢","koaza":"","lat":37.489382,"lng":140.488025,"zip":"9691202"},{"town":"青田","koaza":"","lat":37.501962,"lng":140.374651,"zip":"9691107"},{"town":"関下","koaza":"","lat":37.476954,"lng":140.363441,"zip":"9691105"},{"town":"荒井","koaza":"","lat":37.486373,"lng":140.376777,"zip":"9691104"},{"town":"白岩","koaza":"","lat":37.49992,"lng":140.464399,"zip":"9691203"},{"town":"糠沢","koaza":"","lat":37.497107,"lng":140.427347,"zip":"9691204"},{"town":"高木","koaza":"","lat":37.515693,"lng":140.412806,"zip":"9691101"},{"town":"仁井田","koaza":"","lat":37.491603,"lng":140.400556,"zip":"9691103"},{"town":"本宮","koaza":"","lat":37.518895,"lng":140.395093,"zip":"9691176"},{"town":"岩根","koaza":"","lat":37.492531,"lng":140.338728,"zip":"9691106"},{"town":"長屋","koaza":"","lat":37.520844,"lng":140.472752,"zip":"9691206"},{"town":"和田","koaza":"","lat":37.530113,"lng":140.443508,"zip":"9691205"},{"town":"岩根","koaza":"下樋","lat":37.4769,"lng":140.325408,"zip":"9691106"},{"town":"岩根","koaza":"南一枚平","lat":37.507676,"lng":140.326951,"zip":"9691106"},{"town":"岩根","koaza":"二ッ屋","lat":37.496981,"lng":140.326442,"zip":"9691106"},{"town":"岩根","koaza":"茨塚","lat":37.503265,"lng":140.327979,"zip":"9691106"},{"town":"岩根","koaza":"下清水","lat":37.478601,"lng":140.328989,"zip":"9691106"},{"town":"岩根","koaza":"茗荷","lat":37.50709,"lng":140.33713,"zip":"9691106"},{"town":"岩根","koaza":"梅原","lat":37.477028,"lng":140.328404,"zip":"9691106"},{"town":"岩根","koaza":"小山","lat":37.481397,"lng":140.331161,"zip":"9691106"},{"town":"岩根","koaza":"矢沢山","lat":37.484351,"lng":140.332195,"zip":"9691106"},{"town":"岩根","koaza":"南石橋","lat":37.478765,"lng":140.333246,"zip":"9691106"},{"town":"岩根","koaza":"北石橋","lat":37.480109,"lng":140.334223,"zip":"9691106"},{"town":"岩根","koaza":"表矢沢","lat":37.483688,"lng":140.333939,"zip":"9691106"},{"town":"岩根","koaza":"前田","lat":37.484325,"lng":140.334876,"zip":"9691106"},{"town":"岩根","koaza":"向原","lat":37.482222,"lng":140.339113,"zip":"9691106"},{"town":"岩根","koaza":"輪ヶ渕","lat":37.480484,"lng":140.339553,"zip":"9691106"},{"town":"岩根","koaza":"三合原","lat":37.488705,"lng":140.342402,"zip":"9691106"},{"town":"岩根","koaza":"於巻窪","lat":37.507593,"lng":140.350511,"zip":"9691106"},{"town":"岩根","koaza":"本郷","lat":37.479914,"lng":140.345733,"zip":"9691106"},{"town":"岩根","koaza":"水池尻","lat":37.486683,"lng":140.346977,"zip":"9691106"},{"town":"岩根","koaza":"山ノ神","lat":37.493186,"lng":140.350083,"zip":"9691106"},{"town":"岩根","koaza":"上年神","lat":37.478303,"lng":140.348054,"zip":"9691106"},{"town":"岩根","koaza":"中高野","lat":37.485306,"lng":140.348181,"zip":"9691106"},{"town":"岩根","koaza":"苗代田","lat":37.479596,"lng":140.350308,"zip":"9691106"},{"town":"岩根","koaza":"下年神","lat":37.481199,"lng":140.350609,"zip":"9691106"},{"town":"岩根","koaza":"上土渕","lat":37.480526,"lng":140.350441,"zip":"9691106"},{"town":"岩根","koaza":"舘ノ影","lat":37.485514,"lng":140.35081,"zip":"9691106"},{"town":"岩根","koaza":"下池ノ入","lat":37.502322,"lng":140.349877,"zip":"9691106"},{"town":"岩根","koaza":"鍛治面","lat":37.484988,"lng":140.352738,"zip":"9691106"},{"town":"岩根","koaza":"中向山","lat":37.49082,"lng":140.354069,"zip":"9691106"},{"town":"青田","koaza":"殕森","lat":37.494652,"lng":140.355194,"zip":"9691107"},{"town":"岩根","koaza":"北原田","lat":37.483235,"lng":140.350178,"zip":"9691106"},{"town":"青田","koaza":"釜場","lat":37.503768,"lng":140.363077,"zip":"9691107"},{"town":"岩根","koaza":"みずきが丘","lat":37.487071,"lng":140.359312,"zip":"9691106"},{"town":"関下","koaza":"神座","lat":37.47905,"lng":140.362452,"zip":"9691105"},{"town":"岩根","koaza":"下原田","lat":37.480668,"lng":140.359254,"zip":"9691106"},{"town":"青田","koaza":"愛宕","lat":37.500054,"lng":140.364237,"zip":"9691107"},{"town":"岩根","koaza":"首取山","lat":37.483431,"lng":140.361702,"zip":"9691106"},{"town":"関下","koaza":"上屋敷","lat":37.473446,"lng":140.362313,"zip":"9691105"},{"town":"関下","koaza":"背戸田","lat":37.474556,"lng":140.362216,"zip":"9691105"},{"town":"岩根","koaza":"立石山","lat":37.484959,"lng":140.359771,"zip":"9691106"},{"town":"関下","koaza":"石橋","lat":37.478806,"lng":140.364156,"zip":"9691105"},{"town":"関下","koaza":"羽黒","lat":37.475445,"lng":140.363867,"zip":"9691105"},{"town":"青田","koaza":"長筬","lat":37.496123,"lng":140.363611,"zip":"9691107"},{"town":"青田","koaza":"西原","lat":37.497356,"lng":140.365517,"zip":"9691107"},{"town":"関下","koaza":"仲之内","lat":37.474972,"lng":140.367739,"zip":"9691105"},{"town":"荒井","koaza":"甲斐","lat":37.484536,"lng":140.372543,"zip":"9691104"},{"town":"本宮","koaza":"蛇ノ鼻","lat":37.514106,"lng":140.374244,"zip":"9691176"},{"town":"関下","koaza":"大柳","lat":37.472887,"lng":140.36773,"zip":"9691105"},{"town":"関下","koaza":"前田","lat":37.474139,"lng":140.369543,"zip":"9691105"},{"town":"青田","koaza":"南向","lat":37.504741,"lng":140.368782,"zip":"9691107"},{"town":"青田","koaza":"青田原","lat":37.49369,"lng":140.374624,"zip":"9691107"},{"town":"青田","koaza":"日記沢","lat":37.508575,"lng":140.37352,"zip":"9691107"},{"town":"青田","koaza":"南","lat":37.506943,"lng":140.370111,"zip":"9691107"},{"town":"荒井","koaza":"大久保","lat":37.490081,"lng":140.372446,"zip":"9691104"},{"town":"関下","koaza":"東畑","lat":37.4752,"lng":140.369865,"zip":"9691105"},{"town":"荒井","koaza":"堀仲","lat":37.484176,"lng":140.370405,"zip":"9691104"},{"town":"荒井","koaza":"三本松","lat":37.485938,"lng":140.371603,"zip":"9691104"},{"town":"青田","koaza":"狐森","lat":37.511368,"lng":140.371713,"zip":"9691107"},{"town":"荒井","koaza":"諸子沢","lat":37.476854,"lng":140.374867,"zip":"9691104"},{"town":"青田","koaza":"石編田","lat":37.499173,"lng":140.374597,"zip":"9691107"},{"town":"青田","koaza":"寄松","lat":37.496914,"lng":140.375867,"zip":"9691107"},{"town":"荒井","koaza":"恵向","lat":37.483306,"lng":140.375128,"zip":"9691104"},{"town":"青田","koaza":"池前","lat":37.502998,"lng":140.37524,"zip":"9691107"},{"town":"荒井","koaza":"関畑","lat":37.48476,"lng":140.378293,"zip":"9691104"},{"town":"荒井","koaza":"新田","lat":37.489519,"lng":140.377338,"zip":"9691104"},{"town":"荒井","koaza":"久保田","lat":37.487442,"lng":140.375227,"zip":"9691104"},{"town":"荒井","koaza":"関内","lat":37.484122,"lng":140.376439,"zip":"9691104"},{"town":"青田","koaza":"舘","lat":37.50026,"lng":140.377309,"zip":"9691107"},{"town":"青田","koaza":"古舘","lat":37.502819,"lng":140.376122,"zip":"9691107"},{"town":"荒井","koaza":"青田原","lat":37.489758,"lng":140.375944,"zip":"9691104"},{"town":"青田","koaza":"腰蒔","lat":37.502512,"lng":140.378979,"zip":"9691107"},{"town":"荒井","koaza":"上前畑","lat":37.479436,"lng":140.385154,"zip":"9691104"},{"town":"青田","koaza":"来ノ池","lat":37.500647,"lng":140.380136,"zip":"9691107"},{"town":"荒井","koaza":"瀬戸田","lat":37.486092,"lng":140.381129,"zip":"9691104"},{"town":"本宮","koaza":"天ヶ","lat":37.515599,"lng":140.382116,"zip":"9691176"},{"town":"本宮","koaza":"平井","lat":37.512843,"lng":140.381745,"zip":"9691176"},{"town":"青田","koaza":"萱林","lat":37.496363,"lng":140.379511,"zip":"9691107"},{"town":"青田","koaza":"金重野地","lat":37.508531,"lng":140.382498,"zip":"9691107"},{"town":"青田","koaza":"東宮","lat":37.505888,"lng":140.382402,"zip":"9691107"},{"town":"青田","koaza":"中恵","lat":37.499173,"lng":140.383825,"zip":"9691107"},{"town":"青田","koaza":"太子堂","lat":37.505664,"lng":140.384464,"zip":"9691107"},{"town":"本宮","koaza":"瀬樋内","lat":37.516148,"lng":140.384653,"zip":"9691176"},{"town":"荒井","koaza":"荒井","lat":37.48453,"lng":140.384104,"zip":"9691104"},{"town":"青田","koaza":"一本杉","lat":37.509933,"lng":140.385076,"zip":"9691107"},{"town":"青田","koaza":"三ッ池","lat":37.496927,"lng":140.385465,"zip":"9691107"},{"town":"荒井","koaza":"沢田","lat":37.489442,"lng":140.385298,"zip":"9691104"},{"town":"青田","koaza":"前原","lat":37.497965,"lng":140.386293,"zip":"9691107"},{"town":"本宮","koaza":"小幡","lat":37.520895,"lng":140.387084,"zip":"9691176"},{"town":"本宮","koaza":"小原田","lat":37.526987,"lng":140.388274,"zip":"9691176"},{"town":"本宮","koaza":"赤坂","lat":37.533434,"lng":140.387818,"zip":"9691176"},{"town":"本宮","koaza":"道屋敷","lat":37.524998,"lng":140.385215,"zip":"9691176"},{"town":"青田","koaza":"小池","lat":37.506448,"lng":140.386054,"zip":"9691107"},{"town":"本宮","koaza":"鍋田","lat":37.514159,"lng":140.387656,"zip":"9691176"},{"town":"本宮","koaza":"北山神","lat":37.523701,"lng":140.386345,"zip":"9691176"},{"town":"荒井","koaza":"百目木","lat":37.481984,"lng":140.386254,"zip":"9691104"},{"town":"荒井","koaza":"長山","lat":37.485746,"lng":140.386946,"zip":"9691104"},{"town":"本宮","koaza":"諏訪","lat":37.510932,"lng":140.387472,"zip":"9691176"},{"town":"荒井","koaza":"下沢","lat":37.488055,"lng":140.388117,"zip":"9691104"},{"town":"荒井","koaza":"山神","lat":37.494937,"lng":140.386687,"zip":"9691104"},{"town":"荒井","koaza":"新介","lat":37.48187,"lng":140.38883,"zip":"9691104"},{"town":"青田","koaza":"稲荷久保","lat":37.506761,"lng":140.387889,"zip":"9691107"},{"town":"本宮","koaza":"舞台","lat":37.517791,"lng":140.389566,"zip":"9691176"},{"town":"荒井","koaza":"狐森","lat":37.493088,"lng":140.387083,"zip":"9691104"},{"town":"青田","koaza":"孫市","lat":37.502136,"lng":140.389256,"zip":"9691107"},{"town":"荒井","koaza":"五百川","lat":37.493295,"lng":140.39215,"zip":"9691104"},{"town":"荒井","koaza":"東学壇","lat":37.489095,"lng":140.389876,"zip":"9691104"},{"town":"青田","koaza":"戸ノ内","lat":37.497459,"lng":140.389454,"zip":"9691107"},{"town":"青田","koaza":"峰崎","lat":37.501956,"lng":140.390198,"zip":"9691107"},{"town":"仁井田","koaza":"糀壇","lat":37.496578,"lng":140.389756,"zip":"9691103"},{"town":"本宮","koaza":"近江内","lat":37.5243,"lng":140.391119,"zip":"9691176"},{"town":"本宮","koaza":"北ノ内","lat":37.527711,"lng":140.390779,"zip":"9691176"},{"town":"本宮","koaza":"大森","lat":37.50704,"lng":140.390821,"zip":"9691176"},{"town":"青田","koaza":"花掛","lat":37.500353,"lng":140.392534,"zip":"9691107"},{"town":"仁井田","koaza":"上野台","lat":37.483604,"lng":140.39157,"zip":"9691103"},{"town":"本宮","koaza":"一ッ屋","lat":37.522871,"lng":140.390388,"zip":"9691176"},{"town":"本宮","koaza":"反町","lat":37.515083,"lng":140.391595,"zip":"9691176"},{"town":"青田","koaza":"ヌカリ","lat":37.500004,"lng":140.391962,"zip":"9691107"},{"town":"荒井","koaza":"白山","lat":37.494817,"lng":140.392054,"zip":"9691104"},{"town":"本宮","koaza":"南山神","lat":37.510369,"lng":140.392798,"zip":"9691176"},{"town":"青田","koaza":"庄内","lat":37.497403,"lng":140.391388,"zip":"9691107"},{"town":"仁井田","koaza":"田中","lat":37.485407,"lng":140.391873,"zip":"9691103"},{"town":"本宮","koaza":"欠下","lat":37.519883,"lng":140.392286,"zip":"9691176"},{"town":"本宮","koaza":"中野後","lat":37.529756,"lng":140.392529,"zip":"9691176"},{"town":"本宮","koaza":"塩田入","lat":37.512375,"lng":140.392174,"zip":"9691176"},{"town":"本宮","koaza":"南ノ内","lat":37.530448,"lng":140.395015,"zip":"9691176"},{"town":"荒井","koaza":"祗園","lat":37.492254,"lng":140.391721,"zip":"9691104"},{"town":"本宮","koaza":"葭ヶ入","lat":37.508241,"lng":140.39353,"zip":"9691176"},{"town":"青田","koaza":"山田","lat":37.504115,"lng":140.392595,"zip":"9691107"},{"town":"本宮","koaza":"白川","lat":37.521168,"lng":140.392993,"zip":"9691176"},{"town":"本宮","koaza":"山田","lat":37.506025,"lng":140.394728,"zip":"9691176"},{"town":"本宮","koaza":"塩田","lat":37.512652,"lng":140.393428,"zip":"9691176"},{"town":"本宮","koaza":"樋ノ口","lat":37.525519,"lng":140.393065,"zip":"9691176"},{"town":"荒井","koaza":"堂川","lat":37.492964,"lng":140.393541,"zip":"9691104"},{"town":"本宮","koaza":"中野","lat":37.527925,"lng":140.392976,"zip":"9691176"},{"town":"仁井田","koaza":"上新田","lat":37.488018,"lng":140.393296,"zip":"9691103"},{"town":"仁井田","koaza":"大木","lat":37.48687,"lng":140.394198,"zip":"9691103"},{"town":"仁井田","koaza":"桝形","lat":37.501669,"lng":140.396275,"zip":"9691103"},{"town":"本宮","koaza":"万世","lat":37.514718,"lng":140.39658,"zip":"9691176"},{"town":"本宮","koaza":"千代田","lat":37.516608,"lng":140.396296,"zip":"9691176"},{"town":"本宮","koaza":"栄田","lat":37.511389,"lng":140.396402,"zip":"9691176"},{"town":"仁井田","koaza":"上四合田","lat":37.49212,"lng":140.398375,"zip":"9691103"},{"town":"仁井田","koaza":"五百川","lat":37.495546,"lng":140.395977,"zip":"9691103"},{"town":"仁井田","koaza":"稲荷","lat":37.48846,"lng":140.397637,"zip":"9691103"},{"town":"本宮","koaza":"戸崎","lat":37.521187,"lng":140.39468,"zip":"9691176"},{"town":"本宮","koaza":"下台","lat":37.524671,"lng":140.396669,"zip":"9691176"},{"town":"本宮","koaza":"名郷","lat":37.526873,"lng":140.398243,"zip":"9691176"},{"town":"本宮","koaza":"兼谷平","lat":37.504841,"lng":140.398096,"zip":"9691176"},{"town":"仁井田","koaza":"壱本","lat":37.497023,"lng":140.397811,"zip":"9691103"},{"town":"仁井田","koaza":"吹上","lat":37.501481,"lng":140.401642,"zip":"9691103"},{"town":"仁井田","koaza":"小坂","lat":37.490014,"lng":140.397676,"zip":"9691103"},{"town":"本宮","koaza":"石塚","lat":37.507297,"lng":140.399044,"zip":"9691176"},{"town":"本宮","koaza":"中台","lat":37.523352,"lng":140.396081,"zip":"9691176"},{"town":"本宮","koaza":"兼谷","lat":37.506308,"lng":140.40032,"zip":"9691176"},{"town":"本宮","koaza":"花町","lat":37.509016,"lng":140.397587,"zip":"9691176"},{"town":"本宮","koaza":"竹花","lat":37.527611,"lng":140.400103,"zip":"9691176"},{"town":"本宮","koaza":"舘町","lat":37.519968,"lng":140.398081,"zip":"9691176"},{"town":"仁井田","koaza":"申","lat":37.497729,"lng":140.400592,"zip":"9691103"},{"town":"仁井田","koaza":"宮下","lat":37.490978,"lng":140.399795,"zip":"9691103"},{"town":"仁井田","koaza":"富士内","lat":37.489531,"lng":140.400026,"zip":"9691103"},{"town":"仁井田","koaza":"西町","lat":37.493008,"lng":140.399725,"zip":"9691103"},{"town":"本宮","koaza":"関根","lat":37.527243,"lng":140.400755,"zip":"9691176"},{"town":"糠沢","koaza":"山中","lat":37.48751,"lng":140.414947,"zip":"9691204"},{"town":"本宮","koaza":"九縄","lat":37.514538,"lng":140.400124,"zip":"9691176"},{"town":"本宮","koaza":"太郎丸","lat":37.509715,"lng":140.399638,"zip":"9691176"},{"town":"本宮","koaza":"上町","lat":37.511736,"lng":140.400438,"zip":"9691176"},{"town":"本宮","koaza":"南町裡","lat":37.514579,"lng":140.401398,"zip":"9691176"},{"town":"本宮","koaza":"中條","lat":37.513693,"lng":140.401181,"zip":"9691176"},{"town":"仁井田","koaza":"寺下","lat":37.49098,"lng":140.402179,"zip":"9691103"},{"town":"本宮","koaza":"堀切","lat":37.528518,"lng":140.402807,"zip":"9691176"},{"town":"仁井田","koaza":"東町","lat":37.493301,"lng":140.402071,"zip":"9691103"},{"town":"仁井田","koaza":"村山","lat":37.502041,"lng":140.403334,"zip":"9691103"},{"town":"仁井田","koaza":"下ノ原","lat":37.497701,"lng":140.40419,"zip":"9691103"},{"town":"仁井田","koaza":"舛台","lat":37.495367,"lng":140.402957,"zip":"9691103"},{"town":"本宮","koaza":"馬場","lat":37.517951,"lng":140.402889,"zip":"9691176"},{"town":"本宮","koaza":"下町","lat":37.516093,"lng":140.403022,"zip":"9691176"},{"town":"仁井田","koaza":"東浦","lat":37.493817,"lng":140.403274,"zip":"9691103"},{"town":"仁井田","koaza":"葉山","lat":37.489633,"lng":140.40433,"zip":"9691103"},{"town":"仁井田","koaza":"下ノ里","lat":37.492075,"lng":140.403248,"zip":"9691103"},{"town":"本宮","koaza":"舘ノ越","lat":37.52073,"lng":140.404523,"zip":"9691176"},{"town":"仁井田","koaza":"新田","lat":37.494809,"lng":140.404251,"zip":"9691103"},{"town":"高木","koaza":"長瀬","lat":37.510262,"lng":140.403971,"zip":"9691101"},{"town":"本宮","koaza":"荒町","lat":37.517851,"lng":140.404595,"zip":"9691176"},{"town":"高木","koaza":"辻","lat":37.512376,"lng":140.406308,"zip":"9691101"},{"town":"仁井田","koaza":"馬乗","lat":37.490787,"lng":140.404343,"zip":"9691103"},{"town":"本宮","koaza":"仲町","lat":37.518832,"lng":140.404376,"zip":"9691176"},{"town":"高木","koaza":"沢目","lat":37.509153,"lng":140.405081,"zip":"9691101"},{"town":"本宮","koaza":"大町","lat":37.520719,"lng":140.405926,"zip":"9691176"},{"town":"高木","koaza":"大屋敷","lat":37.509098,"lng":140.406651,"zip":"9691101"},{"town":"本宮","koaza":"東町","lat":37.51939,"lng":140.406316,"zip":"9691176"},{"town":"高木","koaza":"高木","lat":37.514641,"lng":140.406484,"zip":"9691101"},{"town":"高木","koaza":"辻向","lat":37.510795,"lng":140.407226,"zip":"9691101"},{"town":"高木","koaza":"舟場","lat":37.51407,"lng":140.408426,"zip":"9691101"},{"town":"本宮","koaza":"東町裏","lat":37.520525,"lng":140.406742,"zip":"9691176"},{"town":"本宮","koaza":"坊屋敷","lat":37.523396,"lng":140.40601,"zip":"9691176"},{"town":"高木","koaza":"北ノ脇","lat":37.516682,"lng":140.407894,"zip":"9691101"},{"town":"本宮","koaza":"弁天","lat":37.522313,"lng":140.407576,"zip":"9691176"},{"town":"高木","koaza":"山王川原","lat":37.518281,"lng":140.408667,"zip":"9691101"},{"town":"糠沢","koaza":"赤木","lat":37.499197,"lng":140.408242,"zip":"9691204"},{"town":"高木","koaza":"平内","lat":37.515418,"lng":140.409209,"zip":"9691101"},{"town":"高木","koaza":"大学","lat":37.511878,"lng":140.409027,"zip":"9691101"},{"town":"高木","koaza":"金瀬","lat":37.518053,"lng":140.410047,"zip":"9691101"},{"town":"糠沢","koaza":"東禅寺","lat":37.494845,"lng":140.412626,"zip":"9691204"},{"town":"本宮","koaza":"立石","lat":37.52404,"lng":140.410695,"zip":"9691176"},{"town":"本宮","koaza":"大榎","lat":37.524528,"lng":140.410087,"zip":"9691176"},{"town":"高木","koaza":"反田","lat":37.514334,"lng":140.41061,"zip":"9691101"},{"town":"高木","koaza":"熊ノ木","lat":37.516492,"lng":140.411171,"zip":"9691101"},{"town":"高木","koaza":"滝ノ入","lat":37.511453,"lng":140.411829,"zip":"9691101"},{"town":"高木","koaza":"中丸","lat":37.512558,"lng":140.411829,"zip":"9691101"},{"town":"高木","koaza":"中島","lat":37.507163,"lng":140.410193,"zip":"9691101"},{"town":"高木","koaza":"田中","lat":37.514533,"lng":140.410998,"zip":"9691101"},{"town":"高木","koaza":"大石","lat":37.509831,"lng":140.41193,"zip":"9691101"},{"town":"高木","koaza":"長畑","lat":37.518983,"lng":140.412378,"zip":"9691101"},{"town":"高木","koaza":"金草入","lat":37.505926,"lng":140.412938,"zip":"9691101"},{"town":"高木","koaza":"根岸","lat":37.517754,"lng":140.415705,"zip":"9691101"},{"town":"高木","koaza":"久保","lat":37.518807,"lng":140.41722,"zip":"9691101"},{"town":"糠沢","koaza":"西笹田","lat":37.495786,"lng":140.418595,"zip":"9691204"},{"town":"高木","koaza":"水境","lat":37.512458,"lng":140.416247,"zip":"9691101"},{"town":"高木","koaza":"井戸上","lat":37.516733,"lng":140.418699,"zip":"9691101"},{"town":"高木","koaza":"駒込","lat":37.523056,"lng":140.416648,"zip":"9691101"},{"town":"糠沢","koaza":"高松","lat":37.49156,"lng":140.420117,"zip":"9691204"},{"town":"糠沢","koaza":"東笹田","lat":37.49915,"lng":140.425064,"zip":"9691204"},{"town":"糠沢","koaza":"礼堂","lat":37.511957,"lng":140.424993,"zip":"9691204"},{"town":"糠沢","koaza":"鴨内","lat":37.48488,"lng":140.420608,"zip":"9691204"},{"town":"糠沢","koaza":"八幡","lat":37.483711,"lng":140.418165,"zip":"9691204"},{"town":"和田","koaza":"南大沢","lat":37.541755,"lng":140.42404,"zip":"9691205"},{"town":"糠沢","koaza":"北箕内","lat":37.49023,"lng":140.42605,"zip":"9691204"},{"town":"和田","koaza":"大夏張","lat":37.53162,"lng":140.423188,"zip":"9691205"},{"town":"和田","koaza":"大久保","lat":37.534177,"lng":140.422729,"zip":"9691205"},{"town":"糠沢","koaza":"葭池","lat":37.507254,"lng":140.427155,"zip":"9691204"},{"town":"糠沢","koaza":"原","lat":37.494247,"lng":140.427711,"zip":"9691204"},{"town":"糠沢","koaza":"羽黒","lat":37.502296,"lng":140.427745,"zip":"9691204"},{"town":"和田","koaza":"苦木沢","lat":37.540988,"lng":140.430008,"zip":"9691205"},{"town":"糠沢","koaza":"耕網","lat":37.486553,"lng":140.429235,"zip":"9691204"},{"town":"糠沢","koaza":"南箕内","lat":37.49002,"lng":140.423075,"zip":"9691204"},{"town":"和田","koaza":"大谷戸","lat":37.51263,"lng":140.425558,"zip":"9691205"},{"town":"和田","koaza":"返シ内","lat":37.521626,"lng":140.429663,"zip":"9691205"},{"town":"和田","koaza":"北大沢","lat":37.543803,"lng":140.428288,"zip":"9691205"},{"town":"糠沢","koaza":"日向","lat":37.499198,"lng":140.429432,"zip":"9691204"},{"town":"和田","koaza":"竹ノ内","lat":37.514903,"lng":140.43015,"zip":"9691205"},{"town":"和田","koaza":"坂下","lat":37.545371,"lng":140.431672,"zip":"9691205"},{"town":"和田","koaza":"西明内","lat":37.532897,"lng":140.431889,"zip":"9691205"},{"town":"糠沢","koaza":"大黒","lat":37.49127,"lng":140.431929,"zip":"9691204"},{"town":"糠沢","koaza":"堀ノ内","lat":37.504207,"lng":140.431762,"zip":"9691204"},{"town":"和田","koaza":"二ツ池","lat":37.529885,"lng":140.430738,"zip":"9691205"},{"town":"糠沢","koaza":"作","lat":37.493875,"lng":140.435089,"zip":"9691204"},{"town":"糠沢","koaza":"光が丘","lat":37.488683,"lng":140.434161,"zip":"9691204"},{"town":"和田","koaza":"諏訪","lat":37.526605,"lng":140.432769,"zip":"9691205"},{"town":"糠沢","koaza":"小田部","lat":37.507985,"lng":140.43669,"zip":"9691204"},{"town":"和田","koaza":"江口","lat":37.550175,"lng":140.43704,"zip":"9691205"},{"town":"和田","koaza":"大木内","lat":37.51499,"lng":140.433854,"zip":"9691205"},{"town":"和田","koaza":"上境ノ内","lat":37.517871,"lng":140.435587,"zip":"9691205"},{"town":"糠沢","koaza":"久保内","lat":37.489102,"lng":140.437459,"zip":"9691204"},{"town":"糠沢","koaza":"愛宕","lat":37.504291,"lng":140.435608,"zip":"9691204"},{"town":"和田","koaza":"南","lat":37.533249,"lng":140.437497,"zip":"9691205"},{"town":"和田","koaza":"河内","lat":37.525532,"lng":140.435373,"zip":"9691205"},{"town":"糠沢","koaza":"五斗内","lat":37.500093,"lng":140.437525,"zip":"9691204"},{"town":"糠沢","koaza":"城ノ内","lat":37.486637,"lng":140.438762,"zip":"9691204"},{"town":"和田","koaza":"上百前","lat":37.52078,"lng":140.436492,"zip":"9691205"},{"town":"和田","koaza":"境ノ内","lat":37.513624,"lng":140.439513,"zip":"9691205"},{"town":"糠沢","koaza":"石神","lat":37.508659,"lng":140.441684,"zip":"9691204"},{"town":"和田","koaza":"下白旗","lat":37.535016,"lng":140.439828,"zip":"9691205"},{"town":"糠沢","koaza":"屏風石","lat":37.489958,"lng":140.440709,"zip":"9691204"},{"town":"糠沢","koaza":"五味内","lat":37.505088,"lng":140.444567,"zip":"9691204"},{"town":"和田","koaza":"喜多","lat":37.531546,"lng":140.438837,"zip":"9691205"},{"town":"糠沢","koaza":"石ケ作","lat":37.496844,"lng":140.442315,"zip":"9691204"},{"town":"糠沢","koaza":"川内","lat":37.506435,"lng":140.440663,"zip":"9691204"},{"town":"糠沢","koaza":"二斗内","lat":37.499872,"lng":140.445921,"zip":"9691204"},{"town":"和田","koaza":"下田","lat":37.525059,"lng":140.440914,"zip":"9691205"},{"town":"糠沢","koaza":"水上","lat":37.493649,"lng":140.442058,"zip":"9691204"},{"town":"和田","koaza":"柳田内","lat":37.513038,"lng":140.443763,"zip":"9691205"},{"town":"和田","koaza":"平田","lat":37.530903,"lng":140.4406,"zip":"9691205"},{"town":"糠沢","koaza":"呑田","lat":37.485405,"lng":140.443696,"zip":"9691204"},{"town":"和田","koaza":"除石","lat":37.51268,"lng":140.441354,"zip":"9691205"},{"town":"和田","koaza":"十王堂","lat":37.528149,"lng":140.44267,"zip":"9691205"},{"town":"和田","koaza":"作田","lat":37.521965,"lng":140.442804,"zip":"9691205"},{"town":"和田","koaza":"重神","lat":37.524265,"lng":140.442978,"zip":"9691205"},{"town":"和田","koaza":"学校前","lat":37.525543,"lng":140.443885,"zip":"9691205"},{"town":"和田","koaza":"対馬内","lat":37.516957,"lng":140.446707,"zip":"9691205"},{"town":"和田","koaza":"桜本","lat":37.522469,"lng":140.445335,"zip":"9691205"},{"town":"和田","koaza":"石上","lat":37.508459,"lng":140.448872,"zip":"9691205"},{"town":"和田","koaza":"久保","lat":37.525173,"lng":140.447833,"zip":"9691205"},{"town":"和田","koaza":"戌茂内","lat":37.512456,"lng":140.447813,"zip":"9691205"},{"town":"和田","koaza":"西岩角","lat":37.538811,"lng":140.448488,"zip":"9691205"},{"town":"和田","koaza":"牛ケ平","lat":37.513044,"lng":140.45259,"zip":"9691205"},{"town":"和田","koaza":"東屋口","lat":37.536407,"lng":140.452081,"zip":"9691205"},{"town":"和田","koaza":"桜内","lat":37.524795,"lng":140.450246,"zip":"9691205"},{"town":"和田","koaza":"平茂内","lat":37.519584,"lng":140.453041,"zip":"9691205"},{"town":"和田","koaza":"岩角","lat":37.539077,"lng":140.452056,"zip":"9691205"},{"town":"和田","koaza":"橋本","lat":37.530378,"lng":140.45222,"zip":"9691205"},{"town":"和田","koaza":"下見沢","lat":37.523587,"lng":140.464586,"zip":"9691205"},{"town":"長屋","koaza":"長屋平","lat":37.520187,"lng":140.45897,"zip":"9691206"},{"town":"和田","koaza":"東明石内","lat":37.535548,"lng":140.461977,"zip":"9691205"},{"town":"和田","koaza":"古山ノ内","lat":37.529852,"lng":140.46572,"zip":"9691205"},{"town":"長屋","koaza":"井ノ上後","lat":37.522242,"lng":140.465037,"zip":"9691206"},{"town":"和田","koaza":"山ノ内","lat":37.52884,"lng":140.466743,"zip":"9691205"},{"town":"関下","koaza":"上関下","lat":37.474501,"lng":140.363257,"zip":"9691105"},{"town":"関下","koaza":"石綱","lat":37.473055,"lng":140.36276,"zip":"9691105"},{"town":"関下","koaza":"堂ノ前","lat":37.473938,"lng":140.362856,"zip":"9691105"},{"town":"岩根","koaza":"中原田","lat":37.479898,"lng":140.356024,"zip":"9691106"},{"town":"岩根","koaza":"小屋舘山","lat":37.483677,"lng":140.347749,"zip":"9691106"},{"town":"岩根","koaza":"黒岩山","lat":37.478819,"lng":140.321182,"zip":"9691106"},{"town":"岩根","koaza":"上清水","lat":37.481894,"lng":140.326136,"zip":"9691106"},{"town":"岩根","koaza":"大原","lat":37.476892,"lng":140.326932,"zip":"9691106"},{"town":"岩根","koaza":"三池沢","lat":37.486911,"lng":140.347884,"zip":"9691106"},{"town":"岩根","koaza":"町裏","lat":37.482759,"lng":140.350418,"zip":"9691106"},{"town":"荒井","koaza":"膳棚","lat":37.48363,"lng":140.372357,"zip":"9691104"},{"town":"荒井","koaza":"梅木","lat":37.486326,"lng":140.372667,"zip":"9691104"},{"town":"荒井","koaza":"上沢","lat":37.489197,"lng":140.382707,"zip":"9691104"},{"town":"荒井","koaza":"北ノ内","lat":37.489709,"lng":140.382194,"zip":"9691104"},{"town":"青田","koaza":"東万風","lat":37.503244,"lng":140.387212,"zip":"9691107"},{"town":"青田","koaza":"中森","lat":37.503691,"lng":140.386662,"zip":"9691107"},{"town":"青田","koaza":"上ノ原","lat":37.505194,"lng":140.385434,"zip":"9691107"},{"town":"青田","koaza":"畑田","lat":37.497892,"lng":140.377954,"zip":"9691107"},{"town":"青田","koaza":"瀬戸田","lat":37.502246,"lng":140.375918,"zip":"9691107"},{"town":"青田","koaza":"羽山","lat":37.502819,"lng":140.373962,"zip":"9691107"},{"town":"荒井","koaza":"西畑","lat":37.495562,"lng":140.393437,"zip":"9691104"},{"town":"仁井田","koaza":"上山田","lat":37.504202,"lng":140.395234,"zip":"9691103"},{"town":"本宮","koaza":"雲雀田","lat":37.515084,"lng":140.392284,"zip":"9691176"},{"town":"本宮","koaza":"鳴瀬","lat":37.505088,"lng":140.402212,"zip":"9691176"},{"town":"高木","koaza":"赤木","lat":37.503272,"lng":140.408558,"zip":"9691101"},{"town":"高木","koaza":"諏訪","lat":37.506897,"lng":140.406898,"zip":"9691101"},{"town":"高木","koaza":"狐森","lat":37.505391,"lng":140.410654,"zip":"9691101"},{"town":"高木","koaza":"戸崎","lat":37.509935,"lng":140.408397,"zip":"9691101"},{"town":"高木","koaza":"愛宕","lat":37.510236,"lng":140.410215,"zip":"9691101"},{"town":"高木","koaza":"中滝","lat":37.510902,"lng":140.411524,"zip":"9691101"},{"town":"高木","koaza":"原","lat":37.507105,"lng":140.403013,"zip":"9691101"},{"town":"高木","koaza":"猫田","lat":37.504764,"lng":140.405062,"zip":"9691101"},{"town":"和田","koaza":"戸ノ内","lat":37.518976,"lng":140.429753,"zip":"9691205"},{"town":"和田","koaza":"暮々内","lat":37.519122,"lng":140.441041,"zip":"9691205"},{"town":"糠沢","koaza":"岩崎","lat":37.503993,"lng":140.438173,"zip":"9691204"},{"town":"和田","koaza":"末旅","lat":37.516726,"lng":140.454014,"zip":"9691205"},{"town":"和田","koaza":"稲荷","lat":37.518785,"lng":140.445863,"zip":"9691205"},{"town":"和田","koaza":"背戸窪","lat":37.52243,"lng":140.448922,"zip":"9691205"},{"town":"和田","koaza":"久保入","lat":37.521445,"lng":140.452946,"zip":"9691205"},{"town":"長屋","koaza":"井ノ上","lat":37.522337,"lng":140.465576,"zip":"9691206"},{"town":"和田","koaza":"北明石内","lat":37.529948,"lng":140.459751,"zip":"9691205"},{"town":"和田","koaza":"上明石内","lat":37.536341,"lng":140.456247,"zip":"9691205"},{"town":"和田","koaza":"西明石内","lat":37.539023,"lng":140.456382,"zip":"9691205"},{"town":"和田","koaza":"小舘","lat":37.533246,"lng":140.450947,"zip":"9691205"},{"town":"和田","koaza":"硯石","lat":37.531008,"lng":140.457244,"zip":"9691205"},{"town":"岩根","koaza":"入茗荷","lat":37.502968,"lng":140.329604,"zip":"9691106"},{"town":"岩根","koaza":"大森","lat":37.493846,"lng":140.328818,"zip":"9691106"},{"town":"岩根","koaza":"新林","lat":37.496211,"lng":140.349459,"zip":"9691106"},{"town":"岩根","koaza":"深沢","lat":37.49246,"lng":140.347263,"zip":"9691106"},{"town":"岩根","koaza":"万太山","lat":37.5,"lng":140.348527,"zip":"9691106"},{"town":"岩根","koaza":"上池ノ入","lat":37.499427,"lng":140.349318,"zip":"9691106"},{"town":"青田","koaza":"岩井","lat":37.506796,"lng":140.373058,"zip":"9691107"},{"town":"青田","koaza":"笠松山","lat":37.508618,"lng":140.372081,"zip":"9691107"},{"town":"青田","koaza":"片面山","lat":37.507895,"lng":140.378528,"zip":"9691107"},{"town":"青田","koaza":"高日向","lat":37.501533,"lng":140.373752,"zip":"9691107"},{"town":"青田","koaza":"行人段","lat":37.499916,"lng":140.379129,"zip":"9691107"},{"town":"本宮","koaza":"土樋","lat":37.510279,"lng":140.399994,"zip":"9691176"},{"town":"本宮","koaza":"小籏北","lat":37.523232,"lng":140.386462,"zip":"9691176"},{"town":"本宮","koaza":"広町","lat":37.522122,"lng":140.389455,"zip":"9691176"},{"town":"本宮","koaza":"上千束","lat":37.519,"lng":140.392195,"zip":"9691176"},{"town":"本宮","koaza":"田中","lat":37.518862,"lng":140.385347,"zip":"9691176"},{"town":"本宮","koaza":"南河原田","lat":37.518632,"lng":140.396899,"zip":"9691176"},{"town":"本宮","koaza":"北川原田","lat":37.518944,"lng":140.397565,"zip":"9691176"},{"town":"本宮","koaza":"鉄砲町","lat":37.519164,"lng":140.402655,"zip":"9691176"},{"town":"本宮","koaza":"矢来","lat":37.516962,"lng":140.400666,"zip":"9691176"},{"town":"本宮","koaza":"鍛冶免","lat":37.516305,"lng":140.39943,"zip":"9691176"},{"town":"高木","koaza":"新池","lat":37.510594,"lng":140.41318,"zip":"9691101"},{"town":"荒井","koaza":"大久保山","lat":37.490936,"lng":140.369515,"zip":"9691104"},{"town":"荒井","koaza":"羽山","lat":37.487456,"lng":140.370842,"zip":"9691104"},{"town":"荒井","koaza":"団子森","lat":37.484329,"lng":140.366613,"zip":"9691104"},{"town":"青田","koaza":"立石","lat":37.491085,"lng":140.359894,"zip":"9691107"},{"town":"荒井","koaza":"下原","lat":37.47827,"lng":140.375774,"zip":"9691104"},{"town":"荒井","koaza":"茶園","lat":37.486655,"lng":140.382487,"zip":"9691104"},{"town":"荒井","koaza":"荒町","lat":37.48636,"lng":140.384033,"zip":"9691104"},{"town":"岩根","koaza":"小塚山","lat":37.490675,"lng":140.34362,"zip":"9691106"},{"town":"岩根","koaza":"大谷地","lat":37.502965,"lng":140.321913,"zip":"9691106"},{"town":"岩根","koaza":"井戸神","lat":37.494258,"lng":140.326751,"zip":"9691106"},{"town":"岩根","koaza":"細塚","lat":37.492108,"lng":140.327573,"zip":"9691106"},{"town":"岩根","koaza":"大ノ木立","lat":37.492121,"lng":140.323138,"zip":"9691106"},{"town":"青田","koaza":"地蔵前","lat":37.496019,"lng":140.360834,"zip":"9691107"},{"town":"青田","koaza":"地蔵","lat":37.498866,"lng":140.35923,"zip":"9691107"},{"town":"本宮","koaza":"地蔵堂","lat":37.530594,"lng":140.395286,"zip":"9691176"},{"town":"本宮","koaza":"柳ノ内","lat":37.523852,"lng":140.404089,"zip":"9691176"},{"town":"本宮","koaza":"富ヶ峰","lat":37.530394,"lng":140.408414,"zip":"9691176"},{"town":"本宮","koaza":"作田台","lat":37.526492,"lng":140.406697,"zip":"9691176"},{"town":"本宮","koaza":"作田","lat":37.528984,"lng":140.410387,"zip":"9691176"},{"town":"本宮","koaza":"蛭田","lat":37.511504,"lng":140.399524,"zip":"9691176"},{"town":"青田","koaza":"丸森","lat":37.507889,"lng":140.375834,"zip":"9691107"},{"town":"本宮","koaza":"鹿ノ子田","lat":37.522941,"lng":140.397697,"zip":"9691176"},{"town":"和田","koaza":"西大夏張","lat":37.530647,"lng":140.419722,"zip":"9691205"},{"town":"高木","koaza":"大岩","lat":37.521745,"lng":140.416759,"zip":"9691101"},{"town":"和田","koaza":"堀ノ内","lat":37.527266,"lng":140.438726,"zip":"9691205"},{"town":"和田","koaza":"刑部内","lat":37.52819,"lng":140.447925,"zip":"9691205"},{"town":"和田","koaza":"中ノ宮","lat":37.529558,"lng":140.444691,"zip":"9691205"},{"town":"和田","koaza":"関宿","lat":37.527423,"lng":140.450695,"zip":"9691205"},{"town":"和田","koaza":"平内","lat":37.532181,"lng":140.443792,"zip":"9691205"},{"town":"和田","koaza":"屋口","lat":37.533317,"lng":140.445723,"zip":"9691205"},{"town":"和田","koaza":"一本松","lat":37.535833,"lng":140.445989,"zip":"9691205"},{"town":"和田","koaza":"白旗","lat":37.537037,"lng":140.435978,"zip":"9691205"},{"town":"和田","koaza":"上永作","lat":37.537071,"lng":140.439283,"zip":"9691205"},{"town":"荒井","koaza":"南作","lat":37.488684,"lng":140.374979,"zip":"9691104"},{"town":"荒井","koaza":"上曲田","lat":37.488009,"lng":140.374177,"zip":"9691104"},{"town":"本宮","koaza":"千束","lat":37.517776,"lng":140.394054,"zip":"9691176"},{"town":"本宮","koaza":"懸鉄","lat":37.516712,"lng":140.392279,"zip":"9691176"}]