[{"town":"大字上関河内","koaza":"","lat":36.828769,"lng":140.457963,"zip":"9635100"},{"town":"大字下関河内","koaza":"","lat":36.835132,"lng":140.437585,"zip":"9635100"},{"town":"大字山下","koaza":"","lat":36.835655,"lng":140.414692,"zip":"9635100"},{"town":"大字内川","koaza":"","lat":36.861094,"lng":140.379673,"zip":"9635100"},{"town":"大字茗荷","koaza":"","lat":36.892314,"lng":140.35824,"zip":"9635100"},{"town":"大字中石井","koaza":"","lat":36.917651,"lng":140.42656,"zip":"9635100"},{"town":"大字大垬","koaza":"","lat":36.807696,"lng":140.462428,"zip":"9635100"},{"town":"大字宝坂","koaza":"","lat":36.866906,"lng":140.445658,"zip":"9635100"},{"town":"大字高野","koaza":"","lat":36.84955,"lng":140.419937,"zip":"9635100"},{"town":"大字小田川","koaza":"","lat":36.857401,"lng":140.431198,"zip":"9635100"},{"town":"大字東舘","koaza":"","lat":36.875277,"lng":140.428002,"zip":"9635100"},{"town":"大字関岡","koaza":"","lat":36.871533,"lng":140.406127,"zip":"9635100"},{"town":"大字金沢","koaza":"","lat":36.881284,"lng":140.432816,"zip":"9635100"},{"town":"大字戸塚","koaza":"","lat":36.888901,"lng":140.421977,"zip":"9635100"},{"town":"大字下石井","koaza":"","lat":36.894838,"lng":140.433633,"zip":"9635100"}]