[{"town":"大字束原","koaza":"","lat":37.540146,"lng":139.864968,"zip":"9696500"},{"town":"大字束松","koaza":"","lat":37.582078,"lng":139.741384,"zip":"9696500"},{"town":"大字坂本","koaza":"","lat":37.552884,"lng":139.764381,"zip":"9696500"},{"town":"大字片門","koaza":"","lat":37.579711,"lng":139.758063,"zip":"9696500"},{"town":"大字青木","koaza":"","lat":37.592071,"lng":139.838627,"zip":"9696500"},{"town":"大字青津","koaza":"","lat":37.594853,"lng":139.824688,"zip":"9696500"},{"town":"大字合川","koaza":"","lat":37.584598,"lng":139.827392,"zip":"9696500"},{"town":"大字大上","koaza":"","lat":37.589254,"lng":139.811784,"zip":"9696500"},{"town":"大字立川","koaza":"","lat":37.584043,"lng":139.85672,"zip":"9696500"},{"town":"大字沼越","koaza":"","lat":37.585389,"lng":139.846183,"zip":"9696500"},{"town":"大字八日沢","koaza":"","lat":37.580366,"lng":139.813286,"zip":"9696500"},{"town":"大字見明","koaza":"","lat":37.587964,"lng":139.798281,"zip":"9696500"},{"town":"大字高寺","koaza":"","lat":37.587971,"lng":139.77799,"zip":"9696500"},{"town":"字石田甲","koaza":"","lat":37.558255,"lng":139.820036,"zip":"9696500"},{"town":"字上四十石甲","koaza":"","lat":37.566158,"lng":139.824709,"zip":"9696500"},{"town":"字上口甲","koaza":"","lat":37.562135,"lng":139.82611,"zip":"9696500"},{"town":"字下四十石甲","koaza":"","lat":37.568327,"lng":139.820981,"zip":"9696500"},{"town":"字中四十石甲","koaza":"","lat":37.567919,"lng":139.822463,"zip":"9696500"},{"town":"字川端丙","koaza":"","lat":37.557184,"lng":139.835019,"zip":"9696500"},{"town":"字舘ノ下甲","koaza":"","lat":37.563866,"lng":139.817382,"zip":"9696500"},{"town":"字大道甲","koaza":"","lat":37.565616,"lng":139.814766,"zip":"9696500"},{"town":"字上岩田甲","koaza":"","lat":37.561696,"lng":139.814149,"zip":"9696500"},{"town":"字舘ノ内","koaza":"","lat":37.562366,"lng":139.818779,"zip":"9696500"},{"town":"字下川前丙","koaza":"","lat":37.561448,"lng":139.834895,"zip":"9696500"},{"town":"字東上口甲","koaza":"","lat":37.56035,"lng":139.831082,"zip":"9696500"},{"town":"字沼田甲","koaza":"","lat":37.566724,"lng":139.813762,"zip":"9696500"},{"town":"字上柳田","koaza":"","lat":37.564654,"lng":139.808343,"zip":"9696500"},{"town":"大字開津","koaza":"","lat":37.535749,"lng":139.852669,"zip":"9696500"},{"town":"大字新開津","koaza":"","lat":37.545103,"lng":139.85014,"zip":"9696500"},{"town":"大字五ノ併","koaza":"","lat":37.539136,"lng":139.834596,"zip":"9696500"},{"town":"大字大沖","koaza":"","lat":37.543506,"lng":139.824046,"zip":"9696500"},{"town":"大字樋島","koaza":"","lat":37.534793,"lng":139.815782,"zip":"9696500"},{"town":"大字勝大","koaza":"","lat":37.531028,"lng":139.782716,"zip":"9696500"},{"town":"大字海老細","koaza":"","lat":37.550327,"lng":139.854401,"zip":"9696500"},{"town":"字上川原古川通乙","koaza":"","lat":37.55461,"lng":139.836015,"zip":"9696500"},{"town":"字福原前甲","koaza":"","lat":37.55764,"lng":139.835731,"zip":"9696500"},{"town":"字福原前","koaza":"","lat":37.559333,"lng":139.837074,"zip":"9696500"},{"town":"大字福原","koaza":"","lat":37.549498,"lng":139.840187,"zip":"9696500"},{"town":"字川端乙","koaza":"","lat":37.556357,"lng":139.834968,"zip":"9696500"},{"town":"字内新田乙","koaza":"","lat":37.555393,"lng":139.833449,"zip":"9696500"},{"town":"字原道東甲","koaza":"","lat":37.556168,"lng":139.825329,"zip":"9696500"},{"town":"大字羽林","koaza":"","lat":37.551183,"lng":139.831939,"zip":"9696500"},{"town":"字東川前丙","koaza":"","lat":37.556552,"lng":139.835433,"zip":"9696500"},{"town":"字道下丙","koaza":"","lat":37.55933,"lng":139.832574,"zip":"9696500"},{"town":"字上沼ノ上丙","koaza":"","lat":37.559627,"lng":139.832406,"zip":"9696500"},{"town":"字姥ケ下乙","koaza":"","lat":37.559582,"lng":139.831947,"zip":"9696500"},{"town":"字上ノ台乙","koaza":"","lat":37.559378,"lng":139.831159,"zip":"9696500"},{"town":"字台ノ下","koaza":"","lat":37.557372,"lng":139.832321,"zip":"9696500"},{"town":"字窪畑乙","koaza":"","lat":37.559498,"lng":139.830127,"zip":"9696500"},{"town":"字上窪道北乙","koaza":"","lat":37.560302,"lng":139.830732,"zip":"9696500"},{"town":"字東屋敷添乙","koaza":"","lat":37.559668,"lng":139.828675,"zip":"9696500"},{"town":"字家ノ前乙","koaza":"","lat":37.559415,"lng":139.8283,"zip":"9696500"},{"town":"字古市乙","koaza":"","lat":37.56016,"lng":139.828993,"zip":"9696500"},{"town":"字戌亥乙","koaza":"","lat":37.561201,"lng":139.828189,"zip":"9696500"},{"town":"字小川原","koaza":"","lat":37.557639,"lng":139.827549,"zip":"9696500"},{"town":"字北小川原乙","koaza":"","lat":37.559995,"lng":139.826338,"zip":"9696500"},{"town":"字小川原甲","koaza":"","lat":37.55933,"lng":139.825693,"zip":"9696500"},{"town":"字市中一番甲","koaza":"","lat":37.560671,"lng":139.827367,"zip":"9696500"},{"town":"字西ノ宮乙","koaza":"","lat":37.561439,"lng":139.827661,"zip":"9696500"},{"town":"字墓ノ根丙","koaza":"","lat":37.562078,"lng":139.829262,"zip":"9696500"},{"town":"字五反田甲","koaza":"","lat":37.558968,"lng":139.825163,"zip":"9696500"},{"town":"字光明寺東甲","koaza":"","lat":37.561634,"lng":139.825197,"zip":"9696500"},{"town":"字古屋敷甲","koaza":"","lat":37.562251,"lng":139.824055,"zip":"9696500"},{"town":"字政所前丙","koaza":"","lat":37.565258,"lng":139.827948,"zip":"9696500"},{"town":"字上口","koaza":"","lat":37.562601,"lng":139.830798,"zip":"9696500"},{"town":"字曲田","koaza":"","lat":37.554918,"lng":139.822271,"zip":"9696500"},{"town":"大字白狐","koaza":"","lat":37.552339,"lng":139.821118,"zip":"9696500"},{"town":"字市中二番甲","koaza":"","lat":37.560937,"lng":139.823695,"zip":"9696500"},{"town":"字五反田","koaza":"","lat":37.558261,"lng":139.823247,"zip":"9696500"},{"town":"字石田","koaza":"","lat":37.556796,"lng":139.820218,"zip":"9696500"},{"town":"字東南町裏甲","koaza":"","lat":37.560028,"lng":139.823781,"zip":"9696500"},{"town":"字大堀川西甲","koaza":"","lat":37.559799,"lng":139.821713,"zip":"9696500"},{"town":"字西南町裏甲","koaza":"","lat":37.559996,"lng":139.821018,"zip":"9696500"},{"town":"字茶屋町甲","koaza":"","lat":37.562663,"lng":139.821548,"zip":"9696500"},{"town":"字古町川尻","koaza":"","lat":37.56395,"lng":139.824203,"zip":"9696500"},{"town":"字松ノ目","koaza":"","lat":37.558428,"lng":139.817831,"zip":"9696500"},{"town":"字松ノ目甲","koaza":"","lat":37.560563,"lng":139.817326,"zip":"9696500"},{"town":"字沢ノ目","koaza":"","lat":37.558734,"lng":139.814904,"zip":"9696500"},{"town":"字市中三番甲","koaza":"","lat":37.561303,"lng":139.819933,"zip":"9696500"},{"town":"字舘ノ内甲","koaza":"","lat":37.56314,"lng":139.817622,"zip":"9696500"},{"town":"字沢ノ目甲","koaza":"","lat":37.561052,"lng":139.81573,"zip":"9696500"},{"town":"字市中四番甲","koaza":"","lat":37.561564,"lng":139.816928,"zip":"9696500"},{"town":"字北逆水甲","koaza":"","lat":37.561278,"lng":139.814993,"zip":"9696500"},{"town":"字一丁田甲","koaza":"","lat":37.565069,"lng":139.81521,"zip":"9696500"},{"town":"字市中新町甲","koaza":"","lat":37.563317,"lng":139.815435,"zip":"9696500"},{"town":"字大道","koaza":"","lat":37.567559,"lng":139.81337,"zip":"9696500"},{"town":"字舘ノ下","koaza":"","lat":37.564929,"lng":139.818932,"zip":"9696500"},{"town":"字中岡甲","koaza":"","lat":37.56525,"lng":139.814313,"zip":"9696500"},{"town":"字逆水","koaza":"","lat":37.558777,"lng":139.811739,"zip":"9696500"},{"town":"字中岩田","koaza":"","lat":37.561538,"lng":139.811968,"zip":"9696500"},{"town":"字上堰堀向","koaza":"","lat":37.56108,"lng":139.808793,"zip":"9696500"},{"town":"字惣六","koaza":"","lat":37.564118,"lng":139.811899,"zip":"9696500"},{"town":"字稲荷塚","koaza":"","lat":37.566917,"lng":139.81117,"zip":"9696500"},{"town":"字下堰堀向","koaza":"","lat":37.565795,"lng":139.805975,"zip":"9696500"},{"town":"大字船杉","koaza":"","lat":37.558644,"lng":139.79808,"zip":"9696500"},{"town":"大字牛川","koaza":"","lat":37.549332,"lng":139.796046,"zip":"9696500"},{"town":"大字宮古","koaza":"","lat":37.561423,"lng":139.854494,"zip":"9696500"},{"town":"大字五香","koaza":"","lat":37.570724,"lng":139.852473,"zip":"9696500"},{"town":"大字金上","koaza":"","lat":37.566155,"lng":139.841235,"zip":"9696500"},{"town":"大字御池田","koaza":"","lat":37.576179,"lng":139.844559,"zip":"9696500"},{"town":"大字三谷","koaza":"","lat":37.57854,"lng":139.834853,"zip":"9696500"},{"town":"字四十石","koaza":"","lat":37.567292,"lng":139.821918,"zip":"9696500"},{"town":"大字中泉","koaza":"","lat":37.571688,"lng":139.826466,"zip":"9696500"},{"town":"大字新舘","koaza":"","lat":37.57262,"lng":139.815218,"zip":"9696500"},{"town":"大字塔寺","koaza":"","lat":37.572435,"lng":139.799687,"zip":"9696500"},{"town":"大字気多宮","koaza":"","lat":37.566095,"lng":139.78207,"zip":"9696500"},{"town":"大字宇内","koaza":"","lat":37.601113,"lng":139.809931,"zip":"9696500"},{"town":"大字津尻","koaza":"","lat":37.605546,"lng":139.806798,"zip":"9696500"},{"town":"大字長井","koaza":"","lat":37.622438,"lng":139.790735,"zip":"9696500"},{"town":"字白子甲","koaza":"","lat":37.562447,"lng":139.826119,"zip":"9696500"},{"town":"大字坂本","koaza":"西ノ屋敷丁","lat":37.549201,"lng":139.751161,"zip":"9696500"},{"town":"大字坂本","koaza":"村中丁","lat":37.550696,"lng":139.756328,"zip":"9696500"},{"town":"大字坂本","koaza":"竹原丁","lat":37.550065,"lng":139.755002,"zip":"9696500"},{"town":"大字坂本","koaza":"居平丙","lat":37.556931,"lng":139.757483,"zip":"9696500"},{"town":"大字坂本","koaza":"滝坂ノ上山丙","lat":37.560706,"lng":139.757398,"zip":"9696500"},{"town":"大字坂本","koaza":"滝坂ノ上丙","lat":37.559741,"lng":139.760774,"zip":"9696500"},{"town":"大字坂本","koaza":"伊勢ノ木丁","lat":37.555208,"lng":139.765501,"zip":"9696500"},{"town":"大字坂本","koaza":"下新田丁","lat":37.554946,"lng":139.761185,"zip":"9696500"},{"town":"大字坂本","koaza":"窪甲","lat":37.556824,"lng":139.763101,"zip":"9696500"},{"town":"大字坂本","koaza":"下平山甲","lat":37.562644,"lng":139.764432,"zip":"9696500"},{"town":"大字坂本","koaza":"居下甲","lat":37.557285,"lng":139.767001,"zip":"9696500"},{"town":"大字坂本","koaza":"糠塚乙","lat":37.558358,"lng":139.769461,"zip":"9696500"},{"town":"大字気多宮","koaza":"沼尻","lat":37.563225,"lng":139.779598,"zip":"9696500"},{"town":"大字気多宮","koaza":"若林","lat":37.566593,"lng":139.786452,"zip":"9696500"},{"town":"大字気多宮","koaza":"宮ノ内","lat":37.57231,"lng":139.787429,"zip":"9696500"},{"town":"大字八日沢","koaza":"西東山","lat":37.580327,"lng":139.794988,"zip":"9696500"},{"town":"大字塔寺","koaza":"松原","lat":37.574175,"lng":139.796341,"zip":"9696500"},{"town":"大字見明","koaza":"堤帰","lat":37.587403,"lng":139.797201,"zip":"9696500"},{"town":"大字勝大","koaza":"上条","lat":37.532143,"lng":139.794551,"zip":"9696500"},{"town":"大字勝大","koaza":"沢口","lat":37.536312,"lng":139.794034,"zip":"9696500"},{"town":"大字勝大","koaza":"寺条","lat":37.53783,"lng":139.794199,"zip":"9696500"},{"town":"大字勝大","koaza":"宮田","lat":37.533724,"lng":139.795243,"zip":"9696500"},{"town":"大字勝大","koaza":"本村","lat":37.537551,"lng":139.796287,"zip":"9696500"},{"town":"大字勝大","koaza":"御舘田","lat":37.533268,"lng":139.796371,"zip":"9696500"},{"town":"大字勝大","koaza":"村中","lat":37.540416,"lng":139.798055,"zip":"9696500"},{"town":"大字勝大","koaza":"村北","lat":37.541658,"lng":139.799257,"zip":"9696500"},{"town":"大字塔寺","koaza":"北原","lat":37.57708,"lng":139.80031,"zip":"9696500"},{"town":"大字塔寺","koaza":"町浦","lat":37.573966,"lng":139.802449,"zip":"9696500"},{"town":"大字牛川","koaza":"西村中","lat":37.54871,"lng":139.802275,"zip":"9696500"},{"town":"大字塔寺","koaza":"杉境","lat":37.567568,"lng":139.802231,"zip":"9696500"},{"town":"大字牛川","koaza":"村中甲","lat":37.545367,"lng":139.806761,"zip":"9696500"},{"town":"大字見明","koaza":"南原","lat":37.582174,"lng":139.803952,"zip":"9696500"},{"town":"大字宇内","koaza":"向谷地乙","lat":37.603914,"lng":139.807932,"zip":"9696500"},{"town":"大字牛川","koaza":"南原","lat":37.542011,"lng":139.807293,"zip":"9696500"},{"town":"大字津尻","koaza":"村内","lat":37.608634,"lng":139.807116,"zip":"9696500"},{"town":"大字牛川","koaza":"砂田","lat":37.549325,"lng":139.808082,"zip":"9696500"},{"town":"大字気多宮","koaza":"柳田","lat":37.569374,"lng":139.807101,"zip":"9696500"},{"town":"大字牛川","koaza":"西新町","lat":37.556427,"lng":139.809073,"zip":"9696500"},{"town":"大字牛川","koaza":"林ノ越","lat":37.542977,"lng":139.809091,"zip":"9696500"},{"town":"大字樋島","koaza":"川前","lat":37.53114,"lng":139.809934,"zip":"9696500"},{"town":"大字新舘","koaza":"大西","lat":37.569076,"lng":139.809353,"zip":"9696500"},{"town":"大字牛川","koaza":"弥五畑","lat":37.55534,"lng":139.80967,"zip":"9696500"},{"town":"大字宇内","koaza":"五目","lat":37.596118,"lng":139.809817,"zip":"9696500"},{"town":"大字樋島","koaza":"久保西","lat":37.533534,"lng":139.810556,"zip":"9696500"},{"town":"大字宇内","koaza":"寺内","lat":37.599001,"lng":139.811088,"zip":"9696500"},{"town":"大字新舘","koaza":"村西","lat":37.571522,"lng":139.810964,"zip":"9696500"},{"town":"大字八日沢","koaza":"古屋敷乙","lat":37.574549,"lng":139.811887,"zip":"9696500"},{"town":"大字八日沢","koaza":"飯沼","lat":37.579601,"lng":139.811191,"zip":"9696500"},{"town":"大字樋島","koaza":"台畑","lat":37.532501,"lng":139.811102,"zip":"9696500"},{"town":"大字大上","koaza":"旱泥甲","lat":37.587071,"lng":139.811962,"zip":"9696500"},{"town":"大字新舘","koaza":"寺ノ西","lat":37.5731,"lng":139.811518,"zip":"9696500"},{"town":"大字樋島","koaza":"上野","lat":37.531462,"lng":139.813353,"zip":"9696500"},{"town":"大字新舘","koaza":"舘ノ内","lat":37.572175,"lng":139.812787,"zip":"9696500"},{"town":"大字宇内","koaza":"村北乙","lat":37.602934,"lng":139.812985,"zip":"9696500"},{"town":"大字牛川","koaza":"四百苅","lat":37.543609,"lng":139.813045,"zip":"9696500"},{"town":"大字宇内","koaza":"本寺甲","lat":37.597357,"lng":139.813628,"zip":"9696500"},{"town":"大字新舘","koaza":"ク子間","lat":37.570751,"lng":139.813348,"zip":"9696500"},{"town":"大字宇内","koaza":"北中甲","lat":37.599235,"lng":139.813538,"zip":"9696500"},{"town":"大字宇内","koaza":"古屋敷乙","lat":37.600915,"lng":139.81389,"zip":"9696500"},{"town":"大字牛川","koaza":"寿ノ宮","lat":37.543084,"lng":139.816233,"zip":"9696500"},{"town":"大字新舘","koaza":"矢矧田","lat":37.568583,"lng":139.814334,"zip":"9696500"},{"town":"大字宇内","koaza":"野大王甲","lat":37.601603,"lng":139.814556,"zip":"9696500"},{"town":"大字八日沢","koaza":"古屋敷甲","lat":37.578769,"lng":139.814545,"zip":"9696500"},{"town":"大字白狐","koaza":"北原甲","lat":37.552997,"lng":139.816336,"zip":"9696500"},{"town":"大字樋島","koaza":"千苅","lat":37.535949,"lng":139.816042,"zip":"9696500"},{"town":"大字白狐","koaza":"土堰甲","lat":37.555527,"lng":139.816746,"zip":"9696500"},{"town":"大字白狐","koaza":"古川甲","lat":37.556164,"lng":139.818997,"zip":"9696500"},{"town":"大字大沖","koaza":"大江","lat":37.542195,"lng":139.822241,"zip":"9696500"},{"town":"大字樋島","koaza":"高畑","lat":37.534643,"lng":139.822478,"zip":"9696500"},{"town":"大字大沖","koaza":"寺ノ西","lat":37.542261,"lng":139.821568,"zip":"9696500"},{"town":"大字大沖","koaza":"山ノ神","lat":37.543623,"lng":139.82162,"zip":"9696500"},{"town":"大字合川","koaza":"政所","lat":37.581871,"lng":139.825621,"zip":"9696500"},{"town":"大字大沖","koaza":"古屋敷","lat":37.544743,"lng":139.822271,"zip":"9696500"},{"town":"大字大沖","koaza":"村東","lat":37.540777,"lng":139.822489,"zip":"9696500"},{"town":"大字白狐","koaza":"堀北乙","lat":37.551778,"lng":139.823901,"zip":"9696500"},{"town":"大字白狐","koaza":"堀南乙","lat":37.55128,"lng":139.823902,"zip":"9696500"},{"town":"大字中泉","koaza":"屋敷添","lat":37.568921,"lng":139.824088,"zip":"9696500"},{"town":"大字五ノ併","koaza":"屋敷戊","lat":37.534372,"lng":139.826695,"zip":"9696500"},{"town":"大字中泉","koaza":"中屋敷","lat":37.571416,"lng":139.826921,"zip":"9696500"},{"town":"大字五ノ併","koaza":"村北戊","lat":37.535953,"lng":139.826594,"zip":"9696500"},{"town":"大字中泉","koaza":"毘沙田","lat":37.568729,"lng":139.827511,"zip":"9696500"},{"town":"大字合川","koaza":"場化","lat":37.586354,"lng":139.827834,"zip":"9696500"},{"town":"大字中泉","koaza":"中田","lat":37.572772,"lng":139.82794,"zip":"9696500"},{"town":"大字中泉","koaza":"上屋敷","lat":37.566989,"lng":139.827388,"zip":"9696500"},{"town":"大字羽林","koaza":"西碇","lat":37.555531,"lng":139.830721,"zip":"9696500"},{"town":"大字羽林","koaza":"柳ノ内","lat":37.553706,"lng":139.829004,"zip":"9696500"},{"town":"大字大沖","koaza":"沖ノ仲","lat":37.54627,"lng":139.829278,"zip":"9696500"},{"town":"大字五ノ併","koaza":"寺ノ前丙","lat":37.534049,"lng":139.830112,"zip":"9696500"},{"town":"大字羽林","koaza":"砂子田","lat":37.553752,"lng":139.830664,"zip":"9696500"},{"town":"大字五ノ併","koaza":"宮ノ台丁","lat":37.535186,"lng":139.830695,"zip":"9696500"},{"town":"大字羽林","koaza":"東村","lat":37.552901,"lng":139.831875,"zip":"9696500"},{"town":"大字五ノ併","koaza":"五百苅丙","lat":37.534133,"lng":139.831169,"zip":"9696500"},{"town":"大字五ノ併","koaza":"鑑田丙","lat":37.535642,"lng":139.83176,"zip":"9696500"},{"town":"大字青津","koaza":"石田","lat":37.589533,"lng":139.832173,"zip":"9696500"},{"town":"大字五ノ併","koaza":"成子丙","lat":37.533846,"lng":139.832551,"zip":"9696500"},{"town":"大字五ノ併","koaza":"橋本丁","lat":37.53937,"lng":139.832795,"zip":"9696500"},{"town":"大字三谷","koaza":"佐藤分","lat":37.578943,"lng":139.833084,"zip":"9696500"},{"town":"大字青木","koaza":"幕ノ内","lat":37.588028,"lng":139.833247,"zip":"9696500"},{"town":"大字金上","koaza":"屋敷ノ内","lat":37.569871,"lng":139.834148,"zip":"9696500"},{"town":"大字五ノ併","koaza":"七十苅丁","lat":37.538673,"lng":139.834612,"zip":"9696500"},{"town":"大字金上","koaza":"扇田","lat":37.569408,"lng":139.834904,"zip":"9696500"},{"town":"大字青木","koaza":"杉崎","lat":37.587782,"lng":139.83645,"zip":"9696500"},{"town":"大字五ノ併","koaza":"田中丙","lat":37.532753,"lng":139.836145,"zip":"9696500"},{"town":"大字青木","koaza":"吉原","lat":37.589575,"lng":139.838683,"zip":"9696500"},{"town":"大字福原","koaza":"殿田","lat":37.554466,"lng":139.836939,"zip":"9696500"},{"town":"大字青木","koaza":"八峠","lat":37.586265,"lng":139.837011,"zip":"9696500"},{"town":"大字五ノ併","koaza":"村東丙","lat":37.533083,"lng":139.836886,"zip":"9696500"},{"town":"大字福原","koaza":"屋敷添","lat":37.545245,"lng":139.837158,"zip":"9696500"},{"town":"大字金上","koaza":"西村","lat":37.565097,"lng":139.838885,"zip":"9696500"},{"town":"大字五ノ併","koaza":"問答川原甲","lat":37.532704,"lng":139.84001,"zip":"9696500"},{"town":"大字青木","koaza":"宮田","lat":37.587902,"lng":139.837993,"zip":"9696500"},{"town":"大字御池田","koaza":"寺ノ前","lat":37.575682,"lng":139.838453,"zip":"9696500"},{"town":"大字御池田","koaza":"大堀端","lat":37.573974,"lng":139.838719,"zip":"9696500"},{"town":"大字福原","koaza":"長泥","lat":37.559447,"lng":139.838937,"zip":"9696500"},{"town":"大字福原","koaza":"四ツ檀","lat":37.558283,"lng":139.838487,"zip":"9696500"},{"town":"大字御池田","koaza":"小池","lat":37.574123,"lng":139.842289,"zip":"9696500"},{"town":"大字福原","koaza":"中田","lat":37.549314,"lng":139.839753,"zip":"9696500"},{"town":"大字金上","koaza":"的場","lat":37.560338,"lng":139.839515,"zip":"9696500"},{"town":"大字五ノ併","koaza":"北川原甲","lat":37.533621,"lng":139.839704,"zip":"9696500"},{"town":"大字福原","koaza":"町尻","lat":37.551853,"lng":139.840323,"zip":"9696500"},{"town":"大字金上","koaza":"辰巳","lat":37.557975,"lng":139.842028,"zip":"9696500"},{"town":"大字福原","koaza":"福川原","lat":37.550533,"lng":139.841504,"zip":"9696500"},{"town":"大字金上","koaza":"舘","lat":37.564295,"lng":139.840814,"zip":"9696500"},{"town":"大字福原","koaza":"前田","lat":37.548626,"lng":139.84218,"zip":"9696500"},{"town":"大字沼越","koaza":"村西","lat":37.586234,"lng":139.843389,"zip":"9696500"},{"town":"大字御池田","koaza":"旭日","lat":37.572673,"lng":139.841712,"zip":"9696500"},{"town":"大字金上","koaza":"東村","lat":37.56352,"lng":139.844827,"zip":"9696500"},{"town":"大字金上","koaza":"畑添","lat":37.558932,"lng":139.844502,"zip":"9696500"},{"town":"大字宮古","koaza":"小川原","lat":37.554035,"lng":139.844229,"zip":"9696500"},{"town":"大字福原","koaza":"入子","lat":37.548972,"lng":139.843549,"zip":"9696500"},{"town":"大字宮古","koaza":"台畑","lat":37.558668,"lng":139.846671,"zip":"9696500"},{"town":"大字沼越","koaza":"村東","lat":37.584245,"lng":139.84567,"zip":"9696500"},{"town":"大字御池田","koaza":"山ノ神","lat":37.577023,"lng":139.846745,"zip":"9696500"},{"town":"大字新開津","koaza":"村内","lat":37.545382,"lng":139.848718,"zip":"9696500"},{"town":"大字金上","koaza":"太田谷地","lat":37.561208,"lng":139.848203,"zip":"9696500"},{"town":"大字新開津","koaza":"西又","lat":37.545427,"lng":139.847208,"zip":"9696500"},{"town":"大字御池田","koaza":"石田","lat":37.577238,"lng":139.848003,"zip":"9696500"},{"town":"大字宮古","koaza":"村西","lat":37.557325,"lng":139.849765,"zip":"9696500"},{"town":"大字宮古","koaza":"天神","lat":37.558502,"lng":139.849295,"zip":"9696500"},{"town":"大字沼越","koaza":"辻田","lat":37.583627,"lng":139.849377,"zip":"9696500"},{"town":"大字御池田","koaza":"江免","lat":37.574839,"lng":139.848231,"zip":"9696500"},{"town":"大字五香","koaza":"十日町","lat":37.568874,"lng":139.849043,"zip":"9696500"},{"town":"大字御池田","koaza":"道長","lat":37.576251,"lng":139.848382,"zip":"9696500"},{"town":"大字沼越","koaza":"高畑甲","lat":37.585276,"lng":139.84992,"zip":"9696500"},{"town":"大字海老細","koaza":"西村西甲","lat":37.552777,"lng":139.849014,"zip":"9696500"},{"town":"大字海老細","koaza":"西屋敷","lat":37.553157,"lng":139.849367,"zip":"9696500"},{"town":"大字金上","koaza":"上十日町","lat":37.567362,"lng":139.84965,"zip":"9696500"},{"town":"大字開津","koaza":"舘中","lat":37.536545,"lng":139.8514,"zip":"9696500"},{"town":"大字開津","koaza":"内畑","lat":37.532356,"lng":139.850585,"zip":"9696500"},{"town":"大字宮古","koaza":"中西","lat":37.55722,"lng":139.853074,"zip":"9696500"},{"town":"大字開津","koaza":"舘中乙","lat":37.536385,"lng":139.850744,"zip":"9696500"},{"town":"大字開津","koaza":"浄福甲","lat":37.531615,"lng":139.852137,"zip":"9696500"},{"town":"大字五香","koaza":"舘","lat":37.567327,"lng":139.852374,"zip":"9696500"},{"town":"大字立川","koaza":"金山","lat":37.584832,"lng":139.852804,"zip":"9696500"},{"town":"大字開津","koaza":"浄福","lat":37.530461,"lng":139.851351,"zip":"9696500"},{"town":"大字新開津","koaza":"七反田","lat":37.540821,"lng":139.854615,"zip":"9696500"},{"town":"大字五香","koaza":"六百苅","lat":37.576502,"lng":139.853478,"zip":"9696500"},{"town":"大字五香","koaza":"家ノ西","lat":37.566213,"lng":139.852927,"zip":"9696500"},{"town":"大字海老細","koaza":"東屋敷甲","lat":37.553339,"lng":139.853262,"zip":"9696500"},{"town":"大字開津","koaza":"江向甲","lat":37.530796,"lng":139.854363,"zip":"9696500"},{"town":"大字立川","koaza":"気新田","lat":37.583254,"lng":139.853774,"zip":"9696500"},{"town":"大字五香","koaza":"道上","lat":37.565587,"lng":139.853542,"zip":"9696500"},{"town":"大字五香","koaza":"道下","lat":37.567607,"lng":139.853922,"zip":"9696500"},{"town":"大字五香","koaza":"京出免","lat":37.570223,"lng":139.854433,"zip":"9696500"},{"town":"大字立川","koaza":"中立川","lat":37.583882,"lng":139.854726,"zip":"9696500"},{"town":"大字海老細","koaza":"東屋敷","lat":37.553408,"lng":139.854024,"zip":"9696500"},{"town":"大字五香","koaza":"寺内","lat":37.571589,"lng":139.855596,"zip":"9696500"},{"town":"大字宮古","koaza":"上横道","lat":37.558465,"lng":139.856512,"zip":"9696500"},{"town":"大字宮古","koaza":"東村","lat":37.556556,"lng":139.855895,"zip":"9696500"},{"town":"大字海老細","koaza":"大道下乙","lat":37.54912,"lng":139.857044,"zip":"9696500"},{"town":"大字宮古","koaza":"三合免","lat":37.560348,"lng":139.856822,"zip":"9696500"},{"town":"大字立川","koaza":"東立川","lat":37.583856,"lng":139.856352,"zip":"9696500"},{"town":"大字宮古","koaza":"下川原","lat":37.557368,"lng":139.856677,"zip":"9696500"},{"town":"大字立川","koaza":"角田","lat":37.588657,"lng":139.858451,"zip":"9696500"},{"town":"大字宮古","koaza":"宮北","lat":37.559992,"lng":139.858237,"zip":"9696500"},{"town":"大字海老細","koaza":"大道下","lat":37.549099,"lng":139.858056,"zip":"9696500"},{"town":"大字宮古","koaza":"川端","lat":37.562739,"lng":139.858568,"zip":"9696500"},{"town":"大字束原","koaza":"舘ノ内","lat":37.540496,"lng":139.859731,"zip":"9696500"},{"town":"大字束原","koaza":"塚田","lat":37.538428,"lng":139.860031,"zip":"9696500"},{"town":"大字束原","koaza":"前田","lat":37.538244,"lng":139.860859,"zip":"9696500"},{"town":"大字束原","koaza":"東","lat":37.539067,"lng":139.861569,"zip":"9696500"},{"town":"大字宇内","koaza":"三百苅乙","lat":37.601691,"lng":139.81233,"zip":"9696500"},{"town":"大字宇内","koaza":"墓ノ前乙","lat":37.600804,"lng":139.812164,"zip":"9696500"},{"town":"大字宇内","koaza":"狐塚甲","lat":37.601953,"lng":139.815903,"zip":"9696500"},{"town":"大字宇内","koaza":"下悪戸甲","lat":37.601555,"lng":139.81615,"zip":"9696500"},{"town":"大字宇内","koaza":"弁才天甲","lat":37.598948,"lng":139.812116,"zip":"9696500"},{"town":"大字大上","koaza":"柳ノ下","lat":37.587972,"lng":139.810993,"zip":"9696500"},{"town":"大字大上","koaza":"柳ノ下甲","lat":37.586998,"lng":139.809377,"zip":"9696500"},{"town":"大字八日沢","koaza":"天王北","lat":37.578411,"lng":139.814196,"zip":"9696500"},{"town":"大字塔寺","koaza":"上野","lat":37.569169,"lng":139.797142,"zip":"9696500"},{"town":"大字塔寺","koaza":"堤ノ上","lat":37.569212,"lng":139.791492,"zip":"9696500"},{"town":"大字坂本","koaza":"和泉境丙","lat":37.557867,"lng":139.761062,"zip":"9696500"},{"town":"大字坂本","koaza":"織部丁","lat":37.554196,"lng":139.760416,"zip":"9696500"},{"town":"大字坂本","koaza":"家ノ下丁","lat":37.552295,"lng":139.754963,"zip":"9696500"},{"town":"大字坂本","koaza":"日照田丁","lat":37.552029,"lng":139.759298,"zip":"9696500"},{"town":"大字勝大","koaza":"台畑","lat":37.535854,"lng":139.796313,"zip":"9696500"},{"town":"大字勝大","koaza":"新田","lat":37.544819,"lng":139.798768,"zip":"9696500"},{"town":"大字勝大","koaza":"村西","lat":37.541724,"lng":139.797866,"zip":"9696500"},{"town":"大字宮古","koaza":"村北","lat":37.558279,"lng":139.853503,"zip":"9696500"},{"town":"大字新開津","koaza":"上千刈","lat":37.54629,"lng":139.849356,"zip":"9696500"},{"town":"大字新開津","koaza":"金山","lat":37.545083,"lng":139.849532,"zip":"9696500"},{"town":"大字新開津","koaza":"江向","lat":37.539758,"lng":139.854952,"zip":"9696500"},{"town":"大字新開津","koaza":"七反田乙","lat":37.540457,"lng":139.854712,"zip":"9696500"},{"town":"大字海老細","koaza":"村南甲","lat":37.546754,"lng":139.857153,"zip":"9696500"},{"town":"大字海老細","koaza":"三百刈乙","lat":37.548155,"lng":139.856816,"zip":"9696500"},{"town":"大字海老細","koaza":"葭ノ免","lat":37.548129,"lng":139.855999,"zip":"9696500"},{"town":"大字海老細","koaza":"村南乙","lat":37.544799,"lng":139.857678,"zip":"9696500"},{"town":"大字開津","koaza":"台畑","lat":37.537414,"lng":139.850759,"zip":"9696500"},{"town":"大字開津","koaza":"村西","lat":37.531314,"lng":139.850197,"zip":"9696500"},{"town":"大字開津","koaza":"村西甲","lat":37.531581,"lng":139.850297,"zip":"9696500"},{"town":"大字五ノ併","koaza":"師々前丙","lat":37.537619,"lng":139.839124,"zip":"9696500"},{"town":"大字五ノ併","koaza":"江向乙","lat":37.53727,"lng":139.84166,"zip":"9696500"},{"town":"大字五ノ併","koaza":"中島乙","lat":37.536885,"lng":139.841794,"zip":"9696500"},{"town":"大字五ノ併","koaza":"村西丙","lat":37.532966,"lng":139.83458,"zip":"9696500"},{"town":"大字五ノ併","koaza":"権現堂丙","lat":37.536828,"lng":139.828362,"zip":"9696500"},{"town":"大字大沖","koaza":"舘ノ北","lat":37.543472,"lng":139.823412,"zip":"9696500"},{"town":"大字大沖","koaza":"砂子田","lat":37.547168,"lng":139.826234,"zip":"9696500"},{"town":"大字大沖","koaza":"吉原","lat":37.546366,"lng":139.824672,"zip":"9696500"},{"town":"大字羽林","koaza":"沢ノ目","lat":37.554853,"lng":139.831726,"zip":"9696500"},{"town":"大字福原","koaza":"松木古川前","lat":37.550553,"lng":139.845333,"zip":"9696500"},{"town":"大字福原","koaza":"家東","lat":37.550302,"lng":139.844233,"zip":"9696500"},{"town":"大字青木","koaza":"島","lat":37.585679,"lng":139.834472,"zip":"9696500"},{"town":"大字沼越","koaza":"村北","lat":37.586206,"lng":139.842938,"zip":"9696500"},{"town":"大字沼越","koaza":"下御池","lat":37.585647,"lng":139.841765,"zip":"9696500"},{"town":"大字沼越","koaza":"稲荷北","lat":37.583628,"lng":139.847822,"zip":"9696500"},{"town":"大字沼越","koaza":"川上","lat":37.583295,"lng":139.84465,"zip":"9696500"},{"town":"大字沼越","koaza":"村前","lat":37.583341,"lng":139.845157,"zip":"9696500"},{"town":"大字沼越","koaza":"山伏坂","lat":37.584586,"lng":139.848592,"zip":"9696500"},{"town":"大字沼越","koaza":"沢田","lat":37.58396,"lng":139.849273,"zip":"9696500"},{"town":"大字白狐","koaza":"定福地乙","lat":37.549876,"lng":139.828352,"zip":"9696500"},{"town":"大字羽林","koaza":"大畑","lat":37.555361,"lng":139.826683,"zip":"9696500"},{"town":"大字新舘","koaza":"森前","lat":37.569897,"lng":139.809135,"zip":"9696500"},{"town":"大字塔寺","koaza":"町尻","lat":37.571245,"lng":139.804463,"zip":"9696500"},{"town":"大字塔寺","koaza":"下川原","lat":37.571016,"lng":139.80387,"zip":"9696500"},{"town":"大字坂本","koaza":"石田丁","lat":37.551305,"lng":139.757437,"zip":"9696500"},{"town":"大字坂本","koaza":"上新田丁","lat":37.552985,"lng":139.756514,"zip":"9696500"},{"town":"大字津尻","koaza":"下川原","lat":37.60494,"lng":139.801892,"zip":"9696500"}]