[{"town":"大字四ツ谷","koaza":"","lat":37.397151,"lng":139.742419,"zip":"9697200"},{"town":"大字大柳","koaza":"","lat":37.511072,"lng":139.755133,"zip":"9697200"},{"town":"大字黒沢","koaza":"","lat":37.425013,"lng":139.665901,"zip":"9697200"},{"town":"大字芋小屋","koaza":"","lat":37.411482,"lng":139.689265,"zip":"9697200"},{"town":"大字胄中","koaza":"","lat":37.415962,"lng":139.675742,"zip":"9697200"},{"town":"大字牧沢","koaza":"","lat":37.430978,"lng":139.727313,"zip":"9697200"},{"town":"大字軽井沢","koaza":"","lat":37.477049,"lng":139.748934,"zip":"9697200"},{"town":"大字猪倉野","koaza":"","lat":37.496929,"lng":139.737437,"zip":"9697200"},{"town":"大字飯谷","koaza":"","lat":37.511715,"lng":139.686236,"zip":"9697200"},{"town":"大字細八","koaza":"","lat":37.535011,"lng":139.747458,"zip":"9697200"},{"town":"大字郷戸","koaza":"","lat":37.497302,"lng":139.7074,"zip":"9697200"},{"town":"大字藤","koaza":"","lat":37.561901,"lng":139.728527,"zip":"9697200"},{"town":"大字琵琶首","koaza":"","lat":37.377632,"lng":139.677472,"zip":"9697200"},{"town":"大字大成沢","koaza":"","lat":37.388461,"lng":139.707362,"zip":"9697200"},{"town":"大字五畳敷","koaza":"","lat":37.449529,"lng":139.704136,"zip":"9697200"},{"town":"大字砂子原","koaza":"","lat":37.444084,"lng":139.689923,"zip":"9697200"},{"town":"大字久保田","koaza":"","lat":37.459412,"lng":139.725927,"zip":"9697200"},{"town":"大字湯八木沢","koaza":"","lat":37.466371,"lng":139.697162,"zip":"9697200"},{"town":"大字柳津","koaza":"","lat":37.528293,"lng":139.724517,"zip":"9697200"},{"town":"大字小椿","koaza":"","lat":37.545368,"lng":139.70675,"zip":"9697200"}]