[{"town":"大字塩庭","koaza":"","lat":37.24155,"lng":140.624556,"zip":"9633400"},{"town":"大字上羽出庭","koaza":"","lat":37.231482,"lng":140.611098,"zip":"9633400"},{"town":"大字和名田","koaza":"","lat":37.215382,"lng":140.625911,"zip":"9633400"},{"town":"大字湯沢","koaza":"","lat":37.267863,"lng":140.675092,"zip":"9633400"},{"town":"大字夏井","koaza":"","lat":37.254532,"lng":140.664916,"zip":"9633400"},{"town":"大字南田原井","koaza":"","lat":37.240216,"lng":140.647585,"zip":"9633400"},{"town":"大字飯豊","koaza":"","lat":37.319272,"lng":140.631883,"zip":"9633400"},{"town":"大字雁股田","koaza":"","lat":37.273303,"lng":140.572896,"zip":"9633400"},{"town":"大字谷津作","koaza":"","lat":37.271708,"lng":140.631302,"zip":"9633400"},{"town":"大字小野赤沼","koaza":"","lat":37.275693,"lng":140.612145,"zip":"9633400"},{"town":"大字小野新町","koaza":"","lat":37.290727,"lng":140.626677,"zip":"9633400"},{"town":"大字浮金","koaza":"","lat":37.340895,"lng":140.561559,"zip":"9633400"},{"town":"大字吉野辺","koaza":"","lat":37.334282,"lng":140.599051,"zip":"9633400"},{"town":"大字皮籠石","koaza":"","lat":37.288183,"lng":140.60313,"zip":"9633400"},{"town":"大字菖蒲谷","koaza":"","lat":37.277209,"lng":140.593339,"zip":"9633400"},{"town":"大字小野山神","koaza":"","lat":37.302092,"lng":140.567881,"zip":"9633400"},{"town":"大字小戸神","koaza":"","lat":37.308778,"lng":140.583717,"zip":"9633400"},{"town":"大字雁股田","koaza":"永風","lat":37.272208,"lng":140.562631,"zip":"9633400"},{"town":"大字小野山神","koaza":"日向","lat":37.303123,"lng":140.558878,"zip":"9633400"},{"town":"大字小野山神","koaza":"北ノ前","lat":37.295908,"lng":140.57327,"zip":"9633400"},{"town":"大字小野山神","koaza":"桜沢","lat":37.301181,"lng":140.573063,"zip":"9633400"},{"town":"大字小戸神","koaza":"宮ノ前","lat":37.312603,"lng":140.585927,"zip":"9633400"},{"town":"大字小野山神","koaza":"畑田","lat":37.301938,"lng":140.576836,"zip":"9633400"},{"town":"大字雁股田","koaza":"仁井殿","lat":37.268251,"lng":140.58085,"zip":"9633400"},{"town":"大字小戸神","koaza":"葭作","lat":37.307207,"lng":140.577133,"zip":"9633400"},{"town":"大字雁股田","koaza":"中ノ内","lat":37.259173,"lng":140.580436,"zip":"9633400"},{"town":"大字浮金","koaza":"日影","lat":37.325383,"lng":140.583309,"zip":"9633400"},{"town":"大字雁股田","koaza":"堀切","lat":37.26922,"lng":140.584442,"zip":"9633400"},{"town":"大字雁股田","koaza":"表前","lat":37.268875,"lng":140.587624,"zip":"9633400"},{"town":"大字飯豊","koaza":"三又","lat":37.311807,"lng":140.591677,"zip":"9633400"},{"town":"大字飯豊","koaza":"滝平","lat":37.319541,"lng":140.588949,"zip":"9633400"},{"town":"大字吉野辺","koaza":"鍋鷺","lat":37.326002,"lng":140.588918,"zip":"9633400"},{"town":"大字菖蒲谷","koaza":"鹿島","lat":37.275168,"lng":140.592993,"zip":"9633400"},{"town":"大字小戸神","koaza":"九郎田","lat":37.299063,"lng":140.584077,"zip":"9633400"},{"town":"大字小戸神","koaza":"本南内","lat":37.30171,"lng":140.594893,"zip":"9633400"},{"town":"大字小戸神","koaza":"ツブラタ","lat":37.295443,"lng":140.594031,"zip":"9633400"},{"town":"大字小戸神","koaza":"夫内","lat":37.306621,"lng":140.593606,"zip":"9633400"},{"town":"大字飯豊","koaza":"新嘉野","lat":37.30997,"lng":140.594917,"zip":"9633400"},{"town":"大字飯豊","koaza":"壇ノ腰","lat":37.311884,"lng":140.596721,"zip":"9633400"},{"town":"大字飯豊","koaza":"川向","lat":37.308214,"lng":140.596605,"zip":"9633400"},{"town":"大字小戸神","koaza":"請地","lat":37.301353,"lng":140.600606,"zip":"9633400"},{"town":"大字皮籠石","koaza":"漆平","lat":37.287869,"lng":140.596592,"zip":"9633400"},{"town":"大字飯豊","koaza":"中森","lat":37.309262,"lng":140.599118,"zip":"9633400"},{"town":"大字菖蒲谷","koaza":"北ノ内","lat":37.277635,"lng":140.600269,"zip":"9633400"},{"town":"大字小野赤沼","koaza":"鉢塚","lat":37.270664,"lng":140.603503,"zip":"9633400"},{"town":"大字皮籠石","koaza":"宮ノ前","lat":37.288788,"lng":140.602688,"zip":"9633400"},{"town":"大字菖蒲谷","koaza":"前田","lat":37.275539,"lng":140.601455,"zip":"9633400"},{"town":"大字小戸神","koaza":"五斗蒔","lat":37.301178,"lng":140.608504,"zip":"9633400"},{"town":"大字皮籠石","koaza":"大平","lat":37.282471,"lng":140.604091,"zip":"9633400"},{"town":"大字小野赤沼","koaza":"高坊前","lat":37.276116,"lng":140.603412,"zip":"9633400"},{"town":"大字飯豊","koaza":"田尻","lat":37.321684,"lng":140.601053,"zip":"9633400"},{"town":"大字皮籠石","koaza":"鶴庭","lat":37.295455,"lng":140.606461,"zip":"9633400"},{"town":"大字吉野辺","koaza":"遠上","lat":37.332477,"lng":140.603971,"zip":"9633400"},{"town":"大字皮籠石","koaza":"北ノ内","lat":37.287184,"lng":140.607785,"zip":"9633400"},{"town":"大字小戸神","koaza":"李作","lat":37.299747,"lng":140.609416,"zip":"9633400"},{"town":"大字飯豊","koaza":"後ロ田","lat":37.318314,"lng":140.606697,"zip":"9633400"},{"town":"大字飯豊","koaza":"月清水","lat":37.307925,"lng":140.608359,"zip":"9633400"},{"town":"大字小野赤沼","koaza":"折越","lat":37.283245,"lng":140.610315,"zip":"9633400"},{"town":"大字吉野辺","koaza":"風越","lat":37.340063,"lng":140.6088,"zip":"9633400"},{"town":"大字塩庭","koaza":"山口","lat":37.265265,"lng":140.60411,"zip":"9633400"},{"town":"大字皮籠石","koaza":"皀角子平","lat":37.290381,"lng":140.61101,"zip":"9633400"},{"town":"大字飯豊","koaza":"北ノ作","lat":37.323077,"lng":140.609375,"zip":"9633400"},{"town":"大字吉野辺","koaza":"土橋","lat":37.335562,"lng":140.608849,"zip":"9633400"},{"town":"大字飯豊","koaza":"寺ノ下","lat":37.312165,"lng":140.610434,"zip":"9633400"},{"town":"大字飯豊","koaza":"大豆柄","lat":37.303063,"lng":140.613506,"zip":"9633400"},{"town":"大字小野赤沼","koaza":"腰巻","lat":37.278356,"lng":140.610613,"zip":"9633400"},{"town":"大字小野新町","koaza":"馬番","lat":37.292689,"lng":140.613773,"zip":"9633400"},{"town":"大字吉野辺","koaza":"滝","lat":37.331239,"lng":140.612178,"zip":"9633400"},{"town":"大字飯豊","koaza":"本飯豊","lat":37.30282,"lng":140.615656,"zip":"9633400"},{"town":"大字飯豊","koaza":"八幡","lat":37.312864,"lng":140.615449,"zip":"9633400"},{"town":"大字飯豊","koaza":"浮内","lat":37.315619,"lng":140.612828,"zip":"9633400"},{"town":"大字飯豊","koaza":"落合","lat":37.299401,"lng":140.617233,"zip":"9633400"},{"town":"大字小野新町","koaza":"七生根","lat":37.288102,"lng":140.618882,"zip":"9633400"},{"town":"大字小野新町","koaza":"美売","lat":37.293657,"lng":140.617933,"zip":"9633400"},{"town":"大字飯豊","koaza":"長久保","lat":37.337186,"lng":140.621076,"zip":"9633400"},{"town":"大字吉野辺","koaza":"関場","lat":37.320298,"lng":140.610528,"zip":"9633400"},{"town":"大字小戸神","koaza":"坪毛","lat":37.297113,"lng":140.61534,"zip":"9633400"},{"town":"大字吉野辺","koaza":"坊内","lat":37.327841,"lng":140.616198,"zip":"9633400"},{"town":"大字飯豊","koaza":"五反田","lat":37.305367,"lng":140.616752,"zip":"9633400"},{"town":"大字塩庭","koaza":"大六","lat":37.258907,"lng":140.61764,"zip":"9633400"},{"town":"大字皮籠石","koaza":"寺脇","lat":37.285153,"lng":140.616752,"zip":"9633400"},{"town":"大字小野赤沼","koaza":"関根前","lat":37.280463,"lng":140.618225,"zip":"9633400"},{"town":"大字小野赤沼","koaza":"西ノ妻","lat":37.279196,"lng":140.620901,"zip":"9633400"},{"town":"大字飯豊","koaza":"乙森","lat":37.306462,"lng":140.61795,"zip":"9633400"},{"town":"大字飯豊","koaza":"坂東内前","lat":37.298037,"lng":140.620298,"zip":"9633400"},{"town":"大字飯豊","koaza":"竹ノ作","lat":37.305749,"lng":140.62054,"zip":"9633400"},{"town":"大字小野新町","koaza":"宿ノ後","lat":37.283438,"lng":140.623102,"zip":"9633400"},{"town":"大字小野新町","koaza":"八反田","lat":37.295229,"lng":140.620592,"zip":"9633400"},{"town":"大字谷津作","koaza":"下中沢","lat":37.262735,"lng":140.631803,"zip":"9633400"},{"town":"大字飯豊","koaza":"二本木","lat":37.30092,"lng":140.619437,"zip":"9633400"},{"town":"大字塩庭","koaza":"平内","lat":37.256644,"lng":140.624966,"zip":"9633400"},{"town":"大字小野新町","koaza":"寺下","lat":37.282672,"lng":140.620195,"zip":"9633400"},{"town":"大字小野赤沼","koaza":"金屋","lat":37.28024,"lng":140.621866,"zip":"9633400"},{"town":"大字飯豊","koaza":"葉ノ木立","lat":37.322085,"lng":140.623733,"zip":"9633400"},{"town":"大字小野新町","koaza":"品ノ木","lat":37.290978,"lng":140.624756,"zip":"9633400"},{"town":"大字小野新町","koaza":"小白井","lat":37.292333,"lng":140.622082,"zip":"9633400"},{"town":"大字小野新町","koaza":"知宗","lat":37.293104,"lng":140.623576,"zip":"9633400"},{"town":"大字小野赤沼","koaza":"入木前","lat":37.279747,"lng":140.625956,"zip":"9633400"},{"town":"大字小野新町","koaza":"本町","lat":37.284746,"lng":140.62469,"zip":"9633400"},{"town":"大字小野赤沼","koaza":"物木作","lat":37.277183,"lng":140.627247,"zip":"9633400"},{"town":"大字飯豊","koaza":"三王堂","lat":37.309129,"lng":140.626634,"zip":"9633400"},{"town":"大字谷津作","koaza":"谷津","lat":37.274458,"lng":140.628689,"zip":"9633400"},{"town":"大字小野新町","koaza":"小太内","lat":37.293298,"lng":140.627879,"zip":"9633400"},{"town":"大字小野新町","koaza":"横町","lat":37.284853,"lng":140.627435,"zip":"9633400"},{"town":"大字小野新町","koaza":"荒町","lat":37.283403,"lng":140.6274,"zip":"9633400"},{"town":"大字小野新町","koaza":"門番","lat":37.282506,"lng":140.627446,"zip":"9633400"},{"town":"大字小野新町","koaza":"仲町","lat":37.285891,"lng":140.628206,"zip":"9633400"},{"town":"大字小野新町","koaza":"中通","lat":37.280964,"lng":140.630209,"zip":"9633400"},{"town":"大字小野新町","koaza":"槻木内","lat":37.288297,"lng":140.628753,"zip":"9633400"},{"town":"大字小野新町","koaza":"万景上","lat":37.280973,"lng":140.63186,"zip":"9633400"},{"town":"大字小野新町","koaza":"万景","lat":37.283662,"lng":140.628335,"zip":"9633400"},{"town":"大字谷津作","koaza":"和久","lat":37.276791,"lng":140.629979,"zip":"9633400"},{"town":"大字小野新町","koaza":"反町","lat":37.285686,"lng":140.628841,"zip":"9633400"},{"town":"大字飯豊","koaza":"梅ノ木畑","lat":37.338019,"lng":140.635083,"zip":"9633400"},{"town":"大字谷津作","koaza":"前之内","lat":37.271357,"lng":140.629587,"zip":"9633400"},{"town":"大字飯豊","koaza":"兄弟内","lat":37.312856,"lng":140.630845,"zip":"9633400"},{"town":"大字小野新町","koaza":"前久保","lat":37.286407,"lng":140.632914,"zip":"9633400"},{"town":"大字飯豊","koaza":"松ノ下","lat":37.316416,"lng":140.63528,"zip":"9633400"},{"town":"大字谷津作","koaza":"安橋","lat":37.276225,"lng":140.633329,"zip":"9633400"},{"town":"大字飯豊","koaza":"新田内","lat":37.327153,"lng":140.637158,"zip":"9633400"},{"town":"大字谷津作","koaza":"久戸塚","lat":37.273028,"lng":140.632778,"zip":"9633400"},{"town":"大字谷津作","koaza":"平舘","lat":37.275599,"lng":140.635418,"zip":"9633400"},{"town":"大字飯豊","koaza":"下ノ入","lat":37.318435,"lng":140.6329,"zip":"9633400"},{"town":"大字谷津作","koaza":"鬼石","lat":37.278194,"lng":140.637209,"zip":"9633400"},{"town":"大字小野新町","koaza":"七合田","lat":37.287707,"lng":140.636939,"zip":"9633400"},{"town":"大字夏井","koaza":"作田","lat":37.261263,"lng":140.63803,"zip":"9633400"},{"town":"大字小野新町","koaza":"団子田","lat":37.284749,"lng":140.635058,"zip":"9633400"},{"town":"大字小野新町","koaza":"東馬番","lat":37.28354,"lng":140.637223,"zip":"9633400"},{"town":"大字飯豊","koaza":"堂ノ脇","lat":37.324056,"lng":140.643677,"zip":"9633400"},{"town":"大字谷津作","koaza":"松葉","lat":37.272098,"lng":140.638511,"zip":"9633400"},{"town":"大字谷津作","koaza":"池ノ平","lat":37.268589,"lng":140.642876,"zip":"9633400"},{"town":"大字谷津作","koaza":"小治郎","lat":37.274586,"lng":140.640409,"zip":"9633400"},{"town":"大字飯豊","koaza":"長石","lat":37.320713,"lng":140.64515,"zip":"9633400"},{"town":"大字夏井","koaza":"川除","lat":37.268841,"lng":140.649091,"zip":"9633400"},{"town":"大字夏井","koaza":"太子堂","lat":37.260276,"lng":140.652862,"zip":"9633400"},{"town":"大字夏井","koaza":"穴子","lat":37.260552,"lng":140.648772,"zip":"9633400"},{"town":"大字夏井","koaza":"寺谷津作","lat":37.256661,"lng":140.649754,"zip":"9633400"},{"town":"大字夏井","koaza":"古宿","lat":37.262102,"lng":140.663097,"zip":"9633400"},{"town":"大字夏井","koaza":"中沖","lat":37.249155,"lng":140.667267,"zip":"9633400"},{"town":"大字夏井","koaza":"原","lat":37.248329,"lng":140.666669,"zip":"9633400"},{"town":"大字夏井","koaza":"橋本","lat":37.245673,"lng":140.671335,"zip":"9633400"},{"town":"大字夏井","koaza":"高屋敷","lat":37.246399,"lng":140.676622,"zip":"9633400"},{"town":"大字夏井","koaza":"清水","lat":37.249612,"lng":140.672416,"zip":"9633400"},{"town":"大字夏井","koaza":"町屋","lat":37.256371,"lng":140.662628,"zip":"9633400"},{"town":"大字夏井","koaza":"浮内","lat":37.252177,"lng":140.664827,"zip":"9633400"},{"town":"大字夏井","koaza":"都沢","lat":37.256434,"lng":140.666565,"zip":"9633400"},{"town":"大字夏井","koaza":"石ノ平","lat":37.253338,"lng":140.668895,"zip":"9633400"},{"town":"大字夏井","koaza":"上樋口","lat":37.258774,"lng":140.65544,"zip":"9633400"},{"town":"大字夏井","koaza":"午天王","lat":37.256693,"lng":140.657505,"zip":"9633400"},{"town":"大字夏井","koaza":"夏井","lat":37.258279,"lng":140.655071,"zip":"9633400"},{"town":"大字夏井","koaza":"下樋口","lat":37.258438,"lng":140.657955,"zip":"9633400"},{"town":"大字谷津作","koaza":"南作","lat":37.271422,"lng":140.634101,"zip":"9633400"},{"town":"大字谷津作","koaza":"馬場","lat":37.27412,"lng":140.636228,"zip":"9633400"},{"town":"大字谷津作","koaza":"峰ケ崎","lat":37.274894,"lng":140.63389,"zip":"9633400"},{"town":"大字谷津作","koaza":"名馬","lat":37.269333,"lng":140.626924,"zip":"9633400"},{"town":"大字谷津作","koaza":"金堀石","lat":37.269733,"lng":140.629006,"zip":"9633400"},{"town":"大字小野赤沼","koaza":"鳥井平","lat":37.279088,"lng":140.627142,"zip":"9633400"},{"town":"大字小野赤沼","koaza":"宮ノ下","lat":37.277463,"lng":140.625917,"zip":"9633400"},{"town":"大字夏井","koaza":"南原","lat":37.256614,"lng":140.658238,"zip":"9633400"},{"town":"大字谷津作","koaza":"所久保","lat":37.271345,"lng":140.64416,"zip":"9633400"},{"town":"大字谷津作","koaza":"下都","lat":37.275984,"lng":140.638765,"zip":"9633400"},{"town":"大字皮籠石","koaza":"五百成","lat":37.285038,"lng":140.615014,"zip":"9633400"},{"town":"大字皮籠石","koaza":"大原","lat":37.287146,"lng":140.596058,"zip":"9633400"},{"town":"大字菖蒲谷","koaza":"仲田","lat":37.277168,"lng":140.595401,"zip":"9633400"},{"town":"大字菖蒲谷","koaza":"高屋敷","lat":37.275366,"lng":140.598904,"zip":"9633400"},{"town":"大字小野赤沼","koaza":"作入","lat":37.281011,"lng":140.61204,"zip":"9633400"},{"town":"大字小野赤沼","koaza":"折戸","lat":37.282152,"lng":140.612705,"zip":"9633400"},{"town":"大字小野赤沼","koaza":"西ノ内","lat":37.280134,"lng":140.614705,"zip":"9633400"},{"town":"大字小野赤沼","koaza":"夫内前","lat":37.281545,"lng":140.615778,"zip":"9633400"},{"town":"大字雁股田","koaza":"表","lat":37.267826,"lng":140.584695,"zip":"9633400"},{"town":"大字小野新町","koaza":"殿町","lat":37.286253,"lng":140.626796,"zip":"9633400"},{"town":"大字小野新町","koaza":"宮ノ脇","lat":37.296071,"lng":140.637954,"zip":"9633400"},{"town":"大字飯豊","koaza":"一盃森","lat":37.304139,"lng":140.617784,"zip":"9633400"},{"town":"大字飯豊","koaza":"大妻","lat":37.307545,"lng":140.600517,"zip":"9633400"},{"town":"大字飯豊","koaza":"腰巻","lat":37.308954,"lng":140.601651,"zip":"9633400"},{"town":"大字飯豊","koaza":"土腐","lat":37.307833,"lng":140.602763,"zip":"9633400"},{"town":"大字小野新町","koaza":"光明院","lat":37.282104,"lng":140.624672,"zip":"9633400"},{"town":"大字夏井","koaza":"大平","lat":37.25974,"lng":140.630254,"zip":"9633400"},{"town":"大字夏井","koaza":"百目木","lat":37.259678,"lng":140.631942,"zip":"9633400"},{"town":"大字塩庭","koaza":"宮ノ前","lat":37.260784,"lng":140.62481,"zip":"9633400"},{"town":"大字塩庭","koaza":"明生内","lat":37.260484,"lng":140.618133,"zip":"9633400"},{"town":"大字塩庭","koaza":"夫内","lat":37.265064,"lng":140.615352,"zip":"9633400"},{"town":"大字塩庭","koaza":"中之内","lat":37.259938,"lng":140.62042,"zip":"9633400"},{"town":"大字塩庭","koaza":"品ノ木","lat":37.264781,"lng":140.611358,"zip":"9633400"},{"town":"大字塩庭","koaza":"畑ノ作","lat":37.262099,"lng":140.602911,"zip":"9633400"},{"town":"大字塩庭","koaza":"南府中","lat":37.263705,"lng":140.601701,"zip":"9633400"},{"town":"大字塩庭","koaza":"神山","lat":37.265404,"lng":140.597928,"zip":"9633400"},{"town":"大字塩庭","koaza":"池ノ作","lat":37.258406,"lng":140.613566,"zip":"9633400"},{"town":"大字塩庭","koaza":"畠井田","lat":37.252298,"lng":140.614118,"zip":"9633400"},{"town":"大字小野赤沼","koaza":"赤沼","lat":37.279607,"lng":140.623358,"zip":"9633400"},{"town":"大字皮籠石","koaza":"糀内","lat":37.2884,"lng":140.611961,"zip":"9633400"},{"town":"大字谷津作","koaza":"高山","lat":37.2719,"lng":140.626872,"zip":"9633400"},{"town":"大字谷津作","koaza":"中沢","lat":37.266357,"lng":140.622982,"zip":"9633400"},{"town":"大字小野赤沼","koaza":"入房内","lat":37.27953,"lng":140.613028,"zip":"9633400"},{"town":"大字小野赤沼","koaza":"四郎坊","lat":37.278384,"lng":140.605671,"zip":"9633400"},{"town":"大字小野赤沼","koaza":"権現前","lat":37.27753,"lng":140.602447,"zip":"9633400"},{"town":"大字小野赤沼","koaza":"石橋","lat":37.277959,"lng":140.603321,"zip":"9633400"},{"town":"大字小野赤沼","koaza":"漆坊","lat":37.278721,"lng":140.604502,"zip":"9633400"},{"town":"大字小野赤沼","koaza":"永田原","lat":37.275537,"lng":140.606996,"zip":"9633400"},{"town":"大字小野赤沼","koaza":"真新屋","lat":37.277844,"lng":140.609755,"zip":"9633400"},{"town":"大字小野赤沼","koaza":"内堀子","lat":37.279955,"lng":140.610188,"zip":"9633400"},{"town":"大字小野赤沼","koaza":"新屋敷","lat":37.279029,"lng":140.607498,"zip":"9633400"},{"town":"大字小野赤沼","koaza":"鬼子田","lat":37.281059,"lng":140.606311,"zip":"9633400"},{"town":"大字小戸神","koaza":"日向","lat":37.305923,"lng":140.583354,"zip":"9633400"},{"town":"大字小戸神","koaza":"山田","lat":37.302862,"lng":140.590222,"zip":"9633400"},{"town":"大字小戸神","koaza":"南内","lat":37.305409,"lng":140.595885,"zip":"9633400"},{"town":"大字小戸神","koaza":"越田和","lat":37.304314,"lng":140.598091,"zip":"9633400"},{"town":"大字飯豊","koaza":"西作","lat":37.311976,"lng":140.590183,"zip":"9633400"},{"town":"大字飯豊","koaza":"大竹","lat":37.313575,"lng":140.612175,"zip":"9633400"},{"town":"大字飯豊","koaza":"舘ノ腰","lat":37.313673,"lng":140.610918,"zip":"9633400"},{"town":"大字飯豊","koaza":"荒屋敷","lat":37.311153,"lng":140.616994,"zip":"9633400"},{"town":"大字飯豊","koaza":"大黒","lat":37.307068,"lng":140.617693,"zip":"9633400"},{"town":"大字飯豊","koaza":"蔦ノ本","lat":37.300971,"lng":140.615734,"zip":"9633400"},{"town":"大字飯豊","koaza":"河向","lat":37.310447,"lng":140.612922,"zip":"9633400"},{"town":"大字飯豊","koaza":"柿人","lat":37.308878,"lng":140.617789,"zip":"9633400"},{"town":"大字飯豊","koaza":"行定","lat":37.320254,"lng":140.59355,"zip":"9633400"},{"town":"大字吉野辺","koaza":"伊達内","lat":37.327884,"lng":140.612678,"zip":"9633400"},{"town":"大字雁股田","koaza":"千保","lat":37.265442,"lng":140.580072,"zip":"9633400"},{"town":"大字小野山神","koaza":"居矢ノ目","lat":37.298368,"lng":140.573442,"zip":"9633400"},{"town":"大字小野山神","koaza":"仲田","lat":37.29932,"lng":140.57043,"zip":"9633400"},{"town":"大字小戸神","koaza":"大名内","lat":37.306908,"lng":140.587783,"zip":"9633400"},{"town":"大字小野山神","koaza":"八舛蒔","lat":37.296624,"lng":140.580259,"zip":"9633400"},{"town":"大字飯豊","koaza":"行定向","lat":37.320407,"lng":140.593419,"zip":"9633400"},{"town":"大字飯豊","koaza":"呼石","lat":37.318823,"lng":140.586161,"zip":"9633400"},{"town":"大字吉野辺","koaza":"谷津","lat":37.329691,"lng":140.611106,"zip":"9633400"},{"town":"大字雁股田","koaza":"新切","lat":37.266669,"lng":140.588962,"zip":"9633400"},{"town":"大字菖蒲谷","koaza":"深田","lat":37.26951,"lng":140.598432,"zip":"9633400"},{"town":"大字菖蒲谷","koaza":"菖蒲作","lat":37.269396,"lng":140.593906,"zip":"9633400"},{"town":"大字雁股田","koaza":"武名坂","lat":37.269078,"lng":140.590854,"zip":"9633400"},{"town":"大字塩庭","koaza":"古南府中","lat":37.262396,"lng":140.596435,"zip":"9633400"},{"town":"大字塩庭","koaza":"茄子坂","lat":37.258864,"lng":140.600246,"zip":"9633400"},{"town":"大字菖蒲谷","koaza":"柳作","lat":37.278555,"lng":140.597142,"zip":"9633400"},{"town":"大字小野山神","koaza":"作ノ前","lat":37.294788,"lng":140.584203,"zip":"9633400"},{"town":"大字小野山神","koaza":"百目木","lat":37.292814,"lng":140.587212,"zip":"9633400"},{"town":"大字皮籠石","koaza":"堰場","lat":37.290438,"lng":140.600379,"zip":"9633400"},{"town":"大字皮籠石","koaza":"神平","lat":37.29478,"lng":140.599943,"zip":"9633400"},{"town":"大字小戸神","koaza":"中ノ原","lat":37.303443,"lng":140.601644,"zip":"9633400"},{"town":"大字飯豊","koaza":"宮ノ下","lat":37.309803,"lng":140.618963,"zip":"9633400"},{"town":"大字雁股田","koaza":"沢目木","lat":37.282397,"lng":140.569702,"zip":"9633400"},{"town":"大字雁股田","koaza":"関場","lat":37.274666,"lng":140.584,"zip":"9633400"},{"town":"大字皮籠石","koaza":"高平","lat":37.281875,"lng":140.598569,"zip":"9633400"},{"town":"大字皮籠石","koaza":"亜羅田","lat":37.286698,"lng":140.591968,"zip":"9633400"},{"town":"大字皮籠石","koaza":"清水入","lat":37.283909,"lng":140.594875,"zip":"9633400"},{"town":"大字小野新町","koaza":"丹後坂","lat":37.287916,"lng":140.631466,"zip":"9633400"},{"town":"大字小野山神","koaza":"細田","lat":37.291829,"lng":140.590275,"zip":"9633400"},{"town":"大字皮籠石","koaza":"古坊","lat":37.289038,"lng":140.591631,"zip":"9633400"},{"town":"大字小野山神","koaza":"赤蕨","lat":37.293308,"lng":140.570095,"zip":"9633400"},{"town":"大字飯豊","koaza":"切掛","lat":37.313297,"lng":140.608693,"zip":"9633400"},{"town":"大字飯豊","koaza":"羽生","lat":37.314349,"lng":140.596846,"zip":"9633400"},{"town":"大字小野新町","koaza":"舘廻","lat":37.287528,"lng":140.62446,"zip":"9633400"},{"town":"大字飯豊","koaza":"天王前","lat":37.315987,"lng":140.599105,"zip":"9633400"},{"town":"大字小野新町","koaza":"大久保","lat":37.295992,"lng":140.634421,"zip":"9633400"},{"town":"大字小野新町","koaza":"浄円田","lat":37.294496,"lng":140.636385,"zip":"9633400"},{"town":"大字飯豊","koaza":"松ケ崎","lat":37.30808,"lng":140.623007,"zip":"9633400"},{"town":"大字小野新町","koaza":"大倉","lat":37.300665,"lng":140.632438,"zip":"9633400"},{"town":"大字飯豊","koaza":"大北","lat":37.305147,"lng":140.628227,"zip":"9633400"},{"town":"大字飯豊","koaza":"新屋敷","lat":37.310092,"lng":140.620318,"zip":"9633400"},{"town":"大字飯豊","koaza":"根岸","lat":37.315519,"lng":140.625102,"zip":"9633400"},{"town":"大字飯豊","koaza":"諏訪内","lat":37.312095,"lng":140.625196,"zip":"9633400"},{"town":"大字飯豊","koaza":"北ノ内","lat":37.312423,"lng":140.622865,"zip":"9633400"},{"town":"大字飯豊","koaza":"尼ケ作","lat":37.308512,"lng":140.633618,"zip":"9633400"},{"town":"大字飯豊","koaza":"岩作","lat":37.310906,"lng":140.628093,"zip":"9633400"},{"town":"大字飯豊","koaza":"沼ノ作","lat":37.322414,"lng":140.618799,"zip":"9633400"},{"town":"大字小野赤沼","koaza":"小山崎","lat":37.276587,"lng":140.612062,"zip":"9633400"},{"town":"大字小野新町","koaza":"狐平","lat":37.29596,"lng":140.627453,"zip":"9633400"},{"town":"大字飯豊","koaza":"中田","lat":37.315218,"lng":140.619766,"zip":"9633400"},{"town":"大字飯豊","koaza":"中野","lat":37.31162,"lng":140.618059,"zip":"9633400"},{"town":"大字飯豊","koaza":"御檀下","lat":37.311091,"lng":140.618247,"zip":"9633400"},{"town":"大字飯豊","koaza":"妻","lat":37.318711,"lng":140.630649,"zip":"9633400"},{"town":"大字飯豊","koaza":"竹ノ花","lat":37.315455,"lng":140.628593,"zip":"9633400"},{"town":"大字飯豊","koaza":"舘","lat":37.317963,"lng":140.629857,"zip":"9633400"},{"town":"大字飯豊","koaza":"深山","lat":37.318371,"lng":140.626929,"zip":"9633400"},{"town":"大字飯豊","koaza":"三代内","lat":37.319312,"lng":140.637937,"zip":"9633400"},{"town":"大字飯豊","koaza":"大日堂","lat":37.321861,"lng":140.640627,"zip":"9633400"},{"town":"大字飯豊","koaza":"天王下","lat":37.322928,"lng":140.637916,"zip":"9633400"},{"town":"大字飯豊","koaza":"平石","lat":37.32851,"lng":140.629293,"zip":"9633400"},{"town":"大字飯豊","koaza":"下道七","lat":37.323051,"lng":140.631008,"zip":"9633400"},{"town":"大字雁股田","koaza":"黒森","lat":37.288944,"lng":140.568335,"zip":"9633400"},{"town":"大字菖蒲谷","koaza":"堂田","lat":37.283572,"lng":140.585294,"zip":"9633400"},{"town":"大字菖蒲谷","koaza":"西田","lat":37.279856,"lng":140.584791,"zip":"9633400"},{"town":"大字菖蒲谷","koaza":"平治郎","lat":37.281526,"lng":140.591948,"zip":"9633400"},{"town":"大字夏井","koaza":"石戸屋","lat":37.258848,"lng":140.634382,"zip":"9633400"},{"town":"大字谷津作","koaza":"永畑","lat":37.265607,"lng":140.635384,"zip":"9633400"},{"town":"大字南田原井","koaza":"大和久","lat":37.241288,"lng":140.662832,"zip":"9633400"},{"town":"大字南田原井","koaza":"北ノ内","lat":37.243077,"lng":140.663742,"zip":"9633400"},{"town":"大字塩庭","koaza":"梅ノ窪","lat":37.25452,"lng":140.610777,"zip":"9633400"},{"town":"大字夏井","koaza":"向作田","lat":37.25728,"lng":140.636403,"zip":"9633400"},{"town":"大字夏井","koaza":"松太郎内","lat":37.260456,"lng":140.643846,"zip":"9633400"},{"town":"大字南田原井","koaza":"村木","lat":37.250958,"lng":140.66409,"zip":"9633400"},{"town":"大字吉野辺","koaza":"仲神","lat":37.335207,"lng":140.605188,"zip":"9633400"},{"town":"大字吉野辺","koaza":"早渡","lat":37.325767,"lng":140.594173,"zip":"9633400"},{"town":"大字飯豊","koaza":"袖山","lat":37.324161,"lng":140.595233,"zip":"9633400"},{"town":"大字小野赤沼","koaza":"寺前","lat":37.272439,"lng":140.616036,"zip":"9633400"}]