[{"town":"字天王下","koaza":"","lat":37.443108,"lng":140.481139,"zip":"9637700"},{"town":"字番組","koaza":"","lat":37.434374,"lng":140.497676,"zip":"9637700"},{"town":"大字滝","koaza":"","lat":37.409347,"lng":140.499814,"zip":"9637700"},{"town":"大字蛇石","koaza":"","lat":37.399905,"lng":140.512274,"zip":"9637700"},{"town":"大字根本","koaza":"","lat":37.392715,"lng":140.502297,"zip":"9637700"},{"town":"大字柴原","koaza":"","lat":37.416637,"lng":140.496062,"zip":"9637700"},{"town":"大字込木","koaza":"","lat":37.425864,"lng":140.507579,"zip":"9637700"},{"town":"字化粧坂","koaza":"","lat":37.434107,"lng":140.495679,"zip":"9637700"},{"town":"字南町","koaza":"","lat":37.440548,"lng":140.494787,"zip":"9637700"},{"town":"大字御祭","koaza":"","lat":37.4647,"lng":140.492137,"zip":"9637700"},{"town":"字烏帽子石","koaza":"","lat":37.447481,"lng":140.497954,"zip":"9637700"},{"town":"字仁井町","koaza":"","lat":37.450542,"lng":140.498447,"zip":"9637700"},{"town":"字六斗蒔","koaza":"","lat":37.452267,"lng":140.496478,"zip":"9637700"},{"town":"字六升蒔","koaza":"","lat":37.447338,"lng":140.495337,"zip":"9637700"},{"town":"字亀井","koaza":"","lat":37.445103,"lng":140.49786,"zip":"9637700"},{"town":"字大町","koaza":"","lat":37.442335,"lng":140.492584,"zip":"9637700"},{"town":"字山中","koaza":"","lat":37.439447,"lng":140.496339,"zip":"9637700"},{"town":"字新町","koaza":"","lat":37.4371,"lng":140.495735,"zip":"9637700"},{"town":"字番組頭","koaza":"","lat":37.434217,"lng":140.497447,"zip":"9637700"},{"town":"桜ケ丘一丁目","koaza":"","lat":37.434176,"lng":140.49816,"zip":"9637711"},{"town":"桜ケ丘四丁目","koaza":"","lat":37.433439,"lng":140.499075,"zip":"9637711"},{"town":"大字春沢","koaza":"","lat":37.418462,"lng":140.478543,"zip":"9637700"},{"town":"大字下舞木","koaza":"","lat":37.42097,"lng":140.431357,"zip":"9637700"},{"town":"大字北成田","koaza":"","lat":37.479892,"lng":140.511945,"zip":"9637700"},{"town":"大字七草木","koaza":"","lat":37.47646,"lng":140.491082,"zip":"9637700"},{"town":"大字楽内","koaza":"","lat":37.431312,"lng":140.49627,"zip":"9637700"},{"town":"大字貝山","koaza":"","lat":37.427485,"lng":140.486756,"zip":"9637700"},{"town":"大字鷹巣","koaza":"","lat":37.419987,"lng":140.465018,"zip":"9637700"},{"town":"大字上舞木","koaza":"","lat":37.416737,"lng":140.446377,"zip":"9637700"},{"town":"大字青石","koaza":"","lat":37.503345,"lng":140.551821,"zip":"9637700"},{"town":"大字富沢","koaza":"","lat":37.493218,"lng":140.531907,"zip":"9637700"},{"town":"大字樋渡","koaza":"","lat":37.395233,"lng":140.510648,"zip":"9637700"},{"town":"大字過足","koaza":"","lat":37.38265,"lng":140.486136,"zip":"9637700"},{"town":"大字狐田","koaza":"","lat":37.393723,"lng":140.476853,"zip":"9637700"},{"town":"大字春田","koaza":"","lat":37.403023,"lng":140.485034,"zip":"9637700"},{"town":"大字蛇沢","koaza":"","lat":37.412656,"lng":140.482368,"zip":"9637700"},{"town":"大字西方","koaza":"","lat":37.405357,"lng":140.472579,"zip":"9637700"},{"town":"大字斎藤","koaza":"","lat":37.395019,"lng":140.456651,"zip":"9637700"},{"town":"大字沼沢","koaza":"","lat":37.405325,"lng":140.457815,"zip":"9637700"},{"town":"字四軒丁","koaza":"","lat":37.435324,"lng":140.498416,"zip":"9637700"},{"town":"字深作","koaza":"","lat":37.434496,"lng":140.51891,"zip":"9637700"},{"town":"大字芹ケ沢","koaza":"","lat":37.435016,"lng":140.512397,"zip":"9637700"},{"town":"字永作","koaza":"","lat":37.434885,"lng":140.506827,"zip":"9637700"},{"town":"字赤坂","koaza":"","lat":37.436161,"lng":140.505209,"zip":"9637700"},{"town":"字八十内","koaza":"","lat":37.43371,"lng":140.503326,"zip":"9637700"},{"town":"桜ケ丘三丁目","koaza":"","lat":37.436298,"lng":140.501737,"zip":"9637711"},{"town":"桜ケ丘二丁目","koaza":"","lat":37.436504,"lng":140.500523,"zip":"9637711"},{"town":"字師範場","koaza":"","lat":37.438215,"lng":140.501788,"zip":"9637700"},{"town":"字弓町","koaza":"","lat":37.436655,"lng":140.498967,"zip":"9637700"},{"town":"字栗林","koaza":"","lat":37.439959,"lng":140.508002,"zip":"9637700"},{"town":"字小滝","koaza":"","lat":37.440565,"lng":140.503944,"zip":"9637700"},{"town":"字大平","koaza":"","lat":37.442324,"lng":140.502349,"zip":"9637700"},{"town":"字清水","koaza":"","lat":37.440611,"lng":140.49964,"zip":"9637700"},{"town":"字清水畑","koaza":"","lat":37.449171,"lng":140.50192,"zip":"9637700"},{"town":"大字庄司","koaza":"","lat":37.461512,"lng":140.537521,"zip":"9637700"},{"town":"大字熊耳","koaza":"","lat":37.44811,"lng":140.514261,"zip":"9637700"},{"town":"大字南成田","koaza":"","lat":37.467807,"lng":140.518456,"zip":"9637700"},{"town":"大字実沢","koaza":"","lat":37.483372,"lng":140.547644,"zip":"9637700"},{"town":"字恵下越","koaza":"","lat":37.43434,"lng":140.493291,"zip":"9637700"},{"town":"字会下谷","koaza":"","lat":37.438527,"lng":140.493473,"zip":"9637700"},{"town":"字桜谷","koaza":"","lat":37.439674,"lng":140.492427,"zip":"9637700"},{"town":"字小金滝","koaza":"","lat":37.440569,"lng":140.490937,"zip":"9637700"},{"town":"字御免町","koaza":"","lat":37.439065,"lng":140.490042,"zip":"9637700"},{"town":"字尼ケ谷","koaza":"","lat":37.436738,"lng":140.491103,"zip":"9637700"},{"town":"字北町","koaza":"","lat":37.444281,"lng":140.49343,"zip":"9637700"},{"town":"字中町","koaza":"","lat":37.441211,"lng":140.487833,"zip":"9637700"},{"town":"字北向町","koaza":"","lat":37.445166,"lng":140.490421,"zip":"9637700"},{"town":"字日向町","koaza":"","lat":37.445961,"lng":140.489905,"zip":"9637700"},{"town":"字渋池","koaza":"","lat":37.446188,"lng":140.487518,"zip":"9637700"},{"town":"字燕清水","koaza":"","lat":37.445769,"lng":140.493092,"zip":"9637700"},{"town":"字持合畑","koaza":"","lat":37.447963,"lng":140.491704,"zip":"9637700"},{"town":"字小浜海道","koaza":"","lat":37.448196,"lng":140.488356,"zip":"9637700"},{"town":"字馬場","koaza":"","lat":37.436666,"lng":140.487675,"zip":"9637700"},{"town":"字八幡町","koaza":"","lat":37.439282,"lng":140.484819,"zip":"9637700"},{"town":"字雁木田","koaza":"","lat":37.438296,"lng":140.481803,"zip":"9637700"},{"town":"字山崎","koaza":"","lat":37.438262,"lng":140.478418,"zip":"9637700"},{"town":"字沼之倉","koaza":"","lat":37.434896,"lng":140.47395,"zip":"9637700"},{"town":"字大久保","koaza":"","lat":37.437945,"lng":140.475092,"zip":"9637700"},{"town":"字丈六","koaza":"","lat":37.441645,"lng":140.484308,"zip":"9637700"},{"town":"字鶴蒔田","koaza":"","lat":37.441527,"lng":140.481465,"zip":"9637700"},{"town":"八島台一丁目","koaza":"","lat":37.447263,"lng":140.486276,"zip":"9637741"},{"town":"字荒町","koaza":"","lat":37.444092,"lng":140.486722,"zip":"9637700"},{"town":"八島台二丁目","koaza":"","lat":37.446233,"lng":140.483323,"zip":"9637741"},{"town":"字天王前","koaza":"","lat":37.444529,"lng":140.482903,"zip":"9637700"},{"town":"字鎌田前","koaza":"","lat":37.441611,"lng":140.479069,"zip":"9637700"},{"town":"八島台三丁目","koaza":"","lat":37.444252,"lng":140.479467,"zip":"9637741"},{"town":"担橋一丁目","koaza":"","lat":37.448425,"lng":140.483305,"zip":"9637769"},{"town":"担橋二丁目","koaza":"","lat":37.449226,"lng":140.481866,"zip":"9637769"},{"town":"八島台五丁目","koaza":"","lat":37.447618,"lng":140.482019,"zip":"9637741"},{"town":"八島台四丁目","koaza":"","lat":37.444065,"lng":140.478157,"zip":"9637741"},{"town":"八島台六丁目","koaza":"","lat":37.448472,"lng":140.477112,"zip":"9637741"},{"town":"八島台七丁目","koaza":"","lat":37.448824,"lng":140.474411,"zip":"9637741"},{"town":"字一本松","koaza":"","lat":37.441569,"lng":140.4745,"zip":"9637700"},{"town":"八島台八丁目","koaza":"","lat":37.4467,"lng":140.474126,"zip":"9637741"},{"town":"大字山田","koaza":"","lat":37.430671,"lng":140.455155,"zip":"9637700"},{"town":"字松橋","koaza":"","lat":37.451728,"lng":140.491533,"zip":"9637700"},{"town":"字樋ノ口","koaza":"","lat":37.455312,"lng":140.489158,"zip":"9637700"},{"town":"字四反田","koaza":"","lat":37.451056,"lng":140.487154,"zip":"9637700"},{"town":"字深田和","koaza":"","lat":37.454861,"lng":140.485096,"zip":"9637700"},{"town":"大字平沢","koaza":"","lat":37.460507,"lng":140.476624,"zip":"9637700"},{"town":"大字下舞木","koaza":"石崎","lat":37.41487,"lng":140.426604,"zip":"9637700"},{"town":"大字下舞木","koaza":"間明田","lat":37.420247,"lng":140.425032,"zip":"9637700"},{"town":"大字下舞木","koaza":"虫内","lat":37.412895,"lng":140.427842,"zip":"9637700"},{"town":"大字下舞木","koaza":"石花","lat":37.4164,"lng":140.425216,"zip":"9637700"},{"town":"大字下舞木","koaza":"石田","lat":37.424175,"lng":140.426956,"zip":"9637700"},{"town":"大字下舞木","koaza":"蛇田","lat":37.423258,"lng":140.428539,"zip":"9637700"},{"town":"大字下舞木","koaza":"西ノ内","lat":37.428174,"lng":140.429244,"zip":"9637700"},{"town":"大字下舞木","koaza":"正神平","lat":37.419413,"lng":140.430747,"zip":"9637700"},{"town":"大字下舞木","koaza":"北山","lat":37.426191,"lng":140.429503,"zip":"9637700"},{"town":"大字下舞木","koaza":"一本木","lat":37.427423,"lng":140.433594,"zip":"9637700"},{"town":"大字下舞木","koaza":"追越","lat":37.424363,"lng":140.433424,"zip":"9637700"},{"town":"大字上舞木","koaza":"福内","lat":37.420577,"lng":140.435554,"zip":"9637700"},{"town":"大字下舞木","koaza":"上ノ内","lat":37.422936,"lng":140.434099,"zip":"9637700"},{"town":"大字上舞木","koaza":"市ノ沢","lat":37.415733,"lng":140.43776,"zip":"9637700"},{"town":"大字下舞木","koaza":"岩本","lat":37.424156,"lng":140.438799,"zip":"9637700"},{"town":"大字上舞木","koaza":"宮ノ前","lat":37.419422,"lng":140.43827,"zip":"9637700"},{"town":"大字上舞木","koaza":"小峯","lat":37.414009,"lng":140.440527,"zip":"9637700"},{"town":"大字上舞木","koaza":"戸ノ内","lat":37.421785,"lng":140.439755,"zip":"9637700"},{"town":"大字上舞木","koaza":"大谷ツ","lat":37.424129,"lng":140.441461,"zip":"9637700"},{"town":"大字上舞木","koaza":"向田","lat":37.421861,"lng":140.444847,"zip":"9637700"},{"town":"大字上舞木","koaza":"大峯","lat":37.417361,"lng":140.441321,"zip":"9637700"},{"town":"大字上舞木","koaza":"明部作","lat":37.424111,"lng":140.442773,"zip":"9637700"},{"town":"大字上舞木","koaza":"寺山","lat":37.412515,"lng":140.445257,"zip":"9637700"},{"town":"大字斎藤","koaza":"場上田","lat":37.394333,"lng":140.449624,"zip":"9637700"},{"town":"大字上舞木","koaza":"荻久保","lat":37.418055,"lng":140.446005,"zip":"9637700"},{"town":"大字山田","koaza":"走り折","lat":37.428014,"lng":140.447297,"zip":"9637700"},{"town":"大字山田","koaza":"カブキ","lat":37.434947,"lng":140.448569,"zip":"9637700"},{"town":"大字上舞木","koaza":"平石","lat":37.418906,"lng":140.447852,"zip":"9637700"},{"town":"大字鷹巣","koaza":"宇賀石","lat":37.420299,"lng":140.453142,"zip":"9637700"},{"town":"大字鷹巣","koaza":"平松","lat":37.413144,"lng":140.451492,"zip":"9637700"},{"town":"大字山田","koaza":"滝田","lat":37.423722,"lng":140.450229,"zip":"9637700"},{"town":"大字斎藤","koaza":"仁井道","lat":37.388353,"lng":140.452197,"zip":"9637700"},{"town":"大字山田","koaza":"松ケ作","lat":37.428052,"lng":140.450617,"zip":"9637700"},{"town":"大字山田","koaza":"福田","lat":37.428626,"lng":140.451133,"zip":"9637700"},{"town":"大字上舞木","koaza":"堂ケ作","lat":37.409478,"lng":140.451786,"zip":"9637700"},{"town":"大字斎藤","koaza":"町田","lat":37.398631,"lng":140.451755,"zip":"9637700"},{"town":"大字鷹巣","koaza":"煙地内","lat":37.412772,"lng":140.453889,"zip":"9637700"},{"town":"大字斎藤","koaza":"長久保","lat":37.393429,"lng":140.453098,"zip":"9637700"},{"town":"大字山田","koaza":"山田","lat":37.430871,"lng":140.453465,"zip":"9637700"},{"town":"大字山田","koaza":"戸之内","lat":37.424237,"lng":140.452729,"zip":"9637700"},{"town":"大字斎藤","koaza":"斎藤","lat":37.395896,"lng":140.453414,"zip":"9637700"},{"town":"大字鷹巣","koaza":"堤","lat":37.416774,"lng":140.45505,"zip":"9637700"},{"town":"大字山田","koaza":"取上","lat":37.436433,"lng":140.455169,"zip":"9637700"},{"town":"大字斎藤","koaza":"戸ノ内","lat":37.396686,"lng":140.457357,"zip":"9637700"},{"town":"大字山田","koaza":"栃久保","lat":37.430874,"lng":140.4568,"zip":"9637700"},{"town":"大字山田","koaza":"弁当田","lat":37.4355,"lng":140.455739,"zip":"9637700"},{"town":"大字山田","koaza":"堀之内","lat":37.433515,"lng":140.457876,"zip":"9637700"},{"town":"大字沼沢","koaza":"神ノ上","lat":37.409129,"lng":140.460007,"zip":"9637700"},{"town":"大字斎藤","koaza":"落合","lat":37.392709,"lng":140.456953,"zip":"9637700"},{"town":"大字山田","koaza":"宮田","lat":37.434002,"lng":140.459178,"zip":"9637700"},{"town":"大字鷹巣","koaza":"高野","lat":37.417726,"lng":140.45713,"zip":"9637700"},{"town":"大字鷹巣","koaza":"浮内","lat":37.413812,"lng":140.45905,"zip":"9637700"},{"town":"大字沼沢","koaza":"町田","lat":37.402551,"lng":140.456611,"zip":"9637700"},{"town":"大字山田","koaza":"福内","lat":37.428619,"lng":140.457729,"zip":"9637700"},{"town":"大字鷹巣","koaza":"北之内","lat":37.42276,"lng":140.459878,"zip":"9637700"},{"town":"大字鷹巣","koaza":"姥ケ懐","lat":37.416674,"lng":140.460217,"zip":"9637700"},{"town":"大字鷹巣","koaza":"富作","lat":37.418166,"lng":140.459873,"zip":"9637700"},{"town":"大字鷹巣","koaza":"大久保","lat":37.424626,"lng":140.459341,"zip":"9637700"},{"town":"大字鷹巣","koaza":"泉田","lat":37.420259,"lng":140.459349,"zip":"9637700"},{"town":"大字鷹巣","koaza":"大日向","lat":37.410959,"lng":140.459877,"zip":"9637700"},{"town":"大字西方","koaza":"後作","lat":37.400523,"lng":140.4642,"zip":"9637700"},{"town":"大字鷹巣","koaza":"浜井場","lat":37.424921,"lng":140.46135,"zip":"9637700"},{"town":"大字鷹巣","koaza":"玉ノ沢","lat":37.414359,"lng":140.464574,"zip":"9637700"},{"town":"大字鷹巣","koaza":"戸之内","lat":37.419905,"lng":140.462287,"zip":"9637700"},{"town":"大字鷹巣","koaza":"狐塚","lat":37.415813,"lng":140.464271,"zip":"9637700"},{"town":"大字沼沢","koaza":"舘","lat":37.408602,"lng":140.461359,"zip":"9637700"},{"town":"大字鷹巣","koaza":"屋戸","lat":37.417881,"lng":140.463737,"zip":"9637700"},{"town":"大字西方","koaza":"浮貝","lat":37.409998,"lng":140.466429,"zip":"9637700"},{"town":"大字鷹巣","koaza":"竹ノ内","lat":37.423123,"lng":140.464799,"zip":"9637700"},{"town":"大字斎藤","koaza":"大日向","lat":37.39122,"lng":140.465347,"zip":"9637700"},{"town":"大字鷹巣","koaza":"東","lat":37.421225,"lng":140.462833,"zip":"9637700"},{"town":"大字鷹巣","koaza":"薬師堂","lat":37.425528,"lng":140.463417,"zip":"9637700"},{"town":"大字鷹巣","koaza":"坊之内","lat":37.424379,"lng":140.465678,"zip":"9637700"},{"town":"大字鷹巣","koaza":"瀬山","lat":37.416034,"lng":140.472666,"zip":"9637700"},{"town":"大字鷹巣","koaza":"餅田","lat":37.422017,"lng":140.46682,"zip":"9637700"},{"town":"大字西方","koaza":"西方前","lat":37.403251,"lng":140.469627,"zip":"9637700"},{"town":"大字鷹巣","koaza":"犬ケ久保","lat":37.424793,"lng":140.468004,"zip":"9637700"},{"town":"大字鷹巣","koaza":"菖蒲作","lat":37.426927,"lng":140.466664,"zip":"9637700"},{"town":"大字西方","koaza":"向山","lat":37.398404,"lng":140.472742,"zip":"9637700"},{"town":"大字鷹巣","koaza":"大柳","lat":37.430813,"lng":140.467938,"zip":"9637700"},{"town":"大字西方","koaza":"石畑","lat":37.412685,"lng":140.473009,"zip":"9637700"},{"town":"大字鷹巣","koaza":"坂下","lat":37.427147,"lng":140.47154,"zip":"9637700"},{"town":"大字西方","koaza":"中ノ内","lat":37.4044,"lng":140.471003,"zip":"9637700"},{"town":"大字平沢","koaza":"高戸屋","lat":37.455646,"lng":140.469876,"zip":"9637700"},{"town":"大字狐田","koaza":"折ノ内","lat":37.394491,"lng":140.474152,"zip":"9637700"},{"town":"大字鷹巣","koaza":"中田","lat":37.420531,"lng":140.472319,"zip":"9637700"},{"town":"大字鷹巣","koaza":"壱斗内","lat":37.423831,"lng":140.47058,"zip":"9637700"},{"town":"大字鷹巣","koaza":"水上","lat":37.42009,"lng":140.470391,"zip":"9637700"},{"town":"大字平沢","koaza":"中","lat":37.459827,"lng":140.474569,"zip":"9637700"},{"town":"大字平沢","koaza":"田畑","lat":37.450894,"lng":140.473392,"zip":"9637700"},{"town":"大字平沢","koaza":"札場","lat":37.452366,"lng":140.474236,"zip":"9637700"},{"town":"大字平沢","koaza":"河原","lat":37.450837,"lng":140.475266,"zip":"9637700"},{"town":"大字鷹巣","koaza":"沼ノ倉","lat":37.431717,"lng":140.47323,"zip":"9637700"},{"town":"大字鷹巣","koaza":"昼森","lat":37.428802,"lng":140.472076,"zip":"9637700"},{"town":"大字貝山","koaza":"古内前通","lat":37.426354,"lng":140.475652,"zip":"9637700"},{"town":"大字鷹巣","koaza":"流田","lat":37.424837,"lng":140.471438,"zip":"9637700"},{"town":"大字貝山","koaza":"沼倉","lat":37.432526,"lng":140.476554,"zip":"9637700"},{"town":"大字狐田","koaza":"高見","lat":37.392832,"lng":140.475356,"zip":"9637700"},{"town":"大字春沢","koaza":"春沢","lat":37.418276,"lng":140.479051,"zip":"9637700"},{"town":"大字平沢","koaza":"谷戸","lat":37.455096,"lng":140.478551,"zip":"9637700"},{"town":"大字狐田","koaza":"沢口","lat":37.39471,"lng":140.479624,"zip":"9637700"},{"town":"大字平沢","koaza":"栄町","lat":37.451358,"lng":140.477967,"zip":"9637700"},{"town":"大字貝山","koaza":"宮ノ下","lat":37.429516,"lng":140.479261,"zip":"9637700"},{"town":"大字貝山","koaza":"古内","lat":37.427122,"lng":140.480398,"zip":"9637700"},{"town":"大字蛇沢","koaza":"北ノ内","lat":37.415268,"lng":140.481231,"zip":"9637700"},{"town":"大字平沢","koaza":"四合田","lat":37.45427,"lng":140.480986,"zip":"9637700"},{"town":"大字平沢","koaza":"担橋","lat":37.450297,"lng":140.481787,"zip":"9637700"},{"town":"大字貝山","koaza":"宮ノ前","lat":37.420832,"lng":140.479847,"zip":"9637700"},{"town":"大字貝山","koaza":"福内","lat":37.424143,"lng":140.483295,"zip":"9637700"},{"town":"大字貝山","koaza":"佐藤六","lat":37.433593,"lng":140.482977,"zip":"9637700"},{"town":"大字貝山","koaza":"井堀田","lat":37.421304,"lng":140.483944,"zip":"9637700"},{"town":"大字貝山","koaza":"堀ノ内","lat":37.427627,"lng":140.484286,"zip":"9637700"},{"town":"大字貝山","koaza":"馬千内","lat":37.425712,"lng":140.485527,"zip":"9637700"},{"town":"大字春田","koaza":"道城","lat":37.400088,"lng":140.484863,"zip":"9637700"},{"town":"大字貝山","koaza":"岩田","lat":37.436043,"lng":140.485468,"zip":"9637700"},{"town":"大字柴原","koaza":"神久保","lat":37.412858,"lng":140.486997,"zip":"9637700"},{"town":"大字過足","koaza":"寺ノ前","lat":37.384514,"lng":140.48427,"zip":"9637700"},{"town":"大字狐田","koaza":"狐田","lat":37.395266,"lng":140.486806,"zip":"9637700"},{"town":"大字平沢","koaza":"水無","lat":37.445718,"lng":140.484837,"zip":"9637700"},{"town":"大字過足","koaza":"一段田","lat":37.382264,"lng":140.487735,"zip":"9637700"},{"town":"大字過足","koaza":"元内","lat":37.39234,"lng":140.486088,"zip":"9637700"},{"town":"大字貝山","koaza":"前ノ久保","lat":37.420831,"lng":140.488683,"zip":"9637700"},{"town":"大字過足","koaza":"明内","lat":37.386659,"lng":140.488092,"zip":"9637700"},{"town":"大字貝山","koaza":"柳作","lat":37.423347,"lng":140.488082,"zip":"9637700"},{"town":"大字貝山","koaza":"馬場","lat":37.429608,"lng":140.486823,"zip":"9637700"},{"town":"大字柴原","koaza":"滑津","lat":37.414817,"lng":140.489381,"zip":"9637700"},{"town":"大字過足","koaza":"長久保","lat":37.377423,"lng":140.487554,"zip":"9637700"},{"town":"大字貝山","koaza":"山崎","lat":37.427003,"lng":140.488505,"zip":"9637700"},{"town":"大字狐田","koaza":"五郎内","lat":37.397865,"lng":140.488455,"zip":"9637700"},{"town":"大字過足","koaza":"舘","lat":37.390629,"lng":140.488494,"zip":"9637700"},{"town":"大字過足","koaza":"宮ノ前","lat":37.386065,"lng":140.489361,"zip":"9637700"},{"town":"大字春田","koaza":"蟹沢","lat":37.402118,"lng":140.490013,"zip":"9637700"},{"town":"大字柴原","koaza":"柴原","lat":37.416171,"lng":140.496758,"zip":"9637700"},{"town":"大字貝山","koaza":"大谷津","lat":37.426326,"lng":140.492901,"zip":"9637700"},{"town":"大字過足","koaza":"紙漉","lat":37.390862,"lng":140.491733,"zip":"9637700"},{"town":"大字柴原","koaza":"苅又","lat":37.416888,"lng":140.49561,"zip":"9637700"},{"town":"大字柴原","koaza":"四合内","lat":37.421439,"lng":140.492287,"zip":"9637700"},{"town":"大字蛇石","koaza":"蛇石","lat":37.400405,"lng":140.491265,"zip":"9637700"},{"town":"大字楽内","koaza":"孝戸","lat":37.431295,"lng":140.494605,"zip":"9637700"},{"town":"大字狐田","koaza":"馬場","lat":37.395589,"lng":140.493426,"zip":"9637700"},{"town":"大字蛇石","koaza":"舞台田","lat":37.397157,"lng":140.501942,"zip":"9637700"},{"town":"大字蛇石","koaza":"谷都","lat":37.398309,"lng":140.493343,"zip":"9637700"},{"town":"大字柴原","koaza":"広戸","lat":37.421256,"lng":140.497652,"zip":"9637700"},{"town":"大字蛇石","koaza":"蛇石前","lat":37.396676,"lng":140.496682,"zip":"9637700"},{"town":"大字楽内","koaza":"楽内","lat":37.431015,"lng":140.498806,"zip":"9637700"},{"town":"大字根本","koaza":"光谷","lat":37.396051,"lng":140.500187,"zip":"9637700"},{"town":"大字滝","koaza":"滝久保","lat":37.40993,"lng":140.497648,"zip":"9637700"},{"town":"大字滝","koaza":"久保","lat":37.412191,"lng":140.49825,"zip":"9637700"},{"town":"大字根本","koaza":"仲平","lat":37.393165,"lng":140.499656,"zip":"9637700"},{"town":"大字滝","koaza":"嘉屋","lat":37.406076,"lng":140.498759,"zip":"9637700"},{"town":"大字込木","koaza":"田中","lat":37.426701,"lng":140.500126,"zip":"9637700"},{"town":"大字熊耳","koaza":"烏帽子石","lat":37.444934,"lng":140.500685,"zip":"9637700"},{"town":"大字滝","koaza":"岩ノ入","lat":37.412256,"lng":140.502046,"zip":"9637700"},{"town":"大字滝","koaza":"桜久保","lat":37.407267,"lng":140.499367,"zip":"9637700"},{"town":"大字柴原","koaza":"杉山","lat":37.419294,"lng":140.500281,"zip":"9637700"},{"town":"大字込木","koaza":"宮ノ下","lat":37.430325,"lng":140.502435,"zip":"9637700"},{"town":"大字滝","koaza":"安瀬市","lat":37.409597,"lng":140.500639,"zip":"9637700"},{"town":"大字滝","koaza":"高野","lat":37.406853,"lng":140.50505,"zip":"9637700"},{"town":"大字込木","koaza":"仲ノ内","lat":37.42543,"lng":140.504676,"zip":"9637700"},{"town":"大字滝","koaza":"矢羽","lat":37.410663,"lng":140.505266,"zip":"9637700"},{"town":"大字込木","koaza":"大志田","lat":37.423357,"lng":140.507559,"zip":"9637700"},{"town":"大字込木","koaza":"八方谷","lat":37.43219,"lng":140.503997,"zip":"9637700"},{"town":"大字熊耳","koaza":"下荒井","lat":37.44709,"lng":140.502589,"zip":"9637700"},{"town":"大字根本","koaza":"西ノ内","lat":37.390033,"lng":140.501509,"zip":"9637700"},{"town":"大字蛇石","koaza":"金水","lat":37.40432,"lng":140.506333,"zip":"9637700"},{"town":"大字根本","koaza":"東平","lat":37.392773,"lng":140.506769,"zip":"9637700"},{"town":"大字樋渡","koaza":"下ノ前","lat":37.398334,"lng":140.50582,"zip":"9637700"},{"town":"大字樋渡","koaza":"嘗石田","lat":37.396194,"lng":140.505262,"zip":"9637700"},{"town":"大字熊耳","koaza":"山神","lat":37.450402,"lng":140.506162,"zip":"9637700"},{"town":"大字込木","koaza":"柳ケ作","lat":37.42985,"lng":140.505511,"zip":"9637700"},{"town":"大字熊耳","koaza":"上荒井","lat":37.446754,"lng":140.504951,"zip":"9637700"},{"town":"大字根本","koaza":"仲田","lat":37.389459,"lng":140.505792,"zip":"9637700"},{"town":"大字根本","koaza":"古内","lat":37.389145,"lng":140.51461,"zip":"9637700"},{"town":"大字熊耳","koaza":"二ツ石","lat":37.453647,"lng":140.505055,"zip":"9637700"},{"town":"大字熊耳","koaza":"博痴石","lat":37.442663,"lng":140.507508,"zip":"9637700"},{"town":"大字蛇石","koaza":"上金水","lat":37.405126,"lng":140.511399,"zip":"9637700"},{"town":"大字芹ケ沢","koaza":"長作","lat":37.433509,"lng":140.510339,"zip":"9637700"},{"town":"大字熊耳","koaza":"天王前","lat":37.449771,"lng":140.509281,"zip":"9637700"},{"town":"大字芹ケ沢","koaza":"五斗蒔","lat":37.436446,"lng":140.510909,"zip":"9637700"},{"town":"大字樋渡","koaza":"不動滝","lat":37.396442,"lng":140.509106,"zip":"9637700"},{"town":"大字芹ケ沢","koaza":"横台道","lat":37.437762,"lng":140.512858,"zip":"9637700"},{"town":"大字熊耳","koaza":"大原田","lat":37.441447,"lng":140.511086,"zip":"9637700"},{"town":"大字熊耳","koaza":"後古内","lat":37.444827,"lng":140.511913,"zip":"9637700"},{"town":"大字熊耳","koaza":"古殿","lat":37.449205,"lng":140.512799,"zip":"9637700"},{"town":"大字芹ケ沢","koaza":"中久保","lat":37.436601,"lng":140.514959,"zip":"9637700"},{"town":"大字熊耳","koaza":"古内","lat":37.444861,"lng":140.514263,"zip":"9637700"},{"town":"大字込木","koaza":"駒込","lat":37.423948,"lng":140.51689,"zip":"9637700"},{"town":"大字芹ケ沢","koaza":"深作","lat":37.437522,"lng":140.516445,"zip":"9637700"},{"town":"大字熊耳","koaza":"舘","lat":37.449314,"lng":140.514042,"zip":"9637700"},{"town":"大字込木","koaza":"川平","lat":37.421495,"lng":140.512067,"zip":"9637700"},{"town":"大字熊耳","koaza":"南原","lat":37.441773,"lng":140.520787,"zip":"9637700"},{"town":"大字熊耳","koaza":"平道内","lat":37.445899,"lng":140.515994,"zip":"9637700"},{"town":"大字熊耳","koaza":"大明竹","lat":37.448727,"lng":140.517912,"zip":"9637700"},{"town":"大字熊耳","koaza":"神山","lat":37.446454,"lng":140.519115,"zip":"9637700"},{"town":"大字熊耳","koaza":"山之内","lat":37.449547,"lng":140.5213,"zip":"9637700"},{"town":"大字熊耳","koaza":"中田","lat":37.445328,"lng":140.525205,"zip":"9637700"},{"town":"大字下舞木","koaza":"折ノ内","lat":37.422178,"lng":140.432091,"zip":"9637700"},{"town":"大字山田","koaza":"明夫作","lat":37.425133,"lng":140.44697,"zip":"9637700"},{"town":"大字山田","koaza":"クルミヤツ","lat":37.426979,"lng":140.447379,"zip":"9637700"},{"town":"大字山田","koaza":"新屋敷","lat":37.433543,"lng":140.451411,"zip":"9637700"},{"town":"大字山田","koaza":"ヒヂ内","lat":37.431035,"lng":140.449422,"zip":"9637700"},{"town":"大字山田","koaza":"仏方","lat":37.436411,"lng":140.452387,"zip":"9637700"},{"town":"大字山田","koaza":"柳ケ作","lat":37.433958,"lng":140.453056,"zip":"9637700"},{"town":"大字山田","koaza":"下田","lat":37.430967,"lng":140.460821,"zip":"9637700"},{"town":"大字山田","koaza":"菖蒲作","lat":37.428089,"lng":140.453869,"zip":"9637700"},{"town":"大字山田","koaza":"越井戸","lat":37.430234,"lng":140.460181,"zip":"9637700"},{"town":"大字鷹巣","koaza":"柏崎","lat":37.412236,"lng":140.458379,"zip":"9637700"},{"town":"大字鷹巣","koaza":"福田","lat":37.412075,"lng":140.455386,"zip":"9637700"},{"town":"大字沼沢","koaza":"新屋敷","lat":37.408043,"lng":140.45686,"zip":"9637700"},{"town":"大字沼沢","koaza":"西ノ作","lat":37.408385,"lng":140.4545,"zip":"9637700"},{"town":"大字沼沢","koaza":"浜井場","lat":37.405643,"lng":140.451952,"zip":"9637700"},{"town":"大字沼沢","koaza":"古舘","lat":37.405874,"lng":140.458644,"zip":"9637700"},{"town":"大字沼沢","koaza":"宮ノ前","lat":37.405775,"lng":140.455797,"zip":"9637700"},{"town":"大字斎藤","koaza":"里内","lat":37.397259,"lng":140.452731,"zip":"9637700"},{"town":"大字斎藤","koaza":"惣角地","lat":37.393468,"lng":140.459657,"zip":"9637700"},{"town":"大字斎藤","koaza":"沖田","lat":37.395627,"lng":140.463895,"zip":"9637700"},{"town":"大字沼沢","koaza":"猫ノ入","lat":37.403639,"lng":140.458396,"zip":"9637700"},{"town":"大字貝山","koaza":"泉沢","lat":37.431896,"lng":140.490523,"zip":"9637700"},{"town":"大字鷹巣","koaza":"畑中","lat":37.420135,"lng":140.457186,"zip":"9637700"},{"town":"大字鷹巣","koaza":"日天","lat":37.419996,"lng":140.455231,"zip":"9637700"},{"town":"大字上舞木","koaza":"後田","lat":37.4214,"lng":140.444742,"zip":"9637700"},{"town":"大字上舞木","koaza":"雲路木","lat":37.419829,"lng":140.452021,"zip":"9637700"},{"town":"大字上舞木","koaza":"貝貸田","lat":37.420443,"lng":140.448468,"zip":"9637700"},{"town":"大字上舞木","koaza":"平","lat":37.419433,"lng":140.441145,"zip":"9637700"},{"town":"大字鷹巣","koaza":"作桑","lat":37.422485,"lng":140.452808,"zip":"9637700"},{"town":"大字鷹巣","koaza":"梅ノ木作","lat":37.421936,"lng":140.455237,"zip":"9637700"},{"town":"大字山田","koaza":"五合田","lat":37.42903,"lng":140.451846,"zip":"9637700"},{"town":"大字山田","koaza":"寺作","lat":37.427181,"lng":140.452327,"zip":"9637700"},{"town":"大字山田","koaza":"竹之内","lat":37.425304,"lng":140.454014,"zip":"9637700"},{"town":"大字山田","koaza":"大久保","lat":37.426254,"lng":140.455477,"zip":"9637700"},{"town":"大字山田","koaza":"南","lat":37.428164,"lng":140.455679,"zip":"9637700"},{"town":"大字平沢","koaza":"一光寺","lat":37.453535,"lng":140.46887,"zip":"9637700"},{"town":"大字平沢","koaza":"白石作","lat":37.458791,"lng":140.47858,"zip":"9637700"},{"town":"大字熊耳","koaza":"十石窪","lat":37.446459,"lng":140.521906,"zip":"9637700"},{"town":"大字芹ケ沢","koaza":"背上","lat":37.435204,"lng":140.515468,"zip":"9637700"},{"town":"大字鷹巣","koaza":"日影","lat":37.427792,"lng":140.463074,"zip":"9637700"},{"town":"大字鷹巣","koaza":"田中","lat":37.423399,"lng":140.460588,"zip":"9637700"},{"town":"大字鷹巣","koaza":"後田","lat":37.430218,"lng":140.463422,"zip":"9637700"},{"town":"大字楽内","koaza":"庚申坂","lat":37.432681,"lng":140.500078,"zip":"9637700"},{"town":"大字熊耳","koaza":"栗之木目","lat":37.448194,"lng":140.509074,"zip":"9637700"},{"town":"大字熊耳","koaza":"大柳","lat":37.447658,"lng":140.511101,"zip":"9637700"},{"town":"大字熊耳","koaza":"花立","lat":37.448119,"lng":140.507032,"zip":"9637700"},{"town":"大字熊耳","koaza":"宇道","lat":37.447258,"lng":140.508695,"zip":"9637700"},{"town":"大字熊耳","koaza":"大平","lat":37.445492,"lng":140.508032,"zip":"9637700"},{"town":"大字斎藤","koaza":"上河原","lat":37.396836,"lng":140.459895,"zip":"9637700"},{"town":"大字過足","koaza":"下山","lat":37.380458,"lng":140.48627,"zip":"9637700"},{"town":"大字過足","koaza":"岩ノ入","lat":37.378252,"lng":140.484112,"zip":"9637700"},{"town":"大字過足","koaza":"下屋敷","lat":37.376067,"lng":140.485196,"zip":"9637700"},{"town":"大字過足","koaza":"西ノ内","lat":37.377584,"lng":140.481948,"zip":"9637700"},{"town":"大字過足","koaza":"後田","lat":37.388672,"lng":140.486152,"zip":"9637700"},{"town":"大字過足","koaza":"久保","lat":37.386926,"lng":140.485093,"zip":"9637700"},{"town":"大字狐田","koaza":"深谷","lat":37.397782,"lng":140.491029,"zip":"9637700"},{"town":"大字根本","koaza":"一矢間","lat":37.391473,"lng":140.512412,"zip":"9637700"},{"town":"大字込木","koaza":"笹久保","lat":37.429027,"lng":140.511638,"zip":"9637700"},{"town":"大字熊耳","koaza":"永作","lat":37.454541,"lng":140.501726,"zip":"9637700"},{"town":"大字楽内","koaza":"八十内","lat":37.432077,"lng":140.501985,"zip":"9637700"},{"town":"大字山田","koaza":"深田","lat":37.432473,"lng":140.448845,"zip":"9637700"},{"town":"大字鷹巣","koaza":"宮影","lat":37.423619,"lng":140.457331,"zip":"9637700"}]