[{"town":"東上野出島","koaza":"","lat":37.099683,"lng":140.370129,"zip":"9610302"},{"town":"関辺","koaza":"","lat":37.088607,"lng":140.252582,"zip":"9610021"},{"town":"旗宿","koaza":"","lat":37.051612,"lng":140.215495,"zip":"9610038"},{"town":"表郷中野","koaza":"","lat":37.0568,"lng":140.242434,"zip":"9610401"},{"town":"表郷内松","koaza":"","lat":37.077724,"lng":140.231032,"zip":"9610402"},{"town":"表郷小松","koaza":"","lat":37.089702,"lng":140.279801,"zip":"9610405"},{"town":"表郷八幡","koaza":"","lat":37.079212,"lng":140.305062,"zip":"9610406"},{"town":"東形見","koaza":"","lat":37.092938,"lng":140.31244,"zip":"9610306"},{"town":"東千田","koaza":"","lat":37.086618,"lng":140.328789,"zip":"9610305"},{"town":"東釜子","koaza":"","lat":37.092511,"lng":140.347593,"zip":"9610303"},{"town":"白坂","koaza":"","lat":37.080444,"lng":140.187327,"zip":"9610835"},{"town":"亀石","koaza":"","lat":37.084579,"lng":140.224229,"zip":"9610023"},{"town":"御器洗","koaza":"","lat":37.084696,"lng":140.220337,"zip":"9610000"},{"town":"左久保","koaza":"","lat":37.085973,"lng":140.22941,"zip":"9610000"},{"town":"ハイ坂","koaza":"","lat":37.084413,"lng":140.227266,"zip":"9610000"},{"town":"双石","koaza":"","lat":37.10723,"lng":140.256769,"zip":"9610017"},{"town":"大","koaza":"","lat":37.11845,"lng":140.245216,"zip":"9610846"},{"town":"萱根","koaza":"","lat":37.147809,"lng":140.233751,"zip":"9610004"},{"town":"泉田","koaza":"","lat":37.148851,"lng":140.249672,"zip":"9610003"},{"town":"大信下小屋","koaza":"","lat":37.213065,"lng":140.22652,"zip":"9690303"},{"town":"大信町屋","koaza":"","lat":37.207408,"lng":140.248328,"zip":"9690309"},{"town":"大信上新城","koaza":"","lat":37.214903,"lng":140.258174,"zip":"9690301"},{"town":"表郷","koaza":"","lat":37.029779,"lng":140.25921,"zip":"9610409"},{"town":"大信","koaza":"","lat":37.227238,"lng":140.139326,"zip":"9690301"},{"town":"表郷高木","koaza":"","lat":37.055425,"lng":140.323799,"zip":"9610414"},{"town":"表郷中寺","koaza":"","lat":37.065992,"lng":140.315621,"zip":"9610407"},{"town":"表郷深渡戸","koaza":"","lat":37.067776,"lng":140.349513,"zip":"9610411"},{"town":"表郷河東田","koaza":"","lat":37.064448,"lng":140.341054,"zip":"9610409"},{"town":"表郷堀之内","koaza":"","lat":37.068682,"lng":140.323959,"zip":"9610408"},{"town":"表郷三森","koaza":"","lat":37.054639,"lng":140.336904,"zip":"9610413"},{"town":"表郷下羽原","koaza":"","lat":37.054686,"lng":140.349232,"zip":"9610412"},{"town":"表郷梁森","koaza":"","lat":37.043406,"lng":140.309435,"zip":"9610415"},{"town":"表郷金山","koaza":"","lat":37.044571,"lng":140.286647,"zip":"9610416"},{"town":"表郷社田","koaza":"","lat":37.071568,"lng":140.286011,"zip":"9610404"},{"town":"表郷番沢","koaza":"","lat":37.059252,"lng":140.271988,"zip":"9610403"},{"town":"東下野出島","koaza":"","lat":37.107035,"lng":140.396396,"zip":"9610301"},{"town":"東工業団地","koaza":"","lat":37.111871,"lng":140.343429,"zip":"9610304"},{"town":"東栃本","koaza":"","lat":37.104822,"lng":140.323541,"zip":"9610307"},{"town":"板橋","koaza":"","lat":37.109209,"lng":140.276333,"zip":"9610016"},{"town":"東深仁井田","koaza":"","lat":37.116541,"lng":140.342566,"zip":"9610309"},{"town":"東蕪内","koaza":"","lat":37.115682,"lng":140.322492,"zip":"9610308"},{"town":"借宿","koaza":"","lat":37.115493,"lng":140.30867,"zip":"9610014"},{"town":"田島","koaza":"","lat":37.109501,"lng":140.295724,"zip":"9610015"},{"town":"舟田","koaza":"","lat":37.121413,"lng":140.278768,"zip":"9610013"},{"town":"本沼","koaza":"","lat":37.133598,"lng":140.283722,"zip":"9610012"},{"town":"久田野","koaza":"","lat":37.131868,"lng":140.260029,"zip":"9610011"},{"town":"大和田","koaza":"","lat":37.14469,"lng":140.261672,"zip":"9610002"},{"town":"古池","koaza":"","lat":37.114926,"lng":140.185083,"zip":"9610843"},{"town":"鶴巻","koaza":"","lat":37.141282,"lng":140.201529,"zip":"9610087"},{"town":"土武塚","koaza":"","lat":37.109307,"lng":140.224424,"zip":"9610046"},{"town":"藤沢","koaza":"","lat":37.116535,"lng":140.23136,"zip":"9610043"},{"town":"旭町三丁目","koaza":"","lat":37.119248,"lng":140.22453,"zip":"9610912"},{"town":"友月山","koaza":"","lat":37.124165,"lng":140.214417,"zip":"9610926"},{"town":"寒晒山","koaza":"","lat":37.123898,"lng":140.215538,"zip":"9610000"},{"town":"円明寺","koaza":"","lat":37.122562,"lng":140.21654,"zip":"9610921"},{"town":"馬町下","koaza":"","lat":37.123195,"lng":140.21855,"zip":"9610915"},{"town":"鍛冶町","koaza":"","lat":37.12328,"lng":140.221725,"zip":"9610913"},{"town":"束前町","koaza":"","lat":37.123761,"lng":140.218873,"zip":"9610916"},{"town":"八百屋町","koaza":"","lat":37.124084,"lng":140.220188,"zip":"9610917"},{"town":"番士小路","koaza":"","lat":37.126221,"lng":140.219987,"zip":"9610902"},{"town":"年貢町","koaza":"","lat":37.124979,"lng":140.219967,"zip":"9610903"},{"town":"馬町","koaza":"","lat":37.124757,"lng":140.21746,"zip":"9610931"},{"town":"南町","koaza":"","lat":37.124506,"lng":140.216216,"zip":"9610932"},{"town":"上ノ台","koaza":"","lat":37.125645,"lng":140.215847,"zip":"9610937"},{"town":"本町北裏","koaza":"","lat":37.127008,"lng":140.217071,"zip":"9610906"},{"town":"本町","koaza":"","lat":37.126316,"lng":140.216797,"zip":"9610905"},{"town":"大手町","koaza":"","lat":37.128427,"lng":140.214455,"zip":"9610908"},{"town":"大工町","koaza":"","lat":37.126796,"lng":140.213962,"zip":"9610936"},{"town":"袋町","koaza":"","lat":37.126065,"lng":140.213071,"zip":"9610934"},{"town":"新蔵町","koaza":"","lat":37.125503,"lng":140.214631,"zip":"9610933"},{"town":"手代町","koaza":"","lat":37.126154,"lng":140.212107,"zip":"9610935"},{"town":"八幡小路","koaza":"","lat":37.126501,"lng":140.210823,"zip":"9610941"},{"town":"向新蔵","koaza":"","lat":37.123576,"lng":140.212019,"zip":"9610925"},{"town":"宰領町","koaza":"","lat":37.126121,"lng":140.207378,"zip":"9610944"},{"town":"愛宕町","koaza":"","lat":37.12674,"lng":140.209268,"zip":"9610942"},{"town":"中町","koaza":"","lat":37.128108,"lng":140.211393,"zip":"9610951"},{"town":"鷹匠町","koaza":"","lat":37.128607,"lng":140.209464,"zip":"9610953"},{"town":"勘定町","koaza":"","lat":37.12852,"lng":140.207274,"zip":"9610956"},{"town":"白井掛","koaza":"","lat":37.123451,"lng":140.206621,"zip":"9610924"},{"town":"風神下","koaza":"","lat":37.123696,"lng":140.202255,"zip":"9610861"},{"town":"巡り矢","koaza":"","lat":37.125226,"lng":140.206787,"zip":"9610945"},{"town":"二番町","koaza":"","lat":37.125213,"lng":140.204254,"zip":"9610946"},{"town":"一番町","koaza":"","lat":37.126997,"lng":140.205112,"zip":"9610947"},{"town":"金屋町","koaza":"","lat":37.126049,"lng":140.208373,"zip":"9610943"},{"town":"天神町","koaza":"","lat":37.128039,"lng":140.207522,"zip":"9610954"},{"town":"道場小路","koaza":"","lat":37.129916,"lng":140.206372,"zip":"9610957"},{"town":"道場町","koaza":"","lat":37.128639,"lng":140.20444,"zip":"9610955"},{"town":"四ツ谷","koaza":"","lat":37.126816,"lng":140.203799,"zip":"9610961"},{"town":"新大久保","koaza":"","lat":37.131442,"lng":140.227376,"zip":"9610000"},{"town":"横町","koaza":"","lat":37.127536,"lng":140.218702,"zip":"9610907"},{"town":"田町","koaza":"","lat":37.130889,"lng":140.221281,"zip":"9610073"},{"town":"丸小山","koaza":"","lat":37.104435,"lng":140.224991,"zip":"9610824"},{"town":"新池","koaza":"","lat":37.114616,"lng":140.187807,"zip":"9610842"},{"town":"南中川原","koaza":"","lat":37.116867,"lng":140.23946,"zip":"9610052"},{"town":"三ツ峯","koaza":"","lat":37.089032,"lng":140.221727,"zip":"9610000"},{"town":"南菖蒲沢","koaza":"","lat":37.092165,"lng":140.221613,"zip":"9610000"},{"town":"上野原","koaza":"","lat":37.092663,"lng":140.224467,"zip":"9610039"},{"town":"新道","koaza":"","lat":37.090123,"lng":140.224663,"zip":"9610037"},{"town":"金神山","koaza":"","lat":37.088376,"lng":140.229322,"zip":"9610000"},{"town":"火打石","koaza":"","lat":37.090914,"lng":140.24043,"zip":"9610000"},{"town":"入道坂","koaza":"","lat":37.091408,"lng":140.234563,"zip":"9610000"},{"town":"南池下","koaza":"","lat":37.095141,"lng":140.236707,"zip":"9610022"},{"town":"中野山","koaza":"","lat":37.112643,"lng":140.181263,"zip":"9610844"},{"town":"高山西","koaza":"","lat":37.116568,"lng":140.187532,"zip":"9610855"},{"town":"新高山","koaza":"","lat":37.118161,"lng":140.193886,"zip":"9610853"},{"town":"与惣小屋","koaza":"","lat":37.11422,"lng":140.201392,"zip":"9610881"},{"town":"与惣小屋山","koaza":"","lat":37.112885,"lng":140.201471,"zip":"9610882"},{"town":"東小丸山","koaza":"","lat":37.111393,"lng":140.203307,"zip":"9610883"},{"town":"鬼越山","koaza":"","lat":37.108977,"lng":140.198921,"zip":"9610887"},{"town":"西小丸山","koaza":"","lat":37.110926,"lng":140.198124,"zip":"9610832"},{"town":"小丸山","koaza":"","lat":37.109983,"lng":140.195636,"zip":"9610000"},{"town":"老久保山","koaza":"","lat":37.111617,"lng":140.194876,"zip":"9610838"},{"town":"みさか一丁目","koaza":"","lat":37.108069,"lng":140.189914,"zip":"9610836"},{"town":"みさか二丁目","koaza":"","lat":37.107111,"lng":140.188929,"zip":"9610836"},{"town":"古高山","koaza":"","lat":37.111912,"lng":140.187785,"zip":"9610841"},{"town":"大坂山","koaza":"","lat":37.106034,"lng":140.182767,"zip":"9610845"},{"town":"大暮矢見山","koaza":"","lat":37.103755,"lng":140.178007,"zip":"9610846"},{"town":"西三坂山","koaza":"","lat":37.108476,"lng":140.191882,"zip":"9610837"},{"town":"西三坂","koaza":"","lat":37.105195,"lng":140.196921,"zip":"9610834"},{"town":"東三坂山","koaza":"","lat":37.106988,"lng":140.202748,"zip":"9610833"},{"town":"鬼越","koaza":"","lat":37.108027,"lng":140.209675,"zip":"9610885"},{"town":"鬼越道下","koaza":"","lat":37.109053,"lng":140.213096,"zip":"9610884"},{"town":"東武塚","koaza":"","lat":37.111571,"lng":140.22244,"zip":"9610817"},{"town":"池下裏","koaza":"","lat":37.105136,"lng":140.217875,"zip":"9610826"},{"town":"影鬼越","koaza":"","lat":37.10505,"lng":140.208982,"zip":"9610886"},{"town":"十三原道上","koaza":"","lat":37.101568,"lng":140.210123,"zip":"9610829"},{"town":"中島","koaza":"","lat":37.099381,"lng":140.221641,"zip":"9610823"},{"town":"屋敷添","koaza":"","lat":37.095917,"lng":140.228849,"zip":"9610034"},{"town":"南家ノ前","koaza":"","lat":37.096374,"lng":140.23049,"zip":"9610035"},{"town":"夏梨","koaza":"","lat":37.097259,"lng":140.232463,"zip":"9610025"},{"town":"十文字","koaza":"","lat":37.098606,"lng":140.224138,"zip":"9610027"},{"town":"家ノ前","koaza":"","lat":37.100884,"lng":140.230093,"zip":"9610032"},{"town":"瀬戸原","koaza":"","lat":37.101669,"lng":140.227395,"zip":"9610822"},{"town":"上ノ原","koaza":"","lat":37.100871,"lng":140.221373,"zip":"9610026"},{"town":"十三原道下","koaza":"","lat":37.102067,"lng":140.218766,"zip":"9610828"},{"town":"池下向山","koaza":"","lat":37.104823,"lng":140.222614,"zip":"9610825"},{"town":"池下","koaza":"","lat":37.10569,"lng":140.220451,"zip":"9610827"},{"town":"北裏","koaza":"","lat":37.104299,"lng":140.228022,"zip":"9610821"},{"town":"道東","koaza":"","lat":37.10245,"lng":140.231698,"zip":"9610031"},{"town":"合戦坂道上","koaza":"","lat":37.108275,"lng":140.230161,"zip":"9610000"},{"town":"藤沢山","koaza":"","lat":37.111399,"lng":140.230997,"zip":"9610044"},{"town":"合戦坂道下","koaza":"","lat":37.109426,"lng":140.225752,"zip":"9610000"},{"town":"合戦坂","koaza":"","lat":37.106573,"lng":140.228834,"zip":"9610045"},{"town":"八竜神","koaza":"","lat":37.114256,"lng":140.229046,"zip":"9610047"},{"town":"金鈴","koaza":"","lat":37.117589,"lng":140.23073,"zip":"9610042"},{"town":"結城","koaza":"","lat":37.118916,"lng":140.230283,"zip":"9610041"},{"town":"老久保","koaza":"","lat":37.114517,"lng":140.197814,"zip":"9610831"},{"town":"鶴芝","koaza":"","lat":37.118111,"lng":140.201914,"zip":"9610866"},{"town":"西大沼","koaza":"","lat":37.115561,"lng":140.204003,"zip":"9610816"},{"town":"松並","koaza":"","lat":37.118009,"lng":140.204637,"zip":"9610873"},{"town":"九番町西裏","koaza":"","lat":37.118266,"lng":140.205224,"zip":"9610874"},{"town":"三本松","koaza":"","lat":37.118016,"lng":140.209962,"zip":"9610872"},{"town":"白井掛下","koaza":"","lat":37.120749,"lng":140.208986,"zip":"9610923"},{"town":"栄町","koaza":"","lat":37.119035,"lng":140.213634,"zip":"9610803"},{"town":"菖蒲沢","koaza":"","lat":37.122269,"lng":140.213746,"zip":"9610922"},{"town":"関川窪","koaza":"","lat":37.116854,"lng":140.220909,"zip":"9610802"},{"town":"文珠山","koaza":"","lat":37.118716,"lng":140.221758,"zip":"9610805"},{"town":"西文珠山","koaza":"","lat":37.119346,"lng":140.219229,"zip":"9610000"},{"town":"蛇石","koaza":"","lat":37.119216,"lng":140.217745,"zip":"9610804"},{"town":"豊年","koaza":"","lat":37.119553,"lng":140.221111,"zip":"9610801"},{"town":"寺小路","koaza":"","lat":37.12204,"lng":140.219962,"zip":"9610914"},{"town":"馬町裏","koaza":"","lat":37.125646,"lng":140.217116,"zip":"9610904"},{"town":"中町北裏","koaza":"","lat":37.128638,"lng":140.211726,"zip":"9610952"},{"town":"郭内","koaza":"","lat":37.130962,"lng":140.216166,"zip":"9610074"},{"town":"旭町二丁目","koaza":"","lat":37.11925,"lng":140.227256,"zip":"9610912"},{"town":"昭和町","koaza":"","lat":37.130553,"lng":140.200486,"zip":"9610971"},{"town":"仁井町","koaza":"","lat":37.13281,"lng":140.201199,"zip":"9610077"},{"town":"金勝寺東","koaza":"","lat":37.136274,"lng":140.207499,"zip":"9610084"},{"town":"明戸","koaza":"","lat":37.126119,"lng":140.222967,"zip":"9610901"},{"town":"士多町","koaza":"","lat":37.129888,"lng":140.222039,"zip":"9610072"},{"town":"会津町","koaza":"","lat":37.132504,"lng":140.207884,"zip":"9610075"},{"town":"鶴巻山","koaza":"","lat":37.13989,"lng":140.20457,"zip":"9610086"},{"town":"飯沢","koaza":"","lat":37.141225,"lng":140.211106,"zip":"9610082"},{"town":"六反山","koaza":"","lat":37.138728,"lng":140.216897,"zip":"9610092"},{"town":"飯沢山","koaza":"","lat":37.143535,"lng":140.210417,"zip":"9610081"},{"town":"中田","koaza":"","lat":37.119165,"lng":140.233223,"zip":"9610053"},{"town":"士多町東","koaza":"","lat":37.12914,"lng":140.223434,"zip":"9610071"},{"town":"追廻","koaza":"","lat":37.133745,"lng":140.212304,"zip":"9610094"},{"town":"葉ノ木平","koaza":"","lat":37.137022,"lng":140.219715,"zip":"9610093"},{"town":"向寺","koaza":"","lat":37.134922,"lng":140.223367,"zip":"9610065"},{"town":"羅漢前","koaza":"","lat":37.127302,"lng":140.227579,"zip":"9610066"},{"town":"羅漢","koaza":"","lat":37.128879,"lng":140.229731,"zip":"9610066"},{"town":"金子平","koaza":"","lat":37.134573,"lng":140.227672,"zip":"9610000"},{"town":"薄葉","koaza":"","lat":37.137739,"lng":140.222859,"zip":"9610063"},{"town":"女石","koaza":"","lat":37.139486,"lng":140.22608,"zip":"9610064"},{"town":"弥次郎窪","koaza":"","lat":37.142171,"lng":140.217362,"zip":"9610091"},{"town":"外薄葉","koaza":"","lat":37.142177,"lng":140.221902,"zip":"9610062"},{"town":"田中山","koaza":"","lat":37.143529,"lng":140.21929,"zip":"9610061"},{"town":"豊地","koaza":"","lat":37.155295,"lng":140.213059,"zip":"9610005"},{"town":"金勝寺","koaza":"","lat":37.136849,"lng":140.210828,"zip":"9610083"},{"town":"町田","koaza":"","lat":37.137572,"lng":140.200956,"zip":"9610085"},{"town":"五番町川原","koaza":"","lat":37.134287,"lng":140.202395,"zip":"9610076"},{"town":"米村道北","koaza":"","lat":37.133903,"lng":140.198768,"zip":"9610078"},{"town":"新白河四丁目","koaza":"","lat":37.118605,"lng":140.187856,"zip":"9610856"},{"town":"高山","koaza":"","lat":37.118564,"lng":140.191936,"zip":"9610854"},{"town":"転坂","koaza":"","lat":37.120065,"lng":140.197781,"zip":"9610852"},{"town":"石切場","koaza":"","lat":37.119149,"lng":140.200661,"zip":"9610867"},{"town":"花見坂","koaza":"","lat":37.119617,"lng":140.201996,"zip":"9610865"},{"town":"風神山東","koaza":"","lat":37.121948,"lng":140.201603,"zip":"9610864"},{"town":"九番町","koaza":"","lat":37.119688,"lng":140.204945,"zip":"9610875"},{"town":"米山越","koaza":"","lat":37.120645,"lng":140.206316,"zip":"9610871"},{"town":"三番町","koaza":"","lat":37.123041,"lng":140.20368,"zip":"9610862"},{"town":"七番町","koaza":"","lat":37.120893,"lng":140.204142,"zip":"9610863"},{"town":"風神山","koaza":"","lat":37.121078,"lng":140.202676,"zip":"9610864"},{"town":"登り町","koaza":"","lat":37.125345,"lng":140.202981,"zip":"9610000"},{"town":"日向","koaza":"","lat":37.127382,"lng":140.201694,"zip":"9610964"},{"town":"細工町","koaza":"","lat":37.128054,"lng":140.202153,"zip":"9610965"},{"town":"日影","koaza":"","lat":37.126501,"lng":140.20176,"zip":"9610963"},{"town":"南登り町","koaza":"","lat":37.124046,"lng":140.200473,"zip":"9610000"},{"town":"南堀切","koaza":"","lat":37.124276,"lng":140.19826,"zip":"9610857"},{"town":"北登り町","koaza":"","lat":37.126142,"lng":140.199304,"zip":"9610000"},{"town":"立石山","koaza":"","lat":37.128027,"lng":140.195975,"zip":"9610975"},{"town":"北堀切","koaza":"","lat":37.126391,"lng":140.192561,"zip":"9610974"},{"town":"新白河二丁目","koaza":"","lat":37.121829,"lng":140.192431,"zip":"9610856"},{"town":"新白河一丁目","koaza":"","lat":37.124282,"lng":140.193671,"zip":"9610856"},{"town":"新白河三丁目","koaza":"","lat":37.12007,"lng":140.191157,"zip":"9610856"},{"town":"新白河五丁目","koaza":"","lat":37.125313,"lng":140.189685,"zip":"9610856"},{"town":"塩路山","koaza":"","lat":37.126856,"lng":140.188186,"zip":"9610986"},{"town":"立石","koaza":"","lat":37.128251,"lng":140.19855,"zip":"9610972"},{"town":"南堀川端","koaza":"","lat":37.129023,"lng":140.189549,"zip":"9610992"},{"town":"北真舟","koaza":"","lat":37.132924,"lng":140.195688,"zip":"9610981"},{"town":"南真舟","koaza":"","lat":37.130425,"lng":140.192426,"zip":"9610982"},{"town":"真舟","koaza":"","lat":37.132249,"lng":140.192137,"zip":"9610983"},{"town":"和尚壇山","koaza":"","lat":37.127097,"lng":140.186774,"zip":"9610984"},{"town":"和尚壇","koaza":"","lat":37.12835,"lng":140.187173,"zip":"9610985"},{"town":"中山南","koaza":"","lat":37.129322,"lng":140.182529,"zip":"9610993"},{"town":"中山東","koaza":"","lat":37.131584,"lng":140.187172,"zip":"9610991"},{"town":"中山","koaza":"","lat":37.131447,"lng":140.185174,"zip":"9610995"},{"town":"的石前","koaza":"","lat":37.129389,"lng":140.178792,"zip":"9610000"},{"town":"中山下","koaza":"","lat":37.130779,"lng":140.181901,"zip":"9610994"},{"town":"大信田園町府","koaza":"","lat":37.206157,"lng":140.245119,"zip":"9690305"},{"town":"大信下新城","koaza":"","lat":37.204792,"lng":140.286887,"zip":"9690304"},{"town":"大信中新城","koaza":"","lat":37.203488,"lng":140.270383,"zip":"9690307"},{"town":"大信隈戸","koaza":"","lat":37.218411,"lng":140.166762,"zip":"9618002"},{"town":"北堀川端","koaza":"","lat":37.129845,"lng":140.188638,"zip":"9610996"},{"town":"藤沢窪","koaza":"","lat":37.112811,"lng":140.231146,"zip":"9610000"},{"town":"羅漢山","koaza":"","lat":37.130429,"lng":140.230059,"zip":"9610000"},{"town":"大信豊地","koaza":"","lat":37.183262,"lng":140.20084,"zip":"9690306"},{"town":"大信増見","koaza":"","lat":37.189549,"lng":140.229291,"zip":"9690308"},{"town":"小田川","koaza":"","lat":37.165553,"lng":140.253316,"zip":"9610001"},{"town":"北中川原","koaza":"","lat":37.123887,"lng":140.228418,"zip":"9610054"},{"town":"南池下山","koaza":"","lat":37.093477,"lng":140.235578,"zip":"9610000"},{"town":"東大沼","koaza":"","lat":37.116747,"lng":140.208212,"zip":"9610813"},{"town":"えん硝蔵山","koaza":"","lat":37.113132,"lng":140.215722,"zip":"9610000"},{"town":"八幡山","koaza":"","lat":37.096951,"lng":140.22826,"zip":"9610033"},{"town":"梨木平","koaza":"","lat":37.094149,"lng":140.231414,"zip":"9610000"},{"town":"裏山","koaza":"","lat":37.096176,"lng":140.223043,"zip":"9610036"},{"town":"夏梨子前","koaza":"","lat":37.092621,"lng":140.227427,"zip":"9610000"},{"town":"新夏梨","koaza":"","lat":37.091073,"lng":140.228965,"zip":"9610024"},{"town":"前山","koaza":"","lat":37.092881,"lng":140.231469,"zip":"9610000"},{"town":"桜町","koaza":"","lat":37.1235,"lng":140.223039,"zip":"9610911"},{"town":"弥吉下","koaza":"","lat":37.122712,"lng":140.224829,"zip":"9610000"},{"town":"旭町一丁目","koaza":"","lat":37.121972,"lng":140.222978,"zip":"9610912"},{"town":"南湖","koaza":"","lat":37.110782,"lng":140.215705,"zip":"9610812"},{"town":"五郎窪北","koaza":"","lat":37.111391,"lng":140.218858,"zip":"9610000"},{"town":"三本松山","koaza":"","lat":37.114765,"lng":140.212186,"zip":"9610814"},{"town":"菅生舘","koaza":"","lat":37.114152,"lng":140.22407,"zip":"9610811"},{"town":"五郎窪山","koaza":"","lat":37.113262,"lng":140.217919,"zip":"9610000"},{"town":"五郎窪","koaza":"","lat":37.113418,"lng":140.216817,"zip":"9610815"},{"town":"大信隈戸","koaza":"隈戸","lat":37.239347,"lng":140.144898,"zip":"9618002"},{"town":"白坂","koaza":"下黒川","lat":37.089108,"lng":140.158612,"zip":"9610835"},{"town":"大信隈戸","koaza":"原町","lat":37.238626,"lng":140.16635,"zip":"9618002"},{"town":"白坂","koaza":"鶴子山","lat":37.097472,"lng":140.17391,"zip":"9610835"},{"town":"白坂","koaza":"牛清水","lat":37.102191,"lng":140.17481,"zip":"9610835"},{"town":"大信隈戸","koaza":"北田","lat":37.234245,"lng":140.177221,"zip":"9618002"},{"town":"白坂","koaza":"勝負沢","lat":37.094879,"lng":140.170572,"zip":"9610835"},{"town":"白坂","koaza":"小田倉沢","lat":37.091855,"lng":140.174864,"zip":"9610835"},{"town":"白坂","koaza":"松ケ苗","lat":37.081141,"lng":140.17806,"zip":"9610835"},{"town":"大信隈戸","koaza":"十日市","lat":37.234049,"lng":140.175326,"zip":"9618002"},{"town":"大信豊地","koaza":"分切田","lat":37.189756,"lng":140.175844,"zip":"9690306"},{"town":"大信隈戸","koaza":"屋敷前","lat":37.23428,"lng":140.176299,"zip":"9618002"},{"town":"大信隈戸","koaza":"柿ノ木原","lat":37.206648,"lng":140.185502,"zip":"9618002"},{"town":"白坂","koaza":"大倉矢見","lat":37.096304,"lng":140.183264,"zip":"9610835"},{"town":"白坂","koaza":"陣場","lat":37.086462,"lng":140.183987,"zip":"9610835"},{"town":"白坂","koaza":"明神","lat":37.070261,"lng":140.181211,"zip":"9610835"},{"town":"白坂","koaza":"勝多石","lat":37.098563,"lng":140.184461,"zip":"9610835"},{"town":"白坂","koaza":"鶴巻","lat":37.080951,"lng":140.186105,"zip":"9610835"},{"town":"大信隈戸","koaza":"仙久内屋敷","lat":37.231881,"lng":140.182703,"zip":"9618002"},{"town":"大信隈戸","koaza":"日向屋敷","lat":37.229029,"lng":140.188582,"zip":"9618002"},{"town":"白坂","koaza":"三輪台","lat":37.096336,"lng":140.192901,"zip":"9610835"},{"town":"白坂","koaza":"愛宕山","lat":37.086947,"lng":140.19295,"zip":"9610835"},{"town":"大信隈戸","koaza":"中島","lat":37.1986,"lng":140.19139,"zip":"9618002"},{"town":"旗宿","koaza":"上和平","lat":37.051324,"lng":140.203011,"zip":"9610038"},{"town":"大信隈戸","koaza":"強滝","lat":37.212165,"lng":140.19522,"zip":"9618002"},{"town":"白坂","koaza":"皮篭","lat":37.095487,"lng":140.197378,"zip":"9610835"},{"town":"大信隈戸","koaza":"原ノ内","lat":37.214949,"lng":140.20342,"zip":"9618002"},{"town":"旗宿","koaza":"二丸沢","lat":37.033567,"lng":140.210504,"zip":"9610038"},{"town":"白坂","koaza":"二ツ穴","lat":37.067587,"lng":140.201078,"zip":"9610835"},{"town":"大信隈戸","koaza":"町頭","lat":37.221722,"lng":140.198275,"zip":"9618002"},{"town":"白坂","koaza":"一里段","lat":37.100188,"lng":140.20243,"zip":"9610835"},{"town":"大信隈戸","koaza":"上小屋前","lat":37.219571,"lng":140.198646,"zip":"9618002"},{"town":"白坂","koaza":"御茶屋","lat":37.093313,"lng":140.206394,"zip":"9610835"},{"town":"大信隈戸","koaza":"岡ノ内","lat":37.214467,"lng":140.200915,"zip":"9618002"},{"town":"大信隈戸","koaza":"上小屋","lat":37.2185,"lng":140.201251,"zip":"9618002"},{"town":"旗宿","koaza":"金堀","lat":37.06297,"lng":140.20514,"zip":"9610038"},{"town":"白坂","koaza":"乗越","lat":37.076324,"lng":140.204282,"zip":"9610835"},{"town":"大信豊地","koaza":"土生","lat":37.169415,"lng":140.203659,"zip":"9690306"},{"town":"大信下小屋","koaza":"樋ヶ沢","lat":37.205006,"lng":140.210543,"zip":"9690303"},{"town":"白坂","koaza":"芳野","lat":37.095685,"lng":140.206984,"zip":"9610835"},{"town":"大信豊地","koaza":"飯土用","lat":37.185018,"lng":140.20624,"zip":"9690306"},{"town":"豊地","koaza":"治右エ門谷地","lat":37.154043,"lng":140.208517,"zip":"9610005"},{"town":"旗宿","koaza":"大久保","lat":37.072955,"lng":140.21875,"zip":"9610038"},{"town":"白坂","koaza":"石阿弥陀","lat":37.094374,"lng":140.213898,"zip":"9610835"},{"town":"豊地","koaza":"米古沢","lat":37.15803,"lng":140.210548,"zip":"9610005"},{"town":"大信豊地","koaza":"並木","lat":37.174754,"lng":140.211922,"zip":"9690306"},{"town":"豊地","koaza":"箭内小屋","lat":37.16249,"lng":140.213652,"zip":"9610005"},{"town":"大信増見","koaza":"蟹沢","lat":37.187663,"lng":140.214962,"zip":"9690308"},{"town":"白坂","koaza":"五器洗","lat":37.084709,"lng":140.221645,"zip":"9610835"},{"town":"大信増見","koaza":"清水久保","lat":37.187069,"lng":140.220984,"zip":"9690308"},{"town":"豊地","koaza":"弥次郎","lat":37.14464,"lng":140.217386,"zip":"9610005"},{"town":"旗宿","koaza":"和平","lat":37.049143,"lng":140.215086,"zip":"9610038"},{"town":"豊地","koaza":"砂田","lat":37.148679,"lng":140.216177,"zip":"9610005"},{"town":"大信下小屋","koaza":"西宿","lat":37.21672,"lng":140.217853,"zip":"9690303"},{"town":"大信下小屋","koaza":"樋ノ口前","lat":37.215697,"lng":140.223778,"zip":"9690303"},{"town":"大信増見","koaza":"中沢","lat":37.179432,"lng":140.219474,"zip":"9690308"},{"town":"豊地","koaza":"池下","lat":37.155748,"lng":140.218152,"zip":"9610005"},{"town":"萱根","koaza":"足洗場","lat":37.160281,"lng":140.220717,"zip":"9610004"},{"town":"大信増見","koaza":"外面","lat":37.184681,"lng":140.220446,"zip":"9690308"},{"town":"豊地","koaza":"川外","lat":37.147004,"lng":140.219,"zip":"9610005"},{"town":"小田川","koaza":"牛清水","lat":37.168925,"lng":140.224441,"zip":"9610001"},{"town":"大信増見","koaza":"石久保","lat":37.19806,"lng":140.224655,"zip":"9690308"},{"town":"小田川","koaza":"番倉","lat":37.175629,"lng":140.22854,"zip":"9610001"},{"town":"萱根","koaza":"桑ケ作","lat":37.152819,"lng":140.222351,"zip":"9610004"},{"town":"萱根","koaza":"駒田山","lat":37.15628,"lng":140.233252,"zip":"9610004"},{"town":"旗宿","koaza":"広表","lat":37.045253,"lng":140.227177,"zip":"9610038"},{"town":"大信下小屋","koaza":"宮沢","lat":37.219068,"lng":140.227347,"zip":"9690303"},{"town":"旗宿","koaza":"関ノ森","lat":37.048141,"lng":140.227531,"zip":"9610038"},{"town":"旗宿","koaza":"白河内","lat":37.045468,"lng":140.229636,"zip":"9610038"},{"town":"旗宿","koaza":"殿内","lat":37.048742,"lng":140.228243,"zip":"9610038"},{"town":"大信増見","koaza":"大日向","lat":37.194231,"lng":140.225078,"zip":"9690308"},{"town":"旗宿","koaza":"滝","lat":37.038453,"lng":140.24123,"zip":"9610038"},{"town":"旗宿","koaza":"関ノ里","lat":37.05137,"lng":140.231047,"zip":"9610038"},{"town":"萱根","koaza":"七斗蒔","lat":37.142367,"lng":140.234784,"zip":"9610004"},{"town":"大信増見","koaza":"田ノ入","lat":37.19154,"lng":140.229738,"zip":"9690308"},{"town":"萱根","koaza":"西ノ内","lat":37.140477,"lng":140.230905,"zip":"9610004"},{"town":"大信下小屋","koaza":"大高内","lat":37.21584,"lng":140.230708,"zip":"9690303"},{"town":"表郷中野","koaza":"正司戻","lat":37.056587,"lng":140.232518,"zip":"9610401"},{"town":"小田川","koaza":"愛宕下","lat":37.167697,"lng":140.241628,"zip":"9610001"},{"town":"萱根","koaza":"後谷地","lat":37.147372,"lng":140.232935,"zip":"9610004"},{"town":"萱根","koaza":"大窪","lat":37.147079,"lng":140.228872,"zip":"9610004"},{"town":"萱根","koaza":"金ケ平","lat":37.140685,"lng":140.233596,"zip":"9610004"},{"town":"旗宿","koaza":"茂ケ崎","lat":37.060702,"lng":140.23411,"zip":"9610038"},{"town":"萱根","koaza":"金ケ入","lat":37.149521,"lng":140.234767,"zip":"9610004"},{"town":"大信下小屋","koaza":"三ツ橋","lat":37.209642,"lng":140.234212,"zip":"9690303"},{"town":"大","koaza":"搦目山","lat":37.108378,"lng":140.241436,"zip":"9610846"},{"town":"表郷中野","koaza":"下滝沢","lat":37.059128,"lng":140.237628,"zip":"9610401"},{"town":"萱根","koaza":"上根田ケ入","lat":37.134566,"lng":140.235633,"zip":"9610004"},{"town":"関辺","koaza":"引目橋","lat":37.100544,"lng":140.235952,"zip":"9610021"},{"town":"大信下小屋","koaza":"日和田前","lat":37.211131,"lng":140.235117,"zip":"9690303"},{"town":"萱根","koaza":"大清水","lat":37.140817,"lng":140.235939,"zip":"9610004"},{"town":"大信下小屋","koaza":"地蔵面","lat":37.208868,"lng":140.235805,"zip":"9690303"},{"town":"関辺","koaza":"上ノ原","lat":37.098984,"lng":140.239431,"zip":"9610021"},{"town":"大","koaza":"森ノ内","lat":37.124345,"lng":140.238804,"zip":"9610846"},{"town":"大","koaza":"搦目","lat":37.115303,"lng":140.242593,"zip":"9610846"},{"town":"大信増見","koaza":"花光地","lat":37.198728,"lng":140.23646,"zip":"9690308"},{"town":"大","koaza":"本社入","lat":37.125312,"lng":140.238113,"zip":"9610846"},{"town":"大信下小屋","koaza":"日和田","lat":37.209022,"lng":140.236991,"zip":"9690303"},{"town":"表郷中野","koaza":"上ノ原","lat":37.061308,"lng":140.242801,"zip":"9610401"},{"town":"萱根","koaza":"鎮守前","lat":37.140072,"lng":140.237333,"zip":"9610004"},{"town":"萱根","koaza":"下根田ケ入","lat":37.137519,"lng":140.238418,"zip":"9610004"},{"town":"萱根","koaza":"根田","lat":37.142034,"lng":140.238487,"zip":"9610004"},{"town":"大","koaza":"鹿島前","lat":37.121354,"lng":140.238564,"zip":"9610846"},{"town":"萱根","koaza":"五斗蒔","lat":37.144902,"lng":140.23963,"zip":"9610004"},{"town":"大信増見","koaza":"増見","lat":37.199385,"lng":140.241685,"zip":"9690308"},{"town":"大","koaza":"搦目前","lat":37.118633,"lng":140.241364,"zip":"9610846"},{"town":"萱根","koaza":"長木原","lat":37.142783,"lng":140.240235,"zip":"9610004"},{"town":"萱根","koaza":"新小萱","lat":37.141875,"lng":140.240186,"zip":"9610004"},{"town":"大信下小屋","koaza":"段ノ原","lat":37.206438,"lng":140.240413,"zip":"9690303"},{"town":"大","koaza":"鳥居橋前","lat":37.123987,"lng":140.243228,"zip":"9610846"},{"town":"萱根","koaza":"南街道端","lat":37.143624,"lng":140.24103,"zip":"9610004"},{"town":"泉田","koaza":"古見ケ久保","lat":37.155156,"lng":140.243035,"zip":"9610003"},{"town":"大信町屋","koaza":"道目木","lat":37.205903,"lng":140.24214,"zip":"9690309"},{"town":"萱根","koaza":"北街道端","lat":37.1445,"lng":140.242439,"zip":"9610004"},{"town":"関辺","koaza":"日の出","lat":37.094324,"lng":140.239387,"zip":"9610021"},{"town":"小田川","koaza":"欠下","lat":37.164979,"lng":140.245793,"zip":"9610001"},{"town":"表郷内松","koaza":"四斗蒔","lat":37.072578,"lng":140.244881,"zip":"9610402"},{"town":"萱根","koaza":"三本木","lat":37.141861,"lng":140.243622,"zip":"9610004"},{"town":"双石","koaza":"中山","lat":37.101951,"lng":140.245641,"zip":"9610017"},{"town":"泉田","koaza":"弁天山","lat":37.15154,"lng":140.243322,"zip":"9610003"},{"town":"関辺","koaza":"川前","lat":37.096625,"lng":140.247757,"zip":"9610021"},{"town":"大","koaza":"牛帰","lat":37.118314,"lng":140.245645,"zip":"9610846"},{"town":"関辺","koaza":"大北向","lat":37.094366,"lng":140.243178,"zip":"9610021"},{"town":"表郷内松","koaza":"五斗蒔","lat":37.069344,"lng":140.244428,"zip":"9610402"},{"town":"大","koaza":"桜岡前","lat":37.127814,"lng":140.247345,"zip":"9610846"},{"town":"泉田","koaza":"池ノ上","lat":37.151256,"lng":140.248362,"zip":"9610003"},{"town":"萱根","koaza":"鳥子山","lat":37.146173,"lng":140.244222,"zip":"9610004"},{"town":"大信下小屋","koaza":"後沢","lat":37.21379,"lng":140.244517,"zip":"9690303"},{"town":"萱根","koaza":"堂平","lat":37.15059,"lng":140.241132,"zip":"9610004"},{"town":"大信町屋","koaza":"朴田","lat":37.204588,"lng":140.24521,"zip":"9690309"},{"town":"表郷中野","koaza":"柳橋","lat":37.064622,"lng":140.244603,"zip":"9610401"},{"town":"泉田","koaza":"大久保","lat":37.152748,"lng":140.243903,"zip":"9610003"},{"town":"大信増見","koaza":"下ノ田","lat":37.20197,"lng":140.246241,"zip":"9690308"},{"town":"表郷中野","koaza":"中ハノキ沢","lat":37.066308,"lng":140.251349,"zip":"9610401"},{"town":"大","koaza":"久保前","lat":37.120248,"lng":140.253926,"zip":"9610846"},{"town":"泉田","koaza":"七々入","lat":37.146172,"lng":140.246092,"zip":"9610003"},{"town":"大","koaza":"山崎","lat":37.131129,"lng":140.245841,"zip":"9610846"},{"town":"小田川","koaza":"石山","lat":37.162793,"lng":140.239258,"zip":"9610001"},{"town":"表郷中野","koaza":"柳橋前","lat":37.064579,"lng":140.245403,"zip":"9610401"},{"town":"大","koaza":"善知鳥坂","lat":37.114995,"lng":140.246663,"zip":"9610846"},{"town":"表郷内松","koaza":"上河原","lat":37.067415,"lng":140.24775,"zip":"9610402"},{"town":"大","koaza":"観音前","lat":37.127048,"lng":140.249121,"zip":"9610846"},{"town":"大信町屋","koaza":"町屋","lat":37.206463,"lng":140.250139,"zip":"9690309"},{"town":"関辺","koaza":"松並","lat":37.092035,"lng":140.251168,"zip":"9610021"},{"town":"泉田","koaza":"袖ケ久保","lat":37.145314,"lng":140.24615,"zip":"9610003"},{"town":"小田川","koaza":"小田ノ里","lat":37.157262,"lng":140.255545,"zip":"9610001"},{"town":"表郷内松","koaza":"作田","lat":37.071018,"lng":140.24958,"zip":"9610402"},{"town":"大信町屋","koaza":"沢田","lat":37.203608,"lng":140.247619,"zip":"9690309"},{"town":"泉田","koaza":"池ノ下","lat":37.148521,"lng":140.250649,"zip":"9610003"},{"town":"大信増見","koaza":"北田","lat":37.203356,"lng":140.250075,"zip":"9690308"},{"town":"大信町屋","koaza":"渋川","lat":37.210937,"lng":140.249708,"zip":"9690309"},{"town":"萱根","koaza":"棒ノ入","lat":37.13937,"lng":140.250388,"zip":"9610004"},{"town":"表郷内松","koaza":"中河原","lat":37.068854,"lng":140.251285,"zip":"9610402"},{"town":"関辺","koaza":"吉ケ沢","lat":37.087772,"lng":140.249145,"zip":"9610021"},{"town":"双石","koaza":"広久保","lat":37.105662,"lng":140.252426,"zip":"9610017"},{"town":"泉田","koaza":"鬼窪","lat":37.146954,"lng":140.253205,"zip":"9610003"},{"town":"大信上新城","koaza":"屋敷","lat":37.208968,"lng":140.256188,"zip":"9690301"},{"town":"双石","koaza":"形見坂","lat":37.101625,"lng":140.25578,"zip":"9610017"},{"town":"大信町屋","koaza":"古舘","lat":37.206141,"lng":140.25303,"zip":"9690309"},{"town":"表郷中野","koaza":"中才ノ内","lat":37.066365,"lng":140.253152,"zip":"9610401"},{"town":"大信中新城","koaza":"入塩沢","lat":37.194766,"lng":140.270372,"zip":"9690307"},{"town":"久田野","koaza":"白旗","lat":37.131228,"lng":140.25328,"zip":"9610011"},{"town":"泉田","koaza":"北ノ内","lat":37.144973,"lng":140.254321,"zip":"9610003"},{"town":"双石","koaza":"木ノ下","lat":37.116075,"lng":140.254128,"zip":"9610017"},{"town":"双石","koaza":"坊ノ入","lat":37.114336,"lng":140.253649,"zip":"9610017"},{"town":"関辺","koaza":"前林","lat":37.087808,"lng":140.255973,"zip":"9610021"},{"town":"小田川","koaza":"手水山","lat":37.156721,"lng":140.256161,"zip":"9610001"},{"town":"表郷中野","koaza":"才ノ内","lat":37.066249,"lng":140.256303,"zip":"9610401"},{"town":"大信増見","koaza":"堂山","lat":37.2062,"lng":140.256121,"zip":"9690308"},{"town":"大信上新城","koaza":"大久保","lat":37.216386,"lng":140.2544,"zip":"9690301"},{"town":"関辺","koaza":"下林","lat":37.090876,"lng":140.25933,"zip":"9610021"},{"town":"久田野","koaza":"城内","lat":37.133527,"lng":140.258994,"zip":"9610011"},{"town":"小田川","koaza":"町浦","lat":37.159386,"lng":140.258922,"zip":"9610001"},{"town":"大信上新城","koaza":"原畑","lat":37.212552,"lng":140.260529,"zip":"9690301"},{"town":"小田川","koaza":"大山","lat":37.157839,"lng":140.258544,"zip":"9610001"},{"town":"関辺","koaza":"八幡山","lat":37.089324,"lng":140.258864,"zip":"9610021"},{"town":"久田野","koaza":"塚田","lat":37.13229,"lng":140.262023,"zip":"9610011"},{"town":"久田野","koaza":"田中","lat":37.136837,"lng":140.260251,"zip":"9610011"},{"town":"久田野","koaza":"北裏","lat":37.135401,"lng":140.260544,"zip":"9610011"},{"town":"双石","koaza":"滝ノ尻","lat":37.112718,"lng":140.260482,"zip":"9610017"},{"town":"双石","koaza":"高田","lat":37.113885,"lng":140.261055,"zip":"9610017"},{"town":"久田野","koaza":"宮前","lat":37.134267,"lng":140.260155,"zip":"9610011"},{"town":"関辺","koaza":"丸沢","lat":37.080309,"lng":140.260393,"zip":"9610021"},{"town":"双石","koaza":"竹ノ花","lat":37.115131,"lng":140.261642,"zip":"9610017"},{"town":"表郷小松","koaza":"西町","lat":37.089909,"lng":140.266939,"zip":"9610405"},{"town":"関辺","koaza":"石田","lat":37.082838,"lng":140.261134,"zip":"9610021"},{"town":"関辺","koaza":"上ノ代","lat":37.086874,"lng":140.26337,"zip":"9610021"},{"town":"表郷番沢","koaza":"山田","lat":37.065808,"lng":140.266529,"zip":"9610403"},{"town":"本沼","koaza":"鷹ノ巣","lat":37.122164,"lng":140.261422,"zip":"9610012"},{"town":"本沼","koaza":"上谷地","lat":37.123855,"lng":140.2635,"zip":"9610012"},{"town":"大和田","koaza":"後和田","lat":37.143013,"lng":140.261639,"zip":"9610002"},{"town":"関辺","koaza":"瀬戸谷地","lat":37.081664,"lng":140.26308,"zip":"9610021"},{"town":"大信中新城","koaza":"弥平田","lat":37.205011,"lng":140.264717,"zip":"9690307"},{"town":"双石","koaza":"板谷地","lat":37.113776,"lng":140.265432,"zip":"9610017"},{"town":"大信中新城","koaza":"山守山","lat":37.199618,"lng":140.26382,"zip":"9690307"},{"town":"関辺","koaza":"池下","lat":37.081921,"lng":140.265995,"zip":"9610021"},{"town":"双石","koaza":"柳町","lat":37.115257,"lng":140.265118,"zip":"9610017"},{"town":"本沼","koaza":"谷地","lat":37.124034,"lng":140.26563,"zip":"9610012"},{"town":"大信中新城","koaza":"金畑","lat":37.191465,"lng":140.267224,"zip":"9690307"},{"town":"久田野","koaza":"前田","lat":37.131864,"lng":140.266518,"zip":"9610011"},{"town":"大信中新城","koaza":"愛宕山","lat":37.210099,"lng":140.266928,"zip":"9690307"},{"town":"久田野","koaza":"月影","lat":37.133937,"lng":140.267811,"zip":"9610011"},{"town":"関辺","koaza":"油久保","lat":37.079621,"lng":140.268286,"zip":"9610021"},{"town":"本沼","koaza":"日向前","lat":37.127595,"lng":140.270706,"zip":"9610012"},{"town":"本沼","koaza":"堂ノ前","lat":37.140096,"lng":140.269259,"zip":"9610012"},{"town":"表郷番沢","koaza":"原","lat":37.064357,"lng":140.270469,"zip":"9610403"},{"town":"関辺","koaza":"谷中","lat":37.08109,"lng":140.269101,"zip":"9610021"},{"town":"小田川","koaza":"岩久保","lat":37.165317,"lng":140.270027,"zip":"9610001"},{"town":"小田川","koaza":"一里塚","lat":37.162618,"lng":140.26906,"zip":"9610001"},{"town":"大信中新城","koaza":"西畑","lat":37.20521,"lng":140.2687,"zip":"9690307"},{"town":"大信中新城","koaza":"赤坂","lat":37.210018,"lng":140.275222,"zip":"9690307"},{"town":"大信中新城","koaza":"杉ノ前","lat":37.203765,"lng":140.269906,"zip":"9690307"},{"town":"大信中新城","koaza":"内屋敷","lat":37.205228,"lng":140.269954,"zip":"9690307"},{"town":"表郷番沢","koaza":"大窪","lat":37.074093,"lng":140.270076,"zip":"9610403"},{"town":"表郷番沢","koaza":"成金","lat":37.065598,"lng":140.273552,"zip":"9610403"},{"town":"本沼","koaza":"北裏","lat":37.131409,"lng":140.271206,"zip":"9610012"},{"town":"大信中新城","koaza":"塩沢","lat":37.193951,"lng":140.271971,"zip":"9690307"},{"town":"大信中新城","koaza":"村内","lat":37.204909,"lng":140.271181,"zip":"9690307"},{"town":"表郷番沢","koaza":"山下","lat":37.072152,"lng":140.272122,"zip":"9610403"},{"town":"大信中新城","koaza":"杉東","lat":37.201981,"lng":140.27245,"zip":"9690307"},{"town":"舟田","koaza":"水口","lat":37.11542,"lng":140.272103,"zip":"9610013"},{"town":"表郷番沢","koaza":"桜平","lat":37.059029,"lng":140.274317,"zip":"9610403"},{"town":"板橋","koaza":"辻堂","lat":37.11607,"lng":140.274416,"zip":"9610016"},{"town":"表郷番沢","koaza":"御殿ヶ入","lat":37.059502,"lng":140.272627,"zip":"9610403"},{"town":"表郷番沢","koaza":"関根","lat":37.068039,"lng":140.273173,"zip":"9610403"},{"town":"板橋","koaza":"舘ノ前","lat":37.114419,"lng":140.273313,"zip":"9610016"},{"town":"表郷番沢","koaza":"道場面","lat":37.070104,"lng":140.27282,"zip":"9610403"},{"town":"大信中新城","koaza":"赤坂裏","lat":37.218675,"lng":140.275036,"zip":"9690307"},{"town":"大信下新城","koaza":"西区","lat":37.192723,"lng":140.279809,"zip":"9690304"},{"town":"表郷小松","koaza":"大岡","lat":37.092972,"lng":140.272646,"zip":"9610405"},{"town":"大信下新城","koaza":"塩沢","lat":37.197398,"lng":140.2742,"zip":"9690304"},{"town":"板橋","koaza":"竹ノ内","lat":37.10808,"lng":140.276776,"zip":"9610016"},{"town":"表郷番沢","koaza":"和田","lat":37.06028,"lng":140.278104,"zip":"9610403"},{"town":"板橋","koaza":"屋敷","lat":37.111504,"lng":140.277819,"zip":"9610016"},{"town":"本沼","koaza":"手代塚","lat":37.1291,"lng":140.28105,"zip":"9610012"},{"town":"表郷小松","koaza":"谷地道","lat":37.082576,"lng":140.27684,"zip":"9610405"},{"town":"表郷番沢","koaza":"里見","lat":37.063111,"lng":140.278425,"zip":"9610403"},{"town":"舟田","koaza":"桜田","lat":37.120847,"lng":140.27744,"zip":"9610013"},{"town":"表郷番沢","koaza":"綾釣","lat":37.065522,"lng":140.277066,"zip":"9610403"},{"town":"板橋","koaza":"小塚","lat":37.110284,"lng":140.278048,"zip":"9610016"},{"town":"本沼","koaza":"瓜田","lat":37.132816,"lng":140.278329,"zip":"9610012"},{"town":"表郷小松","koaza":"上高萩","lat":37.077194,"lng":140.278711,"zip":"9610405"},{"town":"大信下新城","koaza":"寺平前","lat":37.198974,"lng":140.280226,"zip":"9690304"},{"town":"板橋","koaza":"明戸","lat":37.113183,"lng":140.279137,"zip":"9610016"},{"town":"表郷小松","koaza":"日向","lat":37.080893,"lng":140.28209,"zip":"9610405"},{"town":"舟田","koaza":"前原","lat":37.119236,"lng":140.281969,"zip":"9610013"},{"town":"田島","koaza":"三七八","lat":37.117377,"lng":140.280181,"zip":"9610015"},{"town":"表郷番沢","koaza":"大河内","lat":37.065074,"lng":140.280434,"zip":"9610403"},{"town":"舟田","koaza":"舟尻","lat":37.123649,"lng":140.281861,"zip":"9610013"},{"town":"表郷社田","koaza":"太夫屋敷","lat":37.072136,"lng":140.283446,"zip":"9610404"},{"town":"表郷小松","koaza":"中里","lat":37.086272,"lng":140.28165,"zip":"9610405"},{"town":"大信下新城","koaza":"野寺","lat":37.203818,"lng":140.283223,"zip":"9690304"},{"town":"田島","koaza":"明治","lat":37.118331,"lng":140.283394,"zip":"9610015"},{"town":"本沼","koaza":"西ノ内","lat":37.133338,"lng":140.287925,"zip":"9610012"},{"town":"表郷番沢","koaza":"滝ノ森","lat":37.063771,"lng":140.283644,"zip":"9610403"},{"town":"田島","koaza":"舘ケ崎","lat":37.116386,"lng":140.284847,"zip":"9610015"},{"town":"大信下新城","koaza":"若内","lat":37.198671,"lng":140.28422,"zip":"9690304"},{"town":"表郷小松","koaza":"北ノ内","lat":37.078779,"lng":140.286089,"zip":"9610405"},{"town":"表郷社田","koaza":"松田","lat":37.074855,"lng":140.283402,"zip":"9610404"},{"town":"表郷金山","koaza":"久ノ内","lat":37.05637,"lng":140.282014,"zip":"9610416"},{"town":"表郷金山","koaza":"石畑","lat":37.045569,"lng":140.286096,"zip":"9610416"},{"town":"大信下新城","koaza":"桑ノ木田","lat":37.202139,"lng":140.287441,"zip":"9690304"},{"town":"表郷社田","koaza":"谷地","lat":37.071979,"lng":140.286248,"zip":"9610404"},{"town":"表郷社田","koaza":"玉岡","lat":37.068442,"lng":140.285114,"zip":"9610404"},{"town":"表郷番沢","koaza":"松上","lat":37.058089,"lng":140.290089,"zip":"9610403"},{"town":"表郷小松","koaza":"北田","lat":37.084949,"lng":140.2868,"zip":"9610405"},{"town":"表郷金山","koaza":"赤沼","lat":37.054704,"lng":140.286877,"zip":"9610416"},{"town":"表郷金山","koaza":"広畑","lat":37.056969,"lng":140.287862,"zip":"9610416"},{"town":"田島","koaza":"森ノ台","lat":37.118761,"lng":140.28698,"zip":"9610015"},{"town":"大信下新城","koaza":"和久","lat":37.199024,"lng":140.286572,"zip":"9690304"},{"town":"大信下新城","koaza":"北大久保","lat":37.208734,"lng":140.288842,"zip":"9690304"},{"town":"田島","koaza":"香取","lat":37.117015,"lng":140.287313,"zip":"9610015"},{"town":"田島","koaza":"結城舘","lat":37.114558,"lng":140.285134,"zip":"9610015"},{"town":"表郷番沢","koaza":"吉ノ目","lat":37.063958,"lng":140.287768,"zip":"9610403"},{"town":"大信下新城","koaza":"中区","lat":37.194001,"lng":140.288,"zip":"9690304"},{"town":"表郷金山","koaza":"天神前","lat":37.050173,"lng":140.288056,"zip":"9610416"},{"town":"大信下新城","koaza":"蔵ノ上","lat":37.197311,"lng":140.288223,"zip":"9690304"},{"town":"表郷金山","koaza":"深ツ田","lat":37.047981,"lng":140.291431,"zip":"9610416"},{"town":"表郷番沢","koaza":"上願","lat":37.060875,"lng":140.290978,"zip":"9610403"},{"town":"表郷金山","koaza":"藤川原","lat":37.051852,"lng":140.293553,"zip":"9610416"},{"town":"表郷番沢","koaza":"沖ノ前","lat":37.064611,"lng":140.289442,"zip":"9610403"},{"town":"本沼","koaza":"芦ノ口入山","lat":37.136029,"lng":140.289398,"zip":"9610012"},{"town":"田島","koaza":"神田","lat":37.116121,"lng":140.289458,"zip":"9610015"},{"town":"大信下新城","koaza":"上原","lat":37.191228,"lng":140.290326,"zip":"9690304"},{"town":"本沼","koaza":"下河原","lat":37.132393,"lng":140.290017,"zip":"9610012"},{"town":"大信下新城","koaza":"北ノ内","lat":37.202952,"lng":140.292327,"zip":"9690304"},{"town":"表郷金山","koaza":"二ツ堂","lat":37.053424,"lng":140.291564,"zip":"9610416"},{"town":"大信下新城","koaza":"薄掛作田","lat":37.196481,"lng":140.29165,"zip":"9690304"},{"town":"表郷小松","koaza":"大作山","lat":37.092117,"lng":140.291551,"zip":"9610405"},{"town":"表郷金山","koaza":"下ノ内","lat":37.055811,"lng":140.292137,"zip":"9610416"},{"town":"大信下新城","koaza":"下原","lat":37.19197,"lng":140.293764,"zip":"9690304"},{"town":"表郷金山","koaza":"荒屋","lat":37.049386,"lng":140.293001,"zip":"9610416"},{"town":"大信下新城","koaza":"西川原","lat":37.199588,"lng":140.292331,"zip":"9690304"},{"town":"大信下新城","koaza":"千才","lat":37.200132,"lng":140.29322,"zip":"9690304"},{"town":"表郷金山","koaza":"菅辻","lat":37.054656,"lng":140.295723,"zip":"9610416"},{"town":"大信下新城","koaza":"東区","lat":37.195438,"lng":140.293431,"zip":"9690304"},{"town":"借宿","koaza":"堺田","lat":37.117326,"lng":140.294064,"zip":"9610014"},{"town":"表郷八幡","koaza":"宮下","lat":37.071566,"lng":140.297961,"zip":"9610406"},{"town":"大信下新城","koaza":"北山","lat":37.202054,"lng":140.294102,"zip":"9690304"},{"town":"借宿","koaza":"株木","lat":37.119875,"lng":140.296212,"zip":"9610014"},{"town":"表郷金山","koaza":"竹ノ内","lat":37.057253,"lng":140.295415,"zip":"9610416"},{"town":"表郷金山","koaza":"犬神","lat":37.04734,"lng":140.295547,"zip":"9610416"},{"town":"表郷金山","koaza":"前原","lat":37.046411,"lng":140.29573,"zip":"9610416"},{"town":"大信下新城","koaza":"万歳","lat":37.200377,"lng":140.296406,"zip":"9690304"},{"town":"表郷番沢","koaza":"樋ノ口","lat":37.068946,"lng":140.300091,"zip":"9610403"},{"town":"借宿","koaza":"高橋","lat":37.116165,"lng":140.295345,"zip":"9610014"},{"town":"借宿","koaza":"竹ノ花","lat":37.121217,"lng":140.29709,"zip":"9610014"},{"town":"表郷金山","koaza":"愛宕山","lat":37.049207,"lng":140.293315,"zip":"9610416"},{"town":"表郷金山","koaza":"越堀","lat":37.055846,"lng":140.299688,"zip":"9610416"},{"town":"表郷金山","koaza":"井戸尻","lat":37.059736,"lng":140.298417,"zip":"9610416"},{"town":"表郷金山","koaza":"百目木","lat":37.054577,"lng":140.297633,"zip":"9610416"},{"town":"借宿","koaza":"白旗","lat":37.120233,"lng":140.29821,"zip":"9610014"},{"town":"田島","koaza":"本木前","lat":37.108275,"lng":140.297158,"zip":"9610015"},{"town":"田島","koaza":"松葉","lat":37.110055,"lng":140.294646,"zip":"9610015"},{"town":"田島","koaza":"入方","lat":37.107616,"lng":140.299826,"zip":"9610015"},{"town":"借宿","koaza":"梅田","lat":37.123824,"lng":140.299996,"zip":"9610014"},{"town":"表郷金山","koaza":"瀬戸原","lat":37.061387,"lng":140.30316,"zip":"9610416"},{"town":"表郷八幡","koaza":"上後久保","lat":37.072197,"lng":140.302054,"zip":"9610406"},{"town":"田島","koaza":"巡り窪","lat":37.113829,"lng":140.303515,"zip":"9610015"},{"town":"表郷金山","koaza":"白旗","lat":37.063775,"lng":140.302509,"zip":"9610416"},{"town":"表郷金山","koaza":"前沢田","lat":37.055455,"lng":140.304025,"zip":"9610416"},{"town":"表郷金山","koaza":"鶴子山","lat":37.061396,"lng":140.30856,"zip":"9610416"},{"town":"借宿","koaza":"鶴ケ岡","lat":37.113437,"lng":140.306123,"zip":"9610014"},{"town":"表郷金山","koaza":"上谷地","lat":37.058809,"lng":140.305278,"zip":"9610416"},{"town":"表郷金山","koaza":"宇堂","lat":37.056103,"lng":140.306867,"zip":"9610416"},{"town":"表郷八幡","koaza":"上久保田","lat":37.07171,"lng":140.307446,"zip":"9610406"},{"town":"表郷梁森","koaza":"焼松","lat":37.045208,"lng":140.30344,"zip":"9610415"},{"town":"借宿","koaza":"赤番沢","lat":37.117045,"lng":140.307572,"zip":"9610014"},{"town":"表郷梁森","koaza":"石崎","lat":37.048651,"lng":140.307866,"zip":"9610415"},{"town":"表郷梁森","koaza":"中神","lat":37.039681,"lng":140.30894,"zip":"9610415"},{"town":"表郷梁森","koaza":"瀬戸原","lat":37.055569,"lng":140.309641,"zip":"9610415"},{"town":"借宿","koaza":"尾柄沢","lat":37.11862,"lng":140.308641,"zip":"9610014"},{"town":"表郷梁森","koaza":"水口","lat":37.046251,"lng":140.311701,"zip":"9610415"},{"town":"表郷八幡","koaza":"上谷地中","lat":37.062833,"lng":140.311617,"zip":"9610406"},{"town":"表郷中寺","koaza":"上沢目","lat":37.066891,"lng":140.311513,"zip":"9610407"},{"town":"表郷中寺","koaza":"川田","lat":37.065686,"lng":140.313402,"zip":"9610407"},{"town":"表郷梁森","koaza":"榎内","lat":37.05233,"lng":140.312845,"zip":"9610415"},{"town":"東形見","koaza":"池ノ入","lat":37.097178,"lng":140.31842,"zip":"9610306"},{"town":"表郷梁森","koaza":"池ノ入","lat":37.045994,"lng":140.316947,"zip":"9610415"},{"town":"表郷梁森","koaza":"栗口","lat":37.051447,"lng":140.314046,"zip":"9610415"},{"town":"表郷梁森","koaza":"井ノ花","lat":37.049488,"lng":140.314501,"zip":"9610415"},{"town":"表郷梁森","koaza":"関前","lat":37.055354,"lng":140.316589,"zip":"9610415"},{"town":"表郷八幡","koaza":"中ノ割","lat":37.083695,"lng":140.31721,"zip":"9610406"},{"town":"表郷中寺","koaza":"八升蒔","lat":37.06721,"lng":140.318895,"zip":"9610407"},{"town":"東蕪内","koaza":"岩沢","lat":37.116522,"lng":140.317867,"zip":"9610308"},{"town":"表郷高木","koaza":"六斗蒔","lat":37.06045,"lng":140.320722,"zip":"9610414"},{"town":"表郷高木","koaza":"滝ノ上","lat":37.053087,"lng":140.319238,"zip":"9610414"},{"town":"表郷堀之内","koaza":"堀ノ内","lat":37.067379,"lng":140.321625,"zip":"9610408"},{"town":"表郷高木","koaza":"押上","lat":37.056943,"lng":140.319416,"zip":"9610414"},{"town":"表郷堀之内","koaza":"十二段","lat":37.0649,"lng":140.320613,"zip":"9610408"},{"town":"表郷高木","koaza":"上宿","lat":37.054816,"lng":140.320943,"zip":"9610414"},{"town":"東蕪内","koaza":"南屋敷","lat":37.115753,"lng":140.319893,"zip":"9610308"},{"town":"表郷三森","koaza":"都々古下","lat":37.055552,"lng":140.333508,"zip":"9610413"},{"town":"東蕪内","koaza":"新屋敷","lat":37.114713,"lng":140.324004,"zip":"9610308"},{"town":"表郷堀之内","koaza":"舟戸","lat":37.065158,"lng":140.325751,"zip":"9610408"},{"town":"東蕪内","koaza":"駒橋","lat":37.114947,"lng":140.325051,"zip":"9610308"},{"town":"表郷高木","koaza":"神前","lat":37.055313,"lng":140.32635,"zip":"9610414"},{"town":"表郷堀之内","koaza":"山ノ神","lat":37.066913,"lng":140.33036,"zip":"9610408"},{"town":"表郷三森","koaza":"上丁","lat":37.056448,"lng":140.333776,"zip":"9610413"},{"town":"表郷河東田","koaza":"寺平","lat":37.067574,"lng":140.334132,"zip":"9610409"},{"town":"東深仁井田","koaza":"千代ノ岡","lat":37.113621,"lng":140.335043,"zip":"9610309"},{"town":"表郷三森","koaza":"月桜","lat":37.055465,"lng":140.337035,"zip":"9610413"},{"town":"東釜子","koaza":"薄久保","lat":37.10773,"lng":140.340825,"zip":"9610303"},{"town":"東釜子","koaza":"陣ヶ平","lat":37.108007,"lng":140.337528,"zip":"9610303"},{"town":"東深仁井田","koaza":"陣ヶ平","lat":37.114286,"lng":140.338601,"zip":"9610309"},{"town":"表郷河東田","koaza":"アラ田","lat":37.065298,"lng":140.338628,"zip":"9610409"},{"town":"表郷三森","koaza":"清水","lat":37.056511,"lng":140.338892,"zip":"9610413"},{"town":"表郷三森","koaza":"下原道上","lat":37.053274,"lng":140.341539,"zip":"9610413"},{"town":"表郷河東田","koaza":"屋敷","lat":37.067395,"lng":140.338862,"zip":"9610409"},{"town":"表郷河東田","koaza":"天王下","lat":37.068453,"lng":140.339768,"zip":"9610409"},{"town":"表郷三森","koaza":"下道下","lat":37.055711,"lng":140.340364,"zip":"9610413"},{"town":"表郷三森","koaza":"下谷地","lat":37.057812,"lng":140.341785,"zip":"9610413"},{"town":"東深仁井田","koaza":"原田向","lat":37.115315,"lng":140.341487,"zip":"9610309"},{"town":"東工業団地","koaza":"南","lat":37.110272,"lng":140.343263,"zip":"9610304"},{"town":"東深仁井田","koaza":"天上林","lat":37.116118,"lng":140.347289,"zip":"9610309"},{"town":"表郷深渡戸","koaza":"森前","lat":37.066113,"lng":140.347811,"zip":"9610411"},{"town":"表郷下羽原","koaza":"吉田","lat":37.054628,"lng":140.347501,"zip":"9610412"},{"town":"表郷下羽原","koaza":"五輪割","lat":37.052963,"lng":140.347126,"zip":"9610412"},{"town":"東釜子","koaza":"本町","lat":37.100611,"lng":140.347888,"zip":"9610303"},{"town":"東釜子","koaza":"秋山","lat":37.107936,"lng":140.347744,"zip":"9610303"},{"town":"東釜子","koaza":"殿田表","lat":37.102803,"lng":140.350086,"zip":"9610303"},{"town":"東釜子","koaza":"枇杷山","lat":37.112467,"lng":140.353372,"zip":"9610303"},{"town":"表郷下羽原","koaza":"塚本","lat":37.053518,"lng":140.349968,"zip":"9610412"},{"town":"表郷下羽原","koaza":"下原","lat":37.054377,"lng":140.35184,"zip":"9610412"},{"town":"東深仁井田","koaza":"刈敷坂","lat":37.11776,"lng":140.351373,"zip":"9610309"},{"town":"表郷下羽原","koaza":"東防シ多","lat":37.051655,"lng":140.352215,"zip":"9610412"},{"town":"東釜子","koaza":"鹿島山","lat":37.08015,"lng":140.356492,"zip":"9610303"},{"town":"東上野出島","koaza":"西原","lat":37.115104,"lng":140.357154,"zip":"9610302"},{"town":"東釜子","koaza":"矢越山","lat":37.0944,"lng":140.357567,"zip":"9610303"},{"town":"東釜子","koaza":"狐内","lat":37.106487,"lng":140.361908,"zip":"9610303"},{"town":"東上野出島","koaza":"板倉前","lat":37.113625,"lng":140.363969,"zip":"9610302"},{"town":"東上野出島","koaza":"谷地前","lat":37.116991,"lng":140.373924,"zip":"9610302"},{"town":"東上野出島","koaza":"反田","lat":37.110897,"lng":140.378414,"zip":"9610302"},{"town":"東下野出島","koaza":"髪内","lat":37.105956,"lng":140.385348,"zip":"9610301"},{"town":"東下野出島","koaza":"坂口","lat":37.107833,"lng":140.38868,"zip":"9610301"},{"town":"東下野出島","koaza":"滑志","lat":37.104192,"lng":140.388431,"zip":"9610301"},{"town":"東下野出島","koaza":"万海","lat":37.108741,"lng":140.393945,"zip":"9610301"},{"town":"東下野出島","koaza":"反田","lat":37.112856,"lng":140.394655,"zip":"9610301"},{"town":"東下野出島","koaza":"石原","lat":37.107216,"lng":140.40066,"zip":"9610301"},{"town":"東下野出島","koaza":"油田","lat":37.110937,"lng":140.402177,"zip":"9610301"},{"town":"東下野出島","koaza":"産場山","lat":37.105814,"lng":140.402853,"zip":"9610301"},{"town":"大信隈戸","koaza":"西原","lat":37.239517,"lng":140.151898,"zip":"9618002"},{"town":"大信隈戸","koaza":"宇都野","lat":37.23969,"lng":140.158638,"zip":"9618002"},{"town":"大信隈戸","koaza":"ザラ久保","lat":37.217913,"lng":140.192141,"zip":"9618002"},{"town":"大信隈戸","koaza":"上台","lat":37.214715,"lng":140.199506,"zip":"9618002"},{"town":"大信隈戸","koaza":"下ノ境","lat":37.217784,"lng":140.205777,"zip":"9618002"},{"town":"大信下小屋","koaza":"沢入","lat":37.220728,"lng":140.209888,"zip":"9690303"},{"town":"大信下小屋","koaza":"樋ノ口","lat":37.217477,"lng":140.222567,"zip":"9690303"},{"town":"大信下小屋","koaza":"久保入","lat":37.217826,"lng":140.224598,"zip":"9690303"},{"town":"大信下小屋","koaza":"諷坂","lat":37.214109,"lng":140.233687,"zip":"9690303"},{"town":"大信下小屋","koaza":"大石","lat":37.216571,"lng":140.239031,"zip":"9690303"},{"town":"小田川","koaza":"柳町","lat":37.160761,"lng":140.276512,"zip":"9610001"},{"town":"小田川","koaza":"蟹ケ作","lat":37.159561,"lng":140.274978,"zip":"9610001"},{"town":"小田川","koaza":"馬場","lat":37.160891,"lng":140.267113,"zip":"9610001"},{"town":"小田川","koaza":"里ノ根","lat":37.162073,"lng":140.265348,"zip":"9610001"},{"town":"小田川","koaza":"下早稲田","lat":37.161455,"lng":140.265918,"zip":"9610001"},{"town":"大信隈戸","koaza":"日渡","lat":37.223099,"lng":140.201023,"zip":"9618002"},{"town":"大信隈戸","koaza":"宮前","lat":37.218644,"lng":140.204795,"zip":"9618002"},{"town":"大信隈戸","koaza":"滑里川","lat":37.200109,"lng":140.197948,"zip":"9618002"},{"town":"大信隈戸","koaza":"滑里川山","lat":37.201253,"lng":140.195055,"zip":"9618002"},{"town":"大信豊地","koaza":"新田","lat":37.18488,"lng":140.187461,"zip":"9690306"},{"town":"大信豊地","koaza":"後長久保","lat":37.18271,"lng":140.19389,"zip":"9690306"},{"town":"大信豊地","koaza":"長久保","lat":37.17917,"lng":140.202364,"zip":"9690306"},{"town":"大信豊地","koaza":"瀬戸","lat":37.184852,"lng":140.212723,"zip":"9690306"},{"town":"大信増見","koaza":"愛宕山","lat":37.198893,"lng":140.232472,"zip":"9690308"},{"town":"小田川","koaza":"二枚橋","lat":37.165825,"lng":140.217171,"zip":"9610001"},{"town":"豊地","koaza":"羽根石","lat":37.15948,"lng":140.217127,"zip":"9610005"},{"town":"豊地","koaza":"大谷地","lat":37.152,"lng":140.217487,"zip":"9610005"},{"town":"大信中新城","koaza":"愛宕前","lat":37.207322,"lng":140.268583,"zip":"9690307"},{"town":"大信下新城","koaza":"久保畠","lat":37.208345,"lng":140.280893,"zip":"9690304"},{"town":"大信下新城","koaza":"金子山","lat":37.207012,"lng":140.286941,"zip":"9690304"},{"town":"大信下新城","koaza":"池下","lat":37.195623,"lng":140.280023,"zip":"9690304"},{"town":"大信下新城","koaza":"八斗蒔","lat":37.196441,"lng":140.293517,"zip":"9690304"},{"town":"大信増見","koaza":"仲居","lat":37.201978,"lng":140.249841,"zip":"9690308"},{"town":"大信増見","koaza":"天狗塚","lat":37.192323,"lng":140.237637,"zip":"9690308"},{"town":"大信増見","koaza":"大山","lat":37.19291,"lng":140.217606,"zip":"9690308"},{"town":"大信豊地","koaza":"松ヶ作","lat":37.169324,"lng":140.209949,"zip":"9690306"},{"town":"豊地","koaza":"桜地","lat":37.149591,"lng":140.215867,"zip":"9610005"},{"town":"豊地","koaza":"古屋敷","lat":37.151592,"lng":140.218342,"zip":"9610005"},{"town":"萱根","koaza":"日向内","lat":37.149221,"lng":140.225177,"zip":"9610004"},{"town":"萱根","koaza":"月ノ入","lat":37.15102,"lng":140.221872,"zip":"9610004"},{"town":"東下野出島","koaza":"小丸山","lat":37.10696,"lng":140.39295,"zip":"9610301"},{"town":"大","koaza":"桜岡","lat":37.132503,"lng":140.242516,"zip":"9610846"},{"town":"大信下新城","koaza":"古保木","lat":37.197844,"lng":140.284779,"zip":"9690304"},{"town":"大信下新城","koaza":"江見田","lat":37.199525,"lng":140.281957,"zip":"9690304"},{"town":"大信上新城","koaza":"前田","lat":37.208265,"lng":140.254582,"zip":"9690301"},{"town":"大信町屋","koaza":"渋川山","lat":37.209,"lng":140.243593,"zip":"9690309"},{"town":"大信町屋","koaza":"中田","lat":37.204241,"lng":140.25059,"zip":"9690309"},{"town":"大信増見","koaza":"真船","lat":37.204107,"lng":140.229977,"zip":"9690308"},{"town":"大信下小屋","koaza":"十王山","lat":37.203602,"lng":140.238482,"zip":"9690303"},{"town":"大信豊地","koaza":"日向","lat":37.187368,"lng":140.200946,"zip":"9690306"},{"town":"大信豊地","koaza":"沢向","lat":37.190399,"lng":140.193293,"zip":"9690306"},{"town":"大信増見","koaza":"広谷地","lat":37.174152,"lng":140.220339,"zip":"9690308"},{"town":"豊地","koaza":"清水久保","lat":37.154247,"lng":140.210745,"zip":"9610005"},{"town":"豊地","koaza":"御成場","lat":37.152467,"lng":140.215571,"zip":"9610005"},{"town":"豊地","koaza":"午房作","lat":37.156781,"lng":140.21526,"zip":"9610005"},{"town":"豊地","koaza":"取草","lat":37.147169,"lng":140.208645,"zip":"9610005"},{"town":"大和田","koaza":"池ノ入","lat":37.150391,"lng":140.258636,"zip":"9610002"},{"town":"小田川","koaza":"子ハ清水","lat":37.154237,"lng":140.25629,"zip":"9610001"},{"town":"小田川","koaza":"富貴作","lat":37.155901,"lng":140.255911,"zip":"9610001"},{"town":"小田川","koaza":"上早稲田","lat":37.160316,"lng":140.261136,"zip":"9610001"},{"town":"萱根","koaza":"向山","lat":37.135984,"lng":140.243065,"zip":"9610004"},{"town":"萱根","koaza":"泉田界","lat":37.148737,"lng":140.246075,"zip":"9610004"},{"town":"大和田","koaza":"南内","lat":37.139882,"lng":140.25715,"zip":"9610002"},{"town":"小田川","koaza":"扇ノ間","lat":37.161156,"lng":140.269211,"zip":"9610001"},{"town":"小田川","koaza":"込内","lat":37.15885,"lng":140.270599,"zip":"9610001"},{"town":"小田川","koaza":"天王下","lat":37.154741,"lng":140.267262,"zip":"9610001"},{"town":"小田川","koaza":"古道","lat":37.155441,"lng":140.251699,"zip":"9610001"},{"town":"豊地","koaza":"前田","lat":37.150093,"lng":140.220642,"zip":"9610005"},{"town":"大和田","koaza":"畑田","lat":37.14146,"lng":140.263775,"zip":"9610002"},{"town":"大和田","koaza":"堂ノ前","lat":37.140745,"lng":140.261358,"zip":"9610002"},{"town":"大和田","koaza":"石橋前","lat":37.137131,"lng":140.258982,"zip":"9610002"},{"town":"小田川","koaza":"登木","lat":37.165459,"lng":140.248989,"zip":"9610001"},{"town":"小田川","koaza":"広谷地","lat":37.164084,"lng":140.223153,"zip":"9610001"},{"town":"萱根","koaza":"日向山","lat":37.14313,"lng":140.237447,"zip":"9610004"},{"town":"泉田","koaza":"南之内","lat":37.143374,"lng":140.254484,"zip":"9610003"},{"town":"大和田","koaza":"前田","lat":37.139426,"lng":140.261111,"zip":"9610002"},{"town":"大和田","koaza":"月山","lat":37.138257,"lng":140.257461,"zip":"9610002"},{"town":"久田野","koaza":"巽田","lat":37.131698,"lng":140.269467,"zip":"9610011"},{"town":"本沼","koaza":"西裏","lat":37.129618,"lng":140.270311,"zip":"9610012"},{"town":"本沼","koaza":"北向","lat":37.127538,"lng":140.268173,"zip":"9610012"},{"town":"久田野","koaza":"竹ノ内","lat":37.129852,"lng":140.261323,"zip":"9610011"},{"town":"久田野","koaza":"田尻","lat":37.128981,"lng":140.266538,"zip":"9610011"},{"town":"久田野","koaza":"拂川","lat":37.127545,"lng":140.258349,"zip":"9610011"},{"town":"大","koaza":"岩倉","lat":37.123952,"lng":140.253215,"zip":"9610846"},{"town":"大","koaza":"久保","lat":37.124276,"lng":140.255619,"zip":"9610846"},{"town":"大","koaza":"南田","lat":37.125724,"lng":140.251807,"zip":"9610846"},{"town":"大","koaza":"桜岡裏山","lat":37.133216,"lng":140.24171,"zip":"9610846"},{"town":"大","koaza":"前桜岡","lat":37.128643,"lng":140.237638,"zip":"9610846"},{"town":"大","koaza":"桜岡前山","lat":37.129277,"lng":140.243559,"zip":"9610846"},{"town":"久田野","koaza":"豆柄久保","lat":37.12665,"lng":140.261459,"zip":"9610011"},{"town":"久田野","koaza":"山王寺山","lat":37.128421,"lng":140.259084,"zip":"9610011"},{"town":"久田野","koaza":"豆柄山","lat":37.124255,"lng":140.25866,"zip":"9610011"},{"town":"表郷金山","koaza":"狸山","lat":37.047604,"lng":140.300259,"zip":"9610416"},{"town":"表郷金山","koaza":"井戸入","lat":37.044015,"lng":140.290666,"zip":"9610416"},{"town":"表郷金山","koaza":"後沢田","lat":37.052001,"lng":140.298517,"zip":"9610416"},{"town":"表郷高木","koaza":"花輪","lat":37.058844,"lng":140.314486,"zip":"9610414"},{"town":"表郷高木","koaza":"田渕","lat":37.059809,"lng":140.319305,"zip":"9610414"},{"town":"表郷高木","koaza":"西谷地","lat":37.059198,"lng":140.322071,"zip":"9610414"},{"town":"表郷深渡戸","koaza":"久保","lat":37.064893,"lng":140.352167,"zip":"9610411"},{"town":"表郷深渡戸","koaza":"東","lat":37.065389,"lng":140.354149,"zip":"9610411"},{"town":"表郷三森","koaza":"熊ノ前","lat":37.054386,"lng":140.345115,"zip":"9610413"},{"town":"表郷梁森","koaza":"榎口","lat":37.05578,"lng":140.31475,"zip":"9610415"},{"town":"表郷金山","koaza":"山神沢","lat":37.044741,"lng":140.294785,"zip":"9610416"},{"town":"表郷中野","koaza":"ハノキ沢","lat":37.064058,"lng":140.250051,"zip":"9610401"},{"town":"表郷中野","koaza":"柳橋向","lat":37.06232,"lng":140.244461,"zip":"9610401"},{"town":"表郷番沢","koaza":"漆方","lat":37.061686,"lng":140.273525,"zip":"9610403"},{"town":"表郷番沢","koaza":"久ノ内","lat":37.061177,"lng":140.282806,"zip":"9610403"},{"town":"表郷番沢","koaza":"大仙","lat":37.061742,"lng":140.289722,"zip":"9610403"},{"town":"表郷番沢","koaza":"桜下","lat":37.061947,"lng":140.293425,"zip":"9610403"},{"town":"表郷金山","koaza":"長者久保","lat":37.053216,"lng":140.303833,"zip":"9610416"},{"town":"表郷金山","koaza":"篠柄山","lat":37.054332,"lng":140.279968,"zip":"9610416"},{"town":"東上野出島","koaza":"切道志","lat":37.100289,"lng":140.377344,"zip":"9610302"},{"town":"東工業団地","koaza":"北","lat":37.112274,"lng":140.344327,"zip":"9610304"},{"town":"田島","koaza":"竹ノ内","lat":37.114313,"lng":140.293957,"zip":"9610015"},{"town":"田島","koaza":"西ノ内","lat":37.111882,"lng":140.300237,"zip":"9610015"},{"town":"田島","koaza":"薊田","lat":37.111599,"lng":140.297082,"zip":"9610015"},{"town":"表郷金山","koaza":"苧畑沢","lat":37.046695,"lng":140.282063,"zip":"9610416"},{"town":"表郷金山","koaza":"正殿山","lat":37.048888,"lng":140.275748,"zip":"9610416"},{"town":"表郷深渡戸","koaza":"西原","lat":37.067249,"lng":140.345059,"zip":"9610411"},{"town":"表郷深渡戸","koaza":"大山","lat":37.069531,"lng":140.345373,"zip":"9610411"},{"town":"表郷八幡","koaza":"東前","lat":37.079026,"lng":140.32817,"zip":"9610406"},{"town":"表郷堀之内","koaza":"中ノ久保","lat":37.071074,"lng":140.327449,"zip":"9610408"},{"town":"表郷八幡","koaza":"御供田","lat":37.073397,"lng":140.313401,"zip":"9610406"},{"town":"表郷八幡","koaza":"宿前","lat":37.070954,"lng":140.302054,"zip":"9610406"},{"town":"表郷八幡","koaza":"上長橋","lat":37.072106,"lng":140.303935,"zip":"9610406"},{"town":"旗宿","koaza":"飛","lat":37.060735,"lng":140.217951,"zip":"9610038"},{"town":"表郷番沢","koaza":"谷中","lat":37.070416,"lng":140.273176,"zip":"9610403"},{"town":"表郷番沢","koaza":"下田","lat":37.074399,"lng":140.273849,"zip":"9610403"},{"town":"関辺","koaza":"竹花","lat":37.078612,"lng":140.261912,"zip":"9610021"},{"town":"関辺","koaza":"田中山","lat":37.075261,"lng":140.258897,"zip":"9610021"},{"town":"表郷小松","koaza":"前山","lat":37.077582,"lng":140.276707,"zip":"9610405"},{"town":"表郷社田","koaza":"上谷地","lat":37.077257,"lng":140.277364,"zip":"9610404"},{"town":"大和田","koaza":"岩崎","lat":37.137328,"lng":140.257615,"zip":"9610002"},{"town":"泉田","koaza":"南ノ内","lat":37.145619,"lng":140.255869,"zip":"9610003"},{"town":"大和田","koaza":"池ノ次","lat":37.144124,"lng":140.259641,"zip":"9610002"},{"town":"白坂","koaza":"鷹飛","lat":37.060691,"lng":140.194914,"zip":"9610835"},{"town":"白坂","koaza":"八竜神","lat":37.074022,"lng":140.186268,"zip":"9610835"},{"town":"白坂","koaza":"鷹巣","lat":37.073512,"lng":140.191098,"zip":"9610835"},{"town":"白坂","koaza":"八雲山","lat":37.077025,"lng":140.193346,"zip":"9610835"},{"town":"表郷金山","koaza":"下川原","lat":37.056617,"lng":140.290116,"zip":"9610416"},{"town":"本沼","koaza":"竹ノ内","lat":37.138373,"lng":140.277392,"zip":"9610012"},{"town":"本沼","koaza":"宮柳","lat":37.135308,"lng":140.277609,"zip":"9610012"},{"town":"板橋","koaza":"西ノ内","lat":37.113983,"lng":140.271953,"zip":"9610016"},{"town":"板橋","koaza":"蟹内","lat":37.112209,"lng":140.271122,"zip":"9610016"},{"town":"板橋","koaza":"作田","lat":37.110392,"lng":140.273698,"zip":"9610016"},{"town":"東釜子","koaza":"新薄久保","lat":37.105461,"lng":140.347405,"zip":"9610303"},{"town":"東釜子","koaza":"西ノ内","lat":37.101138,"lng":140.342384,"zip":"9610303"},{"town":"東釜子","koaza":"古峯ノ内","lat":37.102629,"lng":140.341463,"zip":"9610303"},{"town":"表郷八幡","koaza":"堤田","lat":37.089071,"lng":140.305064,"zip":"9610406"},{"town":"表郷八幡","koaza":"大作","lat":37.083897,"lng":140.303609,"zip":"9610406"},{"town":"表郷八幡","koaza":"和田","lat":37.077556,"lng":140.308753,"zip":"9610406"},{"town":"表郷八幡","koaza":"福崎","lat":37.079263,"lng":140.306664,"zip":"9610406"},{"town":"表郷中寺","koaza":"屋敷","lat":37.069122,"lng":140.315234,"zip":"9610407"},{"town":"表郷八幡","koaza":"作田","lat":37.077756,"lng":140.300431,"zip":"9610406"},{"town":"表郷八幡","koaza":"石前","lat":37.074427,"lng":140.294478,"zip":"9610406"},{"town":"表郷八幡","koaza":"岩下","lat":37.07799,"lng":140.291627,"zip":"9610406"},{"town":"表郷社田","koaza":"白旗","lat":37.07095,"lng":140.287092,"zip":"9610404"},{"town":"表郷番沢","koaza":"御殿ヶ入二飛山","lat":37.05181,"lng":140.271082,"zip":"9610403"},{"town":"表郷番沢","koaza":"鹿ノ内","lat":37.055795,"lng":140.276451,"zip":"9610403"},{"town":"表郷番沢","koaza":"硯石","lat":37.071547,"lng":140.259964,"zip":"9610403"},{"town":"表郷内松","koaza":"辻道","lat":37.070718,"lng":140.252711,"zip":"9610402"},{"town":"表郷内松","koaza":"竹花","lat":37.071325,"lng":140.25549,"zip":"9610402"},{"town":"表郷内松","koaza":"勝見坂","lat":37.068491,"lng":140.24515,"zip":"9610402"},{"town":"表郷中野","koaza":"滝沢","lat":37.054363,"lng":140.235287,"zip":"9610401"},{"town":"旗宿","koaza":"町尻","lat":37.053256,"lng":140.231471,"zip":"9610038"},{"town":"旗宿","koaza":"東山","lat":37.050262,"lng":140.233864,"zip":"9610038"},{"town":"旗宿","koaza":"大木沢","lat":37.035918,"lng":140.218149,"zip":"9610038"},{"town":"旗宿","koaza":"大木","lat":37.046795,"lng":140.223885,"zip":"9610038"},{"town":"表郷内松","koaza":"清水久保","lat":37.081318,"lng":140.235003,"zip":"9610402"},{"town":"表郷中野","koaza":"岩崎東","lat":37.065121,"lng":140.236329,"zip":"9610401"},{"town":"白坂","koaza":"八幡山","lat":37.079306,"lng":140.188149,"zip":"9610835"},{"town":"旗宿","koaza":"西田","lat":37.053072,"lng":140.225498,"zip":"9610038"},{"town":"表郷番沢","koaza":"日向","lat":37.071335,"lng":140.265441,"zip":"9610403"},{"town":"表郷番沢","koaza":"緑山","lat":37.069908,"lng":140.262046,"zip":"9610403"},{"town":"表郷番沢","koaza":"上大","lat":37.063387,"lng":140.26633,"zip":"9610403"},{"town":"関辺","koaza":"上谷地","lat":37.092867,"lng":140.254446,"zip":"9610021"},{"town":"関辺","koaza":"中田","lat":37.091141,"lng":140.256549,"zip":"9610021"},{"town":"関辺","koaza":"中道下","lat":37.090519,"lng":140.257308,"zip":"9610021"},{"town":"関辺","koaza":"中道上","lat":37.090421,"lng":140.255641,"zip":"9610021"},{"town":"関辺","koaza":"坊ノ内","lat":37.084825,"lng":140.25933,"zip":"9610021"},{"town":"表郷社田","koaza":"前山","lat":37.074668,"lng":140.277597,"zip":"9610404"},{"town":"表郷小松","koaza":"前作原","lat":37.082864,"lng":140.27823,"zip":"9610405"},{"town":"表郷小松","koaza":"東町","lat":37.086155,"lng":140.272649,"zip":"9610405"},{"town":"表郷小松","koaza":"清水前","lat":37.092278,"lng":140.277412,"zip":"9610405"},{"town":"表郷小松","koaza":"滝ノ平","lat":37.094078,"lng":140.270415,"zip":"9610405"},{"town":"表郷小松","koaza":"後山","lat":37.094045,"lng":140.267622,"zip":"9610405"},{"town":"大和田","koaza":"中内","lat":37.148594,"lng":140.263103,"zip":"9610002"},{"town":"小田川","koaza":"茶屋の前","lat":37.155187,"lng":140.25996,"zip":"9610001"},{"town":"小田川","koaza":"行屋久保","lat":37.156066,"lng":140.262205,"zip":"9610001"},{"town":"小田川","koaza":"深沢","lat":37.161297,"lng":140.247845,"zip":"9610001"},{"town":"豊地","koaza":"上弥次郎","lat":37.145395,"lng":140.214999,"zip":"9610005"},{"town":"双石","koaza":"橋本","lat":37.114704,"lng":140.259758,"zip":"9610017"},{"town":"双石","koaza":"飛鳥前","lat":37.114907,"lng":140.257194,"zip":"9610017"},{"town":"双石","koaza":"日向","lat":37.112459,"lng":140.259479,"zip":"9610017"},{"town":"双石","koaza":"新田","lat":37.111017,"lng":140.256853,"zip":"9610017"},{"town":"双石","koaza":"玉坂","lat":37.108727,"lng":140.255799,"zip":"9610017"},{"town":"双石","koaza":"向井","lat":37.109187,"lng":140.259313,"zip":"9610017"},{"town":"双石","koaza":"横峯","lat":37.105186,"lng":140.255642,"zip":"9610017"},{"town":"白坂","koaza":"二十日森","lat":37.082134,"lng":140.188971,"zip":"9610835"},{"town":"萱根","koaza":"上小板橋","lat":37.148288,"lng":140.2359,"zip":"9610004"},{"town":"萱根","koaza":"田中山","lat":37.143794,"lng":140.225161,"zip":"9610004"},{"town":"大","koaza":"南中川原","lat":37.11997,"lng":140.234683,"zip":"9610846"},{"town":"大","koaza":"鹿島","lat":37.122071,"lng":140.236814,"zip":"9610846"},{"town":"表郷番沢","koaza":"柳沼","lat":37.06036,"lng":140.294838,"zip":"9610403"},{"town":"表郷小松","koaza":"西山","lat":37.090875,"lng":140.274395,"zip":"9610405"},{"town":"関辺","koaza":"関山","lat":37.076077,"lng":140.244465,"zip":"9610021"},{"town":"関辺","koaza":"二枚橋","lat":37.089597,"lng":140.244397,"zip":"9610021"},{"town":"関辺","koaza":"大沢","lat":37.089436,"lng":140.243781,"zip":"9610021"},{"town":"白坂","koaza":"新切","lat":37.081563,"lng":140.200317,"zip":"9610835"},{"town":"白坂","koaza":"大平","lat":37.08607,"lng":140.204511,"zip":"9610835"},{"town":"白坂","koaza":"新一里段","lat":37.097533,"lng":140.199208,"zip":"9610835"},{"town":"白坂","koaza":"新皮篭","lat":37.096871,"lng":140.198011,"zip":"9610835"},{"town":"久田野","koaza":"笠松","lat":37.130188,"lng":140.252594,"zip":"9610011"},{"town":"久田野","koaza":"細入山","lat":37.126957,"lng":140.259366,"zip":"9610011"},{"town":"舟田","koaza":"町後","lat":37.123536,"lng":140.283426,"zip":"9610013"},{"town":"表郷小松","koaza":"山神沢","lat":37.093143,"lng":140.280738,"zip":"9610405"},{"town":"借宿","koaza":"神田","lat":37.118202,"lng":140.299175,"zip":"9610014"},{"town":"借宿","koaza":"古内","lat":37.117447,"lng":140.302931,"zip":"9610014"},{"town":"借宿","koaza":"サゴメン","lat":37.118269,"lng":140.303908,"zip":"9610014"},{"town":"田島","koaza":"窪","lat":37.114941,"lng":140.293571,"zip":"9610015"},{"town":"田島","koaza":"里ノ前","lat":37.115232,"lng":140.29373,"zip":"9610015"},{"town":"田島","koaza":"黒谷","lat":37.107883,"lng":140.283855,"zip":"9610015"},{"town":"表郷小松","koaza":"滝ヶ沢","lat":37.099343,"lng":140.267884,"zip":"9610405"},{"town":"板橋","koaza":"戸立石","lat":37.100966,"lng":140.274353,"zip":"9610016"},{"town":"関辺","koaza":"西ノ内","lat":37.081495,"lng":140.257586,"zip":"9610021"},{"town":"東蕪内","koaza":"水神平","lat":37.117729,"lng":140.316137,"zip":"9610308"},{"town":"田島","koaza":"西宮田","lat":37.115022,"lng":140.295064,"zip":"9610015"},{"town":"双石","koaza":"荒神入","lat":37.105301,"lng":140.260628,"zip":"9610017"},{"town":"双石","koaza":"流石久保","lat":37.109181,"lng":140.265702,"zip":"9610017"},{"town":"関辺","koaza":"後津内","lat":37.085041,"lng":140.255872,"zip":"9610021"},{"town":"関辺","koaza":"西方","lat":37.081428,"lng":140.253514,"zip":"9610021"},{"town":"関辺","koaza":"井戸ケ入","lat":37.083816,"lng":140.240828,"zip":"9610021"},{"town":"大","koaza":"塔ノ下","lat":37.122399,"lng":140.23669,"zip":"9610846"},{"town":"大","koaza":"北ノ内","lat":37.123953,"lng":140.241102,"zip":"9610846"},{"town":"大","koaza":"羅漢前","lat":37.12136,"lng":140.236052,"zip":"9610846"},{"town":"表郷小松","koaza":"隠久保","lat":37.095404,"lng":140.263531,"zip":"9610405"}]