[{"town":"磯部","koaza":"","lat":37.762506,"lng":140.983018,"zip":"9792501"},{"town":"蒲庭","koaza":"","lat":37.739071,"lng":141.000729,"zip":"9792511"},{"town":"山上","koaza":"","lat":37.770827,"lng":140.826044,"zip":"9760151"},{"town":"坪田","koaza":"","lat":37.764208,"lng":140.910926,"zip":"9792533"},{"town":"富沢","koaza":"","lat":37.748991,"lng":140.896536,"zip":"9792532"},{"town":"赤木","koaza":"","lat":37.751453,"lng":140.937975,"zip":"9792521"},{"town":"椎木","koaza":"","lat":37.838675,"lng":140.866533,"zip":"9760002"},{"town":"小野","koaza":"","lat":37.796504,"lng":140.883689,"zip":"9760053"},{"town":"初野","koaza":"","lat":37.814496,"lng":140.86792,"zip":"9760051"},{"town":"東玉野","koaza":"","lat":37.769015,"lng":140.753843,"zip":"9760153"},{"town":"原釜","koaza":"","lat":37.830401,"lng":140.957473,"zip":"9760021"},{"town":"大坪","koaza":"","lat":37.829005,"lng":140.895913,"zip":"9760007"},{"town":"大野台一丁目","koaza":"","lat":37.83635,"lng":140.882021,"zip":"9760001"},{"town":"塚部","koaza":"","lat":37.833307,"lng":140.917577,"zip":"9760003"},{"town":"長老内","koaza":"","lat":37.835593,"lng":140.92518,"zip":"9760004"},{"town":"光陽四丁目","koaza":"","lat":37.835141,"lng":140.93139,"zip":"9760005"},{"town":"光陽二丁目","koaza":"","lat":37.832115,"lng":140.942279,"zip":"9760005"},{"town":"光陽三丁目","koaza":"","lat":37.830058,"lng":140.934109,"zip":"9760005"},{"town":"光陽一丁目","koaza":"","lat":37.832836,"lng":140.948255,"zip":"9760005"},{"town":"柚木","koaza":"","lat":37.743136,"lng":140.974305,"zip":"9792512"},{"town":"中村二丁目","koaza":"","lat":37.799316,"lng":140.925503,"zip":"9760042"},{"town":"中村一丁目","koaza":"","lat":37.801816,"lng":140.92411,"zip":"9760042"},{"town":"沖ノ内二丁目","koaza":"","lat":37.806451,"lng":140.931175,"zip":"9760016"},{"town":"北飯渕三丁目","koaza":"","lat":37.802773,"lng":140.936158,"zip":"9760014"},{"town":"北飯渕二丁目","koaza":"","lat":37.805515,"lng":140.935833,"zip":"9760014"},{"town":"沖ノ内一丁目","koaza":"","lat":37.805748,"lng":140.927151,"zip":"9760016"},{"town":"塚ノ町一丁目","koaza":"","lat":37.801846,"lng":140.927471,"zip":"9760015"},{"town":"日下石","koaza":"","lat":37.767687,"lng":140.950932,"zip":"9792522"},{"town":"立谷","koaza":"","lat":37.766108,"lng":140.934176,"zip":"9792531"},{"town":"柏崎","koaza":"","lat":37.778561,"lng":140.963298,"zip":"9760034"},{"town":"新田","koaza":"","lat":37.790005,"lng":140.956842,"zip":"9760033"},{"town":"程田","koaza":"","lat":37.782058,"lng":140.947367,"zip":"9760035"},{"town":"馬場野","koaza":"","lat":37.784253,"lng":140.936853,"zip":"9760036"},{"town":"大曲","koaza":"","lat":37.791267,"lng":140.943203,"zip":"9760032"},{"town":"百槻","koaza":"","lat":37.795206,"lng":140.939869,"zip":"9760031"},{"town":"成田","koaza":"","lat":37.783447,"lng":140.918762,"zip":"9792542"},{"town":"今田","koaza":"","lat":37.772129,"lng":140.890233,"zip":"9792541"},{"town":"中野","koaza":"","lat":37.790165,"lng":140.918249,"zip":"9760037"},{"town":"西山","koaza":"","lat":37.794446,"lng":140.90618,"zip":"9760041"},{"town":"粟津","koaza":"","lat":37.788441,"lng":140.89172,"zip":"9760152"},{"town":"南飯渕","koaza":"","lat":37.8013,"lng":140.943647,"zip":"9760026"},{"town":"北飯渕","koaza":"","lat":37.804844,"lng":140.941307,"zip":"9760014"},{"town":"本笑","koaza":"","lat":37.808694,"lng":140.942871,"zip":"9760024"},{"town":"塚ノ町二丁目","koaza":"","lat":37.802012,"lng":140.929316,"zip":"9760015"},{"town":"北飯渕一丁目","koaza":"","lat":37.80183,"lng":140.931908,"zip":"9760014"},{"town":"沖ノ内三丁目","koaza":"","lat":37.805727,"lng":140.933291,"zip":"9760016"},{"town":"北小泉","koaza":"","lat":37.812512,"lng":140.93086,"zip":"9760012"},{"town":"小泉","koaza":"","lat":37.809979,"lng":140.936816,"zip":"9760013"},{"town":"中村","koaza":"","lat":37.799097,"lng":140.918565,"zip":"9760042"},{"town":"岩子","koaza":"","lat":37.802266,"lng":140.961587,"zip":"9760025"},{"town":"和田","koaza":"","lat":37.813374,"lng":140.953699,"zip":"9760023"},{"town":"尾浜","koaza":"","lat":37.825001,"lng":140.965476,"zip":"9760022"},{"town":"新沼","koaza":"","lat":37.818329,"lng":140.931934,"zip":"9760011"},{"town":"石上","koaza":"","lat":37.820113,"lng":140.914272,"zip":"9760006"},{"town":"黒木","koaza":"","lat":37.809994,"lng":140.897263,"zip":"9760052"},{"town":"大野台二丁目","koaza":"","lat":37.828259,"lng":140.87929,"zip":"9760001"},{"town":"玉野","koaza":"","lat":37.781309,"lng":140.702799,"zip":"9760154"},{"town":"小野","koaza":"山ケ平","lat":37.796737,"lng":140.870549,"zip":"9760053"},{"town":"小野","koaza":"天明","lat":37.796671,"lng":140.854633,"zip":"9760053"},{"town":"初野","koaza":"払川","lat":37.818418,"lng":140.869709,"zip":"9760051"},{"town":"小野","koaza":"北沢","lat":37.79922,"lng":140.87294,"zip":"9760053"},{"town":"山上","koaza":"塩手下","lat":37.764212,"lng":140.881933,"zip":"9760151"},{"town":"初野","koaza":"清名沢","lat":37.803529,"lng":140.870911,"zip":"9760051"},{"town":"椎木","koaza":"段ノ原","lat":37.842006,"lng":140.880009,"zip":"9760002"},{"town":"初野","koaza":"羽黒","lat":37.820668,"lng":140.876139,"zip":"9760051"},{"town":"黒木","koaza":"堂ケ平","lat":37.804347,"lng":140.884331,"zip":"9760052"},{"town":"初野","koaza":"西原","lat":37.823891,"lng":140.876128,"zip":"9760051"},{"town":"山上","koaza":"遠藤","lat":37.777796,"lng":140.873987,"zip":"9760151"},{"town":"初野","koaza":"南萱倉","lat":37.812113,"lng":140.880579,"zip":"9760051"},{"town":"山上","koaza":"上ノ台","lat":37.778361,"lng":140.881448,"zip":"9760151"},{"town":"小野","koaza":"信田","lat":37.798425,"lng":140.885401,"zip":"9760053"},{"town":"山上","koaza":"榎町","lat":37.777339,"lng":140.882947,"zip":"9760151"},{"town":"黒木","koaza":"宿仙木","lat":37.807914,"lng":140.88702,"zip":"9760052"},{"town":"黒木","koaza":"船山","lat":37.804185,"lng":140.887109,"zip":"9760052"},{"town":"小野","koaza":"北原","lat":37.800642,"lng":140.887723,"zip":"9760053"},{"town":"初野","koaza":"栗原","lat":37.816999,"lng":140.879111,"zip":"9760051"},{"town":"小野","koaza":"馬蕃沢","lat":37.79697,"lng":140.888563,"zip":"9760053"},{"town":"初野","koaza":"金谷内","lat":37.820653,"lng":140.887302,"zip":"9760051"},{"town":"大坪","koaza":"兎田","lat":37.831333,"lng":140.883575,"zip":"9760007"},{"town":"今田","koaza":"一里坂","lat":37.770938,"lng":140.887754,"zip":"9792541"},{"town":"大坪","koaza":"馬見塚","lat":37.825787,"lng":140.890995,"zip":"9760007"},{"town":"小野","koaza":"薬師堂","lat":37.803711,"lng":140.892235,"zip":"9760053"},{"town":"粟津","koaza":"石ホロ","lat":37.792754,"lng":140.885536,"zip":"9760152"},{"town":"大坪","koaza":"西田","lat":37.83048,"lng":140.893495,"zip":"9760007"},{"town":"今田","koaza":"土武","lat":37.770791,"lng":140.890951,"zip":"9792541"},{"town":"大坪","koaza":"祇園","lat":37.831743,"lng":140.890201,"zip":"9760007"},{"town":"黒木","koaza":"朝日前","lat":37.811657,"lng":140.890566,"zip":"9760052"},{"town":"大坪","koaza":"前迫","lat":37.824863,"lng":140.893842,"zip":"9760007"},{"town":"山上","koaza":"山岸","lat":37.782455,"lng":140.897052,"zip":"9760151"},{"town":"椎木","koaza":"伊賀屋敷","lat":37.841243,"lng":140.892333,"zip":"9760002"},{"town":"坪田","koaza":"大沢口","lat":37.760408,"lng":140.896648,"zip":"9792533"},{"town":"大坪","koaza":"西畑","lat":37.82961,"lng":140.891943,"zip":"9760007"},{"town":"山上","koaza":"金谷内","lat":37.777326,"lng":140.891448,"zip":"9760151"},{"town":"大坪","koaza":"小野町","lat":37.828531,"lng":140.894467,"zip":"9760007"},{"town":"粟津","koaza":"愛ノ沢","lat":37.785588,"lng":140.893289,"zip":"9760152"},{"town":"椎木","koaza":"北原","lat":37.841101,"lng":140.901651,"zip":"9760002"},{"town":"小野","koaza":"寺前","lat":37.798984,"lng":140.894296,"zip":"9760053"},{"town":"今田","koaza":"東羽黒平","lat":37.773037,"lng":140.894447,"zip":"9792541"},{"town":"今田","koaza":"小椴山","lat":37.766631,"lng":140.894719,"zip":"9792541"},{"town":"黒木","koaza":"薬師堂","lat":37.81731,"lng":140.89388,"zip":"9760052"},{"town":"大坪","koaza":"山神前","lat":37.836337,"lng":140.895851,"zip":"9760007"},{"town":"山上","koaza":"明神","lat":37.778495,"lng":140.895466,"zip":"9760151"},{"town":"粟津","koaza":"長沢","lat":37.787338,"lng":140.89863,"zip":"9760152"},{"town":"黒木","koaza":"舘前","lat":37.811787,"lng":140.898766,"zip":"9760052"},{"town":"今田","koaza":"前原","lat":37.77098,"lng":140.895052,"zip":"9792541"},{"town":"今田","koaza":"原","lat":37.77297,"lng":140.899212,"zip":"9792541"},{"town":"大坪","koaza":"前田","lat":37.826098,"lng":140.895182,"zip":"9760007"},{"town":"黒木","koaza":"北川原","lat":37.814885,"lng":140.895998,"zip":"9760052"},{"town":"大坪","koaza":"東畑","lat":37.831733,"lng":140.896713,"zip":"9760007"},{"town":"黒木","koaza":"迎畑","lat":37.807366,"lng":140.898501,"zip":"9760052"},{"town":"石上","koaza":"みさご沢","lat":37.820395,"lng":140.899079,"zip":"9760006"},{"town":"今田","koaza":"銭上平","lat":37.769298,"lng":140.896629,"zip":"9792541"},{"town":"山上","koaza":"広瀬","lat":37.780523,"lng":140.897977,"zip":"9760151"},{"town":"今田","koaza":"久保","lat":37.776984,"lng":140.897486,"zip":"9792541"},{"town":"山上","koaza":"荒屋舗","lat":37.782669,"lng":140.90207,"zip":"9760151"},{"town":"大坪","koaza":"御所宮","lat":37.827594,"lng":140.898894,"zip":"9760007"},{"town":"坪田","koaza":"下台","lat":37.771597,"lng":140.903366,"zip":"9792533"},{"town":"西山","koaza":"水沢","lat":37.79798,"lng":140.907004,"zip":"9760041"},{"town":"西山","koaza":"長谷堂","lat":37.79115,"lng":140.903901,"zip":"9760041"},{"town":"坪田","koaza":"西原","lat":37.768131,"lng":140.904382,"zip":"9792533"},{"town":"大坪","koaza":"中谷地","lat":37.835599,"lng":140.900329,"zip":"9760007"},{"town":"小野","koaza":"四反田","lat":37.801158,"lng":140.89984,"zip":"9760053"},{"town":"小野","koaza":"小野迫","lat":37.806669,"lng":140.900461,"zip":"9760053"},{"town":"黒木","koaza":"北台","lat":37.815825,"lng":140.899053,"zip":"9760052"},{"town":"黒木","koaza":"町","lat":37.813941,"lng":140.898731,"zip":"9760052"},{"town":"黒木","koaza":"御門","lat":37.810546,"lng":140.900563,"zip":"9760052"},{"town":"坪田","koaza":"山田","lat":37.758567,"lng":140.903085,"zip":"9792533"},{"town":"小野","koaza":"下薬師堂","lat":37.805176,"lng":140.898822,"zip":"9760053"},{"town":"塚部","koaza":"新城下","lat":37.834624,"lng":140.90404,"zip":"9760003"},{"town":"今田","koaza":"藤堂林","lat":37.773995,"lng":140.900969,"zip":"9792541"},{"town":"粟津","koaza":"粟津","lat":37.787142,"lng":140.902257,"zip":"9760152"},{"town":"黒木","koaza":"榎下","lat":37.813186,"lng":140.904869,"zip":"9760052"},{"town":"粟津","koaza":"庭タリ前","lat":37.789394,"lng":140.901329,"zip":"9760152"},{"town":"坪田","koaza":"八幡西","lat":37.775204,"lng":140.905801,"zip":"9792533"},{"town":"小野","koaza":"金谷台","lat":37.804071,"lng":140.904356,"zip":"9760053"},{"town":"大坪","koaza":"新城前","lat":37.834295,"lng":140.902366,"zip":"9760007"},{"town":"今田","koaza":"大竹","lat":37.781712,"lng":140.902989,"zip":"9792541"},{"town":"坪田","koaza":"八幡原","lat":37.773982,"lng":140.904477,"zip":"9792533"},{"town":"石上","koaza":"中曽根","lat":37.825001,"lng":140.905428,"zip":"9760006"},{"town":"塚部","koaza":"上谷地","lat":37.835895,"lng":140.905031,"zip":"9760003"},{"town":"今田","koaza":"天神前","lat":37.785292,"lng":140.907342,"zip":"9792541"},{"town":"黒木","koaza":"勝善","lat":37.806409,"lng":140.904889,"zip":"9760052"},{"town":"富沢","koaza":"藤木","lat":37.745823,"lng":140.905629,"zip":"9792532"},{"town":"坪田","koaza":"牛安沢","lat":37.762551,"lng":140.907798,"zip":"9792533"},{"town":"黒木","koaza":"穴田","lat":37.810836,"lng":140.906289,"zip":"9760052"},{"town":"坪田","koaza":"御仮殿前","lat":37.767585,"lng":140.907242,"zip":"9792533"},{"town":"今田","koaza":"石橋","lat":37.780308,"lng":140.904131,"zip":"9792541"},{"town":"坪田","koaza":"前林","lat":37.761076,"lng":140.913751,"zip":"9792533"},{"town":"富沢","koaza":"北目","lat":37.754462,"lng":140.913304,"zip":"9792532"},{"town":"坪田","koaza":"台前","lat":37.765013,"lng":140.905592,"zip":"9792533"},{"town":"石上","koaza":"二ツ池","lat":37.817893,"lng":140.907297,"zip":"9760006"},{"town":"西山","koaza":"西山","lat":37.795594,"lng":140.910056,"zip":"9760041"},{"town":"今田","koaza":"外張内","lat":37.782793,"lng":140.905687,"zip":"9792541"},{"town":"黒木","koaza":"諏訪田","lat":37.805396,"lng":140.9064,"zip":"9760052"},{"town":"塚部","koaza":"本社","lat":37.837489,"lng":140.908933,"zip":"9760003"},{"town":"中野","koaza":"清水","lat":37.788697,"lng":140.909428,"zip":"9760037"},{"town":"石上","koaza":"西ノ内","lat":37.827186,"lng":140.910314,"zip":"9760006"},{"town":"富沢","koaza":"東藤木","lat":37.747048,"lng":140.9086,"zip":"9792532"},{"town":"黒木","koaza":"上泉","lat":37.809764,"lng":140.910584,"zip":"9760052"},{"town":"今田","koaza":"地蔵前","lat":37.782489,"lng":140.907123,"zip":"9792541"},{"town":"中村","koaza":"笹川","lat":37.802943,"lng":140.909583,"zip":"9760042"},{"town":"石上","koaza":"南蛯沢","lat":37.813589,"lng":140.913095,"zip":"9760006"},{"town":"中村","koaza":"本町","lat":37.800378,"lng":140.908938,"zip":"9760042"},{"town":"中村","koaza":"外並田","lat":37.803752,"lng":140.910351,"zip":"9760042"},{"town":"成田","koaza":"八反田","lat":37.783872,"lng":140.909338,"zip":"9792542"},{"town":"坪田","koaza":"八幡前","lat":37.774018,"lng":140.909991,"zip":"9792533"},{"town":"坪田","koaza":"平林","lat":37.766624,"lng":140.912066,"zip":"9792533"},{"town":"坪田","koaza":"台","lat":37.769149,"lng":140.909902,"zip":"9792533"},{"town":"石上","koaza":"箒平","lat":37.823088,"lng":140.911636,"zip":"9760006"},{"town":"中野","koaza":"堂ノ前","lat":37.786188,"lng":140.911389,"zip":"9760037"},{"town":"塚部","koaza":"中谷地","lat":37.833502,"lng":140.911662,"zip":"9760003"},{"town":"成田","koaza":"天王前","lat":37.781815,"lng":140.913426,"zip":"9792542"},{"town":"石上","koaza":"豊田","lat":37.826996,"lng":140.915296,"zip":"9760006"},{"town":"大坪","koaza":"椚崎","lat":37.832901,"lng":140.911628,"zip":"9760007"},{"town":"坪田","koaza":"涼ケ岡","lat":37.77678,"lng":140.910986,"zip":"9792533"},{"town":"成田","koaza":"舘腰","lat":37.784839,"lng":140.913604,"zip":"9792542"},{"town":"坪田","koaza":"吹上","lat":37.768635,"lng":140.912856,"zip":"9792533"},{"town":"塚部","koaza":"中丸","lat":37.831453,"lng":140.914653,"zip":"9760003"},{"town":"塚部","koaza":"若宮","lat":37.836073,"lng":140.913828,"zip":"9760003"},{"town":"石上","koaza":"蛯沢","lat":37.819871,"lng":140.918574,"zip":"9760006"},{"town":"石上","koaza":"仲蛯沢","lat":37.82026,"lng":140.914231,"zip":"9760006"},{"town":"西山","koaza":"表西山","lat":37.791879,"lng":140.90991,"zip":"9760041"},{"town":"中村","koaza":"塚田","lat":37.804349,"lng":140.912253,"zip":"9760042"},{"town":"富沢","koaza":"原田","lat":37.748709,"lng":140.913792,"zip":"9792532"},{"town":"成田","koaza":"岡本","lat":37.779487,"lng":140.914638,"zip":"9792542"},{"town":"黒木","koaza":"高池","lat":37.807613,"lng":140.914154,"zip":"9760052"},{"town":"坪田","koaza":"神路町","lat":37.776104,"lng":140.91239,"zip":"9792533"},{"town":"中村","koaza":"北町","lat":37.798348,"lng":140.916901,"zip":"9760042"},{"town":"坪田","koaza":"道下","lat":37.77521,"lng":140.913804,"zip":"9792533"},{"town":"黒木","koaza":"四反田","lat":37.807069,"lng":140.912884,"zip":"9760052"},{"town":"中野","koaza":"黒木田","lat":37.790511,"lng":140.914897,"zip":"9760037"},{"town":"中村","koaza":"川原町","lat":37.793199,"lng":140.916629,"zip":"9760042"},{"town":"中村","koaza":"大手先","lat":37.794584,"lng":140.915317,"zip":"9760042"},{"town":"坪田","koaza":"清水前","lat":37.776754,"lng":140.914855,"zip":"9792533"},{"town":"中村","koaza":"川沼","lat":37.804487,"lng":140.91623,"zip":"9760042"},{"town":"中村","koaza":"桜ケ丘","lat":37.801738,"lng":140.917152,"zip":"9760042"},{"town":"石上","koaza":"鹿島前","lat":37.825317,"lng":140.914176,"zip":"9760006"},{"town":"中野","koaza":"明神前","lat":37.789647,"lng":140.916187,"zip":"9760037"},{"town":"坪田","koaza":"ハツカラ","lat":37.772119,"lng":140.915781,"zip":"9792533"},{"town":"成田","koaza":"船橋","lat":37.785096,"lng":140.917317,"zip":"9792542"},{"town":"坪田","koaza":"雷前","lat":37.769159,"lng":140.914549,"zip":"9792533"},{"town":"富沢","koaza":"汁り","lat":37.751306,"lng":140.916643,"zip":"9792532"},{"town":"富沢","koaza":"数田","lat":37.753917,"lng":140.916955,"zip":"9792532"},{"town":"小泉","koaza":"高池","lat":37.807123,"lng":140.919694,"zip":"9760013"},{"town":"坪田","koaza":"台町","lat":37.76575,"lng":140.916067,"zip":"9792533"},{"town":"成田","koaza":"高松","lat":37.780041,"lng":140.91702,"zip":"9792542"},{"town":"坪田","koaza":"坊山","lat":37.761215,"lng":140.920227,"zip":"9792533"},{"town":"坪田","koaza":"新関","lat":37.764332,"lng":140.917826,"zip":"9792533"},{"town":"坪田","koaza":"駒場後","lat":37.774524,"lng":140.917011,"zip":"9792533"},{"town":"石上","koaza":"白髭","lat":37.818138,"lng":140.916629,"zip":"9760006"},{"town":"坪田","koaza":"宮東","lat":37.769926,"lng":140.918428,"zip":"9792533"},{"town":"塚部","koaza":"内城","lat":37.834487,"lng":140.91894,"zip":"9760003"},{"town":"石上","koaza":"南白髭","lat":37.819139,"lng":140.920396,"zip":"9760006"},{"town":"中村","koaza":"高池前","lat":37.804524,"lng":140.920286,"zip":"9760042"},{"town":"石上","koaza":"薬師堂","lat":37.825662,"lng":140.918438,"zip":"9760006"},{"town":"坪田","koaza":"高松前","lat":37.774148,"lng":140.921959,"zip":"9792533"},{"town":"富沢","koaza":"松道","lat":37.756942,"lng":140.918303,"zip":"9792532"},{"town":"立谷","koaza":"山王","lat":37.758133,"lng":140.922494,"zip":"9792531"},{"town":"塚部","koaza":"貴布根前","lat":37.834004,"lng":140.921172,"zip":"9760003"},{"town":"石上","koaza":"蛇山","lat":37.825512,"lng":140.919929,"zip":"9760006"},{"town":"石上","koaza":"宝田","lat":37.825047,"lng":140.921524,"zip":"9760006"},{"town":"坪田","koaza":"高松","lat":37.775341,"lng":140.921407,"zip":"9792533"},{"town":"成田","koaza":"阿弥陀堂","lat":37.782933,"lng":140.921217,"zip":"9792542"},{"town":"中村","koaza":"荒井町","lat":37.801837,"lng":140.920987,"zip":"9760042"},{"town":"塚部","koaza":"益田","lat":37.830281,"lng":140.921779,"zip":"9760003"},{"town":"中野","koaza":"北川原","lat":37.794105,"lng":140.922092,"zip":"9760037"},{"town":"小泉","koaza":"根岸","lat":37.808785,"lng":140.923508,"zip":"9760013"},{"town":"赤木","koaza":"中富","lat":37.758196,"lng":140.931723,"zip":"9792521"},{"town":"赤木","koaza":"木戸町","lat":37.756705,"lng":140.922606,"zip":"9792521"},{"town":"中村","koaza":"泉町","lat":37.806002,"lng":140.922892,"zip":"9760042"},{"town":"中村","koaza":"錦町","lat":37.803088,"lng":140.922745,"zip":"9760042"},{"town":"新沼","koaza":"坪ケ迫","lat":37.813821,"lng":140.923476,"zip":"9760011"},{"town":"塚部","koaza":"山崎","lat":37.833695,"lng":140.923647,"zip":"9760003"},{"town":"長老内","koaza":"大森","lat":37.837099,"lng":140.92755,"zip":"9760004"},{"town":"中村","koaza":"新町","lat":37.799298,"lng":140.92323,"zip":"9760042"},{"town":"中村","koaza":"曲田","lat":37.801844,"lng":140.921929,"zip":"9760042"},{"town":"成田","koaza":"藤堂塚","lat":37.789727,"lng":140.926247,"zip":"9792542"},{"town":"塚部","koaza":"前田","lat":37.832302,"lng":140.921316,"zip":"9760003"},{"town":"坪田","koaza":"川崎","lat":37.76556,"lng":140.926154,"zip":"9792533"},{"town":"中野","koaza":"向陽","lat":37.792048,"lng":140.923497,"zip":"9760037"},{"town":"塚部","koaza":"三石蒔","lat":37.829275,"lng":140.925,"zip":"9760003"},{"town":"赤木","koaza":"岩ケ迫","lat":37.74584,"lng":140.922762,"zip":"9792521"},{"town":"長老内","koaza":"堤下","lat":37.834622,"lng":140.924726,"zip":"9760004"},{"town":"新沼","koaza":"鹿島前","lat":37.819015,"lng":140.925222,"zip":"9760011"},{"town":"中野","koaza":"寺前","lat":37.793114,"lng":140.927425,"zip":"9760037"},{"town":"坪田","koaza":"下原","lat":37.768126,"lng":140.925682,"zip":"9792533"},{"town":"中村","koaza":"塚ノ町","lat":37.802586,"lng":140.925675,"zip":"9760042"},{"town":"坪田","koaza":"下高松","lat":37.772846,"lng":140.927455,"zip":"9792533"},{"town":"立谷","koaza":"北向","lat":37.761575,"lng":140.926337,"zip":"9792531"},{"town":"中村","koaza":"砂子田","lat":37.79849,"lng":140.926622,"zip":"9760042"},{"town":"新沼","koaza":"一反田","lat":37.816867,"lng":140.92772,"zip":"9760011"},{"town":"赤木","koaza":"前田","lat":37.757134,"lng":140.927889,"zip":"9792521"},{"town":"立谷","koaza":"下谷地","lat":37.768141,"lng":140.928219,"zip":"9792531"},{"town":"立谷","koaza":"天ケ沢","lat":37.770133,"lng":140.93065,"zip":"9792531"},{"town":"塚部","koaza":"五反田","lat":37.830988,"lng":140.928194,"zip":"9760003"},{"town":"北小泉","koaza":"権現前","lat":37.810802,"lng":140.929109,"zip":"9760012"},{"town":"小泉","koaza":"山田","lat":37.80812,"lng":140.928531,"zip":"9760013"},{"town":"成田","koaza":"五郎右エ門橋","lat":37.784201,"lng":140.928893,"zip":"9792542"},{"town":"百槻","koaza":"的場","lat":37.795919,"lng":140.927248,"zip":"9760031"},{"town":"赤木","koaza":"五反田","lat":37.750949,"lng":140.933183,"zip":"9792521"},{"town":"大曲","koaza":"大毛内","lat":37.793391,"lng":140.933482,"zip":"9760032"},{"town":"百槻","koaza":"篠竹","lat":37.794641,"lng":140.931775,"zip":"9760031"},{"town":"新沼","koaza":"観音前","lat":37.817226,"lng":140.932276,"zip":"9760011"},{"town":"北小泉","koaza":"寺前","lat":37.814902,"lng":140.931221,"zip":"9760012"},{"town":"馬場野","koaza":"山越","lat":37.792287,"lng":140.931738,"zip":"9760036"},{"town":"馬場野","koaza":"上薬師堂","lat":37.781645,"lng":140.930313,"zip":"9760036"},{"town":"百槻","koaza":"蓬田","lat":37.795631,"lng":140.932656,"zip":"9760031"},{"town":"新沼","koaza":"南行前","lat":37.820294,"lng":140.931417,"zip":"9760011"},{"town":"小泉","koaza":"屋敷前","lat":37.809726,"lng":140.935155,"zip":"9760013"},{"town":"赤木","koaza":"寄井","lat":37.757767,"lng":140.932219,"zip":"9792521"},{"town":"南飯渕","koaza":"明神","lat":37.798666,"lng":140.933447,"zip":"9760026"},{"town":"馬場野","koaza":"福迫","lat":37.782954,"lng":140.934174,"zip":"9760036"},{"town":"立谷","koaza":"田中","lat":37.764538,"lng":140.93324,"zip":"9792531"},{"town":"立谷","koaza":"上立谷","lat":37.762859,"lng":140.931708,"zip":"9792531"},{"town":"北小泉","koaza":"大山先","lat":37.812599,"lng":140.930305,"zip":"9760012"},{"town":"立谷","koaza":"稲荷前","lat":37.763991,"lng":140.934336,"zip":"9792531"},{"town":"馬場野","koaza":"堂田","lat":37.788729,"lng":140.935112,"zip":"9760036"},{"town":"新沼","koaza":"刈敷田","lat":37.811222,"lng":140.933776,"zip":"9760011"},{"town":"尾浜","koaza":"細田","lat":37.817062,"lng":140.942352,"zip":"9760022"},{"town":"赤木","koaza":"坂下","lat":37.753,"lng":140.934597,"zip":"9792521"},{"town":"立谷","koaza":"中屋敷","lat":37.763669,"lng":140.937866,"zip":"9792531"},{"town":"南飯渕","koaza":"道合","lat":37.799668,"lng":140.935736,"zip":"9760026"},{"town":"百槻","koaza":"七町","lat":37.797651,"lng":140.935828,"zip":"9760031"},{"town":"百槻","koaza":"赤屋敷","lat":37.795032,"lng":140.935946,"zip":"9760031"},{"town":"程田","koaza":"潜石","lat":37.778562,"lng":140.939135,"zip":"9760035"},{"town":"立谷","koaza":"下高根沢","lat":37.76853,"lng":140.937928,"zip":"9792531"},{"town":"赤木","koaza":"上原田","lat":37.755842,"lng":140.936373,"zip":"9792521"},{"town":"日下石","koaza":"高根沢","lat":37.770453,"lng":140.940683,"zip":"9792522"},{"town":"新沼","koaza":"大森","lat":37.821255,"lng":140.942965,"zip":"9760011"},{"town":"南飯渕","koaza":"阿加戸","lat":37.800874,"lng":140.938198,"zip":"9760026"},{"town":"馬場野","koaza":"上谷地","lat":37.784313,"lng":140.938532,"zip":"9760036"},{"town":"立谷","koaza":"町畑","lat":37.764309,"lng":140.940975,"zip":"9792531"},{"town":"馬場野","koaza":"堤下","lat":37.78807,"lng":140.939908,"zip":"9760036"},{"town":"北飯渕","koaza":"阿弥陀堂","lat":37.805424,"lng":140.939564,"zip":"9760014"},{"town":"馬場野","koaza":"鹿島前","lat":37.789029,"lng":140.938101,"zip":"9760036"},{"town":"程田","koaza":"形部田","lat":37.781508,"lng":140.941928,"zip":"9760035"},{"town":"新沼","koaza":"鷲塚","lat":37.826586,"lng":140.944293,"zip":"9760011"},{"town":"南飯渕","koaza":"成南","lat":37.800493,"lng":140.940696,"zip":"9760026"},{"town":"大曲","koaza":"権浪","lat":37.78948,"lng":140.94235,"zip":"9760032"},{"town":"赤木","koaza":"鬼越","lat":37.756784,"lng":140.942169,"zip":"9792521"},{"town":"本笑","koaza":"中江","lat":37.808473,"lng":140.942396,"zip":"9760024"},{"town":"本笑","koaza":"馬場添","lat":37.809295,"lng":140.942685,"zip":"9760024"},{"town":"和田","koaza":"北迫","lat":37.815143,"lng":140.944452,"zip":"9760023"},{"town":"和田","koaza":"柴迫","lat":37.811182,"lng":140.945328,"zip":"9760023"},{"town":"南飯渕","koaza":"木関無","lat":37.801324,"lng":140.943066,"zip":"9760026"},{"town":"日下石","koaza":"一北田","lat":37.771995,"lng":140.94262,"zip":"9792522"},{"town":"新沼","koaza":"大迎","lat":37.823061,"lng":140.946699,"zip":"9760011"},{"town":"赤木","koaza":"圦沢","lat":37.755204,"lng":140.944738,"zip":"9792521"},{"town":"岩子","koaza":"北稲田","lat":37.805506,"lng":140.950411,"zip":"9760025"},{"town":"日下石","koaza":"羽山","lat":37.775984,"lng":140.954707,"zip":"9792522"},{"town":"馬場野","koaza":"中谷地","lat":37.785457,"lng":140.944343,"zip":"9760036"},{"town":"日下石","koaza":"福田","lat":37.768046,"lng":140.944918,"zip":"9792522"},{"town":"程田","koaza":"朝日前","lat":37.785522,"lng":140.945393,"zip":"9760035"},{"town":"南飯渕","koaza":"壇腰","lat":37.800859,"lng":140.944718,"zip":"9760026"},{"town":"原釜","koaza":"札ノ沢","lat":37.822204,"lng":140.947028,"zip":"9760021"},{"town":"日下石","koaza":"金谷川子","lat":37.76247,"lng":140.945774,"zip":"9792522"},{"town":"程田","koaza":"山田","lat":37.779295,"lng":140.947368,"zip":"9760035"},{"town":"日下石","koaza":"町場","lat":37.764525,"lng":140.943917,"zip":"9792522"},{"town":"日下石","koaza":"地之内","lat":37.769846,"lng":140.9494,"zip":"9792522"},{"town":"南飯渕","koaza":"粕田","lat":37.802122,"lng":140.946978,"zip":"9760026"},{"town":"赤木","koaza":"新堤","lat":37.744751,"lng":140.950197,"zip":"9792521"},{"town":"南飯渕","koaza":"松下","lat":37.80287,"lng":140.946283,"zip":"9760026"},{"town":"大曲","koaza":"天神前","lat":37.78868,"lng":140.947439,"zip":"9760032"},{"town":"日下石","koaza":"神明前","lat":37.76723,"lng":140.946998,"zip":"9792522"},{"town":"南飯渕","koaza":"曲渕","lat":37.802908,"lng":140.947496,"zip":"9760026"},{"town":"日下石","koaza":"高田","lat":37.764818,"lng":140.948089,"zip":"9792522"},{"town":"和田","koaza":"中迫","lat":37.816481,"lng":140.949991,"zip":"9760023"},{"town":"日下石","koaza":"金谷","lat":37.760995,"lng":140.947735,"zip":"9792522"},{"town":"原釜","koaza":"戸崎","lat":37.827401,"lng":140.950202,"zip":"9760021"},{"town":"程田","koaza":"薮内前","lat":37.78715,"lng":140.953373,"zip":"9760035"},{"town":"赤木","koaza":"高谷地","lat":37.758526,"lng":140.94893,"zip":"9792521"},{"town":"岩子","koaza":"稲田","lat":37.803923,"lng":140.9498,"zip":"9760025"},{"town":"日下石","koaza":"諏訪","lat":37.765996,"lng":140.950597,"zip":"9792522"},{"town":"新田","koaza":"鷺打","lat":37.788915,"lng":140.949791,"zip":"9760033"},{"town":"新田","koaza":"田中","lat":37.795103,"lng":140.950881,"zip":"9760033"},{"town":"和田","koaza":"坂下","lat":37.810643,"lng":140.95079,"zip":"9760023"},{"town":"新田","koaza":"八龍","lat":37.790585,"lng":140.950887,"zip":"9760033"},{"town":"日下石","koaza":"鬼越迫","lat":37.759383,"lng":140.953722,"zip":"9792522"},{"town":"日下石","koaza":"二北田","lat":37.776357,"lng":140.950912,"zip":"9792522"},{"town":"程田","koaza":"小堤","lat":37.779977,"lng":140.948825,"zip":"9760035"},{"town":"赤木","koaza":"一里壇","lat":37.752072,"lng":140.952626,"zip":"9792521"},{"town":"程田","koaza":"明神前","lat":37.788288,"lng":140.953794,"zip":"9760035"},{"town":"原釜","koaza":"仲田","lat":37.830975,"lng":140.953925,"zip":"9760021"},{"town":"原釜","koaza":"北谷地","lat":37.8346,"lng":140.952658,"zip":"9760021"},{"town":"日下石","koaza":"上堂田","lat":37.760504,"lng":140.951404,"zip":"9792522"},{"town":"新沼","koaza":"広須賀","lat":37.832872,"lng":140.951999,"zip":"9760011"},{"town":"新田","koaza":"寺田","lat":37.790397,"lng":140.952011,"zip":"9760033"},{"town":"柏崎","koaza":"作田","lat":37.782371,"lng":140.952494,"zip":"9760034"},{"town":"原釜","koaza":"荒田","lat":37.827827,"lng":140.954105,"zip":"9760021"},{"town":"新田","koaza":"南城","lat":37.787734,"lng":140.955396,"zip":"9760033"},{"town":"原釜","koaza":"浜田","lat":37.832759,"lng":140.952439,"zip":"9760021"},{"town":"日下石","koaza":"北田","lat":37.773546,"lng":140.954648,"zip":"9792522"},{"town":"新田","koaza":"北沢目","lat":37.794328,"lng":140.953858,"zip":"9760033"},{"town":"新田","koaza":"前田中","lat":37.793377,"lng":140.955071,"zip":"9760033"},{"town":"新田","koaza":"大町","lat":37.791255,"lng":140.955034,"zip":"9760033"},{"town":"日下石","koaza":"東北田","lat":37.771527,"lng":140.954488,"zip":"9792522"},{"town":"柏崎","koaza":"上ノ台","lat":37.781088,"lng":140.954199,"zip":"9760034"},{"town":"尾浜","koaza":"原","lat":37.824325,"lng":140.955174,"zip":"9760022"},{"town":"日下石","koaza":"堂田","lat":37.764229,"lng":140.955433,"zip":"9792522"},{"town":"和田","koaza":"舘前","lat":37.810768,"lng":140.954427,"zip":"9760023"},{"town":"日下石","koaza":"富内","lat":37.766196,"lng":140.954476,"zip":"9792522"},{"town":"赤木","koaza":"松ケ沢","lat":37.750566,"lng":140.956618,"zip":"9792521"},{"town":"和田","koaza":"下柴迫","lat":37.815822,"lng":140.954201,"zip":"9760023"},{"town":"日下石","koaza":"鳥喰","lat":37.76595,"lng":140.959102,"zip":"9792522"},{"town":"柚木","koaza":"一ノ坪","lat":37.74982,"lng":140.959895,"zip":"9792512"},{"town":"原釜","koaza":"大津","lat":37.834958,"lng":140.957106,"zip":"9760021"},{"town":"程田","koaza":"大師前","lat":37.786563,"lng":140.958316,"zip":"9760035"},{"town":"岩子","koaza":"大迫","lat":37.805846,"lng":140.960221,"zip":"9760025"},{"town":"岩子","koaza":"数馬","lat":37.804075,"lng":140.959285,"zip":"9760025"},{"town":"磯部","koaza":"手ノ沢","lat":37.755787,"lng":140.963019,"zip":"9792501"},{"town":"柚木","koaza":"大関","lat":37.747665,"lng":140.960193,"zip":"9792512"},{"town":"原釜","koaza":"蕨平","lat":37.827298,"lng":140.958084,"zip":"9760021"},{"town":"新田","koaza":"石橋","lat":37.787218,"lng":140.958947,"zip":"9760033"},{"town":"尾浜","koaza":"高塚","lat":37.824085,"lng":140.959524,"zip":"9760022"},{"town":"柏崎","koaza":"鶴巣野","lat":37.77877,"lng":140.960797,"zip":"9760034"},{"town":"柏崎","koaza":"西原","lat":37.778515,"lng":140.95757,"zip":"9760034"},{"town":"新田","koaza":"千躰","lat":37.785802,"lng":140.961192,"zip":"9760033"},{"town":"尾浜","koaza":"南ノ入","lat":37.825428,"lng":140.962021,"zip":"9760022"},{"town":"尾浜","koaza":"北ノ入","lat":37.82809,"lng":140.962177,"zip":"9760022"},{"town":"柏崎","koaza":"中台","lat":37.781686,"lng":140.962946,"zip":"9760034"},{"town":"柏崎","koaza":"北向","lat":37.782728,"lng":140.962115,"zip":"9760034"},{"town":"磯部","koaza":"山信田","lat":37.766437,"lng":140.974303,"zip":"9792501"},{"town":"岩子","koaza":"小迫","lat":37.806551,"lng":140.963446,"zip":"9760025"},{"town":"岩子","koaza":"中島","lat":37.810144,"lng":140.968169,"zip":"9760025"},{"town":"尾浜","koaza":"寺前","lat":37.827299,"lng":140.962778,"zip":"9760022"},{"town":"新田","koaza":"梅川","lat":37.785268,"lng":140.963989,"zip":"9760033"},{"town":"尾浜","koaza":"平前","lat":37.823419,"lng":140.963521,"zip":"9760022"},{"town":"岩子","koaza":"明神前","lat":37.804871,"lng":140.964368,"zip":"9760025"},{"town":"柏崎","koaza":"表","lat":37.780672,"lng":140.965767,"zip":"9760034"},{"town":"柏崎","koaza":"梅川","lat":37.783547,"lng":140.96593,"zip":"9760034"},{"town":"尾浜","koaza":"須賀畑","lat":37.828019,"lng":140.965045,"zip":"9760022"},{"town":"岩子","koaza":"長谷地","lat":37.801913,"lng":140.967121,"zip":"9760025"},{"town":"岩子","koaza":"坂脇","lat":37.805005,"lng":140.965479,"zip":"9760025"},{"town":"岩子","koaza":"宝迫","lat":37.810548,"lng":140.970951,"zip":"9760025"},{"town":"尾浜","koaza":"二合田","lat":37.825478,"lng":140.967781,"zip":"9760022"},{"town":"尾浜","koaza":"港町","lat":37.821672,"lng":140.968221,"zip":"9760022"},{"town":"尾浜","koaza":"牛鼻毛","lat":37.823566,"lng":140.969203,"zip":"9760022"},{"town":"尾浜","koaza":"追川","lat":37.825644,"lng":140.972065,"zip":"9760022"},{"town":"磯部","koaza":"金草","lat":37.747542,"lng":140.97932,"zip":"9792501"},{"town":"磯部","koaza":"迎","lat":37.765546,"lng":140.979079,"zip":"9792501"},{"town":"柚木","koaza":"前日向堤内","lat":37.736341,"lng":140.979775,"zip":"9792512"},{"town":"磯部","koaza":"大迎","lat":37.778696,"lng":140.979329,"zip":"9792501"},{"town":"柚木","koaza":"大畑","lat":37.741128,"lng":140.978361,"zip":"9792512"},{"town":"磯部","koaza":"芹谷地","lat":37.776011,"lng":140.983673,"zip":"9792501"},{"town":"磯部","koaza":"大洲","lat":37.778678,"lng":140.982684,"zip":"9792501"},{"town":"磯部","koaza":"信成","lat":37.756913,"lng":140.992744,"zip":"9792501"},{"town":"磯部","koaza":"狐穴","lat":37.762747,"lng":140.986331,"zip":"9792501"},{"town":"磯部","koaza":"大浜","lat":37.767185,"lng":140.988859,"zip":"9792501"},{"town":"柚木","koaza":"谷地田","lat":37.738768,"lng":140.98804,"zip":"9792512"},{"town":"蒲庭","koaza":"獺庭","lat":37.74333,"lng":140.994703,"zip":"9792511"},{"town":"柚木","koaza":"前日向","lat":37.73902,"lng":140.984445,"zip":"9792512"},{"town":"磯部","koaza":"台畑","lat":37.764444,"lng":140.993232,"zip":"9792501"},{"town":"磯部","koaza":"上ノ台","lat":37.760654,"lng":140.994196,"zip":"9792501"},{"town":"磯部","koaza":"四方柴","lat":37.751499,"lng":141.000663,"zip":"9792501"},{"town":"磯部","koaza":"古磯部","lat":37.759913,"lng":140.996002,"zip":"9792501"},{"town":"磯部","koaza":"土橋","lat":37.755126,"lng":140.995631,"zip":"9792501"},{"town":"蒲庭","koaza":"狩野","lat":37.747878,"lng":141.002748,"zip":"9792511"},{"town":"蒲庭","koaza":"前迫","lat":37.745303,"lng":141.006875,"zip":"9792511"},{"town":"蒲庭","koaza":"舘前","lat":37.730395,"lng":141.005679,"zip":"9792511"},{"town":"初野","koaza":"猪倉","lat":37.82604,"lng":140.881088,"zip":"9760051"},{"town":"初野","koaza":"初野町","lat":37.823403,"lng":140.879419,"zip":"9760051"},{"town":"初野","koaza":"岩折","lat":37.822435,"lng":140.881705,"zip":"9760051"},{"town":"初野","koaza":"三川","lat":37.824711,"lng":140.884699,"zip":"9760051"},{"town":"初野","koaza":"狢田","lat":37.817107,"lng":140.884078,"zip":"9760051"},{"town":"初野","koaza":"北萱倉","lat":37.813985,"lng":140.881747,"zip":"9760051"},{"town":"黒木","koaza":"持添","lat":37.814218,"lng":140.898249,"zip":"9760052"},{"town":"黒木","koaza":"中樋","lat":37.811829,"lng":140.897704,"zip":"9760052"},{"town":"黒木","koaza":"西舘","lat":37.813699,"lng":140.896025,"zip":"9760052"},{"town":"黒木","koaza":"本町","lat":37.813548,"lng":140.900757,"zip":"9760052"},{"town":"大坪","koaza":"千載畑","lat":37.825486,"lng":140.901462,"zip":"9760007"},{"town":"塚部","koaza":"下谷地","lat":37.833479,"lng":140.914533,"zip":"9760003"},{"town":"塚部","koaza":"善光寺","lat":37.835778,"lng":140.916833,"zip":"9760003"},{"town":"石上","koaza":"御屋敷","lat":37.826642,"lng":140.915327,"zip":"9760006"},{"town":"石上","koaza":"一丁田","lat":37.827257,"lng":140.918046,"zip":"9760006"},{"town":"石上","koaza":"寺前","lat":37.823974,"lng":140.917963,"zip":"9760006"},{"town":"石上","koaza":"前田","lat":37.823325,"lng":140.919538,"zip":"9760006"},{"town":"石上","koaza":"花木町","lat":37.82658,"lng":140.919028,"zip":"9760006"},{"town":"新沼","koaza":"前谷地","lat":37.821641,"lng":140.924618,"zip":"9760011"},{"town":"新沼","koaza":"神明前","lat":37.820884,"lng":140.936062,"zip":"9760011"},{"town":"原釜","koaza":"南戸崎","lat":37.825324,"lng":140.950075,"zip":"9760021"},{"town":"原釜","koaza":"金草","lat":37.825166,"lng":140.951847,"zip":"9760021"},{"town":"尾浜","koaza":"札ノ沢","lat":37.821585,"lng":140.949787,"zip":"9760022"},{"town":"原釜","koaza":"由沼","lat":37.82675,"lng":140.956611,"zip":"9760021"},{"town":"原釜","koaza":"北高野","lat":37.826181,"lng":140.954725,"zip":"9760021"},{"town":"尾浜","koaza":"船越","lat":37.823456,"lng":140.965956,"zip":"9760022"},{"town":"本笑","koaza":"前田","lat":37.808643,"lng":140.938141,"zip":"9760024"},{"town":"本笑","koaza":"西和田","lat":37.808828,"lng":140.946584,"zip":"9760024"},{"town":"岩子","koaza":"船附","lat":37.806637,"lng":140.966022,"zip":"9760025"},{"town":"南飯渕","koaza":"北木関無","lat":37.802244,"lng":140.944749,"zip":"9760026"},{"town":"中村","koaza":"前沢目","lat":37.804089,"lng":140.925282,"zip":"9760042"},{"town":"中村","koaza":"上町","lat":37.799514,"lng":140.920223,"zip":"9760042"},{"town":"中村","koaza":"田町","lat":37.799516,"lng":140.921046,"zip":"9760042"},{"town":"中村","koaza":"大町","lat":37.797601,"lng":140.921491,"zip":"9760042"},{"town":"中村","koaza":"宇多川町","lat":37.796665,"lng":140.923121,"zip":"9760042"},{"town":"中村","koaza":"袋町","lat":37.796615,"lng":140.921724,"zip":"9760042"},{"town":"中野","koaza":"北反町","lat":37.79349,"lng":140.921253,"zip":"9760037"},{"town":"中野","koaza":"桜町","lat":37.79281,"lng":140.919269,"zip":"9760037"},{"town":"中野","koaza":"染師前","lat":37.791899,"lng":140.917089,"zip":"9760037"},{"town":"中野","koaza":"畑ノ前","lat":37.786145,"lng":140.908896,"zip":"9760037"},{"town":"小野","koaza":"笹川","lat":37.8029,"lng":140.90621,"zip":"9760053"},{"town":"小野","koaza":"五反田","lat":37.803315,"lng":140.905534,"zip":"9760053"},{"town":"粟津","koaza":"芋堀","lat":37.789648,"lng":140.900008,"zip":"9760152"},{"town":"小野","koaza":"中平","lat":37.799823,"lng":140.891952,"zip":"9760053"},{"town":"小野","koaza":"元屋敷","lat":37.800793,"lng":140.897982,"zip":"9760053"},{"town":"小野","koaza":"南小野","lat":37.799999,"lng":140.899063,"zip":"9760053"},{"town":"黒木","koaza":"源多田","lat":37.807585,"lng":140.911515,"zip":"9760052"},{"town":"粟津","koaza":"寒水田","lat":37.784819,"lng":140.886488,"zip":"9760152"},{"town":"粟津","koaza":"源蔵田","lat":37.787504,"lng":140.884585,"zip":"9760152"},{"town":"山上","koaza":"二ノ平","lat":37.785852,"lng":140.861668,"zip":"9760151"},{"town":"山上","koaza":"坊主田","lat":37.786678,"lng":140.873746,"zip":"9760151"},{"town":"山上","koaza":"紙漉沢","lat":37.782667,"lng":140.879818,"zip":"9760151"},{"town":"山上","koaza":"南田","lat":37.777591,"lng":140.880397,"zip":"9760151"},{"town":"山上","koaza":"茄子小田","lat":37.775746,"lng":140.878169,"zip":"9760151"},{"town":"山上","koaza":"才ノ神沢","lat":37.774807,"lng":140.881288,"zip":"9760151"},{"town":"山上","koaza":"柳下","lat":37.777356,"lng":140.877227,"zip":"9760151"},{"town":"今田","koaza":"西田","lat":37.776289,"lng":140.886431,"zip":"9792541"},{"town":"今田","koaza":"引沼","lat":37.77526,"lng":140.884987,"zip":"9792541"},{"town":"山上","koaza":"堀坂","lat":37.777517,"lng":140.886737,"zip":"9760151"},{"town":"山上","koaza":"山居平","lat":37.778823,"lng":140.887025,"zip":"9760151"},{"town":"今田","koaza":"西羽黒平","lat":37.773564,"lng":140.89233,"zip":"9792541"},{"town":"今田","koaza":"湯在小路","lat":37.774995,"lng":140.892008,"zip":"9792541"},{"town":"今田","koaza":"薮内","lat":37.775186,"lng":140.897611,"zip":"9792541"},{"town":"今田","koaza":"久保前","lat":37.773792,"lng":140.897963,"zip":"9792541"},{"town":"今田","koaza":"権現下","lat":37.773266,"lng":140.88571,"zip":"9792541"},{"town":"今田","koaza":"台畑","lat":37.777612,"lng":140.898706,"zip":"9792541"},{"town":"今田","koaza":"山野","lat":37.780279,"lng":140.901237,"zip":"9792541"},{"town":"今田","koaza":"今田前","lat":37.780158,"lng":140.904383,"zip":"9792541"},{"town":"成田","koaza":"不動前","lat":37.782647,"lng":140.916566,"zip":"9792542"},{"town":"成田","koaza":"岡本前","lat":37.782605,"lng":140.915116,"zip":"9792542"},{"town":"成田","koaza":"大作","lat":37.780109,"lng":140.925872,"zip":"9792542"},{"town":"馬場野","koaza":"雨田","lat":37.7883,"lng":140.930022,"zip":"9760036"},{"town":"馬場野","koaza":"樋ノ口","lat":37.789999,"lng":140.928991,"zip":"9760036"},{"town":"馬場野","koaza":"寺内","lat":37.79109,"lng":140.934454,"zip":"9760036"},{"town":"馬場野","koaza":"岩崎","lat":37.789777,"lng":140.93377,"zip":"9760036"},{"town":"中野","koaza":"反町前","lat":37.793164,"lng":140.924593,"zip":"9760037"},{"town":"大坪","koaza":"山田","lat":37.828391,"lng":140.882069,"zip":"9760007"},{"town":"初野","koaza":"山神前","lat":37.814089,"lng":140.884852,"zip":"9760051"},{"town":"黒木","koaza":"諏訪西","lat":37.818661,"lng":140.88994,"zip":"9760052"},{"town":"黒木","koaza":"仁貫地","lat":37.817427,"lng":140.890508,"zip":"9760052"},{"town":"黒木","koaza":"芹谷地","lat":37.819635,"lng":140.895744,"zip":"9760052"},{"town":"中野","koaza":"南寺前","lat":37.792704,"lng":140.925297,"zip":"9760037"},{"town":"馬場野","koaza":"鹿島後","lat":37.78942,"lng":140.937657,"zip":"9760036"},{"town":"大曲","koaza":"花立","lat":37.79029,"lng":140.945579,"zip":"9760032"},{"town":"柏崎","koaza":"西台","lat":37.780073,"lng":140.959556,"zip":"9760034"},{"town":"日下石","koaza":"沖","lat":37.765993,"lng":140.947234,"zip":"9792522"},{"town":"日下石","koaza":"石橋","lat":37.76476,"lng":140.951217,"zip":"9792522"},{"town":"坪田","koaza":"駒場","lat":37.773425,"lng":140.916768,"zip":"9792533"},{"town":"坪田","koaza":"北田","lat":37.770905,"lng":140.91321,"zip":"9792533"},{"town":"坪田","koaza":"金草","lat":37.764419,"lng":140.903154,"zip":"9792533"},{"town":"坪田","koaza":"池上前","lat":37.763392,"lng":140.904697,"zip":"9792533"},{"town":"坪田","koaza":"池上","lat":37.765946,"lng":140.906933,"zip":"9792533"},{"town":"坪田","koaza":"中城","lat":37.766756,"lng":140.917723,"zip":"9792533"},{"town":"富沢","koaza":"焼切","lat":37.753038,"lng":140.904767,"zip":"9792532"},{"town":"富沢","koaza":"水神","lat":37.750075,"lng":140.911577,"zip":"9792532"},{"town":"富沢","koaza":"南沢","lat":37.748111,"lng":140.904103,"zip":"9792532"},{"town":"赤木","koaza":"二ノ宮","lat":37.757077,"lng":140.934069,"zip":"9792521"},{"town":"赤木","koaza":"堤下","lat":37.752669,"lng":140.926852,"zip":"9792521"},{"town":"赤木","koaza":"西山田","lat":37.751016,"lng":140.929893,"zip":"9792521"},{"town":"赤木","koaza":"野尻","lat":37.756172,"lng":140.940738,"zip":"9792521"},{"town":"赤木","koaza":"段下","lat":37.755092,"lng":140.938829,"zip":"9792521"},{"town":"赤木","koaza":"杢山田","lat":37.747596,"lng":140.934521,"zip":"9792521"},{"town":"赤木","koaza":"広谷地","lat":37.746047,"lng":140.941532,"zip":"9792521"},{"town":"柚木","koaza":"境田","lat":37.742351,"lng":140.96526,"zip":"9792512"},{"town":"柚木","koaza":"石橋","lat":37.751949,"lng":140.962022,"zip":"9792512"},{"town":"柚木","koaza":"京夫","lat":37.746603,"lng":140.965818,"zip":"9792512"},{"town":"柚木","koaza":"蓬田","lat":37.747136,"lng":140.969041,"zip":"9792512"},{"town":"柚木","koaza":"桑原","lat":37.742276,"lng":140.97569,"zip":"9792512"},{"town":"柚木","koaza":"葉山前","lat":37.742373,"lng":140.982849,"zip":"9792512"},{"town":"柚木","koaza":"谷地田亀岩","lat":37.73765,"lng":140.99033,"zip":"9792512"},{"town":"蒲庭","koaza":"滝ノ沢","lat":37.741229,"lng":141.001078,"zip":"9792511"},{"town":"蒲庭","koaza":"堂ケ迫","lat":37.732809,"lng":141.00079,"zip":"9792511"},{"town":"蒲庭","koaza":"坂下","lat":37.736266,"lng":141.008826,"zip":"9792511"},{"town":"立谷","koaza":"北山","lat":37.772055,"lng":140.934153,"zip":"9792531"},{"town":"立谷","koaza":"高根沢","lat":37.768731,"lng":140.93386,"zip":"9792531"},{"town":"立谷","koaza":"前田中","lat":37.764862,"lng":140.928695,"zip":"9792531"},{"town":"立谷","koaza":"八幡内","lat":37.764239,"lng":140.929624,"zip":"9792531"},{"town":"立谷","koaza":"杉下","lat":37.765388,"lng":140.931118,"zip":"9792531"},{"town":"立谷","koaza":"立谷","lat":37.762807,"lng":140.941804,"zip":"9792531"},{"town":"立谷","koaza":"沢目","lat":37.76255,"lng":140.943958,"zip":"9792531"},{"town":"日下石","koaza":"川中子","lat":37.768815,"lng":140.956472,"zip":"9792522"},{"town":"蒲庭","koaza":"軽井沢","lat":37.742143,"lng":141.006887,"zip":"9792511"},{"town":"初野","koaza":"愛宕森","lat":37.812936,"lng":140.88047,"zip":"9760051"},{"town":"黒木","koaza":"諏訪前","lat":37.817093,"lng":140.892394,"zip":"9760052"},{"town":"小野","koaza":"原田","lat":37.801103,"lng":140.897495,"zip":"9760053"},{"town":"粟津","koaza":"三斗蒔","lat":37.787801,"lng":140.890262,"zip":"9760152"},{"town":"粟津","koaza":"寺前","lat":37.789774,"lng":140.893387,"zip":"9760152"},{"town":"坪田","koaza":"北向","lat":37.777496,"lng":140.913197,"zip":"9792533"},{"town":"坪田","koaza":"上原田","lat":37.762886,"lng":140.90215,"zip":"9792533"},{"town":"富沢","koaza":"稲荷前","lat":37.753329,"lng":140.91538,"zip":"9792532"},{"town":"山上","koaza":"尖森","lat":37.775554,"lng":140.870902,"zip":"9760151"},{"town":"山上","koaza":"尺貫","lat":37.775894,"lng":140.869687,"zip":"9760151"},{"town":"山上","koaza":"兎巣沢","lat":37.781545,"lng":140.870526,"zip":"9760151"},{"town":"山上","koaza":"須萱","lat":37.780235,"lng":140.882968,"zip":"9760151"},{"town":"山上","koaza":"山田","lat":37.780679,"lng":140.887125,"zip":"9760151"},{"town":"柚木","koaza":"前日向堤外","lat":37.734577,"lng":140.988799,"zip":"9792512"},{"town":"蒲庭","koaza":"船田","lat":37.729142,"lng":141.009229,"zip":"9792511"},{"town":"柏崎","koaza":"北家野","lat":37.778945,"lng":140.978014,"zip":"9760034"},{"town":"百槻","koaza":"八竜","lat":37.793111,"lng":140.940803,"zip":"9760031"},{"town":"馬場野","koaza":"山田","lat":37.781038,"lng":140.933821,"zip":"9760036"},{"town":"石上","koaza":"城之内","lat":37.825106,"lng":140.916534,"zip":"9760006"},{"town":"新沼","koaza":"沼田","lat":37.820364,"lng":140.924121,"zip":"9760011"},{"town":"原釜","koaza":"沼尻","lat":37.829702,"lng":140.957647,"zip":"9760021"},{"town":"今田","koaza":"石田","lat":37.776303,"lng":140.901123,"zip":"9792541"},{"town":"立谷","koaza":"鐘撞田","lat":37.763968,"lng":140.932097,"zip":"9792531"},{"town":"蒲庭","koaza":"立切北","lat":37.724878,"lng":141.002872,"zip":"9792511"},{"town":"蒲庭","koaza":"孫目","lat":37.725169,"lng":141.008248,"zip":"9792511"},{"town":"石上","koaza":"堂下","lat":37.821619,"lng":140.920659,"zip":"9760006"},{"town":"石上","koaza":"作田","lat":37.82171,"lng":140.922624,"zip":"9760006"},{"town":"柚木","koaza":"立前","lat":37.741438,"lng":140.969802,"zip":"9792512"},{"town":"柚木","koaza":"北桑原","lat":37.744117,"lng":140.975282,"zip":"9792512"}]