[{"town":"駒ケ嶺","koaza":"","lat":37.853777,"lng":140.891265,"zip":"9792611"},{"town":"杉目","koaza":"","lat":37.864392,"lng":140.884846,"zip":"9792706"},{"town":"谷地小屋","koaza":"","lat":37.874529,"lng":140.889726,"zip":"9792702"},{"town":"大字真弓","koaza":"","lat":37.880299,"lng":140.884921,"zip":"9792700"},{"town":"大字福田","koaza":"","lat":37.891308,"lng":140.884085,"zip":"9792700"},{"town":"今泉","koaza":"","lat":37.854522,"lng":140.933268,"zip":"9792705"},{"town":"大戸浜","koaza":"","lat":37.863773,"lng":140.934323,"zip":"9792704"},{"town":"小川","koaza":"","lat":37.867269,"lng":140.916256,"zip":"9792703"},{"town":"大字埓木崎","koaza":"","lat":37.890339,"lng":140.921611,"zip":"9792700"},{"town":"谷地小屋","koaza":"南狼沢","lat":37.871092,"lng":140.878084,"zip":"9792702"},{"town":"杉目","koaza":"飯樋","lat":37.857821,"lng":140.876869,"zip":"9792706"},{"town":"駒ケ嶺","koaza":"大沢北","lat":37.853498,"lng":140.875743,"zip":"9792611"},{"town":"大字福田","koaza":"瀬上","lat":37.893797,"lng":140.875356,"zip":"9792700"},{"town":"大字真弓","koaza":"原畑","lat":37.879932,"lng":140.878425,"zip":"9792700"},{"town":"駒ケ嶺","koaza":"赤柴","lat":37.855102,"lng":140.882816,"zip":"9792611"},{"town":"杉目","koaza":"大槻","lat":37.861051,"lng":140.880276,"zip":"9792706"},{"town":"大字福田","koaza":"新田","lat":37.89606,"lng":140.876013,"zip":"9792700"},{"town":"谷地小屋","koaza":"北狼沢","lat":37.875765,"lng":140.883776,"zip":"9792702"},{"town":"大字福田","koaza":"山神","lat":37.892712,"lng":140.877831,"zip":"9792700"},{"town":"大字福田","koaza":"鉄炮町","lat":37.891809,"lng":140.882325,"zip":"9792700"},{"town":"大字福田","koaza":"舟輪沢","lat":37.890845,"lng":140.877446,"zip":"9792700"},{"town":"大字福田","koaza":"新堀","lat":37.891583,"lng":140.879214,"zip":"9792700"},{"town":"駒ケ嶺","koaza":"山屋敷前","lat":37.848818,"lng":140.879486,"zip":"9792611"},{"town":"駒ケ嶺","koaza":"山神","lat":37.851109,"lng":140.880886,"zip":"9792611"},{"town":"駒ケ嶺","koaza":"落合","lat":37.848221,"lng":140.882896,"zip":"9792611"},{"town":"大字福田","koaza":"大町","lat":37.88929,"lng":140.886481,"zip":"9792700"},{"town":"大字福田","koaza":"北原","lat":37.899919,"lng":140.896363,"zip":"9792700"},{"town":"大字真弓","koaza":"水神","lat":37.880779,"lng":140.885704,"zip":"9792700"},{"town":"杉目","koaza":"鈴山","lat":37.863559,"lng":140.885114,"zip":"9792706"},{"town":"谷地小屋","koaza":"五郎四郎","lat":37.870177,"lng":140.888338,"zip":"9792702"},{"town":"杉目","koaza":"五郎四郎","lat":37.866763,"lng":140.889084,"zip":"9792706"},{"town":"谷地小屋","koaza":"川原","lat":37.878007,"lng":140.885478,"zip":"9792702"},{"town":"杉目","koaza":"金井","lat":37.862622,"lng":140.885639,"zip":"9792706"},{"town":"駒ケ嶺","koaza":"塔場","lat":37.844161,"lng":140.890917,"zip":"9792611"},{"town":"大字福田","koaza":"別所","lat":37.883408,"lng":140.886267,"zip":"9792700"},{"town":"杉目","koaza":"中丁","lat":37.865125,"lng":140.893448,"zip":"9792706"},{"town":"大字真弓","koaza":"山際","lat":37.879231,"lng":140.897618,"zip":"9792700"},{"town":"谷地小屋","koaza":"潤崎","lat":37.877619,"lng":140.90044,"zip":"9792702"},{"town":"大字福田","koaza":"小鯨","lat":37.892906,"lng":140.889821,"zip":"9792700"},{"town":"大字真弓","koaza":"小屋前","lat":37.883172,"lng":140.889018,"zip":"9792700"},{"town":"駒ケ嶺","koaza":"西雨溜","lat":37.845685,"lng":140.888349,"zip":"9792611"},{"town":"大字福田","koaza":"明地","lat":37.890409,"lng":140.888741,"zip":"9792700"},{"town":"杉目","koaza":"日向","lat":37.859447,"lng":140.891451,"zip":"9792706"},{"town":"大字福田","koaza":"広畑","lat":37.889367,"lng":140.891075,"zip":"9792700"},{"town":"駒ケ嶺","koaza":"東雨溜","lat":37.847226,"lng":140.892358,"zip":"9792611"},{"town":"杉目","koaza":"清水","lat":37.869313,"lng":140.899597,"zip":"9792706"},{"town":"大字真弓","koaza":"閏崎","lat":37.879673,"lng":140.895795,"zip":"9792700"},{"town":"大字福田","koaza":"山ノ上","lat":37.892296,"lng":140.893118,"zip":"9792700"},{"town":"杉目","koaza":"雁小屋","lat":37.860465,"lng":140.898331,"zip":"9792706"},{"town":"杉目","koaza":"田中","lat":37.86294,"lng":140.893085,"zip":"9792706"},{"town":"大字真弓","koaza":"薬師","lat":37.883802,"lng":140.895274,"zip":"9792700"},{"town":"大字福田","koaza":"薬師田","lat":37.896201,"lng":140.892364,"zip":"9792700"},{"town":"大字福田","koaza":"中里","lat":37.888573,"lng":140.894482,"zip":"9792700"},{"town":"駒ケ嶺","koaza":"原田","lat":37.843091,"lng":140.897849,"zip":"9792611"},{"town":"杉目","koaza":"畑中","lat":37.867987,"lng":140.898621,"zip":"9792706"},{"town":"大字福田","koaza":"辻","lat":37.890373,"lng":140.891425,"zip":"9792700"},{"town":"谷地小屋","koaza":"上ノ台","lat":37.87242,"lng":140.900262,"zip":"9792702"},{"town":"大字真弓","koaza":"欠下","lat":37.885633,"lng":140.894948,"zip":"9792700"},{"town":"大字福田","koaza":"清水","lat":37.889448,"lng":140.897691,"zip":"9792700"},{"town":"谷地小屋","koaza":"原","lat":37.874844,"lng":140.901783,"zip":"9792702"},{"town":"大字福田","koaza":"樋ノ口","lat":37.891191,"lng":140.894829,"zip":"9792700"},{"town":"駒ケ嶺","koaza":"原中","lat":37.84431,"lng":140.897314,"zip":"9792611"},{"town":"駒ケ嶺","koaza":"大作","lat":37.855528,"lng":140.898544,"zip":"9792611"},{"town":"駒ケ嶺","koaza":"木戸内南","lat":37.847136,"lng":140.896842,"zip":"9792611"},{"town":"大字福田","koaza":"十三奉行","lat":37.896801,"lng":140.899499,"zip":"9792700"},{"town":"大字福田","koaza":"稲川","lat":37.894616,"lng":140.902547,"zip":"9792700"},{"town":"大字真弓","koaza":"山崎","lat":37.886899,"lng":140.89967,"zip":"9792700"},{"town":"谷地小屋","koaza":"木舟","lat":37.876544,"lng":140.903129,"zip":"9792702"},{"town":"駒ケ嶺","koaza":"原","lat":37.857565,"lng":140.91134,"zip":"9792611"},{"town":"谷地小屋","koaza":"舘前二","lat":37.882164,"lng":140.904893,"zip":"9792702"},{"town":"杉目","koaza":"八郎","lat":37.8666,"lng":140.901569,"zip":"9792706"},{"town":"駒ケ嶺","koaza":"鍋内南","lat":37.844263,"lng":140.902271,"zip":"9792611"},{"town":"駒ケ嶺","koaza":"原口","lat":37.842281,"lng":140.902301,"zip":"9792611"},{"town":"大字福田","koaza":"西山崎","lat":37.888549,"lng":140.899529,"zip":"9792700"},{"town":"小川","koaza":"長清水","lat":37.862206,"lng":140.908845,"zip":"9792703"},{"town":"大字埓木崎","koaza":"木崎","lat":37.894844,"lng":140.90553,"zip":"9792700"},{"town":"大字福田","koaza":"柳原","lat":37.893851,"lng":140.904409,"zip":"9792700"},{"town":"小川","koaza":"原岸","lat":37.864061,"lng":140.909756,"zip":"9792703"},{"town":"谷地小屋","koaza":"北追二","lat":37.877571,"lng":140.907569,"zip":"9792702"},{"town":"杉目","koaza":"背中振","lat":37.869144,"lng":140.908163,"zip":"9792706"},{"town":"大字福田","koaza":"舘","lat":37.887374,"lng":140.912372,"zip":"9792700"},{"town":"大字埓木崎","koaza":"熊野","lat":37.883908,"lng":140.911659,"zip":"9792700"},{"town":"杉目","koaza":"雀塚","lat":37.870518,"lng":140.911095,"zip":"9792706"},{"town":"小川","koaza":"仏方","lat":37.865512,"lng":140.910871,"zip":"9792703"},{"town":"谷地小屋","koaza":"駒込","lat":37.882054,"lng":140.911144,"zip":"9792702"},{"town":"小川","koaza":"貝塚西","lat":37.864653,"lng":140.913581,"zip":"9792703"},{"town":"小川","koaza":"二羽渡","lat":37.869047,"lng":140.91267,"zip":"9792703"},{"town":"谷地小屋","koaza":"背中振","lat":37.872456,"lng":140.910579,"zip":"9792702"},{"town":"谷地小屋","koaza":"愛宕","lat":37.87401,"lng":140.912982,"zip":"9792702"},{"town":"谷地小屋","koaza":"新地","lat":37.874644,"lng":140.914093,"zip":"9792702"},{"town":"大字福田","koaza":"車田","lat":37.888053,"lng":140.913408,"zip":"9792700"},{"town":"小川","koaza":"山海道","lat":37.866071,"lng":140.915744,"zip":"9792703"},{"town":"駒ケ嶺","koaza":"十二所南","lat":37.839122,"lng":140.915198,"zip":"9792611"},{"town":"小川","koaza":"北原","lat":37.872038,"lng":140.917964,"zip":"9792703"},{"town":"駒ケ嶺","koaza":"新町前","lat":37.844348,"lng":140.915782,"zip":"9792611"},{"town":"駒ケ嶺","koaza":"西久保","lat":37.848731,"lng":140.913357,"zip":"9792611"},{"town":"駒ケ嶺","koaza":"上ノ町","lat":37.847045,"lng":140.915038,"zip":"9792611"},{"town":"駒ケ嶺","koaza":"嘉門","lat":37.848159,"lng":140.914311,"zip":"9792611"},{"town":"大字埓木崎","koaza":"作田","lat":37.885819,"lng":140.921379,"zip":"9792700"},{"town":"駒ケ嶺","koaza":"紙衣沢","lat":37.85937,"lng":140.919226,"zip":"9792611"},{"town":"小川","koaza":"榎下","lat":37.868103,"lng":140.916422,"zip":"9792703"},{"town":"駒ケ嶺","koaza":"上渋民","lat":37.837695,"lng":140.917258,"zip":"9792611"},{"town":"駒ケ嶺","koaza":"鍋田","lat":37.845795,"lng":140.917234,"zip":"9792611"},{"town":"駒ケ嶺","koaza":"清水","lat":37.851013,"lng":140.916839,"zip":"9792611"},{"town":"小川","koaza":"ソリ畑","lat":37.867126,"lng":140.917346,"zip":"9792703"},{"town":"駒ケ嶺","koaza":"古海道","lat":37.840214,"lng":140.917743,"zip":"9792611"},{"town":"駒ケ嶺","koaza":"新町","lat":37.846543,"lng":140.917809,"zip":"9792611"},{"town":"駒ケ嶺","koaza":"裏沢南","lat":37.855158,"lng":140.917976,"zip":"9792611"},{"town":"小川","koaza":"向山","lat":37.873506,"lng":140.91986,"zip":"9792703"},{"town":"谷地小屋","koaza":"萩崎","lat":37.874889,"lng":140.92006,"zip":"9792702"},{"town":"駒ケ嶺","koaza":"荒屋敷","lat":37.853046,"lng":140.919571,"zip":"9792611"},{"town":"小川","koaza":"清水小路","lat":37.87028,"lng":140.919703,"zip":"9792703"},{"town":"谷地小屋","koaza":"高田","lat":37.87722,"lng":140.916389,"zip":"9792702"},{"town":"谷地小屋","koaza":"樋掛田","lat":37.876233,"lng":140.921017,"zip":"9792702"},{"town":"小川","koaza":"海道下","lat":37.867773,"lng":140.918539,"zip":"9792703"},{"town":"駒ケ嶺","koaza":"渋民中","lat":37.838899,"lng":140.919137,"zip":"9792611"},{"town":"駒ケ嶺","koaza":"ソリ田","lat":37.84285,"lng":140.918777,"zip":"9792611"},{"town":"駒ケ嶺","koaza":"狐作","lat":37.837259,"lng":140.919133,"zip":"9792611"},{"town":"駒ケ嶺","koaza":"富谷地田","lat":37.859517,"lng":140.920695,"zip":"9792611"},{"town":"駒ケ嶺","koaza":"狐塚","lat":37.862167,"lng":140.919847,"zip":"9792611"},{"town":"駒ケ嶺","koaza":"町","lat":37.847617,"lng":140.91782,"zip":"9792611"},{"town":"駒ケ嶺","koaza":"東善寺下","lat":37.850151,"lng":140.919576,"zip":"9792611"},{"town":"小川","koaza":"坂越","lat":37.86495,"lng":140.91998,"zip":"9792703"},{"town":"谷地小屋","koaza":"古屋敷","lat":37.880319,"lng":140.922205,"zip":"9792702"},{"town":"駒ケ嶺","koaza":"洞山","lat":37.858665,"lng":140.92178,"zip":"9792611"},{"town":"駒ケ嶺","koaza":"新林","lat":37.851337,"lng":140.923264,"zip":"9792611"},{"town":"駒ケ嶺","koaza":"ソリ畑","lat":37.863497,"lng":140.921589,"zip":"9792611"},{"town":"谷地小屋","koaza":"四斗蒔","lat":37.878675,"lng":140.920901,"zip":"9792702"},{"town":"谷地小屋","koaza":"中島","lat":37.877918,"lng":140.922571,"zip":"9792702"},{"town":"駒ケ嶺","koaza":"相良","lat":37.849426,"lng":140.92133,"zip":"9792611"},{"town":"小川","koaza":"天竺原","lat":37.870098,"lng":140.925128,"zip":"9792703"},{"town":"駒ケ嶺","koaza":"金子坂","lat":37.848686,"lng":140.922872,"zip":"9792611"},{"town":"駒ケ嶺","koaza":"北沢","lat":37.867469,"lng":140.924482,"zip":"9792611"},{"town":"駒ケ嶺","koaza":"富穴前","lat":37.86251,"lng":140.92338,"zip":"9792611"},{"town":"駒ケ嶺","koaza":"高見原","lat":37.838409,"lng":140.922248,"zip":"9792611"},{"town":"駒ケ嶺","koaza":"田中屋敷","lat":37.840412,"lng":140.92251,"zip":"9792611"},{"town":"小川","koaza":"長谷地","lat":37.870557,"lng":140.923654,"zip":"9792703"},{"town":"駒ケ嶺","koaza":"東ケ作","lat":37.848799,"lng":140.923639,"zip":"9792611"},{"town":"駒ケ嶺","koaza":"前田","lat":37.866194,"lng":140.923658,"zip":"9792611"},{"town":"駒ケ嶺","koaza":"向田","lat":37.863388,"lng":140.928074,"zip":"9792611"},{"town":"小川","koaza":"八幡前","lat":37.876311,"lng":140.925544,"zip":"9792703"},{"town":"駒ケ嶺","koaza":"北東ケ作","lat":37.849463,"lng":140.924415,"zip":"9792611"},{"town":"駒ケ嶺","koaza":"藤崎前","lat":37.843531,"lng":140.926129,"zip":"9792611"},{"town":"駒ケ嶺","koaza":"深町","lat":37.841828,"lng":140.924745,"zip":"9792611"},{"town":"駒ケ嶺","koaza":"遠西","lat":37.847716,"lng":140.929938,"zip":"9792611"},{"town":"駒ケ嶺","koaza":"大壇","lat":37.846322,"lng":140.927324,"zip":"9792611"},{"town":"駒ケ嶺","koaza":"屋敷前","lat":37.844341,"lng":140.926386,"zip":"9792611"},{"town":"駒ケ嶺","koaza":"諏訪","lat":37.845169,"lng":140.926727,"zip":"9792611"},{"town":"小川","koaza":"原添","lat":37.872214,"lng":140.926852,"zip":"9792703"},{"town":"駒ケ嶺","koaza":"藤見","lat":37.844299,"lng":140.928656,"zip":"9792611"},{"town":"駒ケ嶺","koaza":"成沢","lat":37.870242,"lng":140.927222,"zip":"9792611"},{"town":"谷地小屋","koaza":"町裏","lat":37.875466,"lng":140.930495,"zip":"9792702"},{"town":"小川","koaza":"田中","lat":37.874274,"lng":140.929519,"zip":"9792703"},{"town":"大戸浜","koaza":"蒲庭","lat":37.863668,"lng":140.929298,"zip":"9792704"},{"town":"今泉","koaza":"蒲庭東","lat":37.858279,"lng":140.929901,"zip":"9792705"},{"town":"今泉","koaza":"大堤","lat":37.85207,"lng":140.930333,"zip":"9792705"},{"town":"駒ケ嶺","koaza":"東清水","lat":37.846147,"lng":140.932106,"zip":"9792611"},{"town":"大戸浜","koaza":"牛川南","lat":37.869325,"lng":140.93071,"zip":"9792704"},{"town":"大戸浜","koaza":"牛川","lat":37.871383,"lng":140.931173,"zip":"9792704"},{"town":"大字埓木崎","koaza":"埓浜","lat":37.887352,"lng":140.930989,"zip":"9792700"},{"town":"今泉","koaza":"鞘前","lat":37.853538,"lng":140.931274,"zip":"9792705"},{"town":"大戸浜","koaza":"八斗蒔東","lat":37.864192,"lng":140.933631,"zip":"9792704"},{"town":"今泉","koaza":"宮田","lat":37.854983,"lng":140.931678,"zip":"9792705"},{"town":"駒ケ嶺","koaza":"山中","lat":37.846468,"lng":140.932896,"zip":"9792611"},{"town":"大戸浜","koaza":"宮田","lat":37.869469,"lng":140.932869,"zip":"9792704"},{"town":"今泉","koaza":"西田","lat":37.853417,"lng":140.933825,"zip":"9792705"},{"town":"大戸浜","koaza":"浜北","lat":37.871769,"lng":140.933381,"zip":"9792704"},{"town":"谷地小屋","koaza":"釣師","lat":37.875241,"lng":140.93353,"zip":"9792702"},{"town":"大戸浜","koaza":"前田下","lat":37.870629,"lng":140.935427,"zip":"9792704"},{"town":"大戸浜","koaza":"前田西","lat":37.868475,"lng":140.936984,"zip":"9792704"},{"town":"大戸浜","koaza":"清水","lat":37.85809,"lng":140.937952,"zip":"9792704"},{"town":"今泉","koaza":"鹿野","lat":37.854096,"lng":140.94052,"zip":"9792705"},{"town":"大戸浜","koaza":"木戸脇","lat":37.854967,"lng":140.940918,"zip":"9792704"},{"town":"大戸浜","koaza":"南中磯塩入","lat":37.854986,"lng":140.944055,"zip":"9792704"},{"town":"駒ケ嶺","koaza":"今神","lat":37.846263,"lng":140.950998,"zip":"9792611"},{"town":"今泉","koaza":"浜畑","lat":37.852698,"lng":140.94379,"zip":"9792705"},{"town":"駒ケ嶺","koaza":"鴻ノ巣","lat":37.851409,"lng":140.879207,"zip":"9792611"},{"town":"駒ケ嶺","koaza":"高場","lat":37.84987,"lng":140.888663,"zip":"9792611"},{"town":"駒ケ嶺","koaza":"桜下","lat":37.85233,"lng":140.888407,"zip":"9792611"},{"town":"駒ケ嶺","koaza":"島屋敷前","lat":37.848295,"lng":140.888289,"zip":"9792611"},{"town":"駒ケ嶺","koaza":"窪","lat":37.847621,"lng":140.894899,"zip":"9792611"},{"town":"駒ケ嶺","koaza":"田丁場","lat":37.843774,"lng":140.901034,"zip":"9792611"},{"town":"駒ケ嶺","koaza":"境付","lat":37.841657,"lng":140.909276,"zip":"9792611"},{"town":"駒ケ嶺","koaza":"白薄下","lat":37.84259,"lng":140.909276,"zip":"9792611"},{"town":"駒ケ嶺","koaza":"古海道西","lat":37.840708,"lng":140.916675,"zip":"9792611"},{"town":"駒ケ嶺","koaza":"十二所","lat":37.840722,"lng":140.915047,"zip":"9792611"},{"town":"駒ケ嶺","koaza":"渋民上","lat":37.837878,"lng":140.920598,"zip":"9792611"},{"town":"駒ケ嶺","koaza":"中丸東","lat":37.838211,"lng":140.926002,"zip":"9792611"},{"town":"駒ケ嶺","koaza":"日神","lat":37.842943,"lng":140.929881,"zip":"9792611"},{"town":"駒ケ嶺","koaza":"穴谷","lat":37.843825,"lng":140.928951,"zip":"9792611"},{"town":"駒ケ嶺","koaza":"南川添","lat":37.84324,"lng":140.92781,"zip":"9792611"},{"town":"駒ケ嶺","koaza":"南スル前","lat":37.842336,"lng":140.929372,"zip":"9792611"},{"town":"駒ケ嶺","koaza":"鹿子田","lat":37.846332,"lng":140.919486,"zip":"9792611"},{"town":"駒ケ嶺","koaza":"山屋敷","lat":37.846748,"lng":140.8658,"zip":"9792611"},{"town":"大字福田","koaza":"一ツ滝","lat":37.890858,"lng":140.87277,"zip":"9792700"},{"town":"大字福田","koaza":"中原","lat":37.890657,"lng":140.87401,"zip":"9792700"},{"town":"大字福田","koaza":"螢田","lat":37.890291,"lng":140.881704,"zip":"9792700"},{"town":"大字福田","koaza":"小山田","lat":37.888625,"lng":140.883583,"zip":"9792700"},{"town":"大字福田","koaza":"山居","lat":37.888302,"lng":140.877659,"zip":"9792700"},{"town":"大字福田","koaza":"大山田","lat":37.886146,"lng":140.885178,"zip":"9792700"},{"town":"大字福田","koaza":"沢入","lat":37.883145,"lng":140.880644,"zip":"9792700"},{"town":"大字福田","koaza":"西大窪","lat":37.886625,"lng":140.893657,"zip":"9792700"},{"town":"大字福田","koaza":"山崎","lat":37.889016,"lng":140.902852,"zip":"9792700"},{"town":"大字福田","koaza":"渋田","lat":37.888114,"lng":140.906505,"zip":"9792700"},{"town":"小川","koaza":"中畑","lat":37.869882,"lng":140.917306,"zip":"9792703"},{"town":"小川","koaza":"宮前","lat":37.869485,"lng":140.915923,"zip":"9792703"},{"town":"小川","koaza":"川向","lat":37.864402,"lng":140.918351,"zip":"9792703"},{"town":"駒ケ嶺","koaza":"相善裏","lat":37.853351,"lng":140.898454,"zip":"9792611"},{"town":"駒ケ嶺","koaza":"相善東","lat":37.85756,"lng":140.904201,"zip":"9792611"},{"town":"駒ケ嶺","koaza":"雉子喰","lat":37.849357,"lng":140.906446,"zip":"9792611"},{"town":"駒ケ嶺","koaza":"中城","lat":37.845744,"lng":140.884005,"zip":"9792611"},{"town":"駒ケ嶺","koaza":"猪コロバシ","lat":37.844827,"lng":140.886486,"zip":"9792611"},{"town":"駒ケ嶺","koaza":"雨溜","lat":37.846845,"lng":140.889223,"zip":"9792611"},{"town":"駒ケ嶺","koaza":"市場","lat":37.850685,"lng":140.894431,"zip":"9792611"},{"town":"駒ケ嶺","koaza":"赤柴前","lat":37.85408,"lng":140.879775,"zip":"9792611"},{"town":"駒ケ嶺","koaza":"大手左","lat":37.849132,"lng":140.916929,"zip":"9792611"},{"town":"駒ケ嶺","koaza":"北向屋敷","lat":37.852102,"lng":140.926205,"zip":"9792611"},{"town":"大戸浜","koaza":"吾安谷地","lat":37.859951,"lng":140.940968,"zip":"9792704"},{"town":"大戸浜","koaza":"北中磯塩入","lat":37.861568,"lng":140.93903,"zip":"9792704"},{"town":"大戸浜","koaza":"小沢北","lat":37.865939,"lng":140.936907,"zip":"9792704"},{"town":"大戸浜","koaza":"北迫塩入","lat":37.863994,"lng":140.938012,"zip":"9792704"},{"town":"大戸浜","koaza":"谷地前","lat":37.867161,"lng":140.932248,"zip":"9792704"},{"town":"大戸浜","koaza":"踏込畑","lat":37.867316,"lng":140.935613,"zip":"9792704"},{"town":"大戸浜","koaza":"浜南","lat":37.87143,"lng":140.935178,"zip":"9792704"},{"town":"谷地小屋","koaza":"北畑","lat":37.878693,"lng":140.93171,"zip":"9792702"},{"town":"大字埓木崎","koaza":"磯山","lat":37.894698,"lng":140.928536,"zip":"9792700"},{"town":"谷地小屋","koaza":"舛形","lat":37.881158,"lng":140.925837,"zip":"9792702"},{"town":"谷地小屋","koaza":"浜畑","lat":37.875415,"lng":140.934921,"zip":"9792702"},{"town":"大戸浜","koaza":"前田上","lat":37.868966,"lng":140.93793,"zip":"9792704"},{"town":"谷地小屋","koaza":"樋ノ口","lat":37.878118,"lng":140.915949,"zip":"9792702"},{"town":"今泉","koaza":"附田山","lat":37.855504,"lng":140.933836,"zip":"9792705"},{"town":"今泉","koaza":"附田","lat":37.854248,"lng":140.936009,"zip":"9792705"},{"town":"大字福田","koaza":"沢口","lat":37.885441,"lng":140.872985,"zip":"9792700"},{"town":"大字真弓","koaza":"羽山","lat":37.884889,"lng":140.891512,"zip":"9792700"},{"town":"大字福田","koaza":"城ノ内","lat":37.887355,"lng":140.889698,"zip":"9792700"},{"town":"大字福田","koaza":"諏訪","lat":37.887424,"lng":140.893202,"zip":"9792700"},{"town":"小川","koaza":"鍛治前","lat":37.868949,"lng":140.918818,"zip":"9792703"},{"town":"大字埓木崎","koaza":"西田","lat":37.886895,"lng":140.928739,"zip":"9792700"},{"town":"杉目","koaza":"曽利田","lat":37.861396,"lng":140.889451,"zip":"9792706"},{"town":"谷地小屋","koaza":"谷地田","lat":37.882247,"lng":140.922082,"zip":"9792702"},{"town":"大字埓木崎","koaza":"台前","lat":37.883631,"lng":140.921626,"zip":"9792700"}]