[{"town":"関沢","koaza":"","lat":37.67633,"lng":140.771564,"zip":"9601804"},{"town":"飯樋","koaza":"","lat":37.651122,"lng":140.703856,"zip":"9601721"},{"town":"小宮","koaza":"","lat":37.644808,"lng":140.782393,"zip":"9601811"},{"town":"長泥","koaza":"","lat":37.612118,"lng":140.750915,"zip":"9601723"},{"town":"沼平","koaza":"","lat":37.658772,"lng":140.80271,"zip":"9601600"},{"town":"伊丹沢","koaza":"","lat":37.682147,"lng":140.731826,"zip":"9601803"},{"town":"草野","koaza":"","lat":37.710292,"lng":140.762594,"zip":"9601801"},{"town":"佐須","koaza":"","lat":37.736481,"lng":140.721146,"zip":"9601815"},{"town":"大倉","koaza":"","lat":37.733692,"lng":140.800008,"zip":"9601814"},{"town":"蕨平","koaza":"","lat":37.617791,"lng":140.800655,"zip":"9601724"},{"town":"比曽","koaza":"","lat":37.620122,"lng":140.700232,"zip":"9601722"},{"town":"芦原","koaza":"","lat":37.683865,"lng":140.779441,"zip":"9601812"},{"town":"八木沢","koaza":"","lat":37.691515,"lng":140.808522,"zip":"9601813"},{"town":"松塚","koaza":"","lat":37.686134,"lng":140.720025,"zip":"9601631"},{"town":"関根","koaza":"","lat":37.689145,"lng":140.710562,"zip":"9601632"},{"town":"須萱","koaza":"","lat":37.691833,"lng":140.656035,"zip":"9601635"},{"town":"臼石","koaza":"","lat":37.692897,"lng":140.696207,"zip":"9601633"},{"town":"二枚橋","koaza":"","lat":37.690903,"lng":140.676107,"zip":"9601634"},{"town":"深谷","koaza":"","lat":37.706927,"lng":140.71863,"zip":"9601802"},{"town":"前田","koaza":"","lat":37.720258,"lng":140.696906,"zip":"9601636"}]