[{"town":"大字太田輪","koaza":"","lat":37.087919,"lng":140.398386,"zip":"9636200"},{"town":"大字小貫","koaza":"","lat":37.079363,"lng":140.384662,"zip":"9636200"},{"town":"大字滝輪","koaza":"","lat":37.09175,"lng":140.413999,"zip":"9636200"},{"town":"大字浅川","koaza":"","lat":37.083091,"lng":140.41672,"zip":"9636200"},{"town":"大字畑田","koaza":"","lat":37.082193,"lng":140.432836,"zip":"9636200"},{"town":"大字里白石","koaza":"","lat":37.10037,"lng":140.429465,"zip":"9636200"},{"town":"大字山白石","koaza":"","lat":37.094309,"lng":140.450091,"zip":"9636200"},{"town":"大字松野入","koaza":"","lat":37.060728,"lng":140.435652,"zip":"9636200"},{"town":"大字中根","koaza":"","lat":37.062653,"lng":140.423054,"zip":"9636200"},{"town":"大字大草","koaza":"","lat":37.03986,"lng":140.438808,"zip":"9636200"},{"town":"大字根岸","koaza":"","lat":37.063098,"lng":140.419709,"zip":"9636200"},{"town":"大字中里","koaza":"","lat":37.064572,"lng":140.428563,"zip":"9636200"},{"town":"大字袖山","koaza":"","lat":37.063056,"lng":140.411288,"zip":"9636200"},{"town":"大字東大畑","koaza":"","lat":37.075392,"lng":140.423235,"zip":"9636200"},{"town":"大字簑輪","koaza":"","lat":37.070865,"lng":140.407513,"zip":"9636200"},{"town":"大字染","koaza":"","lat":37.100526,"lng":140.406778,"zip":"9636200"},{"town":"大字福貴作","koaza":"","lat":37.11426,"lng":140.422893,"zip":"9636200"},{"town":"大字小貫","koaza":"中ノ内","lat":37.081591,"lng":140.387998,"zip":"9636200"},{"town":"大字小貫","koaza":"宿ノ内","lat":37.076493,"lng":140.385579,"zip":"9636200"},{"town":"大字小貫","koaza":"社田","lat":37.078345,"lng":140.389693,"zip":"9636200"},{"town":"大字小貫","koaza":"堂平","lat":37.084795,"lng":140.387154,"zip":"9636200"},{"town":"大字小貫","koaza":"久保","lat":37.085429,"lng":140.390382,"zip":"9636200"},{"town":"大字太田輪","koaza":"羽黒前","lat":37.090112,"lng":140.394121,"zip":"9636200"},{"town":"大字染","koaza":"追越","lat":37.095815,"lng":140.400099,"zip":"9636200"},{"town":"大字太田輪","koaza":"二渡","lat":37.090698,"lng":140.398846,"zip":"9636200"},{"town":"大字太田輪","koaza":"橋場","lat":37.090401,"lng":140.399382,"zip":"9636200"},{"town":"大字染","koaza":"中内","lat":37.098528,"lng":140.405912,"zip":"9636200"},{"town":"大字袖山","koaza":"細町","lat":37.064077,"lng":140.405753,"zip":"9636200"},{"town":"大字簑輪","koaza":"作田","lat":37.06907,"lng":140.404006,"zip":"9636200"},{"town":"大字簑輪","koaza":"蟹沢","lat":37.066755,"lng":140.404323,"zip":"9636200"},{"town":"大字太田輪","koaza":"台ノ上","lat":37.086022,"lng":140.405031,"zip":"9636200"},{"town":"大字簑輪","koaza":"池下","lat":37.069609,"lng":140.405773,"zip":"9636200"},{"town":"大字浅川","koaza":"背戸谷地","lat":37.081315,"lng":140.410346,"zip":"9636200"},{"town":"大字染","koaza":"地獄谷地","lat":37.103147,"lng":140.41071,"zip":"9636200"},{"town":"大字袖山","koaza":"長峰","lat":37.061751,"lng":140.410044,"zip":"9636200"},{"town":"大字簑輪","koaza":"山敷田","lat":37.072518,"lng":140.40807,"zip":"9636200"},{"town":"大字簑輪","koaza":"大代","lat":37.076774,"lng":140.405962,"zip":"9636200"},{"town":"大字簑輪","koaza":"坂ノ前","lat":37.071101,"lng":140.410092,"zip":"9636200"},{"town":"大字袖山","koaza":"中ノ町","lat":37.068936,"lng":140.411203,"zip":"9636200"},{"town":"大字浅川","koaza":"大明塚","lat":37.076756,"lng":140.411499,"zip":"9636200"},{"town":"大字滝輪","koaza":"滝ノ台","lat":37.09434,"lng":140.411945,"zip":"9636200"},{"town":"大字浅川","koaza":"古語宮","lat":37.085522,"lng":140.41479,"zip":"9636200"},{"town":"大字東大畑","koaza":"大名大塚","lat":37.073993,"lng":140.414026,"zip":"9636200"},{"town":"大字里白石","koaza":"宿裏","lat":37.103989,"lng":140.41974,"zip":"9636200"},{"town":"大字里白石","koaza":"荒屋郷","lat":37.108907,"lng":140.415024,"zip":"9636200"},{"town":"大字袖山","koaza":"森下","lat":37.070636,"lng":140.415302,"zip":"9636200"},{"town":"大字根岸","koaza":"戸花","lat":37.061258,"lng":140.41701,"zip":"9636200"},{"town":"大字東大畑","koaza":"新町","lat":37.076525,"lng":140.417264,"zip":"9636200"},{"town":"大字浅川","koaza":"本町西裏","lat":37.079094,"lng":140.415527,"zip":"9636200"},{"town":"大字福貴作","koaza":"六斗蒔","lat":37.117675,"lng":140.41775,"zip":"9636200"},{"town":"大字浅川","koaza":"荒町","lat":37.082775,"lng":140.415966,"zip":"9636200"},{"town":"大字福貴作","koaza":"五斗蒔","lat":37.113296,"lng":140.418841,"zip":"9636200"},{"town":"大字滝輪","koaza":"蔵石","lat":37.090551,"lng":140.414326,"zip":"9636200"},{"town":"大字浅川","koaza":"本町","lat":37.079646,"lng":140.417413,"zip":"9636200"},{"town":"大字袖山","koaza":"梵天山","lat":37.072018,"lng":140.418389,"zip":"9636200"},{"town":"大字大草","koaza":"赤塩","lat":37.052913,"lng":140.417916,"zip":"9636200"},{"town":"大字東大畑","koaza":"金田","lat":37.075444,"lng":140.417557,"zip":"9636200"},{"town":"大字里白石","koaza":"寺ノ前","lat":37.108161,"lng":140.418875,"zip":"9636200"},{"town":"大字浅川","koaza":"月斉陣場","lat":37.08263,"lng":140.418474,"zip":"9636200"},{"town":"大字浅川","koaza":"月斉","lat":37.083883,"lng":140.41879,"zip":"9636200"},{"town":"大字東大畑","koaza":"裏門","lat":37.078689,"lng":140.418111,"zip":"9636200"},{"town":"大字東大畑","koaza":"道ケ作","lat":37.075072,"lng":140.420302,"zip":"9636200"},{"town":"大字浅川","koaza":"新宿","lat":37.090098,"lng":140.419982,"zip":"9636200"},{"town":"大字福貴作","koaza":"関田","lat":37.116568,"lng":140.423974,"zip":"9636200"},{"town":"大字里白石","koaza":"長戸","lat":37.098095,"lng":140.421961,"zip":"9636200"},{"town":"大字里白石","koaza":"出シ","lat":37.103323,"lng":140.421217,"zip":"9636200"},{"town":"大字浅川","koaza":"根宿","lat":37.082716,"lng":140.420956,"zip":"9636200"},{"town":"大字里白石","koaza":"表ノ前","lat":37.108059,"lng":140.422365,"zip":"9636200"},{"town":"大字中里","koaza":"寺ノ前","lat":37.063124,"lng":140.427162,"zip":"9636200"},{"town":"大字大草","koaza":"風口前","lat":37.055604,"lng":140.423005,"zip":"9636200"},{"town":"大字東大畑","koaza":"再見形","lat":37.072784,"lng":140.424818,"zip":"9636200"},{"town":"大字根岸","koaza":"明神畑","lat":37.070135,"lng":140.423119,"zip":"9636200"},{"town":"大字根岸","koaza":"二升畑","lat":37.066152,"lng":140.422634,"zip":"9636200"},{"town":"大字浅川","koaza":"山根","lat":37.084506,"lng":140.423867,"zip":"9636200"},{"town":"大字中里","koaza":"内金","lat":37.06701,"lng":140.425505,"zip":"9636200"},{"town":"大字大草","koaza":"浜井場","lat":37.056433,"lng":140.427791,"zip":"9636200"},{"town":"大字東大畑","koaza":"泉","lat":37.077725,"lng":140.427117,"zip":"9636200"},{"town":"大字里白石","koaza":"白石","lat":37.098274,"lng":140.42757,"zip":"9636200"},{"town":"大字中里","koaza":"古屋敷","lat":37.06473,"lng":140.429569,"zip":"9636200"},{"town":"大字中里","koaza":"舞台","lat":37.067983,"lng":140.42842,"zip":"9636200"},{"town":"大字里白石","koaza":"小野久保","lat":37.093091,"lng":140.43118,"zip":"9636200"},{"town":"大字中里","koaza":"五斗蒔","lat":37.070636,"lng":140.429061,"zip":"9636200"},{"town":"大字里白石","koaza":"十石久保","lat":37.097421,"lng":140.437518,"zip":"9636200"},{"town":"大字中里","koaza":"十二代","lat":37.072461,"lng":140.434507,"zip":"9636200"},{"town":"大字畑田","koaza":"八ツ堀田","lat":37.081254,"lng":140.430168,"zip":"9636200"},{"town":"大字松野入","koaza":"内畑","lat":37.058082,"lng":140.43437,"zip":"9636200"},{"town":"大字畑田","koaza":"戸屋入","lat":37.088845,"lng":140.432865,"zip":"9636200"},{"town":"大字里白石","koaza":"高梨沢","lat":37.109125,"lng":140.439087,"zip":"9636200"},{"town":"大字里白石","koaza":"内山","lat":37.105272,"lng":140.440271,"zip":"9636200"},{"town":"大字畑田","koaza":"中ノ町","lat":37.079559,"lng":140.440557,"zip":"9636200"},{"town":"大字畑田","koaza":"躰田","lat":37.078282,"lng":140.446053,"zip":"9636200"},{"town":"大字滝輪","koaza":"芝原","lat":37.092368,"lng":140.411908,"zip":"9636200"},{"town":"大字浅川","koaza":"荒町西裏","lat":37.083104,"lng":140.41515,"zip":"9636200"},{"town":"大字松野入","koaza":"下堀","lat":37.068141,"lng":140.429608,"zip":"9636200"},{"town":"大字根岸","koaza":"塚畑","lat":37.068639,"lng":140.426047,"zip":"9636200"},{"town":"大字根岸","koaza":"森際","lat":37.070635,"lng":140.426581,"zip":"9636200"},{"town":"大字根岸","koaza":"沢尻","lat":37.064474,"lng":140.416888,"zip":"9636200"},{"town":"大字松野入","koaza":"石田","lat":37.064149,"lng":140.433072,"zip":"9636200"},{"town":"大字東大畑","koaza":"行人坊","lat":37.080567,"lng":140.425444,"zip":"9636200"},{"town":"大字浅川","koaza":"宿坂","lat":37.081742,"lng":140.427125,"zip":"9636200"},{"town":"大字浅川","koaza":"城山","lat":37.083485,"lng":140.425831,"zip":"9636200"},{"town":"大字畑田","koaza":"花畑","lat":37.084223,"lng":140.42743,"zip":"9636200"},{"town":"大字畑田","koaza":"作田","lat":37.086226,"lng":140.431772,"zip":"9636200"},{"town":"大字畑田","koaza":"石原田","lat":37.081966,"lng":140.437284,"zip":"9636200"},{"town":"大字浅川","koaza":"茱萸ケ沢","lat":37.090474,"lng":140.422812,"zip":"9636200"},{"town":"大字浅川","koaza":"越巻","lat":37.087131,"lng":140.41819,"zip":"9636200"},{"town":"大字滝輪","koaza":"森下","lat":37.090757,"lng":140.417123,"zip":"9636200"},{"town":"大字里白石","koaza":"関沢","lat":37.106934,"lng":140.427469,"zip":"9636200"},{"town":"大字太田輪","koaza":"猪窪","lat":37.089289,"lng":140.393241,"zip":"9636200"}]