[{"town":"大字鶴生","koaza":"","lat":37.187084,"lng":140.045121,"zip":"9610000"},{"town":"大字真船","koaza":"","lat":37.158309,"lng":140.076742,"zip":"9610000"},{"town":"大字小田倉","koaza":"","lat":37.137526,"lng":140.076227,"zip":"9610000"},{"town":"大字長坂","koaza":"","lat":37.153925,"lng":140.196266,"zip":"9610000"},{"town":"大字羽太","koaza":"","lat":37.202127,"lng":140.119074,"zip":"9610000"},{"town":"字道南東","koaza":"","lat":37.12281,"lng":140.1894,"zip":"9610000"},{"town":"字前山東","koaza":"","lat":37.121281,"lng":140.188006,"zip":"9610000"},{"town":"字前山西","koaza":"","lat":37.122532,"lng":140.184436,"zip":"9610000"},{"town":"字道南西","koaza":"","lat":37.123657,"lng":140.185947,"zip":"9610000"},{"town":"字下前田西","koaza":"","lat":37.124813,"lng":140.187774,"zip":"9610000"},{"town":"字豊作東","koaza":"","lat":37.125647,"lng":140.186953,"zip":"9610000"},{"town":"字屋敷裏東","koaza":"","lat":37.127177,"lng":140.183301,"zip":"9610000"},{"town":"字裏山南","koaza":"","lat":37.125873,"lng":140.183335,"zip":"9610000"},{"town":"字豊作西","koaza":"","lat":37.124486,"lng":140.183153,"zip":"9610000"},{"town":"字石塚南","koaza":"","lat":37.123576,"lng":140.180293,"zip":"9610000"},{"town":"字石塚北","koaza":"","lat":37.124442,"lng":140.179014,"zip":"9610000"},{"town":"字屋敷裏西","koaza":"","lat":37.126577,"lng":140.179921,"zip":"9610000"},{"town":"大字柏野","koaza":"","lat":37.155651,"lng":140.179049,"zip":"9610000"},{"town":"大字米","koaza":"","lat":37.139699,"lng":140.187271,"zip":"9610000"},{"town":"大字熊倉","koaza":"","lat":37.14451,"lng":140.169597,"zip":"9610000"},{"town":"字下前田東","koaza":"","lat":37.123169,"lng":140.190094,"zip":"9610000"},{"town":"大字真船","koaza":"蒲日向","lat":37.157655,"lng":140.092682,"zip":"9610000"},{"town":"大字真船","koaza":"芝原","lat":37.14577,"lng":140.104315,"zip":"9610000"},{"town":"大字小田倉","koaza":"馬場坂","lat":37.123126,"lng":140.124468,"zip":"9610000"},{"town":"大字真船","koaza":"川谷","lat":37.158944,"lng":140.101545,"zip":"9610000"},{"town":"大字鶴生","koaza":"由井ケ原","lat":37.159968,"lng":140.113027,"zip":"9610000"},{"town":"大字鶴生","koaza":"茅窪","lat":37.162054,"lng":140.112986,"zip":"9610000"},{"town":"大字小田倉","koaza":"上上野原","lat":37.127162,"lng":140.127637,"zip":"9610000"},{"town":"大字鶴生","koaza":"松林","lat":37.161889,"lng":140.120982,"zip":"9610000"},{"town":"大字鶴生","koaza":"追原","lat":37.157118,"lng":140.123374,"zip":"9610000"},{"town":"大字鶴生","koaza":"下原","lat":37.160672,"lng":140.123867,"zip":"9610000"},{"town":"大字小田倉","koaza":"田土ケ入","lat":37.13369,"lng":140.127121,"zip":"9610000"},{"town":"大字小田倉","koaza":"稗返","lat":37.112378,"lng":140.137276,"zip":"9610000"},{"town":"大字熊倉","koaza":"西高山","lat":37.136285,"lng":140.127573,"zip":"9610000"},{"town":"大字鶴生","koaza":"段ノ原","lat":37.169179,"lng":140.129646,"zip":"9610000"},{"town":"大字鶴生","koaza":"胡桃坂","lat":37.169446,"lng":140.132635,"zip":"9610000"},{"town":"大字小田倉","koaza":"上野原","lat":37.120465,"lng":140.14057,"zip":"9610000"},{"town":"大字真船","koaza":"葭ノ目","lat":37.144507,"lng":140.132942,"zip":"9610000"},{"town":"大字真船","koaza":"折口下","lat":37.146978,"lng":140.140067,"zip":"9610000"},{"town":"大字鶴生","koaza":"松葉","lat":37.167919,"lng":140.13039,"zip":"9610000"},{"town":"大字真船","koaza":"田土ケ入","lat":37.138814,"lng":140.137803,"zip":"9610000"},{"town":"大字真船","koaza":"折口原","lat":37.142216,"lng":140.143028,"zip":"9610000"},{"town":"大字鶴生","koaza":"川前原","lat":37.155438,"lng":140.144385,"zip":"9610000"},{"town":"大字真船","koaza":"カロウト","lat":37.143283,"lng":140.13749,"zip":"9610000"},{"town":"大字小田倉","koaza":"上西平","lat":37.106556,"lng":140.141081,"zip":"9610000"},{"town":"大字小田倉","koaza":"黒川西","lat":37.106572,"lng":140.139628,"zip":"9610000"},{"town":"大字小田倉","koaza":"下西平","lat":37.10511,"lng":140.140576,"zip":"9610000"},{"town":"大字熊倉","koaza":"折口原","lat":37.138202,"lng":140.151532,"zip":"9610000"},{"town":"大字鶴生","koaza":"古蔵","lat":37.155513,"lng":140.142092,"zip":"9610000"},{"town":"大字小田倉","koaza":"下東平","lat":37.104287,"lng":140.140971,"zip":"9610000"},{"town":"大字真船","koaza":"堂万","lat":37.14735,"lng":140.144312,"zip":"9610000"},{"town":"大字鶴生","koaza":"上道","lat":37.157982,"lng":140.143375,"zip":"9610000"},{"town":"大字小田倉","koaza":"上東平","lat":37.105582,"lng":140.143429,"zip":"9610000"},{"town":"大字小田倉","koaza":"大清水","lat":37.108205,"lng":140.154542,"zip":"9610000"},{"town":"大字小田倉","koaza":"中島","lat":37.128415,"lng":140.146504,"zip":"9610000"},{"town":"大字熊倉","koaza":"東高山","lat":37.13076,"lng":140.144554,"zip":"9610000"},{"town":"大字真船","koaza":"小塚前","lat":37.143545,"lng":140.144511,"zip":"9610000"},{"town":"大字鶴生","koaza":"内川岸","lat":37.158212,"lng":140.145477,"zip":"9610000"},{"town":"大字鶴生","koaza":"家老地","lat":37.163313,"lng":140.148919,"zip":"9610000"},{"town":"大字真船","koaza":"池ノ端","lat":37.154582,"lng":140.149562,"zip":"9610000"},{"town":"大字小田倉","koaza":"東高山","lat":37.129622,"lng":140.145892,"zip":"9610000"},{"town":"大字鶴生","koaza":"三反歩","lat":37.156727,"lng":140.146632,"zip":"9610000"},{"town":"大字真船","koaza":"前谷地","lat":37.147956,"lng":140.145554,"zip":"9610000"},{"town":"大字羽太","koaza":"新宿","lat":37.177323,"lng":140.151681,"zip":"9610000"},{"town":"大字羽太","koaza":"根柄巻","lat":37.175591,"lng":140.15072,"zip":"9610000"},{"town":"大字小田倉","koaza":"蛇口","lat":37.128962,"lng":140.152406,"zip":"9610000"},{"town":"大字鶴生","koaza":"一ツ橋","lat":37.161526,"lng":140.150645,"zip":"9610000"},{"town":"大字小田倉","koaza":"原中","lat":37.118491,"lng":140.159796,"zip":"9610000"},{"town":"大字熊倉","koaza":"大久保","lat":37.156447,"lng":140.153838,"zip":"9610000"},{"town":"大字小田倉","koaza":"大久保","lat":37.10294,"lng":140.146879,"zip":"9610000"},{"town":"大字羽太","koaza":"本郷腰巻","lat":37.175617,"lng":140.152173,"zip":"9610000"},{"town":"大字鶴生","koaza":"森の越","lat":37.159507,"lng":140.156503,"zip":"9610000"},{"town":"大字羽太","koaza":"漆畑","lat":37.174911,"lng":140.153542,"zip":"9610000"},{"town":"大字熊倉","koaza":"上川原","lat":37.157578,"lng":140.15718,"zip":"9610000"},{"town":"大字小田倉","koaza":"後原","lat":37.132792,"lng":140.160599,"zip":"9610000"},{"town":"大字真船","koaza":"並木通","lat":37.13914,"lng":140.154161,"zip":"9610000"},{"town":"大字小田倉","koaza":"勝負沢","lat":37.100271,"lng":140.159921,"zip":"9610000"},{"town":"大字小田倉","koaza":"上川向","lat":37.124427,"lng":140.15707,"zip":"9610000"},{"town":"大字小田倉","koaza":"伝四郎","lat":37.129764,"lng":140.154201,"zip":"9610000"},{"town":"大字小田倉","koaza":"大平","lat":37.110093,"lng":140.165788,"zip":"9610000"},{"town":"大字羽太","koaza":"鍛治屋畑","lat":37.173933,"lng":140.15638,"zip":"9610000"},{"town":"大字羽太","koaza":"関屋前","lat":37.17457,"lng":140.157315,"zip":"9610000"},{"town":"大字熊倉","koaza":"一本木","lat":37.148875,"lng":140.166627,"zip":"9610000"},{"town":"大字熊倉","koaza":"関根","lat":37.15478,"lng":140.16037,"zip":"9610000"},{"town":"大字小田倉","koaza":"淵上","lat":37.127477,"lng":140.164444,"zip":"9610000"},{"town":"大字小田倉","koaza":"山下","lat":37.126959,"lng":140.160945,"zip":"9610000"},{"town":"大字熊倉","koaza":"火打山","lat":37.154993,"lng":140.163856,"zip":"9610000"},{"town":"大字熊倉","koaza":"森前","lat":37.154493,"lng":140.163006,"zip":"9610000"},{"town":"大字真船","koaza":"茂助屋敷","lat":37.135995,"lng":140.161904,"zip":"9610000"},{"town":"大字小田倉","koaza":"下川向","lat":37.12552,"lng":140.163313,"zip":"9610000"},{"town":"大字熊倉","koaza":"雀子山","lat":37.147691,"lng":140.164318,"zip":"9610000"},{"town":"大字小田倉","koaza":"妻田","lat":37.130852,"lng":140.165618,"zip":"9610000"},{"town":"大字羽太","koaza":"狸屋敷","lat":37.166458,"lng":140.169831,"zip":"9610000"},{"town":"大字真船","koaza":"離山","lat":37.135866,"lng":140.164645,"zip":"9610000"},{"town":"大字米","koaza":"椙山","lat":37.136159,"lng":140.169668,"zip":"9610000"},{"town":"大字米","koaza":"西原","lat":37.131545,"lng":140.171659,"zip":"9610000"},{"town":"大字真船","koaza":"女郎清水","lat":37.133448,"lng":140.165115,"zip":"9610000"},{"town":"大字熊倉","koaza":"四斗蒔","lat":37.153386,"lng":140.165708,"zip":"9610000"},{"town":"大字小田倉","koaza":"畑田","lat":37.127282,"lng":140.168803,"zip":"9610000"},{"town":"大字小田倉","koaza":"狼山合","lat":37.118229,"lng":140.163148,"zip":"9610000"},{"town":"大字熊倉","koaza":"田中前","lat":37.152936,"lng":140.167634,"zip":"9610000"},{"town":"大字小田倉","koaza":"立出","lat":37.123527,"lng":140.167271,"zip":"9610000"},{"town":"大字小田倉","koaza":"前山","lat":37.121084,"lng":140.173779,"zip":"9610000"},{"town":"大字熊倉","koaza":"沼田","lat":37.155494,"lng":140.167799,"zip":"9610000"},{"town":"大字熊倉","koaza":"鶴ケ井","lat":37.151564,"lng":140.168941,"zip":"9610000"},{"town":"大字羽太","koaza":"セト原","lat":37.171308,"lng":140.169077,"zip":"9610000"},{"town":"大字熊倉","koaza":"大柳","lat":37.150889,"lng":140.172752,"zip":"9610000"},{"town":"大字米","koaza":"うつぎ窪","lat":37.135071,"lng":140.167792,"zip":"9610000"},{"town":"大字小田倉","koaza":"豊城","lat":37.124148,"lng":140.172819,"zip":"9610000"},{"town":"大字熊倉","koaza":"長ヲサ","lat":37.152277,"lng":140.173632,"zip":"9610000"},{"town":"大字小田倉","koaza":"大坂","lat":37.109908,"lng":140.177354,"zip":"9610000"},{"town":"大字羽太","koaza":"蕪良口山","lat":37.171929,"lng":140.172562,"zip":"9610000"},{"town":"大字羽太","koaza":"宮ノ前","lat":37.16399,"lng":140.176541,"zip":"9610000"},{"town":"大字羽太","koaza":"南","lat":37.16205,"lng":140.173188,"zip":"9610000"},{"town":"大字熊倉","koaza":"道場久保","lat":37.15121,"lng":140.17872,"zip":"9610000"},{"town":"大字羽太","koaza":"安良田山","lat":37.172356,"lng":140.183777,"zip":"9610000"},{"town":"大字羽太","koaza":"嫁塚","lat":37.164272,"lng":140.166268,"zip":"9610000"},{"town":"大字米","koaza":"向山","lat":37.13569,"lng":140.180507,"zip":"9610000"},{"town":"大字米","koaza":"的石前","lat":37.129116,"lng":140.177894,"zip":"9610000"},{"town":"大字熊倉","koaza":"カヲス","lat":37.146687,"lng":140.175282,"zip":"9610000"},{"town":"大字小田倉","koaza":"岩下","lat":37.118233,"lng":140.175322,"zip":"9610000"},{"town":"大字熊倉","koaza":"風吹","lat":37.148065,"lng":140.175303,"zip":"9610000"},{"town":"大字柏野","koaza":"上川原","lat":37.159319,"lng":140.179445,"zip":"9610000"},{"town":"大字熊倉","koaza":"下山","lat":37.141917,"lng":140.177711,"zip":"9610000"},{"town":"大字熊倉","koaza":"庭渡前","lat":37.144547,"lng":140.177815,"zip":"9610000"},{"town":"大字熊倉","koaza":"麦田","lat":37.146537,"lng":140.179392,"zip":"9610000"},{"town":"大字柏野","koaza":"鞍石","lat":37.159994,"lng":140.177473,"zip":"9610000"},{"town":"大字小田倉","koaza":"井戸尻","lat":37.126476,"lng":140.178209,"zip":"9610000"},{"town":"大字柏野","koaza":"屋敷前","lat":37.157636,"lng":140.179082,"zip":"9610000"},{"town":"大字米","koaza":"間の原","lat":37.133613,"lng":140.18299,"zip":"9610000"},{"town":"大字柏野","koaza":"湯泉","lat":37.155851,"lng":140.179874,"zip":"9610000"},{"town":"大字小田倉","koaza":"向原","lat":37.119552,"lng":140.181991,"zip":"9610000"},{"town":"大字熊倉","koaza":"妙見前","lat":37.147224,"lng":140.180197,"zip":"9610000"},{"town":"大字米","koaza":"杉山前","lat":37.133515,"lng":140.181811,"zip":"9610000"},{"town":"大字小田倉","koaza":"前原","lat":37.117024,"lng":140.181196,"zip":"9610000"},{"town":"大字柏野","koaza":"柳田","lat":37.157988,"lng":140.180076,"zip":"9610000"},{"town":"大字熊倉","koaza":"五反歩","lat":37.143723,"lng":140.182549,"zip":"9610000"},{"town":"大字長坂","koaza":"大道添","lat":37.154781,"lng":140.182157,"zip":"9610000"},{"town":"大字長坂","koaza":"赤渕","lat":37.157155,"lng":140.18232,"zip":"9610000"},{"town":"大字長坂","koaza":"川田","lat":37.152089,"lng":140.185746,"zip":"9610000"},{"town":"大字柏野","koaza":"腰蒔","lat":37.152977,"lng":140.18347,"zip":"9610000"},{"town":"大字米","koaza":"米村","lat":37.141819,"lng":140.187485,"zip":"9610000"},{"town":"大字米","koaza":"狐窪","lat":37.147684,"lng":140.18477,"zip":"9610000"},{"town":"大字米","koaza":"南前","lat":37.13916,"lng":140.186572,"zip":"9610000"},{"town":"大字米","koaza":"宮腰","lat":37.139707,"lng":140.186825,"zip":"9610000"},{"town":"大字米","koaza":"中山前","lat":37.132507,"lng":140.189094,"zip":"9610000"},{"town":"大字米","koaza":"向原","lat":37.135692,"lng":140.187452,"zip":"9610000"},{"town":"大字米","koaza":"中原","lat":37.137417,"lng":140.187867,"zip":"9610000"},{"town":"大字米","koaza":"作田","lat":37.137055,"lng":140.192047,"zip":"9610000"},{"town":"大字米","koaza":"上畑","lat":37.139318,"lng":140.191342,"zip":"9610000"},{"town":"大字米","koaza":"入道山","lat":37.141212,"lng":140.192658,"zip":"9610000"},{"town":"大字米","koaza":"上堀川","lat":37.135672,"lng":140.193332,"zip":"9610000"},{"town":"大字長坂","koaza":"八駄刈","lat":37.141721,"lng":140.190312,"zip":"9610000"},{"town":"大字長坂","koaza":"前田","lat":37.14631,"lng":140.194067,"zip":"9610000"},{"town":"大字長坂","koaza":"早稲田","lat":37.143836,"lng":140.195469,"zip":"9610000"},{"town":"大字米","koaza":"下堀川","lat":37.136751,"lng":140.19548,"zip":"9610000"},{"town":"大字長坂","koaza":"池の尻","lat":37.145506,"lng":140.197489,"zip":"9610000"},{"town":"大字長坂","koaza":"長坂","lat":37.146888,"lng":140.197638,"zip":"9610000"},{"town":"大字長坂","koaza":"於金塚","lat":37.138511,"lng":140.19989,"zip":"9610000"},{"town":"大字真船","koaza":"上屋敷","lat":37.14982,"lng":140.129306,"zip":"9610000"},{"town":"大字真船","koaza":"上川前","lat":37.151027,"lng":140.128614,"zip":"9610000"},{"town":"大字真船","koaza":"林尻","lat":37.147486,"lng":140.132756,"zip":"9610000"},{"town":"大字真船","koaza":"弥右エ門窪","lat":37.148294,"lng":140.131646,"zip":"9610000"},{"town":"大字真船","koaza":"上台","lat":37.148675,"lng":140.12978,"zip":"9610000"},{"town":"大字真船","koaza":"宿下","lat":37.148594,"lng":140.130443,"zip":"9610000"},{"town":"大字真船","koaza":"新池","lat":37.146105,"lng":140.143865,"zip":"9610000"},{"town":"大字真船","koaza":"梁場","lat":37.149013,"lng":140.145955,"zip":"9610000"},{"town":"大字真船","koaza":"中川","lat":37.144328,"lng":140.153871,"zip":"9610000"},{"town":"大字真船","koaza":"長者窪","lat":37.144879,"lng":140.150776,"zip":"9610000"},{"town":"大字熊倉","koaza":"屏風谷","lat":37.147098,"lng":140.153849,"zip":"9610000"},{"town":"大字熊倉","koaza":"大金塚","lat":37.153198,"lng":140.158709,"zip":"9610000"},{"town":"大字熊倉","koaza":"高ポッチ","lat":37.157034,"lng":140.171907,"zip":"9610000"},{"town":"大字熊倉","koaza":"三ケ所","lat":37.15618,"lng":140.167602,"zip":"9610000"},{"town":"大字羽太","koaza":"中田","lat":37.170766,"lng":140.165957,"zip":"9610000"},{"town":"大字羽太","koaza":"崩下","lat":37.171533,"lng":140.166632,"zip":"9610000"},{"town":"大字羽太","koaza":"甲塚","lat":37.170098,"lng":140.168467,"zip":"9610000"},{"town":"大字羽太","koaza":"菌番","lat":37.167405,"lng":140.159512,"zip":"9610000"},{"town":"大字羽太","koaza":"大窪","lat":37.167107,"lng":140.162903,"zip":"9610000"},{"town":"大字羽太","koaza":"柿ノ木山","lat":37.170472,"lng":140.163628,"zip":"9610000"},{"town":"大字羽太","koaza":"ラントの入","lat":37.169392,"lng":140.161703,"zip":"9610000"},{"town":"大字鶴生","koaza":"摺臼山","lat":37.16684,"lng":140.150763,"zip":"9610000"},{"town":"大字羽太","koaza":"弔久保","lat":37.162787,"lng":140.160076,"zip":"9610000"},{"town":"大字真船","koaza":"松林","lat":37.145679,"lng":140.145794,"zip":"9610000"},{"town":"大字小田倉","koaza":"淵下","lat":37.128972,"lng":140.169795,"zip":"9610000"},{"town":"大字小田倉","koaza":"中庄司","lat":37.129478,"lng":140.173399,"zip":"9610000"},{"town":"大字米","koaza":"山下","lat":37.13696,"lng":140.185302,"zip":"9610000"},{"town":"大字米","koaza":"中山下","lat":37.13216,"lng":140.188478,"zip":"9610000"},{"town":"大字米","koaza":"畑田","lat":37.141105,"lng":140.188919,"zip":"9610000"},{"town":"大字米","koaza":"舘岡","lat":37.141309,"lng":140.189801,"zip":"9610000"},{"town":"大字長坂","koaza":"中森","lat":37.146839,"lng":140.201167,"zip":"9610000"},{"town":"大字長坂","koaza":"堤ケ入","lat":37.147635,"lng":140.201679,"zip":"9610000"},{"town":"大字長坂","koaza":"馬坂舘山","lat":37.152092,"lng":140.187815,"zip":"9610000"},{"town":"大字長坂","koaza":"突貫沢","lat":37.163058,"lng":140.196824,"zip":"9610000"},{"town":"大字柏野","koaza":"前山","lat":37.158689,"lng":140.176039,"zip":"9610000"},{"town":"大字羽太","koaza":"清水窪","lat":37.161014,"lng":140.169731,"zip":"9610000"},{"town":"大字柏野","koaza":"田ノ入","lat":37.152622,"lng":140.181803,"zip":"9610000"},{"town":"大字米","koaza":"山界","lat":37.143399,"lng":140.185096,"zip":"9610000"},{"town":"大字米","koaza":"追越","lat":37.145606,"lng":140.185927,"zip":"9610000"},{"town":"大字米","koaza":"連平","lat":37.143642,"lng":140.186947,"zip":"9610000"},{"town":"大字柏野","koaza":"石切場","lat":37.150107,"lng":140.181934,"zip":"9610000"},{"town":"大字柏野","koaza":"保ノ久保","lat":37.153106,"lng":140.180464,"zip":"9610000"},{"town":"大字羽太","koaza":"坂の影","lat":37.159712,"lng":140.164056,"zip":"9610000"},{"town":"大字羽太","koaza":"庄太郎新田","lat":37.158941,"lng":140.161584,"zip":"9610000"},{"town":"大字小田倉","koaza":"小田倉原","lat":37.119771,"lng":140.158526,"zip":"9610000"},{"town":"大字小田倉","koaza":"大石久保","lat":37.126574,"lng":140.14605,"zip":"9610000"},{"town":"大字小田倉","koaza":"道南","lat":37.122848,"lng":140.188256,"zip":"9610000"},{"town":"大字小田倉","koaza":"堂ノ浦","lat":37.10888,"lng":140.143335,"zip":"9610000"},{"town":"大字小田倉","koaza":"黒川東","lat":37.105226,"lng":140.141893,"zip":"9610000"},{"town":"大字小田倉","koaza":"船塚","lat":37.100862,"lng":140.14931,"zip":"9610000"},{"town":"大字小田倉","koaza":"ナカトロ","lat":37.108583,"lng":140.147455,"zip":"9610000"},{"town":"大字小田倉","koaza":"萱場","lat":37.124319,"lng":140.177285,"zip":"9610000"},{"town":"大字小田倉","koaza":"飯豊","lat":37.122494,"lng":140.173412,"zip":"9610000"},{"town":"大字真船","koaza":"宮内治","lat":37.139804,"lng":140.132961,"zip":"9610000"},{"town":"大字小田倉","koaza":"中山","lat":37.1281,"lng":140.156906,"zip":"9610000"},{"town":"大字小田倉","koaza":"山道","lat":37.109852,"lng":140.136249,"zip":"9610000"},{"town":"大字米","koaza":"堀川向","lat":37.135759,"lng":140.194487,"zip":"9610000"},{"town":"大字真船","koaza":"宇津木窪","lat":37.135264,"lng":140.169973,"zip":"9610000"},{"town":"大字熊倉","koaza":"内山","lat":37.142782,"lng":140.159856,"zip":"9610000"},{"town":"大字小田倉","koaza":"後山","lat":37.125971,"lng":140.15626,"zip":"9610000"},{"town":"大字鶴生","koaza":"大久保","lat":37.15909,"lng":140.12912,"zip":"9610000"},{"town":"大字真船","koaza":"蔦石","lat":37.152331,"lng":140.126274,"zip":"9610000"},{"town":"大字真船","koaza":"観音山","lat":37.153303,"lng":140.122971,"zip":"9610000"},{"town":"大字真船","koaza":"山神前","lat":37.151067,"lng":140.125608,"zip":"9610000"},{"town":"大字真船","koaza":"山の神","lat":37.149199,"lng":140.121332,"zip":"9610000"},{"town":"大字小田倉","koaza":"狼山","lat":37.118854,"lng":140.172513,"zip":"9610000"},{"town":"大字小田倉","koaza":"古米坂","lat":37.117078,"lng":140.158794,"zip":"9610000"},{"town":"大字鶴生","koaza":"高助","lat":37.161668,"lng":140.133117,"zip":"9610000"},{"town":"大字鶴生","koaza":"瀧の沢","lat":37.157505,"lng":140.136951,"zip":"9610000"},{"town":"大字鶴生","koaza":"七曲","lat":37.162432,"lng":140.129189,"zip":"9610000"},{"town":"大字鶴生","koaza":"山田窪","lat":37.164131,"lng":140.1258,"zip":"9610000"}]