[{"town":"平鉢","koaza":"","lat":37.17197,"lng":140.366266,"zip":"9690254"},{"town":"明新上","koaza":"","lat":37.170859,"lng":140.402643,"zip":"9690253"},{"town":"松房","koaza":"","lat":37.172633,"lng":140.333237,"zip":"9690262"},{"town":"清水塚","koaza":"","lat":37.165132,"lng":140.332343,"zip":"9690200"},{"town":"東長峰","koaza":"","lat":37.175985,"lng":140.323786,"zip":"9690225"},{"town":"根宿","koaza":"","lat":37.171029,"lng":140.344945,"zip":"9690263"},{"town":"中畑","koaza":"","lat":37.171933,"lng":140.353563,"zip":"9690264"},{"town":"国神","koaza":"","lat":37.168093,"lng":140.361128,"zip":"9690200"},{"town":"清林山","koaza":"","lat":37.176303,"lng":140.370676,"zip":"9690200"},{"town":"上の前","koaza":"","lat":37.180499,"lng":140.370947,"zip":"9690257"},{"town":"前久保","koaza":"","lat":37.185363,"lng":140.371204,"zip":"9690257"},{"town":"沢尻","koaza":"","lat":37.19145,"lng":140.374829,"zip":"9690258"},{"town":"白山","koaza":"","lat":37.2027,"lng":140.376437,"zip":"9690245"},{"town":"寺の前","koaza":"","lat":37.192185,"lng":140.364155,"zip":"9690247"},{"town":"本城舘","koaza":"","lat":37.210692,"lng":140.371602,"zip":"9690232"},{"town":"中丸","koaza":"","lat":37.218972,"lng":140.360832,"zip":"9690231"},{"town":"天開","koaza":"","lat":37.218164,"lng":140.379841,"zip":"9690241"},{"town":"中畑南","koaza":"","lat":37.163207,"lng":140.353423,"zip":"9690265"},{"town":"上敷面","koaza":"","lat":37.157091,"lng":140.339578,"zip":"9690266"},{"town":"諏訪清水","koaza":"","lat":37.150487,"lng":140.335734,"zip":"9690267"},{"town":"松倉","koaza":"","lat":37.156991,"lng":140.328332,"zip":"9690268"},{"town":"明新中","koaza":"","lat":37.175715,"lng":140.404365,"zip":"9690253"},{"town":"明新下","koaza":"","lat":37.180581,"lng":140.402209,"zip":"9690253"},{"town":"明新原","koaza":"","lat":37.176339,"lng":140.396398,"zip":"9690253"},{"town":"明新西","koaza":"","lat":37.180876,"lng":140.395031,"zip":"9690253"},{"town":"貝の久保","koaza":"","lat":37.180718,"lng":140.384805,"zip":"9690200"},{"town":"明新東","koaza":"","lat":37.181487,"lng":140.406745,"zip":"9690253"},{"town":"中野目東","koaza":"","lat":37.188814,"lng":140.397563,"zip":"9690252"},{"town":"中野目西","koaza":"","lat":37.186184,"lng":140.394265,"zip":"9690252"},{"town":"神田東","koaza":"","lat":37.195053,"lng":140.393058,"zip":"9690251"},{"town":"東堤","koaza":"","lat":37.185396,"lng":140.387852,"zip":"9690252"},{"town":"神の内","koaza":"","lat":37.18218,"lng":140.378858,"zip":"9690252"},{"town":"堤","koaza":"","lat":37.188469,"lng":140.381085,"zip":"9690252"},{"town":"神田南","koaza":"","lat":37.192049,"lng":140.387343,"zip":"9690251"},{"town":"神田西","koaza":"","lat":37.198566,"lng":140.384144,"zip":"9690251"},{"town":"谷中","koaza":"","lat":37.20345,"lng":140.393939,"zip":"9690244"},{"town":"奉行塚","koaza":"","lat":37.204581,"lng":140.388833,"zip":"9690244"},{"town":"中沖","koaza":"","lat":37.210204,"lng":140.389743,"zip":"9690243"},{"town":"東川原","koaza":"","lat":37.213613,"lng":140.393424,"zip":"9690243"},{"town":"三城目","koaza":"","lat":37.211908,"lng":140.384665,"zip":"9690242"},{"town":"陣ケ岡","koaza":"","lat":37.219049,"lng":140.393761,"zip":"9690241"},{"town":"寺内東","koaza":"","lat":37.178906,"lng":140.363089,"zip":"9690255"},{"town":"寺内南","koaza":"","lat":37.176673,"lng":140.358463,"zip":"9690255"},{"town":"住吉","koaza":"","lat":37.186547,"lng":140.365609,"zip":"9690257"},{"town":"寺内西","koaza":"","lat":37.184605,"lng":140.35403,"zip":"9690255"},{"town":"大畑","koaza":"","lat":37.191119,"lng":140.359586,"zip":"9690200"},{"town":"寺内","koaza":"","lat":37.187386,"lng":140.359098,"zip":"9690255"},{"town":"鍋内","koaza":"","lat":37.184749,"lng":140.346767,"zip":"9690256"},{"town":"大久保","koaza":"","lat":37.183016,"lng":140.337331,"zip":"9690224"},{"town":"文京町","koaza":"","lat":37.190801,"lng":140.344234,"zip":"9690223"},{"town":"弥栄","koaza":"","lat":37.185378,"lng":140.327615,"zip":"9690261"},{"town":"田町","koaza":"","lat":37.188317,"lng":140.31921,"zip":"9690227"},{"town":"八幡町","koaza":"","lat":37.193444,"lng":140.332204,"zip":"9690222"},{"town":"新町","koaza":"","lat":37.196121,"lng":140.318923,"zip":"9690202"},{"town":"西長峰","koaza":"","lat":37.181004,"lng":140.312642,"zip":"9690226"},{"town":"五本松","koaza":"","lat":37.183948,"lng":140.304827,"zip":"9690205"},{"town":"大和内","koaza":"","lat":37.190658,"lng":140.312229,"zip":"9690286"},{"town":"北浦","koaza":"","lat":37.196831,"lng":140.311071,"zip":"9690203"},{"town":"川原","koaza":"","lat":37.199211,"lng":140.306119,"zip":"9690287"},{"town":"赤沢","koaza":"","lat":37.193689,"lng":140.302167,"zip":"9690206"},{"town":"下宮崎","koaza":"","lat":37.198785,"lng":140.365641,"zip":"9690246"},{"town":"前田","koaza":"","lat":37.203936,"lng":140.361427,"zip":"9690234"},{"town":"上宮崎","koaza":"","lat":37.199144,"lng":140.35859,"zip":"9690246"},{"town":"諏訪の前","koaza":"","lat":37.199092,"lng":140.351608,"zip":"9690247"},{"town":"花の里","koaza":"","lat":37.207545,"lng":140.362178,"zip":"9690233"},{"town":"丸の内","koaza":"","lat":37.208777,"lng":140.355869,"zip":"9690235"},{"town":"東郷","koaza":"","lat":37.20945,"lng":140.345879,"zip":"9690248"},{"town":"一本木","koaza":"","lat":37.200905,"lng":140.342201,"zip":"9690236"},{"town":"曙町","koaza":"","lat":37.200873,"lng":140.330102,"zip":"9690272"},{"town":"小松","koaza":"","lat":37.205699,"lng":140.33196,"zip":"9690271"},{"town":"中町","koaza":"","lat":37.203238,"lng":140.325077,"zip":"9690221"},{"town":"善郷内","koaza":"","lat":37.21136,"lng":140.336221,"zip":"9690212"},{"town":"本町","koaza":"","lat":37.207956,"lng":140.326195,"zip":"9690213"},{"town":"北町","koaza":"","lat":37.214226,"lng":140.327498,"zip":"9690211"},{"town":"花咲","koaza":"","lat":37.201966,"lng":140.31325,"zip":"9690285"},{"town":"大町","koaza":"","lat":37.202949,"lng":140.318862,"zip":"9690201"},{"town":"舘沢","koaza":"","lat":37.209385,"lng":140.319047,"zip":"9690284"},{"town":"滝八幡","koaza":"","lat":37.21464,"lng":140.320713,"zip":"9690284"},{"town":"井戸尻","koaza":"","lat":37.207929,"lng":140.309747,"zip":"9690287"},{"town":"堰の上","koaza":"","lat":37.206712,"lng":140.299964,"zip":"9690287"},{"town":"牡丹平","koaza":"","lat":37.214365,"lng":140.358292,"zip":"9690237"},{"town":"大池","koaza":"","lat":37.216988,"lng":140.33731,"zip":"9690238"},{"town":"南町","koaza":"","lat":37.220433,"lng":140.310826,"zip":"9690283"},{"town":"東の内","koaza":"","lat":37.217684,"lng":140.299595,"zip":"9690288"},{"town":"本郷町","koaza":"","lat":37.226753,"lng":140.308627,"zip":"9690282"},{"town":"田内","koaza":"","lat":37.221893,"lng":140.29411,"zip":"9690288"},{"town":"子ハ清水","koaza":"","lat":37.221737,"lng":140.286009,"zip":"9690288"},{"town":"境町","koaza":"","lat":37.232407,"lng":140.305582,"zip":"9690281"}]