[{"town":"御前南五丁目","koaza":"","lat":37.384863,"lng":140.328639,"zip":"9630209"},{"town":"御前南四丁目","koaza":"","lat":37.383386,"lng":140.328952,"zip":"9630209"},{"town":"御前南三丁目","koaza":"","lat":37.381028,"lng":140.329662,"zip":"9630209"},{"town":"御前南二丁目","koaza":"","lat":37.381483,"lng":140.333184,"zip":"9630209"},{"town":"御前南一丁目","koaza":"","lat":37.384607,"lng":140.333866,"zip":"9630209"},{"town":"南二丁目","koaza":"","lat":37.367407,"lng":140.371978,"zip":"9630115"},{"town":"南一丁目","koaza":"","lat":37.372968,"lng":140.373299,"zip":"9630115"},{"town":"田村町川曲","koaza":"","lat":37.331662,"lng":140.498014,"zip":"9631241"},{"town":"田村町栃本","koaza":"","lat":37.29226,"lng":140.49593,"zip":"9631244"},{"town":"田村町糠塚","koaza":"","lat":37.297194,"lng":140.518569,"zip":"9631242"},{"town":"田村町栃山神","koaza":"","lat":37.321785,"lng":140.482553,"zip":"9631245"},{"town":"三穂田町下守屋","koaza":"","lat":37.354567,"lng":140.225219,"zip":"9630124"},{"town":"湖南町三代","koaza":"","lat":37.356517,"lng":140.115461,"zip":"9631522"},{"town":"中田町中津川","koaza":"","lat":37.345897,"lng":140.522136,"zip":"9630832"},{"town":"中田町牛縊本郷","koaza":"","lat":37.378324,"lng":140.496633,"zip":"9630834"},{"town":"中田町下枝","koaza":"","lat":37.352797,"lng":140.484544,"zip":"9630833"},{"town":"田村町上道渡","koaza":"","lat":37.330377,"lng":140.471037,"zip":"9631248"},{"town":"田村町下道渡","koaza":"","lat":37.332523,"lng":140.452484,"zip":"9631247"},{"town":"田村町金沢","koaza":"","lat":37.340808,"lng":140.441401,"zip":"9631151"},{"town":"田村町東山二丁目","koaza":"","lat":37.339353,"lng":140.420919,"zip":"9631156"},{"town":"田村町東山一丁目","koaza":"","lat":37.338921,"lng":140.417099,"zip":"9631156"},{"town":"田村町山中","koaza":"","lat":37.336165,"lng":140.396716,"zip":"9631162"},{"town":"田村町守山","koaza":"","lat":37.327226,"lng":140.402652,"zip":"9631155"},{"town":"田村町正直","koaza":"","lat":37.338725,"lng":140.389906,"zip":"9631163"},{"town":"田村町御代田","koaza":"","lat":37.338421,"lng":140.381528,"zip":"9631164"},{"town":"富田町","koaza":"","lat":37.414993,"lng":140.345014,"zip":"9638041"},{"town":"長者一丁目","koaza":"","lat":37.398158,"lng":140.368247,"zip":"9638017"},{"town":"長者二丁目","koaza":"","lat":37.401842,"lng":140.370125,"zip":"9638017"},{"town":"桃見台","koaza":"","lat":37.404332,"lng":140.370182,"zip":"9638018"},{"town":"西ノ内一丁目","koaza":"","lat":37.406774,"lng":140.371339,"zip":"9638022"},{"town":"麓山二丁目","koaza":"","lat":37.395209,"lng":140.369985,"zip":"9638876"},{"town":"池ノ台","koaza":"","lat":37.391687,"lng":140.374447,"zip":"9638875"},{"town":"深沢二丁目","koaza":"","lat":37.389546,"lng":140.369704,"zip":"9638874"},{"town":"深沢一丁目","koaza":"","lat":37.388981,"lng":140.372537,"zip":"9638874"},{"town":"七ッ池町","koaza":"","lat":37.384178,"lng":140.371628,"zip":"9630000"},{"town":"香久池一丁目","koaza":"","lat":37.380716,"lng":140.372127,"zip":"9638833"},{"town":"富久山町久保田","koaza":"","lat":37.411007,"lng":140.389378,"zip":"9638071"},{"town":"字川向","koaza":"","lat":37.372444,"lng":140.371541,"zip":"9630000"},{"town":"字名倉","koaza":"","lat":37.374815,"lng":140.368364,"zip":"9630000"},{"town":"字城清水","koaza":"","lat":37.375943,"lng":140.372336,"zip":"9630000"},{"town":"字山崎","koaza":"","lat":37.3801,"lng":140.362504,"zip":"9630000"},{"town":"香久池二丁目","koaza":"","lat":37.378597,"lng":140.371476,"zip":"9638833"},{"town":"安積町荒井","koaza":"","lat":37.371718,"lng":140.358696,"zip":"9630111"},{"town":"笹川三丁目","koaza":"","lat":37.355191,"lng":140.36994,"zip":"9630108"},{"town":"笹川二丁目","koaza":"","lat":37.358586,"lng":140.372002,"zip":"9630108"},{"town":"笹川一丁目","koaza":"","lat":37.362346,"lng":140.373233,"zip":"9630108"},{"town":"田村町徳定","koaza":"","lat":37.357091,"lng":140.379819,"zip":"9631165"},{"town":"三穂田町鍋山","koaza":"","lat":37.344831,"lng":140.288691,"zip":"9630123"},{"town":"三穂田町富岡","koaza":"","lat":37.35394,"lng":140.257724,"zip":"9630125"},{"town":"桜木一丁目","koaza":"","lat":37.408711,"lng":140.373936,"zip":"9638021"},{"town":"桜木二丁目","koaza":"","lat":37.410512,"lng":140.369768,"zip":"9638021"},{"town":"逢瀬町河内","koaza":"","lat":37.42612,"lng":140.260524,"zip":"9630212"},{"town":"湖南町中野","koaza":"","lat":37.365719,"lng":140.158635,"zip":"9631521"},{"town":"三穂田町山口","koaza":"","lat":37.371884,"lng":140.26294,"zip":"9630126"},{"town":"逢瀬町多田野","koaza":"","lat":37.407439,"lng":140.228682,"zip":"9630213"},{"town":"湖南町赤津","koaza":"","lat":37.379595,"lng":140.062395,"zip":"9631631"},{"town":"湖南町福良","koaza":"","lat":37.385002,"lng":140.092873,"zip":"9631633"},{"town":"湖南町舟津","koaza":"","lat":37.404057,"lng":140.117756,"zip":"9631411"},{"town":"舞木町","koaza":"","lat":37.417371,"lng":140.432196,"zip":"9630661"},{"town":"富久山町南小泉","koaza":"","lat":37.41837,"lng":140.419466,"zip":"9630671"},{"town":"富久山町福原","koaza":"","lat":37.424265,"lng":140.401271,"zip":"9638061"},{"town":"片平町","koaza":"","lat":37.423555,"lng":140.310206,"zip":"9630211"},{"town":"町東三丁目","koaza":"","lat":37.4209,"lng":140.347879,"zip":"9638046"},{"town":"新屋敷二丁目","koaza":"","lat":37.418703,"lng":140.354524,"zip":"9638045"},{"town":"町東一丁目","koaza":"","lat":37.420398,"lng":140.351958,"zip":"9638046"},{"town":"不動前一丁目","koaza":"","lat":37.420146,"lng":140.357763,"zip":"9638042"},{"town":"名郷田二丁目","koaza":"","lat":37.418793,"lng":140.36026,"zip":"9638043"},{"town":"八山田二丁目","koaza":"","lat":37.426773,"lng":140.37452,"zip":"9638052"},{"town":"中ノ目一丁目","koaza":"","lat":37.420764,"lng":140.33374,"zip":"9630216"},{"town":"富久山町八山田","koaza":"","lat":37.434042,"lng":140.36791,"zip":"9638051"},{"town":"八山田三丁目","koaza":"","lat":37.430651,"lng":140.373862,"zip":"9638052"},{"town":"日和田町","koaza":"","lat":37.447575,"lng":140.386446,"zip":"9630534"},{"town":"喜久田町割田二丁目","koaza":"","lat":37.469205,"lng":140.36906,"zip":"9630000"},{"town":"熱海町高玉","koaza":"","lat":37.507567,"lng":140.272169,"zip":"9631302"},{"town":"湖南町浜路","koaza":"","lat":37.43892,"lng":140.169196,"zip":"9631414"},{"town":"熱海町安子島","koaza":"","lat":37.478293,"lng":140.23368,"zip":"9631304"},{"town":"熱海町中山","koaza":"","lat":37.514724,"lng":140.203338,"zip":"9631308"},{"town":"湖南町横沢","koaza":"","lat":37.419586,"lng":140.153824,"zip":"9631413"},{"town":"湖南町舘","koaza":"","lat":37.40542,"lng":140.14394,"zip":"9631412"},{"town":"熱海町玉川","koaza":"","lat":37.498722,"lng":140.311959,"zip":"9631303"},{"town":"熱海町石筵","koaza":"","lat":37.570606,"lng":140.260121,"zip":"9631301"},{"town":"田村町田母神","koaza":"","lat":37.300334,"lng":140.540641,"zip":"9631243"},{"town":"田村町谷田川","koaza":"","lat":37.311855,"lng":140.450385,"zip":"9631246"},{"town":"田村町細田","koaza":"","lat":37.325411,"lng":140.441288,"zip":"9631152"},{"town":"田村町大供","koaza":"","lat":37.324651,"lng":140.426774,"zip":"9631153"},{"town":"田村町岩作","koaza":"","lat":37.321161,"lng":140.413552,"zip":"9631154"},{"town":"中田町柳橋","koaza":"","lat":37.364313,"lng":140.536467,"zip":"9630831"},{"town":"中田町駒板","koaza":"","lat":37.385833,"lng":140.522649,"zip":"9630837"},{"town":"中田町木目沢","koaza":"","lat":37.376092,"lng":140.519499,"zip":"9630836"},{"town":"中田町黒木","koaza":"","lat":37.381039,"lng":140.505804,"zip":"9630835"},{"town":"昭和二丁目","koaza":"","lat":37.385828,"lng":140.392068,"zip":"9638822"},{"town":"昭和一丁目","koaza":"","lat":37.386344,"lng":140.388515,"zip":"9638822"},{"town":"山根町","koaza":"","lat":37.384156,"lng":140.375485,"zip":"9638832"},{"town":"小原田一丁目","koaza":"","lat":37.384229,"lng":140.38203,"zip":"9638835"},{"town":"愛宕町","koaza":"","lat":37.388513,"lng":140.375839,"zip":"9638873"},{"town":"栄町","koaza":"","lat":37.388307,"lng":140.37974,"zip":"9638872"},{"town":"菱田町","koaza":"","lat":37.386828,"lng":140.38467,"zip":"9638821"},{"town":"松木町","koaza":"","lat":37.390003,"lng":140.389803,"zip":"9638812"},{"town":"本町二丁目","koaza":"","lat":37.388951,"lng":140.382938,"zip":"9638871"},{"town":"本町一丁目","koaza":"","lat":37.392617,"lng":140.384304,"zip":"9638871"},{"town":"堤下町","koaza":"","lat":37.3916,"lng":140.379608,"zip":"9638878"},{"town":"堂前町","koaza":"","lat":37.394998,"lng":140.379647,"zip":"9638877"},{"town":"清水台一丁目","koaza":"","lat":37.39792,"lng":140.381377,"zip":"9638005"},{"town":"中町","koaza":"","lat":37.396385,"lng":140.38353,"zip":"9638004"},{"town":"駅前一丁目","koaza":"","lat":37.396061,"lng":140.386156,"zip":"9638002"},{"town":"麓山一丁目","koaza":"","lat":37.39501,"lng":140.374559,"zip":"9638876"},{"town":"細沼町","koaza":"","lat":37.397317,"lng":140.375996,"zip":"9638015"},{"town":"駅前二丁目","koaza":"","lat":37.399532,"lng":140.387201,"zip":"9638002"},{"town":"字燧田","koaza":"","lat":37.395915,"lng":140.388308,"zip":"9630000"},{"town":"字東宿","koaza":"","lat":37.403994,"lng":140.390366,"zip":"9630000"},{"town":"大町一丁目","koaza":"","lat":37.400208,"lng":140.385251,"zip":"9638001"},{"town":"清水台二丁目","koaza":"","lat":37.400153,"lng":140.38211,"zip":"9638005"},{"town":"大町二丁目","koaza":"","lat":37.4041,"lng":140.386739,"zip":"9638001"},{"town":"赤木町","koaza":"","lat":37.403275,"lng":140.382422,"zip":"9638006"},{"town":"咲田二丁目","koaza":"","lat":37.403987,"lng":140.37891,"zip":"9638012"},{"town":"咲田一丁目","koaza":"","lat":37.404746,"lng":140.37534,"zip":"9638012"},{"town":"神明町","koaza":"","lat":37.401507,"lng":140.376012,"zip":"9638013"},{"town":"虎丸町","koaza":"","lat":37.399255,"lng":140.37576,"zip":"9638014"},{"town":"緑ケ丘東八丁目","koaza":"","lat":37.390461,"lng":140.432596,"zip":"9630702"},{"town":"田村町小川","koaza":"","lat":37.350659,"lng":140.425823,"zip":"9630722"},{"town":"田村町手代木","koaza":"","lat":37.361402,"lng":140.421009,"zip":"9630721"},{"town":"田村町桜ケ丘二丁目","koaza":"","lat":37.357392,"lng":140.406292,"zip":"9630723"},{"town":"田村町桜ケ丘一丁目","koaza":"","lat":37.359543,"lng":140.404317,"zip":"9630723"},{"town":"田村町大善寺","koaza":"","lat":37.351343,"lng":140.401424,"zip":"9631161"},{"town":"安積町日出山","koaza":"","lat":37.365868,"lng":140.38297,"zip":"9630101"},{"town":"中田町海老根","koaza":"","lat":37.361103,"lng":140.470402,"zip":"9630712"},{"town":"緑ケ丘東五丁目","koaza":"","lat":37.381723,"lng":140.441256,"zip":"9630702"},{"town":"緑ケ丘東四丁目","koaza":"","lat":37.381469,"lng":140.437941,"zip":"9630702"},{"town":"中田町高倉","koaza":"","lat":37.367391,"lng":140.439956,"zip":"9630713"},{"town":"緑ケ丘東一丁目","koaza":"","lat":37.376271,"lng":140.434422,"zip":"9630702"},{"town":"緑ケ丘東二丁目","koaza":"","lat":37.37848,"lng":140.436305,"zip":"9630702"},{"town":"緑ケ丘東三丁目","koaza":"","lat":37.381771,"lng":140.435495,"zip":"9630702"},{"town":"緑ケ丘西二丁目","koaza":"","lat":37.37997,"lng":140.433144,"zip":"9630701"},{"town":"緑ケ丘西三丁目","koaza":"","lat":37.381858,"lng":140.432915,"zip":"9630701"},{"town":"緑ケ丘東六丁目","koaza":"","lat":37.384719,"lng":140.438293,"zip":"9630702"},{"town":"緑ケ丘西一丁目","koaza":"","lat":37.377553,"lng":140.430966,"zip":"9630701"},{"town":"中田町赤沼","koaza":"","lat":37.372637,"lng":140.4232,"zip":"9630714"},{"town":"田村町上行合","koaza":"","lat":37.366052,"lng":140.40712,"zip":"9630724"},{"town":"田村町下行合","koaza":"","lat":37.377149,"lng":140.410017,"zip":"9630726"},{"town":"字船場向","koaza":"","lat":37.378999,"lng":140.402538,"zip":"9630000"},{"town":"字外河原","koaza":"","lat":37.376859,"lng":140.400423,"zip":"9630000"},{"town":"字十貫河原","koaza":"","lat":37.381959,"lng":140.40351,"zip":"9630000"},{"town":"字大河原","koaza":"","lat":37.374305,"lng":140.401298,"zip":"9630000"},{"town":"字道場","koaza":"","lat":37.38283,"lng":140.398396,"zip":"9630000"},{"town":"字古川","koaza":"","lat":37.383771,"lng":140.394782,"zip":"9630000"},{"town":"字石塚","koaza":"","lat":37.37892,"lng":140.395379,"zip":"9630000"},{"town":"字八作内","koaza":"","lat":37.37688,"lng":140.386673,"zip":"9630000"},{"town":"田村町金屋","koaza":"","lat":37.366325,"lng":140.392993,"zip":"9630725"},{"town":"安積町日出山四丁目","koaza":"","lat":37.369342,"lng":140.381595,"zip":"9630101"},{"town":"安積町日出山三丁目","koaza":"","lat":37.36871,"lng":140.378022,"zip":"9630101"},{"town":"安積町日出山二丁目","koaza":"","lat":37.373801,"lng":140.383843,"zip":"9630101"},{"town":"字八木橋","koaza":"","lat":37.37712,"lng":140.384581,"zip":"9630000"},{"town":"安積町日出山一丁目","koaza":"","lat":37.374471,"lng":140.380776,"zip":"9630101"},{"town":"小原田二丁目","koaza":"","lat":37.382399,"lng":140.388181,"zip":"9638835"},{"town":"小原田三丁目","koaza":"","lat":37.379225,"lng":140.386778,"zip":"9638835"},{"town":"字深田台","koaza":"","lat":37.373868,"lng":140.376841,"zip":"9630000"},{"town":"小原田五丁目","koaza":"","lat":37.377324,"lng":140.380436,"zip":"9638835"},{"town":"小原田四丁目","koaza":"","lat":37.380202,"lng":140.380848,"zip":"9638835"},{"town":"図景一丁目","koaza":"","lat":37.383877,"lng":140.378443,"zip":"9638834"},{"town":"図景二丁目","koaza":"","lat":37.37851,"lng":140.376492,"zip":"9638834"},{"town":"中田町上石","koaza":"","lat":37.381444,"lng":140.475152,"zip":"9630711"},{"town":"荒井町","koaza":"","lat":37.387382,"lng":140.444256,"zip":"9630704"},{"town":"緑ケ丘西四丁目","koaza":"","lat":37.38839,"lng":140.432817,"zip":"9630701"},{"town":"緑ケ丘東七丁目","koaza":"","lat":37.38864,"lng":140.437875,"zip":"9630702"},{"town":"蒲倉町","koaza":"","lat":37.394024,"lng":140.434426,"zip":"9630703"},{"town":"大平町","koaza":"","lat":37.38399,"lng":140.422427,"zip":"9638817"},{"town":"あぶくま台二丁目","koaza":"","lat":37.396555,"lng":140.422452,"zip":"9630664"},{"town":"あぶくま台一丁目","koaza":"","lat":37.398237,"lng":140.417184,"zip":"9630664"},{"town":"字上野山","koaza":"","lat":37.388083,"lng":140.408372,"zip":"9630000"},{"town":"水門町","koaza":"","lat":37.385224,"lng":140.404436,"zip":"9638815"},{"town":"石渕町","koaza":"","lat":37.388761,"lng":140.402544,"zip":"9638814"},{"town":"横川町","koaza":"","lat":37.390183,"lng":140.417073,"zip":"9630665"},{"town":"字下舘野","koaza":"","lat":37.395232,"lng":140.407392,"zip":"9630000"},{"town":"字佐野良","koaza":"","lat":37.396371,"lng":140.409487,"zip":"9630000"},{"town":"横塚六丁目","koaza":"","lat":37.391465,"lng":140.404127,"zip":"9638803"},{"town":"横塚五丁目","koaza":"","lat":37.393562,"lng":140.406202,"zip":"9638803"},{"town":"字古屋敷","koaza":"","lat":37.396149,"lng":140.403691,"zip":"9630000"},{"town":"字北畑","koaza":"","lat":37.39715,"lng":140.404034,"zip":"9630000"},{"town":"方八町一丁目","koaza":"","lat":37.392018,"lng":140.389848,"zip":"9638811"},{"town":"芳賀三丁目","koaza":"","lat":37.388037,"lng":140.39731,"zip":"9638813"},{"town":"芳賀二丁目","koaza":"","lat":37.39011,"lng":140.397635,"zip":"9638813"},{"town":"方八町二丁目","koaza":"","lat":37.392993,"lng":140.392873,"zip":"9638811"},{"town":"芳賀一丁目","koaza":"","lat":37.392538,"lng":140.397689,"zip":"9638813"},{"town":"横塚一丁目","koaza":"","lat":37.395336,"lng":140.398875,"zip":"9638803"},{"town":"谷島町","koaza":"","lat":37.397602,"lng":140.392966,"zip":"9638802"},{"town":"横塚二丁目","koaza":"","lat":37.398873,"lng":140.402118,"zip":"9638803"},{"town":"白岩町","koaza":"","lat":37.404915,"lng":140.440563,"zip":"9630662"},{"town":"下白岩町","koaza":"","lat":37.402582,"lng":140.427486,"zip":"9630663"},{"town":"安原町","koaza":"","lat":37.39916,"lng":140.411956,"zip":"9630666"},{"town":"阿久津町","koaza":"","lat":37.40702,"lng":140.418091,"zip":"9630667"},{"town":"向河原町","koaza":"","lat":37.40261,"lng":140.393205,"zip":"9638801"},{"town":"横塚三丁目","koaza":"","lat":37.402308,"lng":140.401804,"zip":"9638803"},{"town":"若葉町","koaza":"","lat":37.406742,"lng":140.380278,"zip":"9638011"},{"town":"町東二丁目","koaza":"","lat":37.417784,"lng":140.348112,"zip":"9638046"},{"town":"新屋敷一丁目","koaza":"","lat":37.417824,"lng":140.357439,"zip":"9638045"},{"town":"備前舘二丁目","koaza":"","lat":37.416748,"lng":140.360714,"zip":"9638044"},{"town":"名郷田一丁目","koaza":"","lat":37.416498,"lng":140.3651,"zip":"9638043"},{"town":"長者三丁目","koaza":"","lat":37.401166,"lng":140.366396,"zip":"9638017"},{"town":"緑町","koaza":"","lat":37.402763,"lng":140.364225,"zip":"9638023"},{"town":"朝日一丁目","koaza":"","lat":37.401549,"lng":140.360736,"zip":"9638024"},{"town":"朝日二丁目","koaza":"","lat":37.404337,"lng":140.36003,"zip":"9638024"},{"town":"朝日三丁目","koaza":"","lat":37.406672,"lng":140.359435,"zip":"9638024"},{"town":"鶴見坦二丁目","koaza":"","lat":37.391467,"lng":140.364924,"zip":"9638861"},{"town":"鶴見坦三丁目","koaza":"","lat":37.391604,"lng":140.359699,"zip":"9638861"},{"town":"豊田町","koaza":"","lat":37.397568,"lng":140.366191,"zip":"9638016"},{"town":"鶴見坦一丁目","koaza":"","lat":37.394522,"lng":140.365187,"zip":"9638861"},{"town":"字五百渕西","koaza":"","lat":37.384962,"lng":140.356292,"zip":"9630000"},{"town":"字台東","koaza":"","lat":37.383752,"lng":140.358701,"zip":"9630000"},{"town":"字五百渕山","koaza":"","lat":37.384151,"lng":140.357807,"zip":"9630000"},{"town":"菜根四丁目","koaza":"","lat":37.383622,"lng":140.364336,"zip":"9638862"},{"town":"菜根一丁目","koaza":"","lat":37.388778,"lng":140.364474,"zip":"9638862"},{"town":"菜根二丁目","koaza":"","lat":37.388347,"lng":140.359657,"zip":"9638862"},{"town":"字菜根屋敷","koaza":"","lat":37.384062,"lng":140.359585,"zip":"9630000"},{"town":"菜根五丁目","koaza":"","lat":37.384433,"lng":140.361348,"zip":"9638862"},{"town":"開成四丁目","koaza":"","lat":37.389255,"lng":140.356352,"zip":"9638851"},{"town":"字桑野清水台","koaza":"","lat":37.385227,"lng":140.357083,"zip":"9630000"},{"town":"開成二丁目","koaza":"","lat":37.394924,"lng":140.358513,"zip":"9638851"},{"town":"開成一丁目","koaza":"","lat":37.397814,"lng":140.358581,"zip":"9638851"},{"town":"開成三丁目","koaza":"","lat":37.39547,"lng":140.352535,"zip":"9638851"},{"town":"桑野一丁目","koaza":"","lat":37.400148,"lng":140.35541,"zip":"9638025"},{"town":"桑野二丁目","koaza":"","lat":37.403396,"lng":140.354537,"zip":"9638025"},{"town":"桑野三丁目","koaza":"","lat":37.406016,"lng":140.353811,"zip":"9638025"},{"town":"安積町大森町","koaza":"","lat":37.344165,"lng":140.344928,"zip":"9630103"},{"town":"安積町吉田二丁目","koaza":"","lat":37.346698,"lng":140.343198,"zip":"9630109"},{"town":"安積町牛庭三丁目","koaza":"","lat":37.344725,"lng":140.336476,"zip":"9630113"},{"town":"安積町牛庭一丁目","koaza":"","lat":37.349146,"lng":140.33538,"zip":"9630113"},{"town":"安積町牛庭四丁目","koaza":"","lat":37.343802,"lng":140.329221,"zip":"9630113"},{"town":"安積町牛庭五丁目","koaza":"","lat":37.346827,"lng":140.32546,"zip":"9630113"},{"town":"安積町牛庭六丁目","koaza":"","lat":37.342926,"lng":140.320506,"zip":"9630113"},{"town":"安積町牛庭","koaza":"","lat":37.347013,"lng":140.316381,"zip":"9630113"},{"town":"三穂田町野田","koaza":"","lat":37.345506,"lng":140.303978,"zip":"9630122"},{"town":"安積四丁目","koaza":"","lat":37.352891,"lng":140.364022,"zip":"9630107"},{"town":"安積三丁目","koaza":"","lat":37.356325,"lng":140.365399,"zip":"9630107"},{"town":"安積二丁目","koaza":"","lat":37.360711,"lng":140.366975,"zip":"9630107"},{"town":"安積一丁目","koaza":"","lat":37.363623,"lng":140.368245,"zip":"9630107"},{"town":"安積町長久保五丁目","koaza":"","lat":37.353308,"lng":140.359565,"zip":"9630105"},{"town":"安積町南長久保二丁目","koaza":"","lat":37.353226,"lng":140.356537,"zip":"9630104"},{"town":"安積町南長久保一丁目","koaza":"","lat":37.35637,"lng":140.355569,"zip":"9630104"},{"town":"安積町長久保三丁目","koaza":"","lat":37.356734,"lng":140.36028,"zip":"9630105"},{"town":"安積町長久保四丁目","koaza":"","lat":37.358526,"lng":140.356627,"zip":"9630105"},{"town":"安積町長久保一丁目","koaza":"","lat":37.361615,"lng":140.361273,"zip":"9630105"},{"town":"安積町長久保二丁目","koaza":"","lat":37.36045,"lng":140.356667,"zip":"9630105"},{"town":"成山町","koaza":"","lat":37.364662,"lng":140.36146,"zip":"9630106"},{"town":"安積町牛庭二丁目","koaza":"","lat":37.350148,"lng":140.329153,"zip":"9630113"},{"town":"安積町成田一丁目","koaza":"","lat":37.363401,"lng":140.329342,"zip":"9630112"},{"town":"三穂田町川田四丁目","koaza":"","lat":37.356825,"lng":140.319076,"zip":"9630121"},{"town":"三穂田町川田三丁目","koaza":"","lat":37.359665,"lng":140.326696,"zip":"9630121"},{"town":"三穂田町川田","koaza":"","lat":37.354652,"lng":140.318234,"zip":"9630121"},{"town":"三穂田町駒屋三丁目","koaza":"","lat":37.362183,"lng":140.305162,"zip":"9630128"},{"town":"三穂田町川田二丁目","koaza":"","lat":37.365465,"lng":140.323277,"zip":"9630121"},{"town":"三穂田町川田一丁目","koaza":"","lat":37.36474,"lng":140.309087,"zip":"9630121"},{"town":"三穂田町駒屋二丁目","koaza":"","lat":37.366802,"lng":140.299146,"zip":"9630128"},{"town":"三穂田町八幡","koaza":"","lat":37.361684,"lng":140.289968,"zip":"9630129"},{"town":"字賀庄","koaza":"","lat":37.371613,"lng":140.368108,"zip":"9630000"},{"town":"菜根三丁目","koaza":"","lat":37.382842,"lng":140.36734,"zip":"9638862"},{"town":"久留米一丁目","koaza":"","lat":37.376386,"lng":140.362908,"zip":"9638846"},{"town":"久留米二丁目","koaza":"","lat":37.378062,"lng":140.359152,"zip":"9638846"},{"town":"久留米三丁目","koaza":"","lat":37.37744,"lng":140.354998,"zip":"9638846"},{"town":"久留米五丁目","koaza":"","lat":37.376814,"lng":140.350889,"zip":"9638846"},{"town":"久留米四丁目","koaza":"","lat":37.380316,"lng":140.352852,"zip":"9638846"},{"town":"久留米六丁目","koaza":"","lat":37.378906,"lng":140.34695,"zip":"9638846"},{"town":"安積町成田","koaza":"","lat":37.360369,"lng":140.3402,"zip":"9630112"},{"town":"三穂田町駒屋一丁目","koaza":"","lat":37.3672,"lng":140.30352,"zip":"9630128"},{"town":"三穂田町駒屋","koaza":"","lat":37.36129,"lng":140.300664,"zip":"9630128"},{"town":"三穂田町大谷","koaza":"","lat":37.373675,"lng":140.287215,"zip":"9630127"},{"town":"開成六丁目","koaza":"","lat":37.38782,"lng":140.351511,"zip":"9638851"},{"town":"開成五丁目","koaza":"","lat":37.390179,"lng":140.35187,"zip":"9638851"},{"town":"台新二丁目","koaza":"","lat":37.389391,"lng":140.344831,"zip":"9638852"},{"town":"台新一丁目","koaza":"","lat":37.393652,"lng":140.345112,"zip":"9638852"},{"town":"鳴神二丁目","koaza":"","lat":37.393421,"lng":140.338577,"zip":"9630207"},{"town":"島二丁目","koaza":"","lat":37.396607,"lng":140.34612,"zip":"9638034"},{"town":"島一丁目","koaza":"","lat":37.399665,"lng":140.347051,"zip":"9638034"},{"town":"亀田一丁目","koaza":"","lat":37.402451,"lng":140.347008,"zip":"9638033"},{"town":"鳴神一丁目","koaza":"","lat":37.396925,"lng":140.339503,"zip":"9630207"},{"town":"中野一丁目","koaza":"","lat":37.39282,"lng":140.332378,"zip":"9630206"},{"town":"堤二丁目","koaza":"","lat":37.397356,"lng":140.335866,"zip":"9630205"},{"town":"堤一丁目","koaza":"","lat":37.399453,"lng":140.337991,"zip":"9630205"},{"town":"柏山町","koaza":"","lat":37.400963,"lng":140.339569,"zip":"9630202"},{"town":"堤三丁目","koaza":"","lat":37.396953,"lng":140.33228,"zip":"9630205"},{"town":"土瓜二丁目","koaza":"","lat":37.40161,"lng":140.330308,"zip":"9630204"},{"town":"土瓜一丁目","koaza":"","lat":37.400856,"lng":140.332045,"zip":"9630204"},{"town":"西ノ内二丁目","koaza":"","lat":37.406403,"lng":140.365076,"zip":"9638022"},{"town":"並木一丁目","koaza":"","lat":37.409843,"lng":140.363497,"zip":"9638026"},{"town":"備前舘一丁目","koaza":"","lat":37.415515,"lng":140.364311,"zip":"9638044"},{"town":"並木二丁目","koaza":"","lat":37.413083,"lng":140.364856,"zip":"9638026"},{"town":"並木三丁目","koaza":"","lat":37.408753,"lng":140.358956,"zip":"9638026"},{"town":"並木四丁目","koaza":"","lat":37.41068,"lng":140.358721,"zip":"9638026"},{"town":"並木五丁目","koaza":"","lat":37.413364,"lng":140.359023,"zip":"9638026"},{"town":"字原中","koaza":"","lat":37.411452,"lng":140.351777,"zip":"9630000"},{"town":"桑野四丁目","koaza":"","lat":37.408028,"lng":140.353489,"zip":"9638025"},{"town":"桑野五丁目","koaza":"","lat":37.410859,"lng":140.354301,"zip":"9638025"},{"town":"亀田二丁目","koaza":"","lat":37.405946,"lng":140.346699,"zip":"9638033"},{"town":"字亀田西","koaza":"","lat":37.40352,"lng":140.342372,"zip":"9630000"},{"town":"字下亀田","koaza":"","lat":37.409586,"lng":140.349058,"zip":"9630000"},{"town":"希望ヶ丘","koaza":"","lat":37.409406,"lng":140.340675,"zip":"9630000"},{"town":"字上亀田","koaza":"","lat":37.409288,"lng":140.344905,"zip":"9630000"},{"town":"うねめ町","koaza":"","lat":37.413006,"lng":140.335671,"zip":"9638036"},{"town":"湖南町馬入新田","koaza":"","lat":37.363363,"lng":140.082573,"zip":"9631632"},{"town":"富久山町北小泉","koaza":"","lat":37.426451,"lng":140.418996,"zip":"9630672"},{"town":"八山田七丁目","koaza":"","lat":37.421589,"lng":140.383243,"zip":"9638052"},{"town":"八山田一丁目","koaza":"","lat":37.424115,"lng":140.37492,"zip":"9638052"},{"town":"八山田六丁目","koaza":"","lat":37.424638,"lng":140.380253,"zip":"9638052"},{"town":"八山田五丁目","koaza":"","lat":37.427673,"lng":140.380279,"zip":"9638052"},{"town":"八山田四丁目","koaza":"","lat":37.430645,"lng":140.379265,"zip":"9638052"},{"town":"西田町木村","koaza":"","lat":37.443383,"lng":140.445444,"zip":"9630914"},{"town":"西田町芹沢","koaza":"","lat":37.440803,"lng":140.429278,"zip":"9630913"},{"town":"富久山町堂坂","koaza":"","lat":37.431714,"lng":140.422737,"zip":"9630673"},{"town":"西田町根木屋","koaza":"","lat":37.431953,"lng":140.438726,"zip":"9630912"},{"town":"西田町大田","koaza":"","lat":37.441693,"lng":140.461645,"zip":"9630911"},{"town":"西田町高柴","koaza":"","lat":37.459122,"lng":140.464105,"zip":"9630902"},{"town":"日和田町八丁目","koaza":"","lat":37.443857,"lng":140.414415,"zip":"9630534"},{"town":"日和田町梅沢","koaza":"","lat":37.460091,"lng":140.409404,"zip":"9630532"},{"town":"西田町板橋","koaza":"","lat":37.467329,"lng":140.459387,"zip":"9630903"},{"town":"西田町土棚","koaza":"","lat":37.471285,"lng":140.450277,"zip":"9630904"},{"town":"西田町阿広木一丁目","koaza":"","lat":37.471521,"lng":140.424468,"zip":"9630925"},{"town":"西田町大網一丁目","koaza":"","lat":37.468585,"lng":140.416824,"zip":"9630924"},{"town":"西田町丹伊田","koaza":"","lat":37.476778,"lng":140.470721,"zip":"9630901"},{"town":"喜久田町卸三丁目","koaza":"","lat":37.441181,"lng":140.345354,"zip":"9630547"},{"town":"喜久田町卸二丁目","koaza":"","lat":37.437543,"lng":140.342601,"zip":"9630547"},{"town":"喜久田町卸一丁目","koaza":"","lat":37.442553,"lng":140.33998,"zip":"9630547"},{"town":"喜久田町","koaza":"","lat":37.4341,"lng":140.341948,"zip":"9630551"},{"town":"待池台二丁目","koaza":"","lat":37.449658,"lng":140.310171,"zip":"9630215"},{"town":"待池台一丁目","koaza":"","lat":37.444529,"lng":140.306807,"zip":"9630215"},{"town":"喜久田町赤坂一丁目","koaza":"","lat":37.462013,"lng":140.362042,"zip":"9630545"},{"town":"喜久田町赤坂二丁目","koaza":"","lat":37.46615,"lng":140.363077,"zip":"9630545"},{"town":"喜久田町坪沢四丁目","koaza":"","lat":37.464303,"lng":140.35789,"zip":"9630544"},{"town":"喜久田町前田沢二丁目","koaza":"","lat":37.46668,"lng":140.35896,"zip":"9630543"},{"town":"喜久田町早稲原","koaza":"","lat":37.450731,"lng":140.357093,"zip":"9630546"},{"town":"喜久田町坪沢三丁目","koaza":"","lat":37.461428,"lng":140.355591,"zip":"9630544"},{"town":"喜久田町坪沢二丁目","koaza":"","lat":37.46404,"lng":140.352083,"zip":"9630544"},{"town":"喜久田町原二丁目","koaza":"","lat":37.465785,"lng":140.351832,"zip":"9630542"},{"town":"喜久田町坪沢一丁目","koaza":"","lat":37.462951,"lng":140.347047,"zip":"9630544"},{"town":"熱海町下伊豆島","koaza":"","lat":37.451523,"lng":140.321276,"zip":"9631305"},{"town":"熱海町上伊豆島","koaza":"","lat":37.459571,"lng":140.293889,"zip":"9631306"},{"town":"逢瀬町夏出","koaza":"","lat":37.449283,"lng":140.271873,"zip":"9630214"},{"town":"熱海町長橋","koaza":"","lat":37.456678,"lng":140.277686,"zip":"9631307"},{"town":"喜久田町割田一丁目","koaza":"","lat":37.469961,"lng":140.364413,"zip":"9630000"},{"town":"喜久田町前田沢一丁目","koaza":"","lat":37.469487,"lng":140.357862,"zip":"9630543"},{"town":"喜久田町原三丁目","koaza":"","lat":37.468602,"lng":140.352216,"zip":"9630542"},{"town":"喜久田町原一丁目","koaza":"","lat":37.467362,"lng":140.347776,"zip":"9630542"},{"town":"喜久田町前田沢","koaza":"","lat":37.471461,"lng":140.34328,"zip":"9630543"},{"town":"喜久田町堀之内","koaza":"","lat":37.457487,"lng":140.336373,"zip":"9630541"},{"town":"熱海町熱海二丁目","koaza":"","lat":37.480369,"lng":140.274466,"zip":"9631309"},{"town":"熱海町熱海一丁目","koaza":"","lat":37.482354,"lng":140.273503,"zip":"9631309"},{"town":"熱海町熱海三丁目","koaza":"","lat":37.479624,"lng":140.271843,"zip":"9631309"},{"town":"熱海町熱海四丁目","koaza":"","lat":37.48328,"lng":140.26682,"zip":"9631309"},{"town":"熱海町熱海六丁目","koaza":"","lat":37.486949,"lng":140.274556,"zip":"9631309"},{"town":"熱海町熱海五丁目","koaza":"","lat":37.489117,"lng":140.260135,"zip":"9631309"},{"town":"字榧ノ木","koaza":"","lat":37.387134,"lng":140.396806,"zip":"9630000"},{"town":"字桑野北町","koaza":"","lat":37.407311,"lng":140.349974,"zip":"9630000"},{"town":"字大名艮","koaza":"","lat":37.403862,"lng":140.38949,"zip":"9630000"},{"town":"字小関谷地","koaza":"","lat":37.408057,"lng":140.348558,"zip":"9630000"},{"town":"鳴神三丁目","koaza":"","lat":37.393772,"lng":140.335168,"zip":"9630207"},{"town":"静町","koaza":"","lat":37.388726,"lng":140.337047,"zip":"9630203"},{"town":"谷地本町","koaza":"","lat":37.388196,"lng":140.332497,"zip":"9630231"},{"town":"中野二丁目","koaza":"","lat":37.389908,"lng":140.330803,"zip":"9630206"},{"town":"静西一丁目","koaza":"","lat":37.38784,"lng":140.330187,"zip":"9630232"},{"town":"大槻町","koaza":"","lat":37.388058,"lng":140.308032,"zip":"9630201"},{"town":"静西二丁目","koaza":"","lat":37.388923,"lng":140.327016,"zip":"9630232"},{"town":"日和田町高倉","koaza":"","lat":37.47364,"lng":140.394095,"zip":"9630531"},{"town":"西田町大網三丁目","koaza":"","lat":37.475497,"lng":140.418406,"zip":"9630924"},{"town":"西田町大網二丁目","koaza":"","lat":37.474079,"lng":140.414381,"zip":"9630924"},{"town":"西田町鬼生田","koaza":"","lat":37.471043,"lng":140.435019,"zip":"9630921"},{"town":"西田町三町目","koaza":"","lat":37.452639,"lng":140.441902,"zip":"9630922"},{"town":"安積町笹川","koaza":"","lat":37.34793,"lng":140.360523,"zip":"9630102"},{"town":"御前南六丁目","koaza":"","lat":37.386112,"lng":140.328724,"zip":"9630209"},{"town":"安積荒井本町","koaza":"","lat":37.366131,"lng":140.368158,"zip":"9630116"},{"town":"巳六段","koaza":"","lat":37.371622,"lng":140.352052,"zip":"9630119"},{"town":"安積荒井一丁目","koaza":"","lat":37.369441,"lng":140.354146,"zip":"9630117"},{"town":"安積荒井二丁目","koaza":"","lat":37.368235,"lng":140.360141,"zip":"9630117"},{"town":"安積荒井三丁目","koaza":"","lat":37.369785,"lng":140.360598,"zip":"9630117"},{"town":"安積北井一丁目","koaza":"","lat":37.370904,"lng":140.355675,"zip":"9630118"},{"town":"安積北井二丁目","koaza":"","lat":37.372665,"lng":140.363307,"zip":"9630118"},{"town":"富田東一丁目","koaza":"","lat":37.419231,"lng":140.364972,"zip":"9638047"},{"town":"富田東二丁目","koaza":"","lat":37.422715,"lng":140.36491,"zip":"9638047"},{"town":"富田東三丁目","koaza":"","lat":37.425426,"lng":140.365829,"zip":"9638047"},{"town":"富田東四丁目","koaza":"","lat":37.423916,"lng":140.368619,"zip":"9638047"},{"town":"富田東五丁目","koaza":"","lat":37.42279,"lng":140.372547,"zip":"9638047"},{"town":"富田東六丁目","koaza":"","lat":37.421539,"lng":140.37554,"zip":"9638047"},{"town":"八山田西五丁目","koaza":"","lat":37.427041,"lng":140.370393,"zip":"9638053"},{"town":"上伊豆島一丁目","koaza":"","lat":37.46131,"lng":140.300903,"zip":"9631311"},{"town":"八山田西二丁目","koaza":"","lat":37.429892,"lng":140.359712,"zip":"9638053"},{"town":"八山田西四丁目","koaza":"","lat":37.429747,"lng":140.368989,"zip":"9638053"},{"town":"八山田西三丁目","koaza":"","lat":37.428126,"lng":140.365435,"zip":"9638053"},{"town":"八山田西一丁目","koaza":"","lat":37.427706,"lng":140.359849,"zip":"9638053"},{"town":"三穂田町下守屋","koaza":"壇ノ越山","lat":37.34177,"lng":140.243243,"zip":"9630124"},{"town":"三穂田町下守屋","koaza":"舘ノ前","lat":37.340768,"lng":140.249395,"zip":"9630124"},{"town":"三穂田町下守屋","koaza":"上豊舘","lat":37.338461,"lng":140.25003,"zip":"9630124"},{"town":"逢瀬町多田野","koaza":"弘法橋","lat":37.397536,"lng":140.255723,"zip":"9630213"},{"town":"三穂田町下守屋","koaza":"竹ノ内","lat":37.338227,"lng":140.251573,"zip":"9630124"},{"town":"熱海町高玉","koaza":"二渡","lat":37.49431,"lng":140.253697,"zip":"9631302"},{"town":"三穂田町下守屋","koaza":"下豊舘","lat":37.340309,"lng":140.252047,"zip":"9630124"},{"town":"三穂田町下守屋","koaza":"牛田","lat":37.340082,"lng":140.252687,"zip":"9630124"},{"town":"三穂田町下守屋","koaza":"道木","lat":37.341114,"lng":140.254887,"zip":"9630124"},{"town":"三穂田町山口","koaza":"上塩ノ原","lat":37.3609,"lng":140.257652,"zip":"9630126"},{"town":"三穂田町富岡","koaza":"西原","lat":37.346568,"lng":140.258815,"zip":"9630125"},{"town":"逢瀬町多田野","koaza":"念仏坦","lat":37.397484,"lng":140.257991,"zip":"9630213"},{"town":"逢瀬町多田野","koaza":"上台林","lat":37.405368,"lng":140.258938,"zip":"9630213"},{"town":"三穂田町富岡","koaza":"大沢原","lat":37.358739,"lng":140.257178,"zip":"9630125"},{"town":"三穂田町富岡","koaza":"風札","lat":37.350831,"lng":140.258178,"zip":"9630125"},{"town":"逢瀬町多田野","koaza":"十石俵","lat":37.399217,"lng":140.255576,"zip":"9630213"},{"town":"三穂田町山口","koaza":"南林","lat":37.371933,"lng":140.259561,"zip":"9630126"},{"town":"三穂田町富岡","koaza":"堰ノ上","lat":37.345006,"lng":140.263519,"zip":"9630125"},{"town":"三穂田町富岡","koaza":"築舘","lat":37.349253,"lng":140.259794,"zip":"9630125"},{"town":"三穂田町富岡","koaza":"阿弥陀","lat":37.35316,"lng":140.259316,"zip":"9630125"},{"town":"三穂田町山口","koaza":"下塩原","lat":37.361164,"lng":140.260239,"zip":"9630126"},{"town":"三穂田町山口","koaza":"芦ノ口","lat":37.375998,"lng":140.26269,"zip":"9630126"},{"town":"三穂田町山口","koaza":"深田","lat":37.382753,"lng":140.260355,"zip":"9630126"},{"town":"三穂田町富岡","koaza":"小林","lat":37.351117,"lng":140.260699,"zip":"9630125"},{"town":"三穂田町山口","koaza":"塩ノ入","lat":37.373669,"lng":140.25986,"zip":"9630126"},{"town":"逢瀬町河内","koaza":"耕所","lat":37.416793,"lng":140.261127,"zip":"9630212"},{"town":"三穂田町山口","koaza":"塩原前山","lat":37.359146,"lng":140.26139,"zip":"9630126"},{"town":"三穂田町山口","koaza":"平林","lat":37.367176,"lng":140.264824,"zip":"9630126"},{"town":"三穂田町富岡","koaza":"藤沼","lat":37.356341,"lng":140.261387,"zip":"9630125"},{"town":"三穂田町山口","koaza":"荒池","lat":37.36809,"lng":140.260555,"zip":"9630126"},{"town":"三穂田町山口","koaza":"団子森","lat":37.38386,"lng":140.261727,"zip":"9630126"},{"town":"三穂田町山口","koaza":"池上","lat":37.364221,"lng":140.264985,"zip":"9630126"},{"town":"逢瀬町多田野","koaza":"下台","lat":37.406377,"lng":140.262908,"zip":"9630213"},{"town":"三穂田町山口","koaza":"山神前","lat":37.367889,"lng":140.262569,"zip":"9630126"},{"town":"三穂田町富岡","koaza":"山寺","lat":37.346432,"lng":140.262533,"zip":"9630125"},{"town":"三穂田町山口","koaza":"堀込","lat":37.380353,"lng":140.261456,"zip":"9630126"},{"town":"三穂田町山口","koaza":"前芦ノ口","lat":37.374922,"lng":140.263567,"zip":"9630126"},{"town":"三穂田町山口","koaza":"上川底","lat":37.358059,"lng":140.263553,"zip":"9630126"},{"town":"逢瀬町多田野","koaza":"西赤穂木","lat":37.40451,"lng":140.264201,"zip":"9630213"},{"town":"逢瀬町多田野","koaza":"上町屋","lat":37.399382,"lng":140.264369,"zip":"9630213"},{"town":"三穂田町山口","koaza":"川底原","lat":37.35895,"lng":140.267119,"zip":"9630126"},{"town":"三穂田町山口","koaza":"坂下","lat":37.381031,"lng":140.263414,"zip":"9630126"},{"town":"熱海町高玉","koaza":"樋口","lat":37.490977,"lng":140.276884,"zip":"9631302"},{"town":"三穂田町富岡","koaza":"南森","lat":37.351082,"lng":140.263243,"zip":"9630125"},{"town":"逢瀬町多田野","koaza":"馬捨場","lat":37.404592,"lng":140.26896,"zip":"9630213"},{"town":"三穂田町富岡","koaza":"田楽内","lat":37.347275,"lng":140.266764,"zip":"9630125"},{"town":"逢瀬町多田野","koaza":"南原","lat":37.393164,"lng":140.269744,"zip":"9630213"},{"town":"三穂田町富岡","koaza":"首尾内","lat":37.346269,"lng":140.26681,"zip":"9630125"},{"town":"逢瀬町河内","koaza":"篭原","lat":37.426151,"lng":140.267824,"zip":"9630212"},{"town":"熱海町安子島","koaza":"大峯","lat":37.48188,"lng":140.267052,"zip":"9631304"},{"town":"三穂田町山口","koaza":"大森","lat":37.365479,"lng":140.269642,"zip":"9630126"},{"town":"三穂田町山口","koaza":"愛宕原","lat":37.361942,"lng":140.267215,"zip":"9630126"},{"town":"三穂田町富岡","koaza":"柿ノ口","lat":37.347155,"lng":140.270965,"zip":"9630125"},{"town":"逢瀬町河内","koaza":"猫神","lat":37.417189,"lng":140.268578,"zip":"9630212"},{"town":"逢瀬町河内","koaza":"馬場川原","lat":37.418388,"lng":140.268348,"zip":"9630212"},{"town":"逢瀬町多田野","koaza":"下町屋","lat":37.397061,"lng":140.267604,"zip":"9630213"},{"town":"三穂田町富岡","koaza":"佐矢田","lat":37.353943,"lng":140.267654,"zip":"9630125"},{"town":"三穂田町富岡","koaza":"右エ門五郎内","lat":37.354834,"lng":140.267984,"zip":"9630125"},{"town":"逢瀬町多田野","koaza":"寺向","lat":37.395919,"lng":140.26909,"zip":"9630213"},{"town":"三穂田町富岡","koaza":"鯨","lat":37.349655,"lng":140.268896,"zip":"9630125"},{"town":"三穂田町山口","koaza":"河原田","lat":37.372321,"lng":140.269006,"zip":"9630126"},{"town":"逢瀬町多田野","koaza":"本郷","lat":37.398928,"lng":140.269677,"zip":"9630213"},{"town":"三穂田町富岡","koaza":"腰巻","lat":37.34517,"lng":140.269386,"zip":"9630125"},{"town":"逢瀬町河内","koaza":"屋敷","lat":37.418483,"lng":140.27105,"zip":"9630212"},{"town":"三穂田町富岡","koaza":"三本木原","lat":37.342656,"lng":140.271868,"zip":"9630125"},{"town":"三穂田町富岡","koaza":"寺西","lat":37.347581,"lng":140.269495,"zip":"9630125"},{"town":"逢瀬町多田野","koaza":"宮南","lat":37.395269,"lng":140.271801,"zip":"9630213"},{"town":"逢瀬町多田野","koaza":"北田","lat":37.401004,"lng":140.270714,"zip":"9630213"},{"town":"三穂田町富岡","koaza":"吉室内","lat":37.344419,"lng":140.270285,"zip":"9630125"},{"town":"三穂田町富岡","koaza":"春日","lat":37.355033,"lng":140.271124,"zip":"9630125"},{"town":"三穂田町山口","koaza":"清水","lat":37.372788,"lng":140.272135,"zip":"9630126"},{"town":"逢瀬町多田野","koaza":"長倉山","lat":37.406724,"lng":140.271765,"zip":"9630213"},{"town":"逢瀬町河内","koaza":"西荒井","lat":37.419809,"lng":140.272206,"zip":"9630212"},{"town":"逢瀬町多田野","koaza":"元日","lat":37.404167,"lng":140.272221,"zip":"9630213"},{"town":"逢瀬町多田野","koaza":"久保田","lat":37.396934,"lng":140.272407,"zip":"9630213"},{"town":"三穂田町富岡","koaza":"一本杉","lat":37.351115,"lng":140.273173,"zip":"9630125"},{"town":"三穂田町山口","koaza":"前川原","lat":37.369443,"lng":140.272811,"zip":"9630126"},{"town":"逢瀬町多田野","koaza":"浄土松道","lat":37.391225,"lng":140.274811,"zip":"9630213"},{"town":"三穂田町富岡","koaza":"下茂内","lat":37.352359,"lng":140.273289,"zip":"9630125"},{"town":"熱海町高玉","koaza":"北石田","lat":37.503032,"lng":140.274048,"zip":"9631302"},{"town":"三穂田町山口","koaza":"宝地内","lat":37.368744,"lng":140.275084,"zip":"9630126"},{"town":"三穂田町山口","koaza":"舘","lat":37.371934,"lng":140.274021,"zip":"9630126"},{"town":"逢瀬町河内","koaza":"申久保","lat":37.407192,"lng":140.27783,"zip":"9630212"},{"town":"三穂田町富岡","koaza":"光西寺","lat":37.353069,"lng":140.274583,"zip":"9630125"},{"town":"三穂田町富岡","koaza":"台田","lat":37.348036,"lng":140.274001,"zip":"9630125"},{"town":"逢瀬町多田野","koaza":"北大界","lat":37.396033,"lng":140.27545,"zip":"9630213"},{"town":"逢瀬町河内","koaza":"町東","lat":37.417769,"lng":140.274125,"zip":"9630212"},{"town":"逢瀬町河内","koaza":"寺東","lat":37.41982,"lng":140.273141,"zip":"9630212"},{"town":"三穂田町富岡","koaza":"本郷","lat":37.350266,"lng":140.274056,"zip":"9630125"},{"town":"熱海町長橋","koaza":"後庵向","lat":37.45375,"lng":140.274491,"zip":"9631307"},{"town":"三穂田町山口","koaza":"前田","lat":37.369135,"lng":140.276579,"zip":"9630126"},{"town":"三穂田町富岡","koaza":"上臍川","lat":37.355812,"lng":140.275699,"zip":"9630125"},{"town":"三穂田町山口","koaza":"中田","lat":37.371786,"lng":140.275719,"zip":"9630126"},{"town":"三穂田町鍋山","koaza":"上十方","lat":37.340905,"lng":140.275915,"zip":"9630123"},{"town":"逢瀬町夏出","koaza":"舘下","lat":37.450707,"lng":140.275811,"zip":"9630214"},{"town":"逢瀬町河内","koaza":"中山","lat":37.426619,"lng":140.28043,"zip":"9630212"},{"town":"熱海町高玉","koaza":"南石田","lat":37.501581,"lng":140.275621,"zip":"9631302"},{"town":"逢瀬町夏出","koaza":"上家","lat":37.452183,"lng":140.276163,"zip":"9630214"},{"town":"三穂田町富岡","koaza":"台東","lat":37.350271,"lng":140.276125,"zip":"9630125"},{"town":"熱海町高玉","koaza":"西田仲","lat":37.502962,"lng":140.275921,"zip":"9631302"},{"town":"三穂田町富岡","koaza":"頓学","lat":37.347915,"lng":140.276316,"zip":"9630125"},{"town":"逢瀬町河内","koaza":"中谷地","lat":37.417535,"lng":140.277911,"zip":"9630212"},{"town":"逢瀬町夏出","koaza":"苗代","lat":37.451485,"lng":140.277135,"zip":"9630214"},{"town":"逢瀬町多田野","koaza":"清水池","lat":37.391776,"lng":140.278046,"zip":"9630213"},{"town":"熱海町玉川","koaza":"反田","lat":37.482188,"lng":140.277416,"zip":"9631303"},{"town":"逢瀬町多田野","koaza":"大界","lat":37.39311,"lng":140.282159,"zip":"9630213"},{"town":"三穂田町富岡","koaza":"台畑","lat":37.353013,"lng":140.277168,"zip":"9630125"},{"town":"三穂田町富岡","koaza":"田宿下","lat":37.349877,"lng":140.277085,"zip":"9630125"},{"town":"三穂田町富岡","koaza":"北坊ノ坦","lat":37.355468,"lng":140.281446,"zip":"9630125"},{"town":"熱海町高玉","koaza":"麻生沢","lat":37.490771,"lng":140.278488,"zip":"9631302"},{"town":"熱海町長橋","koaza":"車屋","lat":37.452397,"lng":140.281254,"zip":"9631307"},{"town":"三穂田町山口","koaza":"糯田","lat":37.36476,"lng":140.278939,"zip":"9630126"},{"town":"熱海町玉川","koaza":"阿曾沢","lat":37.484395,"lng":140.28224,"zip":"9631303"},{"town":"逢瀬町多田野","koaza":"北山岸","lat":37.404858,"lng":140.28119,"zip":"9630213"},{"town":"熱海町玉川","koaza":"対面原","lat":37.482318,"lng":140.279613,"zip":"9631303"},{"town":"逢瀬町多田野","koaza":"河田堀","lat":37.392118,"lng":140.284158,"zip":"9630213"},{"town":"熱海町高玉","koaza":"北仲田","lat":37.497489,"lng":140.280062,"zip":"9631302"},{"town":"逢瀬町多田野","koaza":"段ノ腰","lat":37.398651,"lng":140.282972,"zip":"9630213"},{"town":"三穂田町山口","koaza":"篠搏","lat":37.363559,"lng":140.281808,"zip":"9630126"},{"town":"三穂田町鍋山","koaza":"前原","lat":37.339079,"lng":140.281097,"zip":"9630123"},{"town":"熱海町安子島","koaza":"荻袋","lat":37.477627,"lng":140.28174,"zip":"9631304"},{"town":"三穂田町山口","koaza":"膳部","lat":37.365649,"lng":140.281388,"zip":"9630126"},{"town":"三穂田町鍋山","koaza":"鳥居戸屋敷","lat":37.348041,"lng":140.28267,"zip":"9630123"},{"town":"逢瀬町河内","koaza":"下笊内","lat":37.414866,"lng":140.283906,"zip":"9630212"},{"town":"三穂田町山口","koaza":"早稲田","lat":37.364088,"lng":140.282264,"zip":"9630126"},{"town":"熱海町長橋","koaza":"植松","lat":37.452364,"lng":140.284367,"zip":"9631307"},{"town":"逢瀬町多田野","koaza":"萱林","lat":37.40222,"lng":140.289868,"zip":"9630213"},{"town":"熱海町高玉","koaza":"南仲田","lat":37.495911,"lng":140.28354,"zip":"9631302"},{"town":"熱海町高玉","koaza":"田代","lat":37.500337,"lng":140.282751,"zip":"9631302"},{"town":"三穂田町山口","koaza":"常光","lat":37.367115,"lng":140.283061,"zip":"9630126"},{"town":"三穂田町八幡","koaza":"篠搏","lat":37.361761,"lng":140.285648,"zip":"9630129"},{"town":"三穂田町大谷","koaza":"西向","lat":37.368968,"lng":140.284702,"zip":"9630127"},{"town":"逢瀬町河内","koaza":"藤内打","lat":37.410648,"lng":140.280236,"zip":"9630212"},{"town":"逢瀬町多田野","koaza":"白石","lat":37.389521,"lng":140.282457,"zip":"9630213"},{"town":"逢瀬町河内","koaza":"笊内","lat":37.421117,"lng":140.278714,"zip":"9630212"},{"town":"三穂田町大谷","koaza":"北向","lat":37.379931,"lng":140.287138,"zip":"9630127"},{"town":"逢瀬町多田野","koaza":"平山","lat":37.385863,"lng":140.286257,"zip":"9630213"},{"town":"熱海町安子島","koaza":"大沢","lat":37.476193,"lng":140.287101,"zip":"9631304"},{"town":"三穂田町鍋山","koaza":"上屋敷","lat":37.348296,"lng":140.284807,"zip":"9630123"},{"town":"逢瀬町河内","koaza":"蔵田","lat":37.411637,"lng":140.285296,"zip":"9630212"},{"town":"片平町","koaza":"中池","lat":37.419263,"lng":140.286493,"zip":"9630211"},{"town":"逢瀬町多田野","koaza":"木置場","lat":37.389072,"lng":140.284468,"zip":"9630213"},{"town":"逢瀬町多田野","koaza":"道上","lat":37.390633,"lng":140.285282,"zip":"9630213"},{"town":"逢瀬町多田野","koaza":"釜場","lat":37.389196,"lng":140.28525,"zip":"9630213"},{"town":"三穂田町八幡","koaza":"前畑","lat":37.35768,"lng":140.286349,"zip":"9630129"},{"town":"熱海町玉川","koaza":"久保田","lat":37.481514,"lng":140.285814,"zip":"9631303"},{"town":"三穂田町八幡","koaza":"北山","lat":37.363914,"lng":140.287291,"zip":"9630129"},{"town":"三穂田町鍋山","koaza":"清水尻","lat":37.3478,"lng":140.286211,"zip":"9630123"},{"town":"熱海町長橋","koaza":"元前田","lat":37.459589,"lng":140.286785,"zip":"9631307"},{"town":"三穂田町鍋山","koaza":"六角","lat":37.344297,"lng":140.286947,"zip":"9630123"},{"town":"熱海町長橋","koaza":"舘","lat":37.450913,"lng":140.2864,"zip":"9631307"},{"town":"三穂田町八幡","koaza":"台田","lat":37.362624,"lng":140.287179,"zip":"9630129"},{"town":"逢瀬町多田野","koaza":"十文字","lat":37.392086,"lng":140.288938,"zip":"9630213"},{"town":"三穂田町鍋山","koaza":"鍜治屋敷","lat":37.345898,"lng":140.288467,"zip":"9630123"},{"town":"三穂田町富岡","koaza":"鹿ノ崎","lat":37.35665,"lng":140.287132,"zip":"9630125"},{"town":"三穂田町鍋山","koaza":"三斗蒔","lat":37.348669,"lng":140.288764,"zip":"9630123"},{"town":"三穂田町鍋山","koaza":"仲田屋敷","lat":37.346896,"lng":140.289938,"zip":"9630123"},{"town":"三穂田町八幡","koaza":"西屋敷","lat":37.358282,"lng":140.288228,"zip":"9630129"},{"town":"三穂田町大谷","koaza":"東向","lat":37.369017,"lng":140.290236,"zip":"9630127"},{"town":"三穂田町大谷","koaza":"大谷前田","lat":37.372879,"lng":140.287639,"zip":"9630127"},{"town":"逢瀬町河内","koaza":"下白坪","lat":37.412889,"lng":140.288514,"zip":"9630212"},{"town":"熱海町長橋","koaza":"竹ノ下","lat":37.451997,"lng":140.287937,"zip":"9631307"},{"town":"熱海町長橋","koaza":"反田","lat":37.452818,"lng":140.288704,"zip":"9631307"},{"town":"逢瀬町多田野","koaza":"柳河原","lat":37.388455,"lng":140.289066,"zip":"9630213"},{"town":"逢瀬町多田野","koaza":"戸ノ内","lat":37.396921,"lng":140.288759,"zip":"9630213"},{"town":"熱海町長橋","koaza":"舘山","lat":37.449699,"lng":140.288082,"zip":"9631307"},{"town":"三穂田町大谷","koaza":"西前田","lat":37.375148,"lng":140.288268,"zip":"9630127"},{"town":"逢瀬町河内","koaza":"樋下","lat":37.414879,"lng":140.292969,"zip":"9630212"},{"town":"熱海町長橋","koaza":"東原","lat":37.451481,"lng":140.288835,"zip":"9631307"},{"town":"三穂田町鍋山","koaza":"行人原","lat":37.343218,"lng":140.290531,"zip":"9630123"},{"town":"逢瀬町多田野","koaza":"砂原林","lat":37.395258,"lng":140.289984,"zip":"9630213"},{"town":"片平町","koaza":"北","lat":37.421542,"lng":140.288436,"zip":"9630211"},{"town":"三穂田町大谷","koaza":"旱田","lat":37.373816,"lng":140.289344,"zip":"9630127"},{"town":"熱海町長橋","koaza":"南浦","lat":37.448325,"lng":140.290374,"zip":"9631307"},{"town":"三穂田町八幡","koaza":"東屋敷","lat":37.358443,"lng":140.290801,"zip":"9630129"},{"town":"三穂田町鍋山","koaza":"向原","lat":37.343932,"lng":140.288985,"zip":"9630123"},{"town":"三穂田町八幡","koaza":"粧坂","lat":37.364391,"lng":140.292429,"zip":"9630129"},{"town":"三穂田町大谷","koaza":"三墓","lat":37.376914,"lng":140.290696,"zip":"9630127"},{"town":"三穂田町八幡","koaza":"後町","lat":37.359864,"lng":140.28963,"zip":"9630129"},{"town":"熱海町高玉","koaza":"太田","lat":37.490484,"lng":140.290636,"zip":"9631302"},{"town":"三穂田町駒屋","koaza":"柳田","lat":37.357697,"lng":140.297323,"zip":"9630128"},{"town":"三穂田町大谷","koaza":"東前田","lat":37.375523,"lng":140.289651,"zip":"9630127"},{"town":"大槻町","koaza":"松井西林","lat":37.388752,"lng":140.292836,"zip":"9630201"},{"town":"逢瀬町多田野","koaza":"石橋山","lat":37.398889,"lng":140.291899,"zip":"9630213"},{"town":"三穂田町鍋山","koaza":"四十坦","lat":37.352526,"lng":140.290625,"zip":"9630123"},{"town":"熱海町上伊豆島","koaza":"小倉","lat":37.466205,"lng":140.291093,"zip":"9631306"},{"town":"逢瀬町多田野","koaza":"川前","lat":37.387343,"lng":140.290353,"zip":"9630213"},{"town":"逢瀬町河内","koaza":"鳥越","lat":37.416175,"lng":140.286461,"zip":"9630212"},{"town":"逢瀬町多田野","koaza":"堺山","lat":37.401718,"lng":140.291739,"zip":"9630213"},{"town":"逢瀬町河内","koaza":"久保","lat":37.417075,"lng":140.291178,"zip":"9630212"},{"town":"逢瀬町河内","koaza":"熊越","lat":37.443761,"lng":140.291779,"zip":"9630212"},{"town":"逢瀬町河内","koaza":"原","lat":37.4126,"lng":140.291049,"zip":"9630212"},{"town":"逢瀬町河内","koaza":"原前舘","lat":37.409933,"lng":140.293453,"zip":"9630212"},{"town":"逢瀬町河内","koaza":"新小屋","lat":37.416047,"lng":140.292044,"zip":"9630212"},{"town":"熱海町長橋","koaza":"光明段","lat":37.451754,"lng":140.294502,"zip":"9631307"},{"town":"三穂田町大谷","koaza":"三辻","lat":37.374592,"lng":140.292783,"zip":"9630127"},{"town":"逢瀬町河内","koaza":"上納豆内","lat":37.404138,"lng":140.293311,"zip":"9630212"},{"town":"片平町","koaza":"相の山","lat":37.419984,"lng":140.29481,"zip":"9630211"},{"town":"熱海町玉川","koaza":"鳴神","lat":37.487181,"lng":140.292407,"zip":"9631303"},{"town":"三穂田町鍋山","koaza":"仲田山","lat":37.349254,"lng":140.292943,"zip":"9630123"},{"town":"熱海町高玉","koaza":"地福平","lat":37.493001,"lng":140.297793,"zip":"9631302"},{"town":"片平町","koaza":"西蛇光","lat":37.425546,"lng":140.294418,"zip":"9630211"},{"town":"熱海町安子島","koaza":"山ノ下","lat":37.475899,"lng":140.298621,"zip":"9631304"},{"town":"三穂田町大谷","koaza":"中北ノ原","lat":37.379798,"lng":140.294199,"zip":"9630127"},{"town":"逢瀬町河内","koaza":"石橋","lat":37.402049,"lng":140.296242,"zip":"9630212"},{"town":"逢瀬町河内","koaza":"平内","lat":37.410125,"lng":140.294848,"zip":"9630212"},{"town":"大槻町","koaza":"向山西","lat":37.383446,"lng":140.294447,"zip":"9630201"},{"town":"三穂田町大谷","koaza":"二ツ坦","lat":37.367246,"lng":140.29688,"zip":"9630127"},{"town":"熱海町玉川","koaza":"中島","lat":37.484345,"lng":140.295612,"zip":"9631303"},{"town":"熱海町高玉","koaza":"地福","lat":37.494185,"lng":140.295876,"zip":"9631302"},{"town":"三穂田町大谷","koaza":"万蔵塚","lat":37.376213,"lng":140.295391,"zip":"9630127"},{"town":"大槻町","koaza":"山王西","lat":37.374768,"lng":140.295729,"zip":"9630201"},{"town":"熱海町安子島","koaza":"北吉野","lat":37.471606,"lng":140.291392,"zip":"9631304"},{"town":"熱海町玉川","koaza":"舘山","lat":37.48214,"lng":140.295831,"zip":"9631303"},{"town":"三穂田町鍋山","koaza":"四十坦原","lat":37.35147,"lng":140.290693,"zip":"9630123"},{"town":"大槻町","koaza":"横山","lat":37.397555,"lng":140.296488,"zip":"9630201"},{"town":"大槻町","koaza":"稲荷山","lat":37.38071,"lng":140.295731,"zip":"9630201"},{"town":"三穂田町駒屋","koaza":"谷地ノ台","lat":37.37054,"lng":140.297465,"zip":"9630128"},{"town":"大槻町","koaza":"的場","lat":37.387113,"lng":140.296275,"zip":"9630201"},{"town":"大槻町","koaza":"大橋向山","lat":37.379332,"lng":140.301042,"zip":"9630201"},{"town":"熱海町安子島","koaza":"高森","lat":37.471105,"lng":140.302791,"zip":"9631304"},{"town":"大槻町","koaza":"大橋","lat":37.386079,"lng":140.296007,"zip":"9630201"},{"town":"大槻町","koaza":"松井","lat":37.388134,"lng":140.296899,"zip":"9630201"},{"town":"大槻町","koaza":"新屋敷","lat":37.386157,"lng":140.296887,"zip":"9630201"},{"town":"熱海町玉川","koaza":"菖蒲根","lat":37.487844,"lng":140.29761,"zip":"9631303"},{"town":"三穂田町駒屋","koaza":"上池下","lat":37.365805,"lng":140.298466,"zip":"9630128"},{"town":"大槻町","koaza":"谷地台","lat":37.372563,"lng":140.298662,"zip":"9630201"},{"town":"片平町","koaza":"漆房","lat":37.417787,"lng":140.300914,"zip":"9630211"},{"town":"大槻町","koaza":"矢地内西林","lat":37.390481,"lng":140.298693,"zip":"9630201"},{"town":"片平町","koaza":"米沢","lat":37.410311,"lng":140.299622,"zip":"9630211"},{"town":"熱海町玉川","koaza":"蟹沢","lat":37.480913,"lng":140.29772,"zip":"9631303"},{"town":"熱海町玉川","koaza":"横道","lat":37.490367,"lng":140.298582,"zip":"9631303"},{"town":"三穂田町駒屋","koaza":"四十坦原","lat":37.353711,"lng":140.299482,"zip":"9630128"},{"town":"熱海町安子島","koaza":"植松","lat":37.477487,"lng":140.29898,"zip":"9631304"},{"town":"三穂田町八幡","koaza":"北高玉","lat":37.364168,"lng":140.297537,"zip":"9630129"},{"town":"片平町","koaza":"王宮","lat":37.416724,"lng":140.294481,"zip":"9630211"},{"town":"大槻町","koaza":"松井東","lat":37.385901,"lng":140.29949,"zip":"9630201"},{"town":"片平町","koaza":"行屋","lat":37.423338,"lng":140.298809,"zip":"9630211"},{"town":"片平町","koaza":"庚坦原","lat":37.407082,"lng":140.308672,"zip":"9630211"},{"town":"大槻町","koaza":"上ノ山","lat":37.37781,"lng":140.299257,"zip":"9630201"},{"town":"三穂田町野田","koaza":"山神","lat":37.34543,"lng":140.300227,"zip":"9630122"},{"town":"片平町","koaza":"十戸前","lat":37.434414,"lng":140.298533,"zip":"9630211"},{"town":"大槻町","koaza":"南下大谷","lat":37.374148,"lng":140.299299,"zip":"9630201"},{"town":"片平町","koaza":"下向","lat":37.436387,"lng":140.3015,"zip":"9630211"},{"town":"三穂田町野田","koaza":"北原山","lat":37.348357,"lng":140.300599,"zip":"9630122"},{"town":"三穂田町駒屋","koaza":"杉内後","lat":37.363237,"lng":140.30101,"zip":"9630128"},{"town":"三穂田町野田","koaza":"神鳴山","lat":37.341888,"lng":140.300796,"zip":"9630122"},{"town":"熱海町玉川","koaza":"横川","lat":37.481086,"lng":140.300804,"zip":"9631303"},{"town":"大槻町","koaza":"下大谷東","lat":37.372419,"lng":140.300355,"zip":"9630201"},{"town":"大槻町","koaza":"矢地内","lat":37.3911,"lng":140.301653,"zip":"9630201"},{"town":"三穂田町駒屋","koaza":"東谷地ノ台","lat":37.369912,"lng":140.300504,"zip":"9630128"},{"town":"大槻町","koaza":"新林","lat":37.371488,"lng":140.301524,"zip":"9630201"},{"town":"大槻町","koaza":"下大谷北","lat":37.376619,"lng":140.301785,"zip":"9630201"},{"town":"三穂田町野田","koaza":"北原","lat":37.347263,"lng":140.300716,"zip":"9630122"},{"town":"大槻町","koaza":"中ノ平","lat":37.398653,"lng":140.312852,"zip":"9630201"},{"town":"大槻町","koaza":"下大橋","lat":37.380833,"lng":140.302523,"zip":"9630201"},{"town":"熱海町上伊豆島","koaza":"堀向","lat":37.456478,"lng":140.301058,"zip":"9631306"},{"town":"大槻町","koaza":"瀬戸","lat":37.39197,"lng":140.302187,"zip":"9630201"},{"town":"大槻町","koaza":"南台","lat":37.374318,"lng":140.302674,"zip":"9630201"},{"town":"片平町","koaza":"愛宕裏","lat":37.421404,"lng":140.30155,"zip":"9630211"},{"town":"大槻町","koaza":"漆棒","lat":37.394205,"lng":140.303271,"zip":"9630201"},{"town":"三穂田町野田","koaza":"池下","lat":37.351161,"lng":140.304155,"zip":"9630122"},{"town":"三穂田町駒屋","koaza":"北原","lat":37.369861,"lng":140.303303,"zip":"9630128"},{"town":"三穂田町駒屋","koaza":"舘ノ後","lat":37.363928,"lng":140.302151,"zip":"9630128"},{"town":"三穂田町駒屋","koaza":"四斗蒔","lat":37.36156,"lng":140.301824,"zip":"9630128"},{"town":"三穂田町野田","koaza":"向山","lat":37.350083,"lng":140.303346,"zip":"9630122"},{"town":"片平町","koaza":"新町","lat":37.419407,"lng":140.303019,"zip":"9630211"},{"town":"片平町","koaza":"重郎作","lat":37.411058,"lng":140.301827,"zip":"9630211"},{"town":"大槻町","koaza":"北台","lat":37.375153,"lng":140.303695,"zip":"9630201"},{"town":"三穂田町駒屋","koaza":"入道淵","lat":37.359178,"lng":140.301651,"zip":"9630128"},{"town":"片平町","koaza":"古車","lat":37.417017,"lng":140.303486,"zip":"9630211"},{"town":"三穂田町野田","koaza":"前田","lat":37.344182,"lng":140.302197,"zip":"9630122"},{"town":"熱海町上伊豆島","koaza":"天神前","lat":37.455586,"lng":140.303344,"zip":"9631306"},{"town":"熱海町玉川","koaza":"影山","lat":37.482054,"lng":140.301972,"zip":"9631303"},{"town":"片平町","koaza":"天王裏","lat":37.421421,"lng":140.302782,"zip":"9630211"},{"town":"大槻町","koaza":"下大谷地","lat":37.383642,"lng":140.303938,"zip":"9630201"},{"town":"片平町","koaza":"東重郎作","lat":37.411267,"lng":140.303326,"zip":"9630211"},{"town":"三穂田町駒屋","koaza":"南覚前","lat":37.356828,"lng":140.303321,"zip":"9630128"},{"town":"三穂田町駒屋","koaza":"石橋","lat":37.362464,"lng":140.30284,"zip":"9630128"},{"town":"熱海町安子島","koaza":"南原","lat":37.473928,"lng":140.300961,"zip":"9631304"},{"town":"三穂田町駒屋","koaza":"二斗蒔","lat":37.361405,"lng":140.303849,"zip":"9630128"},{"town":"大槻町","koaza":"葉山下","lat":37.39591,"lng":140.30672,"zip":"9630201"},{"town":"片平町","koaza":"サラメキ","lat":37.427455,"lng":140.303678,"zip":"9630211"},{"town":"熱海町玉川","koaza":"上ノ原","lat":37.486042,"lng":140.305392,"zip":"9631303"},{"town":"三穂田町野田","koaza":"向","lat":37.347807,"lng":140.304555,"zip":"9630122"},{"town":"三穂田町野田","koaza":"白稲田","lat":37.346134,"lng":140.304555,"zip":"9630122"},{"town":"熱海町安子島","koaza":"町","lat":37.47548,"lng":140.307841,"zip":"9631304"},{"town":"熱海町安子島","koaza":"鹿野畑","lat":37.471583,"lng":140.306217,"zip":"9631304"},{"town":"三穂田町野田","koaza":"工藤台","lat":37.345032,"lng":140.305433,"zip":"9630122"},{"town":"片平町","koaza":"福内","lat":37.424986,"lng":140.304944,"zip":"9630211"},{"town":"熱海町安子島","koaza":"滝ノ上","lat":37.47654,"lng":140.304936,"zip":"9631304"},{"town":"大槻町","koaza":"胡桃沢","lat":37.379164,"lng":140.305157,"zip":"9630201"},{"town":"片平町","koaza":"北田","lat":37.422393,"lng":140.304816,"zip":"9630211"},{"town":"片平町","koaza":"元大谷地","lat":37.414399,"lng":140.308075,"zip":"9630211"},{"town":"大槻町","koaza":"南原","lat":37.37395,"lng":140.310701,"zip":"9630201"},{"town":"熱海町玉川","koaza":"屋敷","lat":37.482914,"lng":140.306192,"zip":"9631303"},{"town":"熱海町安子島","koaza":"五輪塔","lat":37.478201,"lng":140.305317,"zip":"9631304"},{"town":"熱海町玉川","koaza":"瀬戸","lat":37.484174,"lng":140.306069,"zip":"9631303"},{"town":"三穂田町野田","koaza":"中田","lat":37.346724,"lng":140.306183,"zip":"9630122"},{"town":"片平町","koaza":"外堀","lat":37.423089,"lng":140.306191,"zip":"9630211"},{"town":"三穂田町野田","koaza":"南原","lat":37.342167,"lng":140.306526,"zip":"9630122"},{"town":"安積町牛庭","koaza":"上牛庭","lat":37.346367,"lng":140.316024,"zip":"9630113"},{"town":"三穂田町川田","koaza":"犬ケ馬場","lat":37.354174,"lng":140.309039,"zip":"9630121"},{"town":"片平町","koaza":"南前","lat":37.419027,"lng":140.30611,"zip":"9630211"},{"town":"熱海町安子島","koaza":"輪ノ内","lat":37.469075,"lng":140.308254,"zip":"9631304"},{"town":"片平町","koaza":"下舘","lat":37.422334,"lng":140.30638,"zip":"9630211"},{"town":"片平町","koaza":"大町","lat":37.421186,"lng":140.306358,"zip":"9630211"},{"town":"熱海町玉川","koaza":"前田","lat":37.482026,"lng":140.305734,"zip":"9631303"},{"town":"三穂田町野田","koaza":"北又山","lat":37.351282,"lng":140.307755,"zip":"9630122"},{"town":"片平町","koaza":"北大町","lat":37.421112,"lng":140.307147,"zip":"9630211"},{"town":"三穂田町野田","koaza":"山崎","lat":37.343263,"lng":140.30507,"zip":"9630122"},{"town":"片平町","koaza":"西大町","lat":37.419889,"lng":140.307265,"zip":"9630211"},{"town":"片平町","koaza":"門口","lat":37.419103,"lng":140.30816,"zip":"9630211"},{"town":"三穂田町駒屋","koaza":"下南原","lat":37.357271,"lng":140.30928,"zip":"9630128"},{"town":"片平町","koaza":"幸新舘","lat":37.43419,"lng":140.308686,"zip":"9630211"},{"town":"熱海町上伊豆島","koaza":"四ツ谷西","lat":37.457902,"lng":140.307525,"zip":"9631306"},{"town":"片平町","koaza":"南万会","lat":37.426031,"lng":140.308633,"zip":"9630211"},{"town":"片平町","koaza":"櫟ケ沢","lat":37.415931,"lng":140.311399,"zip":"9630211"},{"town":"片平町","koaza":"木藤田","lat":37.418419,"lng":140.308402,"zip":"9630211"},{"town":"片平町","koaza":"樋下","lat":37.422701,"lng":140.307865,"zip":"9630211"},{"town":"片平町","koaza":"上寺","lat":37.441197,"lng":140.308875,"zip":"9630211"},{"town":"片平町","koaza":"町東","lat":37.420331,"lng":140.309036,"zip":"9630211"},{"town":"片平町","koaza":"大町東","lat":37.419638,"lng":140.308158,"zip":"9630211"},{"town":"片平町","koaza":"南万楷","lat":37.426364,"lng":140.308019,"zip":"9630211"},{"town":"片平町","koaza":"北町東","lat":37.421465,"lng":140.309293,"zip":"9630211"},{"town":"熱海町上伊豆島","koaza":"二升蒔","lat":37.45857,"lng":140.30894,"zip":"9631306"},{"town":"大槻町","koaza":"原畑","lat":37.382551,"lng":140.310791,"zip":"9630201"},{"town":"熱海町上伊豆島","koaza":"馬立","lat":37.462475,"lng":140.309495,"zip":"9631306"},{"town":"三穂田町川田","koaza":"渋染","lat":37.363164,"lng":140.311631,"zip":"9630121"},{"town":"片平町","koaza":"山田山","lat":37.432377,"lng":140.30967,"zip":"9630211"},{"town":"片平町","koaza":"花立","lat":37.413895,"lng":140.31079,"zip":"9630211"},{"town":"片平町","koaza":"深谷上屋敷","lat":37.437305,"lng":140.311556,"zip":"9630211"},{"town":"大槻町","koaza":"西勝ノ木","lat":37.39299,"lng":140.30773,"zip":"9630201"},{"town":"熱海町安子島","koaza":"桜畑","lat":37.47334,"lng":140.309744,"zip":"9631304"},{"town":"三穂田町川田","koaza":"西上ノ台","lat":37.358738,"lng":140.312899,"zip":"9630121"},{"town":"熱海町下伊豆島","koaza":"西田","lat":37.454165,"lng":140.314043,"zip":"9631305"},{"town":"熱海町安子島","koaza":"四ツ谷","lat":37.457508,"lng":140.311845,"zip":"9631304"},{"town":"片平町","koaza":"水上","lat":37.419799,"lng":140.311284,"zip":"9630211"},{"town":"大槻町","koaza":"万耕地","lat":37.381233,"lng":140.311607,"zip":"9630201"},{"town":"大槻町","koaza":"南原東","lat":37.374738,"lng":140.311137,"zip":"9630201"},{"town":"熱海町安子島","koaza":"石田","lat":37.475619,"lng":140.311759,"zip":"9631304"},{"town":"大槻町","koaza":"宮ノ前","lat":37.391493,"lng":140.313873,"zip":"9630201"},{"town":"片平町","koaza":"舘山","lat":37.432987,"lng":140.312448,"zip":"9630211"},{"town":"大槻町","koaza":"山下西","lat":37.382475,"lng":140.312429,"zip":"9630201"},{"town":"片平町","koaza":"地の岡","lat":37.420442,"lng":140.310614,"zip":"9630211"},{"town":"三穂田町川田","koaza":"東上ノ台","lat":37.354538,"lng":140.312101,"zip":"9630121"},{"town":"片平町","koaza":"並西勝","lat":37.421038,"lng":140.313408,"zip":"9630211"},{"town":"大槻町","koaza":"上柵","lat":37.391026,"lng":140.31256,"zip":"9630201"},{"town":"熱海町安子島","koaza":"二ノ谷","lat":37.46849,"lng":140.316295,"zip":"9631304"},{"town":"片平町","koaza":"平","lat":37.435998,"lng":140.311798,"zip":"9630211"},{"town":"大槻町","koaza":"長泥","lat":37.389463,"lng":140.313544,"zip":"9630201"},{"town":"片平町","koaza":"見物壇","lat":37.437541,"lng":140.31688,"zip":"9630211"},{"town":"熱海町安子島","koaza":"反畑","lat":37.473292,"lng":140.31304,"zip":"9631304"},{"town":"三穂田町川田","koaza":"皿池南","lat":37.351924,"lng":140.314001,"zip":"9630121"},{"town":"大槻町","koaza":"三角田","lat":37.386714,"lng":140.313645,"zip":"9630201"},{"town":"熱海町安子島","koaza":"外手","lat":37.45952,"lng":140.313734,"zip":"9631304"},{"town":"熱海町安子島","koaza":"辰己山","lat":37.461605,"lng":140.313755,"zip":"9631304"},{"town":"三穂田町川田","koaza":"西桜木","lat":37.357905,"lng":140.314834,"zip":"9630121"},{"town":"片平町","koaza":"新堀","lat":37.423279,"lng":140.316383,"zip":"9630211"},{"town":"片平町","koaza":"峯三天","lat":37.434788,"lng":140.315344,"zip":"9630211"},{"town":"三穂田町川田","koaza":"小樋","lat":37.362225,"lng":140.315129,"zip":"9630121"},{"town":"大槻町","koaza":"美女池北","lat":37.379861,"lng":140.314301,"zip":"9630201"},{"town":"大槻町","koaza":"春日","lat":37.393191,"lng":140.313977,"zip":"9630201"},{"town":"大槻町","koaza":"中柵","lat":37.390184,"lng":140.313423,"zip":"9630201"},{"town":"三穂田町川田","koaza":"白清水","lat":37.353219,"lng":140.314963,"zip":"9630121"},{"town":"熱海町安子島","koaza":"上台","lat":37.468643,"lng":140.313986,"zip":"9631304"},{"town":"大槻町","koaza":"美女池上","lat":37.376945,"lng":140.314623,"zip":"9630201"},{"town":"熱海町安子島","koaza":"北原","lat":37.463057,"lng":140.319421,"zip":"9631304"},{"town":"大槻町","koaza":"西ノ山","lat":37.402343,"lng":140.315307,"zip":"9630201"},{"town":"片平町","koaza":"風泉","lat":37.431459,"lng":140.315367,"zip":"9630211"},{"town":"熱海町安子島","koaza":"赤ヒゲ林","lat":37.463695,"lng":140.31588,"zip":"9631304"},{"town":"大槻町","koaza":"山下前","lat":37.381233,"lng":140.31563,"zip":"9630201"},{"town":"片平町","koaza":"南舘岡","lat":37.412302,"lng":140.318165,"zip":"9630211"},{"town":"大槻町","koaza":"北ノ山","lat":37.393039,"lng":140.315984,"zip":"9630201"},{"town":"大槻町","koaza":"久助林","lat":37.395355,"lng":140.31564,"zip":"9630201"},{"town":"熱海町下伊豆島","koaza":"座津子内入","lat":37.459304,"lng":140.315904,"zip":"9631305"},{"town":"大槻町","koaza":"上町","lat":37.388002,"lng":140.3175,"zip":"9630201"},{"town":"熱海町下伊豆島","koaza":"前田","lat":37.453725,"lng":140.315852,"zip":"9631305"},{"town":"三穂田町川田","koaza":"日向","lat":37.365697,"lng":140.319349,"zip":"9630121"},{"town":"大槻町","koaza":"桜木","lat":37.386615,"lng":140.316333,"zip":"9630201"},{"town":"大槻町","koaza":"新池下","lat":37.396941,"lng":140.316975,"zip":"9630201"},{"town":"三穂田町川田","koaza":"日向前","lat":37.364163,"lng":140.317816,"zip":"9630121"},{"town":"熱海町安子島","koaza":"追分","lat":37.469619,"lng":140.318209,"zip":"9631304"},{"town":"片平町","koaza":"東極楽","lat":37.421152,"lng":140.315212,"zip":"9630211"},{"town":"安積町牛庭","koaza":"真林","lat":37.350719,"lng":140.322145,"zip":"9630113"},{"town":"片平町","koaza":"妙見舘","lat":37.433882,"lng":140.318192,"zip":"9630211"},{"town":"三穂田町川田","koaza":"舘","lat":37.361342,"lng":140.316699,"zip":"9630121"},{"town":"三穂田町川田","koaza":"藤ノ木","lat":37.35997,"lng":140.317735,"zip":"9630121"},{"town":"大槻町","koaza":"福楽沢前","lat":37.400287,"lng":140.316929,"zip":"9630201"},{"town":"大槻町","koaza":"山下東","lat":37.380813,"lng":140.316748,"zip":"9630201"},{"town":"三穂田町川田","koaza":"沢目木","lat":37.353998,"lng":140.318587,"zip":"9630121"},{"town":"大槻町","koaza":"西ノ宮西","lat":37.398284,"lng":140.321381,"zip":"9630201"},{"town":"片平町","koaza":"北久保","lat":37.423838,"lng":140.320145,"zip":"9630211"},{"town":"大槻町","koaza":"御花畑","lat":37.393607,"lng":140.317802,"zip":"9630201"},{"town":"熱海町下伊豆島","koaza":"屋敷","lat":37.454006,"lng":140.317975,"zip":"9631305"},{"town":"大槻町","koaza":"福楽沢","lat":37.40166,"lng":140.317528,"zip":"9630201"},{"town":"片平町","koaza":"木宮道東","lat":37.411019,"lng":140.318486,"zip":"9630211"},{"town":"片平町","koaza":"南出磬山","lat":37.408632,"lng":140.318029,"zip":"9630211"},{"town":"大槻町","koaza":"上前田","lat":37.387354,"lng":140.318362,"zip":"9630201"},{"town":"熱海町下伊豆島","koaza":"上ノ台","lat":37.45888,"lng":140.319216,"zip":"9631305"},{"town":"大槻町","koaza":"衛門田","lat":37.38603,"lng":140.318368,"zip":"9630201"},{"town":"熱海町下伊豆島","koaza":"寺屋舗","lat":37.456968,"lng":140.318621,"zip":"9631305"},{"town":"片平町","koaza":"田中","lat":37.425512,"lng":140.319479,"zip":"9630211"},{"town":"片平町","koaza":"神明","lat":37.430073,"lng":140.318164,"zip":"9630211"},{"town":"熱海町下伊豆島","koaza":"南田","lat":37.45269,"lng":140.319403,"zip":"9631305"},{"town":"三穂田町川田","koaza":"東","lat":37.362042,"lng":140.318547,"zip":"9630121"},{"town":"大槻町","koaza":"山下","lat":37.381728,"lng":140.31763,"zip":"9630201"},{"town":"熱海町安子島","koaza":"対面原","lat":37.465298,"lng":140.319877,"zip":"9631304"},{"town":"片平町","koaza":"久保","lat":37.424561,"lng":140.319596,"zip":"9630211"},{"town":"大槻町","koaza":"福楽沢北","lat":37.40355,"lng":140.320063,"zip":"9630201"},{"town":"大槻町","koaza":"北寺","lat":37.392683,"lng":140.318603,"zip":"9630201"},{"town":"大槻町","koaza":"太田西","lat":37.375113,"lng":140.319801,"zip":"9630201"},{"town":"大槻町","koaza":"下町","lat":37.388307,"lng":140.321493,"zip":"9630201"},{"town":"大槻町","koaza":"殿町","lat":37.390096,"lng":140.318833,"zip":"9630201"},{"town":"三穂田町川田","koaza":"元前田","lat":37.361001,"lng":140.321638,"zip":"9630121"},{"town":"三穂田町川田","koaza":"東藤ノ木","lat":37.358463,"lng":140.320023,"zip":"9630121"},{"town":"大槻町","koaza":"石行坦","lat":37.384134,"lng":140.320919,"zip":"9630201"},{"town":"大槻町","koaza":"中前田","lat":37.387519,"lng":140.320612,"zip":"9630201"},{"town":"大槻町","koaza":"切通","lat":37.382146,"lng":140.319565,"zip":"9630201"},{"town":"熱海町下伊豆島","koaza":"町谷田","lat":37.454078,"lng":140.319843,"zip":"9631305"},{"town":"大槻町","koaza":"北田","lat":37.390938,"lng":140.32204,"zip":"9630201"},{"town":"大槻町","koaza":"原ノ町","lat":37.392607,"lng":140.320429,"zip":"9630201"},{"town":"大槻町","koaza":"蝦夷坦","lat":37.400959,"lng":140.321112,"zip":"9630201"},{"town":"大槻町","koaza":"向原","lat":37.371732,"lng":140.321806,"zip":"9630201"},{"town":"熱海町安子島","koaza":"前田","lat":37.471332,"lng":140.319287,"zip":"9631304"},{"town":"片平町","koaza":"新蟻塚","lat":37.407827,"lng":140.326199,"zip":"9630211"},{"town":"熱海町下伊豆島","koaza":"稲干場","lat":37.456914,"lng":140.320957,"zip":"9631305"},{"town":"三穂田町川田","koaza":"胎ノ内","lat":37.360196,"lng":140.32113,"zip":"9630121"},{"town":"三穂田町川田","koaza":"勝利ケ岡","lat":37.35295,"lng":140.32268,"zip":"9630121"},{"town":"片平町","koaza":"梨久保北","lat":37.430995,"lng":140.320894,"zip":"9630211"},{"town":"三穂田町川田","koaza":"東高野","lat":37.368164,"lng":140.321527,"zip":"9630121"},{"town":"大槻町","koaza":"南地蔵谷地","lat":37.374948,"lng":140.322055,"zip":"9630201"},{"town":"片平町","koaza":"沖中","lat":37.427303,"lng":140.322843,"zip":"9630211"},{"town":"大槻町","koaza":"下町裏","lat":37.390194,"lng":140.321294,"zip":"9630201"},{"town":"大槻町","koaza":"下前田","lat":37.387443,"lng":140.321848,"zip":"9630201"},{"town":"片平町","koaza":"窪南","lat":37.422294,"lng":140.322687,"zip":"9630211"},{"town":"熱海町安子島","koaza":"対面","lat":37.468414,"lng":140.322655,"zip":"9631304"},{"town":"三穂田町川田","koaza":"鍛治田","lat":37.359191,"lng":140.321914,"zip":"9630121"},{"town":"大槻町","koaza":"二本木","lat":37.391935,"lng":140.322259,"zip":"9630201"},{"town":"大槻町","koaza":"金畑","lat":37.403494,"lng":140.32251,"zip":"9630201"},{"town":"熱海町下伊豆島","koaza":"瓜坪向山","lat":37.441577,"lng":140.323784,"zip":"9631305"},{"town":"大槻町","koaza":"弥蔵田","lat":37.377882,"lng":140.322683,"zip":"9630201"},{"town":"片平町","koaza":"木宮南","lat":37.413725,"lng":140.322453,"zip":"9630211"},{"town":"片平町","koaza":"池下","lat":37.406396,"lng":140.322616,"zip":"9630211"},{"town":"熱海町下伊豆島","koaza":"和久台","lat":37.447187,"lng":140.325113,"zip":"9631305"},{"town":"熱海町下伊豆島","koaza":"ラントフ林","lat":37.44691,"lng":140.323103,"zip":"9631305"},{"town":"大槻町","koaza":"西膳棚","lat":37.382714,"lng":140.321764,"zip":"9630201"},{"town":"大槻町","koaza":"長右エ門林","lat":37.396281,"lng":140.326855,"zip":"9630201"},{"town":"熱海町安子島","koaza":"一ノ谷","lat":37.463947,"lng":140.325134,"zip":"9631304"},{"town":"大槻町","koaza":"西ノ宮","lat":37.395785,"lng":140.322592,"zip":"9630201"},{"town":"安積町牛庭","koaza":"社場谷地","lat":37.35124,"lng":140.3245,"zip":"9630113"},{"town":"大槻町","koaza":"下衛門田","lat":37.385472,"lng":140.323976,"zip":"9630201"},{"town":"大槻町","koaza":"下町東","lat":37.388902,"lng":140.325293,"zip":"9630201"},{"town":"大槻町","koaza":"普門寺坦北","lat":37.3945,"lng":140.323502,"zip":"9630201"},{"town":"大槻町","koaza":"人形坦","lat":37.387736,"lng":140.32324,"zip":"9630201"},{"town":"大槻町","koaza":"西台","lat":37.381212,"lng":140.324162,"zip":"9630201"},{"town":"片平町","koaza":"戸納落西","lat":37.433053,"lng":140.326756,"zip":"9630211"},{"town":"大槻町","koaza":"太田","lat":37.373904,"lng":140.32491,"zip":"9630201"},{"town":"三穂田町川田","koaza":"柿ノ木","lat":37.36202,"lng":140.322642,"zip":"9630121"},{"town":"熱海町下伊豆島","koaza":"下玉虫","lat":37.456745,"lng":140.324329,"zip":"9631305"},{"town":"大槻町","koaza":"仙海東","lat":37.390144,"lng":140.325889,"zip":"9630201"},{"town":"片平町","koaza":"釜場","lat":37.405377,"lng":140.326655,"zip":"9630211"},{"town":"大槻町","koaza":"古屋敷","lat":37.401614,"lng":140.32538,"zip":"9630201"},{"town":"片平町","koaza":"馬場前","lat":37.417201,"lng":140.324245,"zip":"9630211"},{"town":"片平町","koaza":"馬場下","lat":37.417824,"lng":140.324575,"zip":"9630211"},{"town":"大槻町","koaza":"太田北","lat":37.376365,"lng":140.324966,"zip":"9630201"},{"town":"片平町","koaza":"森","lat":37.423906,"lng":140.32407,"zip":"9630211"},{"town":"大槻町","koaza":"南反田","lat":37.39217,"lng":140.324832,"zip":"9630201"},{"town":"熱海町安子島","koaza":"一ノ沢","lat":37.470029,"lng":140.326915,"zip":"9631304"},{"town":"片平町","koaza":"稲荷","lat":37.427379,"lng":140.325171,"zip":"9630211"},{"town":"大槻町","koaza":"影反田","lat":37.394277,"lng":140.325048,"zip":"9630201"},{"town":"大槻町","koaza":"東台","lat":37.382281,"lng":140.326696,"zip":"9630201"},{"town":"大槻町","koaza":"上中谷地","lat":37.387767,"lng":140.326162,"zip":"9630201"},{"town":"熱海町下伊豆島","koaza":"仲田","lat":37.443671,"lng":140.324641,"zip":"9631305"},{"town":"大槻町","koaza":"人形坦東","lat":37.387287,"lng":140.325412,"zip":"9630201"},{"town":"片平町","koaza":"清水台","lat":37.421573,"lng":140.326184,"zip":"9630211"},{"town":"片平町","koaza":"松","lat":37.423615,"lng":140.326226,"zip":"9630211"},{"town":"喜久田町","koaza":"瓜坪舘","lat":37.43608,"lng":140.327631,"zip":"9630551"},{"town":"片平町","koaza":"鳴神","lat":37.427489,"lng":140.327311,"zip":"9630211"},{"town":"大槻町","koaza":"太田東","lat":37.372569,"lng":140.326532,"zip":"9630201"},{"town":"大槻町","koaza":"前畑","lat":37.400179,"lng":140.326863,"zip":"9630201"},{"town":"片平町","koaza":"的場","lat":37.4174,"lng":140.32695,"zip":"9630211"},{"town":"喜久田町堀之内","koaza":"外左エ門段","lat":37.459555,"lng":140.327878,"zip":"9630541"},{"town":"大槻町","koaza":"室ノ木前","lat":37.377839,"lng":140.327108,"zip":"9630201"},{"town":"片平町","koaza":"杵田","lat":37.418717,"lng":140.327245,"zip":"9630211"},{"town":"大槻町","koaza":"土瓜","lat":37.403247,"lng":140.331034,"zip":"9630201"},{"town":"大槻町","koaza":"川向","lat":37.404691,"lng":140.327669,"zip":"9630201"},{"town":"片平町","koaza":"谷地","lat":37.426231,"lng":140.327467,"zip":"9630211"},{"town":"喜久田町","koaza":"行人作田","lat":37.442264,"lng":140.328529,"zip":"9630551"},{"town":"喜久田町堀之内","koaza":"秋殿前","lat":37.4532,"lng":140.336452,"zip":"9630541"},{"town":"安積町成田","koaza":"三耕地","lat":37.363254,"lng":140.328777,"zip":"9630112"},{"town":"喜久田町堀之内","koaza":"二渡","lat":37.449984,"lng":140.331026,"zip":"9630541"},{"town":"大槻町","koaza":"日向","lat":37.378113,"lng":140.329547,"zip":"9630201"},{"town":"片平町","koaza":"出磬森","lat":37.407941,"lng":140.329089,"zip":"9630211"},{"town":"喜久田町","koaza":"瓜坪","lat":37.435419,"lng":140.330496,"zip":"9630551"},{"town":"三穂田町川田","koaza":"北神子内","lat":37.362252,"lng":140.328812,"zip":"9630121"},{"town":"片平町","koaza":"中川原南","lat":37.417051,"lng":140.328256,"zip":"9630211"},{"town":"大槻町","koaza":"中野","lat":37.39112,"lng":140.329533,"zip":"9630201"},{"town":"大槻町","koaza":"六角","lat":37.404112,"lng":140.331769,"zip":"9630201"},{"town":"喜久田町堀之内","koaza":"赤津","lat":37.469981,"lng":140.329806,"zip":"9630541"},{"town":"片平町","koaza":"鶴蒔","lat":37.420522,"lng":140.32943,"zip":"9630211"},{"town":"安積町成田","koaza":"東丸山","lat":37.367193,"lng":140.329313,"zip":"9630112"},{"town":"大槻町","koaza":"北中野","lat":37.391744,"lng":140.328506,"zip":"9630201"},{"town":"喜久田町堀之内","koaza":"釜場西","lat":37.460717,"lng":140.33104,"zip":"9630541"},{"town":"大槻町","koaza":"六角北","lat":37.40668,"lng":140.332362,"zip":"9630201"},{"town":"喜久田町","koaza":"松ケ作","lat":37.44258,"lng":140.335658,"zip":"9630551"},{"town":"喜久田町堀之内","koaza":"一本木","lat":37.448429,"lng":140.333895,"zip":"9630541"},{"town":"片平町","koaza":"中林南","lat":37.415293,"lng":140.330816,"zip":"9630211"},{"town":"喜久田町堀之内","koaza":"北原","lat":37.461425,"lng":140.337839,"zip":"9630541"},{"town":"喜久田町","koaza":"瓜坪屋敷","lat":37.435355,"lng":140.332876,"zip":"9630551"},{"town":"安積町成田","koaza":"西畑","lat":37.362013,"lng":140.332483,"zip":"9630112"},{"town":"安積町成田","koaza":"田向","lat":37.354375,"lng":140.334644,"zip":"9630112"},{"town":"大槻町","koaza":"室ノ木","lat":37.377223,"lng":140.33192,"zip":"9630201"},{"town":"片平町","koaza":"鍛治田","lat":37.42114,"lng":140.331886,"zip":"9630211"},{"town":"大槻町","koaza":"北中野下","lat":37.393686,"lng":140.331129,"zip":"9630201"},{"town":"片平町","koaza":"東柳作","lat":37.429826,"lng":140.332418,"zip":"9630211"},{"town":"片平町","koaza":"的下","lat":37.419876,"lng":140.331181,"zip":"9630211"},{"town":"大槻町","koaza":"下中野","lat":37.391705,"lng":140.331013,"zip":"9630201"},{"town":"大槻町","koaza":"室ノ木北","lat":37.378202,"lng":140.331564,"zip":"9630201"},{"town":"片平町","koaza":"西柳作","lat":37.433199,"lng":140.331318,"zip":"9630211"},{"town":"片平町","koaza":"大山南","lat":37.414345,"lng":140.332989,"zip":"9630211"},{"town":"片平町","koaza":"出磬東","lat":37.40748,"lng":140.331635,"zip":"9630211"},{"town":"安積町成田","koaza":"不動内","lat":37.36547,"lng":140.332589,"zip":"9630112"},{"town":"安積町成田","koaza":"車川原","lat":37.358568,"lng":140.333466,"zip":"9630112"},{"town":"喜久田町堀之内","koaza":"向原","lat":37.444226,"lng":140.337601,"zip":"9630541"},{"town":"大槻町","koaza":"小山田西","lat":37.406247,"lng":140.334295,"zip":"9630201"},{"town":"富田町","koaza":"大徳南","lat":37.408392,"lng":140.336361,"zip":"9638041"},{"town":"大槻町","koaza":"麦塚","lat":37.376169,"lng":140.333317,"zip":"9630201"},{"town":"片平町","koaza":"元大山","lat":37.416329,"lng":140.332634,"zip":"9630211"},{"town":"安積町成田","koaza":"西前坂","lat":37.357538,"lng":140.336877,"zip":"9630112"},{"town":"安積町成田","koaza":"前畑","lat":37.360747,"lng":140.336541,"zip":"9630112"},{"town":"富田町","koaza":"上西田","lat":37.409619,"lng":140.334035,"zip":"9638041"},{"town":"大槻町","koaza":"室ノ木東","lat":37.377445,"lng":140.333537,"zip":"9630201"},{"town":"喜久田町堀之内","koaza":"松山池東","lat":37.457287,"lng":140.332812,"zip":"9630541"},{"town":"富田町","koaza":"丸山","lat":37.427919,"lng":140.334422,"zip":"9638041"},{"town":"喜久田町","koaza":"菖蒲池","lat":37.435929,"lng":140.336716,"zip":"9630551"},{"town":"安積町荒井","koaza":"柴宮山","lat":37.374977,"lng":140.337272,"zip":"9630111"},{"town":"大槻町","koaza":"小山田","lat":37.405136,"lng":140.335883,"zip":"9630201"},{"town":"大槻町","koaza":"原田西","lat":37.379449,"lng":140.335492,"zip":"9630201"},{"town":"安積町成田","koaza":"西田","lat":37.363757,"lng":140.33416,"zip":"9630112"},{"town":"大槻町","koaza":"北ノ林","lat":37.391229,"lng":140.33461,"zip":"9630201"},{"town":"安積町荒井","koaza":"雷神","lat":37.374066,"lng":140.335596,"zip":"9630111"},{"town":"安積町成田","koaza":"成田","lat":37.362486,"lng":140.335205,"zip":"9630112"},{"town":"大槻町","koaza":"西荒久","lat":37.379832,"lng":140.335502,"zip":"9630201"},{"town":"富田町","koaza":"鍛冶田","lat":37.421949,"lng":140.336102,"zip":"9638041"},{"town":"喜久田町堀之内","koaza":"下前田","lat":37.454325,"lng":140.335033,"zip":"9630541"},{"town":"大槻町","koaza":"東阿良久","lat":37.381229,"lng":140.336025,"zip":"9630201"},{"town":"大槻町","koaza":"小山田前","lat":37.404711,"lng":140.338075,"zip":"9630201"},{"town":"大槻町","koaza":"小金林","lat":37.401825,"lng":140.335058,"zip":"9630201"},{"town":"安積町成田","koaza":"北ノ内","lat":37.366317,"lng":140.335423,"zip":"9630112"},{"town":"喜久田町堀之内","koaza":"堀内","lat":37.455274,"lng":140.336883,"zip":"9630541"},{"town":"富田町","koaza":"諏訪西","lat":37.425126,"lng":140.335782,"zip":"9638041"},{"town":"安積町成田","koaza":"北ノ内前","lat":37.364712,"lng":140.336708,"zip":"9630112"},{"town":"大槻町","koaza":"原田","lat":37.379795,"lng":140.339447,"zip":"9630201"},{"town":"富田町","koaza":"上鶴蒔田","lat":37.418119,"lng":140.335413,"zip":"9638041"},{"town":"安積町成田","koaza":"念仏坦西","lat":37.356251,"lng":140.336898,"zip":"9630112"},{"town":"富田町","koaza":"大十内","lat":37.416231,"lng":140.338293,"zip":"9638041"},{"town":"富田町","koaza":"大堰","lat":37.422029,"lng":140.337067,"zip":"9638041"},{"town":"大槻町","koaza":"小割林","lat":37.403871,"lng":140.338243,"zip":"9630201"},{"town":"富田町","koaza":"中ノ目","lat":37.420457,"lng":140.336527,"zip":"9638041"},{"town":"大槻町","koaza":"原田前","lat":37.377256,"lng":140.336307,"zip":"9630201"},{"town":"喜久田町堀之内","koaza":"釜場東","lat":37.457264,"lng":140.338061,"zip":"9630541"},{"town":"大槻町","koaza":"上篠林","lat":37.401926,"lng":140.33751,"zip":"9630201"},{"town":"喜久田町堀之内","koaza":"地田下","lat":37.450285,"lng":140.336991,"zip":"9630541"},{"town":"喜久田町","koaza":"双又","lat":37.429942,"lng":140.336724,"zip":"9630551"},{"town":"大槻町","koaza":"原田際","lat":37.380091,"lng":140.33657,"zip":"9630201"},{"town":"喜久田町堀之内","koaza":"向五升蒔","lat":37.452373,"lng":140.336014,"zip":"9630541"},{"town":"富田町","koaza":"下西田","lat":37.413514,"lng":140.338035,"zip":"9638041"},{"town":"大槻町","koaza":"花輪","lat":37.383546,"lng":140.336517,"zip":"9630201"},{"town":"喜久田町堀之内","koaza":"千杯田","lat":37.450565,"lng":140.336142,"zip":"9630541"},{"town":"喜久田町堀之内","koaza":"堀切前","lat":37.464367,"lng":140.337926,"zip":"9630541"},{"town":"大槻町","koaza":"御前東","lat":37.384692,"lng":140.338801,"zip":"9630201"},{"town":"富田町","koaza":"豊年田","lat":37.420296,"lng":140.338506,"zip":"9638041"},{"town":"喜久田町堀之内","koaza":"上殿田","lat":37.452753,"lng":140.338049,"zip":"9630541"},{"town":"富田町","koaza":"諏訪内","lat":37.426683,"lng":140.338324,"zip":"9638041"},{"town":"富田町","koaza":"諏訪前","lat":37.424145,"lng":140.338008,"zip":"9638041"},{"town":"安積町成田","koaza":"北前田","lat":37.362281,"lng":140.337091,"zip":"9630112"},{"town":"安積町荒井","koaza":"離畑","lat":37.371058,"lng":140.338895,"zip":"9630111"},{"town":"大槻町","koaza":"花輪前","lat":37.382835,"lng":140.338382,"zip":"9630201"},{"town":"喜久田町前田沢","koaza":"小室山","lat":37.4762,"lng":140.341806,"zip":"9630543"},{"town":"安積町成田","koaza":"高田","lat":37.363766,"lng":140.339193,"zip":"9630112"},{"town":"安積町荒井","koaza":"前田","lat":37.372769,"lng":140.340299,"zip":"9630111"},{"town":"大槻町","koaza":"広町","lat":37.406412,"lng":140.339744,"zip":"9630201"},{"town":"喜久田町堀之内","koaza":"地田東","lat":37.447443,"lng":140.338807,"zip":"9630541"},{"town":"富田町","koaza":"大徳","lat":37.411646,"lng":140.342357,"zip":"9638041"},{"town":"喜久田町前田沢","koaza":"赤津山","lat":37.474461,"lng":140.33828,"zip":"9630543"},{"town":"喜久田町堀之内","koaza":"五升蒔","lat":37.453597,"lng":140.337878,"zip":"9630541"},{"town":"喜久田町堀之内","koaza":"古町","lat":37.454404,"lng":140.337495,"zip":"9630541"},{"town":"喜久田町前田沢","koaza":"東赤津","lat":37.473344,"lng":140.339499,"zip":"9630543"},{"town":"安積町成田","koaza":"南前田","lat":37.361767,"lng":140.339005,"zip":"9630112"},{"town":"富田町","koaza":"鶴蒔田","lat":37.418978,"lng":140.339271,"zip":"9638041"},{"town":"安積町成田","koaza":"田中場","lat":37.36049,"lng":140.337229,"zip":"9630112"},{"town":"大槻町","koaza":"菅田","lat":37.406957,"lng":140.338831,"zip":"9630201"},{"town":"喜久田町堀之内","koaza":"萱畑","lat":37.451126,"lng":140.338318,"zip":"9630541"},{"town":"大槻町","koaza":"原田北","lat":37.381532,"lng":140.339994,"zip":"9630201"},{"town":"喜久田町堀之内","koaza":"下殿田","lat":37.4531,"lng":140.339283,"zip":"9630541"},{"town":"大槻町","koaza":"下篠林","lat":37.403267,"lng":140.340034,"zip":"9630201"},{"town":"大槻町","koaza":"三ッ坦","lat":37.385254,"lng":140.340559,"zip":"9630201"},{"town":"大槻町","koaza":"水門東","lat":37.382847,"lng":140.338916,"zip":"9630201"},{"town":"喜久田町堀之内","koaza":"畑田","lat":37.451825,"lng":140.339522,"zip":"9630541"},{"town":"安積町成田","koaza":"兎田向","lat":37.354613,"lng":140.341186,"zip":"9630112"},{"town":"富田町","koaza":"舘南","lat":37.413613,"lng":140.339496,"zip":"9638041"},{"town":"喜久田町堀之内","koaza":"小六","lat":37.45843,"lng":140.341212,"zip":"9630541"},{"town":"大槻町","koaza":"半縄田","lat":37.403981,"lng":140.340885,"zip":"9630201"},{"town":"安積町成田","koaza":"島","lat":37.362448,"lng":140.341644,"zip":"9630112"},{"town":"安積町成田","koaza":"島ノ前","lat":37.360788,"lng":140.340546,"zip":"9630112"},{"town":"安積町成田","koaza":"畑形","lat":37.351892,"lng":140.344111,"zip":"9630112"},{"town":"富田町","koaza":"天神南","lat":37.424185,"lng":140.340845,"zip":"9638041"},{"town":"富田町","koaza":"五輪下","lat":37.423764,"lng":140.340068,"zip":"9638041"},{"town":"安積町成田","koaza":"漆山","lat":37.358228,"lng":140.338767,"zip":"9630112"},{"town":"安積町荒井","koaza":"萬海","lat":37.374887,"lng":140.342737,"zip":"9630111"},{"town":"安積町成田","koaza":"島ノ後","lat":37.364968,"lng":140.342721,"zip":"9630112"},{"town":"大槻町","koaza":"柏山","lat":37.402247,"lng":140.341581,"zip":"9630201"},{"town":"安積町成田","koaza":"小林","lat":37.366053,"lng":140.341255,"zip":"9630112"},{"town":"喜久田町堀之内","koaza":"下寺田","lat":37.45395,"lng":140.340778,"zip":"9630541"},{"town":"喜久田町堀之内","koaza":"椚内","lat":37.452584,"lng":140.341171,"zip":"9630541"},{"town":"富田町","koaza":"下堰","lat":37.422237,"lng":140.340685,"zip":"9638041"},{"town":"大槻町","koaza":"上西田","lat":37.38284,"lng":140.342747,"zip":"9630201"},{"town":"喜久田町前田沢","koaza":"仲丸","lat":37.473014,"lng":140.34224,"zip":"9630543"},{"town":"富田町","koaza":"五斗蒔田","lat":37.421003,"lng":140.342177,"zip":"9638041"},{"town":"喜久田町堀之内","koaza":"山影","lat":37.450521,"lng":140.341102,"zip":"9630541"},{"town":"安積町成田","koaza":"島河原","lat":37.358997,"lng":140.342291,"zip":"9630112"},{"town":"富田町","koaza":"塩ノ草","lat":37.425681,"lng":140.341939,"zip":"9638041"},{"town":"大槻町","koaza":"張股","lat":37.383423,"lng":140.342753,"zip":"9630201"},{"town":"喜久田町堀之内","koaza":"南椚内","lat":37.450952,"lng":140.342227,"zip":"9630541"},{"town":"富田町","koaza":"権現林","lat":37.429725,"lng":140.342408,"zip":"9638041"},{"town":"富田町","koaza":"下小次郎木","lat":37.407608,"lng":140.342221,"zip":"9638041"},{"town":"喜久田町","koaza":"上追池","lat":37.435435,"lng":140.343502,"zip":"9630551"},{"town":"大槻町","koaza":"針生西","lat":37.385158,"lng":140.343086,"zip":"9630201"},{"town":"大槻町","koaza":"原田東","lat":37.379074,"lng":140.340586,"zip":"9630201"},{"town":"富田町","koaza":"向舘","lat":37.41428,"lng":140.342106,"zip":"9638041"},{"town":"富田町","koaza":"町西","lat":37.421813,"lng":140.343437,"zip":"9638041"},{"town":"喜久田町堀之内","koaza":"堂田","lat":37.454598,"lng":140.341296,"zip":"9630541"},{"town":"大槻町","koaza":"東竹ヶ原","lat":37.387616,"lng":140.342011,"zip":"9630201"},{"town":"喜久田町堀之内","koaza":"下上ノ台","lat":37.456573,"lng":140.343228,"zip":"9630541"},{"town":"安積町荒井","koaza":"味噌池原","lat":37.370668,"lng":140.343675,"zip":"9630111"},{"town":"喜久田町堀之内","koaza":"下河原","lat":37.453267,"lng":140.3431,"zip":"9630541"},{"town":"富田町","koaza":"池ノ上","lat":37.423732,"lng":140.342986,"zip":"9638041"},{"town":"喜久田町堀之内","koaza":"杢田","lat":37.448268,"lng":140.34451,"zip":"9630541"},{"town":"喜久田町","koaza":"下尾池","lat":37.43576,"lng":140.341111,"zip":"9630551"},{"town":"富田町","koaza":"十文字","lat":37.412721,"lng":140.34371,"zip":"9638041"},{"town":"安積町荒井","koaza":"大久保","lat":37.374948,"lng":140.346318,"zip":"9630111"},{"town":"富田町","koaza":"愛宕前","lat":37.423704,"lng":140.345,"zip":"9638041"},{"town":"安積町成田","koaza":"三渡","lat":37.361093,"lng":140.345916,"zip":"9630112"},{"town":"大槻町","koaza":"仁池向","lat":37.379894,"lng":140.34447,"zip":"9630201"},{"town":"安積町成田","koaza":"梅田","lat":37.365639,"lng":140.344132,"zip":"9630112"},{"town":"安積町成田","koaza":"白清水","lat":37.366413,"lng":140.345092,"zip":"9630112"},{"town":"富田町","koaza":"墨染","lat":37.415204,"lng":140.344841,"zip":"9638041"},{"town":"富田町","koaza":"上ノ台","lat":37.429171,"lng":140.345648,"zip":"9638041"},{"town":"富田町","koaza":"向作田","lat":37.426794,"lng":140.344907,"zip":"9638041"},{"town":"富田町","koaza":"上亀田","lat":37.411022,"lng":140.344453,"zip":"9638041"},{"town":"安積町荒井","koaza":"火口内","lat":37.373402,"lng":140.344412,"zip":"9630111"},{"town":"富田町","koaza":"町内","lat":37.421338,"lng":140.34474,"zip":"9638041"},{"town":"喜久田町堀之内","koaza":"見陣原","lat":37.453885,"lng":140.344399,"zip":"9630541"},{"town":"富田町","koaza":"前川原","lat":37.419163,"lng":140.345219,"zip":"9638041"},{"town":"大槻町","koaza":"針生","lat":37.384679,"lng":140.345912,"zip":"9630201"},{"town":"安積町荒井","koaza":"上荒井田","lat":37.365363,"lng":140.347048,"zip":"9630111"},{"town":"富田町","koaza":"町畑","lat":37.413171,"lng":140.347113,"zip":"9638041"},{"town":"安積町成田","koaza":"北山崎","lat":37.353648,"lng":140.346296,"zip":"9630112"},{"town":"安積町成田","koaza":"上荒井","lat":37.366297,"lng":140.3466,"zip":"9630112"},{"town":"大槻町","koaza":"下西田","lat":37.382374,"lng":140.346204,"zip":"9630201"},{"town":"喜久田町早稲原","koaza":"弥五郎","lat":37.458473,"lng":140.354273,"zip":"9630546"},{"town":"大槻町","koaza":"針生北","lat":37.386151,"lng":140.346149,"zip":"9630201"},{"town":"喜久田町","koaza":"上尾池","lat":37.433955,"lng":140.346479,"zip":"9630551"},{"town":"喜久田町","koaza":"赤沼向","lat":37.430868,"lng":140.348087,"zip":"9630551"},{"town":"安積町笹川","koaza":"吉田","lat":37.349141,"lng":140.34808,"zip":"9630102"},{"town":"安積町成田","koaza":"飯米場","lat":37.361562,"lng":140.347993,"zip":"9630112"},{"town":"喜久田町","koaza":"前北原","lat":37.431396,"lng":140.350311,"zip":"9630551"},{"town":"富田町","koaza":"坦ノ腰","lat":37.425112,"lng":140.348067,"zip":"9638041"},{"town":"富田町","koaza":"向山","lat":37.415252,"lng":140.348526,"zip":"9638041"},{"town":"富田町","koaza":"池向","lat":37.423998,"lng":140.346022,"zip":"9638041"},{"town":"富田町","koaza":"上赤沼","lat":37.428343,"lng":140.348247,"zip":"9638041"},{"town":"富久山町八山田","koaza":"松ケ作","lat":37.440351,"lng":140.347435,"zip":"9638051"},{"town":"大槻町","koaza":"針生金畑","lat":37.382227,"lng":140.351402,"zip":"9630201"},{"town":"喜久田町早稲原","koaza":"大谷地脇","lat":37.448392,"lng":140.347273,"zip":"9630546"},{"town":"大槻町","koaza":"針生向","lat":37.382242,"lng":140.348719,"zip":"9630201"},{"town":"大槻町","koaza":"天正坦","lat":37.386957,"lng":140.34759,"zip":"9630201"},{"town":"富田町","koaza":"中亀田","lat":37.41198,"lng":140.347472,"zip":"9638041"},{"town":"喜久田町","koaza":"遠北原","lat":37.433918,"lng":140.35205,"zip":"9630551"},{"town":"安積町笹川","koaza":"北向","lat":37.347423,"lng":140.351654,"zip":"9630102"},{"town":"富久山町八山田","koaza":"広谷原","lat":37.439427,"lng":140.350384,"zip":"9638051"},{"town":"富田町","koaza":"十郎内","lat":37.422364,"lng":140.348292,"zip":"9638041"},{"town":"大槻町","koaza":"針生前田","lat":37.383993,"lng":140.350567,"zip":"9630201"},{"town":"富田町","koaza":"弁天下","lat":37.421807,"lng":140.347964,"zip":"9638041"},{"town":"喜久田町早稲原","koaza":"大谷地","lat":37.44887,"lng":140.348099,"zip":"9630546"},{"town":"喜久田町早稲原","koaza":"柳田","lat":37.453843,"lng":140.351248,"zip":"9630546"},{"town":"富田町","koaza":"後久保","lat":37.423536,"lng":140.349567,"zip":"9638041"},{"town":"喜久田町早稲原","koaza":"場城内","lat":37.450118,"lng":140.349969,"zip":"9630546"},{"town":"喜久田町前田沢","koaza":"坪子","lat":37.459908,"lng":140.350078,"zip":"9630543"},{"town":"喜久田町","koaza":"入ノ内","lat":37.428454,"lng":140.352086,"zip":"9630551"},{"town":"富田町","koaza":"西原","lat":37.414216,"lng":140.350542,"zip":"9638041"},{"town":"安積町笹川","koaza":"荒池渕","lat":37.346109,"lng":140.351829,"zip":"9630102"},{"town":"大槻町","koaza":"笹ノ台","lat":37.385864,"lng":140.352046,"zip":"9630201"},{"town":"安積町荒井","koaza":"鎗ヶ池","lat":37.374258,"lng":140.352237,"zip":"9630111"},{"town":"喜久田町早稲原","koaza":"大谷地前","lat":37.448936,"lng":140.351809,"zip":"9630546"},{"town":"大槻町","koaza":"八坦","lat":37.383222,"lng":140.352876,"zip":"9630201"},{"town":"安積町荒井","koaza":"南赤坂","lat":37.365366,"lng":140.350452,"zip":"9630111"},{"town":"喜久田町","koaza":"前北","lat":37.432246,"lng":140.350548,"zip":"9630551"},{"town":"富久山町八山田","koaza":"八俣堀","lat":37.442388,"lng":140.356442,"zip":"9638051"},{"town":"富田町","koaza":"日吉ヶ丘","lat":37.424295,"lng":140.352673,"zip":"9638041"},{"town":"安積町笹川","koaza":"西長久保","lat":37.36166,"lng":140.354891,"zip":"9630102"},{"town":"富田町","koaza":"若木下","lat":37.416706,"lng":140.352458,"zip":"9638041"},{"town":"喜久田町","koaza":"寺久保","lat":37.425173,"lng":140.353281,"zip":"9630551"},{"town":"安積町笹川","koaza":"荒屋敷","lat":37.34955,"lng":140.353725,"zip":"9630102"},{"town":"大槻町","koaza":"林ノ東","lat":37.38488,"lng":140.352523,"zip":"9630201"},{"town":"富田町","koaza":"矢ノ根石","lat":37.41354,"lng":140.353905,"zip":"9638041"},{"town":"喜久田町早稲原","koaza":"伝左エ門原","lat":37.445023,"lng":140.35272,"zip":"9630546"},{"town":"富田町","koaza":"下亀田","lat":37.412441,"lng":140.351139,"zip":"9638041"},{"town":"大槻町","koaza":"針生下","lat":37.383779,"lng":140.355105,"zip":"9630201"},{"town":"安積町笹川","koaza":"南向","lat":37.344863,"lng":140.355931,"zip":"9630102"},{"town":"富久山町八山田","koaza":"細田原","lat":37.433148,"lng":140.361035,"zip":"9638051"},{"town":"大槻町","koaza":"堀切西","lat":37.382079,"lng":140.355824,"zip":"9630201"},{"town":"大槻町","koaza":"御十日","lat":37.38595,"lng":140.353767,"zip":"9630201"},{"town":"喜久田町早稲原","koaza":"太左エ門林","lat":37.450424,"lng":140.355353,"zip":"9630546"},{"town":"安積町笹川","koaza":"中ノ渡戸","lat":37.341648,"lng":140.356955,"zip":"9630102"},{"town":"富田町","koaza":"大島","lat":37.415572,"lng":140.356292,"zip":"9638041"},{"town":"安積町荒井","koaza":"赤坂","lat":37.366953,"lng":140.355078,"zip":"9630111"},{"town":"富田町","koaza":"猪鹿野久保","lat":37.423167,"lng":140.354829,"zip":"9638041"},{"town":"富久山町八山田","koaza":"節上原","lat":37.439887,"lng":140.359188,"zip":"9638051"},{"town":"喜久田町早稲原","koaza":"小段","lat":37.458596,"lng":140.356495,"zip":"9630546"},{"town":"富田町","koaza":"天神林","lat":37.42309,"lng":140.358895,"zip":"9638041"},{"town":"安積町荒井","koaza":"西堅川","lat":37.36544,"lng":140.355911,"zip":"9630111"},{"town":"喜久田町早稲原","koaza":"明神脇","lat":37.456269,"lng":140.359887,"zip":"9630546"},{"town":"喜久田町","koaza":"四十坦","lat":37.426476,"lng":140.357895,"zip":"9630551"},{"town":"喜久田町前田沢","koaza":"東原","lat":37.459712,"lng":140.356591,"zip":"9630543"},{"town":"富田町","koaza":"大島前","lat":37.413699,"lng":140.355612,"zip":"9638041"},{"town":"安積町荒井","koaza":"北大部","lat":37.372234,"lng":140.355885,"zip":"9630111"},{"town":"安積町荒井","koaza":"安倍","lat":37.373839,"lng":140.356516,"zip":"9630111"},{"town":"富久山町八山田","koaza":"山神後","lat":37.435988,"lng":140.362526,"zip":"9638051"},{"town":"大槻町","koaza":"牛道","lat":37.381203,"lng":140.358262,"zip":"9630201"},{"town":"安積町荒井","koaza":"西北井","lat":37.372749,"lng":140.357158,"zip":"9630111"},{"town":"安積町笹川","koaza":"関谷田","lat":37.345366,"lng":140.359099,"zip":"9630102"},{"town":"喜久田町早稲原","koaza":"上ノ端","lat":37.457313,"lng":140.357644,"zip":"9630546"},{"town":"安積町荒井","koaza":"年柄","lat":37.370973,"lng":140.35879,"zip":"9630111"},{"town":"安積町笹川","koaza":"荒池下","lat":37.347367,"lng":140.357856,"zip":"9630102"},{"town":"安積町荒井","koaza":"上北井前","lat":37.372327,"lng":140.358765,"zip":"9630111"},{"town":"安積町笹川","koaza":"目光池西","lat":37.348332,"lng":140.360662,"zip":"9630102"},{"town":"富田町","koaza":"音路","lat":37.42421,"lng":140.360027,"zip":"9638041"},{"town":"安積町荒井","koaza":"十九夜","lat":37.375326,"lng":140.358947,"zip":"9630111"},{"town":"喜久田町早稲原","koaza":"柿乙","lat":37.451312,"lng":140.360111,"zip":"9630546"},{"town":"安積町笹川","koaza":"四角坦","lat":37.350092,"lng":140.35958,"zip":"9630102"},{"town":"日和田町","koaza":"菱池","lat":37.443394,"lng":140.362695,"zip":"9630534"},{"town":"安積町荒井","koaza":"東北井山","lat":37.374783,"lng":140.359913,"zip":"9630111"},{"town":"富田町","koaza":"北向","lat":37.421651,"lng":140.359129,"zip":"9638041"},{"town":"安積町笹川","koaza":"彼岸塚","lat":37.341734,"lng":140.364405,"zip":"9630102"},{"town":"安積町荒井","koaza":"下北井前","lat":37.372487,"lng":140.361032,"zip":"9630111"},{"town":"喜久田町早稲原","koaza":"町","lat":37.45493,"lng":140.362657,"zip":"9630546"},{"town":"喜久田町早稲原","koaza":"小作田","lat":37.448903,"lng":140.362172,"zip":"9630546"},{"town":"富田町","koaza":"細田","lat":37.422297,"lng":140.362056,"zip":"9638041"},{"town":"安積町荒井","koaza":"河葉池","lat":37.371658,"lng":140.360475,"zip":"9630111"},{"town":"喜久田町早稲原","koaza":"町北","lat":37.457553,"lng":140.363611,"zip":"9630546"},{"town":"安積町荒井","koaza":"荒井","lat":37.369362,"lng":140.364377,"zip":"9630111"},{"town":"喜久田町前田沢","koaza":"藤内","lat":37.466033,"lng":140.368381,"zip":"9630543"},{"town":"富久山町八山田","koaza":"尾池","lat":37.432475,"lng":140.364053,"zip":"9638051"},{"town":"喜久田町早稲原","koaza":"町裏","lat":37.456852,"lng":140.365462,"zip":"9630546"},{"town":"富久山町八山田","koaza":"葉木久保","lat":37.43542,"lng":140.365472,"zip":"9638051"},{"town":"日和田町","koaza":"鶴見坦","lat":37.440807,"lng":140.366512,"zip":"9630534"},{"town":"安積町荒井","koaza":"寺ノ後","lat":37.370004,"lng":140.365732,"zip":"9630111"},{"town":"安積町笹川","koaza":"経坦","lat":37.347729,"lng":140.364499,"zip":"9630102"},{"town":"富久山町八山田","koaza":"山崎","lat":37.431786,"lng":140.367946,"zip":"9638051"},{"town":"喜久田町早稲原","koaza":"辰町","lat":37.45297,"lng":140.367062,"zip":"9630546"},{"town":"安積町荒井","koaza":"加正","lat":37.369482,"lng":140.366974,"zip":"9630111"},{"town":"喜久田町早稲原","koaza":"宮ノ前","lat":37.453748,"lng":140.368215,"zip":"9630546"},{"town":"安積町笹川","koaza":"西宿","lat":37.351191,"lng":140.367221,"zip":"9630102"},{"town":"安積町笹川","koaza":"高石坊","lat":37.352423,"lng":140.368078,"zip":"9630102"},{"town":"富田町","koaza":"満水田","lat":37.419963,"lng":140.369423,"zip":"9638041"},{"town":"富久山町八山田","koaza":"舘前","lat":37.433903,"lng":140.366372,"zip":"9638051"},{"town":"富田町","koaza":"稲川原","lat":37.414394,"lng":140.370266,"zip":"9638041"},{"town":"安積町笹川","koaza":"篠川","lat":37.350375,"lng":140.368477,"zip":"9630102"},{"town":"日和田町","koaza":"宮ノ入","lat":37.449944,"lng":140.369485,"zip":"9630534"},{"town":"日和田町","koaza":"一本松","lat":37.443292,"lng":140.371272,"zip":"9630534"},{"town":"日和田町","koaza":"泥夫","lat":37.453117,"lng":140.373764,"zip":"9630534"},{"town":"日和田町高倉","koaza":"藤坦","lat":37.467013,"lng":140.374501,"zip":"9630531"},{"town":"日和田町","koaza":"宮下","lat":37.447177,"lng":140.368731,"zip":"9630534"},{"town":"安積町荒井","koaza":"撫子","lat":37.368123,"lng":140.369021,"zip":"9630111"},{"town":"日和田町","koaza":"北野","lat":37.458637,"lng":140.373098,"zip":"9630534"},{"town":"富久山町八山田","koaza":"大坦","lat":37.4361,"lng":140.36978,"zip":"9638051"},{"town":"日和田町","koaza":"五輪塚","lat":37.454634,"lng":140.376153,"zip":"9630534"},{"town":"安積町荒井","koaza":"方八丁","lat":37.368742,"lng":140.370239,"zip":"9630111"},{"town":"富久山町八山田","koaza":"宮脇","lat":37.432966,"lng":140.371566,"zip":"9638051"},{"town":"日和田町","koaza":"太夫清水","lat":37.4404,"lng":140.370762,"zip":"9630534"},{"town":"日和田町","koaza":"黒沢","lat":37.447198,"lng":140.371272,"zip":"9630534"},{"town":"安積町笹川","koaza":"狐塚","lat":37.345558,"lng":140.371371,"zip":"9630102"},{"town":"富田町","koaza":"町田","lat":37.415841,"lng":140.371302,"zip":"9638041"},{"town":"日和田町","koaza":"不動坦","lat":37.440705,"lng":140.373973,"zip":"9630534"},{"town":"富久山町久保田","koaza":"伊賀河原","lat":37.412045,"lng":140.374237,"zip":"9638071"},{"town":"日和田町","koaza":"道場","lat":37.449249,"lng":140.376123,"zip":"9630534"},{"town":"安積町笹川","koaza":"境橋","lat":37.343001,"lng":140.372706,"zip":"9630102"},{"town":"日和田町","koaza":"南古舘","lat":37.444943,"lng":140.374382,"zip":"9630534"},{"town":"富久山町八山田","koaza":"稲荷林","lat":37.436435,"lng":140.377562,"zip":"9638051"},{"town":"日和田町高倉","koaza":"大口原","lat":37.461992,"lng":140.376159,"zip":"9630531"},{"town":"富田町","koaza":"三角堂","lat":37.417159,"lng":140.374132,"zip":"9638041"},{"town":"田村町徳定","koaza":"西ノ内","lat":37.353504,"lng":140.37383,"zip":"9631165"},{"town":"田村町徳定","koaza":"内段","lat":37.354203,"lng":140.373788,"zip":"9631165"},{"town":"田村町御代田","koaza":"末広町","lat":37.351664,"lng":140.37429,"zip":"9631164"},{"town":"富久山町久保田","koaza":"三御堂","lat":37.414425,"lng":140.377644,"zip":"9638071"},{"town":"田村町徳定","koaza":"才竹","lat":37.355087,"lng":140.374703,"zip":"9631165"},{"town":"田村町徳定","koaza":"苧干場","lat":37.356085,"lng":140.375125,"zip":"9631165"},{"town":"日和田町","koaza":"小原","lat":37.442297,"lng":140.375819,"zip":"9630534"},{"town":"田村町御代田","koaza":"徳定前","lat":37.35193,"lng":140.375981,"zip":"9631164"},{"town":"田村町御代田","koaza":"古町","lat":37.34683,"lng":140.375238,"zip":"9631164"},{"town":"田村町御代田","koaza":"薬師堂寺","lat":37.347484,"lng":140.375363,"zip":"9631164"},{"town":"田村町徳定","koaza":"蚕沢","lat":37.352933,"lng":140.376989,"zip":"9631165"},{"town":"日和田町","koaza":"原","lat":37.441669,"lng":140.379489,"zip":"9630534"},{"town":"田村町御代田","koaza":"北町","lat":37.345986,"lng":140.375217,"zip":"9631164"},{"town":"日和田町","koaza":"西中島","lat":37.447838,"lng":140.379758,"zip":"9630534"},{"town":"富久山町八山田","koaza":"八津","lat":37.433471,"lng":140.375054,"zip":"9638051"},{"town":"日和田町","koaza":"朝日坦","lat":37.450465,"lng":140.379934,"zip":"9630534"},{"town":"安積町日出山","koaza":"南台","lat":37.362808,"lng":140.376164,"zip":"9630101"},{"town":"田村町御代田","koaza":"舘","lat":37.34551,"lng":140.375388,"zip":"9631164"},{"town":"田村町御代田","koaza":"石仏","lat":37.350272,"lng":140.375674,"zip":"9631164"},{"town":"日和田町","koaza":"古舘","lat":37.446627,"lng":140.37619,"zip":"9630534"},{"town":"田村町御代田","koaza":"若葉町","lat":37.348685,"lng":140.375837,"zip":"9631164"},{"town":"富久山町久保田","koaza":"桝形","lat":37.417429,"lng":140.377908,"zip":"9638071"},{"town":"富田町","koaza":"逆池北","lat":37.418854,"lng":140.376356,"zip":"9638041"},{"town":"日和田町","koaza":"北俣","lat":37.458912,"lng":140.378393,"zip":"9630534"},{"town":"田村町御代田","koaza":"内手","lat":37.34582,"lng":140.376948,"zip":"9631164"},{"town":"田村町御代田","koaza":"中町","lat":37.346764,"lng":140.377213,"zip":"9631164"},{"town":"田村町徳定","koaza":"古屋敷","lat":37.355063,"lng":140.37728,"zip":"9631165"},{"town":"富久山町久保田","koaza":"大久保","lat":37.410966,"lng":140.378397,"zip":"9638071"},{"town":"富久山町久保田","koaza":"田池","lat":37.412917,"lng":140.377832,"zip":"9638071"},{"town":"田村町御代田","koaza":"中平","lat":37.330132,"lng":140.385519,"zip":"9631164"},{"town":"田村町徳定","koaza":"中河原","lat":37.358447,"lng":140.377631,"zip":"9631165"},{"town":"田村町徳定","koaza":"泉田","lat":37.353559,"lng":140.378483,"zip":"9631165"},{"town":"富久山町八山田","koaza":"下屋敷","lat":37.432801,"lng":140.376888,"zip":"9638051"},{"town":"安積町日出山","koaza":"旧屋敷","lat":37.364062,"lng":140.378835,"zip":"9630101"},{"town":"田村町御代田","koaza":"田町","lat":37.34496,"lng":140.378303,"zip":"9631164"},{"town":"田村町御代田","koaza":"新屋敷","lat":37.345973,"lng":140.37884,"zip":"9631164"},{"town":"富久山町八山田","koaza":"熊野台","lat":37.433307,"lng":140.37761,"zip":"9638051"},{"town":"日和田町","koaza":"荒池下","lat":37.450128,"lng":140.378576,"zip":"9630534"},{"town":"日和田町高倉","koaza":"鶴番","lat":37.463814,"lng":140.382674,"zip":"9630531"},{"town":"田村町徳定","koaza":"高畑","lat":37.356666,"lng":140.379903,"zip":"9631165"},{"town":"日和田町","koaza":"五庵","lat":37.444546,"lng":140.378534,"zip":"9630534"},{"town":"田村町徳定","koaza":"下北田","lat":37.356057,"lng":140.377766,"zip":"9631165"},{"town":"富久山町久保田","koaza":"乙高","lat":37.408723,"lng":140.379043,"zip":"9638071"},{"town":"田村町徳定","koaza":"代田","lat":37.352725,"lng":140.379529,"zip":"9631165"},{"town":"富久山町八山田","koaza":"四十坦","lat":37.434321,"lng":140.379023,"zip":"9638051"},{"town":"田村町御代田","koaza":"大極田","lat":37.343006,"lng":140.378737,"zip":"9631164"},{"town":"安積町日出山","koaza":"新鍬","lat":37.364518,"lng":140.380506,"zip":"9630101"},{"town":"富久山町八山田","koaza":"北久保","lat":37.432972,"lng":140.379329,"zip":"9638051"},{"town":"田村町御代田","koaza":"朝日町","lat":37.350641,"lng":140.379217,"zip":"9631164"},{"town":"富久山町久保田","koaza":"石堂","lat":37.40908,"lng":140.381963,"zip":"9638071"},{"town":"田村町御代田","koaza":"雀宮","lat":37.346974,"lng":140.380687,"zip":"9631164"},{"town":"田村町御代田","koaza":"平和町","lat":37.347745,"lng":140.378521,"zip":"9631164"},{"town":"田村町御代田","koaza":"守山道","lat":37.345122,"lng":140.380536,"zip":"9631164"},{"town":"田村町御代田","koaza":"中林","lat":37.339262,"lng":140.381293,"zip":"9631164"},{"town":"富久山町久保田","koaza":"大原","lat":37.419043,"lng":140.382789,"zip":"9638071"},{"town":"田村町徳定","koaza":"代畑","lat":37.353747,"lng":140.380443,"zip":"9631165"},{"town":"富久山町八山田","koaza":"経堂","lat":37.434642,"lng":140.381567,"zip":"9638051"},{"town":"富久山町久保田","koaza":"麓山","lat":37.412837,"lng":140.382837,"zip":"9638071"},{"town":"田村町御代田","koaza":"綿掛場","lat":37.346191,"lng":140.381631,"zip":"9631164"},{"town":"田村町御代田","koaza":"宿後","lat":37.35213,"lng":140.382423,"zip":"9631164"},{"town":"日和田町","koaza":"植初","lat":37.447981,"lng":140.383156,"zip":"9630534"},{"town":"田村町徳定","koaza":"水口畑","lat":37.354367,"lng":140.381493,"zip":"9631165"},{"town":"田村町御代田","koaza":"三水神","lat":37.3447,"lng":140.380866,"zip":"9631164"},{"town":"日和田町","koaza":"南原","lat":37.439728,"lng":140.382181,"zip":"9630534"},{"town":"田村町御代田","koaza":"六斗蒔田","lat":37.347804,"lng":140.381846,"zip":"9631164"},{"town":"田村町徳定","koaza":"塚ノ越","lat":37.356218,"lng":140.382258,"zip":"9631165"},{"town":"日和田町高倉","koaza":"新田","lat":37.458983,"lng":140.3839,"zip":"9630531"},{"town":"田村町御代田","koaza":"関田","lat":37.344141,"lng":140.383653,"zip":"9631164"},{"town":"日和田町","koaza":"大山田","lat":37.440649,"lng":140.381411,"zip":"9630534"},{"town":"富久山町久保田","koaza":"梅田","lat":37.406874,"lng":140.384797,"zip":"9638071"},{"town":"富久山町久保田","koaza":"水神山","lat":37.413863,"lng":140.383644,"zip":"9638071"},{"town":"日和田町","koaza":"前田","lat":37.446767,"lng":140.383411,"zip":"9630534"},{"town":"富久山町八山田","koaza":"大森新田","lat":37.432719,"lng":140.384567,"zip":"9638051"},{"town":"富久山町八山田","koaza":"西大森","lat":37.4308,"lng":140.382562,"zip":"9638051"},{"town":"富久山町福原","koaza":"沼下","lat":37.430804,"lng":140.389309,"zip":"9638061"},{"town":"田村町徳定","koaza":"霞内","lat":37.355753,"lng":140.384537,"zip":"9631165"},{"town":"日和田町","koaza":"中林","lat":37.454415,"lng":140.383602,"zip":"9630534"},{"town":"日和田町","koaza":"広野入","lat":37.454481,"lng":140.386581,"zip":"9630534"},{"town":"日和田町","koaza":"財ノ木原","lat":37.444164,"lng":140.383272,"zip":"9630534"},{"town":"富久山町八山田","koaza":"向作","lat":37.428227,"lng":140.382938,"zip":"9638051"},{"town":"富久山町八山田","koaza":"八蒔山","lat":37.430357,"lng":140.38341,"zip":"9638051"},{"town":"日和田町高倉","koaza":"遠新田","lat":37.458539,"lng":140.38316,"zip":"9630531"},{"town":"富久山町久保田","koaza":"金堀田","lat":37.411385,"lng":140.385657,"zip":"9638071"},{"town":"富久山町八山田","koaza":"山道","lat":37.433079,"lng":140.386347,"zip":"9638051"},{"town":"富久山町八山田","koaza":"土布池","lat":37.42715,"lng":140.38553,"zip":"9638051"},{"town":"田村町徳定","koaza":"下河原","lat":37.360705,"lng":140.385783,"zip":"9631165"},{"town":"富久山町八山田","koaza":"勝木沢","lat":37.423907,"lng":140.385806,"zip":"9638051"},{"town":"安積町日出山","koaza":"一本松","lat":37.364652,"lng":140.388058,"zip":"9630101"},{"town":"富久山町久保田","koaza":"上野","lat":37.41203,"lng":140.387934,"zip":"9638071"},{"town":"日和田町","koaza":"小堰","lat":37.445442,"lng":140.388063,"zip":"9630534"},{"town":"日和田町","koaza":"仁井町","lat":37.444427,"lng":140.384295,"zip":"9630534"},{"town":"富久山町八山田","koaza":"一本橋","lat":37.425342,"lng":140.384685,"zip":"9638051"},{"town":"日和田町高倉","koaza":"南","lat":37.457217,"lng":140.386302,"zip":"9630531"},{"town":"日和田町","koaza":"三河尻","lat":37.443005,"lng":140.386057,"zip":"9630534"},{"town":"田村町正直","koaza":"西","lat":37.342543,"lng":140.387617,"zip":"9631163"},{"town":"田村町正直","koaza":"北","lat":37.34482,"lng":140.388686,"zip":"9631163"},{"town":"日和田町","koaza":"千峯坦","lat":37.439515,"lng":140.386351,"zip":"9630534"},{"town":"安積町日出山","koaza":"神明下","lat":37.366557,"lng":140.387245,"zip":"9630101"},{"town":"富久山町久保田","koaza":"北谷","lat":37.416774,"lng":140.38542,"zip":"9638071"},{"town":"富久山町久保田","koaza":"水口","lat":37.407942,"lng":140.387714,"zip":"9638071"},{"town":"田村町金屋","koaza":"上川原","lat":37.368626,"lng":140.389204,"zip":"9630725"},{"town":"田村町御代田","koaza":"権現作田","lat":37.338669,"lng":140.384135,"zip":"9631164"},{"town":"富久山町久保田","koaza":"愛宕","lat":37.416929,"lng":140.389141,"zip":"9638071"},{"town":"日和田町高倉","koaza":"庚申向","lat":37.462678,"lng":140.388323,"zip":"9630531"},{"town":"富久山町八山田","koaza":"前林","lat":37.422075,"lng":140.386103,"zip":"9638051"},{"town":"富久山町八山田","koaza":"東平作","lat":37.427374,"lng":140.388366,"zip":"9638051"},{"town":"田村町正直","koaza":"天井田","lat":37.335842,"lng":140.39016,"zip":"9631163"},{"town":"富久山町福原","koaza":"福原","lat":37.424249,"lng":140.390075,"zip":"9638061"},{"town":"富久山町久保田","koaza":"山王舘","lat":37.410005,"lng":140.387481,"zip":"9638071"},{"town":"富久山町八山田","koaza":"北ノ林","lat":37.435409,"lng":140.385494,"zip":"9638051"},{"town":"富久山町福原","koaza":"泉崎","lat":37.418878,"lng":140.389013,"zip":"9638061"},{"town":"日和田町","koaza":"蛇ケ森","lat":37.450119,"lng":140.388599,"zip":"9630534"},{"town":"田村町金屋","koaza":"新家","lat":37.371014,"lng":140.389458,"zip":"9630725"},{"town":"富久山町八山田","koaza":"室ノ前","lat":37.431726,"lng":140.386,"zip":"9638051"},{"town":"日和田町","koaza":"向山","lat":37.437714,"lng":140.390477,"zip":"9630534"},{"town":"富久山町八山田","koaza":"山神久保","lat":37.424258,"lng":140.38851,"zip":"9638051"},{"town":"日和田町","koaza":"沼田","lat":37.447561,"lng":140.387029,"zip":"9630534"},{"town":"富久山町八山田","koaza":"牛ケ池","lat":37.433027,"lng":140.389924,"zip":"9638051"},{"town":"田村町山中","koaza":"枇杷沢","lat":37.335725,"lng":140.395069,"zip":"9631162"},{"town":"日和田町","koaza":"姥懐","lat":37.457723,"lng":140.389391,"zip":"9630534"},{"town":"田村町正直","koaza":"南","lat":37.342246,"lng":140.392064,"zip":"9631163"},{"town":"日和田町","koaza":"山ノ井","lat":37.457323,"lng":140.396162,"zip":"9630534"},{"town":"田村町正直","koaza":"蓮沼","lat":37.338832,"lng":140.38864,"zip":"9631163"},{"town":"日和田町","koaza":"川坂","lat":37.441054,"lng":140.389449,"zip":"9630534"},{"town":"日和田町","koaza":"背戸","lat":37.446703,"lng":140.389152,"zip":"9630534"},{"town":"富久山町八山田","koaza":"東永年","lat":37.435792,"lng":140.389724,"zip":"9638051"},{"town":"富久山町久保田","koaza":"久保田","lat":37.411325,"lng":140.390545,"zip":"9638071"},{"town":"富久山町八山田","koaza":"西永年","lat":37.435076,"lng":140.389473,"zip":"9638051"},{"town":"日和田町高倉","koaza":"蛇石山","lat":37.469331,"lng":140.389532,"zip":"9630531"},{"town":"富久山町久保田","koaza":"池下","lat":37.414822,"lng":140.389818,"zip":"9638071"},{"town":"日和田町","koaza":"日和田","lat":37.445301,"lng":140.390169,"zip":"9630534"},{"town":"富久山町八山田","koaza":"手良山","lat":37.422135,"lng":140.388802,"zip":"9638051"},{"town":"日和田町高倉","koaza":"海道下","lat":37.473741,"lng":140.390337,"zip":"9630531"},{"town":"安積町日出山","koaza":"大洲河原","lat":37.363291,"lng":140.391269,"zip":"9630101"},{"town":"日和田町","koaza":"東河坂","lat":37.439908,"lng":140.390274,"zip":"9630534"},{"town":"富久山町久保田","koaza":"恩田","lat":37.4078,"lng":140.390885,"zip":"9638071"},{"town":"日和田町","koaza":"榧ノ木作","lat":37.439241,"lng":140.390048,"zip":"9630534"},{"town":"田村町金屋","koaza":"下タ川原","lat":37.375756,"lng":140.392768,"zip":"9630725"},{"town":"田村町正直","koaza":"除古","lat":37.33954,"lng":140.39024,"zip":"9631163"},{"town":"田村町金屋","koaza":"マセ口","lat":37.368584,"lng":140.391321,"zip":"9630725"},{"town":"田村町大供","koaza":"西原","lat":37.325337,"lng":140.392023,"zip":"9631153"},{"town":"富久山町福原","koaza":"惣ケ久保","lat":37.432127,"lng":140.394344,"zip":"9638061"},{"town":"日和田町","koaza":"三本松","lat":37.451708,"lng":140.39335,"zip":"9630534"},{"town":"田村町正直","koaza":"日向畑","lat":37.345134,"lng":140.391782,"zip":"9631163"},{"town":"日和田町","koaza":"日向","lat":37.448404,"lng":140.392514,"zip":"9630534"},{"town":"日和田町高倉","koaza":"上下岸","lat":37.474204,"lng":140.391725,"zip":"9630531"},{"town":"田村町守山","koaza":"田向","lat":37.323724,"lng":140.39797,"zip":"9631155"},{"town":"日和田町","koaza":"寺池","lat":37.438217,"lng":140.393452,"zip":"9630534"},{"town":"富久山町久保田","koaza":"南田","lat":37.405002,"lng":140.395326,"zip":"9638071"},{"town":"富久山町福原","koaza":"鎌田","lat":37.418939,"lng":140.392738,"zip":"9638061"},{"town":"富久山町福原","koaza":"猪田","lat":37.42119,"lng":140.392385,"zip":"9638061"},{"town":"日和田町","koaza":"堀込","lat":37.445004,"lng":140.393766,"zip":"9630534"},{"town":"田村町上行合","koaza":"西川原","lat":37.36951,"lng":140.394717,"zip":"9630724"},{"town":"富久山町久保田","koaza":"古町","lat":37.407486,"lng":140.394457,"zip":"9638071"},{"town":"田村町金屋","koaza":"根緘","lat":37.359964,"lng":140.3912,"zip":"9630725"},{"town":"富久山町福原","koaza":"東","lat":37.424033,"lng":140.392658,"zip":"9638061"},{"town":"田村町正直","koaza":"新館","lat":37.343533,"lng":140.393297,"zip":"9631163"},{"town":"富久山町久保田","koaza":"我妻","lat":37.415413,"lng":140.395823,"zip":"9638071"},{"town":"富久山町久保田","koaza":"岡ノ城","lat":37.413471,"lng":140.393781,"zip":"9638071"},{"town":"富久山町福原","koaza":"境田","lat":37.416887,"lng":140.393533,"zip":"9638061"},{"town":"日和田町","koaza":"原町","lat":37.446192,"lng":140.392804,"zip":"9630534"},{"town":"日和田町高倉","koaza":"高倉","lat":37.477112,"lng":140.395666,"zip":"9630531"},{"town":"富久山町福原","koaza":"一里坦","lat":37.420192,"lng":140.392107,"zip":"9638061"},{"town":"富久山町福原","koaza":"町裏","lat":37.427164,"lng":140.395605,"zip":"9638061"},{"town":"田村町金屋","koaza":"豆田","lat":37.359006,"lng":140.393591,"zip":"9630725"},{"town":"田村町金屋","koaza":"孫右エ門平","lat":37.371799,"lng":140.39192,"zip":"9630725"},{"town":"富久山町久保田","koaza":"前田","lat":37.411011,"lng":140.395152,"zip":"9638071"},{"town":"田村町金屋","koaza":"冬室","lat":37.3654,"lng":140.395638,"zip":"9630725"},{"town":"田村町上行合","koaza":"辰ノ尾","lat":37.367116,"lng":140.395275,"zip":"9630724"},{"town":"日和田町","koaza":"十二","lat":37.443521,"lng":140.394301,"zip":"9630534"},{"town":"日和田町高倉","koaza":"荒池山","lat":37.461824,"lng":140.396056,"zip":"9630531"},{"town":"田村町金屋","koaza":"宝蔵","lat":37.360699,"lng":140.3944,"zip":"9630725"},{"town":"富久山町福原","koaza":"町田","lat":37.425839,"lng":140.396141,"zip":"9638061"},{"town":"富久山町福原","koaza":"一斗蒔田","lat":37.420272,"lng":140.394807,"zip":"9638061"},{"town":"富久山町福原","koaza":"水尾沢","lat":37.41835,"lng":140.394023,"zip":"9638061"},{"town":"田村町金屋","koaza":"二本木","lat":37.362754,"lng":140.394242,"zip":"9630725"},{"town":"田村町金屋","koaza":"水上","lat":37.358408,"lng":140.39503,"zip":"9630725"},{"town":"富久山町福原","koaza":"舟橋","lat":37.423454,"lng":140.394876,"zip":"9638061"},{"town":"富久山町福原","koaza":"鳴伊賀","lat":37.421718,"lng":140.394057,"zip":"9638061"},{"town":"富久山町久保田","koaza":"本木","lat":37.413298,"lng":140.39665,"zip":"9638071"},{"town":"日和田町高倉","koaza":"地極山","lat":37.466413,"lng":140.397518,"zip":"9630531"},{"town":"田村町金屋","koaza":"川久保","lat":37.372485,"lng":140.395537,"zip":"9630725"},{"town":"富久山町福原","koaza":"柿内戸","lat":37.424868,"lng":140.396075,"zip":"9638061"},{"town":"富久山町福原","koaza":"宝田","lat":37.427965,"lng":140.396978,"zip":"9638061"},{"town":"日和田町","koaza":"宇類原","lat":37.442718,"lng":140.396955,"zip":"9630534"},{"town":"田村町金屋","koaza":"漆保","lat":37.361975,"lng":140.396115,"zip":"9630725"},{"town":"富久山町福原","koaza":"鶴番","lat":37.42328,"lng":140.39603,"zip":"9638061"},{"town":"日和田町梅沢","koaza":"鳥喰原","lat":37.45808,"lng":140.398143,"zip":"9630532"},{"town":"富久山町福原","koaza":"三斗蒔田","lat":37.418732,"lng":140.396273,"zip":"9638061"},{"town":"日和田町高倉","koaza":"町裏","lat":37.480169,"lng":140.397728,"zip":"9630531"},{"town":"田村町山中","koaza":"団子田","lat":37.335933,"lng":140.399142,"zip":"9631162"},{"town":"田村町金屋","koaza":"平舘","lat":37.359286,"lng":140.397074,"zip":"9630725"},{"town":"田村町上行合","koaza":"南川田","lat":37.369065,"lng":140.397591,"zip":"9630724"},{"town":"田村町金屋","koaza":"杉ノ宮","lat":37.359163,"lng":140.400465,"zip":"9630725"},{"town":"富久山町久保田","koaza":"太郎殿前","lat":37.406591,"lng":140.399068,"zip":"9638071"},{"town":"田村町大善寺","koaza":"割府","lat":37.351366,"lng":140.397453,"zip":"9631161"},{"town":"富久山町福原","koaza":"前物打","lat":37.421662,"lng":140.398175,"zip":"9638061"},{"town":"日和田町","koaza":"長岡","lat":37.45235,"lng":140.393894,"zip":"9630534"},{"town":"日和田町","koaza":"深沢","lat":37.437294,"lng":140.399682,"zip":"9630534"},{"town":"田村町上行合","koaza":"北川田","lat":37.370203,"lng":140.399258,"zip":"9630724"},{"town":"田村町岩作","koaza":"三堂平","lat":37.333276,"lng":140.399921,"zip":"9631154"},{"town":"富久山町久保田","koaza":"宮田","lat":37.410258,"lng":140.399478,"zip":"9638071"},{"town":"富久山町福原","koaza":"中之内","lat":37.415208,"lng":140.397715,"zip":"9638061"},{"town":"田村町金屋","koaza":"荻ノ久保","lat":37.361754,"lng":140.397172,"zip":"9630725"},{"town":"富久山町久保田","koaza":"下河原","lat":37.405027,"lng":140.399878,"zip":"9638071"},{"town":"日和田町","koaza":"一ツ坦","lat":37.448495,"lng":140.399541,"zip":"9630534"},{"town":"富久山町福原","koaza":"鳴神","lat":37.425302,"lng":140.398875,"zip":"9638061"},{"town":"富久山町福原","koaza":"塩島","lat":37.417944,"lng":140.39803,"zip":"9638061"},{"town":"富久山町福原","koaza":"左内","lat":37.431211,"lng":140.400588,"zip":"9638061"},{"town":"田村町大善寺","koaza":"前畑","lat":37.355249,"lng":140.399291,"zip":"9631161"},{"town":"田村町守山","koaza":"カカヤ坦","lat":37.333161,"lng":140.403489,"zip":"9631155"},{"town":"田村町守山","koaza":"彌明","lat":37.325926,"lng":140.403164,"zip":"9631155"},{"town":"田村町大善寺","koaza":"上新屋敷","lat":37.350754,"lng":140.400484,"zip":"9631161"},{"town":"富久山町福原","koaza":"戸屋","lat":37.423455,"lng":140.40165,"zip":"9638061"},{"town":"田村町大善寺","koaza":"中新屋敷","lat":37.352249,"lng":140.400097,"zip":"9631161"},{"town":"日和田町梅沢","koaza":"衛門次郎原","lat":37.4543,"lng":140.402526,"zip":"9630532"},{"town":"日和田町","koaza":"大窪","lat":37.450337,"lng":140.39925,"zip":"9630534"},{"town":"田村町上行合","koaza":"下川原","lat":37.370723,"lng":140.402164,"zip":"9630724"},{"town":"富久山町福原","koaza":"五斗蒔田","lat":37.421753,"lng":140.400213,"zip":"9638061"},{"town":"富久山町福原","koaza":"神明","lat":37.422156,"lng":140.401252,"zip":"9638061"},{"town":"日和田町","koaza":"東八ツ田","lat":37.443156,"lng":140.401805,"zip":"9630534"},{"town":"日和田町高倉","koaza":"南田山","lat":37.477123,"lng":140.405113,"zip":"9630531"},{"town":"日和田町梅沢","koaza":"中森","lat":37.458665,"lng":140.403299,"zip":"9630532"},{"town":"日和田町梅沢","koaza":"池頭","lat":37.456711,"lng":140.402904,"zip":"9630532"},{"town":"富久山町福原","koaza":"西原","lat":37.426705,"lng":140.400865,"zip":"9638061"},{"town":"田村町大善寺","koaza":"戸屋","lat":37.353215,"lng":140.400404,"zip":"9631161"},{"town":"日和田町八丁目","koaza":"仲鹿島後","lat":37.434541,"lng":140.406902,"zip":"9630534"},{"town":"富久山町福原","koaza":"中田","lat":37.425303,"lng":140.40258,"zip":"9638061"},{"town":"日和田町高倉","koaza":"東","lat":37.473832,"lng":140.400152,"zip":"9630531"},{"town":"田村町山中","koaza":"鬼越","lat":37.343603,"lng":140.404718,"zip":"9631162"},{"town":"田村町大善寺","koaza":"上野","lat":37.350854,"lng":140.40294,"zip":"9631161"},{"town":"田村町上行合","koaza":"沢向","lat":37.361621,"lng":140.404936,"zip":"9630724"},{"town":"田村町大善寺","koaza":"宿","lat":37.357299,"lng":140.401476,"zip":"9631161"},{"town":"田村町大善寺","koaza":"東","lat":37.354303,"lng":140.400405,"zip":"9631161"},{"town":"富久山町福原","koaza":"釜沼","lat":37.41512,"lng":140.403207,"zip":"9638061"},{"town":"田村町大善寺","koaza":"上野代","lat":37.351296,"lng":140.401348,"zip":"9631161"},{"town":"田村町大善寺","koaza":"羽黒堂","lat":37.352452,"lng":140.409156,"zip":"9631161"},{"town":"田村町下行合","koaza":"田ノ保下","lat":37.374226,"lng":140.40326,"zip":"9630726"},{"town":"富久山町久保田","koaza":"古坦","lat":37.406191,"lng":140.404002,"zip":"9638071"},{"town":"富久山町福原","koaza":"東苗内","lat":37.41671,"lng":140.401914,"zip":"9638061"},{"town":"日和田町高倉","koaza":"梅沢道","lat":37.472576,"lng":140.404284,"zip":"9630531"},{"town":"富久山町福原","koaza":"亀ノ子田","lat":37.428975,"lng":140.403857,"zip":"9638061"},{"town":"富久山町福原","koaza":"陣場","lat":37.41835,"lng":140.406764,"zip":"9638061"},{"town":"富久山町久保田","koaza":"郷花","lat":37.41031,"lng":140.402859,"zip":"9638071"},{"town":"日和田町高倉","koaza":"南台","lat":37.478799,"lng":140.404378,"zip":"9630531"},{"town":"富久山町福原","koaza":"竹ノ内","lat":37.427374,"lng":140.405449,"zip":"9638061"},{"town":"日和田町","koaza":"重福礼","lat":37.442843,"lng":140.4048,"zip":"9630534"},{"town":"富久山町福原","koaza":"白石田","lat":37.432562,"lng":140.408347,"zip":"9638061"},{"town":"富久山町久保田","koaza":"石鼻","lat":37.413396,"lng":140.403973,"zip":"9638071"},{"town":"田村町守山","koaza":"権現檀","lat":37.31832,"lng":140.403481,"zip":"9631155"},{"town":"田村町岩作","koaza":"駒形","lat":37.315383,"lng":140.40872,"zip":"9631154"},{"town":"富久山町福原","koaza":"大師前","lat":37.42264,"lng":140.405305,"zip":"9638061"},{"town":"田村町上行合","koaza":"亀河内","lat":37.364621,"lng":140.406677,"zip":"9630724"},{"town":"富久山町久保田","koaza":"中台","lat":37.410541,"lng":140.40504,"zip":"9638071"},{"town":"富久山町福原","koaza":"本町","lat":37.425886,"lng":140.406264,"zip":"9638061"},{"town":"田村町上行合","koaza":"宮耕地","lat":37.366993,"lng":140.405053,"zip":"9630724"},{"town":"富久山町福原","koaza":"大塚","lat":37.423762,"lng":140.406132,"zip":"9638061"},{"town":"日和田町高倉","koaza":"僧ケ坂","lat":37.479686,"lng":140.405442,"zip":"9630531"},{"town":"田村町山中","koaza":"本郷","lat":37.338,"lng":140.408853,"zip":"9631162"},{"town":"日和田町八丁目","koaza":"深谷","lat":37.441402,"lng":140.406063,"zip":"9630534"},{"town":"日和田町","koaza":"岩井","lat":37.452095,"lng":140.405676,"zip":"9630534"},{"town":"日和田町梅沢","koaza":"江向山","lat":37.457912,"lng":140.40825,"zip":"9630532"},{"town":"富久山町福原","koaza":"山中","lat":37.429805,"lng":140.409137,"zip":"9638061"},{"town":"田村町岩作","koaza":"小人町","lat":37.326186,"lng":140.407754,"zip":"9631154"},{"town":"日和田町高倉","koaza":"上萱沼","lat":37.470701,"lng":140.407572,"zip":"9630531"},{"town":"日和田町梅沢","koaza":"古屋敷","lat":37.461277,"lng":140.407276,"zip":"9630532"},{"town":"日和田町八丁目","koaza":"馬番坦","lat":37.444028,"lng":140.40775,"zip":"9630534"},{"town":"田村町下行合","koaza":"上河原","lat":37.380968,"lng":140.407314,"zip":"9630726"},{"town":"日和田町梅沢","koaza":"新屋敷","lat":37.460963,"lng":140.408906,"zip":"9630532"},{"town":"富久山町福原","koaza":"道ノ窪","lat":37.421156,"lng":140.407949,"zip":"9638061"},{"town":"田村町下行合","koaza":"船場前","lat":37.379348,"lng":140.407461,"zip":"9630726"},{"town":"田村町上行合","koaza":"艮耕地","lat":37.366395,"lng":140.410131,"zip":"9630724"},{"town":"田村町大善寺","koaza":"中山田","lat":37.345916,"lng":140.408411,"zip":"9631161"},{"town":"富久山町福原","koaza":"古戸","lat":37.427748,"lng":140.407945,"zip":"9638061"},{"town":"日和田町梅沢","koaza":"唐沢","lat":37.454048,"lng":140.408379,"zip":"9630532"},{"town":"日和田町八丁目","koaza":"椚山","lat":37.45263,"lng":140.409808,"zip":"9630534"},{"town":"田村町守山","koaza":"西河原","lat":37.331813,"lng":140.408513,"zip":"9631155"},{"town":"田村町下行合","koaza":"御膳前","lat":37.381942,"lng":140.408095,"zip":"9630726"},{"town":"日和田町八丁目","koaza":"戸ノ内","lat":37.434495,"lng":140.410201,"zip":"9630534"},{"town":"田村町岩作","koaza":"西川原","lat":37.328949,"lng":140.407938,"zip":"9631154"},{"town":"田村町下行合","koaza":"根柄巻","lat":37.378525,"lng":140.409525,"zip":"9630726"},{"town":"富久山町南小泉","koaza":"石舟","lat":37.421127,"lng":140.417822,"zip":"9630671"},{"town":"阿久津町","koaza":"六溜","lat":37.406713,"lng":140.410766,"zip":"9630667"},{"town":"田村町下行合","koaza":"宮田","lat":37.369703,"lng":140.412523,"zip":"9630726"},{"town":"田村町小川","koaza":"上野","lat":37.343026,"lng":140.410832,"zip":"9630722"},{"town":"田村町小川","koaza":"下田","lat":37.350275,"lng":140.412648,"zip":"9630722"},{"town":"田村町守山","koaza":"中町","lat":37.33032,"lng":140.410267,"zip":"9631155"},{"town":"田村町上行合","koaza":"北山田","lat":37.365126,"lng":140.411454,"zip":"9630724"},{"town":"日和田町高倉","koaza":"下萱沼","lat":37.480101,"lng":140.409362,"zip":"9630531"},{"town":"日和田町高倉","koaza":"下前田","lat":37.477801,"lng":140.410001,"zip":"9630531"},{"town":"日和田町梅沢","koaza":"一反田","lat":37.456292,"lng":140.41094,"zip":"9630532"},{"town":"田村町下行合","koaza":"古道内","lat":37.377558,"lng":140.409851,"zip":"9630726"},{"town":"田村町守山","koaza":"小性町","lat":37.334649,"lng":140.409522,"zip":"9631155"},{"town":"田村町下行合","koaza":"前田","lat":37.375902,"lng":140.409696,"zip":"9630726"},{"town":"日和田町八丁目","koaza":"門前","lat":37.436875,"lng":140.411707,"zip":"9630534"},{"town":"田村町小川","koaza":"後田","lat":37.357891,"lng":140.418002,"zip":"9630722"},{"town":"阿久津町","koaza":"大闇","lat":37.403765,"lng":140.411957,"zip":"9630667"},{"town":"田村町下行合","koaza":"朝日舞","lat":37.375788,"lng":140.412147,"zip":"9630726"},{"town":"富久山町福原","koaza":"上台","lat":37.420522,"lng":140.411312,"zip":"9638061"},{"town":"田村町下行合","koaza":"石山田","lat":37.381127,"lng":140.412254,"zip":"9630726"},{"town":"田村町守山","koaza":"上河原","lat":37.327448,"lng":140.411274,"zip":"9631155"},{"town":"富久山町福原","koaza":"水穴","lat":37.424167,"lng":140.411539,"zip":"9638061"},{"town":"阿久津町","koaza":"舘側","lat":37.408776,"lng":140.412255,"zip":"9630667"},{"town":"日和田町梅沢","koaza":"上台","lat":37.461707,"lng":140.412533,"zip":"9630532"},{"town":"大平町","koaza":"御前田","lat":37.383752,"lng":140.413122,"zip":"9638817"},{"town":"田村町山中","koaza":"上野","lat":37.341482,"lng":140.410133,"zip":"9631162"},{"town":"田村町守山","koaza":"殿町","lat":37.330712,"lng":140.412017,"zip":"9631155"},{"town":"田村町岩作","koaza":"唐松","lat":37.320188,"lng":140.414035,"zip":"9631154"},{"town":"安原町","koaza":"古屋敷","lat":37.402573,"lng":140.412063,"zip":"9630666"},{"town":"安原町","koaza":"安原","lat":37.397804,"lng":140.41356,"zip":"9630666"},{"town":"日和田町梅沢","koaza":"丹波山","lat":37.458581,"lng":140.413652,"zip":"9630532"},{"town":"阿久津町","koaza":"久保","lat":37.406654,"lng":140.412421,"zip":"9630667"},{"town":"日和田町梅沢","koaza":"一反田原","lat":37.455973,"lng":140.412906,"zip":"9630532"},{"town":"安原町","koaza":"宮ノ後","lat":37.39984,"lng":140.413462,"zip":"9630666"},{"town":"田村町岩作","koaza":"穂多礼","lat":37.324957,"lng":140.413455,"zip":"9631154"},{"town":"阿久津町","koaza":"下田後","lat":37.413321,"lng":140.414311,"zip":"9630667"},{"town":"田村町小川","koaza":"山田","lat":37.346905,"lng":140.413525,"zip":"9630722"},{"town":"田村町手代木","koaza":"舘","lat":37.362212,"lng":140.414917,"zip":"9630721"},{"town":"阿久津町","koaza":"富士坊","lat":37.403955,"lng":140.41344,"zip":"9630667"},{"town":"田村町小川","koaza":"角生内","lat":37.347507,"lng":140.414702,"zip":"9630722"},{"town":"日和田町梅沢","koaza":"田向","lat":37.46168,"lng":140.413597,"zip":"9630532"},{"town":"日和田町八丁目","koaza":"葭池","lat":37.449711,"lng":140.41564,"zip":"9630534"},{"town":"田村町山中","koaza":"東山田","lat":37.340773,"lng":140.414087,"zip":"9631162"},{"town":"日和田町梅沢","koaza":"東","lat":37.462299,"lng":140.414453,"zip":"9630532"},{"town":"日和田町八丁目","koaza":"北ノ脇","lat":37.439356,"lng":140.413965,"zip":"9630534"},{"town":"阿久津町","koaza":"続","lat":37.409677,"lng":140.415643,"zip":"9630667"},{"town":"日和田町梅沢","koaza":"上大坦","lat":37.455343,"lng":140.414065,"zip":"9630532"},{"town":"田村町岩作","koaza":"東作田","lat":37.316907,"lng":140.41499,"zip":"9631154"},{"town":"横川町","koaza":"横川","lat":37.388121,"lng":140.416452,"zip":"9630665"},{"town":"横川町","koaza":"前","lat":37.387489,"lng":140.414729,"zip":"9630665"},{"town":"田村町小川","koaza":"岡市","lat":37.348957,"lng":140.415718,"zip":"9630722"},{"town":"田村町上行合","koaza":"中山田","lat":37.364361,"lng":140.41544,"zip":"9630724"},{"town":"大平町","koaza":"後田","lat":37.381817,"lng":140.417208,"zip":"9638817"},{"town":"日和田町八丁目","koaza":"根岸","lat":37.439099,"lng":140.416993,"zip":"9630534"},{"town":"田村町小川","koaza":"舘","lat":37.351451,"lng":140.417413,"zip":"9630722"},{"town":"田村町小川","koaza":"田中","lat":37.354625,"lng":140.418397,"zip":"9630722"},{"town":"田村町岩作","koaza":"坂ノ上","lat":37.324351,"lng":140.416312,"zip":"9631154"},{"town":"富久山町北小泉","koaza":"清水","lat":37.42479,"lng":140.416525,"zip":"9630672"},{"town":"日和田町八丁目","koaza":"市坪","lat":37.452637,"lng":140.416938,"zip":"9630534"},{"town":"田村町手代木","koaza":"森内","lat":37.360395,"lng":140.416702,"zip":"9630721"},{"town":"日和田町梅沢","koaza":"稲荷山","lat":37.462604,"lng":140.416008,"zip":"9630532"},{"town":"阿久津町","koaza":"南小","lat":37.399419,"lng":140.418618,"zip":"9630667"},{"town":"田村町手代木","koaza":"三斗蒔","lat":37.364634,"lng":140.417199,"zip":"9630721"},{"town":"富久山町北小泉","koaza":"前田","lat":37.423439,"lng":140.416182,"zip":"9630672"},{"town":"安原町","koaza":"谷津","lat":37.397009,"lng":140.416357,"zip":"9630666"},{"town":"田村町手代木","koaza":"妻見塚","lat":37.359147,"lng":140.416919,"zip":"9630721"},{"town":"大平町","koaza":"中道","lat":37.378028,"lng":140.417867,"zip":"9638817"},{"town":"阿久津町","koaza":"前田","lat":37.407609,"lng":140.415874,"zip":"9630667"},{"town":"中田町赤沼","koaza":"下永田","lat":37.377082,"lng":140.418664,"zip":"9630714"},{"town":"日和田町梅沢","koaza":"五葉山","lat":37.459798,"lng":140.418635,"zip":"9630532"},{"town":"富久山町北小泉","koaza":"屋敷添","lat":37.425526,"lng":140.417837,"zip":"9630672"},{"town":"田村町大供","koaza":"愛宕前","lat":37.331901,"lng":140.417637,"zip":"9631153"},{"town":"富久山町北小泉","koaza":"屋敷内","lat":37.424242,"lng":140.418806,"zip":"9630672"},{"town":"富久山町南小泉","koaza":"川原","lat":37.420812,"lng":140.417324,"zip":"9630671"},{"town":"富久山町北小泉","koaza":"儘田","lat":37.428996,"lng":140.423172,"zip":"9630672"},{"town":"日和田町八丁目","koaza":"田上","lat":37.443083,"lng":140.419618,"zip":"9630534"},{"town":"田村町守山","koaza":"湯ノ川","lat":37.312826,"lng":140.417343,"zip":"9631155"},{"town":"田村町大供","koaza":"本地","lat":37.329991,"lng":140.418059,"zip":"9631153"},{"town":"田村町小川","koaza":"戸ノ内","lat":37.350631,"lng":140.419293,"zip":"9630722"},{"town":"日和田町八丁目","koaza":"仲頃","lat":37.440767,"lng":140.417895,"zip":"9630534"},{"town":"田村町大供","koaza":"向","lat":37.32749,"lng":140.419162,"zip":"9631153"},{"town":"富久山町南小泉","koaza":"江下","lat":37.420036,"lng":140.418731,"zip":"9630671"},{"town":"富久山町北小泉","koaza":"樋鼻","lat":37.423193,"lng":140.41953,"zip":"9630672"},{"town":"日和田町梅沢","koaza":"向田","lat":37.460796,"lng":140.418531,"zip":"9630532"},{"town":"富久山町南小泉","koaza":"関場","lat":37.420978,"lng":140.423364,"zip":"9630671"},{"town":"富久山町北小泉","koaza":"荒屋敷","lat":37.427631,"lng":140.418825,"zip":"9630672"},{"town":"田村町小川","koaza":"石淵","lat":37.354017,"lng":140.426281,"zip":"9630722"},{"town":"田村町大供","koaza":"坂ノ上","lat":37.331669,"lng":140.420678,"zip":"9631153"},{"town":"富久山町堂坂","koaza":"表","lat":37.431345,"lng":140.419795,"zip":"9630673"},{"town":"中田町赤沼","koaza":"杉並","lat":37.370353,"lng":140.424084,"zip":"9630714"},{"town":"日和田町梅沢","koaza":"仲平","lat":37.462406,"lng":140.419692,"zip":"9630532"},{"town":"日和田町梅沢","koaza":"後田","lat":37.461694,"lng":140.418912,"zip":"9630532"},{"town":"富久山町堂坂","koaza":"堂坂","lat":37.432613,"lng":140.419965,"zip":"9630673"},{"town":"富久山町南小泉","koaza":"東台","lat":37.419852,"lng":140.420876,"zip":"9630671"},{"town":"田村町手代木","koaza":"舛内","lat":37.361589,"lng":140.419396,"zip":"9630721"},{"town":"中田町赤沼","koaza":"中井田","lat":37.369777,"lng":140.420398,"zip":"9630714"},{"town":"田村町金沢","koaza":"仲原","lat":37.336337,"lng":140.423924,"zip":"9631151"},{"town":"阿久津町","koaza":"石橋","lat":37.409316,"lng":140.420873,"zip":"9630667"},{"town":"富久山町南小泉","koaza":"江ノ上","lat":37.415949,"lng":140.420074,"zip":"9630671"},{"town":"横川町","koaza":"大谷地","lat":37.391811,"lng":140.422583,"zip":"9630665"},{"town":"安原町","koaza":"大谷地","lat":37.394363,"lng":140.419301,"zip":"9630666"},{"town":"富久山町堂坂","koaza":"寺代","lat":37.430954,"lng":140.423549,"zip":"9630673"},{"town":"田村町手代木","koaza":"四十坦","lat":37.364283,"lng":140.420737,"zip":"9630721"},{"town":"田村町大供","koaza":"神明前","lat":37.329866,"lng":140.421848,"zip":"9631153"},{"town":"日和田町八丁目","koaza":"向市坪","lat":37.450737,"lng":140.420633,"zip":"9630534"},{"town":"日和田町八丁目","koaza":"黒磯","lat":37.445228,"lng":140.42256,"zip":"9630534"},{"town":"田村町手代木","koaza":"鴨打","lat":37.362644,"lng":140.421422,"zip":"9630721"},{"town":"富久山町南小泉","koaza":"三道口","lat":37.418934,"lng":140.423217,"zip":"9630671"},{"town":"田村町大供","koaza":"堀込","lat":37.326074,"lng":140.422897,"zip":"9631153"},{"town":"下白岩町","koaza":"竹下","lat":37.399022,"lng":140.423433,"zip":"9630663"},{"town":"富久山町堂坂","koaza":"岩ヶ作","lat":37.433664,"lng":140.422087,"zip":"9630673"},{"town":"富久山町堂坂","koaza":"中森","lat":37.432091,"lng":140.422042,"zip":"9630673"},{"town":"舞木町","koaza":"別所","lat":37.41253,"lng":140.424785,"zip":"9630661"},{"town":"富久山町北小泉","koaza":"山中","lat":37.423789,"lng":140.425239,"zip":"9630672"},{"town":"中田町高倉","koaza":"深作","lat":37.365923,"lng":140.425265,"zip":"9630713"},{"town":"中田町赤沼","koaza":"大島","lat":37.36888,"lng":140.423041,"zip":"9630714"},{"town":"日和田町八丁目","koaza":"西坂口","lat":37.446474,"lng":140.422441,"zip":"9630534"},{"town":"富久山町堂坂","koaza":"夢田","lat":37.435349,"lng":140.424214,"zip":"9630673"},{"town":"富久山町南小泉","koaza":"梶内","lat":37.415573,"lng":140.422548,"zip":"9630671"},{"town":"西田町根木屋","koaza":"曲木沢","lat":37.436796,"lng":140.425071,"zip":"9630912"},{"town":"田村町金沢","koaza":"豆田","lat":37.335169,"lng":140.427682,"zip":"9631151"},{"town":"田村町金沢","koaza":"行人坦","lat":37.342648,"lng":140.424523,"zip":"9631151"},{"town":"西田町芹沢","koaza":"下田","lat":37.439526,"lng":140.425731,"zip":"9630913"},{"town":"大平町","koaza":"大平","lat":37.382629,"lng":140.423841,"zip":"9638817"},{"town":"富久山町堂坂","koaza":"堂後","lat":37.433768,"lng":140.424408,"zip":"9630673"},{"town":"西田町芹沢","koaza":"川前","lat":37.442634,"lng":140.427885,"zip":"9630913"},{"town":"田村町大供","koaza":"四十坦","lat":37.324723,"lng":140.425958,"zip":"9631153"},{"town":"下白岩町","koaza":"吉池","lat":37.400625,"lng":140.428437,"zip":"9630663"},{"town":"中田町赤沼","koaza":"赤沼","lat":37.371914,"lng":140.428693,"zip":"9630714"},{"town":"蒲倉町","koaza":"蒲倉","lat":37.392498,"lng":140.433776,"zip":"9630703"},{"town":"舞木町","koaza":"間明田","lat":37.419546,"lng":140.425643,"zip":"9630661"},{"town":"下白岩町","koaza":"宮後","lat":37.394145,"lng":140.425736,"zip":"9630663"},{"town":"蒲倉町","koaza":"宮の前","lat":37.389863,"lng":140.426763,"zip":"9630703"},{"town":"中田町赤沼","koaza":"瀬戸","lat":37.372958,"lng":140.427753,"zip":"9630714"},{"town":"下白岩町","koaza":"中木田","lat":37.410955,"lng":140.428372,"zip":"9630663"},{"town":"田村町金沢","koaza":"小枝","lat":37.341574,"lng":140.4258,"zip":"9631151"},{"town":"舞木町","koaza":"正神平","lat":37.4183,"lng":140.428913,"zip":"9630661"},{"town":"蒲倉町","koaza":"広表","lat":37.392293,"lng":140.429107,"zip":"9630703"},{"town":"田村町金沢","koaza":"三斗蒔","lat":37.339188,"lng":140.427924,"zip":"9631151"},{"town":"西田町三町目","koaza":"小和滝","lat":37.443891,"lng":140.427301,"zip":"9630922"},{"town":"中田町高倉","koaza":"蟹沢","lat":37.366766,"lng":140.427977,"zip":"9630713"},{"town":"舞木町","koaza":"四合田","lat":37.415862,"lng":140.428465,"zip":"9630661"},{"town":"田村町金沢","koaza":"後田","lat":37.342414,"lng":140.431397,"zip":"9631151"},{"town":"田村町金沢","koaza":"外堀","lat":37.337646,"lng":140.428628,"zip":"9631151"},{"town":"舞木町","koaza":"日蔭田","lat":37.419501,"lng":140.428349,"zip":"9630661"},{"town":"中田町高倉","koaza":"倉屋敷","lat":37.370032,"lng":140.428448,"zip":"9630713"},{"town":"阿久津町","koaza":"葉ノ木","lat":37.410468,"lng":140.428345,"zip":"9630667"},{"town":"下白岩町","koaza":"宮久保","lat":37.407598,"lng":140.429703,"zip":"9630663"},{"town":"田村町金沢","koaza":"的場","lat":37.338388,"lng":140.430319,"zip":"9631151"},{"town":"下白岩町","koaza":"宮田","lat":37.403538,"lng":140.429709,"zip":"9630663"},{"town":"白岩町","koaza":"柿ノ口","lat":37.410222,"lng":140.430672,"zip":"9630662"},{"town":"中田町赤沼","koaza":"細田","lat":37.379304,"lng":140.430909,"zip":"9630714"},{"town":"白岩町","koaza":"中ノ内","lat":37.407863,"lng":140.433146,"zip":"9630662"},{"town":"舞木町","koaza":"福内","lat":37.419156,"lng":140.433494,"zip":"9630661"},{"town":"白岩町","koaza":"杉ノ脇","lat":37.40532,"lng":140.431305,"zip":"9630662"},{"town":"蒲倉町","koaza":"榎台","lat":37.394235,"lng":140.4313,"zip":"9630703"},{"town":"蒲倉町","koaza":"前田","lat":37.39185,"lng":140.433458,"zip":"9630703"},{"town":"白岩町","koaza":"堺之内","lat":37.412867,"lng":140.433187,"zip":"9630662"},{"town":"舞木町","koaza":"岩ノ作","lat":37.414658,"lng":140.433901,"zip":"9630661"},{"town":"田村町金沢","koaza":"大久保","lat":37.342177,"lng":140.433643,"zip":"9631151"},{"town":"白岩町","koaza":"福田","lat":37.408265,"lng":140.434545,"zip":"9630662"},{"town":"中田町赤沼","koaza":"温石平","lat":37.373185,"lng":140.43542,"zip":"9630714"},{"town":"白岩町","koaza":"東之内","lat":37.407456,"lng":140.439085,"zip":"9630662"},{"town":"蒲倉町","koaza":"沢目木","lat":37.391516,"lng":140.437521,"zip":"9630703"},{"town":"舞木町","koaza":"宮ノ前","lat":37.418456,"lng":140.436701,"zip":"9630661"},{"town":"舞木町","koaza":"平","lat":37.416955,"lng":140.436893,"zip":"9630661"},{"town":"蒲倉町","koaza":"東","lat":37.392132,"lng":140.437224,"zip":"9630703"},{"town":"中田町高倉","koaza":"大平","lat":37.375191,"lng":140.437314,"zip":"9630713"},{"town":"田村町金沢","koaza":"高屋敷","lat":37.344232,"lng":140.439013,"zip":"9631151"},{"town":"白岩町","koaza":"前若宮","lat":37.411454,"lng":140.437844,"zip":"9630662"},{"town":"田村町金沢","koaza":"西ノ内","lat":37.34458,"lng":140.435795,"zip":"9631151"},{"town":"白岩町","koaza":"後若宮","lat":37.412928,"lng":140.438513,"zip":"9630662"},{"town":"中田町高倉","koaza":"下川原","lat":37.373554,"lng":140.438494,"zip":"9630713"},{"town":"蒲倉町","koaza":"新町","lat":37.395835,"lng":140.44039,"zip":"9630703"},{"town":"荒井町","koaza":"切通","lat":37.390835,"lng":140.443507,"zip":"9630704"},{"town":"中田町高倉","koaza":"宮ノ脇","lat":37.371988,"lng":140.439882,"zip":"9630713"},{"town":"中田町高倉","koaza":"台","lat":37.375636,"lng":140.442883,"zip":"9630713"},{"town":"荒井町","koaza":"荒井","lat":37.387642,"lng":140.4431,"zip":"9630704"},{"town":"中田町高倉","koaza":"下ノ沢","lat":37.370721,"lng":140.44389,"zip":"9630713"},{"town":"中田町高倉","koaza":"善明寺","lat":37.362865,"lng":140.442987,"zip":"9630713"},{"town":"中田町高倉","koaza":"栗","lat":37.365839,"lng":140.443323,"zip":"9630713"},{"town":"中田町高倉","koaza":"萩平","lat":37.375253,"lng":140.444102,"zip":"9630713"},{"town":"中田町高倉","koaza":"下羽廣","lat":37.35981,"lng":140.443552,"zip":"9630713"},{"town":"中田町高倉","koaza":"竹ノ内","lat":37.362729,"lng":140.445391,"zip":"9630713"},{"town":"中田町高倉","koaza":"羽廣","lat":37.360103,"lng":140.446832,"zip":"9630713"},{"town":"白岩町","koaza":"草倉内","lat":37.399525,"lng":140.446546,"zip":"9630662"},{"town":"白岩町","koaza":"表前","lat":37.403418,"lng":140.447511,"zip":"9630662"},{"town":"中田町高倉","koaza":"畑中","lat":37.359773,"lng":140.447744,"zip":"9630713"},{"town":"白岩町","koaza":"下舘","lat":37.403391,"lng":140.450173,"zip":"9630662"},{"town":"白岩町","koaza":"神田畑","lat":37.405857,"lng":140.449689,"zip":"9630662"},{"town":"荒井町","koaza":"川前","lat":37.384806,"lng":140.453074,"zip":"9630704"},{"town":"中田町高倉","koaza":"三渡","lat":37.363649,"lng":140.449502,"zip":"9630713"},{"town":"熱海町中山","koaza":"平石","lat":37.495397,"lng":140.244575,"zip":"9631308"},{"town":"熱海町高玉","koaza":"水上","lat":37.495019,"lng":140.25281,"zip":"9631302"},{"town":"熱海町高玉","koaza":"荒戸沢","lat":37.488231,"lng":140.267418,"zip":"9631302"},{"town":"熱海町安子島","koaza":"荻平","lat":37.479804,"lng":140.281209,"zip":"9631304"},{"town":"熱海町高玉","koaza":"南泥布沢","lat":37.485951,"lng":140.277195,"zip":"9631302"},{"town":"熱海町高玉","koaza":"南麻生沢","lat":37.488847,"lng":140.279425,"zip":"9631302"},{"town":"熱海町高玉","koaza":"大久保","lat":37.494372,"lng":140.279167,"zip":"9631302"},{"town":"熱海町高玉","koaza":"五斗蒔","lat":37.494605,"lng":140.279841,"zip":"9631302"},{"town":"熱海町高玉","koaza":"南梨子平","lat":37.496216,"lng":140.279291,"zip":"9631302"},{"town":"三穂田町下守屋","koaza":"笄林","lat":37.340919,"lng":140.247152,"zip":"9630124"},{"town":"三穂田町下守屋","koaza":"山ノ内","lat":37.342001,"lng":140.249094,"zip":"9630124"},{"town":"三穂田町下守屋","koaza":"舘ノ越","lat":37.342413,"lng":140.252258,"zip":"9630124"},{"town":"三穂田町富岡","koaza":"住ノ内","lat":37.347635,"lng":140.259678,"zip":"9630125"},{"town":"三穂田町富岡","koaza":"武士沢","lat":37.361582,"lng":140.246781,"zip":"9630125"},{"town":"三穂田町富岡","koaza":"五方目木","lat":37.358666,"lng":140.250524,"zip":"9630125"},{"town":"三穂田町富岡","koaza":"山王","lat":37.354781,"lng":140.257256,"zip":"9630125"},{"town":"三穂田町富岡","koaza":"金比羅","lat":37.355392,"lng":140.251017,"zip":"9630125"},{"town":"三穂田町富岡","koaza":"北山居","lat":37.352814,"lng":140.254768,"zip":"9630125"},{"town":"三穂田町富岡","koaza":"栗林","lat":37.348783,"lng":140.250595,"zip":"9630125"},{"town":"三穂田町富岡","koaza":"北鍜治内","lat":37.349019,"lng":140.265284,"zip":"9630125"},{"town":"三穂田町富岡","koaza":"南鍜治内","lat":37.348509,"lng":140.263749,"zip":"9630125"},{"town":"三穂田町富岡","koaza":"白山","lat":37.348256,"lng":140.263656,"zip":"9630125"},{"town":"三穂田町富岡","koaza":"道銘","lat":37.351548,"lng":140.262386,"zip":"9630125"},{"town":"三穂田町富岡","koaza":"中屋敷","lat":37.352867,"lng":140.263293,"zip":"9630125"},{"town":"三穂田町富岡","koaza":"蒲沢","lat":37.357767,"lng":140.258949,"zip":"9630125"},{"town":"三穂田町富岡","koaza":"平之允","lat":37.359586,"lng":140.258206,"zip":"9630125"},{"town":"三穂田町山口","koaza":"川底","lat":37.357102,"lng":140.263829,"zip":"9630126"},{"town":"三穂田町富岡","koaza":"田中","lat":37.355458,"lng":140.263954,"zip":"9630125"},{"town":"三穂田町富岡","koaza":"川底","lat":37.356848,"lng":140.274773,"zip":"9630125"},{"town":"三穂田町富岡","koaza":"水神","lat":37.354706,"lng":140.265493,"zip":"9630125"},{"town":"三穂田町富岡","koaza":"鍜治田","lat":37.349516,"lng":140.278862,"zip":"9630125"},{"town":"三穂田町鍋山","koaza":"人形山","lat":37.340527,"lng":140.286289,"zip":"9630123"},{"town":"三穂田町鍋山","koaza":"向前","lat":37.343798,"lng":140.284386,"zip":"9630123"},{"town":"三穂田町鍋山","koaza":"馬谷地","lat":37.345726,"lng":140.284425,"zip":"9630123"},{"town":"三穂田町鍋山","koaza":"春雨壇","lat":37.344861,"lng":140.283403,"zip":"9630123"},{"town":"三穂田町鍋山","koaza":"向屋敷","lat":37.345131,"lng":140.285497,"zip":"9630123"},{"town":"三穂田町鍋山","koaza":"仲屋敷","lat":37.346337,"lng":140.284963,"zip":"9630123"},{"town":"三穂田町鍋山","koaza":"番所","lat":37.346739,"lng":140.291584,"zip":"9630123"},{"town":"三穂田町鍋山","koaza":"大学","lat":37.345846,"lng":140.291824,"zip":"9630123"},{"town":"三穂田町鍋山","koaza":"大学屋敷","lat":37.34598,"lng":140.289985,"zip":"9630123"},{"town":"三穂田町鍋山","koaza":"西吹付","lat":37.351545,"lng":140.286221,"zip":"9630123"},{"town":"三穂田町鍋山","koaza":"袋内","lat":37.352174,"lng":140.287598,"zip":"9630123"},{"town":"三穂田町鍋山","koaza":"番ノ沢山","lat":37.351441,"lng":140.289628,"zip":"9630123"},{"town":"三穂田町駒屋","koaza":"阿弥陀","lat":37.354653,"lng":140.298223,"zip":"9630128"},{"town":"三穂田町駒屋","koaza":"柏坊","lat":37.356447,"lng":140.300115,"zip":"9630128"},{"town":"三穂田町駒屋","koaza":"諏訪前","lat":37.35638,"lng":140.297907,"zip":"9630128"},{"town":"三穂田町駒屋","koaza":"戸ノ内","lat":37.358631,"lng":140.300602,"zip":"9630128"},{"town":"三穂田町駒屋","koaza":"西畑","lat":37.35981,"lng":140.30054,"zip":"9630128"},{"town":"三穂田町駒屋","koaza":"上西ノ内","lat":37.362674,"lng":140.299682,"zip":"9630128"},{"town":"三穂田町駒屋","koaza":"上佐武坦","lat":37.36275,"lng":140.297174,"zip":"9630128"},{"town":"三穂田町駒屋","koaza":"佐武坦","lat":37.361688,"lng":140.29796,"zip":"9630128"},{"town":"三穂田町八幡","koaza":"北河原","lat":37.362336,"lng":140.290966,"zip":"9630129"},{"town":"三穂田町八幡","koaza":"中ノ林","lat":37.360444,"lng":140.278341,"zip":"9630129"},{"town":"三穂田町八幡","koaza":"兵次郎","lat":37.360415,"lng":140.283462,"zip":"9630129"},{"town":"三穂田町八幡","koaza":"上ノ台","lat":37.35986,"lng":140.286761,"zip":"9630129"},{"town":"三穂田町八幡","koaza":"北関場平","lat":37.358243,"lng":140.279499,"zip":"9630129"},{"town":"三穂田町富岡","koaza":"葛幡","lat":37.356414,"lng":140.288604,"zip":"9630125"},{"town":"三穂田町八幡","koaza":"東山","lat":37.359252,"lng":140.29208,"zip":"9630129"},{"town":"三穂田町富岡","koaza":"南坊ノ坦","lat":37.354883,"lng":140.28293,"zip":"9630125"},{"town":"三穂田町富岡","koaza":"笠田","lat":37.354223,"lng":140.277724,"zip":"9630125"},{"town":"三穂田町駒屋","koaza":"土部","lat":37.363624,"lng":140.305937,"zip":"9630128"},{"town":"三穂田町駒屋","koaza":"草喰内","lat":37.364592,"lng":140.30689,"zip":"9630128"},{"town":"三穂田町駒屋","koaza":"上北ノ内","lat":37.365888,"lng":140.305103,"zip":"9630128"},{"town":"三穂田町駒屋","koaza":"地形","lat":37.367087,"lng":140.303337,"zip":"9630128"},{"town":"三穂田町大谷","koaza":"東中ノ内","lat":37.372617,"lng":140.293009,"zip":"9630127"},{"town":"三穂田町大谷","koaza":"団子林","lat":37.373556,"lng":140.291164,"zip":"9630127"},{"town":"三穂田町大谷","koaza":"東入ノ内","lat":37.375076,"lng":140.290749,"zip":"9630127"},{"town":"三穂田町山口","koaza":"作田","lat":37.375852,"lng":140.271565,"zip":"9630126"},{"town":"三穂田町山口","koaza":"山崎山","lat":37.372981,"lng":140.278611,"zip":"9630126"},{"town":"三穂田町大谷","koaza":"南蟹沢","lat":37.373958,"lng":140.28106,"zip":"9630127"},{"town":"逢瀬町多田野","koaza":"広町原","lat":37.382588,"lng":140.292527,"zip":"9630213"},{"town":"大槻町","koaza":"向大橋","lat":37.384617,"lng":140.293689,"zip":"9630201"},{"town":"大槻町","koaza":"滑河内","lat":37.387832,"lng":140.292746,"zip":"9630201"},{"town":"逢瀬町多田野","koaza":"下白石","lat":37.388177,"lng":140.291939,"zip":"9630213"},{"town":"逢瀬町多田野","koaza":"道下","lat":37.390715,"lng":140.286148,"zip":"9630213"},{"town":"大槻町","koaza":"矢地内西","lat":37.391789,"lng":140.295352,"zip":"9630201"},{"town":"大槻町","koaza":"上ノ林","lat":37.392613,"lng":140.293052,"zip":"9630201"},{"town":"大槻町","koaza":"隠居免","lat":37.392954,"lng":140.295328,"zip":"9630201"},{"town":"大槻町","koaza":"新町","lat":37.388752,"lng":140.306355,"zip":"9630201"},{"town":"大槻町","koaza":"中新町","lat":37.388403,"lng":140.303378,"zip":"9630201"},{"town":"大槻町","koaza":"鷺田","lat":37.38818,"lng":140.309516,"zip":"9630201"},{"town":"大槻町","koaza":"沢田","lat":37.386876,"lng":140.310334,"zip":"9630201"},{"town":"大槻町","koaza":"下新町","lat":37.386897,"lng":140.307418,"zip":"9630201"},{"town":"大槻町","koaza":"西小峯","lat":37.386323,"lng":140.30909,"zip":"9630201"},{"town":"大槻町","koaza":"寺西","lat":37.388604,"lng":140.313305,"zip":"9630201"},{"town":"大槻町","koaza":"町裏","lat":37.38895,"lng":140.315497,"zip":"9630201"},{"town":"大槻町","koaza":"熊野木","lat":37.39018,"lng":140.318179,"zip":"9630201"},{"town":"大槻町","koaza":"愛宕北","lat":37.384255,"lng":140.318005,"zip":"9630201"},{"town":"大槻町","koaza":"愛宕","lat":37.382679,"lng":140.315204,"zip":"9630201"},{"town":"大槻町","koaza":"愛宕東","lat":37.382925,"lng":140.317306,"zip":"9630201"},{"town":"大槻町","koaza":"清水内前","lat":37.382581,"lng":140.324287,"zip":"9630201"},{"town":"安積町荒井","koaza":"東古屋敷","lat":37.37355,"lng":140.343692,"zip":"9630111"},{"town":"安積町荒井","koaza":"古屋敷山","lat":37.37234,"lng":140.343128,"zip":"9630111"},{"town":"安積町荒井","koaza":"古屋敷","lat":37.373292,"lng":140.342734,"zip":"9630111"},{"town":"安積町荒井","koaza":"六兵衛田","lat":37.374198,"lng":140.34689,"zip":"9630111"},{"town":"安積町荒井","koaza":"大池北","lat":37.372334,"lng":140.349098,"zip":"9630111"},{"town":"安積町荒井","koaza":"東六兵衛田","lat":37.372604,"lng":140.349507,"zip":"9630111"},{"town":"安積町荒井","koaza":"林ノ越","lat":37.370881,"lng":140.358269,"zip":"9630111"},{"town":"安積町荒井","koaza":"神送段","lat":37.368926,"lng":140.350581,"zip":"9630111"},{"town":"安積町荒井","koaza":"麦清水","lat":37.367226,"lng":140.349383,"zip":"9630111"},{"town":"三穂田町川田","koaza":"地蔵橋","lat":37.362222,"lng":140.320265,"zip":"9630121"},{"town":"三穂田町川田","koaza":"新田","lat":37.360177,"lng":140.318669,"zip":"9630121"},{"town":"三穂田町川田","koaza":"西白幡","lat":37.353834,"lng":140.323584,"zip":"9630121"},{"town":"三穂田町野田","koaza":"北田","lat":37.345666,"lng":140.303233,"zip":"9630122"},{"town":"三穂田町野田","koaza":"中沢目","lat":37.344748,"lng":140.302965,"zip":"9630122"},{"town":"三穂田町野田","koaza":"前山","lat":37.341437,"lng":140.304908,"zip":"9630122"},{"town":"三穂田町川田","koaza":"大徳原","lat":37.356147,"lng":140.331464,"zip":"9630121"},{"town":"安積町成田","koaza":"西島坂","lat":37.356769,"lng":140.342047,"zip":"9630112"},{"town":"安積町成田","koaza":"兎田","lat":37.35563,"lng":140.338102,"zip":"9630112"},{"town":"安積町成田","koaza":"葉ノ木山","lat":37.355911,"lng":140.34712,"zip":"9630112"},{"town":"安積町成田","koaza":"塊切山","lat":37.356101,"lng":140.349953,"zip":"9630112"},{"town":"安積町成田","koaza":"大谷地","lat":37.356955,"lng":140.351212,"zip":"9630112"},{"town":"安積町笹川","koaza":"平ノ上","lat":37.353526,"lng":140.352317,"zip":"9630102"},{"town":"安積町笹川","koaza":"滝袋","lat":37.351213,"lng":140.353567,"zip":"9630102"},{"town":"安積町笹川","koaza":"明見前","lat":37.350416,"lng":140.35557,"zip":"9630102"},{"town":"安積町笹川","koaza":"雷堂","lat":37.344814,"lng":140.362606,"zip":"9630102"},{"town":"安積町笹川","koaza":"念仏坦","lat":37.344304,"lng":140.367358,"zip":"9630102"},{"town":"安積町笹川","koaza":"上ノ台","lat":37.343994,"lng":140.36927,"zip":"9630102"},{"town":"安積町笹川","koaza":"道伝","lat":37.343183,"lng":140.369912,"zip":"9630102"},{"town":"安積町笹川","koaza":"陳場","lat":37.345017,"lng":140.373181,"zip":"9630102"},{"town":"安積町笹川","koaza":"東舘","lat":37.350382,"lng":140.370322,"zip":"9630102"},{"town":"安積町笹川","koaza":"高瀬","lat":37.350859,"lng":140.36962,"zip":"9630102"},{"town":"田村町御代田","koaza":"川前","lat":37.347308,"lng":140.374147,"zip":"9631164"},{"town":"田村町御代田","koaza":"御熊野","lat":37.351612,"lng":140.371908,"zip":"9631164"},{"town":"田村町徳定","koaza":"深田","lat":37.355318,"lng":140.376251,"zip":"9631165"},{"town":"田村町御代田","koaza":"遠北","lat":37.350673,"lng":140.37725,"zip":"9631164"},{"town":"田村町御代田","koaza":"天神","lat":37.349815,"lng":140.378165,"zip":"9631164"},{"town":"田村町御代田","koaza":"中町後","lat":37.348895,"lng":140.376994,"zip":"9631164"},{"town":"田村町御代田","koaza":"六地蔵","lat":37.34614,"lng":140.378337,"zip":"9631164"},{"town":"田村町御代田","koaza":"後町","lat":37.344659,"lng":140.379695,"zip":"9631164"},{"town":"田村町御代田","koaza":"外城","lat":37.344448,"lng":140.37705,"zip":"9631164"},{"town":"田村町御代田","koaza":"淵の上","lat":37.34297,"lng":140.376239,"zip":"9631164"},{"town":"田村町御代田","koaza":"月夜田","lat":37.329126,"lng":140.37643,"zip":"9631164"},{"town":"田村町御代田","koaza":"一ノ沢","lat":37.33642,"lng":140.376919,"zip":"9631164"},{"town":"田村町御代田","koaza":"陣日向","lat":37.33474,"lng":140.378801,"zip":"9631164"},{"town":"田村町正直","koaza":"物見段","lat":37.335217,"lng":140.3859,"zip":"9631163"},{"town":"田村町正直","koaza":"竹ノ内","lat":37.340964,"lng":140.394774,"zip":"9631163"},{"town":"田村町守山","koaza":"下原","lat":37.339746,"lng":140.397608,"zip":"9631155"},{"town":"田村町岩作","koaza":"梅木平","lat":37.317931,"lng":140.412912,"zip":"9631154"},{"town":"田村町守山","koaza":"扉田","lat":37.330454,"lng":140.406483,"zip":"9631155"},{"town":"田村町守山","koaza":"滑津","lat":37.327175,"lng":140.413293,"zip":"9631155"},{"town":"田村町岩作","koaza":"古道","lat":37.325926,"lng":140.417732,"zip":"9631154"},{"town":"田村町岩作","koaza":"四十坦","lat":37.323005,"lng":140.422599,"zip":"9631154"},{"town":"田村町岩作","koaza":"池ノ入","lat":37.324336,"lng":140.419908,"zip":"9631154"},{"town":"大槻町","koaza":"愛宕台","lat":37.381398,"lng":140.341918,"zip":"9630201"},{"town":"大槻町","koaza":"土手","lat":37.381961,"lng":140.342194,"zip":"9630201"},{"town":"大槻町","koaza":"肩張","lat":37.371252,"lng":140.325947,"zip":"9630201"},{"town":"大槻町","koaza":"下大谷","lat":37.375445,"lng":140.300233,"zip":"9630201"},{"town":"逢瀬町多田野","koaza":"中丸山","lat":37.386406,"lng":140.276204,"zip":"9630213"},{"town":"逢瀬町多田野","koaza":"宮久保","lat":37.388757,"lng":140.281216,"zip":"9630213"},{"town":"逢瀬町多田野","koaza":"一ノ渡戸","lat":37.385607,"lng":140.265638,"zip":"9630213"},{"town":"三穂田町山口","koaza":"西ノ作山","lat":37.380179,"lng":140.267671,"zip":"9630126"},{"town":"三穂田町山口","koaza":"年柄","lat":37.373414,"lng":140.261681,"zip":"9630126"},{"town":"三穂田町山口","koaza":"横山","lat":37.363456,"lng":140.25795,"zip":"9630126"},{"town":"三穂田町山口","koaza":"高淵","lat":37.362215,"lng":140.253521,"zip":"9630126"},{"town":"三穂田町山口","koaza":"細谷地","lat":37.36286,"lng":140.260263,"zip":"9630126"},{"town":"三穂田町富岡","koaza":"蟹内","lat":37.352884,"lng":140.279945,"zip":"9630125"},{"town":"三穂田町駒屋","koaza":"欠下","lat":37.359642,"lng":140.305094,"zip":"9630128"},{"town":"三穂田町川田","koaza":"北宿","lat":37.36236,"lng":140.316446,"zip":"9630121"},{"town":"三穂田町川田","koaza":"北","lat":37.362779,"lng":140.31833,"zip":"9630121"},{"town":"三穂田町川田","koaza":"新昭和","lat":37.36726,"lng":140.318564,"zip":"9630121"},{"town":"三穂田町川田","koaza":"山王崎","lat":37.366089,"lng":140.320237,"zip":"9630121"},{"town":"安積町笹川","koaza":"蛇石","lat":37.342613,"lng":140.362779,"zip":"9630102"},{"town":"安積町笹川","koaza":"岩ノ入","lat":37.345743,"lng":140.366334,"zip":"9630102"},{"town":"安積町笹川","koaza":"御所前","lat":37.349446,"lng":140.366585,"zip":"9630102"},{"town":"安積町笹川","koaza":"熊野前","lat":37.34799,"lng":140.367308,"zip":"9630102"},{"town":"安積町笹川","koaza":"瓜井平","lat":37.341939,"lng":140.365927,"zip":"9630102"},{"town":"安積町笹川","koaza":"経蔵","lat":37.347209,"lng":140.37053,"zip":"9630102"},{"town":"田村町御代田","koaza":"上江","lat":37.342461,"lng":140.382932,"zip":"9631164"},{"town":"田村町守山","koaza":"大町","lat":37.33375,"lng":140.409391,"zip":"9631155"},{"town":"田村町守山","koaza":"柏子川原","lat":37.327757,"lng":140.409201,"zip":"9631155"},{"town":"田村町守山","koaza":"城腰","lat":37.332009,"lng":140.414048,"zip":"9631155"},{"town":"田村町守山","koaza":"御殿河原","lat":37.336083,"lng":140.407775,"zip":"9631155"},{"town":"田村町山中","koaza":"前田","lat":37.337803,"lng":140.4054,"zip":"9631162"},{"town":"田村町大善寺","koaza":"上石切場","lat":37.350115,"lng":140.400855,"zip":"9631161"},{"town":"田村町大善寺","koaza":"下","lat":37.354216,"lng":140.399249,"zip":"9631161"},{"town":"田村町山中","koaza":"香田","lat":37.337612,"lng":140.412637,"zip":"9631162"},{"town":"田村町大供","koaza":"地蔵前","lat":37.332252,"lng":140.415316,"zip":"9631153"},{"town":"田村町金沢","koaza":"大谷地","lat":37.334349,"lng":140.42948,"zip":"9631151"},{"town":"田村町金沢","koaza":"田仲","lat":37.342112,"lng":140.440162,"zip":"9631151"},{"town":"田村町手代木","koaza":"中林","lat":37.357435,"lng":140.418789,"zip":"9630721"},{"town":"田村町手代木","koaza":"請地","lat":37.362927,"lng":140.417752,"zip":"9630721"},{"town":"中田町赤沼","koaza":"永田","lat":37.372799,"lng":140.416868,"zip":"9630714"},{"town":"田村町下行合","koaza":"五郎内","lat":37.372685,"lng":140.414145,"zip":"9630726"},{"town":"安積町荒井","koaza":"北千保","lat":37.370016,"lng":140.370097,"zip":"9630111"},{"town":"安積町荒井","koaza":"南千保","lat":37.369232,"lng":140.37045,"zip":"9630111"},{"town":"安積町荒井","koaza":"八雲","lat":37.368902,"lng":140.368078,"zip":"9630111"},{"town":"大槻町","koaza":"堤西","lat":37.399275,"lng":140.328254,"zip":"9630201"},{"town":"大槻町","koaza":"北八耕地","lat":37.395819,"lng":140.330009,"zip":"9630201"},{"town":"大槻町","koaza":"南八耕地","lat":37.394572,"lng":140.329956,"zip":"9630201"},{"town":"大槻町","koaza":"川廻","lat":37.391769,"lng":140.326176,"zip":"9630201"},{"town":"大槻町","koaza":"大六田","lat":37.391775,"lng":140.327099,"zip":"9630201"},{"town":"大槻町","koaza":"三合畑","lat":37.390103,"lng":140.324309,"zip":"9630201"},{"town":"大槻町","koaza":"城ノ内","lat":37.390335,"lng":140.315798,"zip":"9630201"},{"town":"大槻町","koaza":"中谷地","lat":37.387533,"lng":140.326862,"zip":"9630201"},{"town":"大槻町","koaza":"清水内","lat":37.384066,"lng":140.324224,"zip":"9630201"},{"town":"大槻町","koaza":"荒久","lat":37.386435,"lng":140.341282,"zip":"9630201"},{"town":"大槻町","koaza":"弥八池南","lat":37.386414,"lng":140.343717,"zip":"9630201"},{"town":"大槻町","koaza":"林ノ北","lat":37.385544,"lng":140.350232,"zip":"9630201"},{"town":"大槻町","koaza":"林ノ前","lat":37.384734,"lng":140.350897,"zip":"9630201"},{"town":"安積町荒井","koaza":"東北井","lat":37.373712,"lng":140.359766,"zip":"9630111"},{"town":"安積町荒井","koaza":"雁股","lat":37.375303,"lng":140.357195,"zip":"9630111"},{"town":"安積町荒井","koaza":"北鎗ヶ池","lat":37.374242,"lng":140.353753,"zip":"9630111"},{"town":"安積町荒井","koaza":"大池頭","lat":37.371191,"lng":140.348699,"zip":"9630111"},{"town":"安積町荒井","koaza":"洞田","lat":37.370539,"lng":140.366049,"zip":"9630111"},{"town":"安積町荒井","koaza":"舘東屋敷","lat":37.369317,"lng":140.366009,"zip":"9630111"},{"town":"安積町荒井","koaza":"東屋敷","lat":37.368789,"lng":140.366458,"zip":"9630111"},{"town":"田村町山中","koaza":"日照田","lat":37.3439,"lng":140.406452,"zip":"9631162"},{"town":"田村町守山","koaza":"三ノ丸","lat":37.330366,"lng":140.412415,"zip":"9631155"},{"town":"田村町大善寺","koaza":"舘","lat":37.353418,"lng":140.399531,"zip":"9631161"},{"town":"田村町上行合","koaza":"南山田","lat":37.359515,"lng":140.408256,"zip":"9630724"},{"town":"田村町上行合","koaza":"城山","lat":37.361889,"lng":140.405903,"zip":"9630724"},{"town":"田村町金屋","koaza":"淵ノ上","lat":37.359955,"lng":140.390583,"zip":"9630725"},{"town":"田村町上行合","koaza":"北古川","lat":37.367652,"lng":140.397001,"zip":"9630724"},{"town":"大槻町","koaza":"西宮前","lat":37.394251,"lng":140.319782,"zip":"9630201"},{"town":"大槻町","koaza":"普門寺坦","lat":37.393521,"lng":140.322331,"zip":"9630201"},{"town":"大槻町","koaza":"池上西","lat":37.394826,"lng":140.328819,"zip":"9630201"},{"town":"大槻町","koaza":"弥八池北","lat":37.387403,"lng":140.344713,"zip":"9630201"},{"town":"安積町荒井","koaza":"柴宮","lat":37.374543,"lng":140.33982,"zip":"9630111"},{"town":"安積町成田","koaza":"三角原","lat":37.366603,"lng":140.34298,"zip":"9630112"},{"town":"安積町笹川","koaza":"蜂田","lat":37.351232,"lng":140.361159,"zip":"9630102"},{"town":"田村町徳定","koaza":"北堀込","lat":37.357008,"lng":140.377839,"zip":"9631165"},{"town":"田村町徳定","koaza":"向前田","lat":37.356003,"lng":140.378592,"zip":"9631165"},{"town":"安積町荒井","koaza":"道場","lat":37.364483,"lng":140.3729,"zip":"9630111"},{"town":"安積町荒井","koaza":"飯塚","lat":37.366342,"lng":140.373126,"zip":"9630111"},{"town":"安積町荒井","koaza":"猫田","lat":37.3658,"lng":140.373785,"zip":"9630111"},{"town":"日和田町高倉","koaza":"大川岸","lat":37.48448,"lng":140.406059,"zip":"9630531"},{"town":"日和田町高倉","koaza":"天王山","lat":37.478587,"lng":140.406939,"zip":"9630531"},{"town":"日和田町高倉","koaza":"材木屋","lat":37.474107,"lng":140.406567,"zip":"9630531"},{"town":"日和田町梅沢","koaza":"北川面","lat":37.46415,"lng":140.421408,"zip":"9630532"},{"town":"日和田町高倉","koaza":"水石沢","lat":37.467481,"lng":140.405669,"zip":"9630531"},{"town":"日和田町梅沢","koaza":"瀬戸山","lat":37.462537,"lng":140.404884,"zip":"9630532"},{"town":"日和田町高倉","koaza":"観音山","lat":37.465337,"lng":140.401001,"zip":"9630531"},{"town":"日和田町高倉","koaza":"地極田山","lat":37.468408,"lng":140.398848,"zip":"9630531"},{"town":"日和田町高倉","koaza":"石沢","lat":37.470268,"lng":140.399735,"zip":"9630531"},{"town":"日和田町高倉","koaza":"舘腰","lat":37.47854,"lng":140.399724,"zip":"9630531"},{"town":"日和田町高倉","koaza":"高森","lat":37.466115,"lng":140.392556,"zip":"9630531"},{"town":"日和田町高倉","koaza":"杉下","lat":37.472834,"lng":140.376233,"zip":"9630531"},{"town":"日和田町高倉","koaza":"荒田","lat":37.470068,"lng":140.376734,"zip":"9630531"},{"town":"日和田町","koaza":"大沼","lat":37.456926,"lng":140.373687,"zip":"9630534"},{"town":"日和田町","koaza":"菖蒲池","lat":37.452323,"lng":140.378294,"zip":"9630534"},{"town":"喜久田町早稲原","koaza":"山根","lat":37.453489,"lng":140.365935,"zip":"9630546"},{"town":"喜久田町早稲原","koaza":"寺田","lat":37.452835,"lng":140.365898,"zip":"9630546"},{"town":"喜久田町早稲原","koaza":"下ノ端","lat":37.455,"lng":140.366429,"zip":"9630546"},{"town":"喜久田町堀之内","koaza":"森子段","lat":37.459263,"lng":140.347937,"zip":"9630541"},{"town":"喜久田町堀之内","koaza":"堀ノ在","lat":37.456271,"lng":140.345042,"zip":"9630541"},{"town":"喜久田町堀之内","koaza":"瓶焼場","lat":37.45529,"lng":140.340915,"zip":"9630541"},{"town":"喜久田町堀之内","koaza":"堂城前","lat":37.455798,"lng":140.335347,"zip":"9630541"},{"town":"喜久田町堀之内","koaza":"宮","lat":37.456433,"lng":140.333316,"zip":"9630541"},{"town":"喜久田町堀之内","koaza":"松山下","lat":37.454945,"lng":140.331161,"zip":"9630541"},{"town":"喜久田町堀之内","koaza":"松山","lat":37.456083,"lng":140.329557,"zip":"9630541"},{"town":"喜久田町堀之内","koaza":"橋本池西","lat":37.458327,"lng":140.322222,"zip":"9630541"},{"town":"喜久田町堀之内","koaza":"新池","lat":37.458083,"lng":140.325138,"zip":"9630541"},{"town":"熱海町下伊豆島","koaza":"定七林","lat":37.459444,"lng":140.320283,"zip":"9631305"},{"town":"熱海町下伊豆島","koaza":"下外手作","lat":37.456458,"lng":140.323226,"zip":"9631305"},{"town":"熱海町下伊豆島","koaza":"西戸城","lat":37.454202,"lng":140.315689,"zip":"9631305"},{"town":"熱海町下伊豆島","koaza":"火打庖丁","lat":37.450755,"lng":140.326699,"zip":"9631305"},{"town":"熱海町下伊豆島","koaza":"古戸","lat":37.45073,"lng":140.321757,"zip":"9631305"},{"town":"熱海町下伊豆島","koaza":"影池","lat":37.445226,"lng":140.32296,"zip":"9631305"},{"town":"熱海町下伊豆島","koaza":"仲久保","lat":37.444276,"lng":140.322531,"zip":"9631305"},{"town":"熱海町下伊豆島","koaza":"南前","lat":37.443135,"lng":140.323484,"zip":"9631305"},{"town":"片平町","koaza":"上向","lat":37.440531,"lng":140.313919,"zip":"9630211"},{"town":"片平町","koaza":"権現林","lat":37.436183,"lng":140.317251,"zip":"9630211"},{"town":"片平町","koaza":"権現田","lat":37.436464,"lng":140.320177,"zip":"9630211"},{"town":"片平町","koaza":"山田","lat":37.436879,"lng":140.31344,"zip":"9630211"},{"town":"片平町","koaza":"稲場","lat":37.435424,"lng":140.313144,"zip":"9630211"},{"town":"片平町","koaza":"庚申作","lat":37.434716,"lng":140.309154,"zip":"9630211"},{"town":"富久山町久保田","koaza":"空谷地","lat":37.417946,"lng":140.390462,"zip":"9638071"},{"town":"富久山町八山田","koaza":"西池頭","lat":37.433251,"lng":140.374535,"zip":"9638051"},{"town":"富久山町八山田","koaza":"地蔵面","lat":37.437763,"lng":140.368097,"zip":"9638051"},{"town":"富久山町八山田","koaza":"馬放場","lat":37.436421,"lng":140.380901,"zip":"9638051"},{"town":"日和田町","koaza":"小山田","lat":37.440326,"lng":140.383899,"zip":"9630534"},{"town":"富久山町八山田","koaza":"北作","lat":37.436559,"lng":140.387681,"zip":"9638051"},{"town":"富久山町八山田","koaza":"東大森","lat":37.432137,"lng":140.385967,"zip":"9638051"},{"town":"富久山町八山田","koaza":"菱池","lat":37.432492,"lng":140.387697,"zip":"9638051"},{"town":"富久山町八山田","koaza":"池向","lat":37.424301,"lng":140.387821,"zip":"9638051"},{"town":"富久山町福原","koaza":"東内打","lat":37.414907,"lng":140.398986,"zip":"9638061"},{"town":"富久山町久保田","koaza":"深田","lat":37.411944,"lng":140.400376,"zip":"9638071"},{"town":"田村町金屋","koaza":"舘ノ内","lat":37.360933,"lng":140.389015,"zip":"9630725"},{"town":"田村町山中","koaza":"江下","lat":37.344248,"lng":140.399995,"zip":"9631162"},{"town":"田村町山中","koaza":"道城田","lat":37.336299,"lng":140.409465,"zip":"9631162"},{"town":"中田町高倉","koaza":"町","lat":37.362312,"lng":140.44693,"zip":"9630713"},{"town":"中田町高倉","koaza":"槻ノ口","lat":37.364109,"lng":140.448738,"zip":"9630713"},{"town":"中田町高倉","koaza":"松山","lat":37.3707,"lng":140.437635,"zip":"9630713"},{"town":"中田町高倉","koaza":"古御舘","lat":37.37331,"lng":140.445478,"zip":"9630713"},{"town":"中田町高倉","koaza":"茂平前","lat":37.378076,"lng":140.445305,"zip":"9630713"},{"town":"中田町赤沼","koaza":"西平","lat":37.375376,"lng":140.426756,"zip":"9630714"},{"town":"大平町","koaza":"広田","lat":37.380796,"lng":140.425695,"zip":"9638817"},{"town":"蒲倉町","koaza":"カチ内","lat":37.393564,"lng":140.425331,"zip":"9630703"},{"town":"蒲倉町","koaza":"西ノ内","lat":37.393354,"lng":140.426305,"zip":"9630703"},{"town":"蒲倉町","koaza":"七ッ割","lat":37.39263,"lng":140.438888,"zip":"9630703"},{"town":"下白岩町","koaza":"池田","lat":37.402984,"lng":140.433662,"zip":"9630663"},{"town":"下白岩町","koaza":"竹野花向","lat":37.401034,"lng":140.429589,"zip":"9630663"},{"town":"安原町","koaza":"前","lat":37.396576,"lng":140.41299,"zip":"9630666"},{"town":"安原町","koaza":"向舘","lat":37.395399,"lng":140.413705,"zip":"9630666"},{"town":"熱海町中山","koaza":"二渡","lat":37.493708,"lng":140.245887,"zip":"9631308"},{"town":"熱海町安子島","koaza":"荻河原","lat":37.476463,"lng":140.291867,"zip":"9631304"},{"town":"熱海町安子島","koaza":"藤平","lat":37.478509,"lng":140.29501,"zip":"9631304"},{"town":"熱海町上伊豆島","koaza":"裡森","lat":37.465929,"lng":140.286309,"zip":"9631306"},{"town":"熱海町長橋","koaza":"沼ノ沢","lat":37.463678,"lng":140.290496,"zip":"9631307"},{"town":"熱海町上伊豆島","koaza":"西畑","lat":37.454766,"lng":140.295477,"zip":"9631306"},{"town":"熱海町上伊豆島","koaza":"横峯","lat":37.464199,"lng":140.293342,"zip":"9631306"},{"town":"熱海町上伊豆島","koaza":"町尻","lat":37.457644,"lng":140.298348,"zip":"9631306"},{"town":"熱海町上伊豆島","koaza":"前田","lat":37.455642,"lng":140.301426,"zip":"9631306"},{"town":"熱海町上伊豆島","koaza":"上町","lat":37.454805,"lng":140.298389,"zip":"9631306"},{"town":"熱海町安子島","koaza":"四ツ背山","lat":37.45987,"lng":140.310662,"zip":"9631304"},{"town":"熱海町安子島","koaza":"笹野","lat":37.466082,"lng":140.307968,"zip":"9631304"},{"town":"熱海町安子島","koaza":"南山","lat":37.467677,"lng":140.298718,"zip":"9631304"},{"town":"熱海町安子島","koaza":"馬立","lat":37.467979,"lng":140.297342,"zip":"9631304"},{"town":"片平町","koaza":"荒池下","lat":37.421374,"lng":140.294966,"zip":"9630211"},{"town":"片平町","koaza":"羽前場","lat":37.430237,"lng":140.287852,"zip":"9630211"},{"town":"片平町","koaza":"南下","lat":37.41864,"lng":140.290376,"zip":"9630211"},{"town":"片平町","koaza":"東新小屋","lat":37.417547,"lng":140.296249,"zip":"9630211"},{"town":"片平町","koaza":"堂久保","lat":37.41726,"lng":140.296934,"zip":"9630211"},{"town":"片平町","koaza":"南中町","lat":37.419923,"lng":140.303981,"zip":"9630211"},{"town":"片平町","koaza":"町南","lat":37.4192,"lng":140.305186,"zip":"9630211"},{"town":"片平町","koaza":"清水","lat":37.417779,"lng":140.305406,"zip":"9630211"},{"town":"片平町","koaza":"畑鉾","lat":37.418855,"lng":140.305133,"zip":"9630211"},{"town":"片平町","koaza":"与菜沢","lat":37.413441,"lng":140.299969,"zip":"9630211"},{"town":"逢瀬町河内","koaza":"原西","lat":37.413669,"lng":140.292291,"zip":"9630212"},{"town":"逢瀬町河内","koaza":"東川原","lat":37.41357,"lng":140.294656,"zip":"9630212"},{"town":"逢瀬町河内","koaza":"西原","lat":37.408003,"lng":140.29429,"zip":"9630212"},{"town":"逢瀬町河内","koaza":"四十内","lat":37.408279,"lng":140.295617,"zip":"9630212"},{"town":"逢瀬町河内","koaza":"江下","lat":37.411567,"lng":140.28708,"zip":"9630212"},{"town":"逢瀬町河内","koaza":"塩ノ原前","lat":37.409085,"lng":140.285086,"zip":"9630212"},{"town":"逢瀬町河内","koaza":"藤田","lat":37.413855,"lng":140.278171,"zip":"9630212"},{"town":"逢瀬町河内","koaza":"西長倉","lat":37.411484,"lng":140.272055,"zip":"9630212"},{"town":"逢瀬町多田野","koaza":"寒風坦","lat":37.397222,"lng":140.266468,"zip":"9630213"},{"town":"逢瀬町多田野","koaza":"南大界","lat":37.395906,"lng":140.272739,"zip":"9630213"},{"town":"逢瀬町多田野","koaza":"釜ノ前","lat":37.38936,"lng":140.268614,"zip":"9630213"},{"town":"逢瀬町多田野","koaza":"赤坂原","lat":37.391809,"lng":140.260926,"zip":"9630213"},{"town":"逢瀬町多田野","koaza":"久保原","lat":37.394549,"lng":140.25919,"zip":"9630213"},{"town":"逢瀬町多田野","koaza":"細山","lat":37.400877,"lng":140.251599,"zip":"9630213"},{"town":"三穂田町山口","koaza":"大窪","lat":37.378284,"lng":140.273295,"zip":"9630126"},{"town":"三穂田町大谷","koaza":"南山根","lat":37.36886,"lng":140.292775,"zip":"9630127"},{"town":"三穂田町山口","koaza":"土俵場","lat":37.363669,"lng":140.271064,"zip":"9630126"},{"town":"三穂田町山口","koaza":"阿弥陀","lat":37.362433,"lng":140.277779,"zip":"9630126"},{"town":"三穂田町山口","koaza":"空谷地","lat":37.364801,"lng":140.27264,"zip":"9630126"},{"town":"三穂田町山口","koaza":"台","lat":37.367969,"lng":140.268568,"zip":"9630126"},{"town":"三穂田町野田","koaza":"池ノ上","lat":37.341438,"lng":140.299327,"zip":"9630122"},{"town":"三穂田町川田","koaza":"東桜木","lat":37.358238,"lng":140.314326,"zip":"9630121"},{"town":"日和田町高倉","koaza":"渋谷","lat":37.478713,"lng":140.402351,"zip":"9630531"},{"town":"日和田町高倉","koaza":"深川","lat":37.47522,"lng":140.391349,"zip":"9630531"},{"town":"日和田町高倉","koaza":"舘東","lat":37.474364,"lng":140.397536,"zip":"9630531"},{"town":"日和田町高倉","koaza":"下タ岸","lat":37.474025,"lng":140.393809,"zip":"9630531"},{"town":"日和田町高倉","koaza":"坂","lat":37.468317,"lng":140.387451,"zip":"9630531"},{"town":"日和田町高倉","koaza":"烏台","lat":37.470781,"lng":140.391928,"zip":"9630531"},{"town":"日和田町高倉","koaza":"石田","lat":37.470283,"lng":140.395769,"zip":"9630531"},{"town":"日和田町高倉","koaza":"仁池山","lat":37.466066,"lng":140.383517,"zip":"9630531"},{"town":"日和田町","koaza":"芳池","lat":37.45583,"lng":140.382108,"zip":"9630534"},{"town":"日和田町高倉","koaza":"横森","lat":37.461014,"lng":140.388376,"zip":"9630531"},{"town":"日和田町","koaza":"北ノ入","lat":37.453865,"lng":140.388732,"zip":"9630534"},{"town":"日和田町","koaza":"舘","lat":37.44832,"lng":140.385318,"zip":"9630534"},{"town":"日和田町","koaza":"東原","lat":37.446101,"lng":140.39905,"zip":"9630534"},{"town":"日和田町","koaza":"車道","lat":37.448593,"lng":140.396956,"zip":"9630534"},{"town":"日和田町","koaza":"東岡","lat":37.44853,"lng":140.406063,"zip":"9630534"},{"town":"大槻町","koaza":"中反田","lat":37.392985,"lng":140.324875,"zip":"9630201"},{"town":"大槻町","koaza":"西宮北","lat":37.396476,"lng":140.321431,"zip":"9630201"},{"town":"大槻町","koaza":"中ノ平南","lat":37.395958,"lng":140.312829,"zip":"9630201"},{"town":"大槻町","koaza":"北洞","lat":37.403424,"lng":140.317573,"zip":"9630201"},{"town":"大槻町","koaza":"中ノ平東","lat":37.400954,"lng":140.31397,"zip":"9630201"},{"town":"片平町","koaza":"堺","lat":37.402852,"lng":140.311758,"zip":"9630211"},{"town":"片平町","koaza":"大谷草池下","lat":37.40632,"lng":140.315009,"zip":"9630211"},{"town":"大槻町","koaza":"早稲田","lat":37.402149,"lng":140.319915,"zip":"9630201"},{"town":"大槻町","koaza":"大坪","lat":37.403765,"lng":140.327089,"zip":"9630201"},{"town":"片平町","koaza":"遠辺田","lat":37.406633,"lng":140.330218,"zip":"9630211"},{"town":"片平町","koaza":"前田","lat":37.407356,"lng":140.327647,"zip":"9630211"},{"town":"片平町","koaza":"西出磬山","lat":37.409605,"lng":140.320257,"zip":"9630211"},{"town":"片平町","koaza":"木宮道西","lat":37.415392,"lng":140.32055,"zip":"9630211"},{"town":"片平町","koaza":"中舘岡","lat":37.415846,"lng":140.317168,"zip":"9630211"},{"town":"片平町","koaza":"舘堀","lat":37.41929,"lng":140.323511,"zip":"9630211"},{"town":"片平町","koaza":"上極楽","lat":37.420044,"lng":140.315634,"zip":"9630211"},{"town":"片平町","koaza":"北地の岡","lat":37.421807,"lng":140.313158,"zip":"9630211"},{"town":"片平町","koaza":"大笠松","lat":37.422381,"lng":140.312437,"zip":"9630211"},{"town":"片平町","koaza":"大根田","lat":37.421028,"lng":140.31097,"zip":"9630211"},{"town":"片平町","koaza":"東戸城","lat":37.421719,"lng":140.307124,"zip":"9630211"},{"town":"片平町","koaza":"西戸城","lat":37.421856,"lng":140.305594,"zip":"9630211"},{"town":"片平町","koaza":"中町","lat":37.420742,"lng":140.305274,"zip":"9630211"},{"town":"片平町","koaza":"中町裏","lat":37.421593,"lng":140.304922,"zip":"9630211"},{"town":"片平町","koaza":"上町","lat":37.420877,"lng":140.304199,"zip":"9630211"},{"town":"片平町","koaza":"天王","lat":37.420984,"lng":140.302896,"zip":"9630211"},{"town":"片平町","koaza":"上舘","lat":37.420527,"lng":140.300208,"zip":"9630211"},{"town":"片平町","koaza":"北蛇光","lat":37.425366,"lng":140.297362,"zip":"9630211"},{"town":"片平町","koaza":"鳥井戸","lat":37.427971,"lng":140.295903,"zip":"9630211"},{"town":"片平町","koaza":"寺西","lat":37.426676,"lng":140.297422,"zip":"9630211"},{"town":"片平町","koaza":"寺下","lat":37.42651,"lng":140.300755,"zip":"9630211"},{"town":"片平町","koaza":"鳥戸","lat":37.428806,"lng":140.293196,"zip":"9630211"},{"town":"片平町","koaza":"東久保","lat":37.431268,"lng":140.299246,"zip":"9630211"},{"town":"片平町","koaza":"窪山","lat":37.432359,"lng":140.29478,"zip":"9630211"},{"town":"片平町","koaza":"地神","lat":37.43581,"lng":140.29832,"zip":"9630211"},{"town":"逢瀬町河内","koaza":"下坪","lat":37.442592,"lng":140.2903,"zip":"9630212"},{"town":"片平町","koaza":"大久保","lat":37.439816,"lng":140.287681,"zip":"9630211"},{"town":"逢瀬町河内","koaza":"上位ケ沢","lat":37.427647,"lng":140.273652,"zip":"9630212"},{"town":"逢瀬町河内","koaza":"日室","lat":37.429571,"lng":140.271658,"zip":"9630212"},{"town":"逢瀬町河内","koaza":"柳沢","lat":37.428228,"lng":140.265079,"zip":"9630212"},{"town":"逢瀬町河内","koaza":"八幡","lat":37.423571,"lng":140.269397,"zip":"9630212"},{"town":"逢瀬町河内","koaza":"西田","lat":37.420384,"lng":140.269729,"zip":"9630212"},{"town":"逢瀬町河内","koaza":"鍜治内","lat":37.41694,"lng":140.273839,"zip":"9630212"},{"town":"逢瀬町多田野","koaza":"西長倉山","lat":37.408285,"lng":140.265562,"zip":"9630213"},{"town":"逢瀬町河内","koaza":"西午房沢","lat":37.414385,"lng":140.264784,"zip":"9630212"},{"town":"逢瀬町多田野","koaza":"腰牧","lat":37.402027,"lng":140.26341,"zip":"9630213"},{"town":"逢瀬町多田野","koaza":"赤穂木林","lat":37.403016,"lng":140.261711,"zip":"9630213"},{"town":"逢瀬町多田野","koaza":"赤坂","lat":37.389326,"lng":140.260697,"zip":"9630213"},{"town":"三穂田町山口","koaza":"山田","lat":37.367317,"lng":140.275433,"zip":"9630126"},{"town":"三穂田町山口","koaza":"十文字","lat":37.366168,"lng":140.273987,"zip":"9630126"},{"town":"三穂田町山口","koaza":"膳部西","lat":37.366759,"lng":140.281426,"zip":"9630126"},{"town":"大槻町","koaza":"胡桃沢北","lat":37.380635,"lng":140.308915,"zip":"9630201"},{"town":"大槻町","koaza":"胡桃沢西","lat":37.379903,"lng":140.305636,"zip":"9630201"},{"town":"大槻町","koaza":"坦ノ腰","lat":37.380368,"lng":140.311081,"zip":"9630201"},{"town":"大槻町","koaza":"胡桃沢東","lat":37.3794,"lng":140.309822,"zip":"9630201"},{"town":"大槻町","koaza":"愛宕西","lat":37.384544,"lng":140.313293,"zip":"9630201"},{"town":"大槻町","koaza":"小峯","lat":37.3852,"lng":140.313546,"zip":"9630201"},{"town":"大槻町","koaza":"中島","lat":37.38839,"lng":140.301123,"zip":"9630201"},{"town":"大槻町","koaza":"八頭","lat":37.391214,"lng":140.310353,"zip":"9630201"},{"town":"片平町","koaza":"午頭天池下","lat":37.424425,"lng":140.321985,"zip":"9630211"},{"town":"片平町","koaza":"南久保","lat":37.423095,"lng":140.319288,"zip":"9630211"},{"town":"片平町","koaza":"森南","lat":37.423505,"lng":140.323124,"zip":"9630211"},{"town":"片平町","koaza":"石切場","lat":37.420311,"lng":140.320675,"zip":"9630211"},{"town":"片平町","koaza":"清水西","lat":37.420921,"lng":140.323524,"zip":"9630211"},{"town":"片平町","koaza":"上高森","lat":37.407381,"lng":140.324354,"zip":"9630211"},{"town":"片平町","koaza":"西高森","lat":37.413709,"lng":140.33111,"zip":"9630211"},{"town":"片平町","koaza":"川向","lat":37.413578,"lng":140.329144,"zip":"9630211"},{"town":"片平町","koaza":"大山","lat":37.416118,"lng":140.331417,"zip":"9630211"},{"town":"片平町","koaza":"蟻塚","lat":37.413161,"lng":140.324998,"zip":"9630211"},{"town":"片平町","koaza":"道岸","lat":37.41501,"lng":140.327527,"zip":"9630211"},{"town":"富田町","koaza":"西町下","lat":37.42063,"lng":140.343506,"zip":"9638041"},{"town":"富田町","koaza":"石阿弥陀","lat":37.4263,"lng":140.335074,"zip":"9638041"},{"town":"安積町荒井","koaza":"北井後","lat":37.373751,"lng":140.358054,"zip":"9630111"},{"town":"大槻町","koaza":"小山田表","lat":37.40448,"lng":140.339896,"zip":"9630201"},{"town":"富田町","koaza":"上ノ内","lat":37.422161,"lng":140.351014,"zip":"9638041"},{"town":"富田町","koaza":"山前","lat":37.422144,"lng":140.352244,"zip":"9638041"},{"town":"富田町","koaza":"久ノ内","lat":37.419407,"lng":140.34626,"zip":"9638041"},{"town":"富田町","koaza":"久根下","lat":37.427108,"lng":140.342824,"zip":"9638041"},{"town":"富田町","koaza":"木葉山","lat":37.429403,"lng":140.341108,"zip":"9638041"},{"town":"喜久田町","koaza":"丸山","lat":37.429624,"lng":140.333989,"zip":"9630551"},{"town":"片平町","koaza":"柳作","lat":37.431982,"lng":140.329851,"zip":"9630211"},{"town":"片平町","koaza":"樋口","lat":37.42916,"lng":140.325492,"zip":"9630211"},{"town":"片平町","koaza":"北梅木","lat":37.431034,"lng":140.32211,"zip":"9630211"},{"town":"片平町","koaza":"梨久保","lat":37.430071,"lng":140.321209,"zip":"9630211"},{"town":"片平町","koaza":"北小寺山","lat":37.429276,"lng":140.321445,"zip":"9630211"},{"town":"片平町","koaza":"上直道","lat":37.430045,"lng":140.323297,"zip":"9630211"},{"town":"片平町","koaza":"西畑","lat":37.427451,"lng":140.319557,"zip":"9630211"},{"town":"片平町","koaza":"柴木戸","lat":37.431728,"lng":140.317939,"zip":"9630211"},{"town":"片平町","koaza":"下平","lat":37.434905,"lng":140.309644,"zip":"9630211"},{"town":"片平町","koaza":"北三天","lat":37.434837,"lng":140.319399,"zip":"9630211"},{"town":"熱海町長橋","koaza":"井戸沢","lat":37.447893,"lng":140.284337,"zip":"9631307"},{"town":"逢瀬町河内","koaza":"石廻","lat":37.44437,"lng":140.288584,"zip":"9630212"},{"town":"逢瀬町河内","koaza":"小萱","lat":37.439341,"lng":140.276576,"zip":"9630212"},{"town":"逢瀬町夏出","koaza":"松葉","lat":37.445459,"lng":140.275063,"zip":"9630214"},{"town":"逢瀬町夏出","koaza":"台田林","lat":37.445909,"lng":140.270229,"zip":"9630214"},{"town":"熱海町長橋","koaza":"五十内","lat":37.453218,"lng":140.284589,"zip":"9631307"},{"town":"熱海町長橋","koaza":"一ノ関","lat":37.458937,"lng":140.282963,"zip":"9631307"},{"town":"熱海町上伊豆島","koaza":"塚田","lat":37.454023,"lng":140.296477,"zip":"9631306"},{"town":"熱海町上伊豆島","koaza":"寺田","lat":37.45432,"lng":140.298622,"zip":"9631306"},{"town":"熱海町安子島","koaza":"山ノ内","lat":37.472605,"lng":140.297194,"zip":"9631304"},{"town":"熱海町玉川","koaza":"万海田","lat":37.482886,"lng":140.291167,"zip":"9631303"},{"town":"熱海町玉川","koaza":"阿曽沢山","lat":37.486828,"lng":140.286942,"zip":"9631303"},{"town":"熱海町玉川","koaza":"中在家","lat":37.48186,"lng":140.294063,"zip":"9631303"},{"town":"熱海町玉川","koaza":"平九郎内","lat":37.485366,"lng":140.296852,"zip":"9631303"},{"town":"熱海町玉川","koaza":"雇沢","lat":37.484463,"lng":140.299008,"zip":"9631303"},{"town":"熱海町玉川","koaza":"舘越","lat":37.483336,"lng":140.297403,"zip":"9631303"},{"town":"熱海町玉川","koaza":"五ノ神","lat":37.48035,"lng":140.300494,"zip":"9631303"},{"town":"熱海町安子島","koaza":"薬師堂","lat":37.478301,"lng":140.302688,"zip":"9631304"},{"town":"熱海町安子島","koaza":"馬場","lat":37.47852,"lng":140.304649,"zip":"9631304"},{"town":"熱海町玉川","koaza":"河原","lat":37.480968,"lng":140.306061,"zip":"9631303"},{"town":"熱海町高玉","koaza":"北梨子平","lat":37.498004,"lng":140.278571,"zip":"9631302"},{"town":"熱海町高玉","koaza":"堺ノ目","lat":37.492265,"lng":140.288612,"zip":"9631302"},{"town":"熱海町高玉","koaza":"仲当","lat":37.491837,"lng":140.287992,"zip":"9631302"},{"town":"熱海町玉川","koaza":"古川","lat":37.485269,"lng":140.302198,"zip":"9631303"},{"town":"熱海町安子島","koaza":"上河原","lat":37.479107,"lng":140.310271,"zip":"9631304"},{"town":"熱海町安子島","koaza":"一本木","lat":37.478383,"lng":140.316003,"zip":"9631304"},{"town":"熱海町安子島","koaza":"舘前","lat":37.473759,"lng":140.308392,"zip":"9631304"},{"town":"熱海町安子島","koaza":"筵田","lat":37.473662,"lng":140.311819,"zip":"9631304"},{"town":"熱海町安子島","koaza":"出シ","lat":37.47077,"lng":140.310205,"zip":"9631304"},{"town":"熱海町安子島","koaza":"笹台","lat":37.464202,"lng":140.312965,"zip":"9631304"},{"town":"熱海町安子島","koaza":"二ノ戸","lat":37.470691,"lng":140.317524,"zip":"9631304"},{"town":"喜久田町堀之内","koaza":"堀切沢","lat":37.466143,"lng":140.331711,"zip":"9630541"},{"town":"喜久田町堀之内","koaza":"堀切","lat":37.466164,"lng":140.335868,"zip":"9630541"},{"town":"喜久田町堀之内","koaza":"堀切東","lat":37.465746,"lng":140.338023,"zip":"9630541"},{"town":"喜久田町前田沢","koaza":"上入沢","lat":37.46559,"lng":140.343376,"zip":"9630543"},{"town":"喜久田町前田沢","koaza":"赤坂","lat":37.463394,"lng":140.364083,"zip":"9630543"},{"town":"喜久田町早稲原","koaza":"高林","lat":37.455887,"lng":140.354045,"zip":"9630546"},{"town":"喜久田町堀之内","koaza":"金久保","lat":37.450069,"lng":140.342145,"zip":"9630541"},{"town":"喜久田町堀之内","koaza":"細田","lat":37.451092,"lng":140.334584,"zip":"9630541"},{"town":"喜久田町堀之内","koaza":"八斗蒔","lat":37.449737,"lng":140.340211,"zip":"9630541"},{"town":"喜久田町","koaza":"権現林","lat":37.433586,"lng":140.340771,"zip":"9630551"},{"town":"片平町","koaza":"柳作東","lat":37.431488,"lng":140.330963,"zip":"9630211"},{"town":"片平町","koaza":"上梅木","lat":37.429609,"lng":140.318647,"zip":"9630211"},{"town":"片平町","koaza":"菱池","lat":37.418787,"lng":140.312882,"zip":"9630211"},{"town":"片平町","koaza":"小林","lat":37.428091,"lng":140.305259,"zip":"9630211"},{"town":"富田町","koaza":"下赤沼","lat":37.423915,"lng":140.350961,"zip":"9638041"},{"town":"富田町","koaza":"町東","lat":37.420167,"lng":140.346016,"zip":"9638041"},{"town":"富田町","koaza":"菱内","lat":37.416641,"lng":140.344495,"zip":"9638041"},{"town":"富田町","koaza":"廻渕","lat":37.413496,"lng":140.367358,"zip":"9638041"},{"town":"片平町","koaza":"下高森","lat":37.413993,"lng":140.331974,"zip":"9630211"},{"town":"大槻町","koaza":"長右エ門林南","lat":37.395302,"lng":140.325206,"zip":"9630201"},{"town":"大槻町","koaza":"下反田","lat":37.393962,"lng":140.327138,"zip":"9630201"},{"town":"大槻町","koaza":"反田","lat":37.39215,"lng":140.323918,"zip":"9630201"},{"town":"日和田町梅沢","koaza":"大坦","lat":37.453994,"lng":140.413779,"zip":"9630532"},{"town":"日和田町八丁目","koaza":"笠松","lat":37.452783,"lng":140.413537,"zip":"9630534"},{"town":"日和田町","koaza":"安積山","lat":37.453926,"lng":140.392123,"zip":"9630534"},{"town":"日和田町","koaza":"馬番山","lat":37.456685,"lng":140.392635,"zip":"9630534"},{"town":"日和田町高倉","koaza":"神送坂","lat":37.461321,"lng":140.391042,"zip":"9630531"},{"town":"日和田町","koaza":"竹ノ内","lat":37.448212,"lng":140.377992,"zip":"9630534"},{"town":"日和田町","koaza":"大宮","lat":37.449449,"lng":140.371257,"zip":"9630534"},{"town":"日和田町","koaza":"大原","lat":37.444246,"lng":140.371822,"zip":"9630534"},{"town":"日和田町","koaza":"中池","lat":37.441431,"lng":140.363442,"zip":"9630534"},{"town":"喜久田町早稲原","koaza":"藤作","lat":37.448637,"lng":140.354477,"zip":"9630546"},{"town":"喜久田町早稲原","koaza":"川原","lat":37.45172,"lng":140.348744,"zip":"9630546"},{"town":"喜久田町堀之内","koaza":"地田外","lat":37.446039,"lng":140.33684,"zip":"9630541"},{"town":"喜久田町","koaza":"平内池","lat":37.445494,"lng":140.329874,"zip":"9630551"},{"town":"熱海町高玉","koaza":"平林","lat":37.495818,"lng":140.251495,"zip":"9631302"},{"town":"熱海町高玉","koaza":"米ノ倉","lat":37.497383,"lng":140.250006,"zip":"9631302"},{"town":"熱海町高玉","koaza":"入米ノ倉","lat":37.497391,"lng":140.24955,"zip":"9631302"},{"town":"熱海町安子島","koaza":"下平","lat":37.475879,"lng":140.321531,"zip":"9631304"},{"town":"喜久田町堀之内","koaza":"上馬面","lat":37.451979,"lng":140.343199,"zip":"9630541"},{"town":"喜久田町堀之内","koaza":"長四郎段","lat":37.44776,"lng":140.345714,"zip":"9630541"},{"town":"喜久田町堀之内","koaza":"下馬面","lat":37.451335,"lng":140.345978,"zip":"9630541"},{"town":"富久山町八山田","koaza":"柳池原","lat":37.443482,"lng":140.34988,"zip":"9638051"},{"town":"富田町","koaza":"行人田","lat":37.421783,"lng":140.357112,"zip":"9638041"},{"town":"富田町","koaza":"逆池下","lat":37.419304,"lng":140.371788,"zip":"9638041"},{"town":"富田町","koaza":"砂押","lat":37.417126,"lng":140.37264,"zip":"9638041"},{"town":"富久山町八山田","koaza":"山神東","lat":37.434783,"lng":140.364257,"zip":"9638051"},{"town":"富久山町八山田","koaza":"辻道","lat":37.43167,"lng":140.379874,"zip":"9638051"},{"town":"富久山町福原","koaza":"照内","lat":37.428701,"lng":140.396039,"zip":"9638061"},{"town":"富久山町福原","koaza":"八斗蒔田","lat":37.422143,"lng":140.399572,"zip":"9638061"},{"town":"富久山町福原","koaza":"神子田","lat":37.412844,"lng":140.402133,"zip":"9638061"},{"town":"阿久津町","koaza":"舘","lat":37.409277,"lng":140.410506,"zip":"9630667"},{"town":"阿久津町","koaza":"八幡下","lat":37.412693,"lng":140.418136,"zip":"9630667"},{"town":"阿久津町","koaza":"法師沢","lat":37.413249,"lng":140.419909,"zip":"9630667"},{"town":"阿久津町","koaza":"後田","lat":37.40709,"lng":140.421588,"zip":"9630667"},{"town":"下白岩町","koaza":"大木","lat":37.404017,"lng":140.423438,"zip":"9630663"},{"town":"下白岩町","koaza":"波前場","lat":37.408594,"lng":140.42724,"zip":"9630663"},{"town":"下白岩町","koaza":"後田","lat":37.406854,"lng":140.427846,"zip":"9630663"},{"town":"下白岩町","koaza":"石神","lat":37.404751,"lng":140.426579,"zip":"9630663"},{"town":"舞木町","koaza":"市ノ沢","lat":37.415467,"lng":140.435682,"zip":"9630661"},{"town":"舞木町","koaza":"石神","lat":37.416211,"lng":140.431554,"zip":"9630661"},{"town":"富久山町南小泉","koaza":"上ノ台","lat":37.421341,"lng":140.420346,"zip":"9630671"},{"town":"富久山町北小泉","koaza":"西屋敷","lat":37.425924,"lng":140.417895,"zip":"9630672"},{"town":"富久山町堂坂","koaza":"上台","lat":37.431114,"lng":140.420998,"zip":"9630673"},{"town":"西田町芹沢","koaza":"西ノ作","lat":37.440164,"lng":140.425058,"zip":"9630913"},{"town":"西田町芹沢","koaza":"日照田","lat":37.442269,"lng":140.426887,"zip":"9630913"},{"town":"日和田町八丁目","koaza":"小和滝","lat":37.44588,"lng":140.422671,"zip":"9630534"},{"town":"日和田町八丁目","koaza":"葛崖","lat":37.448079,"lng":140.420573,"zip":"9630534"},{"town":"日和田町八丁目","koaza":"東坂口","lat":37.449021,"lng":140.421719,"zip":"9630534"},{"town":"日和田町八丁目","koaza":"鍛治ヶ入","lat":37.442511,"lng":140.414704,"zip":"9630534"},{"town":"日和田町八丁目","koaza":"坂堀田","lat":37.445076,"lng":140.415558,"zip":"9630534"},{"town":"日和田町八丁目","koaza":"東山田","lat":37.445234,"lng":140.413856,"zip":"9630534"},{"town":"日和田町八丁目","koaza":"早稲ケ原","lat":37.448945,"lng":140.410908,"zip":"9630534"},{"town":"日和田町八丁目","koaza":"樋口","lat":37.446979,"lng":140.406274,"zip":"9630534"},{"town":"日和田町八丁目","koaza":"竹ノ作","lat":37.445463,"lng":140.411001,"zip":"9630534"},{"town":"日和田町八丁目","koaza":"雷神堂","lat":37.446699,"lng":140.41797,"zip":"9630534"},{"town":"日和田町八丁目","koaza":"堰山","lat":37.438967,"lng":140.41123,"zip":"9630534"},{"town":"日和田町八丁目","koaza":"赤坂前","lat":37.443502,"lng":140.411959,"zip":"9630534"},{"town":"日和田町八丁目","koaza":"聖坊","lat":37.445559,"lng":140.419051,"zip":"9630534"},{"town":"日和田町八丁目","koaza":"滝ノ下","lat":37.449011,"lng":140.423467,"zip":"9630534"},{"town":"日和田町梅沢","koaza":"川前","lat":37.463026,"lng":140.411878,"zip":"9630532"},{"town":"日和田町梅沢","koaza":"後口山","lat":37.459477,"lng":140.407519,"zip":"9630532"},{"town":"日和田町高倉","koaza":"安斉山","lat":37.46041,"lng":140.387794,"zip":"9630531"},{"town":"喜久田町早稲原","koaza":"稲場","lat":37.455545,"lng":140.359794,"zip":"9630546"},{"town":"喜久田町堀之内","koaza":"上前田","lat":37.455342,"lng":140.332395,"zip":"9630541"},{"town":"逢瀬町多田野","koaza":"南田","lat":37.388945,"lng":140.282567,"zip":"9630213"},{"town":"片平町","koaza":"元若宮","lat":37.418531,"lng":140.321908,"zip":"9630211"},{"town":"田村町徳定","koaza":"八斗蒔田","lat":37.357718,"lng":140.381248,"zip":"9631165"},{"town":"富久山町八山田","koaza":"東下","lat":37.434938,"lng":140.37629,"zip":"9638051"},{"town":"逢瀬町河内","koaza":"明堂","lat":37.432351,"lng":140.269599,"zip":"9630212"},{"town":"片平町","koaza":"西久保","lat":37.430961,"lng":140.296392,"zip":"9630211"},{"town":"片平町","koaza":"大谷地池下","lat":37.412469,"lng":140.309659,"zip":"9630211"},{"town":"片平町","koaza":"若宮裏","lat":37.418972,"lng":140.321843,"zip":"9630211"},{"town":"片平町","koaza":"若宮","lat":37.418373,"lng":140.320089,"zip":"9630211"},{"town":"富田町","koaza":"不動前","lat":37.421091,"lng":140.35862,"zip":"9638041"},{"town":"富久山町八山田","koaza":"蛇池","lat":37.433977,"lng":140.359014,"zip":"9638051"},{"town":"富久山町八山田","koaza":"尾池北","lat":37.432432,"lng":140.358119,"zip":"9638051"},{"town":"富久山町八山田","koaza":"中台南","lat":37.43374,"lng":140.36289,"zip":"9638051"},{"town":"富久山町八山田","koaza":"勝池","lat":37.432349,"lng":140.362616,"zip":"9638051"},{"town":"富田町","koaza":"下双又","lat":37.420806,"lng":140.378846,"zip":"9638041"},{"town":"富久山町福原","koaza":"崇ノ前","lat":37.429563,"lng":140.393154,"zip":"9638061"},{"town":"阿久津町","koaza":"腰巻","lat":37.408637,"lng":140.41317,"zip":"9630667"},{"town":"熱海町高玉","koaza":"北田仲","lat":37.502503,"lng":140.277866,"zip":"9631302"},{"town":"熱海町高玉","koaza":"東田仲","lat":37.500834,"lng":140.280791,"zip":"9631302"},{"town":"喜久田町早稲原","koaza":"坊ケ池北","lat":37.449584,"lng":140.359418,"zip":"9630546"},{"town":"日和田町高倉","koaza":"源六林","lat":37.470283,"lng":140.386826,"zip":"9630531"},{"town":"日和田町高倉","koaza":"濁池","lat":37.471319,"lng":140.389231,"zip":"9630531"},{"town":"日和田町梅沢","koaza":"折田","lat":37.461053,"lng":140.402765,"zip":"9630532"},{"town":"日和田町梅沢","koaza":"折ノ内原","lat":37.461196,"lng":140.401298,"zip":"9630532"},{"town":"日和田町","koaza":"割田","lat":37.442821,"lng":140.39201,"zip":"9630534"},{"town":"富久山町福原","koaza":"長沼","lat":37.42029,"lng":140.409604,"zip":"9638061"},{"town":"富久山町福原","koaza":"大鏑","lat":37.429326,"lng":140.411795,"zip":"9638061"},{"town":"富久山町福原","koaza":"北畑","lat":37.431021,"lng":140.413029,"zip":"9638061"},{"town":"荒井町","koaza":"東","lat":37.389057,"lng":140.445628,"zip":"9630704"},{"town":"中田町高倉","koaza":"行人坦","lat":37.362561,"lng":140.43484,"zip":"9630713"},{"town":"大平町","koaza":"御前川原","lat":37.385381,"lng":140.414956,"zip":"9638817"},{"town":"横川町","koaza":"二斗蒔","lat":37.389974,"lng":140.419418,"zip":"9630665"},{"town":"大平町","koaza":"前田","lat":37.387368,"lng":140.423666,"zip":"9638817"},{"town":"大平町","koaza":"向川原","lat":37.384072,"lng":140.420033,"zip":"9638817"},{"town":"中田町高倉","koaza":"神ノ内","lat":37.371299,"lng":140.441238,"zip":"9630713"},{"town":"富久山町福原","koaza":"上之内","lat":37.415526,"lng":140.408766,"zip":"9638061"},{"town":"日和田町八丁目","koaza":"北深谷","lat":37.441128,"lng":140.411125,"zip":"9630534"},{"town":"横川町","koaza":"遠後","lat":37.391363,"lng":140.415395,"zip":"9630665"},{"town":"大平町","koaza":"平","lat":37.382023,"lng":140.420062,"zip":"9638817"},{"town":"富久山町堂坂","koaza":"畦石","lat":37.432236,"lng":140.420915,"zip":"9630673"},{"town":"熱海町安子島","koaza":"芦ヶ入","lat":37.468969,"lng":140.287459,"zip":"9631304"},{"town":"三穂田町鍋山","koaza":"下木葉山","lat":37.339698,"lng":140.295524,"zip":"9630123"},{"town":"安積町荒井","koaza":"柴宮東","lat":37.373021,"lng":140.347336,"zip":"9630111"},{"town":"安積町荒井","koaza":"大池","lat":37.370722,"lng":140.349685,"zip":"9630111"},{"town":"安積町荒井","koaza":"細子","lat":37.373341,"lng":140.354387,"zip":"9630111"},{"town":"安積町荒井","koaza":"弁天","lat":37.370727,"lng":140.35948,"zip":"9630111"},{"town":"安積町荒井","koaza":"北屋敷","lat":37.369929,"lng":140.364648,"zip":"9630111"},{"town":"安積町荒井","koaza":"大欠","lat":37.36683,"lng":140.356123,"zip":"9630111"},{"town":"安積町荒井","koaza":"大池下","lat":37.368695,"lng":140.351342,"zip":"9630111"},{"town":"安積町荒井","koaza":"六角田","lat":37.36799,"lng":140.351583,"zip":"9630111"},{"town":"安積町荒井","koaza":"太夫場加","lat":37.371589,"lng":140.350894,"zip":"9630111"},{"town":"安積町荒井","koaza":"田中屋敷","lat":37.368145,"lng":140.365938,"zip":"9630111"},{"town":"安積町荒井","koaza":"撫子東","lat":37.367491,"lng":140.369169,"zip":"9630111"},{"town":"富田町","koaza":"山王林","lat":37.417572,"lng":140.365887,"zip":"9638041"},{"town":"富田町","koaza":"若宮前","lat":37.41794,"lng":140.37001,"zip":"9638041"},{"town":"富久山町八山田","koaza":"寺向","lat":37.426231,"lng":140.372814,"zip":"9638051"}]