[{"town":"前田川","koaza":"","lat":37.256588,"lng":140.393374,"zip":"9620814"},{"town":"上小山田","koaza":"","lat":37.261142,"lng":140.485479,"zip":"9620713"},{"town":"虹の台","koaza":"","lat":37.25151,"lng":140.460795,"zip":"9620728"},{"town":"小倉","koaza":"","lat":37.279656,"lng":140.471652,"zip":"9620712"},{"town":"塩田","koaza":"","lat":37.287135,"lng":140.426883,"zip":"9620711"},{"town":"大栗","koaza":"","lat":37.251651,"lng":140.444975,"zip":"9620722"},{"town":"田中","koaza":"","lat":37.250588,"lng":140.416065,"zip":"9620724"},{"town":"狸森","koaza":"","lat":37.240083,"lng":140.453859,"zip":"9620723"},{"town":"前田川扇町","koaza":"","lat":37.252926,"lng":140.383103,"zip":"9620000"},{"town":"滑川","koaza":"","lat":37.330452,"lng":140.366593,"zip":"9620403"},{"town":"並木町","koaza":"","lat":37.277359,"lng":140.368489,"zip":"9620836"},{"town":"広表","koaza":"","lat":37.274007,"lng":140.373537,"zip":"9620826"},{"town":"千日堂","koaza":"","lat":37.27728,"lng":140.372925,"zip":"9620835"},{"town":"南町","koaza":"","lat":37.281499,"lng":140.372584,"zip":"9620838"},{"town":"大町","koaza":"","lat":37.283246,"lng":140.376119,"zip":"9620839"},{"town":"八幡町","koaza":"","lat":37.288072,"lng":140.371094,"zip":"9620831"},{"town":"弘法坦","koaza":"","lat":37.291593,"lng":140.371154,"zip":"9620848"},{"town":"加治町","koaza":"","lat":37.288453,"lng":140.372444,"zip":"9620846"},{"town":"諏訪町","koaza":"","lat":37.290287,"lng":140.373328,"zip":"9620847"},{"town":"長禄町","koaza":"","lat":37.294722,"lng":140.370184,"zip":"9620857"},{"town":"岩渕","koaza":"","lat":37.261216,"lng":140.319634,"zip":"9620043"},{"town":"保土原","koaza":"","lat":37.254022,"lng":140.308497,"zip":"9620045"},{"town":"矢田野","koaza":"","lat":37.260747,"lng":140.278951,"zip":"9620123"},{"town":"森宿","koaza":"","lat":37.31314,"lng":140.362037,"zip":"9620001"},{"town":"宮の杜","koaza":"","lat":37.322382,"lng":140.368378,"zip":"9620406"},{"town":"柱田","koaza":"","lat":37.318486,"lng":140.263841,"zip":"9620302"},{"town":"今泉","koaza":"","lat":37.3295,"lng":140.267664,"zip":"9620301"},{"town":"守屋","koaza":"","lat":37.346527,"lng":140.205385,"zip":"9620305"},{"town":"桙衝","koaza":"","lat":37.269615,"lng":140.256881,"zip":"9620124"},{"town":"志茂","koaza":"","lat":37.294406,"lng":140.236216,"zip":"9620201"},{"town":"深渡戸","koaza":"","lat":37.305991,"lng":140.25244,"zip":"9620314"},{"town":"梅田","koaza":"","lat":37.337673,"lng":140.184401,"zip":"9620303"},{"town":"勢至堂","koaza":"","lat":37.313694,"lng":140.133498,"zip":"9620205"},{"town":"仁井田","koaza":"","lat":37.330212,"lng":140.331364,"zip":"9620402"},{"town":"季の郷","koaza":"","lat":37.338599,"lng":140.340185,"zip":"9620405"},{"town":"舘ケ岡","koaza":"","lat":37.329324,"lng":140.294884,"zip":"9620404"},{"town":"滝","koaza":"","lat":37.323323,"lng":140.167899,"zip":"9620211"},{"town":"日照田","koaza":"","lat":37.260429,"lng":140.413584,"zip":"9620725"},{"town":"雨田","koaza":"","lat":37.263882,"lng":140.432679,"zip":"9620721"},{"town":"市野関","koaza":"","lat":37.265057,"lng":140.403176,"zip":"9620726"},{"town":"小作田","koaza":"","lat":37.269099,"lng":140.413534,"zip":"9620727"},{"town":"牡丹園","koaza":"","lat":37.274376,"lng":140.389414,"zip":"9620815"},{"town":"和田道","koaza":"","lat":37.282996,"lng":140.390316,"zip":"9620818"},{"town":"花岡","koaza":"","lat":37.273921,"lng":140.385705,"zip":"9620823"},{"town":"朝日田","koaza":"","lat":37.279054,"lng":140.388109,"zip":"9620816"},{"town":"東作","koaza":"","lat":37.277987,"lng":140.383323,"zip":"9620822"},{"town":"南上町","koaza":"","lat":37.282259,"lng":140.38515,"zip":"9620817"},{"town":"桜岡","koaza":"","lat":37.282012,"lng":140.381653,"zip":"9620821"},{"town":"新田","koaza":"","lat":37.274058,"lng":140.381236,"zip":"9620824"},{"town":"六軒","koaza":"","lat":37.276362,"lng":140.37587,"zip":"9620825"},{"town":"寺田","koaza":"","lat":37.27935,"lng":140.378932,"zip":"9620827"},{"town":"馬町","koaza":"","lat":37.285886,"lng":140.376867,"zip":"9620833"},{"town":"下小山田","koaza":"","lat":37.279532,"lng":140.417543,"zip":"9620714"},{"town":"和田","koaza":"","lat":37.277303,"lng":140.400469,"zip":"9620813"},{"town":"浜尾","koaza":"","lat":37.288198,"lng":140.404878,"zip":"9620812"},{"town":"古舘","koaza":"","lat":37.297604,"lng":140.390283,"zip":"9620861"},{"town":"北上町","koaza":"","lat":37.285416,"lng":140.385653,"zip":"9620864"},{"town":"緑町","koaza":"","lat":37.287265,"lng":140.388045,"zip":"9620863"},{"town":"妙見","koaza":"","lat":37.286176,"lng":140.382178,"zip":"9620865"},{"town":"栗谷沢","koaza":"","lat":37.287912,"lng":140.383445,"zip":"9620866"},{"town":"旭町","koaza":"","lat":37.284183,"lng":140.378553,"zip":"9620834"},{"town":"東町","koaza":"","lat":37.287176,"lng":140.378636,"zip":"9620844"},{"town":"本町","koaza":"","lat":37.286328,"lng":140.37455,"zip":"9620832"},{"town":"中町","koaza":"","lat":37.288412,"lng":140.375601,"zip":"9620845"},{"town":"宮先町","koaza":"","lat":37.290429,"lng":140.376115,"zip":"9620842"},{"town":"六郎兵衛","koaza":"","lat":37.295067,"lng":140.388902,"zip":"9620862"},{"town":"芦田塚","koaza":"","lat":37.292536,"lng":140.387011,"zip":"9620868"},{"town":"池上町","koaza":"","lat":37.290675,"lng":140.378669,"zip":"9620843"},{"town":"愛宕山","koaza":"","lat":37.291534,"lng":140.381825,"zip":"9620867"},{"town":"古河","koaza":"","lat":37.298693,"lng":140.386121,"zip":"9620803"},{"town":"仲の町","koaza":"","lat":37.29686,"lng":140.382579,"zip":"9620852"},{"town":"守谷舘","koaza":"","lat":37.29363,"lng":140.378089,"zip":"9620855"},{"town":"前川","koaza":"","lat":37.294954,"lng":140.37988,"zip":"9620853"},{"town":"上北町","koaza":"","lat":37.292232,"lng":140.376043,"zip":"9620841"},{"town":"中曽根","koaza":"","lat":37.299502,"lng":140.382317,"zip":"9620804"},{"town":"堤","koaza":"","lat":37.303453,"lng":140.4087,"zip":"9620802"},{"town":"境免","koaza":"","lat":37.304588,"lng":140.378598,"zip":"9620807"},{"town":"下宿町","koaza":"","lat":37.306961,"lng":140.374893,"zip":"9620007"},{"town":"あおば町","koaza":"","lat":37.317007,"lng":140.384579,"zip":"9620811"},{"town":"江持","koaza":"","lat":37.31266,"lng":140.393466,"zip":"9620801"},{"town":"吉美根","koaza":"","lat":37.303469,"lng":140.334327,"zip":"9620059"},{"town":"池下","koaza":"","lat":37.303871,"lng":140.367678,"zip":"9620044"},{"town":"丸田町","koaza":"","lat":37.290835,"lng":140.36621,"zip":"9620022"},{"town":"西田町","koaza":"","lat":37.298277,"lng":140.354152,"zip":"9620016"},{"town":"堀底町","koaza":"","lat":37.28874,"lng":140.357198,"zip":"9620027"},{"town":"新町","koaza":"","lat":37.293177,"lng":140.353149,"zip":"9620055"},{"town":"日向町","koaza":"","lat":37.296625,"lng":140.353645,"zip":"9620015"},{"town":"卸町","koaza":"","lat":37.293201,"lng":140.357747,"zip":"9620053"},{"town":"茶畑町","koaza":"","lat":37.290917,"lng":140.361123,"zip":"9620028"},{"town":"西の内町","koaza":"","lat":37.296749,"lng":140.357831,"zip":"9620017"},{"town":"西川町","koaza":"","lat":37.294611,"lng":140.359974,"zip":"9620014"},{"town":"岡東町","koaza":"","lat":37.296255,"lng":140.362549,"zip":"9620013"},{"town":"坂の上町","koaza":"","lat":37.298315,"lng":140.360504,"zip":"9620011"},{"town":"山寺道","koaza":"","lat":37.301888,"lng":140.36815,"zip":"9620006"},{"town":"池ノ下町","koaza":"","lat":37.304645,"lng":140.368892,"zip":"9620058"},{"town":"畑田","koaza":"","lat":37.306673,"lng":140.27529,"zip":"9620315"},{"town":"矢沢","koaza":"","lat":37.310893,"lng":140.296345,"zip":"9620311"},{"town":"高久田境","koaza":"","lat":37.27328,"lng":140.366317,"zip":"9620837"},{"town":"稲荷町","koaza":"","lat":37.281112,"lng":140.366436,"zip":"9620024"},{"town":"岩作","koaza":"","lat":37.278911,"lng":140.363628,"zip":"9620033"},{"town":"岩崎","koaza":"","lat":37.286546,"lng":140.359976,"zip":"9620026"},{"town":"一里坦","koaza":"","lat":37.275796,"lng":140.362297,"zip":"9620034"},{"town":"五月雨","koaza":"","lat":37.280221,"lng":140.358469,"zip":"9620035"},{"town":"大袋町","koaza":"","lat":37.284448,"lng":140.357574,"zip":"9620032"},{"town":"芹沢町","koaza":"","lat":37.279924,"lng":140.353176,"zip":"9620036"},{"town":"影沼町","koaza":"","lat":37.285663,"lng":140.353899,"zip":"9620031"},{"town":"牛袋町","koaza":"","lat":37.289449,"lng":140.353848,"zip":"9620054"},{"town":"泉田","koaza":"","lat":37.269611,"lng":140.299148,"zip":"9620046"},{"town":"花の里","koaza":"","lat":37.279934,"lng":140.295568,"zip":"9620126"},{"town":"木之崎","koaza":"","lat":37.277185,"lng":140.278145,"zip":"9620122"},{"town":"堀込","koaza":"","lat":37.278177,"lng":140.261392,"zip":"9620125"},{"town":"八幡山","koaza":"","lat":37.283116,"lng":140.364725,"zip":"9620025"},{"town":"大黒町","koaza":"","lat":37.287956,"lng":140.366553,"zip":"9620023"},{"town":"館取町","koaza":"","lat":37.293937,"lng":140.365698,"zip":"9620021"},{"town":"陣場町","koaza":"","lat":37.297425,"lng":140.365749,"zip":"9620012"},{"town":"横山町","koaza":"","lat":37.2831,"lng":140.345792,"zip":"9620041"},{"town":"西川","koaza":"","lat":37.296938,"lng":140.343569,"zip":"9620052"},{"town":"稲","koaza":"","lat":37.278198,"lng":140.332067,"zip":"9620042"},{"town":"松塚","koaza":"","lat":37.2798,"lng":140.316415,"zip":"9620047"},{"town":"大久保","koaza":"","lat":37.291325,"lng":140.293693,"zip":"9620312"},{"town":"横田","koaza":"","lat":37.28615,"lng":140.255663,"zip":"9620121"},{"town":"北横田","koaza":"","lat":37.292846,"lng":140.263695,"zip":"9620313"},{"town":"大桑原","koaza":"","lat":37.296871,"lng":140.313294,"zip":"9620056"},{"town":"袋田","koaza":"","lat":37.310622,"lng":140.315506,"zip":"9620057"},{"town":"越久","koaza":"","lat":37.313927,"lng":140.334215,"zip":"9620051"},{"town":"小中","koaza":"","lat":37.2742,"lng":140.225339,"zip":"9620202"},{"town":"長沼","koaza":"","lat":37.289875,"lng":140.220254,"zip":"9620203"},{"town":"江花","koaza":"","lat":37.289393,"lng":140.17811,"zip":"9620204"},{"town":"向陽町","koaza":"","lat":37.340983,"lng":140.344964,"zip":"9620401"},{"town":"柳山","koaza":"","lat":37.301654,"lng":140.381742,"zip":"9620000"},{"town":"台","koaza":"","lat":37.298499,"lng":140.368602,"zip":"9620005"},{"town":"栄町","koaza":"","lat":37.2977,"lng":140.371098,"zip":"9620858"},{"town":"塚田","koaza":"","lat":37.298574,"lng":140.373687,"zip":"9620859"},{"town":"岩瀬森","koaza":"","lat":37.302468,"lng":140.371723,"zip":"9620003"},{"town":"中山","koaza":"","lat":37.30046,"lng":140.371374,"zip":"9620004"},{"town":"北町","koaza":"","lat":37.294959,"lng":140.374751,"zip":"9620856"},{"town":"古屋敷","koaza":"","lat":37.297042,"lng":140.377542,"zip":"9620854"},{"town":"上人坦","koaza":"","lat":37.301883,"lng":140.375054,"zip":"9620002"},{"town":"下宿前","koaza":"","lat":37.30366,"lng":140.375945,"zip":"9620806"},{"town":"崩免","koaza":"","lat":37.303292,"lng":140.377947,"zip":"9620805"},{"town":"中宿","koaza":"","lat":37.299954,"lng":140.377285,"zip":"9620851"},{"town":"北山寺町","koaza":"","lat":37.30542,"lng":140.364113,"zip":"9620061"},{"town":"西山寺町","koaza":"","lat":37.303127,"lng":140.358357,"zip":"9620063"},{"town":"山寺町","koaza":"","lat":37.302309,"lng":140.364716,"zip":"9620062"},{"town":"舘ケ岡","koaza":"本郷","lat":37.330109,"lng":140.29304,"zip":"9620404"},{"town":"舘ケ岡","koaza":"里","lat":37.325074,"lng":140.301191,"zip":"9620404"},{"town":"舘ケ岡","koaza":"町尻","lat":37.331623,"lng":140.296331,"zip":"9620404"},{"town":"舘ケ岡","koaza":"重郎内","lat":37.330988,"lng":140.301035,"zip":"9620404"},{"town":"舘ケ岡","koaza":"宮田","lat":37.329089,"lng":140.296637,"zip":"9620404"},{"town":"舘ケ岡","koaza":"長者久保","lat":37.318452,"lng":140.304812,"zip":"9620404"},{"town":"舘ケ岡","koaza":"北田","lat":37.333865,"lng":140.302116,"zip":"9620404"},{"town":"舘ケ岡","koaza":"里ノ浦","lat":37.327447,"lng":140.300784,"zip":"9620404"},{"town":"仁井田","koaza":"神成","lat":37.337651,"lng":140.303299,"zip":"9620402"},{"town":"大桑原","koaza":"北の原","lat":37.302275,"lng":140.312234,"zip":"9620056"},{"town":"袋田","koaza":"林の影","lat":37.30534,"lng":140.311537,"zip":"9620057"},{"town":"大桑原","koaza":"竹の花","lat":37.300928,"lng":140.307783,"zip":"9620056"},{"town":"仁井田","koaza":"日向窪","lat":37.33981,"lng":140.310573,"zip":"9620402"},{"town":"仁井田","koaza":"西原","lat":37.333398,"lng":140.309092,"zip":"9620402"},{"town":"袋田","koaza":"西の内","lat":37.315535,"lng":140.309448,"zip":"9620057"},{"town":"舘ケ岡","koaza":"雁俣","lat":37.323367,"lng":140.309733,"zip":"9620404"},{"town":"袋田","koaza":"本郷","lat":37.310935,"lng":140.314839,"zip":"9620057"},{"town":"仁井田","koaza":"坊内景","lat":37.340743,"lng":140.317332,"zip":"9620402"},{"town":"大桑原","koaza":"中屋敷前","lat":37.297487,"lng":140.313946,"zip":"9620056"},{"town":"越久","koaza":"南田","lat":37.318309,"lng":140.318459,"zip":"9620051"},{"town":"大桑原","koaza":"若林","lat":37.296235,"lng":140.315871,"zip":"9620056"},{"town":"袋田","koaza":"横山","lat":37.307822,"lng":140.315032,"zip":"9620057"},{"town":"仁井田","koaza":"八幡前","lat":37.326731,"lng":140.317208,"zip":"9620402"},{"town":"仁井田","koaza":"鹿島腰","lat":37.331313,"lng":140.317042,"zip":"9620402"},{"town":"仁井田","koaza":"山田","lat":37.324512,"lng":140.318774,"zip":"9620402"},{"town":"袋田","koaza":"小田切","lat":37.304521,"lng":140.316572,"zip":"9620057"},{"town":"袋田","koaza":"石坦","lat":37.308725,"lng":140.320284,"zip":"9620057"},{"town":"仁井田","koaza":"切通","lat":37.340484,"lng":140.324487,"zip":"9620402"},{"town":"袋田","koaza":"守子","lat":37.31004,"lng":140.319389,"zip":"9620057"},{"town":"仁井田","koaza":"西舘","lat":37.33209,"lng":140.320179,"zip":"9620402"},{"town":"仁井田","koaza":"明内","lat":37.328953,"lng":140.321058,"zip":"9620402"},{"town":"仁井田","koaza":"南町","lat":37.329209,"lng":140.322342,"zip":"9620402"},{"town":"仁井田","koaza":"沢田","lat":37.327155,"lng":140.321645,"zip":"9620402"},{"town":"仁井田","koaza":"舘内","lat":37.331349,"lng":140.323266,"zip":"9620402"},{"town":"吉美根","koaza":"二枚橋","lat":37.305747,"lng":140.326985,"zip":"9620059"},{"town":"大桑原","koaza":"中原","lat":37.295786,"lng":140.324096,"zip":"9620056"},{"town":"仁井田","koaza":"板屋","lat":37.327367,"lng":140.325256,"zip":"9620402"},{"town":"松塚","koaza":"小屋","lat":37.278148,"lng":140.325202,"zip":"9620047"},{"town":"仁井田","koaza":"東町","lat":37.329973,"lng":140.325554,"zip":"9620402"},{"town":"仁井田","koaza":"緑川","lat":37.3322,"lng":140.326198,"zip":"9620402"},{"town":"仁井田","koaza":"山陰","lat":37.33911,"lng":140.327484,"zip":"9620402"},{"town":"仁井田","koaza":"鴻ノ目","lat":37.327695,"lng":140.32854,"zip":"9620402"},{"town":"大桑原","koaza":"地山","lat":37.289289,"lng":140.328488,"zip":"9620056"},{"town":"仁井田","koaza":"原田","lat":37.329968,"lng":140.328258,"zip":"9620402"},{"town":"越久","koaza":"仲田","lat":37.31172,"lng":140.329144,"zip":"9620051"},{"town":"越久","koaza":"神明田","lat":37.31299,"lng":140.328444,"zip":"9620051"},{"town":"稲","koaza":"火越","lat":37.279256,"lng":140.327861,"zip":"9620042"},{"town":"仁井田","koaza":"長者井戸","lat":37.340586,"lng":140.329725,"zip":"9620402"},{"town":"稲","koaza":"中舘","lat":37.280869,"lng":140.329145,"zip":"9620042"},{"town":"仁井田","koaza":"宮田","lat":37.327241,"lng":140.328334,"zip":"9620402"},{"town":"吉美根","koaza":"二枚橋南","lat":37.294758,"lng":140.333179,"zip":"9620059"},{"town":"仁井田","koaza":"猿池","lat":37.329726,"lng":140.331483,"zip":"9620402"},{"town":"越久","koaza":"福平","lat":37.31743,"lng":140.329752,"zip":"9620051"},{"town":"吉美根","koaza":"金子田","lat":37.302926,"lng":140.330742,"zip":"9620059"},{"town":"西川","koaza":"藤山","lat":37.295551,"lng":140.333169,"zip":"9620052"},{"town":"岩渕","koaza":"川崎","lat":37.268936,"lng":140.333287,"zip":"9620043"},{"town":"岩渕","koaza":"前南","lat":37.268971,"lng":140.329796,"zip":"9620043"},{"town":"松塚","koaza":"東原","lat":37.272538,"lng":140.329958,"zip":"9620047"},{"town":"大桑原","koaza":"東屋敷","lat":37.294451,"lng":140.329182,"zip":"9620056"},{"town":"稲","koaza":"岩下","lat":37.282175,"lng":140.328664,"zip":"9620042"},{"town":"越久","koaza":"舘","lat":37.316278,"lng":140.332952,"zip":"9620051"},{"town":"吉美根","koaza":"猿田原","lat":37.304778,"lng":140.331507,"zip":"9620059"},{"town":"稲","koaza":"四十坦","lat":37.270941,"lng":140.332631,"zip":"9620042"},{"town":"越久","koaza":"池田","lat":37.318761,"lng":140.329662,"zip":"9620051"},{"town":"稲","koaza":"田桑","lat":37.274412,"lng":140.333651,"zip":"9620042"},{"town":"稲","koaza":"徳玄","lat":37.276659,"lng":140.332683,"zip":"9620042"},{"town":"稲","koaza":"門ノ内","lat":37.282593,"lng":140.332164,"zip":"9620042"},{"town":"越久","koaza":"杉坦","lat":37.31837,"lng":140.33348,"zip":"9620051"},{"town":"吉美根","koaza":"土橋","lat":37.30631,"lng":140.341253,"zip":"9620059"},{"town":"仁井田","koaza":"矢ノ目","lat":37.327796,"lng":140.333584,"zip":"9620402"},{"town":"仁井田","koaza":"北明石田","lat":37.333604,"lng":140.333047,"zip":"9620402"},{"town":"大桑原","koaza":"東原","lat":37.291745,"lng":140.335414,"zip":"9620056"},{"town":"越久","koaza":"桜川","lat":37.310544,"lng":140.334033,"zip":"9620051"},{"town":"稲","koaza":"下原","lat":37.285701,"lng":140.339422,"zip":"9620042"},{"town":"稲","koaza":"平","lat":37.280929,"lng":140.334923,"zip":"9620042"},{"town":"稲","koaza":"中島","lat":37.27819,"lng":140.335243,"zip":"9620042"},{"town":"越久","koaza":"谷知畑","lat":37.319438,"lng":140.336499,"zip":"9620051"},{"town":"仁井田","koaza":"嘉平作田","lat":37.340897,"lng":140.335087,"zip":"9620402"},{"town":"越久","koaza":"赤坂","lat":37.31652,"lng":140.336279,"zip":"9620051"},{"town":"越久","koaza":"梅田","lat":37.314736,"lng":140.335439,"zip":"9620051"},{"town":"仁井田","koaza":"明石田","lat":37.328087,"lng":140.335464,"zip":"9620402"},{"town":"西川","koaza":"辰ノ口","lat":37.288106,"lng":140.345314,"zip":"9620052"},{"town":"仁井田","koaza":"柳池","lat":37.336538,"lng":140.33636,"zip":"9620402"},{"town":"仁井田","koaza":"糀内","lat":37.334653,"lng":140.336452,"zip":"9620402"},{"town":"仁井田","koaza":"会屋田","lat":37.328524,"lng":140.340221,"zip":"9620402"},{"town":"仁井田","koaza":"代官作田","lat":37.334129,"lng":140.342071,"zip":"9620402"},{"town":"仁井田","koaza":"北和久","lat":37.326877,"lng":140.339452,"zip":"9620402"},{"town":"西川","koaza":"会の田","lat":37.300435,"lng":140.343415,"zip":"9620052"},{"town":"仁井田","koaza":"角林","lat":37.333336,"lng":140.341973,"zip":"9620402"},{"town":"仁井田","koaza":"後北沢","lat":37.331933,"lng":140.342461,"zip":"9620402"},{"town":"仁井田","koaza":"大谷地","lat":37.334978,"lng":140.351621,"zip":"9620402"},{"town":"西川","koaza":"笠田","lat":37.290819,"lng":140.34583,"zip":"9620052"},{"town":"越久","koaza":"下田","lat":37.312457,"lng":140.345012,"zip":"9620051"},{"town":"越久","koaza":"一斗内","lat":37.315071,"lng":140.345521,"zip":"9620051"},{"town":"森宿","koaza":"籾山","lat":37.317145,"lng":140.346429,"zip":"9620001"},{"town":"森宿","koaza":"里内","lat":37.309386,"lng":140.346626,"zip":"9620001"},{"town":"森宿","koaza":"広町","lat":37.310261,"lng":140.348171,"zip":"9620001"},{"town":"西川","koaza":"長坦","lat":37.297792,"lng":140.349264,"zip":"9620052"},{"town":"西川","koaza":"隠久保","lat":37.301955,"lng":140.352142,"zip":"9620052"},{"town":"森宿","koaza":"将監田","lat":37.304725,"lng":140.351572,"zip":"9620001"},{"town":"森宿","koaza":"東屋敷","lat":37.314603,"lng":140.353123,"zip":"9620001"},{"town":"西川","koaza":"高津","lat":37.296285,"lng":140.34914,"zip":"9620052"},{"town":"仁井田","koaza":"坂下","lat":37.327036,"lng":140.35105,"zip":"9620402"},{"town":"仁井田","koaza":"遠戸入","lat":37.327707,"lng":140.353323,"zip":"9620402"},{"town":"西川","koaza":"西田","lat":37.298872,"lng":140.355559,"zip":"9620052"},{"town":"森宿","koaza":"中新田","lat":37.30975,"lng":140.354239,"zip":"9620001"},{"town":"西川","koaza":"北別所","lat":37.301943,"lng":140.355811,"zip":"9620052"},{"town":"仁井田","koaza":"関下","lat":37.325358,"lng":140.356153,"zip":"9620402"},{"town":"森宿","koaza":"安積田","lat":37.315617,"lng":140.361053,"zip":"9620001"},{"town":"仁井田","koaza":"背戸","lat":37.326775,"lng":140.357176,"zip":"9620402"},{"town":"森宿","koaza":"辰根沢","lat":37.312806,"lng":140.356315,"zip":"9620001"},{"town":"仁井田","koaza":"前田","lat":37.324097,"lng":140.359194,"zip":"9620402"},{"town":"森宿","koaza":"関表","lat":37.320366,"lng":140.362385,"zip":"9620001"},{"town":"森宿","koaza":"狐石","lat":37.308109,"lng":140.359001,"zip":"9620001"},{"town":"森宿","koaza":"スウガ窪","lat":37.31975,"lng":140.357601,"zip":"9620001"},{"town":"仁井田","koaza":"万開","lat":37.326529,"lng":140.361415,"zip":"9620402"},{"town":"森宿","koaza":"ウツロ田","lat":37.310335,"lng":140.359113,"zip":"9620001"},{"town":"森宿","koaza":"北向","lat":37.311056,"lng":140.363997,"zip":"9620001"},{"town":"滑川","koaza":"十貫内","lat":37.339365,"lng":140.368194,"zip":"9620403"},{"town":"滑川","koaza":"池田","lat":37.33271,"lng":140.363951,"zip":"9620403"},{"town":"滑川","koaza":"西谷地","lat":37.327403,"lng":140.364673,"zip":"9620403"},{"town":"西川","koaza":"坂の下","lat":37.299849,"lng":140.365934,"zip":"9620052"},{"town":"滑川","koaza":"西町","lat":37.330966,"lng":140.369248,"zip":"9620403"},{"town":"森宿","koaza":"ヒジリ田","lat":37.310169,"lng":140.366106,"zip":"9620001"},{"town":"西川","koaza":"池ノ上","lat":37.307353,"lng":140.367055,"zip":"9620052"},{"town":"滑川","koaza":"中町","lat":37.32655,"lng":140.37101,"zip":"9620403"},{"town":"西川","koaza":"山本","lat":37.302871,"lng":140.3674,"zip":"9620052"},{"town":"森宿","koaza":"鍛治山","lat":37.306011,"lng":140.37027,"zip":"9620001"},{"town":"森宿","koaza":"海道西","lat":37.308303,"lng":140.370439,"zip":"9620001"},{"town":"森宿","koaza":"御膳田","lat":37.310627,"lng":140.368938,"zip":"9620001"},{"town":"森宿","koaza":"道久","lat":37.315138,"lng":140.370432,"zip":"9620001"},{"town":"前田川","koaza":"草池","lat":37.249359,"lng":140.370567,"zip":"9620814"},{"town":"森宿","koaza":"ウツロ坂","lat":37.310864,"lng":140.370479,"zip":"9620001"},{"town":"前田川","koaza":"広町","lat":37.255841,"lng":140.376627,"zip":"9620814"},{"town":"前田川","koaza":"草池下","lat":37.247826,"lng":140.376031,"zip":"9620814"},{"town":"森宿","koaza":"横見根","lat":37.317066,"lng":140.372675,"zip":"9620001"},{"town":"森宿","koaza":"白石坂","lat":37.314015,"lng":140.374103,"zip":"9620001"},{"town":"森宿","koaza":"坪ノ内","lat":37.311712,"lng":140.373772,"zip":"9620001"},{"town":"滑川","koaza":"東町","lat":37.323131,"lng":140.374536,"zip":"9620403"},{"town":"森宿","koaza":"下宿","lat":37.30534,"lng":140.373077,"zip":"9620001"},{"town":"森宿","koaza":"膳棚","lat":37.310206,"lng":140.373186,"zip":"9620001"},{"town":"和田","koaza":"六軒","lat":37.270598,"lng":140.3796,"zip":"9620813"},{"town":"江持","koaza":"岩崎","lat":37.313529,"lng":140.379198,"zip":"9620801"},{"town":"前田川","koaza":"二本榎","lat":37.257012,"lng":140.379105,"zip":"9620814"},{"town":"前田川","koaza":"扇田","lat":37.253893,"lng":140.378571,"zip":"9620814"},{"town":"滑川","koaza":"八方久保","lat":37.319842,"lng":140.375808,"zip":"9620403"},{"town":"森宿","koaza":"苧畑","lat":37.30582,"lng":140.379395,"zip":"9620001"},{"town":"前田川","koaza":"松葉田","lat":37.249387,"lng":140.380272,"zip":"9620814"},{"town":"江持","koaza":"赤坂","lat":37.326187,"lng":140.380937,"zip":"9620801"},{"town":"前田川","koaza":"二池","lat":37.255119,"lng":140.388345,"zip":"9620814"},{"town":"和田","koaza":"衿先","lat":37.266373,"lng":140.382371,"zip":"9620813"},{"town":"和田","koaza":"沓掛","lat":37.268122,"lng":140.379349,"zip":"9620813"},{"town":"江持","koaza":"前田","lat":37.310187,"lng":140.38263,"zip":"9620801"},{"town":"和田","koaza":"新池","lat":37.269295,"lng":140.383119,"zip":"9620813"},{"town":"江持","koaza":"五林平","lat":37.319022,"lng":140.38869,"zip":"9620801"},{"town":"江持","koaza":"中江持","lat":37.304612,"lng":140.386431,"zip":"9620801"},{"town":"江持","koaza":"仲ノ平","lat":37.313589,"lng":140.383565,"zip":"9620801"},{"town":"江持","koaza":"土手ノ内","lat":37.313062,"lng":140.385573,"zip":"9620801"},{"town":"江持","koaza":"荒屋敷","lat":37.310985,"lng":140.384158,"zip":"9620801"},{"town":"前田川","koaza":"沓掛","lat":37.261047,"lng":140.380988,"zip":"9620814"},{"town":"前田川","koaza":"鶴場","lat":37.261553,"lng":140.387473,"zip":"9620814"},{"town":"前田川","koaza":"宮の前","lat":37.262776,"lng":140.390565,"zip":"9620814"},{"town":"江持","koaza":"岡ノ内","lat":37.308171,"lng":140.388596,"zip":"9620801"},{"town":"和田","koaza":"番屋","lat":37.269812,"lng":140.388244,"zip":"9620813"},{"town":"前田川","koaza":"兎田","lat":37.258412,"lng":140.388853,"zip":"9620814"},{"town":"前田川","koaza":"深田","lat":37.252807,"lng":140.388807,"zip":"9620814"},{"town":"江持","koaza":"西屋敷","lat":37.302889,"lng":140.391098,"zip":"9620801"},{"town":"和田","koaza":"弥六内","lat":37.289321,"lng":140.392258,"zip":"9620813"},{"town":"和田","koaza":"作の内","lat":37.286801,"lng":140.392198,"zip":"9620813"},{"town":"前田川","koaza":"柳作","lat":37.260885,"lng":140.391597,"zip":"9620814"},{"town":"浜尾","koaza":"鹿島","lat":37.293417,"lng":140.391292,"zip":"9620812"},{"town":"和田","koaza":"池合","lat":37.271253,"lng":140.397091,"zip":"9620813"},{"town":"前田川","koaza":"家内神","lat":37.26645,"lng":140.391946,"zip":"9620814"},{"town":"江持","koaza":"大津上","lat":37.319475,"lng":140.392983,"zip":"9620801"},{"town":"江持","koaza":"早坂","lat":37.305959,"lng":140.391377,"zip":"9620801"},{"town":"前田川","koaza":"蟹沢","lat":37.251891,"lng":140.392936,"zip":"9620814"},{"town":"江持","koaza":"東海道","lat":37.307742,"lng":140.392083,"zip":"9620801"},{"town":"和田","koaza":"乱行木池下","lat":37.279501,"lng":140.393008,"zip":"9620813"},{"town":"前田川","koaza":"稲荷田","lat":37.255687,"lng":140.394069,"zip":"9620814"},{"town":"前田川","koaza":"三平田","lat":37.257507,"lng":140.391844,"zip":"9620814"},{"town":"和田","koaza":"柏崎","lat":37.282639,"lng":140.393314,"zip":"9620813"},{"town":"江持","koaza":"仲田","lat":37.301228,"lng":140.393375,"zip":"9620801"},{"town":"江持","koaza":"荒池","lat":37.316712,"lng":140.399242,"zip":"9620801"},{"town":"和田","koaza":"新兵衛池上","lat":37.271628,"lng":140.3937,"zip":"9620813"},{"town":"江持","koaza":"穴田","lat":37.299764,"lng":140.394737,"zip":"9620801"},{"town":"江持","koaza":"中谷地","lat":37.311544,"lng":140.394234,"zip":"9620801"},{"town":"前田川","koaza":"和尚作","lat":37.258293,"lng":140.395159,"zip":"9620814"},{"town":"浜尾","koaza":"柳原","lat":37.293429,"lng":140.394925,"zip":"9620812"},{"town":"江持","koaza":"菰内","lat":37.30237,"lng":140.394121,"zip":"9620801"},{"town":"浜尾","koaza":"漆房","lat":37.290467,"lng":140.3962,"zip":"9620812"},{"town":"前田川","koaza":"仲屋敷","lat":37.261763,"lng":140.394308,"zip":"9620814"},{"town":"和田","koaza":"服部山前","lat":37.280069,"lng":140.396463,"zip":"9620813"},{"town":"前田川","koaza":"宿","lat":37.257595,"lng":140.400201,"zip":"9620814"},{"town":"前田川","koaza":"後上の台","lat":37.257174,"lng":140.396112,"zip":"9620814"},{"town":"和田","koaza":"立石","lat":37.28542,"lng":140.392077,"zip":"9620813"},{"town":"和田","koaza":"中地西","lat":37.288598,"lng":140.395669,"zip":"9620813"},{"town":"前田川","koaza":"前上の台","lat":37.255069,"lng":140.396044,"zip":"9620814"},{"town":"和田","koaza":"愛宕前","lat":37.286571,"lng":140.395845,"zip":"9620813"},{"town":"和田","koaza":"根岸","lat":37.277696,"lng":140.395887,"zip":"9620813"},{"town":"前田川","koaza":"岡の内","lat":37.255132,"lng":140.399979,"zip":"9620814"},{"town":"浜尾","koaza":"芳池","lat":37.287467,"lng":140.398943,"zip":"9620812"},{"town":"和田","koaza":"蝦夷穴","lat":37.282094,"lng":140.398109,"zip":"9620813"},{"town":"堤","koaza":"神明前","lat":37.300024,"lng":140.398895,"zip":"9620802"},{"town":"浜尾","koaza":"中路","lat":37.288767,"lng":140.399183,"zip":"9620812"},{"town":"江持","koaza":"豆田","lat":37.313995,"lng":140.401141,"zip":"9620801"},{"town":"江持","koaza":"鐘突田","lat":37.303405,"lng":140.399204,"zip":"9620801"},{"town":"江持","koaza":"池ノ平","lat":37.306509,"lng":140.402211,"zip":"9620801"},{"town":"堤","koaza":"仲屋敷","lat":37.30136,"lng":140.401517,"zip":"9620802"},{"town":"江持","koaza":"南寺田","lat":37.313282,"lng":140.403956,"zip":"9620801"},{"town":"市野関","koaza":"八斗蒔","lat":37.26797,"lng":140.402135,"zip":"9620726"},{"town":"浜尾","koaza":"滝田","lat":37.287977,"lng":140.402955,"zip":"9620812"},{"town":"浜尾","koaza":"猫沼","lat":37.286496,"lng":140.403592,"zip":"9620812"},{"town":"和田","koaza":"仲内","lat":37.276488,"lng":140.402895,"zip":"9620813"},{"town":"市野関","koaza":"長沼","lat":37.268168,"lng":140.403824,"zip":"9620726"},{"town":"和田","koaza":"舘","lat":37.278574,"lng":140.403295,"zip":"9620813"},{"town":"堤","koaza":"荒屋敷","lat":37.302444,"lng":140.402296,"zip":"9620802"},{"town":"市野関","koaza":"舟渡","lat":37.269384,"lng":140.403588,"zip":"9620726"},{"town":"市野関","koaza":"前田","lat":37.266333,"lng":140.403361,"zip":"9620726"},{"town":"堤","koaza":"四戸内","lat":37.30527,"lng":140.404763,"zip":"9620802"},{"town":"和田","koaza":"宿","lat":37.278488,"lng":140.404521,"zip":"9620813"},{"town":"堤","koaza":"仲谷地","lat":37.303407,"lng":140.404771,"zip":"9620802"},{"town":"市野関","koaza":"松関","lat":37.263016,"lng":140.406886,"zip":"9620726"},{"town":"市野関","koaza":"舘山","lat":37.267737,"lng":140.404903,"zip":"9620726"},{"town":"市野関","koaza":"屋敷","lat":37.263578,"lng":140.406874,"zip":"9620726"},{"town":"市野関","koaza":"八升蒔","lat":37.26411,"lng":140.405154,"zip":"9620726"},{"town":"堤","koaza":"札木沢","lat":37.312229,"lng":140.40903,"zip":"9620802"},{"town":"小作田","koaza":"西舘","lat":37.270991,"lng":140.40589,"zip":"9620727"},{"town":"和田","koaza":"後町","lat":37.27717,"lng":140.4065,"zip":"9620813"},{"town":"浜尾","koaza":"舘","lat":37.288303,"lng":140.408016,"zip":"9620812"},{"town":"浜尾","koaza":"民南","lat":37.284587,"lng":140.407789,"zip":"9620812"},{"town":"小作田","koaza":"山ノ坊","lat":37.267995,"lng":140.406456,"zip":"9620727"},{"town":"小作田","koaza":"谷地","lat":37.269923,"lng":140.407995,"zip":"9620727"},{"town":"和田","koaza":"宿畑","lat":37.277046,"lng":140.407574,"zip":"9620813"},{"town":"小作田","koaza":"梨子ノ木内","lat":37.271648,"lng":140.408069,"zip":"9620727"},{"town":"田中","koaza":"松葉","lat":37.253502,"lng":140.410696,"zip":"9620724"},{"town":"浜尾","koaza":"前田","lat":37.285727,"lng":140.408704,"zip":"9620812"},{"town":"浜尾","koaza":"原","lat":37.284266,"lng":140.410593,"zip":"9620812"},{"town":"日照田","koaza":"下屋敷","lat":37.261062,"lng":140.409042,"zip":"9620725"},{"town":"田中","koaza":"堀込","lat":37.251498,"lng":140.40941,"zip":"9620724"},{"town":"小作田","koaza":"猿内","lat":37.26758,"lng":140.411395,"zip":"9620727"},{"town":"小作田","koaza":"竹ノ花","lat":37.268715,"lng":140.409433,"zip":"9620727"},{"town":"小作田","koaza":"荒町台","lat":37.271373,"lng":140.409735,"zip":"9620727"},{"town":"小作田","koaza":"小枝","lat":37.266709,"lng":140.409899,"zip":"9620727"},{"town":"小作田","koaza":"古町","lat":37.26931,"lng":140.411034,"zip":"9620727"},{"town":"田中","koaza":"網ノ輪","lat":37.251448,"lng":140.41143,"zip":"9620724"},{"town":"小作田","koaza":"殿田","lat":37.270037,"lng":140.412555,"zip":"9620727"},{"town":"田中","koaza":"東舘","lat":37.256033,"lng":140.413897,"zip":"9620724"},{"town":"下小山田","koaza":"沖","lat":37.278878,"lng":140.413554,"zip":"9620714"},{"town":"小作田","koaza":"湯名塚","lat":37.27078,"lng":140.41381,"zip":"9620727"},{"town":"下小山田","koaza":"早稲田","lat":37.28075,"lng":140.413856,"zip":"9620714"},{"town":"小作田","koaza":"天下清水","lat":37.268062,"lng":140.414376,"zip":"9620727"},{"town":"日照田","koaza":"舘","lat":37.261893,"lng":140.413786,"zip":"9620725"},{"town":"下小山田","koaza":"中島","lat":37.277524,"lng":140.416074,"zip":"9620714"},{"town":"小作田","koaza":"宮下","lat":37.268912,"lng":140.414298,"zip":"9620727"},{"town":"下小山田","koaza":"日向内","lat":37.285419,"lng":140.415014,"zip":"9620714"},{"town":"下小山田","koaza":"螺河岸","lat":37.287159,"lng":140.416276,"zip":"9620714"},{"town":"日照田","koaza":"漆内","lat":37.265317,"lng":140.415431,"zip":"9620725"},{"town":"田中","koaza":"熊ノ宮","lat":37.257104,"lng":140.415145,"zip":"9620724"},{"town":"日照田","koaza":"合仕作","lat":37.256911,"lng":140.418253,"zip":"9620725"},{"town":"下小山田","koaza":"台田","lat":37.284005,"lng":140.416756,"zip":"9620714"},{"town":"田中","koaza":"合仕作","lat":37.255102,"lng":140.416811,"zip":"9620724"},{"town":"小作田","koaza":"仲田","lat":37.269984,"lng":140.416093,"zip":"9620727"},{"town":"日照田","koaza":"小林","lat":37.261426,"lng":140.416544,"zip":"9620725"},{"town":"雨田","koaza":"前中山","lat":37.266178,"lng":140.416115,"zip":"9620721"},{"town":"日照田","koaza":"松原","lat":37.263009,"lng":140.417288,"zip":"9620725"},{"town":"小作田","koaza":"欠ノ下","lat":37.267675,"lng":140.418439,"zip":"9620727"},{"town":"下小山田","koaza":"関","lat":37.274917,"lng":140.421051,"zip":"9620714"},{"town":"下小山田","koaza":"山田","lat":37.277366,"lng":140.420905,"zip":"9620714"},{"town":"下小山田","koaza":"関向","lat":37.272926,"lng":140.420178,"zip":"9620714"},{"town":"舘ケ岡","koaza":"四十坦","lat":37.337264,"lng":140.299379,"zip":"9620404"},{"town":"舘ケ岡","koaza":"向山","lat":37.324536,"lng":140.300455,"zip":"9620404"},{"town":"仁井田","koaza":"兵庫坦","lat":37.323292,"lng":140.314168,"zip":"9620402"},{"town":"舘ケ岡","koaza":"下ノ内","lat":37.324781,"lng":140.310726,"zip":"9620404"},{"town":"袋田","koaza":"構場","lat":37.316785,"lng":140.311426,"zip":"9620057"},{"town":"袋田","koaza":"池ノ下","lat":37.315684,"lng":140.310318,"zip":"9620057"},{"town":"越久","koaza":"延命池","lat":37.310322,"lng":140.331703,"zip":"9620051"},{"town":"越久","koaza":"三斗内","lat":37.308542,"lng":140.338972,"zip":"9620051"},{"town":"越久","koaza":"発米","lat":37.312124,"lng":140.339953,"zip":"9620051"},{"town":"越久","koaza":"四升蒔","lat":37.309561,"lng":140.338273,"zip":"9620051"},{"town":"滑川","koaza":"北町","lat":37.333057,"lng":140.374603,"zip":"9620403"},{"town":"滑川","koaza":"中津沢","lat":37.333065,"lng":140.360845,"zip":"9620403"},{"town":"滑川","koaza":"西山","lat":37.330085,"lng":140.363026,"zip":"9620403"},{"town":"仁井田","koaza":"箱清水","lat":37.341473,"lng":140.336529,"zip":"9620402"},{"town":"仁井田","koaza":"草苅窪","lat":37.338447,"lng":140.336149,"zip":"9620402"},{"town":"仁井田","koaza":"背坂","lat":37.335721,"lng":140.335039,"zip":"9620402"},{"town":"仁井田","koaza":"毘沙門","lat":37.332596,"lng":140.335104,"zip":"9620402"},{"town":"仁井田","koaza":"一夜舘","lat":37.32537,"lng":140.323933,"zip":"9620402"},{"town":"仁井田","koaza":"ナラナシ","lat":37.323237,"lng":140.335564,"zip":"9620402"},{"town":"越久","koaza":"荒池","lat":37.31772,"lng":140.337126,"zip":"9620051"},{"town":"仁井田","koaza":"正学坦","lat":37.325201,"lng":140.348331,"zip":"9620402"},{"town":"仁井田","koaza":"広面","lat":37.325504,"lng":140.350464,"zip":"9620402"},{"town":"仁井田","koaza":"佐平治","lat":37.328369,"lng":140.355332,"zip":"9620402"},{"town":"仁井田","koaza":"角田","lat":37.325148,"lng":140.361875,"zip":"9620402"},{"town":"滑川","koaza":"関ノ上","lat":37.325116,"lng":140.364268,"zip":"9620403"},{"town":"森宿","koaza":"舘ノ下","lat":37.318858,"lng":140.370243,"zip":"9620001"},{"town":"森宿","koaza":"向日向","lat":37.315591,"lng":140.36612,"zip":"9620001"},{"town":"森宿","koaza":"ビワノ首","lat":37.316266,"lng":140.367963,"zip":"9620001"},{"town":"森宿","koaza":"前川原","lat":37.320817,"lng":140.354221,"zip":"9620001"},{"town":"和田","koaza":"石花","lat":37.275763,"lng":140.394591,"zip":"9620813"},{"town":"和田","koaza":"徳佐の間","lat":37.270416,"lng":140.390329,"zip":"9620813"},{"town":"和田","koaza":"仲作田","lat":37.265762,"lng":140.38541,"zip":"9620813"},{"town":"和田","koaza":"庄五郎窪","lat":37.266127,"lng":140.386889,"zip":"9620813"},{"town":"前田川","koaza":"竹の内","lat":37.257078,"lng":140.401572,"zip":"9620814"},{"town":"前田川","koaza":"滝下","lat":37.247892,"lng":140.396311,"zip":"9620814"},{"town":"田中","koaza":"関平","lat":37.25446,"lng":140.413734,"zip":"9620724"},{"town":"田中","koaza":"沢小屋","lat":37.254086,"lng":140.41604,"zip":"9620724"},{"town":"小作田","koaza":"堤崎","lat":37.26679,"lng":140.414307,"zip":"9620727"},{"town":"小作田","koaza":"荒町","lat":37.272959,"lng":140.409826,"zip":"9620727"},{"town":"小作田","koaza":"油田","lat":37.271048,"lng":140.411524,"zip":"9620727"},{"town":"小作田","koaza":"足原内","lat":37.272032,"lng":140.411394,"zip":"9620727"},{"town":"小作田","koaza":"施空地","lat":37.272477,"lng":140.408638,"zip":"9620727"},{"town":"市野関","koaza":"上ノ山","lat":37.265355,"lng":140.407153,"zip":"9620726"},{"town":"前田川","koaza":"富士池","lat":37.263302,"lng":140.384254,"zip":"9620814"},{"town":"小作田","koaza":"愛宕下","lat":37.272371,"lng":140.418907,"zip":"9620727"},{"town":"小作田","koaza":"鍛治分","lat":37.271814,"lng":140.417379,"zip":"9620727"},{"town":"小作田","koaza":"塚目","lat":37.271065,"lng":140.418783,"zip":"9620727"},{"town":"下小山田","koaza":"孫八内","lat":37.276897,"lng":140.423898,"zip":"9620714"},{"town":"和田","koaza":"谷地","lat":37.284091,"lng":140.402287,"zip":"9620813"},{"town":"森宿","koaza":"茶畑","lat":37.31652,"lng":140.376008,"zip":"9620001"},{"town":"森宿","koaza":"背戸","lat":37.311519,"lng":140.355275,"zip":"9620001"},{"town":"西川","koaza":"苅木内","lat":37.289075,"lng":140.347637,"zip":"9620052"},{"town":"西川","koaza":"赤坂","lat":37.291636,"lng":140.338346,"zip":"9620052"},{"town":"大桑原","koaza":"頓宝山","lat":37.288315,"lng":140.333701,"zip":"9620056"},{"town":"稲","koaza":"狐石","lat":37.286161,"lng":140.332966,"zip":"9620042"},{"town":"稲","koaza":"新城舘","lat":37.285731,"lng":140.331212,"zip":"9620042"},{"town":"稲","koaza":"古舘","lat":37.286177,"lng":140.327758,"zip":"9620042"},{"town":"稲","koaza":"御所舘","lat":37.277789,"lng":140.33369,"zip":"9620042"},{"town":"稲","koaza":"赤城下","lat":37.278781,"lng":140.332296,"zip":"9620042"},{"town":"堤","koaza":"行人山田","lat":37.300969,"lng":140.411887,"zip":"9620802"},{"town":"堤","koaza":"柳沼","lat":37.30883,"lng":140.417081,"zip":"9620802"},{"town":"江持","koaza":"喜太夫","lat":37.309371,"lng":140.397342,"zip":"9620801"},{"town":"江持","koaza":"上台","lat":37.307714,"lng":140.382834,"zip":"9620801"},{"town":"仁井田","koaza":"迎原","lat":37.333183,"lng":140.329255,"zip":"9620402"},{"town":"仁井田","koaza":"生林久保","lat":37.323721,"lng":140.329268,"zip":"9620402"},{"town":"仁井田","koaza":"向山","lat":37.320535,"lng":140.32699,"zip":"9620402"},{"town":"吉美根","koaza":"十石内","lat":37.30279,"lng":140.333766,"zip":"9620059"},{"town":"大桑原","koaza":"新田後","lat":37.297835,"lng":140.319738,"zip":"9620056"},{"town":"大桑原","koaza":"新田","lat":37.29756,"lng":140.322224,"zip":"9620056"},{"town":"大桑原","koaza":"蜻蛉山","lat":37.298089,"lng":140.317314,"zip":"9620056"},{"town":"大桑原","koaza":"西屋敷","lat":37.293458,"lng":140.327325,"zip":"9620056"},{"town":"西川","koaza":"上十貫田","lat":37.293801,"lng":140.332237,"zip":"9620052"},{"town":"西川","koaza":"鍛治田","lat":37.299887,"lng":140.36733,"zip":"9620052"},{"town":"堤","koaza":"松ノ木作","lat":37.309196,"lng":140.410249,"zip":"9620802"},{"town":"堤","koaza":"北山田","lat":37.307738,"lng":140.405575,"zip":"9620802"},{"town":"江持","koaza":"入道作","lat":37.312102,"lng":140.390745,"zip":"9620801"},{"town":"森宿","koaza":"七曲り","lat":37.309907,"lng":140.349869,"zip":"9620001"},{"town":"堤","koaza":"深作","lat":37.309138,"lng":140.41385,"zip":"9620802"},{"town":"江持","koaza":"大保才","lat":37.324405,"lng":140.385489,"zip":"9620801"},{"town":"江持","koaza":"小保才","lat":37.322814,"lng":140.387182,"zip":"9620801"},{"town":"和田","koaza":"乱行木池上","lat":37.278731,"lng":140.393003,"zip":"9620813"},{"town":"仁井田","koaza":"菖蒲池","lat":37.333591,"lng":140.347878,"zip":"9620402"},{"town":"西川","koaza":"坂の上","lat":37.300341,"lng":140.362676,"zip":"9620052"}]