[{"town":"初声町三戸","koaza":"","lat":35.172833,"lng":139.628053,"zip":"2380112"},{"town":"三崎町小網代","koaza":"","lat":35.161862,"lng":139.629855,"zip":"2380225"},{"town":"三崎町城ヶ島","koaza":"","lat":35.133397,"lng":139.619799,"zip":"2380200"},{"town":"向ヶ崎町","koaza":"","lat":35.141287,"lng":139.629431,"zip":"2380200"},{"town":"三崎町諸磯","koaza":"","lat":35.15315,"lng":139.619279,"zip":"2380224"},{"town":"城山町","koaza":"","lat":35.145046,"lng":139.622831,"zip":"2380235"},{"town":"東岡町","koaza":"","lat":35.145542,"lng":139.619444,"zip":"2380242"},{"town":"三崎一丁目","koaza":"","lat":35.142407,"lng":139.620771,"zip":"2380243"},{"town":"天神町","koaza":"","lat":35.147572,"lng":139.622398,"zip":"2380241"},{"town":"南下浦町金田","koaza":"","lat":35.162896,"lng":139.651037,"zip":"2380103"},{"town":"南下浦町菊名","koaza":"","lat":35.172526,"lng":139.648245,"zip":"2380102"},{"town":"初声町下宮田","koaza":"","lat":35.17926,"lng":139.636919,"zip":"2380111"},{"town":"初声町入江","koaza":"","lat":35.186684,"lng":139.626065,"zip":"2380113"},{"town":"初声町和田","koaza":"","lat":35.195718,"lng":139.630122,"zip":"2380114"},{"town":"南下浦町松輪","koaza":"","lat":35.146428,"lng":139.674138,"zip":"2380104"},{"town":"晴海町","koaza":"","lat":35.138908,"lng":139.626436,"zip":"2380232"},{"town":"宮川町","koaza":"","lat":35.143501,"lng":139.631315,"zip":"2380231"},{"town":"岬陽町","koaza":"","lat":35.14648,"lng":139.630755,"zip":"2380222"},{"town":"諏訪町","koaza":"","lat":35.143931,"lng":139.625005,"zip":"2380234"},{"town":"栄町","koaza":"","lat":35.147091,"lng":139.627052,"zip":"2380236"},{"town":"三崎町六合","koaza":"","lat":35.149714,"lng":139.637151,"zip":"2380221"},{"town":"原町","koaza":"","lat":35.151626,"lng":139.632122,"zip":"2380223"},{"town":"南下浦町毘沙門","koaza":"","lat":35.146532,"lng":139.649469,"zip":"2380105"},{"town":"三崎五丁目","koaza":"","lat":35.141402,"lng":139.615474,"zip":"2380243"},{"town":"三崎二丁目","koaza":"","lat":35.140228,"lng":139.619743,"zip":"2380243"},{"town":"白石町","koaza":"","lat":35.144026,"lng":139.615998,"zip":"2380244"},{"town":"三崎三丁目","koaza":"","lat":35.140454,"lng":139.618181,"zip":"2380243"},{"town":"三崎四丁目","koaza":"","lat":35.142609,"lng":139.618259,"zip":"2380243"},{"town":"海外町","koaza":"","lat":35.148043,"lng":139.618398,"zip":"2380245"},{"town":"尾上町","koaza":"","lat":35.150318,"lng":139.61767,"zip":"2380246"},{"town":"南下浦町上宮田","koaza":"","lat":35.19202,"lng":139.652383,"zip":"2380101"},{"town":"初声町高円坊","koaza":"","lat":35.201348,"lng":139.647031,"zip":"2380115"}]