[{"town":"山西","koaza":"","lat":35.295391,"lng":139.24855,"zip":"2590124"},{"town":"緑が丘一丁目","koaza":"","lat":35.312272,"lng":139.247833,"zip":"2590132"},{"town":"一色","koaza":"","lat":35.319944,"lng":139.243056,"zip":"2590134"},{"town":"緑が丘二丁目","koaza":"","lat":35.315812,"lng":139.248563,"zip":"2590132"},{"town":"中里二丁目","koaza":"","lat":35.308024,"lng":139.246959,"zip":"2590131"},{"town":"中里","koaza":"","lat":35.312135,"lng":139.253452,"zip":"2590131"},{"town":"緑が丘三丁目","koaza":"","lat":35.316863,"lng":139.252399,"zip":"2590132"},{"town":"富士見が丘二丁目","koaza":"","lat":35.30998,"lng":139.261634,"zip":"2590122"},{"town":"富士見が丘一丁目","koaza":"","lat":35.306267,"lng":139.261678,"zip":"2590122"},{"town":"富士見が丘三丁目","koaza":"","lat":35.312716,"lng":139.261867,"zip":"2590122"},{"town":"松根","koaza":"","lat":35.311877,"lng":139.259111,"zip":"2590121"},{"town":"二宮","koaza":"","lat":35.30523,"lng":139.256747,"zip":"2590123"},{"town":"川匂","koaza":"","lat":35.294707,"lng":139.238306,"zip":"2590125"},{"town":"百合が丘三丁目","koaza":"","lat":35.313712,"lng":139.240375,"zip":"2590133"},{"town":"百合が丘一丁目","koaza":"","lat":35.306016,"lng":139.239541,"zip":"2590133"},{"town":"百合が丘二丁目","koaza":"","lat":35.310421,"lng":139.240827,"zip":"2590133"}]