[{"town":"東小磯","koaza":"","lat":35.313178,"lng":139.307282,"zip":"2550004"},{"town":"東町三丁目","koaza":"","lat":35.314144,"lng":139.327498,"zip":"2550002"},{"town":"石神台三丁目","koaza":"","lat":35.309422,"lng":139.267562,"zip":"2590113"},{"town":"石神台一丁目","koaza":"","lat":35.312215,"lng":139.270114,"zip":"2590113"},{"town":"石神台二丁目","koaza":"","lat":35.310604,"lng":139.26872,"zip":"2590113"},{"town":"国府新宿","koaza":"","lat":35.303721,"lng":139.272493,"zip":"2590112"},{"town":"東町一丁目","koaza":"","lat":35.312362,"lng":139.322426,"zip":"2550002"},{"town":"東町二丁目","koaza":"","lat":35.313055,"lng":139.324938,"zip":"2550002"},{"town":"高麗","koaza":"","lat":35.32342,"lng":139.322022,"zip":"2550001"},{"town":"大磯","koaza":"","lat":35.313826,"lng":139.316566,"zip":"2550003"},{"town":"高麗一丁目","koaza":"","lat":35.319751,"lng":139.326394,"zip":"2550001"},{"town":"高麗三丁目","koaza":"","lat":35.323562,"lng":139.331275,"zip":"2550001"},{"town":"高麗二丁目","koaza":"","lat":35.323529,"lng":139.327053,"zip":"2550001"},{"town":"西小磯","koaza":"","lat":35.313038,"lng":139.298167,"zip":"2550005"},{"town":"月京","koaza":"","lat":35.312076,"lng":139.275514,"zip":"2590114"},{"town":"国府本郷","koaza":"","lat":35.309627,"lng":139.2869,"zip":"2590111"},{"town":"寺坂","koaza":"","lat":35.325942,"lng":139.287629,"zip":"2590101"},{"town":"虫窪","koaza":"","lat":35.320879,"lng":139.264589,"zip":"2590103"},{"town":"生沢","koaza":"","lat":35.319942,"lng":139.278874,"zip":"2590102"},{"town":"黒岩","koaza":"","lat":35.329389,"lng":139.262561,"zip":"2590105"},{"town":"西久保","koaza":"","lat":35.324357,"lng":139.25598,"zip":"2590104"}]