[{"town":"大山","koaza":"","lat":35.42717,"lng":139.246068,"zip":"2591107"},{"town":"石田","koaza":"","lat":35.416184,"lng":139.341011,"zip":"2591116"},{"town":"高森","koaza":"","lat":35.421737,"lng":139.324884,"zip":"2591114"},{"town":"子易","koaza":"","lat":35.417935,"lng":139.270342,"zip":"2591102"},{"town":"上粕屋","koaza":"","lat":35.416489,"lng":139.288808,"zip":"2591141"},{"town":"粟窪","koaza":"","lat":35.413577,"lng":139.317794,"zip":"2591113"},{"town":"高森七丁目","koaza":"","lat":35.418092,"lng":139.333263,"zip":"2591114"},{"town":"高森台一丁目","koaza":"","lat":35.421196,"lng":139.332108,"zip":"2591115"},{"town":"東富岡","koaza":"","lat":35.415644,"lng":139.311489,"zip":"2591112"},{"town":"西富岡","koaza":"","lat":35.420688,"lng":139.300686,"zip":"2591111"},{"town":"日向","koaza":"","lat":35.437168,"lng":139.266978,"zip":"2591101"},{"town":"歌川三丁目","koaza":"","lat":35.400519,"lng":139.342316,"zip":"2591128"},{"town":"歌川一丁目","koaza":"","lat":35.402931,"lng":139.34176,"zip":"2591128"},{"town":"歌川二丁目","koaza":"","lat":35.403053,"lng":139.345278,"zip":"2591128"},{"town":"東大竹二丁目","koaza":"","lat":35.393512,"lng":139.306241,"zip":"2591133"},{"town":"大住台一丁目","koaza":"","lat":35.389651,"lng":139.276377,"zip":"2591105"},{"town":"大住台三丁目","koaza":"","lat":35.387209,"lng":139.274595,"zip":"2591105"},{"town":"東成瀬","koaza":"","lat":35.410944,"lng":139.344476,"zip":"2591117"},{"town":"下平間","koaza":"","lat":35.383534,"lng":139.324102,"zip":"2591125"},{"town":"下谷","koaza":"","lat":35.386921,"lng":139.340134,"zip":"2591123"},{"town":"沼目七丁目","koaza":"","lat":35.394426,"lng":139.333003,"zip":"2591126"},{"town":"沼目四丁目","koaza":"","lat":35.394953,"lng":139.330513,"zip":"2591126"},{"town":"沼目五丁目","koaza":"","lat":35.389841,"lng":139.329179,"zip":"2591126"},{"town":"沼目三丁目","koaza":"","lat":35.394333,"lng":139.327906,"zip":"2591126"},{"town":"上平間","koaza":"","lat":35.386015,"lng":139.328272,"zip":"2591124"},{"town":"沼目一丁目","koaza":"","lat":35.395275,"lng":139.324611,"zip":"2591126"},{"town":"沼目六丁目","koaza":"","lat":35.389254,"lng":139.331459,"zip":"2591126"},{"town":"沼目","koaza":"","lat":35.392804,"lng":139.33446,"zip":"2591126"},{"town":"沼目二丁目","koaza":"","lat":35.391412,"lng":139.325331,"zip":"2591126"},{"town":"上谷","koaza":"","lat":35.397309,"lng":139.338929,"zip":"2591127"},{"town":"八幡台二丁目","koaza":"","lat":35.385436,"lng":139.309922,"zip":"2591134"},{"town":"岡崎","koaza":"","lat":35.378707,"lng":139.315512,"zip":"2591135"},{"town":"八幡台一丁目","koaza":"","lat":35.387711,"lng":139.309331,"zip":"2591134"},{"town":"小稲葉","koaza":"","lat":35.389334,"lng":139.350222,"zip":"2591122"},{"town":"桜台四丁目","koaza":"","lat":35.389517,"lng":139.31684,"zip":"2591132"},{"town":"桜台二丁目","koaza":"","lat":35.396223,"lng":139.317953,"zip":"2591132"},{"town":"伊勢原一丁目","koaza":"","lat":35.397478,"lng":139.31373,"zip":"2591131"},{"town":"桜台一丁目","koaza":"","lat":35.392832,"lng":139.312713,"zip":"2591132"},{"town":"東大竹","koaza":"","lat":35.388704,"lng":139.311387,"zip":"2591133"},{"town":"桜台五丁目","koaza":"","lat":35.389645,"lng":139.320559,"zip":"2591132"},{"town":"桜台三丁目","koaza":"","lat":35.392549,"lng":139.318111,"zip":"2591132"},{"town":"伊勢原二丁目","koaza":"","lat":35.397143,"lng":139.307292,"zip":"2591131"},{"town":"東大竹一丁目","koaza":"","lat":35.395451,"lng":139.307956,"zip":"2591133"},{"town":"伊勢原三丁目","koaza":"","lat":35.39963,"lng":139.307452,"zip":"2591131"},{"town":"坪ノ内","koaza":"","lat":35.393211,"lng":139.277001,"zip":"2591104"},{"town":"伊勢原四丁目","koaza":"","lat":35.40046,"lng":139.311819,"zip":"2591131"},{"town":"池端","koaza":"","lat":35.399361,"lng":139.324832,"zip":"2591144"},{"town":"串橋","koaza":"","lat":35.388004,"lng":139.288958,"zip":"2591136"},{"town":"笠窪","koaza":"","lat":35.38624,"lng":139.281849,"zip":"2591137"},{"town":"大住台二丁目","koaza":"","lat":35.38797,"lng":139.276746,"zip":"2591105"},{"town":"善波","koaza":"","lat":35.389922,"lng":139.261036,"zip":"2591106"},{"town":"下落合","koaza":"","lat":35.402172,"lng":139.34872,"zip":"2591121"},{"town":"高森六丁目","koaza":"","lat":35.414123,"lng":139.333806,"zip":"2591114"},{"town":"見附島","koaza":"","lat":35.405214,"lng":139.340181,"zip":"2591118"},{"town":"高森四丁目","koaza":"","lat":35.416901,"lng":139.328983,"zip":"2591114"},{"town":"高森五丁目","koaza":"","lat":35.414129,"lng":139.330804,"zip":"2591114"},{"town":"高森三丁目","koaza":"","lat":35.413921,"lng":139.326438,"zip":"2591114"},{"town":"田中","koaza":"","lat":35.404131,"lng":139.311509,"zip":"2591142"},{"town":"高森二丁目","koaza":"","lat":35.411397,"lng":139.325869,"zip":"2591114"},{"town":"高森一丁目","koaza":"","lat":35.412406,"lng":139.320841,"zip":"2591114"},{"town":"下糟屋","koaza":"","lat":35.403838,"lng":139.328447,"zip":"2591143"},{"town":"三ノ宮","koaza":"","lat":35.404081,"lng":139.274308,"zip":"2591103"},{"town":"神戸","koaza":"","lat":35.396068,"lng":139.288234,"zip":"2591138"},{"town":"白根","koaza":"","lat":35.399867,"lng":139.294062,"zip":"2591147"},{"town":"鈴川","koaza":"","lat":35.392688,"lng":139.296923,"zip":"2591146"},{"town":"板戸","koaza":"","lat":35.397473,"lng":139.301567,"zip":"2591145"},{"town":"高森台三丁目","koaza":"","lat":35.424164,"lng":139.328494,"zip":"2591115"},{"town":"高森台二丁目","koaza":"","lat":35.422554,"lng":139.330769,"zip":"2591115"},{"town":"小稲葉","koaza":"田中","lat":35.394907,"lng":139.350574,"zip":"2591122"}]