[{"town":"北窪","koaza":"","lat":35.29364,"lng":139.13307,"zip":"2500114"},{"town":"和田河原","koaza":"","lat":35.31598,"lng":139.121068,"zip":"2500112"},{"town":"生駒","koaza":"","lat":35.310692,"lng":139.117479,"zip":"2500124"},{"town":"三竹","koaza":"","lat":35.282265,"lng":139.104079,"zip":"2500116"},{"town":"塚原","koaza":"","lat":35.294375,"lng":139.100032,"zip":"2500117"},{"town":"岩原","koaza":"","lat":35.296864,"lng":139.127686,"zip":"2500113"},{"town":"駒形新宿","koaza":"","lat":35.309479,"lng":139.123822,"zip":"2500125"},{"town":"竹松","koaza":"","lat":35.322349,"lng":139.117601,"zip":"2500111"},{"town":"沼田","koaza":"","lat":35.291316,"lng":139.125497,"zip":"2500115"},{"town":"千津島","koaza":"","lat":35.338413,"lng":139.108653,"zip":"2500102"},{"town":"怒田","koaza":"","lat":35.334582,"lng":139.09384,"zip":"2500106"},{"town":"矢倉沢","koaza":"","lat":35.306593,"lng":139.026959,"zip":"2500136"},{"town":"内山","koaza":"","lat":35.341881,"lng":139.059874,"zip":"2500131"},{"town":"中沼","koaza":"","lat":35.312426,"lng":139.111919,"zip":"2500123"},{"town":"向田","koaza":"","lat":35.320792,"lng":139.109955,"zip":"2500104"},{"town":"関本","koaza":"","lat":35.321229,"lng":139.103462,"zip":"2500105"},{"town":"壗下","koaza":"","lat":35.3303,"lng":139.111921,"zip":"2500103"},{"town":"福泉","koaza":"","lat":35.326597,"lng":139.094554,"zip":"2500133"},{"town":"弘西寺","koaza":"","lat":35.330107,"lng":139.086785,"zip":"2500132"},{"town":"飯沢","koaza":"","lat":35.293149,"lng":139.067309,"zip":"2500122"},{"town":"大雄町","koaza":"","lat":35.306475,"lng":139.079271,"zip":"2500127"},{"town":"狩野","koaza":"","lat":35.297853,"lng":139.078546,"zip":"2500126"},{"town":"広町","koaza":"","lat":35.303642,"lng":139.066878,"zip":"2500121"},{"town":"雨坪","koaza":"","lat":35.305105,"lng":139.059677,"zip":"2500134"},{"town":"苅野","koaza":"","lat":35.308499,"lng":139.054493,"zip":"2500135"},{"town":"班目","koaza":"","lat":35.346206,"lng":139.104401,"zip":"2500101"},{"town":"小市","koaza":"","lat":35.345354,"lng":139.089596,"zip":"2500107"}]