[{"town":"愛甲東三丁目","koaza":"","lat":35.415655,"lng":139.352386,"zip":"2430027"},{"town":"愛甲東二丁目","koaza":"","lat":35.41845,"lng":139.348718,"zip":"2430027"},{"town":"愛甲東一丁目","koaza":"","lat":35.416768,"lng":139.347106,"zip":"2430027"},{"town":"愛甲四丁目","koaza":"","lat":35.42241,"lng":139.341004,"zip":"2430035"},{"town":"愛甲三丁目","koaza":"","lat":35.423445,"lng":139.347264,"zip":"2430035"},{"town":"愛甲二丁目","koaza":"","lat":35.420934,"lng":139.344925,"zip":"2430035"},{"town":"愛甲一丁目","koaza":"","lat":35.419796,"lng":139.340941,"zip":"2430035"},{"town":"愛甲西三丁目","koaza":"","lat":35.426033,"lng":139.333196,"zip":"2430028"},{"town":"愛甲西二丁目","koaza":"","lat":35.42404,"lng":139.332785,"zip":"2430028"},{"town":"愛甲西一丁目","koaza":"","lat":35.424635,"lng":139.338949,"zip":"2430028"},{"town":"戸田","koaza":"","lat":35.401205,"lng":139.364001,"zip":"2430023"},{"town":"猿ヶ島","koaza":"","lat":35.503422,"lng":139.372324,"zip":"2430000"},{"town":"岡田五丁目","koaza":"","lat":35.419797,"lng":139.367952,"zip":"2430021"},{"town":"山際","koaza":"","lat":35.499605,"lng":139.363486,"zip":"2430803"},{"town":"酒井","koaza":"","lat":35.413939,"lng":139.362602,"zip":"2430022"},{"town":"岡田","koaza":"","lat":35.421366,"lng":139.362559,"zip":"2430021"},{"town":"関口","koaza":"","lat":35.486613,"lng":139.364805,"zip":"2430804"},{"town":"愛甲","koaza":"","lat":35.426835,"lng":139.337906,"zip":"2430035"},{"town":"岡田四丁目","koaza":"","lat":35.426209,"lng":139.369253,"zip":"2430021"},{"town":"厚木","koaza":"","lat":35.435938,"lng":139.373139,"zip":"2430007"},{"town":"七沢","koaza":"","lat":35.448962,"lng":139.266011,"zip":"2430121"},{"town":"上荻野","koaza":"","lat":35.503557,"lng":139.30432,"zip":"2430201"},{"town":"みはる野二丁目","koaza":"","lat":35.501994,"lng":139.320576,"zip":"2430208"},{"town":"まつかげ台","koaza":"","lat":35.504787,"lng":139.316319,"zip":"2430207"},{"town":"上依知","koaza":"","lat":35.516675,"lng":139.361491,"zip":"2430801"},{"town":"棚沢","koaza":"","lat":35.499023,"lng":139.333737,"zip":"2430205"},{"town":"下川入","koaza":"","lat":35.49749,"lng":139.352991,"zip":"2430206"},{"town":"長沼","koaza":"","lat":35.399519,"lng":139.353665,"zip":"2430024"},{"town":"上落合","koaza":"","lat":35.408872,"lng":139.350382,"zip":"2430025"},{"town":"下津古久","koaza":"","lat":35.408535,"lng":139.355644,"zip":"2430026"},{"town":"恩名","koaza":"","lat":35.440491,"lng":139.34771,"zip":"2430032"},{"town":"恩名三丁目","koaza":"","lat":35.438943,"lng":139.351682,"zip":"2430032"},{"town":"恩名一丁目","koaza":"","lat":35.437756,"lng":139.354999,"zip":"2430032"},{"town":"三田南一丁目","koaza":"","lat":35.472755,"lng":139.35384,"zip":"2430217"},{"town":"林四丁目","koaza":"","lat":35.458691,"lng":139.349053,"zip":"2430816"},{"town":"鳶尾五丁目","koaza":"","lat":35.494587,"lng":139.321888,"zip":"2430204"},{"town":"みはる野一丁目","koaza":"","lat":35.49859,"lng":139.322979,"zip":"2430208"},{"town":"温水西一丁目","koaza":"","lat":35.43906,"lng":139.336239,"zip":"2430039"},{"town":"戸室四丁目","koaza":"","lat":35.451474,"lng":139.349715,"zip":"2430031"},{"town":"戸室二丁目","koaza":"","lat":35.447311,"lng":139.351976,"zip":"2430031"},{"town":"恩名四丁目","koaza":"","lat":35.444141,"lng":139.346437,"zip":"2430032"},{"town":"戸室三丁目","koaza":"","lat":35.447496,"lng":139.348641,"zip":"2430031"},{"town":"岡田三丁目","koaza":"","lat":35.424972,"lng":139.361224,"zip":"2430021"},{"town":"妻田北三丁目","koaza":"","lat":35.467305,"lng":139.357072,"zip":"2430812"},{"town":"妻田北二丁目","koaza":"","lat":35.466657,"lng":139.361631,"zip":"2430812"},{"town":"岡田二丁目","koaza":"","lat":35.427557,"lng":139.361926,"zip":"2430021"},{"town":"妻田東二丁目","koaza":"","lat":35.456787,"lng":139.360646,"zip":"2430813"},{"town":"妻田北一丁目","koaza":"","lat":35.462394,"lng":139.358725,"zip":"2430812"},{"town":"森の里五丁目","koaza":"","lat":35.453893,"lng":139.303411,"zip":"2430122"},{"town":"妻田東三丁目","koaza":"","lat":35.461842,"lng":139.36241,"zip":"2430813"},{"town":"妻田西一丁目","koaza":"","lat":35.457201,"lng":139.356825,"zip":"2430815"},{"town":"及川一丁目","koaza":"","lat":35.467225,"lng":139.348033,"zip":"2430212"},{"town":"妻田西三丁目","koaza":"","lat":35.465561,"lng":139.352917,"zip":"2430815"},{"town":"妻田南一丁目","koaza":"","lat":35.452759,"lng":139.36148,"zip":"2430814"},{"town":"恩名五丁目","koaza":"","lat":35.445117,"lng":139.341823,"zip":"2430032"},{"town":"妻田","koaza":"","lat":35.460374,"lng":139.364696,"zip":"2430811"},{"town":"及川二丁目","koaza":"","lat":35.470187,"lng":139.346894,"zip":"2430212"},{"town":"三田南三丁目","koaza":"","lat":35.473342,"lng":139.349498,"zip":"2430217"},{"town":"宮の里二丁目","koaza":"","lat":35.478082,"lng":139.311075,"zip":"2430216"},{"town":"船子","koaza":"","lat":35.427177,"lng":139.351605,"zip":"2430034"},{"town":"幸町","koaza":"","lat":35.440025,"lng":139.36999,"zip":"2430012"},{"town":"泉町","koaza":"","lat":35.439924,"lng":139.366469,"zip":"2430013"},{"town":"厚木町","koaza":"","lat":35.442428,"lng":139.369869,"zip":"2430011"},{"town":"旭町二丁目","koaza":"","lat":35.436777,"lng":139.366954,"zip":"2430014"},{"town":"旭町三丁目","koaza":"","lat":35.436236,"lng":139.369738,"zip":"2430014"},{"town":"岡田一丁目","koaza":"","lat":35.430351,"lng":139.362665,"zip":"2430021"},{"town":"田村町","koaza":"","lat":35.43685,"lng":139.358609,"zip":"2430016"},{"town":"東町","koaza":"","lat":35.445014,"lng":139.369451,"zip":"2430001"},{"town":"寿町二丁目","koaza":"","lat":35.444783,"lng":139.364952,"zip":"2430003"},{"town":"南町","koaza":"","lat":35.430549,"lng":139.358111,"zip":"2430015"},{"town":"旭町五丁目","koaza":"","lat":35.433,"lng":139.361587,"zip":"2430014"},{"town":"旭町四丁目","koaza":"","lat":35.431585,"lng":139.368278,"zip":"2430014"},{"town":"中町一丁目","koaza":"","lat":35.441981,"lng":139.367412,"zip":"2430018"},{"town":"寿町一丁目","koaza":"","lat":35.44475,"lng":139.367301,"zip":"2430003"},{"town":"中町三丁目","koaza":"","lat":35.441239,"lng":139.361933,"zip":"2430018"},{"town":"栄町一丁目","koaza":"","lat":35.441465,"lng":139.359181,"zip":"2430017"},{"town":"中町二丁目","koaza":"","lat":35.441012,"lng":139.364653,"zip":"2430018"},{"town":"恩名二丁目","koaza":"","lat":35.442646,"lng":139.352001,"zip":"2430032"},{"town":"栄町二丁目","koaza":"","lat":35.441844,"lng":139.356448,"zip":"2430017"},{"town":"旭町一丁目","koaza":"","lat":35.437213,"lng":139.363929,"zip":"2430014"},{"town":"中町四丁目","koaza":"","lat":35.437927,"lng":139.361285,"zip":"2430018"},{"town":"岡津古久","koaza":"","lat":35.427295,"lng":139.313987,"zip":"2430126"},{"town":"毛利台三丁目","koaza":"","lat":35.436044,"lng":139.326498,"zip":"2430037"},{"town":"長谷","koaza":"","lat":35.432119,"lng":139.336483,"zip":"2430036"},{"town":"温水西二丁目","koaza":"","lat":35.441907,"lng":139.33403,"zip":"2430039"},{"town":"毛利台一丁目","koaza":"","lat":35.442694,"lng":139.331035,"zip":"2430037"},{"town":"毛利台二丁目","koaza":"","lat":35.438909,"lng":139.329857,"zip":"2430037"},{"town":"小野","koaza":"","lat":35.435317,"lng":139.314979,"zip":"2430125"},{"town":"林一丁目","koaza":"","lat":35.455398,"lng":139.352817,"zip":"2430816"},{"town":"寿町三丁目","koaza":"","lat":35.445346,"lng":139.362302,"zip":"2430003"},{"town":"妻田南二丁目","koaza":"","lat":35.452783,"lng":139.357635,"zip":"2430814"},{"town":"森の里四丁目","koaza":"","lat":35.450011,"lng":139.305557,"zip":"2430122"},{"town":"戸室一丁目","koaza":"","lat":35.448964,"lng":139.35392,"zip":"2430031"},{"town":"松枝一丁目","koaza":"","lat":35.449175,"lng":139.363088,"zip":"2430005"},{"town":"元町","koaza":"","lat":35.447668,"lng":139.367511,"zip":"2430002"},{"town":"妻田東一丁目","koaza":"","lat":35.454541,"lng":139.364644,"zip":"2430813"},{"town":"妻田北四丁目","koaza":"","lat":35.467447,"lng":139.353429,"zip":"2430812"},{"town":"三田南二丁目","koaza":"","lat":35.470317,"lng":139.351651,"zip":"2430217"},{"town":"水引一丁目","koaza":"","lat":35.446599,"lng":139.359595,"zip":"2430004"},{"town":"水引二丁目","koaza":"","lat":35.44699,"lng":139.356915,"zip":"2430004"},{"town":"森の里一丁目","koaza":"","lat":35.441991,"lng":139.308963,"zip":"2430122"},{"town":"森の里三丁目","koaza":"","lat":35.446945,"lng":139.306146,"zip":"2430122"},{"town":"林二丁目","koaza":"","lat":35.453747,"lng":139.347368,"zip":"2430816"},{"town":"林五丁目","koaza":"","lat":35.459943,"lng":139.350881,"zip":"2430816"},{"town":"妻田西二丁目","koaza":"","lat":35.461623,"lng":139.355066,"zip":"2430815"},{"town":"及川","koaza":"","lat":35.467641,"lng":139.34259,"zip":"2430212"},{"town":"緑ヶ丘一丁目","koaza":"","lat":35.452312,"lng":139.34368,"zip":"2430000"},{"town":"王子三丁目","koaza":"","lat":35.45732,"lng":139.342306,"zip":"2430817"},{"town":"林三丁目","koaza":"","lat":35.459448,"lng":139.346073,"zip":"2430816"},{"town":"王子一丁目","koaza":"","lat":35.456769,"lng":139.344959,"zip":"2430817"},{"town":"王子二丁目","koaza":"","lat":35.459765,"lng":139.342634,"zip":"2430817"},{"town":"緑ヶ丘二丁目","koaza":"","lat":35.452403,"lng":139.341889,"zip":"2430000"},{"town":"緑ヶ丘五丁目","koaza":"","lat":35.451915,"lng":139.336398,"zip":"2430000"},{"town":"戸室五丁目","koaza":"","lat":35.449057,"lng":139.34371,"zip":"2430031"},{"town":"温水","koaza":"","lat":35.440909,"lng":139.338941,"zip":"2430033"},{"town":"森の里若宮","koaza":"","lat":35.44125,"lng":139.314921,"zip":"2430124"},{"town":"愛名","koaza":"","lat":35.442465,"lng":139.324895,"zip":"2430038"},{"town":"緑ヶ丘三丁目","koaza":"","lat":35.453194,"lng":139.339886,"zip":"2430000"},{"town":"緑ヶ丘四丁目","koaza":"","lat":35.455667,"lng":139.341222,"zip":"2430000"},{"town":"吾妻町","koaza":"","lat":35.45314,"lng":139.355011,"zip":"2430006"},{"town":"松枝二丁目","koaza":"","lat":35.450641,"lng":139.357581,"zip":"2430005"},{"town":"森の里青山","koaza":"","lat":35.450089,"lng":139.309916,"zip":"2430123"},{"town":"森の里二丁目","koaza":"","lat":35.441924,"lng":139.304869,"zip":"2430122"},{"town":"下古沢","koaza":"","lat":35.453432,"lng":139.319486,"zip":"2430214"},{"town":"上古沢","koaza":"","lat":35.460638,"lng":139.307624,"zip":"2430215"},{"town":"宮の里四丁目","koaza":"","lat":35.479158,"lng":139.316342,"zip":"2430216"},{"town":"宮の里一丁目","koaza":"","lat":35.477023,"lng":139.314197,"zip":"2430216"},{"town":"宮の里三丁目","koaza":"","lat":35.479668,"lng":139.312095,"zip":"2430216"},{"town":"鳶尾二丁目","koaza":"","lat":35.48954,"lng":139.329672,"zip":"2430204"},{"town":"鳶尾四丁目","koaza":"","lat":35.492088,"lng":139.324551,"zip":"2430204"},{"town":"鳶尾三丁目","koaza":"","lat":35.493075,"lng":139.328887,"zip":"2430204"},{"town":"鳶尾一丁目","koaza":"","lat":35.490956,"lng":139.334654,"zip":"2430204"},{"town":"下荻野","koaza":"","lat":35.482617,"lng":139.336473,"zip":"2430203"},{"town":"中荻野","koaza":"","lat":35.482444,"lng":139.319776,"zip":"2430202"},{"town":"飯山","koaza":"","lat":35.472301,"lng":139.318495,"zip":"2430213"},{"town":"三田","koaza":"","lat":35.482836,"lng":139.350384,"zip":"2430211"},{"town":"金田","koaza":"","lat":35.459517,"lng":139.372041,"zip":"2430807"},{"town":"下依知一丁目","koaza":"","lat":35.472141,"lng":139.367232,"zip":"2430806"},{"town":"下依知二丁目","koaza":"","lat":35.47224,"lng":139.371045,"zip":"2430806"},{"town":"下依知","koaza":"","lat":35.469385,"lng":139.377312,"zip":"2430806"},{"town":"下依知三丁目","koaza":"","lat":35.471621,"lng":139.37438,"zip":"2430806"},{"town":"中依知","koaza":"","lat":35.477604,"lng":139.369652,"zip":"2430805"},{"town":"下荻野","koaza":"西四谷","lat":35.4894,"lng":139.338434,"zip":"2430203"},{"town":"下荻野","koaza":"西下原","lat":35.47529,"lng":139.343853,"zip":"2430203"},{"town":"三田一丁目","koaza":"","lat":null,"lng":null,"zip":null},{"town":"三田二丁目","koaza":"","lat":null,"lng":null,"zip":null},{"town":"三田三丁目","koaza":"","lat":null,"lng":null,"zip":null}]