[{"town":"風祭","koaza":"","lat":35.248714,"lng":139.12328,"zip":"2500032"},{"town":"早川","koaza":"","lat":35.221164,"lng":139.106269,"zip":"2500021"},{"town":"入生田","koaza":"","lat":35.242195,"lng":139.111228,"zip":"2500031"},{"town":"根府川","koaza":"","lat":35.198618,"lng":139.116646,"zip":"2500024"},{"town":"米神","koaza":"","lat":35.209513,"lng":139.119658,"zip":"2500023"},{"town":"江之浦","koaza":"","lat":35.187326,"lng":139.129232,"zip":"2500025"},{"town":"石橋","koaza":"","lat":35.218786,"lng":139.12,"zip":"2500022"},{"town":"浜町四丁目","koaza":"","lat":35.25354,"lng":139.168599,"zip":"2500004"},{"town":"城山三丁目","koaza":"","lat":35.253456,"lng":139.149167,"zip":"2500045"},{"town":"十字四丁目","koaza":"","lat":35.253026,"lng":139.141934,"zip":"2500046"},{"town":"水之尾","koaza":"","lat":35.254217,"lng":139.129763,"zip":"2500033"},{"town":"浜町一丁目","koaza":"","lat":35.252382,"lng":139.16316,"zip":"2500004"},{"town":"城山一丁目","koaza":"","lat":35.256773,"lng":139.154453,"zip":"2500045"},{"town":"城内","koaza":"","lat":35.251059,"lng":139.154908,"zip":"2500014"},{"town":"栄町一丁目","koaza":"","lat":35.254233,"lng":139.156474,"zip":"2500011"},{"town":"板橋","koaza":"","lat":35.248778,"lng":139.140163,"zip":"2500034"},{"town":"荻窪","koaza":"","lat":35.259732,"lng":139.138073,"zip":"2500042"},{"town":"久野","koaza":"","lat":35.261465,"lng":139.097998,"zip":"2500055"},{"town":"府川","koaza":"","lat":35.283189,"lng":139.128618,"zip":"2500052"},{"town":"本町二丁目","koaza":"","lat":35.250211,"lng":139.16057,"zip":"2500012"},{"town":"浜町三丁目","koaza":"","lat":35.250009,"lng":139.164,"zip":"2500004"},{"town":"南町四丁目","koaza":"","lat":35.244344,"lng":139.149271,"zip":"2500013"},{"town":"本町三丁目","koaza":"","lat":35.246888,"lng":139.159941,"zip":"2500012"},{"town":"本町一丁目","koaza":"","lat":35.249767,"lng":139.158488,"zip":"2500012"},{"town":"本町四丁目","koaza":"","lat":35.245171,"lng":139.157166,"zip":"2500012"},{"town":"南町一丁目","koaza":"","lat":35.247991,"lng":139.152644,"zip":"2500013"},{"town":"南町三丁目","koaza":"","lat":35.243656,"lng":139.151894,"zip":"2500013"},{"town":"南町二丁目","koaza":"","lat":35.244675,"lng":139.154161,"zip":"2500013"},{"town":"早川一丁目","koaza":"","lat":35.241155,"lng":139.148401,"zip":"2500021"},{"town":"南板橋二丁目","koaza":"","lat":35.244597,"lng":139.146091,"zip":"2500035"},{"town":"早川二丁目","koaza":"","lat":35.242769,"lng":139.14432,"zip":"2500021"},{"town":"城山四丁目","koaza":"","lat":35.249041,"lng":139.149045,"zip":"2500045"},{"town":"早川三丁目","koaza":"","lat":35.244254,"lng":139.139286,"zip":"2500021"},{"town":"川匂","koaza":"","lat":35.305504,"lng":139.235669,"zip":"2560814"},{"town":"曽我岸","koaza":"","lat":35.313808,"lng":139.185894,"zip":"2500203"},{"town":"東ケ丘","koaza":"","lat":35.301282,"lng":139.23533,"zip":"2500000"},{"town":"曽我光海","koaza":"","lat":35.301879,"lng":139.183372,"zip":"2500207"},{"town":"酒匂三丁目","koaza":"","lat":35.264394,"lng":139.187954,"zip":"2560816"},{"town":"扇町四丁目","koaza":"","lat":35.271151,"lng":139.164458,"zip":"2500001"},{"town":"曽我別所","koaza":"","lat":35.301887,"lng":139.197927,"zip":"2500205"},{"town":"東町二丁目","koaza":"","lat":35.25599,"lng":139.173518,"zip":"2500003"},{"town":"中町三丁目","koaza":"","lat":35.256743,"lng":139.167601,"zip":"2500005"},{"town":"浜町二丁目","koaza":"","lat":35.255663,"lng":139.165045,"zip":"2500004"},{"town":"池上","koaza":"","lat":35.265126,"lng":139.154737,"zip":"2500041"},{"town":"緑四丁目","koaza":"","lat":35.256263,"lng":139.143687,"zip":"2500044"},{"town":"小八幡三丁目","koaza":"","lat":35.275271,"lng":139.201825,"zip":"2560815"},{"town":"酒匂四丁目","koaza":"","lat":35.26776,"lng":139.193823,"zip":"2560816"},{"town":"小八幡","koaza":"","lat":35.279812,"lng":139.199214,"zip":"2560815"},{"town":"国府津一丁目","koaza":"","lat":35.277265,"lng":139.204321,"zip":"2560812"},{"town":"酒匂六丁目","koaza":"","lat":35.272789,"lng":139.191632,"zip":"2560816"},{"town":"酒匂五丁目","koaza":"","lat":35.269547,"lng":139.192304,"zip":"2560816"},{"town":"小八幡一丁目","koaza":"","lat":35.272973,"lng":139.195384,"zip":"2560815"},{"town":"西酒匂二丁目","koaza":"","lat":35.268336,"lng":139.183409,"zip":"2560817"},{"town":"東町五丁目","koaza":"","lat":35.262275,"lng":139.17705,"zip":"2500003"},{"town":"西酒匂一丁目","koaza":"","lat":35.265278,"lng":139.181474,"zip":"2560817"},{"town":"東町四丁目","koaza":"","lat":35.259741,"lng":139.181035,"zip":"2500003"},{"town":"東町三丁目","koaza":"","lat":35.259889,"lng":139.174083,"zip":"2500003"},{"town":"西酒匂三丁目","koaza":"","lat":35.273473,"lng":139.183896,"zip":"2560817"},{"town":"酒匂二丁目","koaza":"","lat":35.26873,"lng":139.186938,"zip":"2560816"},{"town":"酒匂七丁目","koaza":"","lat":35.276889,"lng":139.191988,"zip":"2560816"},{"town":"南鴨宮三丁目","koaza":"","lat":35.272761,"lng":139.181489,"zip":"2500875"},{"town":"下新田","koaza":"","lat":35.275925,"lng":139.176149,"zip":"2500878"},{"town":"寿町五丁目","koaza":"","lat":35.266672,"lng":139.171898,"zip":"2500002"},{"town":"南鴨宮二丁目","koaza":"","lat":35.272184,"lng":139.177559,"zip":"2500875"},{"town":"栄町三丁目","koaza":"","lat":35.258798,"lng":139.159512,"zip":"2500011"},{"town":"栄町四丁目","koaza":"","lat":35.256053,"lng":139.162472,"zip":"2500011"},{"town":"南鴨宮一丁目","koaza":"","lat":35.269963,"lng":139.174257,"zip":"2500875"},{"town":"中新田","koaza":"","lat":35.273465,"lng":139.167987,"zip":"2500876"},{"town":"寿町四丁目","koaza":"","lat":35.263594,"lng":139.169728,"zip":"2500002"},{"town":"中町二丁目","koaza":"","lat":35.259525,"lng":139.1651,"zip":"2500005"},{"town":"中町一丁目","koaza":"","lat":35.260143,"lng":139.161732,"zip":"2500005"},{"town":"寿町二丁目","koaza":"","lat":35.261326,"lng":139.165551,"zip":"2500002"},{"town":"寿町一丁目","koaza":"","lat":35.26369,"lng":139.164267,"zip":"2500002"},{"town":"東町一丁目","koaza":"","lat":35.258406,"lng":139.170875,"zip":"2500003"},{"town":"寿町三丁目","koaza":"","lat":35.262274,"lng":139.167675,"zip":"2500002"},{"town":"鴨宮","koaza":"","lat":35.281276,"lng":139.178327,"zip":"2500874"},{"town":"城山二丁目","koaza":"","lat":35.257105,"lng":139.149163,"zip":"2500045"},{"town":"栄町二丁目","koaza":"","lat":35.256048,"lng":139.159057,"zip":"2500011"},{"town":"井細田","koaza":"","lat":35.269007,"lng":139.15428,"zip":"2500056"},{"town":"扇町二丁目","koaza":"","lat":35.267412,"lng":139.162712,"zip":"2500001"},{"town":"扇町五丁目","koaza":"","lat":35.274327,"lng":139.157533,"zip":"2500001"},{"town":"扇町一丁目","koaza":"","lat":35.263344,"lng":139.158334,"zip":"2500001"},{"town":"扇町三丁目","koaza":"","lat":35.269391,"lng":139.156846,"zip":"2500001"},{"town":"谷津","koaza":"","lat":35.25938,"lng":139.147789,"zip":"2500043"},{"town":"国府津五丁目","koaza":"","lat":35.283114,"lng":139.217938,"zip":"2560812"},{"town":"中村原","koaza":"","lat":35.294574,"lng":139.234457,"zip":"2560803"},{"town":"国府津四丁目","koaza":"","lat":35.281478,"lng":139.215976,"zip":"2560812"},{"town":"国府津二丁目","koaza":"","lat":35.278423,"lng":139.20725,"zip":"2560812"},{"town":"国府津三丁目","koaza":"","lat":35.27918,"lng":139.211239,"zip":"2560812"},{"town":"前川","koaza":"","lat":35.285813,"lng":139.224228,"zip":"2560813"},{"town":"小八幡二丁目","koaza":"","lat":35.273112,"lng":139.198682,"zip":"2560815"},{"town":"小八幡四丁目","koaza":"","lat":35.277166,"lng":139.198173,"zip":"2560815"},{"town":"羽根尾","koaza":"","lat":35.292244,"lng":139.227931,"zip":"2560804"},{"town":"国府津","koaza":"","lat":35.28596,"lng":139.208382,"zip":"2560812"},{"town":"上新田","koaza":"","lat":35.275683,"lng":139.17223,"zip":"2500877"},{"town":"酒匂一丁目","koaza":"","lat":35.274519,"lng":139.186787,"zip":"2560816"},{"town":"酒匂","koaza":"","lat":35.278097,"lng":139.189892,"zip":"2560816"},{"town":"別堀","koaza":"","lat":35.291712,"lng":139.190706,"zip":"2500217"},{"town":"中里","koaza":"","lat":35.283038,"lng":139.185587,"zip":"2500872"},{"town":"高田","koaza":"","lat":35.29124,"lng":139.185406,"zip":"2500216"},{"town":"多古","koaza":"","lat":35.276185,"lng":139.151888,"zip":"2500054"},{"town":"中曽根","koaza":"","lat":35.294091,"lng":139.153742,"zip":"2500866"},{"town":"穴部新田","koaza":"","lat":35.28017,"lng":139.152139,"zip":"2500864"},{"town":"扇町六丁目","koaza":"","lat":35.27659,"lng":139.158368,"zip":"2500001"},{"town":"飯泉","koaza":"","lat":35.281783,"lng":139.167525,"zip":"2500863"},{"town":"穴部","koaza":"","lat":35.279196,"lng":139.144301,"zip":"2500053"},{"town":"桑原","koaza":"","lat":35.298794,"lng":139.161726,"zip":"2500861"},{"town":"飯田岡","koaza":"","lat":35.290051,"lng":139.146359,"zip":"2500854"},{"town":"蓮正寺","koaza":"","lat":35.285383,"lng":139.153098,"zip":"2500865"},{"town":"北ノ窪","koaza":"","lat":35.28898,"lng":139.133933,"zip":"2500051"},{"town":"新屋","koaza":"","lat":35.294988,"lng":139.137133,"zip":"2500856"},{"town":"小台","koaza":"","lat":35.299789,"lng":139.134306,"zip":"2500858"},{"town":"山西","koaza":"","lat":35.302542,"lng":139.231959,"zip":"2560807"},{"town":"田島","koaza":"","lat":35.294865,"lng":139.199323,"zip":"2560811"},{"town":"上町","koaza":"","lat":35.296066,"lng":139.217254,"zip":"2560805"},{"town":"小船","koaza":"","lat":35.303277,"lng":139.224154,"zip":"2560806"},{"town":"矢作","koaza":"","lat":35.285313,"lng":139.180113,"zip":"2500873"},{"town":"成田","koaza":"","lat":35.292184,"lng":139.165562,"zip":"2500862"},{"town":"延清","koaza":"","lat":35.295367,"lng":139.171297,"zip":"2500218"},{"town":"永塚","koaza":"","lat":35.301631,"lng":139.176209,"zip":"2500214"},{"town":"西大友","koaza":"","lat":35.304136,"lng":139.165464,"zip":"2500212"},{"town":"東大友","koaza":"","lat":35.305432,"lng":139.173301,"zip":"2500213"},{"town":"堀之内","koaza":"","lat":35.297937,"lng":139.146684,"zip":"2500853"},{"town":"下堀","koaza":"","lat":35.289759,"lng":139.181387,"zip":"2500871"},{"town":"千代","koaza":"","lat":35.295963,"lng":139.180601,"zip":"2500215"},{"town":"鬼柳","koaza":"","lat":35.308542,"lng":139.156572,"zip":"2500211"},{"town":"柳新田","koaza":"","lat":35.298311,"lng":139.140972,"zip":"2500857"},{"town":"清水新田","koaza":"","lat":35.28828,"lng":139.143313,"zip":"2500855"},{"town":"曽我原","koaza":"","lat":35.300775,"lng":139.188836,"zip":"2500206"},{"town":"曽我谷津","koaza":"","lat":35.31029,"lng":139.194132,"zip":"2500204"},{"town":"下大井","koaza":"","lat":35.314038,"lng":139.161817,"zip":"2500208"},{"town":"上曽我","koaza":"","lat":35.318316,"lng":139.177645,"zip":"2500202"},{"town":"小竹","koaza":"","lat":35.311863,"lng":139.229396,"zip":"2560802"},{"town":"沼代","koaza":"","lat":35.306477,"lng":139.211993,"zip":"2560801"},{"town":"曽我大沢","koaza":"","lat":35.322241,"lng":139.171122,"zip":"2500201"},{"town":"栢山","koaza":"","lat":35.30437,"lng":139.142996,"zip":"2500852"},{"town":"曽比","koaza":"","lat":35.315403,"lng":139.139133,"zip":"2500851"},{"town":"飯泉","koaza":"下河原","lat":35.276808,"lng":139.166779,"zip":"2500863"},{"town":"飯泉","koaza":"丹花前","lat":35.284328,"lng":139.169099,"zip":"2500863"},{"town":"飯泉","koaza":"田中前","lat":35.289252,"lng":139.172375,"zip":"2500863"},{"town":"鴨宮","koaza":"宝町","lat":35.278555,"lng":139.177104,"zip":"2500874"},{"town":"高田","koaza":"柳町","lat":35.286859,"lng":139.188702,"zip":"2500216"}]