[{"town":"上新城二丁目","koaza":"","lat":35.58722,"lng":139.630813,"zip":"2110045"},{"town":"上小田中二丁目","koaza":"","lat":35.588425,"lng":139.63638,"zip":"2110053"},{"town":"上小田中三丁目","koaza":"","lat":35.586945,"lng":139.633167,"zip":"2110053"},{"town":"上小田中六丁目","koaza":"","lat":35.582178,"lng":139.645375,"zip":"2110053"},{"town":"等々力","koaza":"","lat":35.58918,"lng":139.653175,"zip":"2110052"},{"town":"宮内四丁目","koaza":"","lat":35.58606,"lng":139.644465,"zip":"2110051"},{"town":"上丸子天神町","koaza":"","lat":35.586928,"lng":139.66357,"zip":"2110007"},{"town":"宮内二丁目","koaza":"","lat":35.590908,"lng":139.638814,"zip":"2110051"},{"town":"新城三丁目","koaza":"","lat":35.585398,"lng":139.630159,"zip":"2110044"},{"town":"新城五丁目","koaza":"","lat":35.586216,"lng":139.628985,"zip":"2110044"},{"town":"上丸子八幡町","koaza":"","lat":35.582599,"lng":139.667963,"zip":"2110001"},{"town":"小杉陣屋町二丁目","koaza":"","lat":35.585132,"lng":139.65604,"zip":"2110062"},{"town":"小杉陣屋町一丁目","koaza":"","lat":35.585031,"lng":139.658407,"zip":"2110062"},{"town":"新城一丁目","koaza":"","lat":35.58526,"lng":139.631542,"zip":"2110044"},{"town":"井田一丁目","koaza":"","lat":35.562932,"lng":139.643385,"zip":"2110035"},{"town":"上小田中四丁目","koaza":"","lat":35.583537,"lng":139.640258,"zip":"2110053"},{"town":"下小田中四丁目","koaza":"","lat":35.576185,"lng":139.637997,"zip":"2110041"},{"town":"井田二丁目","koaza":"","lat":35.561114,"lng":139.640893,"zip":"2110035"},{"town":"井田杉山町","koaza":"","lat":35.569529,"lng":139.642792,"zip":"2110036"},{"town":"上丸子山王町二丁目","koaza":"","lat":35.576142,"lng":139.666579,"zip":"2110002"},{"town":"田尻町","koaza":"","lat":35.559488,"lng":139.672165,"zip":"2110014"},{"town":"北谷町","koaza":"","lat":35.562575,"lng":139.671567,"zip":"2110015"},{"town":"大倉町","koaza":"","lat":35.556774,"lng":139.665973,"zip":"2110023"},{"town":"西加瀬","koaza":"","lat":35.560117,"lng":139.659823,"zip":"2110024"},{"town":"木月二丁目","koaza":"","lat":35.564023,"lng":139.65547,"zip":"2110025"},{"town":"木月四丁目","koaza":"","lat":35.559027,"lng":139.654425,"zip":"2110025"},{"town":"木月一丁目","koaza":"","lat":35.565429,"lng":139.652818,"zip":"2110025"},{"town":"井田三丁目","koaza":"","lat":35.562737,"lng":139.636755,"zip":"2110035"},{"town":"苅宿","koaza":"","lat":35.561763,"lng":139.663954,"zip":"2110022"},{"town":"市ノ坪","koaza":"","lat":35.567422,"lng":139.664481,"zip":"2110016"},{"town":"上丸子","koaza":"","lat":35.574764,"lng":139.664298,"zip":"2110003"},{"town":"新丸子東三丁目","koaza":"","lat":35.574728,"lng":139.6612,"zip":"2110004"},{"town":"新丸子東二丁目","koaza":"","lat":35.577759,"lng":139.662374,"zip":"2110004"},{"town":"下沼部","koaza":"","lat":35.574007,"lng":139.668804,"zip":"2110011"},{"town":"上丸子山王町一丁目","koaza":"","lat":35.578982,"lng":139.668365,"zip":"2110002"},{"town":"小杉町二丁目","koaza":"","lat":35.579455,"lng":139.656175,"zip":"2110063"},{"town":"小杉町一丁目","koaza":"","lat":35.579357,"lng":139.658607,"zip":"2110063"},{"town":"新丸子東一丁目","koaza":"","lat":35.580086,"lng":139.663177,"zip":"2110004"},{"town":"丸子通二丁目","koaza":"","lat":35.58328,"lng":139.661594,"zip":"2110006"},{"town":"中丸子","koaza":"","lat":35.568518,"lng":139.668859,"zip":"2110012"},{"town":"上平間","koaza":"","lat":35.559946,"lng":139.677571,"zip":"2110013"},{"town":"小杉町三丁目","koaza":"","lat":35.574686,"lng":139.657252,"zip":"2110063"},{"town":"木月祗園町","koaza":"","lat":35.568179,"lng":139.65085,"zip":"2110033"},{"town":"木月三丁目","koaza":"","lat":35.562816,"lng":139.650428,"zip":"2110025"},{"town":"丸子通一丁目","koaza":"","lat":35.582999,"lng":139.66455,"zip":"2110006"},{"town":"新丸子町","koaza":"","lat":35.579381,"lng":139.660603,"zip":"2110005"},{"town":"木月大町","koaza":"","lat":35.571152,"lng":139.65034,"zip":"2110031"},{"town":"木月伊勢町","koaza":"","lat":35.569092,"lng":139.65494,"zip":"2110032"},{"town":"今井仲町","koaza":"","lat":35.574457,"lng":139.651479,"zip":"2110065"},{"town":"小杉御殿町一丁目","koaza":"","lat":35.583962,"lng":139.652437,"zip":"2110068"},{"town":"上小田中七丁目","koaza":"","lat":35.581033,"lng":139.648845,"zip":"2110053"},{"town":"小杉御殿町二丁目","koaza":"","lat":35.579423,"lng":139.653391,"zip":"2110068"},{"town":"下小田中二丁目","koaza":"","lat":35.577623,"lng":139.643486,"zip":"2110041"},{"town":"今井西町","koaza":"","lat":35.575397,"lng":139.64838,"zip":"2110066"},{"town":"今井上町","koaza":"","lat":35.578438,"lng":139.649884,"zip":"2110067"},{"town":"井田中ノ町","koaza":"","lat":35.565289,"lng":139.643876,"zip":"2110034"},{"town":"下小田中六丁目","koaza":"","lat":35.57122,"lng":139.637288,"zip":"2110041"},{"town":"下小田中五丁目","koaza":"","lat":35.574075,"lng":139.63411,"zip":"2110041"},{"town":"下新城二丁目","koaza":"","lat":35.577461,"lng":139.632675,"zip":"2110042"},{"town":"井田三舞町","koaza":"","lat":35.569301,"lng":139.646265,"zip":"2110037"},{"town":"下小田中三丁目","koaza":"","lat":35.573154,"lng":139.643202,"zip":"2110041"},{"town":"下小田中一丁目","koaza":"","lat":35.579784,"lng":139.637806,"zip":"2110041"},{"town":"上小田中五丁目","koaza":"","lat":35.582758,"lng":139.636621,"zip":"2110053"},{"town":"新城中町","koaza":"","lat":35.583254,"lng":139.633532,"zip":"2110043"},{"town":"下新城三丁目","koaza":"","lat":35.579671,"lng":139.630402,"zip":"2110042"},{"town":"新城四丁目","koaza":"","lat":35.582792,"lng":139.630059,"zip":"2110044"},{"town":"下新城一丁目","koaza":"","lat":35.579922,"lng":139.633538,"zip":"2110042"},{"town":"新城二丁目","koaza":"","lat":35.582811,"lng":139.63164,"zip":"2110044"},{"town":"上小田中一丁目","koaza":"","lat":35.593112,"lng":139.630566,"zip":"2110053"},{"town":"宮内三丁目","koaza":"","lat":35.590812,"lng":139.643723,"zip":"2110051"},{"town":"上新城一丁目","koaza":"","lat":35.590571,"lng":139.628885,"zip":"2110045"},{"town":"新城","koaza":"","lat":35.587962,"lng":139.627724,"zip":"2110044"},{"town":"宮内一丁目","koaza":"","lat":35.594809,"lng":139.644987,"zip":"2110051"},{"town":"今井南町","koaza":"","lat":35.572501,"lng":139.654761,"zip":"2110064"},{"town":"木月住吉町","koaza":"","lat":35.565849,"lng":139.658919,"zip":"2110021"}]