[{"town":"末長二丁目","koaza":"","lat":35.589939,"lng":139.613198,"zip":"2130013"},{"town":"末長一丁目","koaza":"","lat":35.59276,"lng":139.606576,"zip":"2130013"},{"town":"下作延七丁目","koaza":"","lat":35.604089,"lng":139.604182,"zip":"2130033"},{"town":"下作延六丁目","koaza":"","lat":35.607085,"lng":139.599078,"zip":"2130033"},{"town":"下作延五丁目","koaza":"","lat":35.604043,"lng":139.598006,"zip":"2130033"},{"town":"新作四丁目","koaza":"","lat":35.586738,"lng":139.620334,"zip":"2130014"},{"town":"久末","koaza":"","lat":35.566258,"lng":139.622,"zip":"2130026"},{"town":"千年","koaza":"","lat":35.577995,"lng":139.625051,"zip":"2130022"},{"town":"新作六丁目","koaza":"","lat":35.585686,"lng":139.625092,"zip":"2130014"},{"town":"二子二丁目","koaza":"","lat":35.605841,"lng":139.619941,"zip":"2130002"},{"town":"二子三丁目","koaza":"","lat":35.603571,"lng":139.621889,"zip":"2130002"},{"town":"二子六丁目","koaza":"","lat":35.600094,"lng":139.62217,"zip":"2130002"},{"town":"二子一丁目","koaza":"","lat":35.608795,"lng":139.620263,"zip":"2130002"},{"town":"新作三丁目","koaza":"","lat":35.586211,"lng":139.615696,"zip":"2130014"},{"town":"坂戸一丁目","koaza":"","lat":35.597928,"lng":139.621556,"zip":"2130012"},{"town":"新作一丁目","koaza":"","lat":35.586338,"lng":139.610062,"zip":"2130014"},{"town":"梶ケ谷三丁目","koaza":"","lat":35.587765,"lng":139.606183,"zip":"2130015"},{"town":"梶ケ谷四丁目","koaza":"","lat":35.586784,"lng":139.602748,"zip":"2130015"},{"town":"明津","koaza":"","lat":35.567889,"lng":139.636695,"zip":"2130024"},{"town":"蟹ケ谷","koaza":"","lat":35.565095,"lng":139.631473,"zip":"2130025"},{"town":"子母口","koaza":"","lat":35.571462,"lng":139.630285,"zip":"2130023"},{"town":"千年新町","koaza":"","lat":35.581997,"lng":139.628216,"zip":"2130021"},{"town":"子母口富士見台","koaza":"","lat":35.574581,"lng":139.625809,"zip":"2130000"},{"town":"新作二丁目","koaza":"","lat":35.583274,"lng":139.614384,"zip":"2130014"},{"town":"梶ケ谷六丁目","koaza":"","lat":35.583404,"lng":139.610187,"zip":"2130015"},{"town":"梶ケ谷五丁目","koaza":"","lat":35.583936,"lng":139.605954,"zip":"2130015"},{"town":"北見方一丁目","koaza":"","lat":35.598177,"lng":139.627756,"zip":"2130005"},{"town":"諏訪一丁目","koaza":"","lat":35.605642,"lng":139.624546,"zip":"2130004"},{"town":"諏訪三丁目","koaza":"","lat":35.602324,"lng":139.625745,"zip":"2130004"},{"town":"坂戸二丁目","koaza":"","lat":35.596111,"lng":139.626304,"zip":"2130012"},{"town":"北見方三丁目","koaza":"","lat":35.597837,"lng":139.632118,"zip":"2130005"},{"town":"下野毛二丁目","koaza":"","lat":35.595334,"lng":139.635988,"zip":"2130006"},{"town":"下野毛三丁目","koaza":"","lat":35.595659,"lng":139.640058,"zip":"2130006"},{"town":"諏訪二丁目","koaza":"","lat":35.605207,"lng":139.629586,"zip":"2130004"},{"town":"新作五丁目","koaza":"","lat":35.587628,"lng":139.624588,"zip":"2130014"},{"town":"北見方二丁目","koaza":"","lat":35.601393,"lng":139.631721,"zip":"2130005"},{"town":"下野毛一丁目","koaza":"","lat":35.599787,"lng":139.638331,"zip":"2130006"},{"town":"瀬田","koaza":"","lat":35.608491,"lng":139.625448,"zip":"2130003"},{"town":"下作延一丁目","koaza":"","lat":35.601893,"lng":139.607395,"zip":"2130033"},{"town":"下作延四丁目","koaza":"","lat":35.59895,"lng":139.602468,"zip":"2130033"},{"town":"久地","koaza":"","lat":35.612197,"lng":139.602212,"zip":"2130032"},{"town":"久地三丁目","koaza":"","lat":35.609946,"lng":139.604117,"zip":"2130032"},{"town":"溝口四丁目","koaza":"","lat":35.604617,"lng":139.615537,"zip":"2130001"},{"town":"二子五丁目","koaza":"","lat":35.601476,"lng":139.618095,"zip":"2130002"},{"town":"二子四丁目","koaza":"","lat":35.603221,"lng":139.618767,"zip":"2130002"},{"town":"溝口六丁目","koaza":"","lat":35.608341,"lng":139.612497,"zip":"2130001"},{"town":"久地一丁目","koaza":"","lat":35.606678,"lng":139.606989,"zip":"2130032"},{"town":"溝口三丁目","koaza":"","lat":35.603653,"lng":139.612882,"zip":"2130001"},{"town":"溝口五丁目","koaza":"","lat":35.607012,"lng":139.614715,"zip":"2130001"},{"town":"溝口一丁目","koaza":"","lat":35.599801,"lng":139.613201,"zip":"2130001"},{"town":"久本二丁目","koaza":"","lat":35.594993,"lng":139.613968,"zip":"2130011"},{"town":"溝口二丁目","koaza":"","lat":35.60229,"lng":139.610757,"zip":"2130001"},{"town":"久本三丁目","koaza":"","lat":35.595994,"lng":139.617343,"zip":"2130011"},{"town":"久地二丁目","koaza":"","lat":35.611866,"lng":139.612344,"zip":"2130032"},{"town":"梶ケ谷一丁目","koaza":"","lat":35.589773,"lng":139.599458,"zip":"2130015"},{"town":"下作延二丁目","koaza":"","lat":35.598333,"lng":139.606663,"zip":"2130033"},{"town":"久本一丁目","koaza":"","lat":35.597157,"lng":139.611191,"zip":"2130011"},{"town":"下作延三丁目","koaza":"","lat":35.593918,"lng":139.601061,"zip":"2130033"},{"town":"梶ケ谷二丁目","koaza":"","lat":35.58943,"lng":139.602333,"zip":"2130015"},{"town":"向ケ丘","koaza":"","lat":35.593877,"lng":139.594688,"zip":"2130035"},{"town":"上作延","koaza":"","lat":35.600721,"lng":139.593909,"zip":"2130034"},{"town":"宇奈根","koaza":"","lat":35.61493,"lng":139.603661,"zip":"2130031"},{"town":"下作延","koaza":"","lat":35.604026,"lng":139.594571,"zip":"2130033"},{"town":"久地四丁目","koaza":"","lat":35.609815,"lng":139.59805,"zip":"2130032"},{"town":"末長三丁目","koaza":"","lat":35.590397,"lng":139.620207,"zip":"2130013"},{"town":"坂戸三丁目","koaza":"","lat":35.594077,"lng":139.623219,"zip":"2130012"},{"town":"末長","koaza":"","lat":35.591377,"lng":139.624317,"zip":"2130013"},{"town":"末長四丁目","koaza":"","lat":35.590903,"lng":139.625436,"zip":"2130013"},{"town":"東野川一丁目","koaza":"","lat":35.572079,"lng":139.618276,"zip":"2130029"},{"town":"東野川二丁目","koaza":"","lat":35.568143,"lng":139.613928,"zip":"2130029"},{"town":"北野川","koaza":"","lat":35.579726,"lng":139.620171,"zip":"2130028"},{"town":"野川","koaza":"","lat":35.572493,"lng":139.616101,"zip":"2130000"}]