[{"town":"東扇島","koaza":"","lat":35.49719,"lng":139.753955,"zip":"2100869"},{"town":"水江町","koaza":"","lat":35.508049,"lng":139.741088,"zip":"2100866"},{"town":"扇町","koaza":"","lat":35.502051,"lng":139.72287,"zip":"2100867"},{"town":"浅田四丁目","koaza":"","lat":35.504065,"lng":139.700647,"zip":"2100847"},{"town":"千鳥町","koaza":"","lat":35.517255,"lng":139.756416,"zip":"2100865"},{"town":"塩浜四丁目","koaza":"","lat":35.529443,"lng":139.746603,"zip":"2100826"},{"town":"殿町二丁目","koaza":"","lat":35.540683,"lng":139.747211,"zip":"2100821"},{"town":"夜光二丁目","koaza":"","lat":35.521961,"lng":139.747628,"zip":"2100863"},{"town":"白石町","koaza":"","lat":35.500755,"lng":139.709607,"zip":"2100857"},{"town":"田辺新田","koaza":"","lat":35.504962,"lng":139.707006,"zip":"2100856"},{"town":"塩浜三丁目","koaza":"","lat":35.521309,"lng":139.740982,"zip":"2100826"},{"town":"江川二丁目","koaza":"","lat":35.536212,"lng":139.747828,"zip":"2100823"},{"town":"田町二丁目","koaza":"","lat":35.534631,"lng":139.745668,"zip":"2100822"},{"town":"大川町","koaza":"","lat":35.494112,"lng":139.713901,"zip":"2100858"},{"town":"扇島","koaza":"","lat":35.48357,"lng":139.726853,"zip":"2100868"},{"town":"夜光一丁目","koaza":"","lat":35.528243,"lng":139.753494,"zip":"2100863"},{"town":"浮島町","koaza":"","lat":35.52287,"lng":139.776179,"zip":"2100862"},{"town":"小島町","koaza":"","lat":35.533188,"lng":139.756973,"zip":"2100861"},{"town":"殿町三丁目","koaza":"","lat":35.539552,"lng":139.758373,"zip":"2100821"},{"town":"田町三丁目","koaza":"","lat":35.534947,"lng":139.749801,"zip":"2100822"},{"town":"日ノ出二丁目","koaza":"","lat":35.531639,"lng":139.744358,"zip":"2100824"},{"town":"中島一丁目","koaza":"","lat":35.530108,"lng":139.716496,"zip":"2100806"},{"town":"鋼管通五丁目","koaza":"","lat":35.509983,"lng":139.712782,"zip":"2100852"},{"town":"南渡田町","koaza":"","lat":35.508603,"lng":139.717094,"zip":"2100855"},{"town":"小田六丁目","koaza":"","lat":35.509099,"lng":139.705399,"zip":"2100846"},{"town":"浅田一丁目","koaza":"","lat":35.506845,"lng":139.705012,"zip":"2100847"},{"town":"夜光三丁目","koaza":"","lat":35.51754,"lng":139.742183,"zip":"2100863"},{"town":"四谷下町","koaza":"","lat":35.526084,"lng":139.738288,"zip":"2100827"},{"town":"池上新町三丁目","koaza":"","lat":35.521155,"lng":139.733625,"zip":"2100832"},{"town":"浜町四丁目","koaza":"","lat":35.515902,"lng":139.722055,"zip":"2100851"},{"town":"浜町三丁目","koaza":"","lat":35.517386,"lng":139.719968,"zip":"2100851"},{"town":"大島三丁目","koaza":"","lat":35.52033,"lng":139.7182,"zip":"2100834"},{"town":"桜本二丁目","koaza":"","lat":35.521742,"lng":139.725051,"zip":"2100833"},{"town":"大島五丁目","koaza":"","lat":35.523877,"lng":139.717482,"zip":"2100834"},{"town":"浅野町","koaza":"","lat":35.512828,"lng":139.726088,"zip":"2100854"},{"town":"浜町二丁目","koaza":"","lat":35.513944,"lng":139.717987,"zip":"2100851"},{"town":"浜町一丁目","koaza":"","lat":35.516758,"lng":139.71777,"zip":"2100851"},{"town":"桜本一丁目","koaza":"","lat":35.519326,"lng":139.722649,"zip":"2100833"},{"town":"池上町","koaza":"","lat":35.517271,"lng":139.730213,"zip":"2100864"},{"town":"鋼管通三丁目","koaza":"","lat":35.513788,"lng":139.713894,"zip":"2100852"},{"town":"小田七丁目","koaza":"","lat":35.509028,"lng":139.708889,"zip":"2100846"},{"town":"鋼管通四丁目","koaza":"","lat":35.511637,"lng":139.71314,"zip":"2100852"},{"town":"大島二丁目","koaza":"","lat":35.52129,"lng":139.714715,"zip":"2100834"},{"town":"鋼管通二丁目","koaza":"","lat":35.516319,"lng":139.715354,"zip":"2100852"},{"town":"追分町","koaza":"","lat":35.519787,"lng":139.714624,"zip":"2100835"},{"town":"鋼管通一丁目","koaza":"","lat":35.518189,"lng":139.712657,"zip":"2100852"},{"town":"渡田三丁目","koaza":"","lat":35.518861,"lng":139.705083,"zip":"2100837"},{"town":"大島上町","koaza":"","lat":35.520868,"lng":139.7102,"zip":"2100836"},{"town":"田島町","koaza":"","lat":35.517083,"lng":139.710045,"zip":"2100853"},{"town":"大島四丁目","koaza":"","lat":35.524345,"lng":139.714691,"zip":"2100834"},{"town":"渡田一丁目","koaza":"","lat":35.523024,"lng":139.707731,"zip":"2100837"},{"town":"境町","koaza":"","lat":35.525108,"lng":139.708365,"zip":"2100838"},{"town":"大島一丁目","koaza":"","lat":35.524009,"lng":139.711731,"zip":"2100834"},{"town":"小田三丁目","koaza":"","lat":35.514017,"lng":139.703836,"zip":"2100846"},{"town":"小田四丁目","koaza":"","lat":35.510694,"lng":139.700414,"zip":"2100846"},{"town":"渡田東町","koaza":"","lat":35.518302,"lng":139.708078,"zip":"2100842"},{"town":"小田栄一丁目","koaza":"","lat":35.515782,"lng":139.704749,"zip":"2100843"},{"town":"小田五丁目","koaza":"","lat":35.51157,"lng":139.706424,"zip":"2100846"},{"town":"小田栄二丁目","koaza":"","lat":35.513587,"lng":139.708705,"zip":"2100843"},{"town":"浅田二丁目","koaza":"","lat":35.50697,"lng":139.702678,"zip":"2100847"},{"town":"京町三丁目","koaza":"","lat":35.508803,"lng":139.697073,"zip":"2100848"},{"town":"浅田三丁目","koaza":"","lat":35.50746,"lng":139.699996,"zip":"2100847"},{"town":"小田一丁目","koaza":"","lat":35.515985,"lng":139.699053,"zip":"2100846"},{"town":"小田二丁目","koaza":"","lat":35.513489,"lng":139.699584,"zip":"2100846"},{"town":"渡田二丁目","koaza":"","lat":35.520905,"lng":139.706322,"zip":"2100837"},{"town":"渡田四丁目","koaza":"","lat":35.518352,"lng":139.702886,"zip":"2100837"},{"town":"渡田新町一丁目","koaza":"","lat":35.522026,"lng":139.700128,"zip":"2100844"},{"town":"元木一丁目","koaza":"","lat":35.524102,"lng":139.699217,"zip":"2100021"},{"town":"新川通","koaza":"","lat":35.526319,"lng":139.705158,"zip":"2100013"},{"town":"渡田山王町","koaza":"","lat":35.519162,"lng":139.696324,"zip":"2100845"},{"town":"渡田向町","koaza":"","lat":35.521358,"lng":139.702868,"zip":"2100841"},{"town":"貝塚二丁目","koaza":"","lat":35.524523,"lng":139.704534,"zip":"2100014"},{"town":"渡田新町三丁目","koaza":"","lat":35.519441,"lng":139.699407,"zip":"2100844"},{"town":"京町二丁目","koaza":"","lat":35.513738,"lng":139.695328,"zip":"2100848"},{"town":"京町一丁目","koaza":"","lat":35.517933,"lng":139.693751,"zip":"2100848"},{"town":"渡田新町二丁目","koaza":"","lat":35.521067,"lng":139.699324,"zip":"2100844"},{"town":"元木二丁目","koaza":"","lat":35.522445,"lng":139.696011,"zip":"2100021"},{"town":"下並木","koaza":"","lat":35.523144,"lng":139.689816,"zip":"2100025"},{"town":"池田一丁目","koaza":"","lat":35.52153,"lng":139.691448,"zip":"2100022"},{"town":"池田二丁目","koaza":"","lat":35.52054,"lng":139.692629,"zip":"2100022"},{"town":"塩浜二丁目","koaza":"","lat":35.523555,"lng":139.737509,"zip":"2100826"},{"town":"塩浜一丁目","koaza":"","lat":35.528691,"lng":139.740769,"zip":"2100826"},{"town":"日ノ出一丁目","koaza":"","lat":35.531914,"lng":139.741726,"zip":"2100824"},{"town":"出来野","koaza":"","lat":35.533646,"lng":139.739799,"zip":"2100825"},{"town":"四谷上町","koaza":"","lat":35.52775,"lng":139.734338,"zip":"2100828"},{"town":"池上新町一丁目","koaza":"","lat":35.523061,"lng":139.728261,"zip":"2100832"},{"town":"昭和一丁目","koaza":"","lat":35.533251,"lng":139.737189,"zip":"2100813"},{"town":"昭和二丁目","koaza":"","lat":35.530496,"lng":139.737533,"zip":"2100813"},{"town":"江川一丁目","koaza":"","lat":35.536344,"lng":139.744178,"zip":"2100823"},{"town":"殿町一丁目","koaza":"","lat":35.540843,"lng":139.743347,"zip":"2100821"},{"town":"東門前二丁目","koaza":"","lat":35.53339,"lng":139.734694,"zip":"2100812"},{"town":"東門前三丁目","koaza":"","lat":35.53569,"lng":139.736483,"zip":"2100812"},{"town":"大師河原二丁目","koaza":"","lat":35.53609,"lng":139.739724,"zip":"2100811"},{"town":"田町一丁目","koaza":"","lat":35.535343,"lng":139.74203,"zip":"2100822"},{"town":"大師本町","koaza":"","lat":35.535618,"lng":139.730287,"zip":"2100817"},{"town":"池上新町二丁目","koaza":"","lat":35.524058,"lng":139.730688,"zip":"2100832"},{"town":"観音二丁目","koaza":"","lat":35.52745,"lng":139.729597,"zip":"2100831"},{"town":"観音一丁目","koaza":"","lat":35.527226,"lng":139.726093,"zip":"2100831"},{"town":"藤崎四丁目","koaza":"","lat":35.524408,"lng":139.722328,"zip":"2100804"},{"town":"大師町","koaza":"","lat":35.53381,"lng":139.730888,"zip":"2100816"},{"town":"大師公園","koaza":"","lat":35.531721,"lng":139.731413,"zip":"2100815"},{"town":"台町","koaza":"","lat":35.53027,"lng":139.732695,"zip":"2100814"},{"town":"東門前一丁目","koaza":"","lat":35.535414,"lng":139.733436,"zip":"2100812"},{"town":"中島二丁目","koaza":"","lat":35.528741,"lng":139.71628,"zip":"2100806"},{"town":"藤崎一丁目","koaza":"","lat":35.529413,"lng":139.720801,"zip":"2100804"},{"town":"藤崎三丁目","koaza":"","lat":35.528253,"lng":139.72375,"zip":"2100804"},{"town":"川中島二丁目","koaza":"","lat":35.530438,"lng":139.727184,"zip":"2100803"},{"town":"大師駅前一丁目","koaza":"","lat":35.534908,"lng":139.726919,"zip":"2100802"},{"town":"川中島一丁目","koaza":"","lat":35.532355,"lng":139.726893,"zip":"2100803"},{"town":"大師駅前二丁目","koaza":"","lat":35.534241,"lng":139.723358,"zip":"2100802"},{"town":"中島三丁目","koaza":"","lat":35.526887,"lng":139.716061,"zip":"2100806"},{"town":"藤崎二丁目","koaza":"","lat":35.526767,"lng":139.720665,"zip":"2100804"},{"town":"中瀬三丁目","koaza":"","lat":35.539254,"lng":139.732078,"zip":"2100818"},{"town":"大師河原一丁目","koaza":"","lat":35.541128,"lng":139.738156,"zip":"2100811"},{"town":"中瀬二丁目","koaza":"","lat":35.537619,"lng":139.727849,"zip":"2100818"},{"town":"中瀬一丁目","koaza":"","lat":35.541223,"lng":139.728673,"zip":"2100818"},{"town":"鈴木町","koaza":"","lat":35.538858,"lng":139.722793,"zip":"2100801"},{"town":"伊勢町","koaza":"","lat":35.531981,"lng":139.721555,"zip":"2100805"},{"town":"小川町","koaza":"","lat":35.527528,"lng":139.698112,"zip":"2100023"},{"town":"貝塚一丁目","koaza":"","lat":35.525225,"lng":139.702012,"zip":"2100014"},{"town":"港町","koaza":"","lat":35.535292,"lng":139.714131,"zip":"2100807"},{"town":"旭町一丁目","koaza":"","lat":35.535443,"lng":139.70971,"zip":"2100808"},{"town":"富士見二丁目","koaza":"","lat":35.527831,"lng":139.710559,"zip":"2100011"},{"town":"宮本町","koaza":"","lat":35.531094,"lng":139.704116,"zip":"2100004"},{"town":"堀之内町","koaza":"","lat":35.533105,"lng":139.705826,"zip":"2100003"},{"town":"榎町","koaza":"","lat":35.531238,"lng":139.706405,"zip":"2100002"},{"town":"宮前町","koaza":"","lat":35.528364,"lng":139.705427,"zip":"2100012"},{"town":"南町","koaza":"","lat":35.525841,"lng":139.698811,"zip":"2100015"},{"town":"東田町","koaza":"","lat":35.528561,"lng":139.702468,"zip":"2100005"},{"town":"砂子一丁目","koaza":"","lat":35.531796,"lng":139.701441,"zip":"2100006"},{"town":"砂子二丁目","koaza":"","lat":35.529262,"lng":139.700321,"zip":"2100006"},{"town":"本町二丁目","koaza":"","lat":35.535091,"lng":139.705541,"zip":"2100001"},{"town":"駅前本町","koaza":"","lat":35.532434,"lng":139.6996,"zip":"2100007"},{"town":"本町一丁目","koaza":"","lat":35.5333,"lng":139.703119,"zip":"2100001"},{"town":"富士見一丁目","koaza":"","lat":35.531636,"lng":139.710917,"zip":"2100011"},{"town":"旭町二丁目","koaza":"","lat":35.532275,"lng":139.716636,"zip":"2100808"},{"town":"堤根","koaza":"","lat":35.524993,"lng":139.688584,"zip":"2100026"},{"town":"日進町","koaza":"","lat":35.526463,"lng":139.692935,"zip":"2100024"}]