[{"town":"鹿島田三丁目","koaza":"","lat":35.559237,"lng":139.669449,"zip":"2120058"},{"town":"鹿島田二丁目","koaza":"","lat":35.554704,"lng":139.671642,"zip":"2120058"},{"town":"鹿島田一丁目","koaza":"","lat":35.551094,"lng":139.673209,"zip":"2120058"},{"town":"小倉五丁目","koaza":"","lat":35.537085,"lng":139.665565,"zip":"2120054"},{"town":"小倉四丁目","koaza":"","lat":35.53765,"lng":139.670787,"zip":"2120054"},{"town":"小倉三丁目","koaza":"","lat":35.541435,"lng":139.670755,"zip":"2120054"},{"town":"小倉二丁目","koaza":"","lat":35.54152,"lng":139.667146,"zip":"2120054"},{"town":"小倉一丁目","koaza":"","lat":35.545078,"lng":139.670148,"zip":"2120054"},{"town":"新小倉","koaza":"","lat":35.540872,"lng":139.673985,"zip":"2120031"},{"town":"新塚越","koaza":"","lat":35.549362,"lng":139.676991,"zip":"2120027"},{"town":"北加瀬一丁目","koaza":"","lat":35.549371,"lng":139.667694,"zip":"2120057"},{"town":"北加瀬三丁目","koaza":"","lat":35.555633,"lng":139.661506,"zip":"2120057"},{"town":"幸町一丁目","koaza":"","lat":35.534919,"lng":139.69785,"zip":"2120011"},{"town":"大宮町","koaza":"","lat":35.529545,"lng":139.693133,"zip":"2120014"},{"town":"堀川町","koaza":"","lat":35.534288,"lng":139.695319,"zip":"2120013"},{"town":"幸町三丁目","koaza":"","lat":35.537761,"lng":139.697443,"zip":"2120011"},{"town":"幸町二丁目","koaza":"","lat":35.537105,"lng":139.698945,"zip":"2120011"},{"town":"神明町一丁目","koaza":"","lat":35.539366,"lng":139.689218,"zip":"2120022"},{"town":"中幸町三丁目","koaza":"","lat":35.533533,"lng":139.693641,"zip":"2120012"},{"town":"幸町四丁目","koaza":"","lat":35.535486,"lng":139.696104,"zip":"2120011"},{"town":"中幸町四丁目","koaza":"","lat":35.533704,"lng":139.69251,"zip":"2120012"},{"town":"南幸町一丁目","koaza":"","lat":35.535791,"lng":139.689731,"zip":"2120016"},{"town":"南幸町二丁目","koaza":"","lat":35.533158,"lng":139.690564,"zip":"2120016"},{"town":"中幸町一丁目","koaza":"","lat":35.536942,"lng":139.693189,"zip":"2120012"},{"town":"神明町二丁目","koaza":"","lat":35.53714,"lng":139.685716,"zip":"2120022"},{"town":"都町","koaza":"","lat":35.536954,"lng":139.689687,"zip":"2120021"},{"town":"中幸町二丁目","koaza":"","lat":35.536751,"lng":139.695224,"zip":"2120012"},{"town":"河原町","koaza":"","lat":35.540006,"lng":139.694026,"zip":"2120007"},{"town":"戸手三丁目","koaza":"","lat":35.545559,"lng":139.695104,"zip":"2120005"},{"town":"戸手二丁目","koaza":"","lat":35.545373,"lng":139.692829,"zip":"2120005"},{"town":"戸手一丁目","koaza":"","lat":35.545369,"lng":139.690739,"zip":"2120005"},{"town":"小向町","koaza":"","lat":35.547635,"lng":139.694965,"zip":"2120003"},{"town":"東小倉","koaza":"","lat":35.544251,"lng":139.675745,"zip":"2120033"},{"town":"紺屋町","koaza":"","lat":35.542764,"lng":139.689917,"zip":"2120026"},{"town":"遠藤町","koaza":"","lat":35.542333,"lng":139.692625,"zip":"2120006"},{"town":"戸手四丁目","koaza":"","lat":35.542029,"lng":139.696204,"zip":"2120005"},{"town":"戸手本町一丁目","koaza":"","lat":35.543071,"lng":139.686989,"zip":"2120023"},{"town":"柳町","koaza":"","lat":35.528825,"lng":139.689023,"zip":"2120015"},{"town":"南幸町三丁目","koaza":"","lat":35.533233,"lng":139.686677,"zip":"2120016"},{"town":"塚越一丁目","koaza":"","lat":35.546502,"lng":139.678527,"zip":"2120024"},{"town":"戸手本町二丁目","koaza":"","lat":35.539632,"lng":139.686504,"zip":"2120023"},{"town":"古川町","koaza":"","lat":35.546026,"lng":139.682673,"zip":"2120025"},{"town":"塚越三丁目","koaza":"","lat":35.542811,"lng":139.677507,"zip":"2120024"},{"town":"小倉","koaza":"","lat":35.548298,"lng":139.674086,"zip":"2120054"},{"town":"南加瀬一丁目","koaza":"","lat":35.547911,"lng":139.666193,"zip":"2120055"},{"town":"南加瀬三丁目","koaza":"","lat":35.54254,"lng":139.66361,"zip":"2120055"},{"town":"塚越四丁目","koaza":"","lat":35.541977,"lng":139.681917,"zip":"2120024"},{"town":"塚越二丁目","koaza":"","lat":35.545105,"lng":139.680489,"zip":"2120024"},{"town":"南加瀬五丁目","koaza":"","lat":35.538887,"lng":139.659172,"zip":"2120055"},{"town":"小向西町二丁目","koaza":"","lat":35.546422,"lng":139.690853,"zip":"2120004"},{"town":"小向西町一丁目","koaza":"","lat":35.54802,"lng":139.691278,"zip":"2120004"},{"town":"小向","koaza":"","lat":35.550482,"lng":139.701473,"zip":"2120001"},{"town":"小向仲野町","koaza":"","lat":35.550153,"lng":139.696392,"zip":"2120002"},{"town":"小向東芝町","koaza":"","lat":35.550285,"lng":139.689943,"zip":"2120001"},{"town":"古市場","koaza":"","lat":35.555904,"lng":139.689622,"zip":"2120052"},{"town":"東古市場","koaza":"","lat":35.5528,"lng":139.691418,"zip":"2120051"},{"town":"小向西町四丁目","koaza":"","lat":35.546051,"lng":139.687535,"zip":"2120004"},{"town":"小向西町三丁目","koaza":"","lat":35.548079,"lng":139.687776,"zip":"2120004"},{"town":"下平間","koaza":"","lat":35.550291,"lng":139.679524,"zip":"2120053"},{"town":"古市場一丁目","koaza":"","lat":35.554027,"lng":139.686619,"zip":"2120052"},{"town":"古市場二丁目","koaza":"","lat":35.555471,"lng":139.682703,"zip":"2120052"},{"town":"南加瀬四丁目","koaza":"","lat":35.546265,"lng":139.657966,"zip":"2120055"},{"town":"新川崎","koaza":"","lat":35.549886,"lng":139.670483,"zip":"2120032"},{"town":"矢上","koaza":"","lat":35.554473,"lng":139.659088,"zip":"2120056"},{"town":"南加瀬二丁目","koaza":"","lat":35.547869,"lng":139.66172,"zip":"2120055"},{"town":"北加瀬二丁目","koaza":"","lat":35.552922,"lng":139.661885,"zip":"2120057"}]