[{"town":"上麻生六丁目","koaza":"","lat":35.585701,"lng":139.497123,"zip":"2150021"},{"town":"上麻生七丁目","koaza":"","lat":35.581177,"lng":139.500593,"zip":"2150021"},{"town":"王禅寺東三丁目","koaza":"","lat":35.587205,"lng":139.516098,"zip":"2150018"},{"town":"王禅寺","koaza":"","lat":35.586147,"lng":139.522268,"zip":"2150013"},{"town":"白山五丁目","koaza":"","lat":35.588561,"lng":139.508464,"zip":"2150014"},{"town":"王禅寺西七丁目","koaza":"","lat":35.587015,"lng":139.503999,"zip":"2150017"},{"town":"上麻生五丁目","koaza":"","lat":35.590553,"lng":139.499933,"zip":"2150021"},{"town":"王禅寺東四丁目","koaza":"","lat":35.588327,"lng":139.513898,"zip":"2150018"},{"town":"片平三丁目","koaza":"","lat":35.59047,"lng":139.492707,"zip":"2150023"},{"town":"金程三丁目","koaza":"","lat":35.613082,"lng":139.497909,"zip":"2150006"},{"town":"片平一丁目","koaza":"","lat":35.597971,"lng":139.498558,"zip":"2150023"},{"town":"古沢","koaza":"","lat":35.603787,"lng":139.496692,"zip":"2150026"},{"town":"五力田一丁目","koaza":"","lat":35.597981,"lng":139.495316,"zip":"2150025"},{"town":"五力田三丁目","koaza":"","lat":35.600335,"lng":139.495903,"zip":"2150025"},{"town":"片平二丁目","koaza":"","lat":35.593427,"lng":139.495798,"zip":"2150023"},{"town":"向原二丁目","koaza":"","lat":35.615775,"lng":139.496174,"zip":"2150007"},{"town":"上麻生","koaza":"","lat":35.578231,"lng":139.505922,"zip":"2150021"},{"town":"王禅寺東六丁目","koaza":"","lat":35.57817,"lng":139.512194,"zip":"2150018"},{"town":"下麻生二丁目","koaza":"","lat":35.580405,"lng":139.508513,"zip":"2150022"},{"town":"王禅寺東五丁目","koaza":"","lat":35.581926,"lng":139.514636,"zip":"2150018"},{"town":"下麻生三丁目","koaza":"","lat":35.574813,"lng":139.510879,"zip":"2150022"},{"town":"下麻生一丁目","koaza":"","lat":35.580794,"lng":139.504741,"zip":"2150022"},{"town":"王禅寺西八丁目","koaza":"","lat":35.584258,"lng":139.503876,"zip":"2150017"},{"town":"虹ケ丘三丁目","koaza":"","lat":35.576809,"lng":139.523891,"zip":"2150015"},{"town":"虹ケ丘二丁目","koaza":"","lat":35.580579,"lng":139.524781,"zip":"2150015"},{"town":"虹ケ丘一丁目","koaza":"","lat":35.580717,"lng":139.521414,"zip":"2150015"},{"town":"下麻生","koaza":"","lat":35.572171,"lng":139.51203,"zip":"2150022"},{"town":"早野","koaza":"","lat":35.572847,"lng":139.517855,"zip":"2150016"},{"town":"岡上","koaza":"","lat":35.577487,"lng":139.479613,"zip":"2150027"},{"town":"万福寺三丁目","koaza":"","lat":35.606796,"lng":139.508895,"zip":"2150004"},{"town":"王禅寺東二丁目","koaza":"","lat":35.592084,"lng":139.517866,"zip":"2150018"},{"town":"王禅寺西三丁目","koaza":"","lat":35.595251,"lng":139.515252,"zip":"2150017"},{"town":"王禅寺西六丁目","koaza":"","lat":35.59129,"lng":139.504454,"zip":"2150017"},{"town":"上麻生四丁目","koaza":"","lat":35.595597,"lng":139.504617,"zip":"2150021"},{"town":"金程二丁目","koaza":"","lat":35.610246,"lng":139.499568,"zip":"2150006"},{"town":"向原一丁目","koaza":"","lat":35.616086,"lng":139.50013,"zip":"2150007"},{"town":"金程四丁目","koaza":"","lat":35.613946,"lng":139.502105,"zip":"2150006"},{"town":"万福寺","koaza":"","lat":35.604181,"lng":139.502265,"zip":"2150004"},{"town":"王禅寺西二丁目","koaza":"","lat":35.59867,"lng":139.518031,"zip":"2150017"},{"town":"万福寺四丁目","koaza":"","lat":35.608436,"lng":139.508966,"zip":"2150004"},{"town":"千代ケ丘四丁目","koaza":"","lat":35.611967,"lng":139.504878,"zip":"2150005"},{"town":"白山一丁目","koaza":"","lat":35.58975,"lng":139.512756,"zip":"2150014"},{"town":"王禅寺西四丁目","koaza":"","lat":35.59416,"lng":139.511516,"zip":"2150017"},{"town":"白山二丁目","koaza":"","lat":35.591996,"lng":139.512086,"zip":"2150014"},{"town":"王禅寺東一丁目","koaza":"","lat":35.593959,"lng":139.520994,"zip":"2150018"},{"town":"白山四丁目","koaza":"","lat":35.590301,"lng":139.510403,"zip":"2150014"},{"town":"白山三丁目","koaza":"","lat":35.593629,"lng":139.508868,"zip":"2150014"},{"town":"王禅寺西五丁目","koaza":"","lat":35.592562,"lng":139.50755,"zip":"2150017"},{"town":"東百合丘三丁目","koaza":"","lat":35.595284,"lng":139.525654,"zip":"2150012"},{"town":"高石五丁目","koaza":"","lat":35.605243,"lng":139.522309,"zip":"2150003"},{"town":"王禅寺西一丁目","koaza":"","lat":35.599412,"lng":139.51391,"zip":"2150017"},{"town":"百合丘一丁目","koaza":"","lat":35.607327,"lng":139.517366,"zip":"2150011"},{"town":"高石一丁目","koaza":"","lat":35.61039,"lng":139.515334,"zip":"2150003"},{"town":"東百合丘二丁目","koaza":"","lat":35.598776,"lng":139.526959,"zip":"2150012"},{"town":"東百合丘一丁目","koaza":"","lat":35.602142,"lng":139.527511,"zip":"2150012"},{"town":"高石六丁目","koaza":"","lat":35.602435,"lng":139.522511,"zip":"2150003"},{"town":"上麻生一丁目","koaza":"","lat":35.601964,"lng":139.508099,"zip":"2150021"},{"town":"東百合丘四丁目","koaza":"","lat":35.598057,"lng":139.52246,"zip":"2150012"},{"town":"百合丘三丁目","koaza":"","lat":35.601967,"lng":139.51857,"zip":"2150011"},{"town":"上麻生三丁目","koaza":"","lat":35.600286,"lng":139.504006,"zip":"2150021"},{"town":"万福寺二丁目","koaza":"","lat":35.60573,"lng":139.511413,"zip":"2150004"},{"town":"上麻生二丁目","koaza":"","lat":35.599972,"lng":139.510951,"zip":"2150021"},{"town":"百合丘二丁目","koaza":"","lat":35.60498,"lng":139.514271,"zip":"2150011"},{"town":"万福寺五丁目","koaza":"","lat":35.607931,"lng":139.503803,"zip":"2150004"},{"town":"千代ケ丘一丁目","koaza":"","lat":35.610274,"lng":139.507781,"zip":"2150005"},{"town":"金程一丁目","koaza":"","lat":35.609347,"lng":139.50159,"zip":"2150006"},{"town":"万福寺一丁目","koaza":"","lat":35.603849,"lng":139.505524,"zip":"2150004"},{"town":"万福寺六丁目","koaza":"","lat":35.606124,"lng":139.505078,"zip":"2150004"},{"town":"高石四丁目","koaza":"","lat":35.61026,"lng":139.521471,"zip":"2150003"},{"town":"高石三丁目","koaza":"","lat":35.613646,"lng":139.520082,"zip":"2150003"},{"town":"多摩美一丁目","koaza":"","lat":35.618528,"lng":139.523438,"zip":"2150002"},{"town":"高石二丁目","koaza":"","lat":35.613013,"lng":139.514964,"zip":"2150003"},{"town":"千代ケ丘二丁目","koaza":"","lat":35.613346,"lng":139.511619,"zip":"2150005"},{"town":"細山二丁目","koaza":"","lat":35.616092,"lng":139.516132,"zip":"2150001"},{"town":"細山三丁目","koaza":"","lat":35.616572,"lng":139.513848,"zip":"2150001"},{"town":"細山一丁目","koaza":"","lat":35.618683,"lng":139.520015,"zip":"2150001"},{"town":"細山五丁目","koaza":"","lat":35.619212,"lng":139.516739,"zip":"2150001"},{"town":"細山四丁目","koaza":"","lat":35.619305,"lng":139.513344,"zip":"2150001"},{"town":"細山七丁目","koaza":"","lat":35.623191,"lng":139.513701,"zip":"2150001"},{"town":"千代ケ丘三丁目","koaza":"","lat":35.612501,"lng":139.508251,"zip":"2150005"},{"town":"多摩美二丁目","koaza":"","lat":35.620225,"lng":139.521249,"zip":"2150002"},{"town":"細山六丁目","koaza":"","lat":35.622563,"lng":139.516624,"zip":"2150001"},{"town":"千代ケ丘七丁目","koaza":"","lat":35.616318,"lng":139.505267,"zip":"2150005"},{"town":"千代ケ丘九丁目","koaza":"","lat":35.619513,"lng":139.508796,"zip":"2150005"},{"town":"千代ケ丘八丁目","koaza":"","lat":35.618745,"lng":139.50575,"zip":"2150005"},{"town":"千代ケ丘五丁目","koaza":"","lat":35.614652,"lng":139.506799,"zip":"2150005"},{"town":"千代ケ丘六丁目","koaza":"","lat":35.615966,"lng":139.510043,"zip":"2150005"},{"town":"細山八丁目","koaza":"","lat":35.620209,"lng":139.510332,"zip":"2150001"},{"town":"向原三丁目","koaza":"","lat":35.619522,"lng":139.500348,"zip":"2150007"},{"town":"細山","koaza":"","lat":35.621169,"lng":139.504872,"zip":"2150001"},{"town":"はるひ野二丁目","koaza":"","lat":35.61556,"lng":139.464814,"zip":"2150036"},{"town":"はるひ野一丁目","koaza":"","lat":35.617171,"lng":139.467989,"zip":"2150036"},{"town":"はるひ野三丁目","koaza":"","lat":35.618732,"lng":139.457722,"zip":"2150036"},{"town":"はるひ野四丁目","koaza":"","lat":35.619121,"lng":139.461818,"zip":"2150036"},{"town":"片平六丁目","koaza":"","lat":35.596012,"lng":139.489841,"zip":"2150023"},{"town":"栗木一丁目","koaza":"","lat":35.605827,"lng":139.473235,"zip":"2150033"},{"town":"片平七丁目","koaza":"","lat":35.598773,"lng":139.486005,"zip":"2150023"},{"town":"片平五丁目","koaza":"","lat":35.597099,"lng":139.49144,"zip":"2150023"},{"town":"五力田","koaza":"","lat":35.603279,"lng":139.490223,"zip":"2150025"},{"town":"片平四丁目","koaza":"","lat":35.59235,"lng":139.489361,"zip":"2150023"},{"town":"五力田二丁目","koaza":"","lat":35.599788,"lng":139.491311,"zip":"2150025"},{"town":"栗木三丁目","koaza":"","lat":35.60388,"lng":139.471833,"zip":"2150033"},{"town":"片平","koaza":"","lat":35.598519,"lng":139.48181,"zip":"2150023"},{"town":"栗木","koaza":"","lat":35.602112,"lng":139.475626,"zip":"2150033"},{"town":"白鳥四丁目","koaza":"","lat":35.605965,"lng":139.486613,"zip":"2150024"},{"town":"白鳥二丁目","koaza":"","lat":35.602755,"lng":139.48415,"zip":"2150024"},{"town":"栗平一丁目","koaza":"","lat":35.604933,"lng":139.480933,"zip":"2150031"},{"town":"片平八丁目","koaza":"","lat":35.601707,"lng":139.481981,"zip":"2150023"},{"town":"白鳥一丁目","koaza":"","lat":35.601192,"lng":139.487369,"zip":"2150024"},{"town":"白鳥三丁目","koaza":"","lat":35.605519,"lng":139.483482,"zip":"2150024"},{"town":"栗木台四丁目","koaza":"","lat":35.609075,"lng":139.477656,"zip":"2150032"},{"town":"栗木二丁目","koaza":"","lat":35.60756,"lng":139.469269,"zip":"2150033"},{"town":"栗木台五丁目","koaza":"","lat":35.611572,"lng":139.477979,"zip":"2150032"},{"town":"栗平二丁目","koaza":"","lat":35.608621,"lng":139.481431,"zip":"2150031"},{"town":"栗木台二丁目","koaza":"","lat":35.609864,"lng":139.473102,"zip":"2150032"},{"town":"栗木台一丁目","koaza":"","lat":35.606915,"lng":139.476209,"zip":"2150032"},{"town":"はるひ野五丁目","koaza":"","lat":35.621298,"lng":139.46295,"zip":"2150036"},{"town":"栗木台三丁目","koaza":"","lat":35.611261,"lng":139.474714,"zip":"2150032"},{"town":"南黒川","koaza":"","lat":35.614036,"lng":139.471539,"zip":"2150034"},{"town":"黒川","koaza":"","lat":35.614221,"lng":139.457472,"zip":"2150035"},{"town":"古沢","koaza":"都古","lat":35.603165,"lng":139.498476,"zip":"2150026"},{"town":"岡上一丁目","koaza":"","lat":null,"lng":null,"zip":null},{"town":"岡上二丁目","koaza":"","lat":null,"lng":null,"zip":null},{"town":"岡上三丁目","koaza":"","lat":null,"lng":null,"zip":null},{"town":"岡上四丁目","koaza":"","lat":null,"lng":null,"zip":null},{"town":"岡上五丁目","koaza":"","lat":null,"lng":null,"zip":null},{"town":"岡上六丁目","koaza":"","lat":null,"lng":null,"zip":null}]