[{"town":"宮崎二丁目","koaza":"","lat":35.588048,"lng":139.591687,"zip":"2160033"},{"town":"宮崎一丁目","koaza":"","lat":35.584751,"lng":139.593441,"zip":"2160033"},{"town":"宮前平一丁目","koaza":"","lat":35.584839,"lng":139.585832,"zip":"2160006"},{"town":"宮崎","koaza":"","lat":35.587619,"lng":139.597347,"zip":"2160033"},{"town":"土橋四丁目","koaza":"","lat":35.586192,"lng":139.570235,"zip":"2160005"},{"town":"土橋一丁目","koaza":"","lat":35.587051,"lng":139.576673,"zip":"2160005"},{"town":"宮前平三丁目","koaza":"","lat":35.587669,"lng":139.586497,"zip":"2160006"},{"town":"宮前平二丁目","koaza":"","lat":35.587782,"lng":139.581604,"zip":"2160006"},{"town":"土橋二丁目","koaza":"","lat":35.584926,"lng":139.575955,"zip":"2160005"},{"town":"犬蔵二丁目","koaza":"","lat":35.583435,"lng":139.563502,"zip":"2160011"},{"town":"東有馬四丁目","koaza":"","lat":35.569544,"lng":139.588441,"zip":"2160002"},{"town":"東有馬二丁目","koaza":"","lat":35.575382,"lng":139.594066,"zip":"2160002"},{"town":"東有馬五丁目","koaza":"","lat":35.569215,"lng":139.595067,"zip":"2160002"},{"town":"梶ケ谷","koaza":"","lat":35.58194,"lng":139.605476,"zip":"2160034"},{"town":"東有馬三丁目","koaza":"","lat":35.572447,"lng":139.591135,"zip":"2160002"},{"town":"東有馬一丁目","koaza":"","lat":35.576096,"lng":139.589251,"zip":"2160002"},{"town":"有馬六丁目","koaza":"","lat":35.570325,"lng":139.583039,"zip":"2160003"},{"town":"有馬四丁目","koaza":"","lat":35.575604,"lng":139.58013,"zip":"2160003"},{"town":"有馬九丁目","koaza":"","lat":35.572188,"lng":139.570378,"zip":"2160003"},{"town":"有馬五丁目","koaza":"","lat":35.573262,"lng":139.580892,"zip":"2160003"},{"town":"有馬八丁目","koaza":"","lat":35.573306,"lng":139.574567,"zip":"2160003"},{"town":"有馬七丁目","koaza":"","lat":35.570958,"lng":139.57781,"zip":"2160003"},{"town":"小台二丁目","koaza":"","lat":35.582278,"lng":139.581834,"zip":"2160007"},{"town":"鷺沼一丁目","koaza":"","lat":35.576974,"lng":139.572934,"zip":"2160004"},{"town":"有馬一丁目","koaza":"","lat":35.578103,"lng":139.578515,"zip":"2160003"},{"town":"小台一丁目","koaza":"","lat":35.581471,"lng":139.577296,"zip":"2160007"},{"town":"土橋三丁目","koaza":"","lat":35.582518,"lng":139.573235,"zip":"2160005"},{"town":"鷺沼二丁目","koaza":"","lat":35.574646,"lng":139.569128,"zip":"2160004"},{"town":"鷺沼三丁目","koaza":"","lat":35.579103,"lng":139.56924,"zip":"2160004"},{"town":"有馬三丁目","koaza":"","lat":35.575056,"lng":139.585161,"zip":"2160003"},{"town":"鷺沼四丁目","koaza":"","lat":35.582943,"lng":139.567685,"zip":"2160004"},{"town":"菅生六丁目","koaza":"","lat":35.592765,"lng":139.561347,"zip":"2160015"},{"town":"宮崎六丁目","koaza":"","lat":35.591282,"lng":139.580981,"zip":"2160033"},{"town":"土橋六丁目","koaza":"","lat":35.589136,"lng":139.571104,"zip":"2160005"},{"town":"菅生五丁目","koaza":"","lat":35.593765,"lng":139.556634,"zip":"2160015"},{"town":"神木二丁目","koaza":"","lat":35.594771,"lng":139.583051,"zip":"2160032"},{"town":"宮崎四丁目","koaza":"","lat":35.59393,"lng":139.587005,"zip":"2160033"},{"town":"神木本町二丁目","koaza":"","lat":35.603419,"lng":139.585331,"zip":"2160031"},{"town":"土橋七丁目","koaza":"","lat":35.590547,"lng":139.575373,"zip":"2160005"},{"town":"神木本町三丁目","koaza":"","lat":35.599542,"lng":139.586328,"zip":"2160031"},{"town":"宮崎五丁目","koaza":"","lat":35.591243,"lng":139.58665,"zip":"2160033"},{"town":"宮崎三丁目","koaza":"","lat":35.591563,"lng":139.591243,"zip":"2160033"},{"town":"平六丁目","koaza":"","lat":35.596675,"lng":139.578087,"zip":"2160022"},{"town":"神木一丁目","koaza":"","lat":35.593385,"lng":139.580384,"zip":"2160032"},{"town":"けやき平","koaza":"","lat":35.593079,"lng":139.57501,"zip":"2160023"},{"town":"犬蔵三丁目","koaza":"","lat":35.588909,"lng":139.555367,"zip":"2160011"},{"town":"犬蔵一丁目","koaza":"","lat":35.59051,"lng":139.559299,"zip":"2160011"},{"town":"初山二丁目","koaza":"","lat":35.596342,"lng":139.562868,"zip":"2160026"},{"town":"平一丁目","koaza":"","lat":35.601225,"lng":139.57782,"zip":"2160022"},{"town":"神木本町一丁目","koaza":"","lat":35.60325,"lng":139.579467,"zip":"2160031"},{"town":"五所塚一丁目","koaza":"","lat":35.60578,"lng":139.575317,"zip":"2160021"},{"town":"平五丁目","koaza":"","lat":35.598364,"lng":139.576281,"zip":"2160022"},{"town":"土橋五丁目","koaza":"","lat":35.589782,"lng":139.568083,"zip":"2160005"},{"town":"南平台","koaza":"","lat":35.594052,"lng":139.56976,"zip":"2160024"},{"town":"白幡台二丁目","koaza":"","lat":35.595752,"lng":139.566312,"zip":"2160025"},{"town":"白幡台一丁目","koaza":"","lat":35.597064,"lng":139.568798,"zip":"2160025"},{"town":"平四丁目","koaza":"","lat":35.598097,"lng":139.572178,"zip":"2160022"},{"town":"平二丁目","koaza":"","lat":35.601855,"lng":139.572713,"zip":"2160022"},{"town":"平三丁目","koaza":"","lat":35.603081,"lng":139.569094,"zip":"2160022"},{"town":"五所塚二丁目","koaza":"","lat":35.604516,"lng":139.573773,"zip":"2160021"},{"town":"菅生四丁目","koaza":"","lat":35.593455,"lng":139.551518,"zip":"2160015"},{"town":"水沢一丁目","koaza":"","lat":35.590543,"lng":139.549837,"zip":"2160012"},{"town":"菅生三丁目","koaza":"","lat":35.595648,"lng":139.548448,"zip":"2160015"},{"town":"菅生一丁目","koaza":"","lat":35.599855,"lng":139.555378,"zip":"2160015"},{"town":"初山一丁目","koaza":"","lat":35.600965,"lng":139.562308,"zip":"2160026"},{"town":"菅生ケ丘","koaza":"","lat":35.596922,"lng":139.542145,"zip":"2160014"},{"town":"水沢三丁目","koaza":"","lat":35.594447,"lng":139.542682,"zip":"2160012"},{"town":"潮見台","koaza":"","lat":35.594099,"lng":139.532237,"zip":"2160013"},{"town":"水沢二丁目","koaza":"","lat":35.591729,"lng":139.542802,"zip":"2160012"},{"town":"神木本町四丁目","koaza":"","lat":35.597356,"lng":139.584064,"zip":"2160031"},{"town":"神木本町五丁目","koaza":"","lat":35.598484,"lng":139.58062,"zip":"2160031"},{"town":"菅生二丁目","koaza":"","lat":35.600109,"lng":139.550281,"zip":"2160015"},{"town":"有馬二丁目","koaza":"","lat":35.578585,"lng":139.585061,"zip":"2160003"},{"town":"馬絹一丁目","koaza":"","lat":35.581546,"lng":139.587416,"zip":"2160035"},{"town":"野川","koaza":"","lat":35.573078,"lng":139.606135,"zip":"2160043"},{"town":"馬絹二丁目","koaza":"","lat":35.581163,"lng":139.592254,"zip":"2160035"},{"town":"馬絹三丁目","koaza":"","lat":35.579191,"lng":139.593971,"zip":"2160035"},{"town":"馬絹四丁目","koaza":"","lat":35.579912,"lng":139.598876,"zip":"2160035"},{"town":"馬絹五丁目","koaza":"","lat":35.583116,"lng":139.600006,"zip":"2160035"},{"town":"馬絹六丁目","koaza":"","lat":35.58256,"lng":139.59614,"zip":"2160035"},{"town":"野川本町三丁目","koaza":"","lat":35.575561,"lng":139.618075,"zip":"2160041"},{"town":"馬絹","koaza":"","lat":35.585894,"lng":139.598984,"zip":"2160035"},{"town":"野川本町一丁目","koaza":"","lat":null,"lng":null,"zip":null},{"town":"野川本町二丁目","koaza":"","lat":null,"lng":null,"zip":null},{"town":"西野川一丁目","koaza":"","lat":null,"lng":null,"zip":null},{"town":"西野川二丁目","koaza":"","lat":null,"lng":null,"zip":null},{"town":"西野川三丁目","koaza":"","lat":null,"lng":null,"zip":null},{"town":"野川台一丁目","koaza":"","lat":null,"lng":null,"zip":null},{"town":"野川台二丁目","koaza":"","lat":null,"lng":null,"zip":null},{"town":"野川台三丁目","koaza":"","lat":null,"lng":null,"zip":null},{"town":"南野川一丁目","koaza":"","lat":null,"lng":null,"zip":null},{"town":"南野川二丁目","koaza":"","lat":null,"lng":null,"zip":null},{"town":"南野川三丁目","koaza":"","lat":null,"lng":null,"zip":null}]