[{"town":"須賀","koaza":"","lat":35.320696,"lng":139.370693,"zip":"2540022"},{"town":"土屋","koaza":"","lat":35.34287,"lng":139.255023,"zip":"2591205"},{"town":"田村","koaza":"","lat":35.374842,"lng":139.370601,"zip":"2540013"},{"town":"追分","koaza":"","lat":35.337371,"lng":139.341919,"zip":"2540047"},{"town":"富士見町","koaza":"","lat":35.337735,"lng":139.336478,"zip":"2540062"},{"town":"堤町","koaza":"","lat":35.338765,"lng":139.359027,"zip":"2540027"},{"town":"馬入","koaza":"","lat":35.335615,"lng":139.370198,"zip":"2540023"},{"town":"下吉沢","koaza":"","lat":35.335689,"lng":139.288575,"zip":"2591203"},{"town":"根坂間","koaza":"","lat":35.339812,"lng":139.305576,"zip":"2540904"},{"town":"日向岡一丁目","koaza":"","lat":35.338798,"lng":139.298663,"zip":"2540905"},{"town":"四之宮","koaza":"","lat":35.360093,"lng":139.367607,"zip":"2540014"},{"town":"達上ケ丘","koaza":"","lat":35.335465,"lng":139.327589,"zip":"2540064"},{"town":"南原一丁目","koaza":"","lat":35.337265,"lng":139.326267,"zip":"2540065"},{"town":"諏訪町","koaza":"","lat":35.336776,"lng":139.333173,"zip":"2540063"},{"town":"徳延","koaza":"","lat":35.337426,"lng":139.318148,"zip":"2540902"},{"town":"南原四丁目","koaza":"","lat":35.338484,"lng":139.322345,"zip":"2540065"},{"town":"浅間町","koaza":"","lat":35.335265,"lng":139.348479,"zip":"2540041"},{"town":"河内","koaza":"","lat":35.341899,"lng":139.309657,"zip":"2540903"},{"town":"上吉沢","koaza":"","lat":35.342692,"lng":139.283808,"zip":"2591204"},{"town":"大神","koaza":"","lat":35.392338,"lng":139.366101,"zip":"2540012"},{"town":"中堂","koaza":"","lat":35.335072,"lng":139.360188,"zip":"2540026"},{"town":"唐ケ原","koaza":"","lat":35.316658,"lng":139.329018,"zip":"2540826"},{"town":"千石河岸","koaza":"","lat":35.316625,"lng":139.364754,"zip":"2540803"},{"town":"久領堤","koaza":"","lat":35.327093,"lng":139.362659,"zip":"2540801"},{"town":"馬入本町","koaza":"","lat":35.330603,"lng":139.361383,"zip":"2540024"},{"town":"榎木町","koaza":"","lat":35.33229,"lng":139.360839,"zip":"2540025"},{"town":"八千代町","koaza":"","lat":35.331769,"lng":139.356191,"zip":"2540032"},{"town":"老松町","koaza":"","lat":35.330188,"lng":139.356427,"zip":"2540033"},{"town":"高浜台","koaza":"","lat":35.317671,"lng":139.357645,"zip":"2540805"},{"town":"札場町","koaza":"","lat":35.323045,"lng":139.364881,"zip":"2540802"},{"town":"龍城ケ丘","koaza":"","lat":35.317841,"lng":139.345724,"zip":"2540814"},{"town":"菫平","koaza":"","lat":35.318188,"lng":139.34133,"zip":"2540822"},{"town":"袖ケ浜","koaza":"","lat":35.317622,"lng":139.350611,"zip":"2540813"},{"town":"松風町","koaza":"","lat":35.321944,"lng":139.34907,"zip":"2540812"},{"town":"八重咲町","koaza":"","lat":35.326143,"lng":139.349132,"zip":"2540811"},{"town":"紅谷町","koaza":"","lat":35.328437,"lng":139.347785,"zip":"2540043"},{"town":"宝町","koaza":"","lat":35.328983,"lng":139.351959,"zip":"2540034"},{"town":"宮の前","koaza":"","lat":35.331599,"lng":139.351737,"zip":"2540035"},{"town":"代官町","koaza":"","lat":35.326793,"lng":139.356013,"zip":"2540807"},{"town":"平塚二丁目","koaza":"","lat":35.329634,"lng":139.338398,"zip":"2540052"},{"town":"虹ケ浜","koaza":"","lat":35.315227,"lng":139.339575,"zip":"2540823"},{"town":"花水台","koaza":"","lat":35.318097,"lng":139.336045,"zip":"2540824"},{"town":"桃浜町","koaza":"","lat":35.323756,"lng":139.34466,"zip":"2540815"},{"town":"平塚一丁目","koaza":"","lat":35.32658,"lng":139.339295,"zip":"2540052"},{"town":"錦町","koaza":"","lat":35.327578,"lng":139.343235,"zip":"2540044"},{"town":"見附町","koaza":"","lat":35.3305,"lng":139.341798,"zip":"2540045"},{"town":"明石町","koaza":"","lat":35.331099,"lng":139.34736,"zip":"2540042"},{"town":"豊原町","koaza":"","lat":35.333397,"lng":139.337199,"zip":"2540051"},{"town":"立野町","koaza":"","lat":35.334052,"lng":139.341481,"zip":"2540046"},{"town":"撫子原","koaza":"","lat":35.318026,"lng":139.331337,"zip":"2540825"},{"town":"平塚三丁目","koaza":"","lat":35.325364,"lng":139.334691,"zip":"2540052"},{"town":"夕陽ケ丘","koaza":"","lat":35.323914,"lng":139.356235,"zip":"2540806"},{"town":"幸町","koaza":"","lat":35.321227,"lng":139.3602,"zip":"2540804"},{"town":"黒部丘","koaza":"","lat":35.322912,"lng":139.338007,"zip":"2540821"},{"town":"平塚四丁目","koaza":"","lat":35.328112,"lng":139.335045,"zip":"2540052"},{"town":"平塚五丁目","koaza":"","lat":35.327997,"lng":139.331077,"zip":"2540052"},{"town":"桜ケ丘","koaza":"","lat":35.32798,"lng":139.326709,"zip":"2540053"},{"town":"中里","koaza":"","lat":35.33177,"lng":139.33115,"zip":"2540054"},{"town":"上平塚","koaza":"","lat":35.332586,"lng":139.322825,"zip":"2540055"},{"town":"山下","koaza":"","lat":35.330532,"lng":139.316632,"zip":"2540911"},{"town":"高村","koaza":"","lat":35.333785,"lng":139.307162,"zip":"2540914"},{"town":"出縄","koaza":"","lat":35.331254,"lng":139.300425,"zip":"2540915"},{"town":"万田","koaza":"","lat":35.32712,"lng":139.303263,"zip":"2540913"},{"town":"高根","koaza":"","lat":35.325141,"lng":139.314564,"zip":"2540912"},{"town":"田村二丁目","koaza":"","lat":35.36989,"lng":139.358595,"zip":"2540013"},{"town":"田村三丁目","koaza":"","lat":35.374004,"lng":139.358497,"zip":"2540013"},{"town":"田村六丁目","koaza":"","lat":35.377964,"lng":139.363328,"zip":"2540013"},{"town":"田村八丁目","koaza":"","lat":35.376567,"lng":139.367334,"zip":"2540013"},{"town":"田村九丁目","koaza":"","lat":35.379389,"lng":139.367827,"zip":"2540013"},{"town":"田村七丁目","koaza":"","lat":35.371785,"lng":139.366544,"zip":"2540013"},{"town":"田村五丁目","koaza":"","lat":35.37066,"lng":139.362844,"zip":"2540013"},{"town":"西真土三丁目","koaza":"","lat":35.357676,"lng":139.347931,"zip":"2540019"},{"town":"東真土三丁目","koaza":"","lat":35.357764,"lng":139.35224,"zip":"2540018"},{"town":"めぐみが丘一丁目","koaza":"","lat":35.349139,"lng":139.296116,"zip":"2591220"},{"town":"四之宮四丁目","koaza":"","lat":35.358771,"lng":139.36426,"zip":"2540014"},{"town":"四之宮五丁目","koaza":"","lat":35.358539,"lng":139.360213,"zip":"2540014"},{"town":"東真土二丁目","koaza":"","lat":35.356508,"lng":139.355939,"zip":"2540018"},{"town":"四之宮七丁目","koaza":"","lat":35.366253,"lng":139.364527,"zip":"2540014"},{"town":"中原下宿","koaza":"","lat":35.346782,"lng":139.322874,"zip":"2540072"},{"town":"東真土一丁目","koaza":"","lat":35.354438,"lng":139.352027,"zip":"2540018"},{"town":"東真土四丁目","koaza":"","lat":35.361913,"lng":139.353931,"zip":"2540018"},{"town":"西真土四丁目","koaza":"","lat":35.362471,"lng":139.347693,"zip":"2540019"},{"town":"めぐみが丘二丁目","koaza":"","lat":35.348644,"lng":139.292537,"zip":"2591220"},{"town":"南原","koaza":"","lat":35.343394,"lng":139.320899,"zip":"2540065"},{"town":"西八幡四丁目","koaza":"","lat":35.344873,"lng":139.347055,"zip":"2540073"},{"town":"南原三丁目","koaza":"","lat":35.342268,"lng":139.325133,"zip":"2540065"},{"town":"日向岡二丁目","koaza":"","lat":35.340989,"lng":139.299977,"zip":"2540905"},{"town":"東八幡四丁目","koaza":"","lat":35.34874,"lng":139.358987,"zip":"2540016"},{"town":"四之宮三丁目","koaza":"","lat":35.351705,"lng":139.362367,"zip":"2540014"},{"town":"長瀞","koaza":"","lat":35.340073,"lng":139.363241,"zip":"2540021"},{"town":"西八幡二丁目","koaza":"","lat":35.34186,"lng":139.351338,"zip":"2540073"},{"town":"東八幡二丁目","koaza":"","lat":35.345396,"lng":139.354935,"zip":"2540016"},{"town":"中原一丁目","koaza":"","lat":35.342587,"lng":139.33541,"zip":"2540075"},{"town":"大原","koaza":"","lat":35.342523,"lng":139.34137,"zip":"2540074"},{"town":"東中原一丁目","koaza":"","lat":35.354377,"lng":139.340423,"zip":"2540077"},{"town":"東中原二丁目","koaza":"","lat":35.352944,"lng":139.336846,"zip":"2540077"},{"town":"西真土一丁目","koaza":"","lat":35.353426,"lng":139.347688,"zip":"2540019"},{"town":"西真土二丁目","koaza":"","lat":35.356674,"lng":139.34389,"zip":"2540019"},{"town":"南原二丁目","koaza":"","lat":35.340107,"lng":139.327056,"zip":"2540065"},{"town":"御殿一丁目","koaza":"","lat":35.341184,"lng":139.331577,"zip":"2540061"},{"town":"新町","koaza":"","lat":35.348077,"lng":139.340401,"zip":"2540076"},{"town":"西八幡三丁目","koaza":"","lat":35.345785,"lng":139.351506,"zip":"2540073"},{"town":"西八幡一丁目","koaza":"","lat":35.340743,"lng":139.347968,"zip":"2540073"},{"town":"中原三丁目","koaza":"","lat":35.351467,"lng":139.332418,"zip":"2540075"},{"town":"四之宮一丁目","koaza":"","lat":35.349172,"lng":139.347638,"zip":"2540014"},{"town":"四之宮二丁目","koaza":"","lat":35.350023,"lng":139.353897,"zip":"2540014"},{"town":"御殿三丁目","koaza":"","lat":35.347622,"lng":139.328261,"zip":"2540061"},{"town":"東八幡三丁目","koaza":"","lat":35.34351,"lng":139.358194,"zip":"2540016"},{"town":"豊田打間木","koaza":"","lat":35.363878,"lng":139.342333,"zip":"2540081"},{"town":"御殿二丁目","koaza":"","lat":35.344605,"lng":139.329437,"zip":"2540061"},{"town":"中原二丁目","koaza":"","lat":35.346825,"lng":139.334418,"zip":"2540075"},{"town":"御殿四丁目","koaza":"","lat":35.34606,"lng":139.323896,"zip":"2540061"},{"town":"南豊田","koaza":"","lat":35.356262,"lng":139.329279,"zip":"2540084"},{"town":"豊田本郷","koaza":"","lat":35.35849,"lng":139.325787,"zip":"2540087"},{"town":"豊田宮下","koaza":"","lat":35.358743,"lng":139.329661,"zip":"2540085"},{"town":"豊田平等寺","koaza":"","lat":35.354065,"lng":139.323407,"zip":"2540086"},{"town":"纒","koaza":"","lat":35.342717,"lng":139.318504,"zip":"2540901"},{"town":"長持","koaza":"","lat":35.347492,"lng":139.318673,"zip":"2591217"},{"town":"入部","koaza":"","lat":35.350643,"lng":139.308076,"zip":"2591218"},{"town":"入野","koaza":"","lat":35.352462,"lng":139.314822,"zip":"2591216"},{"town":"寺田縄","koaza":"","lat":35.359083,"lng":139.31584,"zip":"2591215"},{"town":"片岡","koaza":"","lat":35.360239,"lng":139.300619,"zip":"2591213"},{"town":"飯島","koaza":"","lat":35.359065,"lng":139.306206,"zip":"2591214"},{"town":"東八幡五丁目","koaza":"","lat":35.34733,"lng":139.364259,"zip":"2540016"},{"town":"八幡","koaza":"","lat":35.347267,"lng":139.36855,"zip":"2540015"},{"town":"田村四丁目","koaza":"","lat":35.378442,"lng":139.359039,"zip":"2540013"},{"town":"下島","koaza":"","lat":35.369316,"lng":139.340799,"zip":"2540003"},{"town":"横内","koaza":"","lat":35.372266,"lng":139.350308,"zip":"2540002"},{"town":"大島","koaza":"","lat":35.380734,"lng":139.345856,"zip":"2540001"},{"town":"四之宮六丁目","koaza":"","lat":35.360702,"lng":139.358036,"zip":"2540014"},{"town":"田村一丁目","koaza":"","lat":35.365722,"lng":139.358703,"zip":"2540013"},{"town":"豊田小嶺","koaza":"","lat":35.360354,"lng":139.333123,"zip":"2540083"},{"town":"東豊田","koaza":"","lat":35.361494,"lng":139.339452,"zip":"2540082"},{"town":"北豊田","koaza":"","lat":35.364197,"lng":139.327984,"zip":"2540088"},{"town":"千須谷","koaza":"","lat":35.350822,"lng":139.290165,"zip":"2591202"},{"town":"公所","koaza":"","lat":35.346389,"lng":139.301608,"zip":"2540906"},{"town":"広川","koaza":"","lat":35.353683,"lng":139.302412,"zip":"2591219"},{"town":"吉際","koaza":"","lat":35.391245,"lng":139.357944,"zip":"2540011"},{"town":"城所","koaza":"","lat":35.375417,"lng":139.323459,"zip":"2540005"},{"town":"小鍋島","koaza":"","lat":35.376118,"lng":139.331666,"zip":"2540004"},{"town":"ふじみ野一丁目","koaza":"","lat":35.379221,"lng":139.304417,"zip":"2591211"},{"town":"ふじみ野二丁目","koaza":"","lat":35.381788,"lng":139.304067,"zip":"2591211"},{"town":"岡崎","koaza":"","lat":35.374816,"lng":139.303475,"zip":"2591212"},{"town":"真田四丁目","koaza":"","lat":35.369297,"lng":139.276714,"zip":"2591206"},{"town":"東八幡一丁目","koaza":"","lat":35.341072,"lng":139.35421,"zip":"2540016"},{"town":"天沼","koaza":"","lat":35.3357,"lng":139.355342,"zip":"2540031"},{"town":"宮松町","koaza":"","lat":35.335986,"lng":139.351743,"zip":"2540036"},{"town":"真田三丁目","koaza":"","lat":35.372534,"lng":139.278023,"zip":"2591206"},{"town":"真田二丁目","koaza":"","lat":35.370618,"lng":139.281795,"zip":"2591206"},{"town":"真田一丁目","koaza":"","lat":35.371089,"lng":139.285857,"zip":"2591206"},{"town":"北金目一丁目","koaza":"","lat":35.368321,"lng":139.283476,"zip":"2591207"},{"town":"北金目二丁目","koaza":"","lat":35.365173,"lng":139.28419,"zip":"2591207"},{"town":"北金目","koaza":"","lat":35.365864,"lng":139.28998,"zip":"2591207"},{"town":"北金目三丁目","koaza":"","lat":35.363386,"lng":139.279885,"zip":"2591207"},{"town":"北金目四丁目","koaza":"","lat":35.36325,"lng":139.274253,"zip":"2591207"},{"town":"南金目","koaza":"","lat":35.357958,"lng":139.283252,"zip":"2591201"}]