[{"town":"相武台三丁目","koaza":"","lat":35.501027,"lng":139.414615,"zip":"2520011"},{"town":"広野台一丁目","koaza":"","lat":35.505623,"lng":139.418084,"zip":"2520012"},{"town":"相模が丘四丁目","koaza":"","lat":35.504873,"lng":139.423485,"zip":"2520001"},{"town":"相模が丘六丁目","koaza":"","lat":35.504981,"lng":139.428387,"zip":"2520001"},{"town":"相武台二丁目","koaza":"","lat":35.502858,"lng":139.414034,"zip":"2520011"},{"town":"座間入谷","koaza":"","lat":35.48738,"lng":139.375107,"zip":"2520000"},{"town":"栗原中央四丁目","koaza":"","lat":35.478641,"lng":139.415936,"zip":"2520014"},{"town":"栗原中央三丁目","koaza":"","lat":35.48131,"lng":139.415339,"zip":"2520014"},{"town":"栗原中央二丁目","koaza":"","lat":35.483853,"lng":139.414179,"zip":"2520014"},{"town":"栗原中央一丁目","koaza":"","lat":35.48767,"lng":139.414265,"zip":"2520014"},{"town":"栗原中央六丁目","koaza":"","lat":35.484813,"lng":139.417243,"zip":"2520014"},{"town":"西栗原一丁目","koaza":"","lat":35.476149,"lng":139.413541,"zip":"2520016"},{"town":"南栗原五丁目","koaza":"","lat":35.472204,"lng":139.417794,"zip":"2520015"},{"town":"南栗原三丁目","koaza":"","lat":35.475886,"lng":139.420627,"zip":"2520015"},{"town":"南栗原一丁目","koaza":"","lat":35.47631,"lng":139.417351,"zip":"2520015"},{"town":"緑ケ丘三丁目","koaza":"","lat":35.494531,"lng":139.411463,"zip":"2520021"},{"town":"緑ケ丘一丁目","koaza":"","lat":35.488251,"lng":139.408562,"zip":"2520021"},{"town":"立野台二丁目","koaza":"","lat":35.48137,"lng":139.409657,"zip":"2520023"},{"town":"緑ケ丘二丁目","koaza":"","lat":35.489138,"lng":139.410192,"zip":"2520021"},{"town":"南栗原二丁目","koaza":"","lat":35.477794,"lng":139.421026,"zip":"2520015"},{"town":"さがみ野二丁目","koaza":"","lat":35.472788,"lng":139.426517,"zip":"2520005"},{"town":"東原四丁目","koaza":"","lat":35.476379,"lng":139.426732,"zip":"2520004"},{"town":"東原五丁目","koaza":"","lat":35.476191,"lng":139.429759,"zip":"2520004"},{"town":"栗原中央五丁目","koaza":"","lat":35.480811,"lng":139.420258,"zip":"2520014"},{"town":"東原三丁目","koaza":"","lat":35.476424,"lng":139.423736,"zip":"2520004"},{"town":"さがみ野三丁目","koaza":"","lat":35.470045,"lng":139.422839,"zip":"2520005"},{"town":"さがみ野一丁目","koaza":"","lat":35.471853,"lng":139.423855,"zip":"2520005"},{"town":"立野台三丁目","koaza":"","lat":35.476782,"lng":139.409859,"zip":"2520023"},{"town":"南栗原四丁目","koaza":"","lat":35.471433,"lng":139.420449,"zip":"2520015"},{"town":"南栗原六丁目","koaza":"","lat":35.473452,"lng":139.41472,"zip":"2520015"},{"town":"ひばりが丘四丁目","koaza":"","lat":35.479984,"lng":139.430795,"zip":"2520003"},{"town":"東原二丁目","koaza":"","lat":35.480301,"lng":139.425277,"zip":"2520004"},{"town":"東原一丁目","koaza":"","lat":35.484323,"lng":139.425104,"zip":"2520004"},{"town":"西栗原二丁目","koaza":"","lat":35.473482,"lng":139.410369,"zip":"2520016"},{"town":"入谷五丁目","koaza":"","lat":35.479877,"lng":139.398544,"zip":"2520029"},{"town":"入谷二丁目","koaza":"","lat":35.475966,"lng":139.395068,"zip":"2520029"},{"town":"四ツ谷","koaza":"","lat":35.473879,"lng":139.38608,"zip":"2520025"},{"town":"ひばりが丘二丁目","koaza":"","lat":35.485454,"lng":139.43411,"zip":"2520003"},{"town":"ひばりが丘三丁目","koaza":"","lat":35.481941,"lng":139.435577,"zip":"2520003"},{"town":"ひばりが丘五丁目","koaza":"","lat":35.489065,"lng":139.429277,"zip":"2520003"},{"town":"小松原二丁目","koaza":"","lat":35.494458,"lng":139.430094,"zip":"2520002"},{"town":"ひばりが丘一丁目","koaza":"","lat":35.48924,"lng":139.433537,"zip":"2520003"},{"town":"小松原一丁目","koaza":"","lat":35.498671,"lng":139.428976,"zip":"2520002"},{"town":"栗原","koaza":"","lat":35.492699,"lng":139.419989,"zip":"2520013"},{"town":"広野台二丁目","koaza":"","lat":35.498397,"lng":139.422633,"zip":"2520012"},{"town":"相武台四丁目","koaza":"","lat":35.49782,"lng":139.411066,"zip":"2520011"},{"town":"立野台一丁目","koaza":"","lat":35.482163,"lng":139.41154,"zip":"2520023"},{"town":"入谷三丁目","koaza":"","lat":35.484524,"lng":139.398427,"zip":"2520029"},{"town":"明王","koaza":"","lat":35.491075,"lng":139.403127,"zip":"2520022"},{"town":"緑ケ丘四丁目","koaza":"","lat":35.494649,"lng":139.407646,"zip":"2520021"},{"town":"緑ケ丘五丁目","koaza":"","lat":35.493287,"lng":139.404783,"zip":"2520021"},{"town":"新田宿","koaza":"","lat":35.482348,"lng":139.380641,"zip":"2520026"},{"town":"座間二丁目","koaza":"","lat":35.482853,"lng":139.389383,"zip":"2520027"},{"town":"座間一丁目","koaza":"","lat":35.491097,"lng":139.391327,"zip":"2520027"},{"town":"入谷一丁目","koaza":"","lat":35.485232,"lng":139.395038,"zip":"2520029"},{"town":"相模が丘三丁目","koaza":"","lat":35.508262,"lng":139.422267,"zip":"2520001"},{"town":"相模が丘二丁目","koaza":"","lat":35.510173,"lng":139.42,"zip":"2520001"},{"town":"相模が丘五丁目","koaza":"","lat":35.511077,"lng":139.425467,"zip":"2520001"},{"town":"相模が丘一丁目","koaza":"","lat":35.511447,"lng":139.417666,"zip":"2520001"},{"town":"緑ケ丘六丁目","koaza":"","lat":35.495078,"lng":139.403772,"zip":"2520021"},{"town":"座間","koaza":"","lat":35.492518,"lng":139.396285,"zip":"2520027"},{"town":"相武台一丁目","koaza":"","lat":35.500021,"lng":139.408682,"zip":"2520011"},{"town":"入谷東四丁目","koaza":"","lat":35.476433,"lng":139.40363,"zip":"2520028"},{"town":"入谷東二丁目","koaza":"","lat":35.481896,"lng":139.406673,"zip":"2520028"},{"town":"入谷東一丁目","koaza":"","lat":35.487209,"lng":139.403523,"zip":"2520028"},{"town":"入谷東三丁目","koaza":"","lat":35.482077,"lng":139.402531,"zip":"2520028"},{"town":"入谷四丁目","koaza":"","lat":35.481871,"lng":139.404132,"zip":"2520029"},{"town":"入谷西一丁目","koaza":"","lat":null,"lng":null,"zip":null},{"town":"入谷西二丁目","koaza":"","lat":null,"lng":null,"zip":null},{"town":"入谷西三丁目","koaza":"","lat":null,"lng":null,"zip":null},{"town":"入谷西四丁目","koaza":"","lat":null,"lng":null,"zip":null},{"town":"入谷西五丁目","koaza":"","lat":null,"lng":null,"zip":null}]