[{"town":"和泉中央南一丁目","koaza":"","lat":35.40877,"lng":139.49908,"zip":"2450023"},{"town":"和泉が丘三丁目","koaza":"","lat":35.405942,"lng":139.493176,"zip":"2450022"},{"town":"和泉が丘二丁目","koaza":"","lat":35.404783,"lng":139.495431,"zip":"2450022"},{"town":"和泉が丘一丁目","koaza":"","lat":35.403152,"lng":139.498419,"zip":"2450022"},{"town":"下和泉五丁目","koaza":"","lat":35.397484,"lng":139.490359,"zip":"2450021"},{"town":"下和泉四丁目","koaza":"","lat":35.397929,"lng":139.49377,"zip":"2450021"},{"town":"下和泉三丁目","koaza":"","lat":35.395734,"lng":139.494464,"zip":"2450021"},{"town":"下和泉二丁目","koaza":"","lat":35.393877,"lng":139.49169,"zip":"2450021"},{"town":"下和泉一丁目","koaza":"","lat":35.391052,"lng":139.491622,"zip":"2450021"},{"town":"中田北三丁目","koaza":"","lat":35.419492,"lng":139.509809,"zip":"2450012"},{"town":"西が岡三丁目","koaza":"","lat":35.420863,"lng":139.515348,"zip":"2450006"},{"town":"中田東四丁目","koaza":"","lat":35.417134,"lng":139.512441,"zip":"2450013"},{"town":"領家二丁目","koaza":"","lat":35.419098,"lng":139.52415,"zip":"2450004"},{"town":"領家三丁目","koaza":"","lat":35.419677,"lng":139.522508,"zip":"2450004"},{"town":"岡津町","koaza":"","lat":35.427599,"lng":139.522124,"zip":"2450003"},{"town":"西が岡二丁目","koaza":"","lat":35.421843,"lng":139.517075,"zip":"2450006"},{"town":"中田南三丁目","koaza":"","lat":35.408581,"lng":139.509147,"zip":"2450014"},{"town":"中田西四丁目","koaza":"","lat":35.403004,"lng":139.503696,"zip":"2450015"},{"town":"中田西三丁目","koaza":"","lat":35.407293,"lng":139.502854,"zip":"2450015"},{"town":"中田西二丁目","koaza":"","lat":35.409086,"lng":139.504472,"zip":"2450015"},{"town":"中田南四丁目","koaza":"","lat":35.408152,"lng":139.506756,"zip":"2450014"},{"town":"中田南二丁目","koaza":"","lat":35.407726,"lng":139.510683,"zip":"2450014"},{"town":"中田北二丁目","koaza":"","lat":35.414761,"lng":139.506399,"zip":"2450012"},{"town":"中田東三丁目","koaza":"","lat":35.412855,"lng":139.510165,"zip":"2450013"},{"town":"中田南一丁目","koaza":"","lat":35.406369,"lng":139.514283,"zip":"2450014"},{"town":"中田東二丁目","koaza":"","lat":35.413874,"lng":139.514197,"zip":"2450013"},{"town":"中田東一丁目","koaza":"","lat":35.409253,"lng":139.516419,"zip":"2450013"},{"town":"中田南五丁目","koaza":"","lat":35.401796,"lng":139.507922,"zip":"2450014"},{"town":"領家四丁目","koaza":"","lat":35.416138,"lng":139.521041,"zip":"2450004"},{"town":"白百合二丁目","koaza":"","lat":35.41445,"lng":139.517097,"zip":"2450005"},{"town":"白百合一丁目","koaza":"","lat":35.414057,"lng":139.519309,"zip":"2450005"},{"town":"白百合三丁目","koaza":"","lat":35.417025,"lng":139.517054,"zip":"2450005"},{"town":"下飯田町","koaza":"","lat":35.399022,"lng":139.480694,"zip":"2450017"},{"town":"桂坂","koaza":"","lat":35.425459,"lng":139.514559,"zip":"2450007"},{"town":"領家一丁目","koaza":"","lat":35.421535,"lng":139.523036,"zip":"2450004"},{"town":"西が岡一丁目","koaza":"","lat":35.424501,"lng":139.511293,"zip":"2450006"},{"town":"緑園七丁目","koaza":"","lat":35.447305,"lng":139.52702,"zip":"2450002"},{"town":"緑園三丁目","koaza":"","lat":35.441182,"lng":139.51983,"zip":"2450002"},{"town":"池の谷","koaza":"","lat":35.445449,"lng":139.518684,"zip":"2450001"},{"town":"緑園四丁目","koaza":"","lat":35.439408,"lng":139.524052,"zip":"2450002"},{"town":"弥生台","koaza":"","lat":35.427681,"lng":139.506705,"zip":"2450008"},{"town":"新橋町","koaza":"","lat":35.436197,"lng":139.510547,"zip":"2450009"},{"town":"緑園二丁目","koaza":"","lat":35.436842,"lng":139.518825,"zip":"2450002"},{"town":"緑園一丁目","koaza":"","lat":35.436927,"lng":139.522882,"zip":"2450002"},{"town":"緑園六丁目","koaza":"","lat":35.446041,"lng":139.523918,"zip":"2450002"},{"town":"緑園五丁目","koaza":"","lat":35.44188,"lng":139.528884,"zip":"2450002"},{"town":"上飯田町","koaza":"","lat":35.429035,"lng":139.479002,"zip":"2450018"},{"town":"和泉中央南五丁目","koaza":"","lat":35.413594,"lng":139.485875,"zip":"2450023"},{"town":"和泉中央北一丁目","koaza":"","lat":35.42193,"lng":139.497504,"zip":"2450024"},{"town":"中田町","koaza":"","lat":35.421441,"lng":139.504704,"zip":"2450011"},{"town":"中田北一丁目","koaza":"","lat":35.416104,"lng":139.502083,"zip":"2450012"},{"town":"中田西一丁目","koaza":"","lat":35.41078,"lng":139.501526,"zip":"2450015"},{"town":"和泉中央南二丁目","koaza":"","lat":35.411987,"lng":139.496713,"zip":"2450023"},{"town":"和泉中央南三丁目","koaza":"","lat":35.412917,"lng":139.493352,"zip":"2450023"},{"town":"和泉中央北二丁目","koaza":"","lat":35.417922,"lng":139.498207,"zip":"2450024"},{"town":"和泉中央南四丁目","koaza":"","lat":35.414443,"lng":139.489354,"zip":"2450023"},{"town":"和泉中央北三丁目","koaza":"","lat":35.418364,"lng":139.494811,"zip":"2450024"},{"town":"和泉中央北六丁目","koaza":"","lat":35.422507,"lng":139.493179,"zip":"2450024"},{"town":"和泉中央北四丁目","koaza":"","lat":35.418961,"lng":139.491829,"zip":"2450024"},{"town":"和泉中央北五丁目","koaza":"","lat":35.418667,"lng":139.487079,"zip":"2450024"},{"town":"和泉町","koaza":"","lat":35.420655,"lng":139.487828,"zip":"2450016"}]