[{"town":"上郷町","koaza":"","lat":35.352083,"lng":139.579606,"zip":"2470013"},{"town":"笠間三丁目","koaza":"","lat":35.360283,"lng":139.532856,"zip":"2470006"},{"town":"桂台西一丁目","koaza":"","lat":35.35817,"lng":139.561651,"zip":"2470035"},{"town":"桂台北","koaza":"","lat":35.357838,"lng":139.564559,"zip":"2470031"},{"town":"桂台中","koaza":"","lat":35.3542,"lng":139.566043,"zip":"2470034"},{"town":"桂台西二丁目","koaza":"","lat":35.3537,"lng":139.561596,"zip":"2470035"},{"town":"桂台南一丁目","koaza":"","lat":35.3519,"lng":139.567138,"zip":"2470033"},{"town":"小菅ケ谷町","koaza":"","lat":35.373185,"lng":139.55664,"zip":"2470001"},{"town":"小菅ケ谷三丁目","koaza":"","lat":35.373462,"lng":139.55397,"zip":"2470007"},{"town":"本郷台一丁目","koaza":"","lat":35.371737,"lng":139.547809,"zip":"2470008"},{"town":"本郷台三丁目","koaza":"","lat":35.375305,"lng":139.544774,"zip":"2470008"},{"town":"本郷台二丁目","koaza":"","lat":35.370973,"lng":139.545187,"zip":"2470008"},{"town":"笠間四丁目","koaza":"","lat":35.363363,"lng":139.5335,"zip":"2470006"},{"town":"長倉町","koaza":"","lat":35.346923,"lng":139.583418,"zip":"2470023"},{"town":"笠間町","koaza":"","lat":35.363498,"lng":139.537961,"zip":"2470000"},{"town":"小菅ケ谷二丁目","koaza":"","lat":35.366416,"lng":139.542331,"zip":"2470007"},{"town":"小菅ケ谷一丁目","koaza":"","lat":35.365911,"lng":139.54762,"zip":"2470007"},{"town":"本郷台四丁目","koaza":"","lat":35.375944,"lng":139.548375,"zip":"2470008"},{"town":"小菅ケ谷四丁目","koaza":"","lat":35.378157,"lng":139.552358,"zip":"2470007"},{"town":"亀井町","koaza":"","lat":35.360227,"lng":139.568278,"zip":"2470028"},{"town":"庄戸二丁目","koaza":"","lat":35.35543,"lng":139.587965,"zip":"2470022"},{"town":"庄戸三丁目","koaza":"","lat":35.352272,"lng":139.587793,"zip":"2470022"},{"town":"庄戸一丁目","koaza":"","lat":35.354426,"lng":139.583783,"zip":"2470022"},{"town":"庄戸五丁目","koaza":"","lat":35.348829,"lng":139.586281,"zip":"2470022"},{"town":"庄戸四丁目","koaza":"","lat":35.35165,"lng":139.582515,"zip":"2470022"},{"town":"野七里二丁目","koaza":"","lat":35.344,"lng":139.579973,"zip":"2470024"},{"town":"桂台南二丁目","koaza":"","lat":35.349468,"lng":139.571053,"zip":"2470033"},{"town":"野七里一丁目","koaza":"","lat":35.34924,"lng":139.577249,"zip":"2470024"},{"town":"上之町","koaza":"","lat":35.355684,"lng":139.576982,"zip":"2470025"},{"town":"桂台東","koaza":"","lat":35.355859,"lng":139.569536,"zip":"2470032"},{"town":"笠間二丁目","koaza":"","lat":35.357962,"lng":139.536004,"zip":"2470006"},{"town":"笠間一丁目","koaza":"","lat":35.356891,"lng":139.53205,"zip":"2470006"},{"town":"長尾台町","koaza":"","lat":35.363228,"lng":139.527667,"zip":"2440843"},{"town":"犬山町","koaza":"","lat":35.355129,"lng":139.572967,"zip":"2470026"},{"town":"尾月","koaza":"","lat":35.360845,"lng":139.572607,"zip":"2470027"},{"town":"若竹町","koaza":"","lat":35.367512,"lng":139.569313,"zip":"2470012"},{"town":"公田町","koaza":"","lat":35.354933,"lng":139.554893,"zip":"2470014"},{"town":"柏陽","koaza":"","lat":35.367254,"lng":139.555327,"zip":"2470004"},{"town":"鍛冶ケ谷二丁目","koaza":"","lat":35.369391,"lng":139.560509,"zip":"2470009"},{"town":"小山台二丁目","koaza":"","lat":35.375917,"lng":139.55627,"zip":"2470002"},{"town":"鍛冶ケ谷町","koaza":"","lat":35.373119,"lng":139.558398,"zip":"2470003"},{"town":"元大橋一丁目","koaza":"","lat":35.37102,"lng":139.569223,"zip":"2470011"},{"town":"元大橋二丁目","koaza":"","lat":35.367314,"lng":139.566841,"zip":"2470011"},{"town":"中野町","koaza":"","lat":35.363234,"lng":139.56168,"zip":"2470015"},{"town":"鍛冶ケ谷一丁目","koaza":"","lat":35.368694,"lng":139.564558,"zip":"2470009"},{"town":"桂町","koaza":"","lat":35.362969,"lng":139.54953,"zip":"2470005"},{"town":"笠間五丁目","koaza":"","lat":35.360203,"lng":139.541608,"zip":"2470006"},{"town":"長沼町","koaza":"","lat":35.378659,"lng":139.537675,"zip":"2440841"},{"town":"小山台一丁目","koaza":"","lat":35.379772,"lng":139.558564,"zip":"2470002"},{"town":"本郷台五丁目","koaza":"","lat":35.381637,"lng":139.550936,"zip":"2470008"},{"town":"飯島町","koaza":"","lat":35.371317,"lng":139.537064,"zip":"2440842"},{"town":"田谷町","koaza":"","lat":35.367658,"lng":139.523066,"zip":"2440844"},{"town":"金井町","koaza":"","lat":35.375533,"lng":139.526313,"zip":"2440845"},{"town":"東上郷町","koaza":"","lat":35.359127,"lng":139.583094,"zip":"2470021"}]