[{"town":"牛久保東三丁目","koaza":"","lat":35.550709,"lng":139.59042,"zip":"2240014"},{"town":"大棚西","koaza":"","lat":35.550879,"lng":139.580446,"zip":"2240028"},{"town":"早渕二丁目","koaza":"","lat":35.545704,"lng":139.598005,"zip":"2240025"},{"town":"中川中央一丁目","koaza":"","lat":35.553232,"lng":139.578386,"zip":"2240003"},{"town":"牛久保東二丁目","koaza":"","lat":35.551991,"lng":139.588003,"zip":"2240014"},{"town":"南山田二丁目","koaza":"","lat":35.555142,"lng":139.589884,"zip":"2240029"},{"town":"茅ケ崎東一丁目","koaza":"","lat":35.543638,"lng":139.584397,"zip":"2240033"},{"town":"牛久保西一丁目","koaza":"","lat":35.557226,"lng":139.580555,"zip":"2240015"},{"town":"北山田七丁目","koaza":"","lat":35.56316,"lng":139.594601,"zip":"2240021"},{"town":"東山田二丁目","koaza":"","lat":35.563056,"lng":139.601209,"zip":"2240023"},{"town":"北山田一丁目","koaza":"","lat":35.562158,"lng":139.591009,"zip":"2240021"},{"town":"南山田町","koaza":"","lat":35.552619,"lng":139.596659,"zip":"2240026"},{"town":"川和台","koaza":"","lat":35.52816,"lng":139.554443,"zip":"2240056"},{"town":"長坂","koaza":"","lat":35.537487,"lng":139.570502,"zip":"2240063"},{"town":"茅ケ崎東二丁目","koaza":"","lat":35.543603,"lng":139.581012,"zip":"2240033"},{"town":"茅ケ崎東四丁目","koaza":"","lat":35.546493,"lng":139.579453,"zip":"2240033"},{"town":"茅ケ崎東三丁目","koaza":"","lat":35.543239,"lng":139.57791,"zip":"2240033"},{"town":"北山田二丁目","koaza":"","lat":35.559313,"lng":139.593876,"zip":"2240021"},{"town":"南山田三丁目","koaza":"","lat":35.556903,"lng":139.596724,"zip":"2240029"},{"town":"東山田三丁目","koaza":"","lat":35.559094,"lng":139.600549,"zip":"2240023"},{"town":"牛久保西三丁目","koaza":"","lat":35.560771,"lng":139.576057,"zip":"2240015"},{"town":"北山田四丁目","koaza":"","lat":35.560327,"lng":139.584697,"zip":"2240021"},{"town":"中川七丁目","koaza":"","lat":35.55347,"lng":139.572713,"zip":"2240001"},{"town":"牛久保二丁目","koaza":"","lat":35.563452,"lng":139.577141,"zip":"2240012"},{"town":"荏田東町","koaza":"","lat":35.554301,"lng":139.566944,"zip":"2240004"},{"town":"加賀原二丁目","koaza":"","lat":35.522437,"lng":139.55554,"zip":"2240055"},{"town":"牛久保西二丁目","koaza":"","lat":35.558734,"lng":139.575132,"zip":"2240015"},{"town":"中川六丁目","koaza":"","lat":35.555843,"lng":139.575611,"zip":"2240001"},{"town":"牛久保西四丁目","koaza":"","lat":35.563491,"lng":139.572618,"zip":"2240015"},{"town":"中川三丁目","koaza":"","lat":35.562183,"lng":139.563168,"zip":"2240001"},{"town":"茅ケ崎南一丁目","koaza":"","lat":35.539924,"lng":139.58229,"zip":"2240037"},{"town":"中川四丁目","koaza":"","lat":35.559467,"lng":139.566951,"zip":"2240001"},{"town":"中川五丁目","koaza":"","lat":35.555926,"lng":139.571105,"zip":"2240001"},{"town":"勝田南二丁目","koaza":"","lat":35.540805,"lng":139.588929,"zip":"2240036"},{"town":"加賀原一丁目","koaza":"","lat":35.524888,"lng":139.558165,"zip":"2240055"},{"town":"早渕三丁目","koaza":"","lat":35.549746,"lng":139.603168,"zip":"2240025"},{"town":"仲町台五丁目","koaza":"","lat":35.535974,"lng":139.585772,"zip":"2240041"},{"town":"荏田南町","koaza":"","lat":35.55457,"lng":139.564398,"zip":"2240008"},{"town":"牛久保一丁目","koaza":"","lat":35.561195,"lng":139.581847,"zip":"2240012"},{"town":"北山田五丁目","koaza":"","lat":35.564556,"lng":139.584399,"zip":"2240021"},{"town":"新栄町","koaza":"","lat":35.538432,"lng":139.594509,"zip":"2240035"},{"town":"早渕一丁目","koaza":"","lat":35.543063,"lng":139.599172,"zip":"2240025"},{"town":"二の丸","koaza":"","lat":35.530501,"lng":139.559672,"zip":"2240052"},{"town":"中川八丁目","koaza":"","lat":35.551583,"lng":139.573736,"zip":"2240001"},{"town":"中川中央二丁目","koaza":"","lat":35.549454,"lng":139.576486,"zip":"2240003"},{"town":"牛久保東一丁目","koaza":"","lat":35.553738,"lng":139.583403,"zip":"2240014"},{"town":"荏田南四丁目","koaza":"","lat":35.550606,"lng":139.557983,"zip":"2240008"},{"town":"折本町","koaza":"","lat":35.527033,"lng":139.590202,"zip":"2240043"},{"town":"仲町台四丁目","koaza":"","lat":35.532346,"lng":139.591162,"zip":"2240041"},{"town":"南山田一丁目","koaza":"","lat":35.556929,"lng":139.585298,"zip":"2240029"},{"town":"北山田三丁目","koaza":"","lat":35.559779,"lng":139.588312,"zip":"2240021"},{"town":"北山田六丁目","koaza":"","lat":35.566449,"lng":139.590188,"zip":"2240021"},{"town":"中川二丁目","koaza":"","lat":35.563899,"lng":139.567742,"zip":"2240001"},{"town":"中川一丁目","koaza":"","lat":35.563542,"lng":139.569919,"zip":"2240001"},{"town":"大熊町","koaza":"","lat":35.526574,"lng":139.598763,"zip":"2240042"},{"town":"川向町","koaza":"","lat":35.516515,"lng":139.58903,"zip":"2240044"},{"town":"富士見が丘","koaza":"","lat":35.533157,"lng":139.557234,"zip":"2240051"},{"town":"仲町台二丁目","koaza":"","lat":35.536444,"lng":139.592169,"zip":"2240041"},{"town":"勝田南一丁目","koaza":"","lat":35.53924,"lng":139.587803,"zip":"2240036"},{"town":"仲町台一丁目","koaza":"","lat":35.535515,"lng":139.589111,"zip":"2240041"},{"town":"仲町台三丁目","koaza":"","lat":35.533347,"lng":139.59466,"zip":"2240041"},{"town":"茅ケ崎南三丁目","koaza":"","lat":35.538744,"lng":139.576067,"zip":"2240037"},{"town":"桜並木","koaza":"","lat":35.534846,"lng":139.580022,"zip":"2240046"},{"town":"茅ケ崎南二丁目","koaza":"","lat":35.537129,"lng":139.581599,"zip":"2240037"},{"town":"大棚町","koaza":"","lat":35.549639,"lng":139.594686,"zip":"2240027"},{"town":"高山","koaza":"","lat":35.534696,"lng":139.561836,"zip":"2240065"},{"town":"葛が谷","koaza":"","lat":35.536996,"lng":139.563029,"zip":"2240062"},{"town":"東方町","koaza":"","lat":35.52527,"lng":139.580928,"zip":"2240045"},{"town":"平台","koaza":"","lat":35.535354,"lng":139.569497,"zip":"2240064"},{"town":"茅ケ崎南四丁目","koaza":"","lat":35.539653,"lng":139.572649,"zip":"2240037"},{"town":"茅ケ崎南五丁目","koaza":"","lat":35.539856,"lng":139.567659,"zip":"2240037"},{"town":"茅ケ崎中央","koaza":"","lat":35.546939,"lng":139.573405,"zip":"2240032"},{"town":"荏田南一丁目","koaza":"","lat":35.541789,"lng":139.560115,"zip":"2240008"},{"town":"荏田東二丁目","koaza":"","lat":35.541545,"lng":139.56416,"zip":"2240004"},{"town":"荏田東四丁目","koaza":"","lat":35.548688,"lng":139.566903,"zip":"2240004"},{"town":"荏田南五丁目","koaza":"","lat":35.548558,"lng":139.560252,"zip":"2240008"},{"town":"荏田南二丁目","koaza":"","lat":35.544669,"lng":139.556463,"zip":"2240008"},{"town":"見花山","koaza":"","lat":35.537646,"lng":139.554928,"zip":"2240066"},{"town":"大丸","koaza":"","lat":35.539651,"lng":139.556918,"zip":"2240061"},{"town":"川和町","koaza":"","lat":35.528771,"lng":139.548781,"zip":"2240057"},{"town":"茅ケ崎東五丁目","koaza":"","lat":35.546655,"lng":139.584468,"zip":"2240033"},{"town":"勝田町","koaza":"","lat":35.54365,"lng":139.590689,"zip":"2240034"},{"town":"東山田一丁目","koaza":"","lat":35.564706,"lng":139.597615,"zip":"2240023"},{"town":"荏田東三丁目","koaza":"","lat":35.546235,"lng":139.562897,"zip":"2240004"},{"town":"荏田東一丁目","koaza":"","lat":35.54375,"lng":139.56724,"zip":"2240004"},{"town":"荏田南三丁目","koaza":"","lat":35.546516,"lng":139.553778,"zip":"2240008"},{"town":"佐江戸町","koaza":"","lat":35.516507,"lng":139.557303,"zip":"2240054"},{"town":"池辺町","koaza":"","lat":35.523606,"lng":139.568671,"zip":"2240053"},{"town":"東山田町","koaza":"","lat":35.558357,"lng":139.60806,"zip":"2240024"},{"town":"東山田四丁目","koaza":"","lat":35.562326,"lng":139.606685,"zip":"2240023"},{"town":"すみれが丘","koaza":"","lat":35.566508,"lng":139.580265,"zip":"2240013"},{"town":"牛久保町","koaza":"","lat":35.567723,"lng":139.570128,"zip":"2240011"},{"town":"牛久保三丁目","koaza":"","lat":35.567981,"lng":139.573618,"zip":"2240012"},{"town":"あゆみが丘","koaza":"","lat":35.568492,"lng":139.566995,"zip":"2240016"},{"town":"茅ケ崎町","koaza":"","lat":35.547968,"lng":139.581912,"zip":"2240031"}]