[{"town":"本町通一丁目","koaza":"","lat":35.502643,"lng":139.680165,"zip":"2300048"},{"town":"潮田町一丁目","koaza":"","lat":35.504476,"lng":139.682396,"zip":"2300041"},{"town":"寛政町","koaza":"","lat":35.501344,"lng":139.701084,"zip":"2300034"},{"town":"潮田町四丁目","koaza":"","lat":35.503095,"lng":139.692805,"zip":"2300041"},{"town":"東寺尾東台","koaza":"","lat":35.503422,"lng":139.663808,"zip":"2300018"},{"town":"大東町","koaza":"","lat":35.504357,"lng":139.695019,"zip":"2300032"},{"town":"東寺尾一丁目","koaza":"","lat":35.502661,"lng":139.649168,"zip":"2300077"},{"town":"岸谷三丁目","koaza":"","lat":35.501048,"lng":139.665078,"zip":"2300078"},{"town":"朝日町一丁目","koaza":"","lat":35.501881,"lng":139.696857,"zip":"2300033"},{"town":"朝日町二丁目","koaza":"","lat":35.504774,"lng":139.697549,"zip":"2300033"},{"town":"潮田町三丁目","koaza":"","lat":35.50356,"lng":139.689783,"zip":"2300041"},{"town":"本町通二丁目","koaza":"","lat":35.502055,"lng":139.682785,"zip":"2300048"},{"town":"潮田町二丁目","koaza":"","lat":35.50356,"lng":139.686235,"zip":"2300041"},{"town":"鶴見中央五丁目","koaza":"","lat":35.503005,"lng":139.676643,"zip":"2300051"},{"town":"鶴見一丁目","koaza":"","lat":35.502499,"lng":139.671085,"zip":"2300063"},{"town":"東寺尾五丁目","koaza":"","lat":35.502196,"lng":139.659368,"zip":"2300077"},{"town":"東寺尾二丁目","koaza":"","lat":35.503178,"lng":139.65484,"zip":"2300077"},{"town":"馬場一丁目","koaza":"","lat":35.505816,"lng":139.644697,"zip":"2300076"},{"town":"東寺尾六丁目","koaza":"","lat":35.50741,"lng":139.660616,"zip":"2300077"},{"town":"大黒ふ頭","koaza":"","lat":35.459952,"lng":139.680534,"zip":"2300054"},{"town":"大黒町","koaza":"","lat":35.480481,"lng":139.675908,"zip":"2300053"},{"town":"末広町一丁目","koaza":"","lat":35.487313,"lng":139.684437,"zip":"2300045"},{"town":"扇島","koaza":"","lat":35.476231,"lng":139.711816,"zip":"2300055"},{"town":"安善町一丁目","koaza":"","lat":35.497379,"lng":139.702062,"zip":"2300035"},{"town":"浜町一丁目","koaza":"","lat":35.501488,"lng":139.693487,"zip":"2300036"},{"town":"仲通三丁目","koaza":"","lat":35.500685,"lng":139.691285,"zip":"2300042"},{"town":"仲通二丁目","koaza":"","lat":35.501387,"lng":139.689134,"zip":"2300042"},{"town":"仲通一丁目","koaza":"","lat":35.50168,"lng":139.686566,"zip":"2300042"},{"town":"下野谷町二丁目","koaza":"","lat":35.4996,"lng":139.680956,"zip":"2300047"},{"town":"本町通四丁目","koaza":"","lat":35.500073,"lng":139.685244,"zip":"2300048"},{"town":"本町通三丁目","koaza":"","lat":35.501562,"lng":139.684279,"zip":"2300048"},{"town":"汐入町一丁目","koaza":"","lat":35.498289,"lng":139.68619,"zip":"2300043"},{"town":"汐入町二丁目","koaza":"","lat":35.499259,"lng":139.688324,"zip":"2300043"},{"town":"汐入町三丁目","koaza":"","lat":35.4995,"lng":139.690588,"zip":"2300043"},{"town":"下野谷町一丁目","koaza":"","lat":35.500649,"lng":139.679238,"zip":"2300047"},{"town":"下野谷町三丁目","koaza":"","lat":35.498659,"lng":139.68177,"zip":"2300047"},{"town":"下野谷町四丁目","koaza":"","lat":35.498684,"lng":139.684082,"zip":"2300047"},{"town":"生麦三丁目","koaza":"","lat":35.494693,"lng":139.668778,"zip":"2300052"},{"town":"末広町二丁目","koaza":"","lat":35.489743,"lng":139.700224,"zip":"2300045"},{"town":"安善町二丁目","koaza":"","lat":35.491706,"lng":139.705792,"zip":"2300035"},{"town":"小野町","koaza":"","lat":35.49735,"lng":139.679398,"zip":"2300046"},{"town":"生麦五丁目","koaza":"","lat":35.499636,"lng":139.67437,"zip":"2300052"},{"town":"生麦二丁目","koaza":"","lat":35.49282,"lng":139.674135,"zip":"2300052"},{"town":"生麦一丁目","koaza":"","lat":35.491025,"lng":139.664877,"zip":"2300052"},{"town":"岸谷四丁目","koaza":"","lat":35.498729,"lng":139.667673,"zip":"2300078"},{"town":"生麦四丁目","koaza":"","lat":35.496699,"lng":139.671977,"zip":"2300052"},{"town":"弁天町","koaza":"","lat":35.497822,"lng":139.692118,"zip":"2300044"},{"town":"浜町二丁目","koaza":"","lat":35.500278,"lng":139.693886,"zip":"2300036"},{"town":"岸谷一丁目","koaza":"","lat":35.494503,"lng":139.663424,"zip":"2300078"},{"town":"岸谷二丁目","koaza":"","lat":35.495861,"lng":139.661407,"zip":"2300078"},{"town":"東寺尾三丁目","koaza":"","lat":35.499421,"lng":139.656214,"zip":"2300077"},{"town":"東寺尾四丁目","koaza":"","lat":35.497497,"lng":139.65947,"zip":"2300077"},{"town":"駒岡三丁目","koaza":"","lat":35.529647,"lng":139.655285,"zip":"2300071"},{"town":"向井町四丁目","koaza":"","lat":35.50543,"lng":139.692462,"zip":"2300037"},{"town":"向井町二丁目","koaza":"","lat":35.505592,"lng":139.68814,"zip":"2300037"},{"town":"向井町三丁目","koaza":"","lat":35.505483,"lng":139.690255,"zip":"2300037"},{"town":"鶴見中央四丁目","koaza":"","lat":35.506729,"lng":139.680594,"zip":"2300051"},{"town":"鶴見中央一丁目","koaza":"","lat":35.50889,"lng":139.677873,"zip":"2300051"},{"town":"東寺尾中台","koaza":"","lat":35.508003,"lng":139.664594,"zip":"2300017"},{"town":"鶴見二丁目","koaza":"","lat":35.506913,"lng":139.670166,"zip":"2300063"},{"town":"栄町通四丁目","koaza":"","lat":35.512983,"lng":139.689397,"zip":"2300038"},{"town":"平安町二丁目","koaza":"","lat":35.509924,"lng":139.693554,"zip":"2300031"},{"town":"栄町通一丁目","koaza":"","lat":35.507629,"lng":139.690197,"zip":"2300038"},{"town":"栄町通二丁目","koaza":"","lat":35.509247,"lng":139.690207,"zip":"2300038"},{"town":"栄町通三丁目","koaza":"","lat":35.51108,"lng":139.68967,"zip":"2300038"},{"town":"鶴見中央二丁目","koaza":"","lat":35.512285,"lng":139.679979,"zip":"2300051"},{"town":"市場富士見町","koaza":"","lat":35.516811,"lng":139.688815,"zip":"2300026"},{"town":"菅沢町","koaza":"","lat":35.513997,"lng":139.686849,"zip":"2300027"},{"town":"市場東中町","koaza":"","lat":35.518653,"lng":139.685799,"zip":"2300022"},{"town":"向井町一丁目","koaza":"","lat":35.505622,"lng":139.685704,"zip":"2300037"},{"town":"鶴見中央三丁目","koaza":"","lat":35.509548,"lng":139.684353,"zip":"2300051"},{"town":"市場大和町","koaza":"","lat":35.517771,"lng":139.687559,"zip":"2300025"},{"town":"平安町一丁目","koaza":"","lat":35.516378,"lng":139.691427,"zip":"2300031"},{"town":"下末吉六丁目","koaza":"","lat":35.520842,"lng":139.66465,"zip":"2300012"},{"town":"尻手一丁目","koaza":"","lat":35.524628,"lng":139.686371,"zip":"2300003"},{"town":"市場上町","koaza":"","lat":35.52091,"lng":139.687005,"zip":"2300021"},{"town":"市場下町","koaza":"","lat":35.516232,"lng":139.681617,"zip":"2300024"},{"town":"市場西中町","koaza":"","lat":35.517356,"lng":139.684559,"zip":"2300023"},{"town":"元宮一丁目","koaza":"","lat":35.521518,"lng":139.682703,"zip":"2300004"},{"town":"元宮二丁目","koaza":"","lat":35.520037,"lng":139.679073,"zip":"2300004"},{"town":"下末吉二丁目","koaza":"","lat":35.520016,"lng":139.67446,"zip":"2300012"},{"town":"下末吉三丁目","koaza":"","lat":35.523832,"lng":139.674103,"zip":"2300012"},{"town":"下末吉五丁目","koaza":"","lat":35.518798,"lng":139.666469,"zip":"2300012"},{"town":"下末吉四丁目","koaza":"","lat":35.522162,"lng":139.670727,"zip":"2300012"},{"town":"上末吉四丁目","koaza":"","lat":35.529173,"lng":139.666115,"zip":"2300011"},{"town":"寺谷二丁目","koaza":"","lat":35.513214,"lng":139.67047,"zip":"2300015"},{"town":"豊岡町","koaza":"","lat":35.509072,"lng":139.67401,"zip":"2300062"},{"town":"寺谷一丁目","koaza":"","lat":35.511342,"lng":139.66846,"zip":"2300015"},{"town":"諏訪坂","koaza":"","lat":35.515962,"lng":139.668822,"zip":"2300014"},{"town":"東寺尾北台","koaza":"","lat":35.512162,"lng":139.664776,"zip":"2300016"},{"town":"佃野町","koaza":"","lat":35.514672,"lng":139.674438,"zip":"2300061"},{"town":"下末吉一丁目","koaza":"","lat":35.518839,"lng":139.671067,"zip":"2300012"},{"town":"北寺尾二丁目","koaza":"","lat":35.515761,"lng":139.663544,"zip":"2300074"},{"town":"北寺尾一丁目","koaza":"","lat":35.513827,"lng":139.661461,"zip":"2300074"},{"town":"馬場四丁目","koaza":"","lat":35.50916,"lng":139.658126,"zip":"2300076"},{"town":"馬場六丁目","koaza":"","lat":35.511708,"lng":139.651657,"zip":"2300076"},{"town":"馬場二丁目","koaza":"","lat":35.508449,"lng":139.649597,"zip":"2300076"},{"town":"北寺尾七丁目","koaza":"","lat":35.51373,"lng":139.643653,"zip":"2300074"},{"town":"北寺尾六丁目","koaza":"","lat":35.513865,"lng":139.648029,"zip":"2300074"},{"town":"北寺尾三丁目","koaza":"","lat":35.518572,"lng":139.658915,"zip":"2300074"},{"town":"北寺尾四丁目","koaza":"","lat":35.516044,"lng":139.6574,"zip":"2300074"},{"town":"三ツ池公園","koaza":"","lat":35.524002,"lng":139.662348,"zip":"2300013"},{"town":"獅子ケ谷三丁目","koaza":"","lat":35.5192,"lng":139.64383,"zip":"2300073"},{"town":"獅子ケ谷二丁目","koaza":"","lat":35.520681,"lng":139.64676,"zip":"2300073"},{"town":"北寺尾五丁目","koaza":"","lat":35.514117,"lng":139.653321,"zip":"2300074"},{"town":"獅子ケ谷一丁目","koaza":"","lat":35.518711,"lng":139.652837,"zip":"2300073"},{"town":"馬場五丁目","koaza":"","lat":35.511652,"lng":139.655367,"zip":"2300076"},{"town":"馬場三丁目","koaza":"","lat":35.507295,"lng":139.653242,"zip":"2300076"},{"town":"上の宮一丁目","koaza":"","lat":35.511049,"lng":139.63947,"zip":"2300075"},{"town":"駒岡一丁目","koaza":"","lat":35.52227,"lng":139.652224,"zip":"2300071"},{"town":"馬場七丁目","koaza":"","lat":35.509568,"lng":139.643755,"zip":"2300076"},{"town":"上の宮二丁目","koaza":"","lat":35.514059,"lng":139.639894,"zip":"2300075"},{"town":"駒岡四丁目","koaza":"","lat":35.535014,"lng":139.657345,"zip":"2300071"},{"town":"尻手三丁目","koaza":"","lat":35.527983,"lng":139.68262,"zip":"2300003"},{"town":"尻手二丁目","koaza":"","lat":35.527212,"lng":139.684413,"zip":"2300003"},{"town":"矢向三丁目","koaza":"","lat":35.534362,"lng":139.679129,"zip":"2300001"},{"town":"矢向一丁目","koaza":"","lat":35.527945,"lng":139.676455,"zip":"2300001"},{"town":"矢向二丁目","koaza":"","lat":35.528032,"lng":139.68011,"zip":"2300001"},{"town":"矢向四丁目","koaza":"","lat":35.533228,"lng":139.682025,"zip":"2300001"},{"town":"梶山二丁目","koaza":"","lat":35.528469,"lng":139.659344,"zip":"2300072"},{"town":"梶山一丁目","koaza":"","lat":35.527359,"lng":139.663,"zip":"2300072"},{"town":"上末吉五丁目","koaza":"","lat":35.533417,"lng":139.663597,"zip":"2300011"},{"town":"上末吉一丁目","koaza":"","lat":35.525513,"lng":139.667909,"zip":"2300011"},{"town":"上末吉二丁目","koaza":"","lat":35.52699,"lng":139.671971,"zip":"2300011"},{"town":"上末吉三丁目","koaza":"","lat":35.529688,"lng":139.669787,"zip":"2300011"},{"town":"江ケ崎町","koaza":"","lat":35.535436,"lng":139.673638,"zip":"2300002"},{"town":"矢向六丁目","koaza":"","lat":35.538612,"lng":139.678329,"zip":"2300001"},{"town":"矢向五丁目","koaza":"","lat":35.538094,"lng":139.682865,"zip":"2300001"},{"town":"駒岡五丁目","koaza":"","lat":35.535061,"lng":139.65107,"zip":"2300071"},{"town":"駒岡二丁目","koaza":"","lat":35.528242,"lng":139.649626,"zip":"2300071"}]