[{"town":"大倉山七丁目","koaza":"","lat":35.522765,"lng":139.617895,"zip":"2220037"},{"town":"大倉山六丁目","koaza":"","lat":35.531276,"lng":139.620812,"zip":"2220037"},{"town":"篠原町","koaza":"","lat":35.502534,"lng":139.618993,"zip":"2220026"},{"town":"篠原西町","koaza":"","lat":35.493538,"lng":139.621832,"zip":"2220025"},{"town":"篠原東二丁目","koaza":"","lat":35.499286,"lng":139.625214,"zip":"2220022"},{"town":"菊名三丁目","koaza":"","lat":35.505877,"lng":139.63665,"zip":"2220011"},{"town":"菊名二丁目","koaza":"","lat":35.500347,"lng":139.6352,"zip":"2220011"},{"town":"菊名一丁目","koaza":"","lat":35.50218,"lng":139.633747,"zip":"2220011"},{"town":"富士塚一丁目","koaza":"","lat":35.502358,"lng":139.631089,"zip":"2220012"},{"town":"富士塚二丁目","koaza":"","lat":35.50461,"lng":139.630989,"zip":"2220012"},{"town":"篠原東三丁目","koaza":"","lat":35.501902,"lng":139.627161,"zip":"2220022"},{"town":"大倉山四丁目","koaza":"","lat":35.519905,"lng":139.622918,"zip":"2220037"},{"town":"大倉山五丁目","koaza":"","lat":35.524031,"lng":139.622349,"zip":"2220037"},{"town":"大倉山二丁目","koaza":"","lat":35.526241,"lng":139.625392,"zip":"2220037"},{"town":"新吉田東六丁目","koaza":"","lat":35.537364,"lng":139.619367,"zip":"2230058"},{"town":"新吉田東七丁目","koaza":"","lat":35.534251,"lng":139.617986,"zip":"2230058"},{"town":"新吉田東一丁目","koaza":"","lat":35.543315,"lng":139.621161,"zip":"2230058"},{"town":"新吉田東五丁目","koaza":"","lat":35.540058,"lng":139.620312,"zip":"2230058"},{"town":"高田西三丁目","koaza":"","lat":35.554428,"lng":139.620014,"zip":"2230066"},{"town":"高田東三丁目","koaza":"","lat":35.552456,"lng":139.622392,"zip":"2230065"},{"town":"高田東四丁目","koaza":"","lat":35.546944,"lng":139.622553,"zip":"2230065"},{"town":"鳥山町","koaza":"","lat":35.505976,"lng":139.604138,"zip":"2220035"},{"town":"小机町","koaza":"","lat":35.509315,"lng":139.594745,"zip":"2220036"},{"town":"新横浜三丁目","koaza":"","lat":35.511553,"lng":139.618318,"zip":"2220033"},{"town":"大豆戸町","koaza":"","lat":35.513492,"lng":139.625651,"zip":"2220032"},{"town":"新横浜一丁目","koaza":"","lat":35.503908,"lng":139.610152,"zip":"2220033"},{"town":"高田町","koaza":"","lat":35.558693,"lng":139.618766,"zip":"2230063"},{"town":"新吉田東二丁目","koaza":"","lat":35.545388,"lng":139.621998,"zip":"2230058"},{"town":"篠原台町","koaza":"","lat":35.492046,"lng":139.62568,"zip":"2220024"},{"town":"仲手原一丁目","koaza":"","lat":35.495402,"lng":139.63493,"zip":"2220023"},{"town":"篠原東一丁目","koaza":"","lat":35.49838,"lng":139.628221,"zip":"2220022"},{"town":"仲手原二丁目","koaza":"","lat":35.495812,"lng":139.628658,"zip":"2220023"},{"town":"岸根町","koaza":"","lat":35.497651,"lng":139.612981,"zip":"2220034"},{"town":"高田東二丁目","koaza":"","lat":35.551102,"lng":139.623861,"zip":"2230065"},{"town":"錦が丘","koaza":"","lat":35.507744,"lng":139.631805,"zip":"2220013"},{"town":"篠原北一丁目","koaza":"","lat":35.507325,"lng":139.626684,"zip":"2220021"},{"town":"篠原北二丁目","koaza":"","lat":35.51036,"lng":139.627003,"zip":"2220021"},{"town":"大倉山三丁目","koaza":"","lat":35.521096,"lng":139.626967,"zip":"2220037"},{"town":"菊名四丁目","koaza":"","lat":35.508742,"lng":139.636572,"zip":"2220011"},{"town":"菊名七丁目","koaza":"","lat":35.513907,"lng":139.630383,"zip":"2220011"},{"town":"菊名六丁目","koaza":"","lat":35.51411,"lng":139.632176,"zip":"2220011"},{"town":"菊名五丁目","koaza":"","lat":35.512468,"lng":139.634643,"zip":"2220011"},{"town":"大倉山一丁目","koaza":"","lat":35.520156,"lng":139.63125,"zip":"2220037"},{"town":"師岡町","koaza":"","lat":35.521715,"lng":139.637375,"zip":"2220002"},{"town":"樽町一丁目","koaza":"","lat":35.527576,"lng":139.634866,"zip":"2220001"},{"town":"日吉七丁目","koaza":"","lat":35.543206,"lng":139.649908,"zip":"2230061"},{"town":"日吉六丁目","koaza":"","lat":35.542342,"lng":139.652971,"zip":"2230061"},{"town":"樽町三丁目","koaza":"","lat":35.531176,"lng":139.643361,"zip":"2220001"},{"town":"綱島東六丁目","koaza":"","lat":35.536022,"lng":139.646216,"zip":"2230052"},{"town":"樽町二丁目","koaza":"","lat":35.531893,"lng":139.636798,"zip":"2220001"},{"town":"綱島東一丁目","koaza":"","lat":35.535587,"lng":139.637438,"zip":"2230052"},{"town":"綱島東五丁目","koaza":"","lat":35.538845,"lng":139.648997,"zip":"2230052"},{"town":"綱島東三丁目","koaza":"","lat":35.537121,"lng":139.642012,"zip":"2230052"},{"town":"樽町四丁目","koaza":"","lat":35.527967,"lng":139.64187,"zip":"2220001"},{"town":"綱島西二丁目","koaza":"","lat":35.535373,"lng":139.630225,"zip":"2230053"},{"town":"大曽根二丁目","koaza":"","lat":35.530384,"lng":139.631267,"zip":"2220003"},{"town":"大曽根一丁目","koaza":"","lat":35.525575,"lng":139.631708,"zip":"2220003"},{"town":"綱島上町","koaza":"","lat":35.536559,"lng":139.624981,"zip":"2230055"},{"town":"大曽根台","koaza":"","lat":35.528619,"lng":139.626616,"zip":"2220004"},{"town":"大曽根三丁目","koaza":"","lat":35.531909,"lng":139.627089,"zip":"2220003"},{"town":"綱島西三丁目","koaza":"","lat":35.538561,"lng":139.628043,"zip":"2230053"},{"town":"綱島西一丁目","koaza":"","lat":35.537952,"lng":139.633222,"zip":"2230053"},{"town":"綱島台","koaza":"","lat":35.540761,"lng":139.632666,"zip":"2230054"},{"town":"綱島西四丁目","koaza":"","lat":35.541685,"lng":139.627577,"zip":"2230053"},{"town":"綱島西五丁目","koaza":"","lat":35.544898,"lng":139.630933,"zip":"2230053"},{"town":"綱島東四丁目","koaza":"","lat":35.541282,"lng":139.643138,"zip":"2230052"},{"town":"箕輪町二丁目","koaza":"","lat":35.544799,"lng":139.644484,"zip":"2230051"},{"town":"綱島西六丁目","koaza":"","lat":35.542683,"lng":139.637716,"zip":"2230053"},{"town":"綱島東二丁目","koaza":"","lat":35.538947,"lng":139.638739,"zip":"2230052"},{"town":"日吉五丁目","koaza":"","lat":35.549073,"lng":139.654797,"zip":"2230061"},{"town":"箕輪町一丁目","koaza":"","lat":35.548883,"lng":139.647487,"zip":"2230051"},{"town":"日吉四丁目","koaza":"","lat":35.55262,"lng":139.651081,"zip":"2230061"},{"town":"日吉本町六丁目","koaza":"","lat":35.553701,"lng":139.629454,"zip":"2230062"},{"town":"日吉三丁目","koaza":"","lat":35.55491,"lng":139.654782,"zip":"2230061"},{"town":"箕輪町三丁目","koaza":"","lat":35.54748,"lng":139.641761,"zip":"2230051"},{"town":"日吉本町二丁目","koaza":"","lat":35.553073,"lng":139.637415,"zip":"2230062"},{"town":"下田町一丁目","koaza":"","lat":35.556593,"lng":139.635861,"zip":"2230064"},{"town":"日吉一丁目","koaza":"","lat":35.556779,"lng":139.642121,"zip":"2230061"},{"town":"高田東一丁目","koaza":"","lat":35.546482,"lng":139.626044,"zip":"2230065"},{"town":"日吉本町四丁目","koaza":"","lat":35.546541,"lng":139.634843,"zip":"2230062"},{"town":"日吉本町三丁目","koaza":"","lat":35.549862,"lng":139.637497,"zip":"2230062"},{"town":"日吉本町五丁目","koaza":"","lat":35.550608,"lng":139.629885,"zip":"2230062"},{"town":"下田町三丁目","koaza":"","lat":35.559945,"lng":139.632923,"zip":"2230064"},{"town":"下田町二丁目","koaza":"","lat":35.557955,"lng":139.638513,"zip":"2230064"},{"town":"下田町五丁目","koaza":"","lat":35.556609,"lng":139.626957,"zip":"2230064"},{"town":"下田町四丁目","koaza":"","lat":35.557195,"lng":139.63157,"zip":"2230064"},{"town":"下田町六丁目","koaza":"","lat":35.560359,"lng":139.627497,"zip":"2230064"},{"town":"日吉本町一丁目","koaza":"","lat":35.55319,"lng":139.644035,"zip":"2230062"},{"town":"日吉二丁目","koaza":"","lat":35.556378,"lng":139.64635,"zip":"2230061"},{"town":"新吉田東八丁目","koaza":"","lat":35.535826,"lng":139.613867,"zip":"2230058"},{"town":"新吉田東四丁目","koaza":"","lat":35.541548,"lng":139.616403,"zip":"2230058"},{"town":"高田西二丁目","koaza":"","lat":35.551357,"lng":139.618135,"zip":"2230066"},{"town":"高田西四丁目","koaza":"","lat":35.554724,"lng":139.615596,"zip":"2230066"},{"town":"高田西五丁目","koaza":"","lat":35.555662,"lng":139.612359,"zip":"2230066"},{"town":"新吉田東三丁目","koaza":"","lat":35.545918,"lng":139.617574,"zip":"2230058"},{"town":"新吉田町","koaza":"","lat":35.541629,"lng":139.608059,"zip":"2230056"},{"town":"高田西一丁目","koaza":"","lat":35.551021,"lng":139.614689,"zip":"2230066"},{"town":"北新横浜一丁目","koaza":"","lat":35.517211,"lng":139.616036,"zip":"2230059"},{"town":"新横浜二丁目","koaza":"","lat":35.508679,"lng":139.614026,"zip":"2220033"},{"town":"北新横浜二丁目","koaza":"","lat":35.515406,"lng":139.614098,"zip":"2230059"},{"town":"新羽町","koaza":"","lat":35.527623,"lng":139.609352,"zip":"2230057"}]