[{"town":"上山二丁目","koaza":"","lat":35.506129,"lng":139.548462,"zip":"2260012"},{"town":"白山四丁目","koaza":"","lat":35.501279,"lng":139.552857,"zip":"2260006"},{"town":"鴨居町","koaza":"","lat":35.498284,"lng":139.567516,"zip":"2260004"},{"town":"台村町","koaza":"","lat":35.509935,"lng":139.529744,"zip":"2260014"},{"town":"三保町","koaza":"","lat":35.50938,"lng":139.522819,"zip":"2260015"},{"town":"鴨居四丁目","koaza":"","lat":35.505549,"lng":139.566053,"zip":"2260003"},{"town":"竹山一丁目","koaza":"","lat":35.499837,"lng":139.560275,"zip":"2260005"},{"town":"鴨居六丁目","koaza":"","lat":35.503146,"lng":139.559272,"zip":"2260003"},{"town":"白山三丁目","koaza":"","lat":35.504556,"lng":139.552366,"zip":"2260006"},{"town":"上山三丁目","koaza":"","lat":35.501862,"lng":139.548156,"zip":"2260012"},{"town":"寺山町","koaza":"","lat":35.506051,"lng":139.53956,"zip":"2260013"},{"town":"中山町","koaza":"","lat":35.509773,"lng":139.542986,"zip":"2260000"},{"town":"長津田みなみ台三丁目","koaza":"","lat":35.518017,"lng":139.495282,"zip":"2260018"},{"town":"長津田みなみ台四丁目","koaza":"","lat":35.519448,"lng":139.499194,"zip":"2260018"},{"town":"長津田町","koaza":"","lat":35.520386,"lng":139.489116,"zip":"2260026"},{"town":"長津田みなみ台一丁目","koaza":"","lat":35.523904,"lng":139.496445,"zip":"2260018"},{"town":"長津田六丁目","koaza":"","lat":35.528919,"lng":139.498278,"zip":"2260027"},{"town":"長津田五丁目","koaza":"","lat":35.530763,"lng":139.497845,"zip":"2260027"},{"town":"長津田三丁目","koaza":"","lat":35.536465,"lng":139.495854,"zip":"2260027"},{"town":"長津田二丁目","koaza":"","lat":35.534203,"lng":139.498829,"zip":"2260027"},{"town":"竹山二丁目","koaza":"","lat":35.498974,"lng":139.562492,"zip":"2260005"},{"town":"竹山四丁目","koaza":"","lat":35.494206,"lng":139.56144,"zip":"2260005"},{"town":"竹山三丁目","koaza":"","lat":35.497016,"lng":139.560493,"zip":"2260005"},{"town":"鴨居七丁目","koaza":"","lat":35.499012,"lng":139.555636,"zip":"2260003"},{"town":"長津田みなみ台七丁目","koaza":"","lat":35.525262,"lng":139.504707,"zip":"2260018"},{"town":"長津田みなみ台六丁目","koaza":"","lat":35.522782,"lng":139.502904,"zip":"2260018"},{"town":"森の台","koaza":"","lat":35.509345,"lng":139.533047,"zip":"2260029"},{"town":"東本郷五丁目","koaza":"","lat":35.507201,"lng":139.583316,"zip":"2260002"},{"town":"東本郷四丁目","koaza":"","lat":35.508791,"lng":139.579855,"zip":"2260002"},{"town":"東本郷二丁目","koaza":"","lat":35.507654,"lng":139.573652,"zip":"2260002"},{"town":"東本郷六丁目","koaza":"","lat":35.51135,"lng":139.580726,"zip":"2260002"},{"town":"上山一丁目","koaza":"","lat":35.510688,"lng":139.550989,"zip":"2260012"},{"town":"東本郷三丁目","koaza":"","lat":35.505099,"lng":139.576378,"zip":"2260002"},{"town":"白山二丁目","koaza":"","lat":35.506437,"lng":139.556676,"zip":"2260006"},{"town":"霧が丘六丁目","koaza":"","lat":35.512226,"lng":139.498948,"zip":"2260016"},{"town":"東本郷一丁目","koaza":"","lat":35.509602,"lng":139.575436,"zip":"2260002"},{"town":"鴨居二丁目","koaza":"","lat":35.508813,"lng":139.571167,"zip":"2260003"},{"town":"鴨居五丁目","koaza":"","lat":35.506427,"lng":139.562377,"zip":"2260003"},{"town":"鴨居一丁目","koaza":"","lat":35.511464,"lng":139.567919,"zip":"2260003"},{"town":"東本郷町","koaza":"","lat":35.513959,"lng":139.576676,"zip":"2260001"},{"town":"白山一丁目","koaza":"","lat":35.509011,"lng":139.556884,"zip":"2260006"},{"town":"霧が丘四丁目","koaza":"","lat":35.511605,"lng":139.506291,"zip":"2260016"},{"town":"霧が丘五丁目","koaza":"","lat":35.514477,"lng":139.502474,"zip":"2260016"},{"town":"霧が丘三丁目","koaza":"","lat":35.516762,"lng":139.506035,"zip":"2260016"},{"town":"霧が丘一丁目","koaza":"","lat":35.517365,"lng":139.509113,"zip":"2260016"},{"town":"霧が丘二丁目","koaza":"","lat":35.517051,"lng":139.501516,"zip":"2260016"},{"town":"北八朔町","koaza":"","lat":35.527629,"lng":139.539643,"zip":"2260021"},{"town":"青砥町","koaza":"","lat":35.519336,"lng":139.546371,"zip":"2260022"},{"town":"新治町","koaza":"","lat":35.515867,"lng":139.51535,"zip":"2260017"},{"town":"小山町","koaza":"","lat":35.522036,"lng":139.534885,"zip":"2260023"},{"town":"十日市場町","koaza":"","lat":35.523216,"lng":139.516497,"zip":"2260025"},{"town":"西八朔町","koaza":"","lat":35.529592,"lng":139.527753,"zip":"2260024"},{"town":"鴨居三丁目","koaza":"","lat":35.506831,"lng":139.569291,"zip":"2260003"},{"town":"長津田みなみ台五丁目","koaza":"","lat":35.524121,"lng":139.499657,"zip":"2260018"},{"town":"いぶき野","koaza":"","lat":35.530136,"lng":139.507345,"zip":"2260028"},{"town":"長津田一丁目","koaza":"","lat":35.532941,"lng":139.503627,"zip":"2260027"},{"town":"長津田みなみ台二丁目","koaza":"","lat":35.520327,"lng":139.493326,"zip":"2260018"},{"town":"長津田七丁目","koaza":"","lat":35.527855,"lng":139.49343,"zip":"2260027"},{"town":"長津田四丁目","koaza":"","lat":35.534223,"lng":139.493157,"zip":"2260027"},{"town":"中山一丁目","koaza":"","lat":35.516011,"lng":139.539888,"zip":"2260019"},{"town":"中山二丁目","koaza":"","lat":35.514971,"lng":139.547489,"zip":"2260019"},{"town":"中山三丁目","koaza":"","lat":35.514008,"lng":139.54548,"zip":"2260019"},{"town":"中山四丁目","koaza":"","lat":35.511352,"lng":139.545284,"zip":"2260019"},{"town":"中山五丁目","koaza":"","lat":null,"lng":null,"zip":null},{"town":"中山六丁目","koaza":"","lat":null,"lng":null,"zip":null}]