[{"town":"滝頭二丁目","koaza":"","lat":35.420463,"lng":139.620282,"zip":"2350012"},{"town":"杉田五丁目","koaza":"","lat":35.380896,"lng":139.622233,"zip":"2350033"},{"town":"磯子二丁目","koaza":"","lat":35.409136,"lng":139.622878,"zip":"2350016"},{"town":"杉田四丁目","koaza":"","lat":35.38218,"lng":139.61791,"zip":"2350033"},{"town":"新杉田町","koaza":"","lat":35.389684,"lng":139.627799,"zip":"2350032"},{"town":"磯子三丁目","koaza":"","lat":35.403667,"lng":139.619277,"zip":"2350016"},{"town":"広地町","koaza":"","lat":35.418101,"lng":139.622435,"zip":"2350013"},{"town":"新中原町","koaza":"","lat":35.392613,"lng":139.619929,"zip":"2350031"},{"town":"新森町","koaza":"","lat":35.397921,"lng":139.6205,"zip":"2350018"},{"town":"新磯子町","koaza":"","lat":35.404589,"lng":139.633529,"zip":"2350017"},{"town":"久木町","koaza":"","lat":35.413657,"lng":139.622814,"zip":"2350015"},{"town":"坂下町","koaza":"","lat":35.41982,"lng":139.628781,"zip":"2350003"},{"town":"滝頭三丁目","koaza":"","lat":35.419012,"lng":139.624809,"zip":"2350012"},{"town":"丸山一丁目","koaza":"","lat":35.42434,"lng":139.619819,"zip":"2350011"},{"town":"丸山二丁目","koaza":"","lat":35.421965,"lng":139.622651,"zip":"2350011"},{"town":"岡村三丁目","koaza":"","lat":35.420512,"lng":139.61342,"zip":"2350021"},{"town":"岡村四丁目","koaza":"","lat":35.420113,"lng":139.610015,"zip":"2350021"},{"town":"鳳町","koaza":"","lat":35.412412,"lng":139.636193,"zip":"2350006"},{"town":"東町","koaza":"","lat":35.417327,"lng":139.636325,"zip":"2350005"},{"town":"磯子一丁目","koaza":"","lat":35.41199,"lng":139.627157,"zip":"2350016"},{"town":"中浜町","koaza":"","lat":35.415317,"lng":139.625572,"zip":"2350014"},{"town":"原町","koaza":"","lat":35.413627,"lng":139.629422,"zip":"2350008"},{"town":"西町","koaza":"","lat":35.416639,"lng":139.632338,"zip":"2350007"},{"town":"下町","koaza":"","lat":35.418554,"lng":139.629547,"zip":"2350004"},{"town":"杉田坪呑","koaza":"","lat":35.376859,"lng":139.613485,"zip":"2350034"},{"town":"杉田九丁目","koaza":"","lat":35.368455,"lng":139.616185,"zip":"2350033"},{"town":"杉田八丁目","koaza":"","lat":35.372493,"lng":139.615241,"zip":"2350033"},{"town":"杉田七丁目","koaza":"","lat":35.373793,"lng":139.617426,"zip":"2350033"},{"town":"杉田六丁目","koaza":"","lat":35.376158,"lng":139.618223,"zip":"2350033"},{"town":"上中里町","koaza":"","lat":35.37078,"lng":139.608274,"zip":"2350042"},{"town":"氷取沢町","koaza":"","lat":35.360585,"lng":139.603285,"zip":"2350043"},{"town":"栗木二丁目","koaza":"","lat":35.380239,"lng":139.604696,"zip":"2350041"},{"town":"峰町","koaza":"","lat":35.365723,"lng":139.599137,"zip":"2350044"},{"town":"栗木一丁目","koaza":"","lat":35.38199,"lng":139.606582,"zip":"2350041"},{"town":"杉田二丁目","koaza":"","lat":35.38105,"lng":139.609728,"zip":"2350033"},{"town":"杉田三丁目","koaza":"","lat":35.379885,"lng":139.6143,"zip":"2350033"},{"town":"中原一丁目","koaza":"","lat":35.390339,"lng":139.614868,"zip":"2350036"},{"town":"中原四丁目","koaza":"","lat":35.385401,"lng":139.612654,"zip":"2350036"},{"town":"森六丁目","koaza":"","lat":35.389702,"lng":139.609486,"zip":"2350023"},{"town":"中原三丁目","koaza":"","lat":35.388457,"lng":139.612316,"zip":"2350036"},{"town":"森五丁目","koaza":"","lat":35.391936,"lng":139.60666,"zip":"2350023"},{"town":"洋光台四丁目","koaza":"","lat":35.377395,"lng":139.599996,"zip":"2350045"},{"town":"栗木三丁目","koaza":"","lat":35.375718,"lng":139.607435,"zip":"2350041"},{"town":"杉田一丁目","koaza":"","lat":35.384538,"lng":139.61748,"zip":"2350033"},{"town":"中原二丁目","koaza":"","lat":35.387416,"lng":139.616354,"zip":"2350036"},{"town":"田中一丁目","koaza":"","lat":35.385202,"lng":139.605497,"zip":"2350035"},{"town":"田中二丁目","koaza":"","lat":35.38265,"lng":139.601492,"zip":"2350035"},{"town":"洋光台六丁目","koaza":"","lat":35.371893,"lng":139.599792,"zip":"2350045"},{"town":"洋光台五丁目","koaza":"","lat":35.375234,"lng":139.593605,"zip":"2350045"},{"town":"森三丁目","koaza":"","lat":35.39337,"lng":139.613524,"zip":"2350023"},{"town":"森一丁目","koaza":"","lat":35.39826,"lng":139.616167,"zip":"2350023"},{"town":"森が丘二丁目","koaza":"","lat":35.398673,"lng":139.600502,"zip":"2350024"},{"town":"森が丘一丁目","koaza":"","lat":35.39999,"lng":139.602396,"zip":"2350024"},{"town":"洋光台一丁目","koaza":"","lat":35.385642,"lng":139.598405,"zip":"2350045"},{"town":"洋光台二丁目","koaza":"","lat":35.383684,"lng":139.591977,"zip":"2350045"},{"town":"洋光台三丁目","koaza":"","lat":35.381401,"lng":139.596638,"zip":"2350045"},{"town":"汐見台二丁目","koaza":"","lat":35.400797,"lng":139.609963,"zip":"2350022"},{"town":"磯子八丁目","koaza":"","lat":35.415726,"lng":139.619854,"zip":"2350016"},{"town":"磯子四丁目","koaza":"","lat":35.406836,"lng":139.617437,"zip":"2350016"},{"town":"磯子七丁目","koaza":"","lat":35.41189,"lng":139.617926,"zip":"2350016"},{"town":"岡村一丁目","koaza":"","lat":35.41571,"lng":139.617321,"zip":"2350021"},{"town":"磯子台","koaza":"","lat":35.403579,"lng":139.614804,"zip":"2350019"},{"town":"磯子五丁目","koaza":"","lat":35.40786,"lng":139.615082,"zip":"2350016"},{"town":"磯子六丁目","koaza":"","lat":35.40966,"lng":139.614503,"zip":"2350016"},{"town":"岡村二丁目","koaza":"","lat":35.416073,"lng":139.614118,"zip":"2350021"},{"town":"岡村六丁目","koaza":"","lat":35.415037,"lng":139.610607,"zip":"2350021"},{"town":"岡村五丁目","koaza":"","lat":35.414256,"lng":139.607474,"zip":"2350021"},{"town":"汐見台三丁目","koaza":"","lat":35.400713,"lng":139.605721,"zip":"2350022"},{"town":"汐見台一丁目","koaza":"","lat":35.404323,"lng":139.610134,"zip":"2350022"},{"town":"森四丁目","koaza":"","lat":35.395413,"lng":139.606339,"zip":"2350023"},{"town":"森二丁目","koaza":"","lat":35.398134,"lng":139.613504,"zip":"2350023"},{"town":"岡村八丁目","koaza":"","lat":35.409619,"lng":139.608724,"zip":"2350021"},{"town":"岡村七丁目","koaza":"","lat":35.411841,"lng":139.612146,"zip":"2350021"},{"town":"上町","koaza":"","lat":35.42512,"lng":139.626065,"zip":"2350001"},{"town":"馬場町","koaza":"","lat":35.421985,"lng":139.627512,"zip":"2350002"},{"town":"滝頭一丁目","koaza":"","lat":35.422233,"lng":139.616384,"zip":"2350012"}]