[{"town":"仏向西","koaza":"","lat":35.461988,"lng":139.571635,"zip":"2400046"},{"town":"境木町","koaza":"","lat":35.44095,"lng":139.563425,"zip":"2400034"},{"town":"新桜ケ丘一丁目","koaza":"","lat":35.449193,"lng":139.56467,"zip":"2400036"},{"town":"明神台","koaza":"","lat":35.457643,"lng":139.589206,"zip":"2400007"},{"town":"境木本町","koaza":"","lat":35.438673,"lng":139.565183,"zip":"2400033"},{"town":"法泉二丁目","koaza":"","lat":35.447572,"lng":139.569024,"zip":"2400032"},{"town":"藤塚町","koaza":"","lat":35.44998,"lng":139.572464,"zip":"2400031"},{"town":"瀬戸ケ谷町","koaza":"","lat":35.442253,"lng":139.5904,"zip":"2400024"},{"town":"保土ケ谷町二丁目","koaza":"","lat":35.445688,"lng":139.58632,"zip":"2400021"},{"town":"帷子町二丁目","koaza":"","lat":35.445906,"lng":139.596832,"zip":"2400013"},{"town":"権太坂三丁目","koaza":"","lat":35.435094,"lng":139.57442,"zip":"2400026"},{"town":"法泉一丁目","koaza":"","lat":35.446447,"lng":139.573933,"zip":"2400032"},{"town":"権太坂二丁目","koaza":"","lat":35.440881,"lng":139.573918,"zip":"2400026"},{"town":"今井町","koaza":"","lat":35.44757,"lng":139.555063,"zip":"2400035"},{"town":"帷子町一丁目","koaza":"","lat":35.447827,"lng":139.598675,"zip":"2400013"},{"town":"西久保町","koaza":"","lat":35.449267,"lng":139.602178,"zip":"2400022"},{"town":"岩間町二丁目","koaza":"","lat":35.450282,"lng":139.600499,"zip":"2400004"},{"town":"岩間町一丁目","koaza":"","lat":35.452767,"lng":139.602734,"zip":"2400004"},{"town":"桜ケ丘一丁目","koaza":"","lat":35.451764,"lng":139.592244,"zip":"2400011"},{"town":"宮田町一丁目","koaza":"","lat":35.460108,"lng":139.601849,"zip":"2400002"},{"town":"月見台","koaza":"","lat":35.449224,"lng":139.596393,"zip":"2400012"},{"town":"星川二丁目","koaza":"","lat":35.45937,"lng":139.591723,"zip":"2400006"},{"town":"神戸町","koaza":"","lat":35.453202,"lng":139.59913,"zip":"2400005"},{"town":"鎌谷町","koaza":"","lat":35.464839,"lng":139.602282,"zip":"2400063"},{"town":"峰岡町二丁目","koaza":"","lat":35.463985,"lng":139.596143,"zip":"2400064"},{"town":"峰岡町一丁目","koaza":"","lat":35.461287,"lng":139.599321,"zip":"2400064"},{"town":"天王町二丁目","koaza":"","lat":35.455465,"lng":139.600884,"zip":"2400003"},{"town":"岩井町","koaza":"","lat":35.44351,"lng":139.600203,"zip":"2400023"},{"town":"保土ケ谷町一丁目","koaza":"","lat":35.444504,"lng":139.593949,"zip":"2400021"},{"town":"霞台","koaza":"","lat":35.447466,"lng":139.5912,"zip":"2400014"},{"town":"岩崎町","koaza":"","lat":35.44802,"lng":139.585284,"zip":"2400015"},{"town":"星川一丁目","koaza":"","lat":35.457147,"lng":139.594542,"zip":"2400006"},{"town":"星川三丁目","koaza":"","lat":35.459771,"lng":139.587182,"zip":"2400006"},{"town":"桜ケ丘二丁目","koaza":"","lat":35.451853,"lng":139.587367,"zip":"2400011"},{"town":"花見台","koaza":"","lat":35.45542,"lng":139.585306,"zip":"2400017"},{"town":"天王町一丁目","koaza":"","lat":35.456548,"lng":139.603353,"zip":"2400003"},{"town":"川辺町","koaza":"","lat":35.459462,"lng":139.597138,"zip":"2400001"},{"town":"法泉三丁目","koaza":"","lat":35.444631,"lng":139.568659,"zip":"2400032"},{"town":"狩場町","koaza":"","lat":35.439327,"lng":139.580132,"zip":"2400025"},{"town":"初音ケ丘","koaza":"","lat":35.449573,"lng":139.580368,"zip":"2400016"},{"town":"保土ケ谷町三丁目","koaza":"","lat":35.446157,"lng":139.581468,"zip":"2400021"},{"town":"権太坂一丁目","koaza":"","lat":35.441985,"lng":139.570773,"zip":"2400026"},{"town":"宮田町二丁目","koaza":"","lat":35.459695,"lng":139.603266,"zip":"2400002"},{"town":"宮田町三丁目","koaza":"","lat":35.459504,"lng":139.605051,"zip":"2400002"},{"town":"和田一丁目","koaza":"","lat":35.463812,"lng":139.589256,"zip":"2400065"},{"town":"和田二丁目","koaza":"","lat":35.465738,"lng":139.586769,"zip":"2400065"},{"town":"上星川一丁目","koaza":"","lat":35.469375,"lng":139.581089,"zip":"2400042"},{"town":"仏向町","koaza":"","lat":35.458586,"lng":139.575511,"zip":"2400044"},{"town":"峰岡町三丁目","koaza":"","lat":35.466118,"lng":139.591666,"zip":"2400064"},{"town":"常盤台","koaza":"","lat":35.47345,"lng":139.590898,"zip":"2400067"},{"town":"岡沢町","koaza":"","lat":35.470756,"lng":139.598262,"zip":"2400062"},{"town":"峰沢町","koaza":"","lat":35.478931,"lng":139.596442,"zip":"2400061"},{"town":"新桜ケ丘二丁目","koaza":"","lat":35.453258,"lng":139.565134,"zip":"2400036"},{"town":"上星川三丁目","koaza":"","lat":35.468896,"lng":139.57746,"zip":"2400042"},{"town":"坂本町","koaza":"","lat":35.464762,"lng":139.577829,"zip":"2400043"},{"town":"川島町","koaza":"","lat":35.469705,"lng":139.566541,"zip":"2400045"},{"town":"上星川二丁目","koaza":"","lat":35.472426,"lng":139.578598,"zip":"2400042"},{"town":"東川島町","koaza":"","lat":35.476753,"lng":139.576372,"zip":"2400041"},{"town":"釜台町","koaza":"","lat":35.470617,"lng":139.583724,"zip":"2400066"},{"town":"上菅田町","koaza":"","lat":35.488373,"lng":139.567959,"zip":"2400051"},{"town":"西谷町","koaza":"","lat":35.477694,"lng":139.568737,"zip":"2400052"},{"town":"新井町","koaza":"","lat":35.489277,"lng":139.55702,"zip":"2400053"},{"town":"西谷一丁目","koaza":"","lat":null,"lng":null,"zip":null},{"town":"西谷二丁目","koaza":"","lat":null,"lng":null,"zip":null},{"town":"西谷三丁目","koaza":"","lat":null,"lng":null,"zip":null},{"town":"西谷四丁目","koaza":"","lat":null,"lng":null,"zip":null}]