[{"town":"北幸一丁目","koaza":"","lat":35.467075,"lng":139.619367,"zip":"2200004"},{"town":"伊勢町一丁目","koaza":"","lat":35.450884,"lng":139.623265,"zip":"2200045"},{"town":"東ケ丘","koaza":"","lat":35.44447,"lng":139.624612,"zip":"2200033"},{"town":"伊勢町二丁目","koaza":"","lat":35.452434,"lng":139.621402,"zip":"2200045"},{"town":"西戸部町一丁目","koaza":"","lat":35.447551,"lng":139.620034,"zip":"2200046"},{"town":"御所山町","koaza":"","lat":35.45447,"lng":139.621782,"zip":"2200043"},{"town":"赤門町二丁目","koaza":"","lat":35.442951,"lng":139.621182,"zip":"2200034"},{"town":"老松町","koaza":"","lat":35.447269,"lng":139.624164,"zip":"2200032"},{"town":"戸部本町","koaza":"","lat":35.456889,"lng":139.620749,"zip":"2200041"},{"town":"西戸部町二丁目","koaza":"","lat":35.449363,"lng":139.618294,"zip":"2200046"},{"town":"桜木町七丁目","koaza":"","lat":35.459054,"lng":139.623485,"zip":"2200021"},{"town":"南幸一丁目","koaza":"","lat":35.465811,"lng":139.620623,"zip":"2200005"},{"town":"高島二丁目","koaza":"","lat":35.463443,"lng":139.622052,"zip":"2200011"},{"town":"平沼一丁目","koaza":"","lat":35.460503,"lng":139.619645,"zip":"2200023"},{"town":"みなとみらい五丁目","koaza":"","lat":35.461726,"lng":139.629806,"zip":"2200012"},{"town":"みなとみらい三丁目","koaza":"","lat":35.457124,"lng":139.630645,"zip":"2200012"},{"town":"みなとみらい二丁目","koaza":"","lat":35.455154,"lng":139.631835,"zip":"2200012"},{"town":"みなとみらい一丁目","koaza":"","lat":35.46037,"lng":139.635639,"zip":"2200012"},{"town":"みなとみらい六丁目","koaza":"","lat":35.464978,"lng":139.630045,"zip":"2200012"},{"town":"花咲町四丁目","koaza":"","lat":35.453281,"lng":139.627202,"zip":"2200022"},{"town":"戸部町二丁目","koaza":"","lat":35.451771,"lng":139.62435,"zip":"2200042"},{"town":"戸部町一丁目","koaza":"","lat":35.450366,"lng":139.625259,"zip":"2200042"},{"town":"宮崎町","koaza":"","lat":35.450221,"lng":139.626899,"zip":"2200031"},{"town":"桜木町六丁目","koaza":"","lat":35.456576,"lng":139.625746,"zip":"2200021"},{"town":"桜木町五丁目","koaza":"","lat":35.455246,"lng":139.626513,"zip":"2200021"},{"town":"花咲町六丁目","koaza":"","lat":35.456605,"lng":139.624752,"zip":"2200022"},{"town":"高島一丁目","koaza":"","lat":35.461989,"lng":139.625411,"zip":"2200011"},{"town":"紅葉ケ丘","koaza":"","lat":35.452518,"lng":139.625952,"zip":"2200044"},{"town":"花咲町五丁目","koaza":"","lat":35.455015,"lng":139.626183,"zip":"2200022"},{"town":"桜木町四丁目","koaza":"","lat":35.453475,"lng":139.627943,"zip":"2200021"},{"town":"戸部町六丁目","koaza":"","lat":35.456841,"lng":139.623512,"zip":"2200042"},{"town":"戸部町四丁目","koaza":"","lat":35.454275,"lng":139.624133,"zip":"2200042"},{"town":"戸部町五丁目","koaza":"","lat":35.45573,"lng":139.62432,"zip":"2200042"},{"town":"戸部町七丁目","koaza":"","lat":35.457762,"lng":139.622937,"zip":"2200042"},{"town":"花咲町七丁目","koaza":"","lat":35.458046,"lng":139.623585,"zip":"2200022"},{"town":"戸部町三丁目","koaza":"","lat":35.452748,"lng":139.623527,"zip":"2200042"},{"town":"みなとみらい四丁目","koaza":"","lat":35.458842,"lng":139.628056,"zip":"2200012"},{"town":"霞ケ丘","koaza":"","lat":35.44441,"lng":139.618366,"zip":"2200035"},{"town":"境之谷","koaza":"","lat":35.445271,"lng":139.614006,"zip":"2200054"},{"town":"西前町二丁目","koaza":"","lat":35.452526,"lng":139.616948,"zip":"2200052"},{"town":"西戸部町三丁目","koaza":"","lat":35.451257,"lng":139.616654,"zip":"2200046"},{"town":"岡野一丁目","koaza":"","lat":35.462132,"lng":139.615628,"zip":"2200073"},{"town":"東久保町","koaza":"","lat":35.447698,"lng":139.607034,"zip":"2200062"},{"town":"藤棚町二丁目","koaza":"","lat":35.448115,"lng":139.613727,"zip":"2200053"},{"town":"浜松町","koaza":"","lat":35.452792,"lng":139.610604,"zip":"2200055"},{"town":"久保町","koaza":"","lat":35.448813,"lng":139.610989,"zip":"2200061"},{"town":"藤棚町一丁目","koaza":"","lat":35.450023,"lng":139.612702,"zip":"2200053"},{"town":"中央一丁目","koaza":"","lat":35.455039,"lng":139.617005,"zip":"2200051"},{"town":"伊勢町三丁目","koaza":"","lat":35.453659,"lng":139.619307,"zip":"2200045"},{"town":"西前町三丁目","koaza":"","lat":35.451913,"lng":139.616613,"zip":"2200052"},{"town":"中央二丁目","koaza":"","lat":35.45342,"lng":139.614524,"zip":"2200051"},{"town":"浅間町三丁目","koaza":"","lat":35.461605,"lng":139.608043,"zip":"2200072"},{"town":"西平沼町","koaza":"","lat":35.457443,"lng":139.612776,"zip":"2200024"},{"town":"平沼二丁目","koaza":"","lat":35.456881,"lng":139.615056,"zip":"2200023"},{"town":"元久保町","koaza":"","lat":35.444869,"lng":139.606941,"zip":"2200063"},{"town":"南浅間町","koaza":"","lat":35.455945,"lng":139.60825,"zip":"2200074"},{"town":"岡野二丁目","koaza":"","lat":35.460521,"lng":139.612608,"zip":"2200073"},{"town":"浅間町四丁目","koaza":"","lat":35.459419,"lng":139.608141,"zip":"2200072"},{"town":"浅間町五丁目","koaza":"","lat":35.456319,"lng":139.60628,"zip":"2200072"},{"town":"浅間台","koaza":"","lat":35.464431,"lng":139.607614,"zip":"2200071"},{"town":"南幸二丁目","koaza":"","lat":35.463844,"lng":139.617113,"zip":"2200005"},{"town":"浅間町二丁目","koaza":"","lat":35.46345,"lng":139.610398,"zip":"2200072"},{"town":"浅間町一丁目","koaza":"","lat":35.464667,"lng":139.612131,"zip":"2200072"},{"town":"北幸二丁目","koaza":"","lat":35.466413,"lng":139.615958,"zip":"2200004"},{"town":"宮ケ谷","koaza":"","lat":35.467393,"lng":139.607466,"zip":"2200006"},{"town":"北軽井沢","koaza":"","lat":35.470158,"lng":139.609913,"zip":"2200001"},{"town":"南軽井沢","koaza":"","lat":35.468418,"lng":139.611711,"zip":"2200002"},{"town":"楠町","koaza":"","lat":35.467242,"lng":139.613427,"zip":"2200003"}]