[{"town":"錦町","koaza":"","lat":35.422175,"lng":139.673702,"zip":"2310812"},{"town":"本牧間門","koaza":"","lat":35.419016,"lng":139.653948,"zip":"2310825"},{"town":"根岸加曽台","koaza":"","lat":35.42019,"lng":139.644923,"zip":"2310835"},{"town":"本牧三之谷","koaza":"","lat":35.417985,"lng":139.659797,"zip":"2310824"},{"town":"池袋","koaza":"","lat":35.420589,"lng":139.648926,"zip":"2310834"},{"town":"根岸旭台","koaza":"","lat":35.419848,"lng":139.636508,"zip":"2310854"},{"town":"寺久保","koaza":"","lat":35.421513,"lng":139.632578,"zip":"2310855"},{"town":"本牧元町","koaza":"","lat":35.417613,"lng":139.667647,"zip":"2310822"},{"town":"滝之上","koaza":"","lat":35.42218,"lng":139.641804,"zip":"2310837"},{"town":"末吉町四丁目","koaza":"","lat":35.438708,"lng":139.622845,"zip":"2310055"},{"town":"赤門町一丁目","koaza":"","lat":35.442198,"lng":139.622441,"zip":"2310051"},{"town":"本牧大里町","koaza":"","lat":35.416257,"lng":139.662678,"zip":"2310823"},{"town":"豊浦町","koaza":"","lat":35.408973,"lng":139.671255,"zip":"2310814"},{"town":"かもめ町","koaza":"","lat":35.41373,"lng":139.673454,"zip":"2310813"},{"town":"千鳥町","koaza":"","lat":35.412696,"lng":139.645848,"zip":"2310815"},{"town":"根岸町三丁目","koaza":"","lat":35.418231,"lng":139.64041,"zip":"2310836"},{"town":"根岸町二丁目","koaza":"","lat":35.418545,"lng":139.643513,"zip":"2310836"},{"town":"根岸町一丁目","koaza":"","lat":35.419295,"lng":139.647029,"zip":"2310836"},{"town":"新港一丁目","koaza":"","lat":35.453595,"lng":139.642285,"zip":"2310001"},{"town":"新港二丁目","koaza":"","lat":35.45505,"lng":139.638554,"zip":"2310001"},{"town":"内田町","koaza":"","lat":35.453608,"lng":139.631162,"zip":"2310061"},{"town":"万代町三丁目","koaza":"","lat":35.441145,"lng":139.634183,"zip":"2310031"},{"town":"初音町三丁目","koaza":"","lat":35.440799,"lng":139.623588,"zip":"2310053"},{"town":"海岸通一丁目","koaza":"","lat":35.450535,"lng":139.646834,"zip":"2310002"},{"town":"真砂町一丁目","koaza":"","lat":35.443762,"lng":139.637927,"zip":"2310016"},{"town":"相生町六丁目","koaza":"","lat":35.448915,"lng":139.633912,"zip":"2310012"},{"town":"海岸通四丁目","koaza":"","lat":35.450922,"lng":139.638934,"zip":"2310002"},{"town":"伊勢佐木町三丁目","koaza":"","lat":35.442173,"lng":139.629846,"zip":"2310045"},{"town":"太田町六丁目","koaza":"","lat":35.44915,"lng":139.634524,"zip":"2310011"},{"town":"福富町西通","koaza":"","lat":35.445811,"lng":139.630352,"zip":"2310042"},{"town":"本牧ふ頭","koaza":"","lat":35.435525,"lng":139.672692,"zip":"2310811"},{"town":"本牧和田","koaza":"","lat":35.422774,"lng":139.661154,"zip":"2310827"},{"town":"山元町五丁目","koaza":"","lat":35.425014,"lng":139.641647,"zip":"2310851"},{"town":"本牧荒井","koaza":"","lat":35.422081,"lng":139.653879,"zip":"2310826"},{"town":"山元町四丁目","koaza":"","lat":35.426658,"lng":139.639522,"zip":"2310851"},{"town":"和田山","koaza":"","lat":35.425331,"lng":139.662915,"zip":"2310805"},{"town":"北方町二丁目","koaza":"","lat":35.431604,"lng":139.661613,"zip":"2310865"},{"town":"本牧原","koaza":"","lat":35.425177,"lng":139.66725,"zip":"2310821"},{"town":"本牧町二丁目","koaza":"","lat":35.428216,"lng":139.660457,"zip":"2310806"},{"town":"小港町三丁目","koaza":"","lat":35.430468,"lng":139.663617,"zip":"2310802"},{"town":"千代崎町四丁目","koaza":"","lat":35.433596,"lng":139.656534,"zip":"2310864"},{"town":"矢口台","koaza":"","lat":35.423778,"lng":139.648202,"zip":"2310831"},{"town":"小港町二丁目","koaza":"","lat":35.430333,"lng":139.665073,"zip":"2310802"},{"town":"小港町一丁目","koaza":"","lat":35.433471,"lng":139.663533,"zip":"2310802"},{"town":"本牧町一丁目","koaza":"","lat":35.429496,"lng":139.658658,"zip":"2310806"},{"town":"本郷町二丁目","koaza":"","lat":35.432287,"lng":139.656121,"zip":"2310843"},{"town":"本郷町一丁目","koaza":"","lat":35.432415,"lng":139.654537,"zip":"2310843"},{"town":"北方町一丁目","koaza":"","lat":35.433727,"lng":139.658586,"zip":"2310865"},{"town":"千代崎町三丁目","koaza":"","lat":35.434063,"lng":139.655223,"zip":"2310864"},{"town":"上野町二丁目","koaza":"","lat":35.432464,"lng":139.652804,"zip":"2310842"},{"town":"上野町一丁目","koaza":"","lat":35.432107,"lng":139.650952,"zip":"2310842"},{"town":"豆口台","koaza":"","lat":35.423059,"lng":139.645309,"zip":"2310838"},{"town":"大和町二丁目","koaza":"","lat":35.428862,"lng":139.646949,"zip":"2310846"},{"town":"麦田町二丁目","koaza":"","lat":35.43352,"lng":139.647583,"zip":"2310849"},{"town":"麦田町三丁目","koaza":"","lat":35.432737,"lng":139.647986,"zip":"2310849"},{"town":"麦田町四丁目","koaza":"","lat":35.432553,"lng":139.649425,"zip":"2310849"},{"town":"大和町一丁目","koaza":"","lat":35.430885,"lng":139.648403,"zip":"2310846"},{"town":"上野町三丁目","koaza":"","lat":35.43403,"lng":139.651354,"zip":"2310842"},{"town":"妙香寺台","koaza":"","lat":35.433836,"lng":139.649575,"zip":"2310841"},{"town":"立野","koaza":"","lat":35.428879,"lng":139.648318,"zip":"2310845"},{"town":"麦田町一丁目","koaza":"","lat":35.434227,"lng":139.646231,"zip":"2310849"},{"town":"大平町","koaza":"","lat":35.428972,"lng":139.634997,"zip":"2310859"},{"town":"千代崎町二丁目","koaza":"","lat":35.43415,"lng":139.653965,"zip":"2310864"},{"town":"新山下三丁目","koaza":"","lat":35.438364,"lng":139.663412,"zip":"2310801"},{"town":"上野町四丁目","koaza":"","lat":35.435741,"lng":139.649861,"zip":"2310842"},{"town":"新山下二丁目","koaza":"","lat":35.438791,"lng":139.659638,"zip":"2310801"},{"town":"新山下一丁目","koaza":"","lat":35.44137,"lng":139.658001,"zip":"2310801"},{"town":"元町四丁目","koaza":"","lat":35.439616,"lng":139.647243,"zip":"2310861"},{"town":"元町三丁目","koaza":"","lat":35.439355,"lng":139.648134,"zip":"2310861"},{"town":"元町二丁目","koaza":"","lat":35.439771,"lng":139.649563,"zip":"2310861"},{"town":"元町一丁目","koaza":"","lat":35.439668,"lng":139.650644,"zip":"2310861"},{"town":"西之谷町","koaza":"","lat":35.428946,"lng":139.650699,"zip":"2310844"},{"town":"山元町三丁目","koaza":"","lat":35.428314,"lng":139.638163,"zip":"2310851"},{"town":"本郷町三丁目","koaza":"","lat":35.429083,"lng":139.654824,"zip":"2310843"},{"town":"山元町二丁目","koaza":"","lat":35.430445,"lng":139.638131,"zip":"2310851"},{"town":"西竹之丸","koaza":"","lat":35.42884,"lng":139.640322,"zip":"2310852"},{"town":"柏葉","koaza":"","lat":35.432118,"lng":139.64301,"zip":"2310866"},{"town":"石川町四丁目","koaza":"","lat":35.43674,"lng":139.639449,"zip":"2310868"},{"town":"松影町一丁目","koaza":"","lat":35.439949,"lng":139.641464,"zip":"2310025"},{"town":"山元町一丁目","koaza":"","lat":35.431826,"lng":139.639514,"zip":"2310851"},{"town":"千代崎町一丁目","koaza":"","lat":35.434147,"lng":139.652788,"zip":"2310864"},{"town":"石川町五丁目","koaza":"","lat":35.436131,"lng":139.637706,"zip":"2310868"},{"town":"石川町三丁目","koaza":"","lat":35.436182,"lng":139.641872,"zip":"2310868"},{"town":"寿町三丁目","koaza":"","lat":35.438983,"lng":139.638677,"zip":"2310026"},{"town":"松影町四丁目","koaza":"","lat":35.437619,"lng":139.638778,"zip":"2310025"},{"town":"諏訪町","koaza":"","lat":35.436795,"lng":139.653511,"zip":"2310863"},{"town":"松影町三丁目","koaza":"","lat":35.438196,"lng":139.639557,"zip":"2310025"},{"town":"松影町二丁目","koaza":"","lat":35.438666,"lng":139.640664,"zip":"2310025"},{"town":"寿町二丁目","koaza":"","lat":35.439662,"lng":139.639652,"zip":"2310026"},{"town":"扇町三丁目","koaza":"","lat":35.43982,"lng":139.637737,"zip":"2310027"},{"town":"石川町二丁目","koaza":"","lat":35.437498,"lng":139.643066,"zip":"2310868"},{"town":"扇町四丁目","koaza":"","lat":35.438699,"lng":139.636799,"zip":"2310027"},{"town":"寿町四丁目","koaza":"","lat":35.437997,"lng":139.637783,"zip":"2310026"},{"town":"寿町一丁目","koaza":"","lat":35.440684,"lng":139.640644,"zip":"2310026"},{"town":"万代町二丁目","koaza":"","lat":35.442024,"lng":139.63529,"zip":"2310031"},{"town":"山下町","koaza":"","lat":35.446005,"lng":139.656952,"zip":"2310023"},{"town":"弁天通一丁目","koaza":"","lat":35.446697,"lng":139.640327,"zip":"2310007"},{"town":"南仲通一丁目","koaza":"","lat":35.447134,"lng":139.640677,"zip":"2310006"},{"town":"尾上町一丁目","koaza":"","lat":35.444339,"lng":139.63843,"zip":"2310015"},{"town":"本町五丁目","koaza":"","lat":35.450025,"lng":139.636455,"zip":"2310005"},{"town":"本町四丁目","koaza":"","lat":35.449323,"lng":139.637833,"zip":"2310005"},{"town":"不老町三丁目","koaza":"","lat":35.440492,"lng":139.635337,"zip":"2310032"},{"town":"不老町二丁目","koaza":"","lat":35.441226,"lng":139.636367,"zip":"2310032"},{"town":"翁町二丁目","koaza":"","lat":35.439906,"lng":139.636331,"zip":"2310028"},{"town":"万代町一丁目","koaza":"","lat":35.442845,"lng":139.636465,"zip":"2310031"},{"town":"真砂町二丁目","koaza":"","lat":35.44442,"lng":139.636846,"zip":"2310016"},{"town":"末広町一丁目","koaza":"","lat":35.444793,"lng":139.634174,"zip":"2310046"},{"town":"蓬莱町二丁目","koaza":"","lat":35.442714,"lng":139.63454,"zip":"2310048"},{"town":"羽衣町二丁目","koaza":"","lat":35.443489,"lng":139.633665,"zip":"2310047"},{"town":"住吉町四丁目","koaza":"","lat":35.447007,"lng":139.636208,"zip":"2310013"},{"town":"尾上町二丁目","koaza":"","lat":35.444941,"lng":139.637349,"zip":"2310015"},{"town":"港町二丁目","koaza":"","lat":35.444026,"lng":139.636412,"zip":"2310017"},{"town":"港町三丁目","koaza":"","lat":35.444672,"lng":139.635577,"zip":"2310017"},{"town":"末広町二丁目","koaza":"","lat":35.444016,"lng":139.633093,"zip":"2310046"},{"town":"大芝台","koaza":"","lat":35.427202,"lng":139.633059,"zip":"2310858"},{"town":"塚越","koaza":"","lat":35.424045,"lng":139.630706,"zip":"2310857"},{"town":"簑沢","koaza":"","lat":35.424858,"lng":139.635036,"zip":"2310856"},{"town":"打越","koaza":"","lat":35.434276,"lng":139.638054,"zip":"2310867"},{"town":"山手町","koaza":"","lat":35.437172,"lng":139.648825,"zip":"2310862"},{"town":"竹之丸","koaza":"","lat":35.429275,"lng":139.643718,"zip":"2310847"},{"town":"鷺山","koaza":"","lat":35.431929,"lng":139.646571,"zip":"2310848"},{"town":"吉浜町","koaza":"","lat":35.439301,"lng":139.6431,"zip":"2310024"},{"town":"本牧緑ケ丘","koaza":"","lat":35.424289,"lng":139.651495,"zip":"2310832"},{"town":"本牧満坂","koaza":"","lat":35.425176,"lng":139.654697,"zip":"2310833"},{"town":"千歳町","koaza":"","lat":35.437345,"lng":139.634118,"zip":"2310035"},{"town":"長者町四丁目","koaza":"","lat":35.440529,"lng":139.63336,"zip":"2310033"},{"town":"山吹町","koaza":"","lat":35.440075,"lng":139.631641,"zip":"2310038"},{"town":"石川町一丁目","koaza":"","lat":35.437669,"lng":139.644944,"zip":"2310868"},{"town":"元町五丁目","koaza":"","lat":35.438499,"lng":139.646083,"zip":"2310861"},{"town":"根岸台","koaza":"","lat":35.422934,"lng":139.63831,"zip":"2310853"},{"town":"仲尾台","koaza":"","lat":35.424992,"lng":139.644391,"zip":"2310839"},{"town":"山田町","koaza":"","lat":35.438282,"lng":139.633335,"zip":"2310036"},{"town":"富士見町","koaza":"","lat":35.439176,"lng":139.631914,"zip":"2310037"},{"town":"長者町三丁目","koaza":"","lat":35.439606,"lng":139.634184,"zip":"2310033"},{"town":"弥生町四丁目","koaza":"","lat":35.43814,"lng":139.626028,"zip":"2310058"},{"town":"長者町一丁目","koaza":"","lat":35.4379,"lng":139.636333,"zip":"2310033"},{"town":"長者町二丁目","koaza":"","lat":35.438838,"lng":139.635234,"zip":"2310033"},{"town":"弥生町三丁目","koaza":"","lat":35.4391,"lng":139.627787,"zip":"2310058"},{"town":"三吉町","koaza":"","lat":35.436852,"lng":139.634538,"zip":"2310034"},{"town":"曙町四丁目","koaza":"","lat":35.438668,"lng":139.625938,"zip":"2310057"},{"town":"伊勢佐木町六丁目","koaza":"","lat":35.4391,"lng":139.625366,"zip":"2310045"},{"town":"港町一丁目","koaza":"","lat":35.443302,"lng":139.637573,"zip":"2310017"},{"town":"常盤町一丁目","koaza":"","lat":35.444897,"lng":139.638893,"zip":"2310014"},{"town":"末広町三丁目","koaza":"","lat":35.443301,"lng":139.632102,"zip":"2310046"},{"town":"南仲通五丁目","koaza":"","lat":35.449248,"lng":139.636323,"zip":"2310006"},{"town":"蓬莱町三丁目","koaza":"","lat":35.441964,"lng":139.633422,"zip":"2310048"},{"town":"羽衣町三丁目","koaza":"","lat":35.442743,"lng":139.63256,"zip":"2310047"},{"town":"長者町五丁目","koaza":"","lat":35.441482,"lng":139.632139,"zip":"2310033"},{"town":"伊勢佐木町一丁目","koaza":"","lat":35.444763,"lng":139.633314,"zip":"2310045"},{"town":"港町四丁目","koaza":"","lat":35.445376,"lng":139.634778,"zip":"2310017"},{"town":"羽衣町一丁目","koaza":"","lat":35.444356,"lng":139.634819,"zip":"2310047"},{"town":"蓬莱町一丁目","koaza":"","lat":35.443458,"lng":139.635668,"zip":"2310048"},{"town":"弥生町一丁目","koaza":"","lat":35.440508,"lng":139.630853,"zip":"2310058"},{"town":"弥生町二丁目","koaza":"","lat":35.440084,"lng":139.629806,"zip":"2310058"},{"town":"曙町一丁目","koaza":"","lat":35.441403,"lng":139.630287,"zip":"2310057"},{"town":"曙町三丁目","koaza":"","lat":35.439694,"lng":139.627638,"zip":"2310057"},{"town":"曙町二丁目","koaza":"","lat":35.440669,"lng":139.629129,"zip":"2310057"},{"town":"太田町二丁目","koaza":"","lat":35.44683,"lng":139.63889,"zip":"2310011"},{"town":"若葉町一丁目","koaza":"","lat":35.44276,"lng":139.629202,"zip":"2310056"},{"town":"若葉町二丁目","koaza":"","lat":35.44186,"lng":139.628322,"zip":"2310056"},{"town":"若葉町三丁目","koaza":"","lat":35.440652,"lng":139.626918,"zip":"2310056"},{"town":"扇町一丁目","koaza":"","lat":35.441459,"lng":139.639454,"zip":"2310027"},{"town":"長者町七丁目","koaza":"","lat":35.442905,"lng":139.630333,"zip":"2310033"},{"town":"長者町六丁目","koaza":"","lat":35.442422,"lng":139.631346,"zip":"2310033"},{"town":"伊勢佐木町二丁目","koaza":"","lat":35.443468,"lng":139.631099,"zip":"2310045"},{"town":"弥生町五丁目","koaza":"","lat":35.437433,"lng":139.624382,"zip":"2310058"},{"town":"曙町五丁目","koaza":"","lat":35.437405,"lng":139.623167,"zip":"2310057"},{"town":"不老町一丁目","koaza":"","lat":35.442274,"lng":139.637314,"zip":"2310032"},{"town":"伊勢佐木町七丁目","koaza":"","lat":35.438089,"lng":139.623352,"zip":"2310045"},{"town":"伊勢佐木町五丁目","koaza":"","lat":35.440252,"lng":139.627348,"zip":"2310045"},{"town":"伊勢佐木町四丁目","koaza":"","lat":35.441284,"lng":139.628593,"zip":"2310045"},{"town":"末吉町一丁目","koaza":"","lat":35.442771,"lng":139.627669,"zip":"2310055"},{"town":"長者町九丁目","koaza":"","lat":35.444404,"lng":139.628569,"zip":"2310033"},{"town":"末吉町二丁目","koaza":"","lat":35.441098,"lng":139.626335,"zip":"2310055"},{"town":"黄金町一丁目","koaza":"","lat":35.441578,"lng":139.625754,"zip":"2310054"},{"town":"初音町一丁目","koaza":"","lat":35.442141,"lng":139.624933,"zip":"2310053"},{"town":"日ノ出町一丁目","koaza":"","lat":35.444881,"lng":139.626962,"zip":"2310066"},{"town":"英町","koaza":"","lat":35.441864,"lng":139.623553,"zip":"2310052"},{"town":"初音町二丁目","koaza":"","lat":35.441555,"lng":139.624411,"zip":"2310053"},{"town":"日ノ出町二丁目","koaza":"","lat":35.443018,"lng":139.62576,"zip":"2310066"},{"town":"翁町一丁目","koaza":"","lat":35.441547,"lng":139.638084,"zip":"2310028"},{"town":"扇町二丁目","koaza":"","lat":35.440558,"lng":139.638837,"zip":"2310027"},{"town":"元浜町二丁目","koaza":"","lat":35.448994,"lng":139.640592,"zip":"2310004"},{"town":"本牧宮原","koaza":"","lat":35.428464,"lng":139.664014,"zip":"2310804"},{"town":"本牧十二天","koaza":"","lat":35.430745,"lng":139.666926,"zip":"2310803"},{"town":"海岸通三丁目","koaza":"","lat":35.450177,"lng":139.639943,"zip":"2310002"},{"town":"日本大通","koaza":"","lat":35.446371,"lng":139.642363,"zip":"2310021"},{"town":"住吉町二丁目","koaza":"","lat":35.445936,"lng":139.63819,"zip":"2310013"},{"town":"住吉町一丁目","koaza":"","lat":35.445338,"lng":139.639258,"zip":"2310013"},{"town":"本町一丁目","koaza":"","lat":35.447607,"lng":139.641055,"zip":"2310005"},{"town":"北仲通一丁目","koaza":"","lat":35.448044,"lng":139.641408,"zip":"2310003"},{"town":"元浜町一丁目","koaza":"","lat":35.44842,"lng":139.641714,"zip":"2310004"},{"town":"海岸通二丁目","koaza":"","lat":35.449546,"lng":139.641132,"zip":"2310002"},{"town":"常盤町三丁目","koaza":"","lat":35.446013,"lng":139.636818,"zip":"2310014"},{"town":"常盤町二丁目","koaza":"","lat":35.445474,"lng":139.637808,"zip":"2310014"},{"town":"横浜公園","koaza":"","lat":35.443569,"lng":139.640159,"zip":"2310022"},{"town":"相生町二丁目","koaza":"","lat":35.446395,"lng":139.638558,"zip":"2310012"},{"town":"尾上町三丁目","koaza":"","lat":35.445495,"lng":139.636374,"zip":"2310015"},{"town":"住吉町三丁目","koaza":"","lat":35.446482,"lng":139.637193,"zip":"2310013"},{"town":"港町五丁目","koaza":"","lat":35.446419,"lng":139.633855,"zip":"2310017"},{"town":"相生町三丁目","koaza":"","lat":35.446943,"lng":139.637552,"zip":"2310012"},{"town":"相生町一丁目","koaza":"","lat":35.445792,"lng":139.639661,"zip":"2310012"},{"town":"太田町一丁目","koaza":"","lat":35.446251,"lng":139.63998,"zip":"2310011"},{"town":"相生町四丁目","koaza":"","lat":35.447472,"lng":139.636533,"zip":"2310012"},{"town":"弁天通二丁目","koaza":"","lat":35.447272,"lng":139.639233,"zip":"2310007"},{"town":"太田町四丁目","koaza":"","lat":35.447913,"lng":139.63684,"zip":"2310011"},{"town":"弁天通四丁目","koaza":"","lat":35.448344,"lng":139.637133,"zip":"2310007"},{"town":"相生町五丁目","koaza":"","lat":35.448034,"lng":139.63548,"zip":"2310012"},{"town":"住吉町五丁目","koaza":"","lat":35.447605,"lng":139.635162,"zip":"2310013"},{"town":"尾上町五丁目","koaza":"","lat":35.446785,"lng":139.634204,"zip":"2310015"},{"town":"常盤町五丁目","koaza":"","lat":35.447201,"lng":139.634802,"zip":"2310014"},{"town":"尾上町六丁目","koaza":"","lat":35.447894,"lng":139.633232,"zip":"2310015"},{"town":"北仲通二丁目","koaza":"","lat":35.448632,"lng":139.640321,"zip":"2310003"},{"town":"北仲通三丁目","koaza":"","lat":35.44918,"lng":139.639239,"zip":"2310003"},{"town":"元浜町三丁目","koaza":"","lat":35.449544,"lng":139.639489,"zip":"2310004"},{"town":"北仲通四丁目","koaza":"","lat":35.449733,"lng":139.638136,"zip":"2310003"},{"town":"元浜町四丁目","koaza":"","lat":35.450084,"lng":139.638396,"zip":"2310004"},{"town":"本町三丁目","koaza":"","lat":35.448751,"lng":139.638933,"zip":"2310005"},{"town":"南仲通四丁目","koaza":"","lat":35.448819,"lng":139.637465,"zip":"2310006"},{"town":"太田町三丁目","koaza":"","lat":35.447376,"lng":139.637877,"zip":"2310011"},{"town":"弁天通三丁目","koaza":"","lat":35.447807,"lng":139.638208,"zip":"2310007"},{"town":"南仲通三丁目","koaza":"","lat":35.448263,"lng":139.638565,"zip":"2310006"},{"town":"南仲通二丁目","koaza":"","lat":35.447711,"lng":139.639596,"zip":"2310006"},{"town":"本町二丁目","koaza":"","lat":35.448192,"lng":139.639983,"zip":"2310005"},{"town":"太田町五丁目","koaza":"","lat":35.448465,"lng":139.635783,"zip":"2310011"},{"town":"弁天通五丁目","koaza":"","lat":35.448865,"lng":139.636055,"zip":"2310007"},{"town":"野毛町三丁目","koaza":"","lat":35.448489,"lng":139.628434,"zip":"2310064"},{"town":"野毛町二丁目","koaza":"","lat":35.448017,"lng":139.629493,"zip":"2310064"},{"town":"常盤町六丁目","koaza":"","lat":35.448205,"lng":139.633642,"zip":"2310014"},{"town":"住吉町六丁目","koaza":"","lat":35.448416,"lng":139.633948,"zip":"2310013"},{"town":"弁天通六丁目","koaza":"","lat":35.449353,"lng":139.635124,"zip":"2310007"},{"town":"海岸通五丁目","koaza":"","lat":35.451842,"lng":139.637483,"zip":"2310002"},{"town":"北仲通五丁目","koaza":"","lat":35.45086,"lng":139.636626,"zip":"2310003"},{"town":"尾上町四丁目","koaza":"","lat":35.44603,"lng":139.635396,"zip":"2310015"},{"town":"常盤町四丁目","koaza":"","lat":35.446524,"lng":139.635852,"zip":"2310014"},{"town":"福富町仲通","koaza":"","lat":35.445055,"lng":139.63125,"zip":"2310043"},{"town":"真砂町四丁目","koaza":"","lat":35.445653,"lng":139.634993,"zip":"2310016"},{"town":"真砂町三丁目","koaza":"","lat":35.445026,"lng":139.635934,"zip":"2310016"},{"town":"宮川町一丁目","koaza":"","lat":35.446302,"lng":139.629553,"zip":"2310065"},{"town":"宮川町三丁目","koaza":"","lat":35.446781,"lng":139.627285,"zip":"2310065"},{"town":"長者町八丁目","koaza":"","lat":35.443628,"lng":139.629561,"zip":"2310033"},{"town":"福富町東通","koaza":"","lat":35.444656,"lng":139.632017,"zip":"2310044"},{"town":"末吉町三丁目","koaza":"","lat":35.43995,"lng":139.625149,"zip":"2310055"},{"town":"黄金町二丁目","koaza":"","lat":35.440551,"lng":139.624493,"zip":"2310054"},{"town":"桜木町二丁目","koaza":"","lat":35.450534,"lng":139.630324,"zip":"2310062"},{"town":"本町六丁目","koaza":"","lat":35.450416,"lng":139.634557,"zip":"2310005"},{"town":"北仲通六丁目","koaza":"","lat":35.451553,"lng":139.63467,"zip":"2310003"},{"town":"花咲町一丁目","koaza":"","lat":35.448401,"lng":139.631375,"zip":"2310063"},{"town":"花咲町二丁目","koaza":"","lat":35.449965,"lng":139.629332,"zip":"2310063"},{"town":"野毛町四丁目","koaza":"","lat":35.448606,"lng":139.626997,"zip":"2310064"},{"town":"桜木町三丁目","koaza":"","lat":35.451673,"lng":139.629405,"zip":"2310062"},{"town":"花咲町三丁目","koaza":"","lat":35.451104,"lng":139.628817,"zip":"2310063"},{"town":"宮川町二丁目","koaza":"","lat":35.446546,"lng":139.628742,"zip":"2310065"},{"town":"野毛町一丁目","koaza":"","lat":35.447599,"lng":139.630535,"zip":"2310064"},{"town":"吉田町","koaza":"","lat":35.446497,"lng":139.632478,"zip":"2310041"},{"town":"港町六丁目","koaza":"","lat":35.447623,"lng":139.632771,"zip":"2310017"},{"town":"桜木町一丁目","koaza":"","lat":35.452155,"lng":139.631304,"zip":"2310062"},{"town":"南本牧","koaza":"","lat":35.405665,"lng":139.685397,"zip":"2310816"}]