[{"town":"鶴屋町二丁目","koaza":"","lat":35.469008,"lng":139.621716,"zip":"2210835"},{"town":"松本町三丁目","koaza":"","lat":35.476068,"lng":139.621441,"zip":"2210841"},{"town":"斎藤分町","koaza":"","lat":35.483002,"lng":139.625026,"zip":"2210811"},{"town":"台町","koaza":"","lat":35.470391,"lng":139.623634,"zip":"2210834"},{"town":"上反町二丁目","koaza":"","lat":35.473869,"lng":139.622712,"zip":"2210831"},{"town":"六角橋三丁目","koaza":"","lat":35.485211,"lng":139.621231,"zip":"2210802"},{"town":"泉町","koaza":"","lat":35.473937,"lng":139.620721,"zip":"2210842"},{"town":"栗田谷","koaza":"","lat":35.479076,"lng":139.62014,"zip":"2210804"},{"town":"中丸","koaza":"","lat":35.481906,"lng":139.620906,"zip":"2210803"},{"town":"六角橋二丁目","koaza":"","lat":35.488582,"lng":139.621886,"zip":"2210802"},{"town":"高島台","koaza":"","lat":35.471965,"lng":139.623004,"zip":"2210833"},{"town":"六角橋一丁目","koaza":"","lat":35.489467,"lng":139.624989,"zip":"2210802"},{"town":"松見町四丁目","koaza":"","lat":35.503749,"lng":139.639978,"zip":"2210005"},{"town":"西寺尾一丁目","koaza":"","lat":35.502007,"lng":139.644228,"zip":"2210001"},{"town":"菅田町","koaza":"","lat":35.498062,"lng":139.585809,"zip":"2210864"},{"town":"宝町","koaza":"","lat":35.48099,"lng":139.663821,"zip":"2210023"},{"town":"恵比須町","koaza":"","lat":35.479586,"lng":139.656381,"zip":"2210024"},{"town":"千若町一丁目","koaza":"","lat":35.475819,"lng":139.638921,"zip":"2210036"},{"town":"千若町二丁目","koaza":"","lat":35.474564,"lng":139.641628,"zip":"2210036"},{"town":"鈴繁町","koaza":"","lat":35.470987,"lng":139.65106,"zip":"2210033"},{"town":"瑞穂町","koaza":"","lat":35.468506,"lng":139.648625,"zip":"2210034"},{"town":"橋本町三丁目","koaza":"","lat":35.4705,"lng":139.640478,"zip":"2210053"},{"town":"新浦島町一丁目","koaza":"","lat":35.480837,"lng":139.643717,"zip":"2210031"},{"town":"出田町","koaza":"","lat":35.477922,"lng":139.649043,"zip":"2210032"},{"town":"守屋町一丁目","koaza":"","lat":35.481492,"lng":139.647017,"zip":"2210022"},{"town":"星野町","koaza":"","lat":35.472813,"lng":139.635872,"zip":"2210035"},{"town":"守屋町二丁目","koaza":"","lat":35.482357,"lng":139.649661,"zip":"2210022"},{"town":"守屋町四丁目","koaza":"","lat":35.486511,"lng":139.661274,"zip":"2210022"},{"town":"西神奈川二丁目","koaza":"","lat":35.48438,"lng":139.628765,"zip":"2210822"},{"town":"新浦島町二丁目","koaza":"","lat":35.478774,"lng":139.642437,"zip":"2210031"},{"town":"千若町三丁目","koaza":"","lat":35.478252,"lng":139.645505,"zip":"2210036"},{"town":"大野町","koaza":"","lat":35.467325,"lng":139.630023,"zip":"2210055"},{"town":"青木町","koaza":"","lat":35.471299,"lng":139.629007,"zip":"2210057"},{"town":"反町一丁目","koaza":"","lat":35.475243,"lng":139.628768,"zip":"2210825"},{"town":"反町二丁目","koaza":"","lat":35.475996,"lng":139.627691,"zip":"2210825"},{"town":"松見町三丁目","koaza":"","lat":35.500851,"lng":139.640027,"zip":"2210005"},{"town":"桐畑","koaza":"","lat":35.473514,"lng":139.626973,"zip":"2210832"},{"town":"金港町","koaza":"","lat":35.468295,"lng":139.626032,"zip":"2210056"},{"town":"栄町","koaza":"","lat":35.469908,"lng":139.630973,"zip":"2210052"},{"town":"山内町","koaza":"","lat":35.467013,"lng":139.635112,"zip":"2210054"},{"town":"浦島町","koaza":"","lat":35.482307,"lng":139.64286,"zip":"2210042"},{"town":"神奈川二丁目","koaza":"","lat":35.473669,"lng":139.63382,"zip":"2210045"},{"town":"新町","koaza":"","lat":35.480161,"lng":139.639662,"zip":"2210043"},{"town":"鶴屋町一丁目","koaza":"","lat":35.468844,"lng":139.624025,"zip":"2210835"},{"town":"橋本町二丁目","koaza":"","lat":35.469983,"lng":139.638544,"zip":"2210053"},{"town":"松本町一丁目","koaza":"","lat":35.475733,"lng":139.624824,"zip":"2210841"},{"town":"反町四丁目","koaza":"","lat":35.4767,"lng":139.627092,"zip":"2210825"},{"town":"東神奈川一丁目","koaza":"","lat":35.477621,"lng":139.63358,"zip":"2210044"},{"town":"二ツ谷町","koaza":"","lat":35.478118,"lng":139.630039,"zip":"2210823"},{"town":"神奈川本町","koaza":"","lat":35.475005,"lng":139.632367,"zip":"2210046"},{"town":"西神奈川三丁目","koaza":"","lat":35.486151,"lng":139.626928,"zip":"2210822"},{"town":"西神奈川一丁目","koaza":"","lat":35.47984,"lng":139.631477,"zip":"2210822"},{"town":"上反町一丁目","koaza":"","lat":35.473707,"lng":139.624516,"zip":"2210831"},{"town":"反町三丁目","koaza":"","lat":35.475464,"lng":139.626028,"zip":"2210825"},{"town":"神奈川一丁目","koaza":"","lat":35.471304,"lng":139.635077,"zip":"2210045"},{"town":"橋本町一丁目","koaza":"","lat":35.46922,"lng":139.636107,"zip":"2210053"},{"town":"幸ケ谷","koaza":"","lat":35.473578,"lng":139.630049,"zip":"2210051"},{"town":"東神奈川二丁目","koaza":"","lat":35.479146,"lng":139.636239,"zip":"2210044"},{"town":"富家町","koaza":"","lat":35.48049,"lng":139.633881,"zip":"2210821"},{"town":"広台太田町","koaza":"","lat":35.477191,"lng":139.628759,"zip":"2210824"},{"town":"立町","koaza":"","lat":35.482806,"lng":139.636418,"zip":"2210063"},{"town":"平川町","koaza":"","lat":35.481877,"lng":139.628224,"zip":"2210812"},{"town":"二本榎","koaza":"","lat":35.481029,"lng":139.625798,"zip":"2210813"},{"town":"旭ケ丘","koaza":"","lat":35.478081,"lng":139.625798,"zip":"2210814"},{"town":"子安通二丁目","koaza":"","lat":35.485594,"lng":139.652726,"zip":"2210021"},{"town":"松本町二丁目","koaza":"","lat":35.475716,"lng":139.623297,"zip":"2210841"},{"town":"入江一丁目","koaza":"","lat":35.487474,"lng":139.649438,"zip":"2210014"},{"town":"新子安二丁目","koaza":"","lat":35.491418,"lng":139.652256,"zip":"2210013"},{"town":"新子安一丁目","koaza":"","lat":35.489118,"lng":139.654578,"zip":"2210013"},{"town":"守屋町三丁目","koaza":"","lat":35.483908,"lng":139.654749,"zip":"2210022"},{"town":"子安通三丁目","koaza":"","lat":35.488193,"lng":139.658435,"zip":"2210021"},{"town":"入江二丁目","koaza":"","lat":35.491201,"lng":139.648351,"zip":"2210014"},{"town":"子安台一丁目","koaza":"","lat":35.491628,"lng":139.658822,"zip":"2210012"},{"town":"神之木台","koaza":"","lat":35.493511,"lng":139.652335,"zip":"2210011"},{"town":"子安台二丁目","koaza":"","lat":35.494497,"lng":139.656918,"zip":"2210012"},{"town":"西寺尾四丁目","koaza":"","lat":35.497706,"lng":139.655123,"zip":"2210001"},{"town":"白幡西町","koaza":"","lat":35.485113,"lng":139.633192,"zip":"2210074"},{"town":"白幡東町","koaza":"","lat":35.486476,"lng":139.640022,"zip":"2210072"},{"town":"白幡上町","koaza":"","lat":35.49006,"lng":139.630639,"zip":"2210075"},{"town":"七島町","koaza":"","lat":35.487046,"lng":139.643439,"zip":"2210061"},{"town":"松見町一丁目","koaza":"","lat":35.49633,"lng":139.642501,"zip":"2210005"},{"town":"大口仲町","koaza":"","lat":35.492786,"lng":139.641311,"zip":"2210003"},{"town":"西寺尾三丁目","koaza":"","lat":35.496764,"lng":139.650324,"zip":"2210001"},{"town":"西寺尾二丁目","koaza":"","lat":35.498962,"lng":139.647803,"zip":"2210001"},{"town":"白楽","koaza":"","lat":35.486156,"lng":139.629902,"zip":"2210065"},{"town":"鳥越","koaza":"","lat":35.48253,"lng":139.633133,"zip":"2210064"},{"town":"浦島丘","koaza":"","lat":35.484376,"lng":139.640519,"zip":"2210062"},{"town":"亀住町","koaza":"","lat":35.482774,"lng":139.639963,"zip":"2210041"},{"town":"子安通一丁目","koaza":"","lat":35.483908,"lng":139.646278,"zip":"2210021"},{"town":"西大口","koaza":"","lat":35.492504,"lng":139.638727,"zip":"2210004"},{"town":"白幡町","koaza":"","lat":35.491957,"lng":139.62884,"zip":"2210076"},{"town":"白幡向町","koaza":"","lat":35.491822,"lng":139.63491,"zip":"2210077"},{"town":"大口通","koaza":"","lat":35.491001,"lng":139.645316,"zip":"2210002"},{"town":"神之木町","koaza":"","lat":35.494497,"lng":139.647606,"zip":"2210015"},{"town":"白幡南町","koaza":"","lat":35.485881,"lng":139.636571,"zip":"2210073"},{"town":"白幡仲町","koaza":"","lat":35.489015,"lng":139.636873,"zip":"2210071"},{"town":"松見町二丁目","koaza":"","lat":35.4978,"lng":139.639222,"zip":"2210005"},{"town":"羽沢南二丁目","koaza":"","lat":35.477019,"lng":139.582899,"zip":"2210866"},{"town":"羽沢南四丁目","koaza":"","lat":35.480284,"lng":139.580392,"zip":"2210866"},{"town":"松本町五丁目","koaza":"","lat":35.477252,"lng":139.617993,"zip":"2210841"},{"town":"松ケ丘","koaza":"","lat":35.4748,"lng":139.618861,"zip":"2210843"},{"town":"松本町六丁目","koaza":"","lat":35.476302,"lng":139.61682,"zip":"2210841"},{"town":"六角橋四丁目","koaza":"","lat":35.484184,"lng":139.617946,"zip":"2210802"},{"town":"沢渡","koaza":"","lat":35.471708,"lng":139.616632,"zip":"2210844"},{"town":"松本町四丁目","koaza":"","lat":35.47712,"lng":139.619662,"zip":"2210841"},{"town":"三ツ沢下町","koaza":"","lat":35.47833,"lng":139.615687,"zip":"2210852"},{"town":"鶴屋町三丁目","koaza":"","lat":35.468993,"lng":139.618248,"zip":"2210835"},{"town":"三ツ沢西町","koaza":"","lat":35.471986,"lng":139.603694,"zip":"2210855"},{"town":"三ツ沢南町","koaza":"","lat":35.473244,"lng":139.608672,"zip":"2210854"},{"town":"三ツ沢東町","koaza":"","lat":35.474231,"lng":139.613278,"zip":"2210853"},{"town":"三ツ沢上町","koaza":"","lat":35.478486,"lng":139.604874,"zip":"2210856"},{"town":"片倉一丁目","koaza":"","lat":35.485504,"lng":139.605435,"zip":"2210865"},{"town":"三ツ沢中町","koaza":"","lat":35.478421,"lng":139.610342,"zip":"2210851"},{"town":"片倉二丁目","koaza":"","lat":35.484974,"lng":139.600804,"zip":"2210865"},{"town":"羽沢南三丁目","koaza":"","lat":35.477889,"lng":139.580207,"zip":"2210866"},{"town":"六角橋六丁目","koaza":"","lat":35.493159,"lng":139.617629,"zip":"2210802"},{"town":"神大寺三丁目","koaza":"","lat":35.484357,"lng":139.606594,"zip":"2210801"},{"town":"神大寺二丁目","koaza":"","lat":35.484512,"lng":139.611055,"zip":"2210801"},{"town":"神大寺一丁目","koaza":"","lat":35.484079,"lng":139.614738,"zip":"2210801"},{"town":"神大寺四丁目","koaza":"","lat":35.489492,"lng":139.612653,"zip":"2210801"},{"town":"片倉三丁目","koaza":"","lat":35.49105,"lng":139.604909,"zip":"2210865"},{"town":"片倉五丁目","koaza":"","lat":35.491847,"lng":139.610058,"zip":"2210865"},{"town":"六角橋五丁目","koaza":"","lat":35.489665,"lng":139.617736,"zip":"2210802"},{"town":"片倉四丁目","koaza":"","lat":35.493852,"lng":139.605694,"zip":"2210865"},{"town":"羽沢南一丁目","koaza":"","lat":35.476217,"lng":139.584553,"zip":"2210866"},{"town":"三枚町","koaza":"","lat":35.489359,"lng":139.595878,"zip":"2210862"},{"town":"羽沢町","koaza":"","lat":35.486744,"lng":139.583317,"zip":"2210863"}]