[{"town":"泥亀一丁目","koaza":"","lat":35.337428,"lng":139.622072,"zip":"2360021"},{"town":"六浦東三丁目","koaza":"","lat":35.318626,"lng":139.619494,"zip":"2360037"},{"town":"六浦一丁目","koaza":"","lat":35.326256,"lng":139.619768,"zip":"2360031"},{"town":"瀬戸","koaza":"","lat":35.33215,"lng":139.618772,"zip":"2360027"},{"town":"六浦東一丁目","koaza":"","lat":35.322218,"lng":139.624503,"zip":"2360037"},{"town":"柳町","koaza":"","lat":35.326149,"lng":139.625005,"zip":"2360026"},{"town":"八景島","koaza":"","lat":35.33652,"lng":139.644136,"zip":"2360006"},{"town":"海の公園","koaza":"","lat":35.337523,"lng":139.633474,"zip":"2360013"},{"town":"泥亀二丁目","koaza":"","lat":35.337416,"lng":139.624979,"zip":"2360021"},{"town":"町屋町","koaza":"","lat":35.336169,"lng":139.628677,"zip":"2360022"},{"town":"釜利谷南三丁目","koaza":"","lat":35.336139,"lng":139.596819,"zip":"2360045"},{"town":"釜利谷西六丁目","koaza":"","lat":35.33689,"lng":139.593225,"zip":"2360046"},{"town":"釜利谷南二丁目","koaza":"","lat":35.336277,"lng":139.604928,"zip":"2360045"},{"town":"大川","koaza":"","lat":35.336874,"lng":139.61544,"zip":"2360043"},{"town":"釜利谷南一丁目","koaza":"","lat":35.338887,"lng":139.6115,"zip":"2360045"},{"town":"能見台森","koaza":"","lat":35.352846,"lng":139.61656,"zip":"2360056"},{"town":"釜利谷町","koaza":"","lat":35.348143,"lng":139.59115,"zip":"2360041"},{"town":"朝比奈町","koaza":"","lat":35.329056,"lng":139.596045,"zip":"2360034"},{"town":"谷津町","koaza":"","lat":35.34523,"lng":139.623384,"zip":"2360016"},{"town":"能見台三丁目","koaza":"","lat":35.357735,"lng":139.618221,"zip":"2360057"},{"town":"富岡東一丁目","koaza":"","lat":35.377171,"lng":139.624345,"zip":"2360051"},{"town":"能見台五丁目","koaza":"","lat":35.351733,"lng":139.619915,"zip":"2360057"},{"town":"片吹","koaza":"","lat":35.351333,"lng":139.625402,"zip":"2360055"},{"town":"富岡西六丁目","koaza":"","lat":35.362341,"lng":139.620757,"zip":"2360052"},{"town":"みず木町","koaza":"","lat":35.338764,"lng":139.589353,"zip":"2360036"},{"town":"富岡西三丁目","koaza":"","lat":35.368163,"lng":139.623667,"zip":"2360052"},{"town":"富岡西四丁目","koaza":"","lat":35.366541,"lng":139.618649,"zip":"2360052"},{"town":"富岡西一丁目","koaza":"","lat":35.372311,"lng":139.622927,"zip":"2360052"},{"town":"野島町","koaza":"","lat":35.326259,"lng":139.634785,"zip":"2360025"},{"town":"乙舳町","koaza":"","lat":35.328856,"lng":139.632131,"zip":"2360024"},{"town":"洲崎町","koaza":"","lat":35.332646,"lng":139.625846,"zip":"2360028"},{"town":"平潟町","koaza":"","lat":35.331792,"lng":139.630818,"zip":"2360023"},{"town":"六浦南五丁目","koaza":"","lat":35.318085,"lng":139.607386,"zip":"2360038"},{"town":"六浦南二丁目","koaza":"","lat":35.320664,"lng":139.612265,"zip":"2360038"},{"town":"六浦東二丁目","koaza":"","lat":35.321771,"lng":139.618965,"zip":"2360037"},{"town":"六浦南三丁目","koaza":"","lat":35.316384,"lng":139.610794,"zip":"2360038"},{"town":"六浦南四丁目","koaza":"","lat":35.317014,"lng":139.608551,"zip":"2360038"},{"town":"六浦南一丁目","koaza":"","lat":35.321548,"lng":139.615732,"zip":"2360038"},{"town":"六浦三丁目","koaza":"","lat":35.330896,"lng":139.61027,"zip":"2360031"},{"town":"高舟台一丁目","koaza":"","lat":35.332536,"lng":139.605062,"zip":"2360044"},{"town":"大道一丁目","koaza":"","lat":35.329945,"lng":139.606126,"zip":"2360035"},{"town":"大道二丁目","koaza":"","lat":35.326934,"lng":139.608047,"zip":"2360035"},{"town":"六浦五丁目","koaza":"","lat":35.323829,"lng":139.611067,"zip":"2360031"},{"town":"東朝比奈二丁目","koaza":"","lat":35.3236,"lng":139.597936,"zip":"2360033"},{"town":"東朝比奈三丁目","koaza":"","lat":35.326724,"lng":139.599438,"zip":"2360033"},{"town":"東朝比奈一丁目","koaza":"","lat":35.324542,"lng":139.604032,"zip":"2360033"},{"town":"六浦町","koaza":"","lat":35.318039,"lng":139.60116,"zip":"2360032"},{"town":"高舟台二丁目","koaza":"","lat":35.332322,"lng":139.600667,"zip":"2360044"},{"town":"六浦四丁目","koaza":"","lat":35.326508,"lng":139.615784,"zip":"2360031"},{"town":"六浦二丁目","koaza":"","lat":35.331405,"lng":139.614245,"zip":"2360031"},{"town":"白帆","koaza":"","lat":35.381139,"lng":139.646571,"zip":"2360007"},{"town":"昭和町","koaza":"","lat":35.38081,"lng":139.62856,"zip":"2360001"},{"town":"寺前一丁目","koaza":"","lat":35.340108,"lng":139.626613,"zip":"2360014"},{"town":"福浦二丁目","koaza":"","lat":35.348409,"lng":139.650266,"zip":"2360004"},{"town":"福浦一丁目","koaza":"","lat":35.354376,"lng":139.648885,"zip":"2360004"},{"town":"寺前二丁目","koaza":"","lat":35.339346,"lng":139.630705,"zip":"2360014"},{"town":"柴町","koaza":"","lat":35.345669,"lng":139.638679,"zip":"2360012"},{"town":"福浦三丁目","koaza":"","lat":35.342628,"lng":139.650475,"zip":"2360004"},{"town":"西柴三丁目","koaza":"","lat":35.348338,"lng":139.627152,"zip":"2360017"},{"town":"幸浦二丁目","koaza":"","lat":35.360594,"lng":139.646949,"zip":"2360003"},{"town":"金沢町","koaza":"","lat":35.343908,"lng":139.628906,"zip":"2360015"},{"town":"西柴四丁目","koaza":"","lat":35.347692,"lng":139.631561,"zip":"2360017"},{"town":"西柴二丁目","koaza":"","lat":35.351262,"lng":139.632005,"zip":"2360017"},{"town":"西柴一丁目","koaza":"","lat":35.3523,"lng":139.629867,"zip":"2360017"},{"town":"堀口","koaza":"","lat":35.358264,"lng":139.629936,"zip":"2360054"},{"town":"能見台東","koaza":"","lat":35.356908,"lng":139.625807,"zip":"2360058"},{"town":"長浜二丁目","koaza":"","lat":35.354916,"lng":139.632215,"zip":"2360011"},{"town":"長浜一丁目","koaza":"","lat":35.357146,"lng":139.631593,"zip":"2360011"},{"town":"長浜","koaza":"","lat":35.356444,"lng":139.637359,"zip":"2360011"},{"town":"幸浦一丁目","koaza":"","lat":35.372784,"lng":139.649396,"zip":"2360003"},{"town":"富岡西七丁目","koaza":"","lat":35.365286,"lng":139.625924,"zip":"2360052"},{"town":"富岡東六丁目","koaza":"","lat":35.363792,"lng":139.631805,"zip":"2360051"},{"town":"富岡東四丁目","koaza":"","lat":35.369759,"lng":139.636038,"zip":"2360051"},{"town":"並木一丁目","koaza":"","lat":35.371911,"lng":139.639225,"zip":"2360005"},{"town":"鳥浜町","koaza":"","lat":35.384095,"lng":139.643055,"zip":"2360002"},{"town":"富岡西二丁目","koaza":"","lat":35.370439,"lng":139.627152,"zip":"2360052"},{"town":"富岡東二丁目","koaza":"","lat":35.376823,"lng":139.633815,"zip":"2360051"},{"town":"富岡東五丁目","koaza":"","lat":35.370404,"lng":139.631389,"zip":"2360051"},{"town":"富岡東三丁目","koaza":"","lat":35.373623,"lng":139.631102,"zip":"2360051"},{"town":"並木三丁目","koaza":"","lat":35.355535,"lng":139.641356,"zip":"2360005"},{"town":"並木二丁目","koaza":"","lat":35.364341,"lng":139.639202,"zip":"2360005"},{"town":"能見台通","koaza":"","lat":35.362001,"lng":139.625965,"zip":"2360053"},{"town":"釜利谷西四丁目","koaza":"","lat":35.345575,"lng":139.594876,"zip":"2360046"},{"town":"釜利谷西三丁目","koaza":"","lat":35.34529,"lng":139.598598,"zip":"2360046"},{"town":"釜利谷西二丁目","koaza":"","lat":35.341194,"lng":139.597722,"zip":"2360046"},{"town":"釜利谷西五丁目","koaza":"","lat":35.341046,"lng":139.593567,"zip":"2360046"},{"town":"釜利谷南四丁目","koaza":"","lat":35.339581,"lng":139.607852,"zip":"2360045"},{"town":"釜利谷東八丁目","koaza":"","lat":35.340209,"lng":139.599998,"zip":"2360042"},{"town":"釜利谷東一丁目","koaza":"","lat":35.341865,"lng":139.615864,"zip":"2360042"},{"town":"釜利谷東七丁目","koaza":"","lat":35.340523,"lng":139.604908,"zip":"2360042"},{"town":"釜利谷西一丁目","koaza":"","lat":35.344563,"lng":139.604172,"zip":"2360046"},{"town":"釜利谷東六丁目","koaza":"","lat":35.344363,"lng":139.610056,"zip":"2360042"},{"town":"釜利谷東五丁目","koaza":"","lat":35.35083,"lng":139.601017,"zip":"2360042"},{"town":"釜利谷東二丁目","koaza":"","lat":35.342602,"lng":139.619055,"zip":"2360042"},{"town":"釜利谷東三丁目","koaza":"","lat":35.346982,"lng":139.616557,"zip":"2360042"},{"town":"釜利谷東四丁目","koaza":"","lat":35.348946,"lng":139.611404,"zip":"2360042"},{"town":"能見台四丁目","koaza":"","lat":35.354596,"lng":139.6173,"zip":"2360057"},{"town":"能見台六丁目","koaza":"","lat":35.35335,"lng":139.611575,"zip":"2360057"},{"town":"能見台一丁目","koaza":"","lat":35.361784,"lng":139.611662,"zip":"2360057"},{"town":"富岡西五丁目","koaza":"","lat":35.361436,"lng":139.615905,"zip":"2360052"},{"town":"能見台二丁目","koaza":"","lat":35.358128,"lng":139.609836,"zip":"2360057"}]