[{"town":"寺家町","koaza":"","lat":35.569834,"lng":139.506229,"zip":"2270031"},{"town":"鴨志田町","koaza":"","lat":35.560578,"lng":139.505653,"zip":"2270033"},{"town":"奈良町","koaza":"","lat":35.56214,"lng":139.48279,"zip":"2270036"},{"town":"恩田町","koaza":"","lat":35.54337,"lng":139.497071,"zip":"2270065"},{"town":"すみよし台","koaza":"","lat":35.553528,"lng":139.493895,"zip":"2270035"},{"town":"元石川町","koaza":"","lat":35.580079,"lng":139.546187,"zip":"2250004"},{"town":"美しが丘四丁目","koaza":"","lat":35.58191,"lng":139.54882,"zip":"2250002"},{"town":"美しが丘二丁目","koaza":"","lat":35.583093,"lng":139.558719,"zip":"2250002"},{"town":"美しが丘三丁目","koaza":"","lat":35.58647,"lng":139.548873,"zip":"2250002"},{"town":"美しが丘西三丁目","koaza":"","lat":35.585199,"lng":139.532375,"zip":"2250001"},{"town":"あざみ野南二丁目","koaza":"","lat":35.563053,"lng":139.551205,"zip":"2250012"},{"town":"成合町","koaza":"","lat":35.564254,"lng":139.510409,"zip":"2270032"},{"town":"さつきが丘","koaza":"","lat":35.531751,"lng":139.520484,"zip":"2270053"},{"town":"しらとり台","koaza":"","lat":35.535172,"lng":139.513262,"zip":"2270054"},{"town":"つつじが丘","koaza":"","lat":35.538449,"lng":139.51962,"zip":"2270055"},{"town":"梅が丘","koaza":"","lat":35.535355,"lng":139.526308,"zip":"2270052"},{"town":"藤が丘二丁目","koaza":"","lat":35.54146,"lng":139.526663,"zip":"2270043"},{"town":"田奈町","koaza":"","lat":35.538587,"lng":139.504368,"zip":"2270064"},{"town":"青葉台一丁目","koaza":"","lat":35.545494,"lng":139.518221,"zip":"2270062"},{"town":"榎が丘","koaza":"","lat":35.540851,"lng":139.510342,"zip":"2270063"},{"town":"荏田西五丁目","koaza":"","lat":35.544486,"lng":139.549233,"zip":"2250014"},{"town":"荏田西四丁目","koaza":"","lat":35.547859,"lng":139.549929,"zip":"2250014"},{"town":"藤が丘一丁目","koaza":"","lat":35.546458,"lng":139.530478,"zip":"2270043"},{"town":"荏田北三丁目","koaza":"","lat":35.559653,"lng":139.547361,"zip":"2250015"},{"town":"荏田北二丁目","koaza":"","lat":35.55749,"lng":139.542282,"zip":"2250015"},{"town":"荏田北一丁目","koaza":"","lat":35.55712,"lng":139.547208,"zip":"2250015"},{"town":"あざみ野南一丁目","koaza":"","lat":35.562318,"lng":139.554807,"zip":"2250012"},{"town":"千草台","koaza":"","lat":35.53879,"lng":139.533426,"zip":"2270051"},{"town":"下谷本町","koaza":"","lat":35.543582,"lng":139.538627,"zip":"2270042"},{"town":"桜台","koaza":"","lat":35.551274,"lng":139.51562,"zip":"2270061"},{"town":"たちばな台一丁目","koaza":"","lat":35.557081,"lng":139.515008,"zip":"2270046"},{"town":"青葉台二丁目","koaza":"","lat":35.545418,"lng":139.514641,"zip":"2270062"},{"town":"たちばな台二丁目","koaza":"","lat":35.556475,"lng":139.511244,"zip":"2270046"},{"town":"柿の木台","koaza":"","lat":35.551118,"lng":139.528571,"zip":"2270048"},{"town":"みたけ台","koaza":"","lat":35.555185,"lng":139.521464,"zip":"2270047"},{"town":"もえぎ野","koaza":"","lat":35.54751,"lng":139.52311,"zip":"2270044"},{"town":"桂台一丁目","koaza":"","lat":35.550242,"lng":139.50551,"zip":"2270034"},{"town":"若草台","koaza":"","lat":35.553917,"lng":139.506338,"zip":"2270045"},{"town":"桂台二丁目","koaza":"","lat":35.550354,"lng":139.501052,"zip":"2270034"},{"town":"松風台","koaza":"","lat":35.545313,"lng":139.506136,"zip":"2270067"},{"town":"新石川四丁目","koaza":"","lat":35.572507,"lng":139.565526,"zip":"2250003"},{"town":"荏田西二丁目","koaza":"","lat":35.554642,"lng":139.552422,"zip":"2250014"},{"town":"荏田西一丁目","koaza":"","lat":35.5533,"lng":139.54705,"zip":"2250014"},{"town":"荏田西三丁目","koaza":"","lat":35.55026,"lng":139.550458,"zip":"2250014"},{"town":"あざみ野南三丁目","koaza":"","lat":35.562463,"lng":139.547958,"zip":"2250012"},{"town":"新石川一丁目","koaza":"","lat":35.567935,"lng":139.557873,"zip":"2250003"},{"town":"新石川三丁目","koaza":"","lat":35.572774,"lng":139.562025,"zip":"2250003"},{"town":"美しが丘五丁目","koaza":"","lat":35.574774,"lng":139.552481,"zip":"2250002"},{"town":"新石川二丁目","koaza":"","lat":35.57271,"lng":139.557582,"zip":"2250003"},{"town":"みすずが丘","koaza":"","lat":35.561703,"lng":139.540285,"zip":"2250016"},{"town":"あざみ野南四丁目","koaza":"","lat":35.562509,"lng":139.543978,"zip":"2250012"},{"town":"美しが丘一丁目","koaza":"","lat":35.579973,"lng":139.555379,"zip":"2250002"},{"town":"荏子田一丁目","koaza":"","lat":35.579199,"lng":139.542615,"zip":"2250005"},{"town":"あざみ野三丁目","koaza":"","lat":35.567425,"lng":139.541028,"zip":"2250011"},{"town":"あざみ野二丁目","koaza":"","lat":35.567121,"lng":139.548948,"zip":"2250011"},{"town":"上谷本町","koaza":"","lat":35.556638,"lng":139.526746,"zip":"2270041"},{"town":"市ケ尾町","koaza":"","lat":35.548246,"lng":139.543069,"zip":"2250024"},{"town":"あざみ野一丁目","koaza":"","lat":35.571158,"lng":139.548921,"zip":"2250011"},{"town":"あざみ野四丁目","koaza":"","lat":35.573416,"lng":139.544261,"zip":"2250011"},{"town":"大場町","koaza":"","lat":35.565266,"lng":139.5356,"zip":"2250023"},{"town":"鉄町","koaza":"","lat":35.564667,"lng":139.521174,"zip":"2250025"},{"town":"黒須田","koaza":"","lat":35.56793,"lng":139.531912,"zip":"2250022"},{"town":"荏子田三丁目","koaza":"","lat":35.575526,"lng":139.534661,"zip":"2250005"},{"town":"荏田町","koaza":"","lat":35.560145,"lng":139.55808,"zip":"2250013"},{"town":"荏子田二丁目","koaza":"","lat":35.580336,"lng":139.53583,"zip":"2250005"},{"town":"すすき野一丁目","koaza":"","lat":35.57463,"lng":139.530768,"zip":"2250021"},{"town":"すすき野三丁目","koaza":"","lat":35.580415,"lng":139.529281,"zip":"2250021"},{"town":"もみの木台","koaza":"","lat":35.572919,"lng":139.524928,"zip":"2250026"},{"town":"すすき野二丁目","koaza":"","lat":35.575745,"lng":139.52599,"zip":"2250021"},{"town":"奈良二丁目","koaza":"","lat":35.551311,"lng":139.488172,"zip":"2270038"},{"town":"奈良一丁目","koaza":"","lat":35.555847,"lng":139.485617,"zip":"2270038"},{"town":"奈良五丁目","koaza":"","lat":35.55966,"lng":139.481784,"zip":"2270038"},{"town":"あかね台一丁目","koaza":"","lat":35.54249,"lng":139.489215,"zip":"2270066"},{"town":"あかね台二丁目","koaza":"","lat":35.541466,"lng":139.484128,"zip":"2270066"},{"town":"奈良三丁目","koaza":"","lat":35.550437,"lng":139.484599,"zip":"2270038"},{"town":"奈良四丁目","koaza":"","lat":35.553909,"lng":139.483024,"zip":"2270038"},{"town":"緑山","koaza":"","lat":35.568203,"lng":139.483079,"zip":"2270037"},{"town":"美しが丘西一丁目","koaza":"","lat":35.58945,"lng":139.541247,"zip":"2250001"},{"town":"美しが丘西二丁目","koaza":"","lat":35.5897,"lng":139.532916,"zip":"2250001"}]