[{"town":"日枝町一丁目","koaza":"","lat":35.43808,"lng":139.621009,"zip":"2320011"},{"town":"西中町一丁目","koaza":"","lat":35.441211,"lng":139.621757,"zip":"2320003"},{"town":"南吉田町一丁目","koaza":"","lat":35.437317,"lng":139.621399,"zip":"2320012"},{"town":"中村町五丁目","koaza":"","lat":35.428506,"lng":139.623144,"zip":"2320033"},{"town":"中里三丁目","koaza":"","lat":35.421768,"lng":139.594215,"zip":"2320063"},{"town":"新川町一丁目","koaza":"","lat":35.435877,"lng":139.62232,"zip":"2320027"},{"town":"吉野町一丁目","koaza":"","lat":35.436367,"lng":139.621783,"zip":"2320014"},{"town":"白金町一丁目","koaza":"","lat":35.439346,"lng":139.622296,"zip":"2320005"},{"town":"前里町一丁目","koaza":"","lat":35.440447,"lng":139.6224,"zip":"2320004"},{"town":"別所七丁目","koaza":"","lat":35.417567,"lng":139.579733,"zip":"2320064"},{"town":"中里四丁目","koaza":"","lat":35.419391,"lng":139.589633,"zip":"2320063"},{"town":"堀ノ内町一丁目","koaza":"","lat":35.42773,"lng":139.618095,"zip":"2320042"},{"town":"大岡二丁目","koaza":"","lat":35.421095,"lng":139.602014,"zip":"2320061"},{"town":"大岡一丁目","koaza":"","lat":35.422736,"lng":139.608033,"zip":"2320061"},{"town":"中里一丁目","koaza":"","lat":35.418932,"lng":139.598061,"zip":"2320063"},{"town":"中里二丁目","koaza":"","lat":35.4189,"lng":139.593599,"zip":"2320063"},{"town":"六ツ川二丁目","koaza":"","lat":35.422689,"lng":139.582654,"zip":"2320066"},{"town":"別所六丁目","koaza":"","lat":35.41865,"lng":139.58108,"zip":"2320064"},{"town":"中村町四丁目","koaza":"","lat":35.431605,"lng":139.624496,"zip":"2320033"},{"town":"睦町一丁目","koaza":"","lat":35.431364,"lng":139.61925,"zip":"2320041"},{"town":"山王町一丁目","koaza":"","lat":35.436874,"lng":139.621567,"zip":"2320013"},{"town":"前里町二丁目","koaza":"","lat":35.439804,"lng":139.621471,"zip":"2320004"},{"town":"睦町二丁目","koaza":"","lat":35.429051,"lng":139.619474,"zip":"2320041"},{"town":"高砂町一丁目","koaza":"","lat":35.433619,"lng":139.621406,"zip":"2320025"},{"town":"二葉町一丁目","koaza":"","lat":35.435051,"lng":139.622086,"zip":"2320026"},{"town":"大岡四丁目","koaza":"","lat":35.41133,"lng":139.603847,"zip":"2320061"},{"town":"別所二丁目","koaza":"","lat":35.41593,"lng":139.590345,"zip":"2320064"},{"town":"別所一丁目","koaza":"","lat":35.416623,"lng":139.596141,"zip":"2320064"},{"town":"大岡五丁目","koaza":"","lat":35.413817,"lng":139.600346,"zip":"2320061"},{"town":"大岡三丁目","koaza":"","lat":35.41614,"lng":139.604022,"zip":"2320061"},{"town":"別所三丁目","koaza":"","lat":35.4127,"lng":139.58909,"zip":"2320064"},{"town":"別所中里台","koaza":"","lat":35.417118,"lng":139.585481,"zip":"2320065"},{"town":"別所四丁目","koaza":"","lat":35.41213,"lng":139.585042,"zip":"2320064"},{"town":"別所五丁目","koaza":"","lat":35.414909,"lng":139.584235,"zip":"2320064"},{"town":"中村町一丁目","koaza":"","lat":35.435207,"lng":139.634777,"zip":"2320033"},{"town":"唐沢","koaza":"","lat":35.431956,"lng":139.635858,"zip":"2320034"},{"town":"万世町二丁目","koaza":"","lat":35.435278,"lng":139.630557,"zip":"2320032"},{"town":"八幡町","koaza":"","lat":35.431216,"lng":139.630089,"zip":"2320037"},{"town":"平楽","koaza":"","lat":35.430029,"lng":139.633087,"zip":"2320035"},{"town":"中村町三丁目","koaza":"","lat":35.43282,"lng":139.628557,"zip":"2320033"},{"town":"中村町二丁目","koaza":"","lat":35.434089,"lng":139.631996,"zip":"2320033"},{"town":"山谷","koaza":"","lat":35.429458,"lng":139.625704,"zip":"2320036"},{"town":"浦舟町二丁目","koaza":"","lat":35.4346,"lng":139.627622,"zip":"2320024"},{"town":"浦舟町一丁目","koaza":"","lat":35.435094,"lng":139.628865,"zip":"2320024"},{"town":"真金町一丁目","koaza":"","lat":35.436442,"lng":139.629894,"zip":"2320021"},{"town":"浦舟町四丁目","koaza":"","lat":35.433722,"lng":139.624573,"zip":"2320024"},{"town":"浦舟町三丁目","koaza":"","lat":35.434196,"lng":139.626359,"zip":"2320024"},{"town":"万世町一丁目","koaza":"","lat":35.436211,"lng":139.632269,"zip":"2320032"},{"town":"真金町二丁目","koaza":"","lat":35.438089,"lng":139.628764,"zip":"2320021"},{"town":"白妙町一丁目","koaza":"","lat":35.436312,"lng":139.62809,"zip":"2320023"},{"town":"高根町一丁目","koaza":"","lat":35.437493,"lng":139.627215,"zip":"2320022"},{"town":"白妙町三丁目","koaza":"","lat":35.435319,"lng":139.625613,"zip":"2320023"},{"town":"白妙町二丁目","koaza":"","lat":35.435672,"lng":139.626818,"zip":"2320023"},{"town":"永楽町二丁目","koaza":"","lat":35.438821,"lng":139.630493,"zip":"2320031"},{"town":"永楽町一丁目","koaza":"","lat":35.437427,"lng":139.631399,"zip":"2320031"},{"town":"浦舟町五丁目","koaza":"","lat":35.433499,"lng":139.622834,"zip":"2320024"},{"town":"高根町三丁目","koaza":"","lat":35.43668,"lng":139.624912,"zip":"2320022"},{"town":"高根町二丁目","koaza":"","lat":35.437018,"lng":139.626108,"zip":"2320022"},{"town":"高根町四丁目","koaza":"","lat":35.435992,"lng":139.62374,"zip":"2320022"},{"town":"白妙町五丁目","koaza":"","lat":35.434643,"lng":139.623145,"zip":"2320023"},{"town":"白妙町四丁目","koaza":"","lat":35.434926,"lng":139.62431,"zip":"2320023"},{"town":"榎町一丁目","koaza":"","lat":35.431049,"lng":139.614047,"zip":"2320044"},{"town":"大橋町一丁目","koaza":"","lat":35.428212,"lng":139.604261,"zip":"2320054"},{"town":"通町四丁目","koaza":"","lat":35.42429,"lng":139.602709,"zip":"2320056"},{"town":"通町三丁目","koaza":"","lat":35.425983,"lng":139.603702,"zip":"2320056"},{"town":"若宮町三丁目","koaza":"","lat":35.425489,"lng":139.604565,"zip":"2320057"},{"town":"中里町","koaza":"","lat":35.42148,"lng":139.598038,"zip":"2320062"},{"town":"榎町二丁目","koaza":"","lat":35.429648,"lng":139.613265,"zip":"2320044"},{"town":"堀ノ内町二丁目","koaza":"","lat":35.426379,"lng":139.615434,"zip":"2320042"},{"town":"高砂町三丁目","koaza":"","lat":35.433232,"lng":139.618615,"zip":"2320025"},{"town":"二葉町四丁目","koaza":"","lat":35.433956,"lng":139.61838,"zip":"2320026"},{"town":"宮元町一丁目","koaza":"","lat":35.433088,"lng":139.614072,"zip":"2320016"},{"town":"高砂町二丁目","koaza":"","lat":35.433497,"lng":139.61992,"zip":"2320025"},{"town":"吉野町三丁目","koaza":"","lat":35.435544,"lng":139.619026,"zip":"2320014"},{"town":"新川町二丁目","koaza":"","lat":35.43534,"lng":139.620544,"zip":"2320027"},{"town":"吉野町二丁目","koaza":"","lat":35.435904,"lng":139.620307,"zip":"2320014"},{"town":"二葉町三丁目","koaza":"","lat":35.434386,"lng":139.619513,"zip":"2320026"},{"town":"新川町三丁目","koaza":"","lat":35.435003,"lng":139.619257,"zip":"2320027"},{"town":"山王町三丁目","koaza":"","lat":35.436086,"lng":139.618785,"zip":"2320013"},{"town":"山王町二丁目","koaza":"","lat":35.436444,"lng":139.620073,"zip":"2320013"},{"town":"南吉田町二丁目","koaza":"","lat":35.436894,"lng":139.619879,"zip":"2320012"},{"town":"新川町五丁目","koaza":"","lat":35.43404,"lng":139.61694,"zip":"2320027"},{"town":"新川町四丁目","koaza":"","lat":35.434694,"lng":139.61806,"zip":"2320027"},{"town":"吉野町四丁目","koaza":"","lat":35.435219,"lng":139.617842,"zip":"2320014"},{"town":"山王町四丁目","koaza":"","lat":35.435775,"lng":139.61761,"zip":"2320013"},{"town":"南吉田町四丁目","koaza":"","lat":35.436229,"lng":139.61742,"zip":"2320012"},{"town":"南吉田町三丁目","koaza":"","lat":35.436538,"lng":139.618588,"zip":"2320012"},{"town":"日枝町二丁目","koaza":"","lat":35.437719,"lng":139.619535,"zip":"2320011"},{"town":"前里町三丁目","koaza":"","lat":35.439102,"lng":139.619534,"zip":"2320004"},{"town":"西中町三丁目","koaza":"","lat":35.439695,"lng":139.619384,"zip":"2320003"},{"town":"吉野町五丁目","koaza":"","lat":35.434707,"lng":139.616096,"zip":"2320014"},{"town":"日枝町四丁目","koaza":"","lat":35.43697,"lng":139.617128,"zip":"2320011"},{"town":"日枝町三丁目","koaza":"","lat":35.437267,"lng":139.618282,"zip":"2320011"},{"town":"白金町二丁目","koaza":"","lat":35.438182,"lng":139.61858,"zip":"2320005"},{"town":"日枝町五丁目","koaza":"","lat":35.436686,"lng":139.616048,"zip":"2320011"},{"town":"前里町四丁目","koaza":"","lat":35.438424,"lng":139.617572,"zip":"2320004"},{"town":"西中町二丁目","koaza":"","lat":35.440476,"lng":139.620651,"zip":"2320003"},{"town":"東蒔田町","koaza":"","lat":35.431774,"lng":139.615926,"zip":"2320045"},{"town":"井土ケ谷上町","koaza":"","lat":35.430505,"lng":139.598494,"zip":"2320051"},{"town":"花之木町一丁目","koaza":"","lat":35.434096,"lng":139.612427,"zip":"2320018"},{"town":"共進町二丁目","koaza":"","lat":35.430504,"lng":139.612106,"zip":"2320015"},{"town":"共進町一丁目","koaza":"","lat":35.432661,"lng":139.61519,"zip":"2320015"},{"town":"中島町一丁目","koaza":"","lat":35.428986,"lng":139.606641,"zip":"2320055"},{"town":"宮元町三丁目","koaza":"","lat":35.429924,"lng":139.609886,"zip":"2320016"},{"town":"宮元町二丁目","koaza":"","lat":35.431176,"lng":139.611645,"zip":"2320016"},{"town":"宿町二丁目","koaza":"","lat":35.431809,"lng":139.611024,"zip":"2320017"},{"town":"蒔田町","koaza":"","lat":35.425948,"lng":139.611602,"zip":"2320043"},{"town":"共進町三丁目","koaza":"","lat":35.42947,"lng":139.610856,"zip":"2320015"},{"town":"花之木町二丁目","koaza":"","lat":35.432653,"lng":139.609833,"zip":"2320018"},{"town":"宿町三丁目","koaza":"","lat":35.430463,"lng":139.609146,"zip":"2320017"},{"town":"花之木町三丁目","koaza":"","lat":35.430958,"lng":139.608469,"zip":"2320018"},{"town":"通町一丁目","koaza":"","lat":35.428268,"lng":139.606941,"zip":"2320056"},{"town":"宮元町四丁目","koaza":"","lat":35.428613,"lng":139.608533,"zip":"2320016"},{"town":"宿町四丁目","koaza":"","lat":35.429722,"lng":139.608046,"zip":"2320017"},{"town":"大橋町二丁目","koaza":"","lat":35.426855,"lng":139.601743,"zip":"2320054"},{"town":"大橋町三丁目","koaza":"","lat":35.424841,"lng":139.600813,"zip":"2320054"},{"town":"若宮町二丁目","koaza":"","lat":35.42658,"lng":139.605991,"zip":"2320057"},{"town":"若宮町一丁目","koaza":"","lat":35.427278,"lng":139.607148,"zip":"2320057"},{"town":"西中町四丁目","koaza":"","lat":35.438973,"lng":139.617206,"zip":"2320003"},{"town":"南太田三丁目","koaza":"","lat":35.434857,"lng":139.604919,"zip":"2320006"},{"town":"井土ケ谷下町","koaza":"","lat":35.431751,"lng":139.605684,"zip":"2320053"},{"town":"南太田二丁目","koaza":"","lat":35.434928,"lng":139.608776,"zip":"2320006"},{"town":"三春台","koaza":"","lat":35.441559,"lng":139.617248,"zip":"2320002"},{"town":"伏見町","koaza":"","lat":35.443305,"lng":139.613429,"zip":"2320001"},{"town":"通町二丁目","koaza":"","lat":35.427083,"lng":139.605313,"zip":"2320056"},{"town":"中島町二丁目","koaza":"","lat":35.427645,"lng":139.604691,"zip":"2320055"},{"town":"中島町四丁目","koaza":"","lat":35.424532,"lng":139.601743,"zip":"2320055"},{"town":"中島町三丁目","koaza":"","lat":35.426432,"lng":139.602956,"zip":"2320055"},{"town":"若宮町四丁目","koaza":"","lat":35.424282,"lng":139.603892,"zip":"2320057"},{"town":"永田山王台","koaza":"","lat":35.428345,"lng":139.588842,"zip":"2320074"},{"town":"六ツ川一丁目","koaza":"","lat":35.425166,"lng":139.59029,"zip":"2320066"},{"town":"宿町一丁目","koaza":"","lat":35.433728,"lng":139.613588,"zip":"2320017"},{"town":"井土ケ谷中町","koaza":"","lat":35.430925,"lng":139.602162,"zip":"2320052"},{"town":"南吉田町五丁目","koaza":"","lat":35.435864,"lng":139.616087,"zip":"2320012"},{"town":"二葉町二丁目","koaza":"","lat":35.43469,"lng":139.62081,"zip":"2320026"},{"town":"永田南二丁目","koaza":"","lat":35.430124,"lng":139.591491,"zip":"2320073"},{"town":"永田南一丁目","koaza":"","lat":35.429072,"lng":139.595902,"zip":"2320073"},{"town":"弘明寺町","koaza":"","lat":35.424469,"lng":139.597648,"zip":"2320067"},{"town":"南太田一丁目","koaza":"","lat":35.436835,"lng":139.612496,"zip":"2320006"},{"town":"山王町五丁目","koaza":"","lat":35.435338,"lng":139.616036,"zip":"2320013"},{"town":"清水ケ丘","koaza":"","lat":35.439793,"lng":139.60784,"zip":"2320007"},{"town":"永田東一丁目","koaza":"","lat":35.433525,"lng":139.597387,"zip":"2320072"},{"town":"庚台","koaza":"","lat":35.440965,"lng":139.612707,"zip":"2320008"},{"town":"永田東三丁目","koaza":"","lat":35.438162,"lng":139.598089,"zip":"2320072"},{"town":"永田台","koaza":"","lat":35.433493,"lng":139.584075,"zip":"2320076"},{"town":"南太田四丁目","koaza":"","lat":35.436592,"lng":139.601474,"zip":"2320006"},{"town":"永田みなみ台","koaza":"","lat":35.431906,"lng":139.588763,"zip":"2320075"},{"town":"永田東二丁目","koaza":"","lat":35.435131,"lng":139.594599,"zip":"2320072"},{"town":"永田北一丁目","koaza":"","lat":35.439781,"lng":139.593232,"zip":"2320071"},{"town":"永田北二丁目","koaza":"","lat":35.436318,"lng":139.589879,"zip":"2320071"},{"town":"永田北三丁目","koaza":"","lat":35.438277,"lng":139.586412,"zip":"2320071"},{"town":"六ツ川三丁目","koaza":"","lat":35.428994,"lng":139.580389,"zip":"2320066"},{"town":"六ツ川四丁目","koaza":"","lat":35.423775,"lng":139.573721,"zip":"2320066"},{"town":"弘明寺町","koaza":"山下","lat":35.424293,"lng":139.597419,"zip":"2320067"},{"town":"弘明寺町","koaza":"北ノ前","lat":35.426602,"lng":139.599991,"zip":"2320067"},{"town":"蒔田町","koaza":"原","lat":35.427913,"lng":139.609643,"zip":"2320043"},{"town":"蒔田町","koaza":"会下","lat":35.425727,"lng":139.610413,"zip":"2320043"},{"town":"蒔田町","koaza":"東谷","lat":35.428504,"lng":139.612865,"zip":"2320043"},{"town":"蒔田町","koaza":"谷戸田上","lat":35.425281,"lng":139.61289,"zip":"2320043"},{"town":"蒔田町","koaza":"三度台","lat":35.424295,"lng":139.614146,"zip":"2320043"},{"town":"蒔田町","koaza":"西","lat":35.427471,"lng":139.6081,"zip":"2320043"},{"town":"蒔田町","koaza":"山ノ根","lat":35.428435,"lng":139.61039,"zip":"2320043"},{"town":"蒔田町","koaza":"伊勢山","lat":35.428499,"lng":139.61427,"zip":"2320043"}]