[{"town":"長井三丁目","koaza":"","lat":35.206801,"lng":139.617916,"zip":"2380316"},{"town":"湘南国際村三丁目","koaza":"","lat":35.25411,"lng":139.622454,"zip":"2400107"},{"town":"長坂二丁目","koaza":"","lat":35.224554,"lng":139.623397,"zip":"2400101"},{"town":"芦名三丁目","koaza":"","lat":35.246615,"lng":139.627156,"zip":"2400104"},{"town":"長坂四丁目","koaza":"","lat":35.232679,"lng":139.624022,"zip":"2400101"},{"town":"長井二丁目","koaza":"","lat":35.196802,"lng":139.619518,"zip":"2380316"},{"town":"鴨居四丁目","koaza":"","lat":35.255571,"lng":139.742369,"zip":"2390813"},{"town":"浦賀二丁目","koaza":"","lat":35.252981,"lng":139.706779,"zip":"2390822"},{"town":"桜が丘二丁目","koaza":"","lat":35.255851,"lng":139.706358,"zip":"2390803"},{"town":"池田町三丁目","koaza":"","lat":35.249366,"lng":139.695806,"zip":"2390806"},{"town":"浦賀一丁目","koaza":"","lat":35.254075,"lng":139.710279,"zip":"2390822"},{"town":"根岸町三丁目","koaza":"","lat":35.250251,"lng":139.683935,"zip":"2390807"},{"town":"二葉一丁目","koaza":"","lat":35.253131,"lng":139.72043,"zip":"2390814"},{"town":"浦上台三丁目","koaza":"","lat":35.254492,"lng":139.715319,"zip":"2390815"},{"town":"阿部倉","koaza":"","lat":35.256444,"lng":139.634565,"zip":"2380033"},{"town":"小原台","koaza":"","lat":35.254521,"lng":139.726619,"zip":"2390812"},{"town":"鴨居三丁目","koaza":"","lat":35.253352,"lng":139.735467,"zip":"2390813"},{"town":"浦上台二丁目","koaza":"","lat":35.253777,"lng":139.712385,"zip":"2390815"},{"town":"浦賀三丁目","koaza":"","lat":35.250981,"lng":139.711159,"zip":"2390822"},{"town":"吉井四丁目","koaza":"","lat":35.25037,"lng":139.705344,"zip":"2390804"},{"town":"桜が丘一丁目","koaza":"","lat":35.255719,"lng":139.700613,"zip":"2390803"},{"town":"公郷町四丁目","koaza":"","lat":35.25601,"lng":139.675563,"zip":"2380022"},{"town":"公郷町一丁目","koaza":"","lat":35.253192,"lng":139.674584,"zip":"2380022"},{"town":"平作二丁目","koaza":"","lat":35.253261,"lng":139.655076,"zip":"2380032"},{"town":"小矢部二丁目","koaza":"","lat":35.253368,"lng":139.661736,"zip":"2380026"},{"town":"平作六丁目","koaza":"","lat":35.255092,"lng":139.64889,"zip":"2380032"},{"town":"平作三丁目","koaza":"","lat":35.251234,"lng":139.64777,"zip":"2380032"},{"town":"池田町一丁目","koaza":"","lat":35.25447,"lng":139.694602,"zip":"2390806"},{"town":"根岸町四丁目","koaza":"","lat":35.253977,"lng":139.67988,"zip":"2390807"},{"town":"小矢部一丁目","koaza":"","lat":35.252783,"lng":139.669131,"zip":"2380026"},{"town":"平作四丁目","koaza":"","lat":35.251694,"lng":139.639746,"zip":"2380032"},{"town":"秋谷","koaza":"","lat":35.25005,"lng":139.595947,"zip":"2400105"},{"town":"鷹取一丁目","koaza":"","lat":35.315138,"lng":139.621717,"zip":"2370067"},{"town":"子安","koaza":"","lat":35.248263,"lng":139.607491,"zip":"2400106"},{"town":"湘南国際村二丁目","koaza":"","lat":35.253794,"lng":139.61501,"zip":"2400107"},{"town":"湘南国際村一丁目","koaza":"","lat":35.254549,"lng":139.607001,"zip":"2400107"},{"town":"追浜南町二丁目","koaza":"","lat":35.310675,"lng":139.621919,"zip":"2370065"},{"town":"田浦大作町","koaza":"","lat":35.284929,"lng":139.626135,"zip":"2370074"},{"town":"船越町四丁目","koaza":"","lat":35.302615,"lng":139.621504,"zip":"2370076"},{"town":"船越町三丁目","koaza":"","lat":35.298617,"lng":139.621102,"zip":"2370076"},{"town":"鷹取二丁目","koaza":"","lat":35.315336,"lng":139.617229,"zip":"2370067"},{"town":"田浦町四丁目","koaza":"","lat":35.291419,"lng":139.626009,"zip":"2370075"},{"town":"湘南鷹取二丁目","koaza":"","lat":35.306549,"lng":139.620985,"zip":"2370066"},{"town":"湘南鷹取一丁目","koaza":"","lat":35.311179,"lng":139.618635,"zip":"2370066"},{"town":"船越町二丁目","koaza":"","lat":35.296904,"lng":139.622972,"zip":"2370076"},{"town":"光風台","koaza":"","lat":35.23871,"lng":139.710966,"zip":"2390820"},{"town":"長沢六丁目","koaza":"","lat":35.218564,"lng":139.676858,"zip":"2390842"},{"town":"津久井二丁目","koaza":"","lat":35.199453,"lng":139.669538,"zip":"2390843"},{"town":"長沢二丁目","koaza":"","lat":35.206947,"lng":139.680942,"zip":"2390842"},{"town":"長沢四丁目","koaza":"","lat":35.210031,"lng":139.678942,"zip":"2390842"},{"town":"グリーンハイツ","koaza":"","lat":35.205615,"lng":139.670824,"zip":"2390846"},{"town":"津久井一丁目","koaza":"","lat":35.195982,"lng":139.664972,"zip":"2390843"},{"town":"津久井三丁目","koaza":"","lat":35.203285,"lng":139.665729,"zip":"2390843"},{"town":"山科台","koaza":"","lat":35.23621,"lng":139.656051,"zip":"2380312"},{"town":"長沢三丁目","koaza":"","lat":35.211733,"lng":139.682385,"zip":"2390842"},{"town":"野比二丁目","koaza":"","lat":35.21033,"lng":139.688024,"zip":"2390841"},{"town":"野比三丁目","koaza":"","lat":35.213579,"lng":139.691681,"zip":"2390841"},{"town":"野比五丁目","koaza":"","lat":35.214105,"lng":139.706455,"zip":"2390841"},{"town":"野比四丁目","koaza":"","lat":35.216801,"lng":139.696178,"zip":"2390841"},{"town":"池田町六丁目","koaza":"","lat":35.248892,"lng":139.690455,"zip":"2390806"},{"town":"津久井四丁目","koaza":"","lat":35.201579,"lng":139.661372,"zip":"2390843"},{"town":"若宮台","koaza":"","lat":35.237235,"lng":139.705134,"zip":"2390829"},{"town":"舟倉二丁目","koaza":"","lat":35.241046,"lng":139.698981,"zip":"2390805"},{"town":"森崎六丁目","koaza":"","lat":35.248518,"lng":139.671789,"zip":"2380023"},{"town":"西浦賀四丁目","koaza":"","lat":35.23567,"lng":139.72276,"zip":"2390824"},{"town":"西浦賀六丁目","koaza":"","lat":35.23004,"lng":139.726069,"zip":"2390824"},{"town":"長瀬三丁目","koaza":"","lat":35.22796,"lng":139.722078,"zip":"2390826"},{"town":"久里浜九丁目","koaza":"","lat":35.214513,"lng":139.718144,"zip":"2390831"},{"town":"久里浜八丁目","koaza":"","lat":35.220374,"lng":139.711982,"zip":"2390831"},{"town":"長瀬一丁目","koaza":"","lat":35.228292,"lng":139.714709,"zip":"2390826"},{"town":"久里浜台二丁目","koaza":"","lat":35.234206,"lng":139.714959,"zip":"2390827"},{"town":"神明町","koaza":"","lat":35.221592,"lng":139.7034,"zip":"2390832"},{"town":"野比一丁目","koaza":"","lat":35.217116,"lng":139.685428,"zip":"2390841"},{"town":"ハイランド一丁目","koaza":"","lat":35.220884,"lng":139.691466,"zip":"2390833"},{"town":"ハイランド二丁目","koaza":"","lat":35.221811,"lng":139.686355,"zip":"2390833"},{"town":"久里浜五丁目","koaza":"","lat":35.229269,"lng":139.704949,"zip":"2390831"},{"town":"久里浜七丁目","koaza":"","lat":35.225483,"lng":139.712035,"zip":"2390831"},{"town":"久里浜六丁目","koaza":"","lat":35.22739,"lng":139.707858,"zip":"2390831"},{"town":"久村","koaza":"","lat":35.229849,"lng":139.690779,"zip":"2390834"},{"town":"久里浜二丁目","koaza":"","lat":35.229172,"lng":139.698913,"zip":"2390831"},{"town":"久里浜四丁目","koaza":"","lat":35.230056,"lng":139.702971,"zip":"2390831"},{"town":"久比里一丁目","koaza":"","lat":35.234838,"lng":139.706938,"zip":"2390828"},{"town":"佐原四丁目","koaza":"","lat":35.236069,"lng":139.685561,"zip":"2390835"},{"town":"久里浜三丁目","koaza":"","lat":35.224823,"lng":139.697551,"zip":"2390831"},{"town":"ハイランド四丁目","koaza":"","lat":35.225323,"lng":139.691569,"zip":"2390833"},{"town":"ハイランド五丁目","koaza":"","lat":35.222915,"lng":139.694701,"zip":"2390833"},{"town":"光の丘","koaza":"","lat":35.224619,"lng":139.670909,"zip":"2390847"},{"town":"内川新田","koaza":"","lat":35.231913,"lng":139.696016,"zip":"2390837"},{"town":"粟田一丁目","koaza":"","lat":35.228718,"lng":139.678854,"zip":"2390845"},{"town":"岩戸三丁目","koaza":"","lat":35.230521,"lng":139.672767,"zip":"2390844"},{"town":"岩戸二丁目","koaza":"","lat":35.230828,"lng":139.677029,"zip":"2390844"},{"town":"長沢五丁目","koaza":"","lat":35.217781,"lng":139.668601,"zip":"2390842"},{"town":"大矢部五丁目","koaza":"","lat":35.238957,"lng":139.66657,"zip":"2380024"},{"town":"長沢一丁目","koaza":"","lat":35.206544,"lng":139.676031,"zip":"2390842"},{"town":"津久井五丁目","koaza":"","lat":35.212222,"lng":139.663172,"zip":"2390843"},{"town":"岩戸五丁目","koaza":"","lat":35.229998,"lng":139.666234,"zip":"2390844"},{"town":"長井一丁目","koaza":"","lat":35.203727,"lng":139.627061,"zip":"2380316"},{"town":"須軽谷","koaza":"","lat":35.211445,"lng":139.649197,"zip":"2380314"},{"town":"林一丁目","koaza":"","lat":35.221923,"lng":139.640405,"zip":"2380315"},{"town":"武五丁目","koaza":"","lat":35.228886,"lng":139.649597,"zip":"2380313"},{"town":"武二丁目","koaza":"","lat":35.229255,"lng":139.651525,"zip":"2380313"},{"town":"御幸浜","koaza":"","lat":35.214639,"lng":139.630254,"zip":"2380317"},{"town":"太田和二丁目","koaza":"","lat":35.223744,"lng":139.632178,"zip":"2380311"},{"town":"荻野","koaza":"","lat":35.228679,"lng":139.631387,"zip":"2400102"},{"town":"林五丁目","koaza":"","lat":35.212237,"lng":139.636015,"zip":"2380315"},{"town":"林二丁目","koaza":"","lat":35.217905,"lng":139.635641,"zip":"2380315"},{"town":"林四丁目","koaza":"","lat":35.214173,"lng":139.638655,"zip":"2380315"},{"town":"林三丁目","koaza":"","lat":35.215572,"lng":139.644538,"zip":"2380315"},{"town":"武三丁目","koaza":"","lat":35.221103,"lng":139.647092,"zip":"2380313"},{"town":"鴨居二丁目","koaza":"","lat":35.244799,"lng":139.729413,"zip":"2390813"},{"town":"南浦賀","koaza":"","lat":35.23785,"lng":139.71488,"zip":"2390825"},{"town":"久比里二丁目","koaza":"","lat":35.232547,"lng":139.710785,"zip":"2390828"},{"town":"浦賀丘三丁目","koaza":"","lat":35.242707,"lng":139.715867,"zip":"2390823"},{"town":"久里浜台一丁目","koaza":"","lat":35.235586,"lng":139.713223,"zip":"2390827"},{"town":"東浦賀二丁目","koaza":"","lat":35.242631,"lng":139.723461,"zip":"2390821"},{"town":"武一丁目","koaza":"","lat":35.226995,"lng":139.654623,"zip":"2380313"},{"town":"大矢部六丁目","koaza":"","lat":35.233932,"lng":139.663057,"zip":"2380024"},{"town":"二葉二丁目","koaza":"","lat":35.248129,"lng":139.721725,"zip":"2390814"},{"town":"長瀬二丁目","koaza":"","lat":35.230901,"lng":139.719729,"zip":"2390826"},{"town":"西浦賀五丁目","koaza":"","lat":35.235708,"lng":139.718525,"zip":"2390824"},{"town":"西浦賀二丁目","koaza":"","lat":35.239885,"lng":139.717244,"zip":"2390824"},{"town":"浦賀丘一丁目","koaza":"","lat":35.243463,"lng":139.708988,"zip":"2390823"},{"town":"浦賀丘二丁目","koaza":"","lat":35.243553,"lng":139.712093,"zip":"2390823"},{"town":"鴨居一丁目","koaza":"","lat":35.249795,"lng":139.727257,"zip":"2390813"},{"town":"東浦賀一丁目","koaza":"","lat":35.247994,"lng":139.718206,"zip":"2390821"},{"town":"吉井一丁目","koaza":"","lat":35.243053,"lng":139.703168,"zip":"2390804"},{"town":"西浦賀三丁目","koaza":"","lat":35.240931,"lng":139.711996,"zip":"2390824"},{"town":"浦賀六丁目","koaza":"","lat":35.244868,"lng":139.707827,"zip":"2390822"},{"town":"長坂一丁目","koaza":"","lat":35.222414,"lng":139.627761,"zip":"2400101"},{"town":"長坂三丁目","koaza":"","lat":35.229218,"lng":139.626919,"zip":"2400101"},{"town":"太田和一丁目","koaza":"","lat":35.223302,"lng":139.636726,"zip":"2380311"},{"town":"太田和四丁目","koaza":"","lat":35.229813,"lng":139.638257,"zip":"2380311"},{"town":"浦賀五丁目","koaza":"","lat":35.248041,"lng":139.709086,"zip":"2390822"},{"town":"吉井二丁目","koaza":"","lat":35.246536,"lng":139.699623,"zip":"2390804"},{"town":"吉井三丁目","koaza":"","lat":35.249977,"lng":139.700423,"zip":"2390804"},{"town":"池田町二丁目","koaza":"","lat":35.247822,"lng":139.693452,"zip":"2390806"},{"town":"舟倉一丁目","koaza":"","lat":35.237758,"lng":139.699807,"zip":"2390805"},{"town":"池田町四丁目","koaza":"","lat":35.242957,"lng":139.692723,"zip":"2390806"},{"town":"粟田二丁目","koaza":"","lat":35.22582,"lng":139.680789,"zip":"2390845"},{"town":"ハイランド三丁目","koaza":"","lat":35.226584,"lng":139.686425,"zip":"2390833"},{"town":"池田町五丁目","koaza":"","lat":35.246021,"lng":139.688674,"zip":"2390806"},{"town":"佐原五丁目","koaza":"","lat":35.234777,"lng":139.690683,"zip":"2390835"},{"town":"佐原二丁目","koaza":"","lat":35.24343,"lng":139.685315,"zip":"2390835"},{"town":"久里浜一丁目","koaza":"","lat":35.234419,"lng":139.699349,"zip":"2390831"},{"town":"岩戸一丁目","koaza":"","lat":35.23225,"lng":139.679098,"zip":"2390844"},{"town":"岩戸四丁目","koaza":"","lat":35.231361,"lng":139.669377,"zip":"2390844"},{"town":"大矢部四丁目","koaza":"","lat":35.235815,"lng":139.671022,"zip":"2380024"},{"town":"内川二丁目","koaza":"","lat":35.235656,"lng":139.695478,"zip":"2390836"},{"town":"内川一丁目","koaza":"","lat":35.240799,"lng":139.689865,"zip":"2390836"},{"town":"佐原三丁目","koaza":"","lat":35.236001,"lng":139.680752,"zip":"2390835"},{"town":"佐原一丁目","koaza":"","lat":35.23923,"lng":139.679175,"zip":"2390835"},{"town":"森崎一丁目","koaza":"","lat":35.247951,"lng":139.6829,"zip":"2380023"},{"town":"森崎三丁目","koaza":"","lat":35.24579,"lng":139.677922,"zip":"2380023"},{"town":"大矢部一丁目","koaza":"","lat":35.241958,"lng":139.668195,"zip":"2380024"},{"town":"森崎二丁目","koaza":"","lat":35.248309,"lng":139.679503,"zip":"2380023"},{"town":"森崎四丁目","koaza":"","lat":35.247652,"lng":139.673745,"zip":"2380023"},{"town":"大矢部三丁目","koaza":"","lat":35.238072,"lng":139.674543,"zip":"2380024"},{"town":"大矢部二丁目","koaza":"","lat":35.24277,"lng":139.673293,"zip":"2380024"},{"town":"森崎五丁目","koaza":"","lat":35.245013,"lng":139.667492,"zip":"2380023"},{"town":"小矢部四丁目","koaza":"","lat":35.248258,"lng":139.663311,"zip":"2380026"},{"town":"衣笠町","koaza":"","lat":35.241928,"lng":139.656283,"zip":"2380025"},{"town":"小矢部三丁目","koaza":"","lat":35.248554,"lng":139.667934,"zip":"2380026"},{"town":"太田和五丁目","koaza":"","lat":35.236356,"lng":139.64866,"zip":"2380311"},{"town":"長坂五丁目","koaza":"","lat":35.242481,"lng":139.636767,"zip":"2400101"},{"town":"太田和三丁目","koaza":"","lat":35.226219,"lng":139.639673,"zip":"2380311"},{"town":"武四丁目","koaza":"","lat":35.224629,"lng":139.642858,"zip":"2380313"},{"town":"佐島一丁目","koaza":"","lat":35.224052,"lng":139.616765,"zip":"2400103"},{"town":"佐島の丘二丁目","koaza":"","lat":35.227034,"lng":139.610968,"zip":"2400108"},{"town":"秋谷三丁目","koaza":"","lat":35.240707,"lng":139.600513,"zip":"2400105"},{"town":"秋谷二丁目","koaza":"","lat":35.239667,"lng":139.606395,"zip":"2400105"},{"town":"佐島二丁目","koaza":"","lat":35.225687,"lng":139.60844,"zip":"2400103"},{"town":"佐島三丁目","koaza":"","lat":35.226329,"lng":139.605676,"zip":"2400103"},{"town":"佐島の丘一丁目","koaza":"","lat":35.227838,"lng":139.616154,"zip":"2400108"},{"town":"秋谷四丁目","koaza":"","lat":35.245285,"lng":139.614292,"zip":"2400105"},{"town":"芦名一丁目","koaza":"","lat":35.232058,"lng":139.609972,"zip":"2400104"},{"town":"長井六丁目","koaza":"","lat":35.197917,"lng":139.607661,"zip":"2380316"},{"town":"長井五丁目","koaza":"","lat":35.204058,"lng":139.611118,"zip":"2380316"},{"town":"長井四丁目","koaza":"","lat":35.196493,"lng":139.614569,"zip":"2380316"},{"town":"芦名二丁目","koaza":"","lat":35.235019,"lng":139.613987,"zip":"2400104"},{"town":"秋谷一丁目","koaza":"","lat":35.236589,"lng":139.605594,"zip":"2400105"},{"town":"猿島","koaza":"","lat":35.286062,"lng":139.694058,"zip":"2380019"},{"town":"箱崎町","koaza":"","lat":35.300857,"lng":139.650442,"zip":"2370078"},{"town":"泊町","koaza":"","lat":35.294987,"lng":139.671953,"zip":"2380001"},{"town":"港が丘二丁目","koaza":"","lat":35.297697,"lng":139.625645,"zip":"2370079"},{"town":"逸見が丘","koaza":"","lat":35.271893,"lng":139.649048,"zip":"2380044"},{"town":"安針台","koaza":"","lat":35.28613,"lng":139.644394,"zip":"2380048"},{"town":"平成町二丁目","koaza":"","lat":35.272891,"lng":139.683064,"zip":"2380013"},{"town":"馬堀海岸三丁目","koaza":"","lat":35.261856,"lng":139.709988,"zip":"2390801"},{"town":"馬堀海岸一丁目","koaza":"","lat":35.262928,"lng":139.700258,"zip":"2390801"},{"town":"佐野町五丁目","koaza":"","lat":35.259931,"lng":139.670391,"zip":"2380052"},{"town":"池上一丁目","koaza":"","lat":35.267689,"lng":139.647241,"zip":"2380035"},{"town":"走水二丁目","koaza":"","lat":35.261759,"lng":139.731113,"zip":"2390811"},{"town":"走水一丁目","koaza":"","lat":35.260164,"lng":139.723689,"zip":"2390811"},{"town":"浦上台一丁目","koaza":"","lat":35.256581,"lng":139.71124,"zip":"2390815"},{"town":"浦上台四丁目","koaza":"","lat":35.256669,"lng":139.714871,"zip":"2390815"},{"town":"馬堀町四丁目","koaza":"","lat":35.258978,"lng":139.71623,"zip":"2390802"},{"town":"馬堀町二丁目","koaza":"","lat":35.258222,"lng":139.705476,"zip":"2390802"},{"town":"馬堀海岸二丁目","koaza":"","lat":35.261988,"lng":139.705419,"zip":"2390801"},{"town":"馬堀海岸四丁目","koaza":"","lat":35.261765,"lng":139.713631,"zip":"2390801"},{"town":"馬堀町三丁目","koaza":"","lat":35.258386,"lng":139.710572,"zip":"2390802"},{"town":"大津町二丁目","koaza":"","lat":35.260496,"lng":139.698149,"zip":"2390808"},{"town":"馬堀町一丁目","koaza":"","lat":35.258013,"lng":139.698764,"zip":"2390802"},{"town":"大津町三丁目","koaza":"","lat":35.259226,"lng":139.695045,"zip":"2390808"},{"town":"大津町一丁目","koaza":"","lat":35.263009,"lng":139.694632,"zip":"2390808"},{"town":"大津町五丁目","koaza":"","lat":35.258904,"lng":139.687857,"zip":"2390808"},{"town":"平成町三丁目","koaza":"","lat":35.272769,"lng":139.684722,"zip":"2380013"},{"town":"三春町四丁目","koaza":"","lat":35.264056,"lng":139.690739,"zip":"2380014"},{"town":"三春町三丁目","koaza":"","lat":35.265375,"lng":139.6883,"zip":"2380014"},{"town":"富士見町一丁目","koaza":"","lat":35.267119,"lng":139.678749,"zip":"2380021"},{"town":"公郷町五丁目","koaza":"","lat":35.259263,"lng":139.678829,"zip":"2380022"},{"town":"三春町六丁目","koaza":"","lat":35.26425,"lng":139.682002,"zip":"2380014"},{"town":"公郷町六丁目","koaza":"","lat":35.260697,"lng":139.675422,"zip":"2380022"},{"town":"富士見町二丁目","koaza":"","lat":35.264755,"lng":139.676937,"zip":"2380021"},{"town":"佐野町二丁目","koaza":"","lat":35.265711,"lng":139.665893,"zip":"2380052"},{"town":"佐野町一丁目","koaza":"","lat":35.266557,"lng":139.670156,"zip":"2380052"},{"town":"富士見町三丁目","koaza":"","lat":35.264261,"lng":139.673926,"zip":"2380021"},{"town":"三春町二丁目","koaza":"","lat":35.266793,"lng":139.685141,"zip":"2380014"},{"town":"三春町五丁目","koaza":"","lat":35.260693,"lng":139.685619,"zip":"2380014"},{"town":"根岸町五丁目","koaza":"","lat":35.255751,"lng":139.683032,"zip":"2390807"},{"town":"安浦町三丁目","koaza":"","lat":35.270038,"lng":139.679168,"zip":"2380012"},{"town":"三春町一丁目","koaza":"","lat":35.268752,"lng":139.682439,"zip":"2380014"},{"town":"平成町一丁目","koaza":"","lat":35.272095,"lng":139.681728,"zip":"2380013"},{"town":"安浦町二丁目","koaza":"","lat":35.271956,"lng":139.677055,"zip":"2380012"},{"town":"安浦町一丁目","koaza":"","lat":35.273969,"lng":139.676892,"zip":"2380012"},{"town":"日の出町三丁目","koaza":"","lat":35.27596,"lng":139.678962,"zip":"2380006"},{"town":"米が浜通二丁目","koaza":"","lat":35.275851,"lng":139.67589,"zip":"2380011"},{"town":"佐野町三丁目","koaza":"","lat":35.263139,"lng":139.670801,"zip":"2380052"},{"town":"上町二丁目","koaza":"","lat":35.272773,"lng":139.669098,"zip":"2380017"},{"town":"上町三丁目","koaza":"","lat":35.269438,"lng":139.670297,"zip":"2380017"},{"town":"田戸台","koaza":"","lat":35.269779,"lng":139.67429,"zip":"2380015"},{"town":"衣笠栄町二丁目","koaza":"","lat":35.258389,"lng":139.661252,"zip":"2380031"},{"town":"公郷町二丁目","koaza":"","lat":35.255457,"lng":139.668859,"zip":"2380022"},{"town":"衣笠栄町一丁目","koaza":"","lat":35.25796,"lng":139.664445,"zip":"2380031"},{"town":"佐野町六丁目","koaza":"","lat":35.259839,"lng":139.667207,"zip":"2380052"},{"town":"鶴が丘一丁目","koaza":"","lat":35.26646,"lng":139.660276,"zip":"2380056"},{"town":"公郷町三丁目","koaza":"","lat":35.257649,"lng":139.669925,"zip":"2380022"},{"town":"佐野町四丁目","koaza":"","lat":35.262996,"lng":139.666553,"zip":"2380052"},{"town":"不入斗町二丁目","koaza":"","lat":35.265178,"lng":139.662451,"zip":"2380051"},{"town":"望洋台","koaza":"","lat":35.261106,"lng":139.663527,"zip":"2380053"},{"town":"汐見台一丁目","koaza":"","lat":35.262704,"lng":139.659341,"zip":"2380054"},{"town":"汐見台二丁目","koaza":"","lat":35.26341,"lng":139.660008,"zip":"2380054"},{"town":"汐見台三丁目","koaza":"","lat":35.263152,"lng":139.66226,"zip":"2380054"},{"town":"平和台","koaza":"","lat":35.265388,"lng":139.660624,"zip":"2380055"},{"town":"不入斗町一丁目","koaza":"","lat":35.268029,"lng":139.665149,"zip":"2380051"},{"town":"深田台","koaza":"","lat":35.274745,"lng":139.672357,"zip":"2380016"},{"town":"米が浜通一丁目","koaza":"","lat":35.277364,"lng":139.674349,"zip":"2380011"},{"town":"不入斗町四丁目","koaza":"","lat":35.272356,"lng":139.663085,"zip":"2380051"},{"town":"上町四丁目","koaza":"","lat":35.271551,"lng":139.665261,"zip":"2380017"},{"town":"平作一丁目","koaza":"","lat":35.257,"lng":139.654686,"zip":"2380032"},{"town":"衣笠栄町三丁目","koaza":"","lat":35.260585,"lng":139.658618,"zip":"2380031"},{"town":"衣笠栄町四丁目","koaza":"","lat":35.263706,"lng":139.656195,"zip":"2380031"},{"town":"平作五丁目","koaza":"","lat":35.2577,"lng":139.645931,"zip":"2380032"},{"town":"平作七丁目","koaza":"","lat":35.258892,"lng":139.651744,"zip":"2380032"},{"town":"金谷一丁目","koaza":"","lat":35.264945,"lng":139.650201,"zip":"2380034"},{"town":"平作八丁目","koaza":"","lat":35.261127,"lng":139.650191,"zip":"2380032"},{"town":"池上三丁目","koaza":"","lat":35.261601,"lng":139.647307,"zip":"2380035"},{"town":"池上四丁目","koaza":"","lat":35.262353,"lng":139.643097,"zip":"2380035"},{"town":"池上二丁目","koaza":"","lat":35.265145,"lng":139.647409,"zip":"2380035"},{"town":"鶴が丘二丁目","koaza":"","lat":35.266048,"lng":139.657177,"zip":"2380056"},{"town":"不入斗町三丁目","koaza":"","lat":35.269504,"lng":139.659702,"zip":"2380051"},{"town":"金谷三丁目","koaza":"","lat":35.261437,"lng":139.653319,"zip":"2380034"},{"town":"金谷二丁目","koaza":"","lat":35.263289,"lng":139.653001,"zip":"2380034"},{"town":"坂本町一丁目","koaza":"","lat":35.272028,"lng":139.658479,"zip":"2380043"},{"town":"汐入町三丁目","koaza":"","lat":35.276633,"lng":139.664071,"zip":"2380042"},{"town":"上町一丁目","koaza":"","lat":35.276483,"lng":139.66804,"zip":"2380017"},{"town":"坂本町三丁目","koaza":"","lat":35.268696,"lng":139.654189,"zip":"2380043"},{"town":"坂本町二丁目","koaza":"","lat":35.274645,"lng":139.655231,"zip":"2380043"},{"town":"汐入町四丁目","koaza":"","lat":35.276725,"lng":139.657959,"zip":"2380042"},{"town":"坂本町四丁目","koaza":"","lat":35.273156,"lng":139.653175,"zip":"2380043"},{"town":"東逸見町四丁目","koaza":"","lat":35.273046,"lng":139.646744,"zip":"2380045"},{"town":"池上五丁目","koaza":"","lat":35.264548,"lng":139.642255,"zip":"2380035"},{"town":"坂本町六丁目","koaza":"","lat":35.269723,"lng":139.649075,"zip":"2380043"},{"town":"坂本町五丁目","koaza":"","lat":35.268239,"lng":139.650864,"zip":"2380043"},{"town":"池上七丁目","koaza":"","lat":35.269196,"lng":139.643452,"zip":"2380035"},{"town":"東逸見町三丁目","koaza":"","lat":35.275641,"lng":139.649099,"zip":"2380045"},{"town":"新港町","koaza":"","lat":35.28184,"lng":139.67649,"zip":"2380005"},{"town":"日の出町二丁目","koaza":"","lat":35.278231,"lng":139.677647,"zip":"2380006"},{"town":"若松町一丁目","koaza":"","lat":35.279876,"lng":139.671761,"zip":"2380007"},{"town":"若松町二丁目","koaza":"","lat":35.278595,"lng":139.669572,"zip":"2380007"},{"town":"若松町三丁目","koaza":"","lat":35.278358,"lng":139.672195,"zip":"2380007"},{"town":"日の出町一丁目","koaza":"","lat":35.279912,"lng":139.675289,"zip":"2380006"},{"town":"大滝町二丁目","koaza":"","lat":35.280995,"lng":139.669661,"zip":"2380008"},{"town":"本町二丁目","koaza":"","lat":35.282581,"lng":139.664564,"zip":"2380041"},{"town":"本町三丁目","koaza":"","lat":35.28193,"lng":139.662227,"zip":"2380041"},{"town":"緑が丘","koaza":"","lat":35.280073,"lng":139.667025,"zip":"2380018"},{"town":"楠ケ浦町","koaza":"","lat":35.287913,"lng":139.665865,"zip":"2380002"},{"town":"本町一丁目","koaza":"","lat":35.282326,"lng":139.666977,"zip":"2380041"},{"town":"稲岡町","koaza":"","lat":35.285054,"lng":139.669649,"zip":"2380003"},{"town":"大滝町一丁目","koaza":"","lat":35.282241,"lng":139.668842,"zip":"2380008"},{"town":"小川町","koaza":"","lat":35.282367,"lng":139.672159,"zip":"2380004"},{"town":"汐入町五丁目","koaza":"","lat":35.279897,"lng":139.657476,"zip":"2380042"},{"town":"東逸見町二丁目","koaza":"","lat":35.278786,"lng":139.651905,"zip":"2380045"},{"town":"西逸見町一丁目","koaza":"","lat":35.285012,"lng":139.650637,"zip":"2380046"},{"town":"西逸見町二丁目","koaza":"","lat":35.280329,"lng":139.648806,"zip":"2380046"},{"town":"汐入町二丁目","koaza":"","lat":35.280742,"lng":139.660585,"zip":"2380042"},{"town":"長浦町一丁目","koaza":"","lat":35.293165,"lng":139.64627,"zip":"2370072"},{"town":"吉倉町二丁目","koaza":"","lat":35.283434,"lng":139.645095,"zip":"2380047"},{"town":"吉倉町一丁目","koaza":"","lat":35.286958,"lng":139.648059,"zip":"2380047"},{"town":"汐入町一丁目","koaza":"","lat":35.283181,"lng":139.658299,"zip":"2380042"},{"town":"東逸見町一丁目","koaza":"","lat":35.283303,"lng":139.654395,"zip":"2380045"},{"town":"山中町","koaza":"","lat":35.276118,"lng":139.637645,"zip":"2380036"},{"town":"西逸見町三丁目","koaza":"","lat":35.280331,"lng":139.643797,"zip":"2380046"},{"town":"池上六丁目","koaza":"","lat":35.266913,"lng":139.639896,"zip":"2380035"},{"town":"長浦町三丁目","koaza":"","lat":35.283209,"lng":139.639419,"zip":"2370072"},{"town":"長浦町五丁目","koaza":"","lat":35.28953,"lng":139.64004,"zip":"2370072"},{"town":"長浦町二丁目","koaza":"","lat":35.289273,"lng":139.643751,"zip":"2370072"},{"town":"田浦町二丁目","koaza":"","lat":35.29011,"lng":139.634162,"zip":"2370075"},{"town":"田浦町一丁目","koaza":"","lat":35.290699,"lng":139.636604,"zip":"2370075"},{"town":"田浦港町","koaza":"","lat":35.295448,"lng":139.642887,"zip":"2370071"},{"town":"港が丘一丁目","koaza":"","lat":35.294851,"lng":139.624487,"zip":"2370079"},{"town":"田浦町六丁目","koaza":"","lat":35.29592,"lng":139.627164,"zip":"2370075"},{"town":"田浦町五丁目","koaza":"","lat":35.293937,"lng":139.630236,"zip":"2370075"},{"town":"船越町一丁目","koaza":"","lat":35.299461,"lng":139.629156,"zip":"2370076"},{"town":"浦郷町一丁目","koaza":"","lat":35.305058,"lng":139.63805,"zip":"2370062"},{"town":"田浦町三丁目","koaza":"","lat":35.290818,"lng":139.630706,"zip":"2370075"},{"town":"船越町七丁目","koaza":"","lat":35.303031,"lng":139.633719,"zip":"2370076"},{"town":"船越町五丁目","koaza":"","lat":35.30252,"lng":139.625291,"zip":"2370076"},{"town":"船越町八丁目","koaza":"","lat":35.306371,"lng":139.632154,"zip":"2370076"},{"town":"浜見台一丁目","koaza":"","lat":35.30941,"lng":139.627322,"zip":"2370077"},{"town":"浦郷町三丁目","koaza":"","lat":35.312608,"lng":139.635156,"zip":"2370062"},{"town":"追浜東町二丁目","koaza":"","lat":35.312092,"lng":139.630261,"zip":"2370063"},{"town":"浦郷町五丁目","koaza":"","lat":35.312132,"lng":139.64083,"zip":"2370062"},{"town":"浦郷町四丁目","koaza":"","lat":35.315719,"lng":139.635427,"zip":"2370062"},{"town":"夏島町","koaza":"","lat":35.321507,"lng":139.643625,"zip":"2370061"},{"town":"浜見台二丁目","koaza":"","lat":35.307103,"lng":139.62913,"zip":"2370077"},{"town":"浦郷町二丁目","koaza":"","lat":35.308939,"lng":139.635114,"zip":"2370062"},{"town":"追浜東町一丁目","koaza":"","lat":35.309819,"lng":139.63065,"zip":"2370063"},{"town":"追浜町一丁目","koaza":"","lat":35.307757,"lng":139.625629,"zip":"2370064"},{"town":"船越町六丁目","koaza":"","lat":35.304333,"lng":139.627472,"zip":"2370076"},{"town":"追浜南町一丁目","koaza":"","lat":35.313625,"lng":139.623517,"zip":"2370065"},{"town":"追浜町二丁目","koaza":"","lat":35.312291,"lng":139.626497,"zip":"2370064"},{"town":"長浦町四丁目","koaza":"","lat":35.285693,"lng":139.63928,"zip":"2370072"},{"town":"追浜東町三丁目","koaza":"","lat":35.315049,"lng":139.630495,"zip":"2370063"},{"town":"追浜本町二丁目","koaza":"","lat":35.321277,"lng":139.629709,"zip":"2370068"},{"town":"田浦泉町","koaza":"","lat":35.282401,"lng":139.631143,"zip":"2370073"},{"town":"追浜町三丁目","koaza":"","lat":35.315326,"lng":139.626668,"zip":"2370064"},{"town":"追浜本町一丁目","koaza":"","lat":35.318692,"lng":139.626887,"zip":"2370068"},{"town":"湘南鷹取六丁目","koaza":"","lat":35.315244,"lng":139.61441,"zip":"2370066"},{"town":"追浜南町三丁目","koaza":"","lat":35.309159,"lng":139.619909,"zip":"2370065"},{"town":"湘南鷹取四丁目","koaza":"","lat":35.308849,"lng":139.614307,"zip":"2370066"},{"town":"湘南鷹取三丁目","koaza":"","lat":35.305082,"lng":139.616169,"zip":"2370066"},{"town":"湘南鷹取五丁目","koaza":"","lat":35.312827,"lng":139.613343,"zip":"2370066"},{"town":"大津町四丁目","koaza":"","lat":35.257611,"lng":139.691738,"zip":"2390808"},{"town":"根岸町二丁目","koaza":"","lat":35.251368,"lng":139.688816,"zip":"2390807"},{"town":"根岸町一丁目","koaza":"","lat":35.253491,"lng":139.686513,"zip":"2390807"},{"town":"浦賀四丁目","koaza":"","lat":35.24746,"lng":139.716093,"zip":"2390822"},{"town":"浦賀七丁目","koaza":"","lat":35.243845,"lng":139.716851,"zip":"2390822"},{"town":"西浦賀一丁目","koaza":"","lat":35.2406,"lng":139.719163,"zip":"2390824"}]