[{"town":"河原口五丁目","koaza":"","lat":35.449496,"lng":139.382276,"zip":"2430433"},{"town":"河原口四丁目","koaza":"","lat":35.448997,"lng":139.378683,"zip":"2430433"},{"town":"河原口三丁目","koaza":"","lat":35.451965,"lng":139.377312,"zip":"2430433"},{"town":"河原口二丁目","koaza":"","lat":35.447877,"lng":139.37593,"zip":"2430433"},{"town":"河原口一丁目","koaza":"","lat":35.444212,"lng":139.377107,"zip":"2430433"},{"town":"中野三丁目","koaza":"","lat":35.412676,"lng":139.38161,"zip":"2430425"},{"town":"中野二丁目","koaza":"","lat":35.412892,"lng":139.376429,"zip":"2430425"},{"town":"中野一丁目","koaza":"","lat":35.41291,"lng":139.373388,"zip":"2430425"},{"town":"今里三丁目","koaza":"","lat":35.428227,"lng":139.386113,"zip":"2430423"},{"town":"今里二丁目","koaza":"","lat":35.426493,"lng":139.389017,"zip":"2430423"},{"town":"今里一丁目","koaza":"","lat":35.430511,"lng":139.388832,"zip":"2430423"},{"town":"社家","koaza":"","lat":35.422593,"lng":139.37852,"zip":"2430424"},{"town":"門沢橋","koaza":"","lat":35.405424,"lng":139.371732,"zip":"2430426"},{"town":"中野","koaza":"","lat":35.413018,"lng":139.371103,"zip":"2430425"},{"town":"杉久保南三丁目","koaza":"","lat":35.420502,"lng":139.405901,"zip":"2430427"},{"town":"杉久保南四丁目","koaza":"","lat":35.420454,"lng":139.400213,"zip":"2430427"},{"town":"上河内","koaza":"","lat":35.420968,"lng":139.390678,"zip":"2430415"},{"town":"杉久保南五丁目","koaza":"","lat":35.419489,"lng":139.397889,"zip":"2430427"},{"town":"中河内","koaza":"","lat":35.416074,"lng":139.390183,"zip":"2430416"},{"town":"河原口","koaza":"","lat":35.447341,"lng":139.372724,"zip":"2430433"},{"town":"門沢橋五丁目","koaza":"","lat":35.402925,"lng":139.380482,"zip":"2430426"},{"town":"門沢橋六丁目","koaza":"","lat":35.403683,"lng":139.38384,"zip":"2430426"},{"town":"門沢橋二丁目","koaza":"","lat":35.407953,"lng":139.377303,"zip":"2430426"},{"town":"門沢橋三丁目","koaza":"","lat":35.403434,"lng":139.375789,"zip":"2430426"},{"town":"門沢橋四丁目","koaza":"","lat":35.403922,"lng":139.378547,"zip":"2430426"},{"town":"門沢橋一丁目","koaza":"","lat":35.408329,"lng":139.382473,"zip":"2430426"},{"town":"本郷","koaza":"","lat":35.409273,"lng":139.395961,"zip":"2430417"},{"town":"杉久保北五丁目","koaza":"","lat":35.424001,"lng":139.406216,"zip":"2430410"},{"town":"杉久保北四丁目","koaza":"","lat":35.427055,"lng":139.402311,"zip":"2430410"},{"town":"杉久保南二丁目","koaza":"","lat":35.423748,"lng":139.400888,"zip":"2430427"},{"town":"杉久保南一丁目","koaza":"","lat":35.423335,"lng":139.396234,"zip":"2430427"},{"town":"杉久保北二丁目","koaza":"","lat":35.426452,"lng":139.396601,"zip":"2430410"},{"town":"大谷南四丁目","koaza":"","lat":35.432753,"lng":139.395619,"zip":"2430418"},{"town":"大谷南三丁目","koaza":"","lat":35.435238,"lng":139.39983,"zip":"2430418"},{"town":"大谷南二丁目","koaza":"","lat":35.437327,"lng":139.396816,"zip":"2430418"},{"town":"大谷北三丁目","koaza":"","lat":35.44037,"lng":139.397635,"zip":"2430419"},{"town":"大谷北一丁目","koaza":"","lat":35.443708,"lng":139.39299,"zip":"2430419"},{"town":"大谷","koaza":"","lat":35.438596,"lng":139.390539,"zip":"2430411"},{"town":"中新田五丁目","koaza":"","lat":35.432067,"lng":139.381304,"zip":"2430422"},{"town":"中新田三丁目","koaza":"","lat":35.439069,"lng":139.380156,"zip":"2430422"},{"town":"中新田一丁目","koaza":"","lat":35.439892,"lng":139.386181,"zip":"2430422"},{"town":"上郷一丁目","koaza":"","lat":35.455582,"lng":139.381791,"zip":"2430434"},{"town":"上郷三丁目","koaza":"","lat":35.461176,"lng":139.381202,"zip":"2430434"},{"town":"下今泉一丁目","koaza":"","lat":35.461556,"lng":139.385462,"zip":"2430435"},{"town":"下今泉五丁目","koaza":"","lat":35.464716,"lng":139.390151,"zip":"2430435"},{"town":"下今泉二丁目","koaza":"","lat":35.465421,"lng":139.38672,"zip":"2430435"},{"town":"国分北四丁目","koaza":"","lat":35.464396,"lng":139.407018,"zip":"2430406"},{"town":"中央一丁目","koaza":"","lat":35.453636,"lng":139.394716,"zip":"2430432"},{"town":"国分北三丁目","koaza":"","lat":35.461228,"lng":139.403497,"zip":"2430406"},{"town":"国分南一丁目","koaza":"","lat":35.454605,"lng":139.397581,"zip":"2430405"},{"town":"大谷南五丁目","koaza":"","lat":35.43248,"lng":139.402523,"zip":"2430418"},{"town":"杉久保","koaza":"","lat":35.427731,"lng":139.392353,"zip":"2430414"},{"town":"中新田四丁目","koaza":"","lat":35.432416,"lng":139.384358,"zip":"2430422"},{"town":"上郷二丁目","koaza":"","lat":35.456482,"lng":139.378758,"zip":"2430434"},{"town":"下今泉三丁目","koaza":"","lat":35.469157,"lng":139.387476,"zip":"2430435"},{"town":"望地一丁目","koaza":"","lat":35.451261,"lng":139.405526,"zip":"2430403"},{"town":"国分寺台四丁目","koaza":"","lat":35.434617,"lng":139.405291,"zip":"2430413"},{"town":"国分寺台三丁目","koaza":"","lat":35.437063,"lng":139.406357,"zip":"2430413"},{"town":"杉久保北三丁目","koaza":"","lat":35.429303,"lng":139.400307,"zip":"2430410"},{"town":"国分寺台五丁目","koaza":"","lat":35.432269,"lng":139.408132,"zip":"2430413"},{"town":"国分南四丁目","koaza":"","lat":35.450474,"lng":139.402523,"zip":"2430405"},{"town":"大谷北四丁目","koaza":"","lat":35.43855,"lng":139.401508,"zip":"2430419"},{"town":"今里","koaza":"","lat":35.424482,"lng":139.389401,"zip":"2430423"},{"town":"杉久保北一丁目","koaza":"","lat":35.429031,"lng":139.394893,"zip":"2430410"},{"town":"大谷南一丁目","koaza":"","lat":35.436864,"lng":139.392884,"zip":"2430418"},{"town":"国分南三丁目","koaza":"","lat":35.449348,"lng":139.398623,"zip":"2430405"},{"town":"中新田","koaza":"","lat":35.435437,"lng":139.37645,"zip":"2430422"},{"town":"大谷北二丁目","koaza":"","lat":35.444389,"lng":139.397828,"zip":"2430419"},{"town":"国分寺台一丁目","koaza":"","lat":35.444633,"lng":139.404032,"zip":"2430413"},{"town":"浜田町","koaza":"","lat":35.443305,"lng":139.401469,"zip":"2430412"},{"town":"国分寺台二丁目","koaza":"","lat":35.439368,"lng":139.404525,"zip":"2430413"},{"town":"中新田二丁目","koaza":"","lat":35.442009,"lng":139.381479,"zip":"2430422"},{"town":"勝瀬","koaza":"","lat":35.446514,"lng":139.398054,"zip":"2430404"},{"town":"中央二丁目","koaza":"","lat":35.448959,"lng":139.393843,"zip":"2430432"},{"town":"中央三丁目","koaza":"","lat":35.449858,"lng":139.389866,"zip":"2430432"},{"town":"さつき町","koaza":"","lat":35.446045,"lng":139.381006,"zip":"2430421"},{"town":"東柏ケ谷五丁目","koaza":"","lat":35.469247,"lng":139.431458,"zip":"2430401"},{"town":"東柏ケ谷四丁目","koaza":"","lat":35.474306,"lng":139.433742,"zip":"2430401"},{"town":"東柏ケ谷二丁目","koaza":"","lat":35.469611,"lng":139.426407,"zip":"2430401"},{"town":"東柏ケ谷一丁目","koaza":"","lat":35.467717,"lng":139.426837,"zip":"2430401"},{"town":"東柏ケ谷三丁目","koaza":"","lat":35.473521,"lng":139.43012,"zip":"2430401"},{"town":"東柏ケ谷六丁目","koaza":"","lat":35.469321,"lng":139.434726,"zip":"2430401"},{"town":"国分北二丁目","koaza":"","lat":35.460215,"lng":139.399148,"zip":"2430406"},{"town":"上今泉一丁目","koaza":"","lat":35.465822,"lng":139.402344,"zip":"2430431"},{"town":"国分南二丁目","koaza":"","lat":35.456195,"lng":139.401819,"zip":"2430405"},{"town":"上今泉四丁目","koaza":"","lat":35.470492,"lng":139.401378,"zip":"2430431"},{"town":"上今泉六丁目","koaza":"","lat":35.468577,"lng":139.409519,"zip":"2430431"},{"town":"上今泉五丁目","koaza":"","lat":35.470078,"lng":139.406966,"zip":"2430431"},{"town":"望地二丁目","koaza":"","lat":35.455178,"lng":139.406214,"zip":"2430403"},{"town":"柏ケ谷","koaza":"","lat":35.463163,"lng":139.411962,"zip":"2430402"},{"town":"下今泉四丁目","koaza":"","lat":35.469234,"lng":139.389965,"zip":"2430435"},{"town":"上今泉三丁目","koaza":"","lat":35.470726,"lng":139.397452,"zip":"2430431"},{"town":"上今泉二丁目","koaza":"","lat":35.466378,"lng":139.396908,"zip":"2430431"},{"town":"上郷四丁目","koaza":"","lat":35.467438,"lng":139.382674,"zip":"2430434"},{"town":"下今泉","koaza":"","lat":35.462188,"lng":139.390538,"zip":"2430435"},{"town":"国分北一丁目","koaza":"","lat":35.459856,"lng":139.395281,"zip":"2430406"},{"town":"上今泉","koaza":"","lat":35.464962,"lng":139.39321,"zip":"2430431"},{"town":"扇町","koaza":"","lat":35.455726,"lng":139.388738,"zip":"2430436"},{"town":"泉二丁目","koaza":"","lat":35.460015,"lng":139.389494,"zip":"2430437"},{"town":"泉一丁目","koaza":"","lat":35.457576,"lng":139.392298,"zip":"2430437"},{"town":"上郷","koaza":"","lat":35.452873,"lng":139.384563,"zip":"2430434"},{"town":"めぐみ町","koaza":"","lat":35.453109,"lng":139.389094,"zip":"2430438"},{"town":"本郷","koaza":"五反田","lat":35.406097,"lng":139.389879,"zip":"2430417"},{"town":"社家一丁目","koaza":"","lat":null,"lng":null,"zip":null},{"town":"社家二丁目","koaza":"","lat":null,"lng":null,"zip":null},{"town":"社家三丁目","koaza":"","lat":null,"lng":null,"zip":null},{"town":"社家四丁目","koaza":"","lat":null,"lng":null,"zip":null},{"town":"社家五丁目","koaza":"","lat":null,"lng":null,"zip":null},{"town":"社家六丁目","koaza":"","lat":null,"lng":null,"zip":null}]