[{"town":"田名","koaza":"","lat":35.568457,"lng":139.329062,"zip":"2520124"},{"town":"下九沢","koaza":"","lat":35.577841,"lng":139.336837,"zip":"2520134"},{"town":"青根","koaza":"","lat":35.517387,"lng":139.116535,"zip":"2520162"},{"town":"中野","koaza":"","lat":35.583885,"lng":139.249382,"zip":"2520157"},{"town":"青山","koaza":"","lat":35.559189,"lng":139.24178,"zip":"2520156"},{"town":"鳥屋","koaza":"","lat":35.51612,"lng":139.175763,"zip":"2520155"},{"town":"牧野","koaza":"","lat":35.571505,"lng":139.164044,"zip":"2520186"},{"town":"大山町","koaza":"","lat":35.588353,"lng":139.349194,"zip":"2520146"},{"town":"向原三丁目","koaza":"","lat":35.587556,"lng":139.30365,"zip":"2520104"},{"town":"城山一丁目","koaza":"","lat":35.587484,"lng":139.28875,"zip":"2520116"},{"town":"城山二丁目","koaza":"","lat":35.588665,"lng":139.28402,"zip":"2520116"},{"town":"橋本台一丁目","koaza":"","lat":35.583509,"lng":139.342937,"zip":"2520132"},{"town":"西橋本一丁目","koaza":"","lat":35.588995,"lng":139.338729,"zip":"2520131"},{"town":"橋本台二丁目","koaza":"","lat":35.58639,"lng":139.3369,"zip":"2520132"},{"town":"橋本台三丁目","koaza":"","lat":35.588557,"lng":139.33159,"zip":"2520132"},{"town":"橋本台四丁目","koaza":"","lat":35.587826,"lng":139.32629,"zip":"2520132"},{"town":"橋本一丁目","koaza":"","lat":35.589334,"lng":139.344309,"zip":"2520143"},{"town":"小倉","koaza":"","lat":35.572924,"lng":139.298263,"zip":"2520115"},{"town":"太井","koaza":"","lat":35.585065,"lng":139.273573,"zip":"2520152"},{"town":"三井","koaza":"","lat":35.598002,"lng":139.259054,"zip":"2520151"},{"town":"大島","koaza":"","lat":35.573763,"lng":139.321128,"zip":"2520135"},{"town":"寸沢嵐","koaza":"","lat":35.586129,"lng":139.206876,"zip":"2520188"},{"town":"又野","koaza":"","lat":35.594432,"lng":139.246832,"zip":"2520158"},{"town":"三ケ木","koaza":"","lat":35.590679,"lng":139.22922,"zip":"2520159"},{"town":"佐野川","koaza":"","lat":35.651835,"lng":139.141826,"zip":"2520181"},{"town":"根小屋","koaza":"","lat":35.566728,"lng":139.284283,"zip":"2520153"},{"town":"葉山島","koaza":"","lat":35.557768,"lng":139.315008,"zip":"2520114"},{"town":"上九沢","koaza":"","lat":35.579117,"lng":139.327946,"zip":"2520136"},{"town":"長竹","koaza":"","lat":35.560593,"lng":139.264177,"zip":"2520154"},{"town":"青野原","koaza":"","lat":35.553944,"lng":139.186736,"zip":"2520161"},{"town":"原宿南三丁目","koaza":"","lat":35.593088,"lng":139.310837,"zip":"2520103"},{"town":"谷ヶ原二丁目","koaza":"","lat":35.589649,"lng":139.29565,"zip":"2520113"},{"town":"向原二丁目","koaza":"","lat":35.588885,"lng":139.301441,"zip":"2520104"},{"town":"城山三丁目","koaza":"","lat":35.592324,"lng":139.28411,"zip":"2520116"},{"town":"久保沢二丁目","koaza":"","lat":35.596542,"lng":139.300181,"zip":"2520105"},{"town":"久保沢一丁目","koaza":"","lat":35.597315,"lng":139.303593,"zip":"2520105"},{"town":"原宿四丁目","koaza":"","lat":35.598033,"lng":139.306057,"zip":"2520102"},{"town":"原宿三丁目","koaza":"","lat":35.598033,"lng":139.310585,"zip":"2520102"},{"town":"原宿五丁目","koaza":"","lat":35.59504,"lng":139.306305,"zip":"2520102"},{"town":"原宿南二丁目","koaza":"","lat":35.594938,"lng":139.311181,"zip":"2520103"},{"town":"久保沢三丁目","koaza":"","lat":35.591874,"lng":139.301813,"zip":"2520105"},{"town":"町屋一丁目","koaza":"","lat":35.600412,"lng":139.310908,"zip":"2520101"},{"town":"町屋四丁目","koaza":"","lat":35.601465,"lng":139.305309,"zip":"2520101"},{"town":"広田","koaza":"","lat":35.603482,"lng":139.301191,"zip":"2520106"},{"town":"町屋三丁目","koaza":"","lat":35.603772,"lng":139.306004,"zip":"2520101"},{"town":"相原一丁目","koaza":"","lat":35.603162,"lng":139.327102,"zip":"2520141"},{"town":"相原三丁目","koaza":"","lat":35.604283,"lng":139.322386,"zip":"2520141"},{"town":"原宿一丁目","koaza":"","lat":35.599469,"lng":139.314496,"zip":"2520102"},{"town":"原宿南一丁目","koaza":"","lat":35.594399,"lng":139.314272,"zip":"2520103"},{"town":"二本松二丁目","koaza":"","lat":35.591149,"lng":139.31812,"zip":"2520137"},{"town":"元橋本町","koaza":"","lat":35.603127,"lng":139.336629,"zip":"2520142"},{"town":"相原五丁目","koaza":"","lat":35.599987,"lng":139.317699,"zip":"2520141"},{"town":"川尻","koaza":"","lat":35.605021,"lng":139.282294,"zip":"2520111"},{"town":"西橋本二丁目","koaza":"","lat":35.593449,"lng":139.337989,"zip":"2520131"},{"town":"橋本二丁目","koaza":"","lat":35.595034,"lng":139.342009,"zip":"2520143"},{"town":"西橋本三丁目","koaza":"","lat":35.592625,"lng":139.332859,"zip":"2520131"},{"town":"原宿二丁目","koaza":"","lat":35.597,"lng":139.31224,"zip":"2520102"},{"town":"東橋本一丁目","koaza":"","lat":35.591669,"lng":139.353071,"zip":"2520144"},{"town":"橋本七丁目","koaza":"","lat":35.600206,"lng":139.336968,"zip":"2520143"},{"town":"橋本三丁目","koaza":"","lat":35.595433,"lng":139.348108,"zip":"2520143"},{"town":"橋本六丁目","koaza":"","lat":35.597929,"lng":139.34269,"zip":"2520143"},{"town":"橋本五丁目","koaza":"","lat":35.600981,"lng":139.344231,"zip":"2520143"},{"town":"西橋本四丁目","koaza":"","lat":35.592892,"lng":139.328252,"zip":"2520131"},{"town":"橋本八丁目","koaza":"","lat":35.599728,"lng":139.332671,"zip":"2520143"},{"town":"二本松一丁目","koaza":"","lat":35.592023,"lng":139.323782,"zip":"2520137"},{"town":"西橋本五丁目","koaza":"","lat":35.59662,"lng":139.332087,"zip":"2520131"},{"town":"相原二丁目","koaza":"","lat":35.600576,"lng":139.327258,"zip":"2520141"},{"town":"二本松三丁目","koaza":"","lat":35.5959,"lng":139.31794,"zip":"2520137"},{"town":"二本松四丁目","koaza":"","lat":35.596398,"lng":139.323138,"zip":"2520137"},{"town":"相原四丁目","koaza":"","lat":35.601433,"lng":139.321553,"zip":"2520141"},{"town":"若葉台一丁目","koaza":"","lat":35.596499,"lng":139.296797,"zip":"2520112"},{"town":"谷ヶ原一丁目","koaza":"","lat":35.593446,"lng":139.297251,"zip":"2520113"},{"town":"若葉台三丁目","koaza":"","lat":35.594091,"lng":139.294355,"zip":"2520112"},{"town":"若葉台二丁目","koaza":"","lat":35.595899,"lng":139.295032,"zip":"2520112"},{"town":"若葉台七丁目","koaza":"","lat":35.598006,"lng":139.294253,"zip":"2520112"},{"town":"若葉台四丁目","koaza":"","lat":35.595915,"lng":139.292055,"zip":"2520112"},{"town":"若葉台六丁目","koaza":"","lat":35.597535,"lng":139.290943,"zip":"2520112"},{"town":"町屋二丁目","koaza":"","lat":35.60293,"lng":139.311263,"zip":"2520101"},{"town":"相原六丁目","koaza":"","lat":35.603474,"lng":139.316398,"zip":"2520141"},{"town":"城山四丁目","koaza":"","lat":35.594364,"lng":139.285606,"zip":"2520116"},{"town":"若葉台五丁目","koaza":"","lat":35.594989,"lng":139.289644,"zip":"2520112"},{"town":"東橋本二丁目","koaza":"","lat":35.593673,"lng":139.354431,"zip":"2520144"},{"town":"中沢","koaza":"","lat":35.595703,"lng":139.277514,"zip":"2520117"},{"town":"与瀬本町","koaza":"","lat":35.615764,"lng":139.188882,"zip":"2520172"},{"town":"名倉","koaza":"","lat":35.60583,"lng":139.141984,"zip":"2520187"},{"town":"小渕","koaza":"","lat":35.623453,"lng":139.137423,"zip":"2520184"},{"town":"吉野","koaza":"","lat":35.632021,"lng":139.165575,"zip":"2520183"},{"town":"澤井","koaza":"","lat":35.635385,"lng":139.148584,"zip":"2520182"},{"town":"千木良","koaza":"","lat":35.62695,"lng":139.21214,"zip":"2520174"},{"town":"日連","koaza":"","lat":35.607578,"lng":139.170395,"zip":"2520185"},{"town":"若柳","koaza":"","lat":35.607171,"lng":139.205709,"zip":"2520175"},{"town":"与瀬","koaza":"","lat":35.62851,"lng":139.180379,"zip":"2520171"},{"town":"小原","koaza":"","lat":35.635405,"lng":139.196444,"zip":"2520173"},{"town":"向原一丁目","koaza":"","lat":35.591995,"lng":139.304442,"zip":"2520104"},{"town":"向原四丁目","koaza":"","lat":35.589608,"lng":139.305702,"zip":"2520104"},{"town":"橋本四丁目","koaza":"","lat":35.599006,"lng":139.349698,"zip":"2520143"},{"town":"東橋本三丁目","koaza":"","lat":35.598116,"lng":139.353943,"zip":"2520144"},{"town":"東橋本四丁目","koaza":"","lat":35.596778,"lng":139.358573,"zip":"2520144"},{"town":"寸沢嵐","koaza":"新戸","lat":35.593185,"lng":139.203014,"zip":"2520188"}]