[{"town":"上大槻","koaza":"","lat":35.361692,"lng":139.24339,"zip":"2570005"},{"town":"名古木","koaza":"","lat":35.387345,"lng":139.243845,"zip":"2570024"},{"town":"南矢名","koaza":"","lat":35.37338,"lng":139.250105,"zip":"2570003"},{"town":"下大槻","koaza":"","lat":35.359608,"lng":139.258235,"zip":"2570004"},{"town":"曽屋","koaza":"","lat":35.371437,"lng":139.238989,"zip":"2570031"},{"town":"蓑毛","koaza":"","lat":35.419514,"lng":139.232032,"zip":"2570021"},{"town":"菩提","koaza":"","lat":35.411543,"lng":139.199063,"zip":"2591302"},{"town":"堀山下","koaza":"","lat":35.41712,"lng":139.163272,"zip":"2591304"},{"town":"横野","koaza":"","lat":35.417396,"lng":139.179203,"zip":"2591307"},{"town":"寺山","koaza":"","lat":35.421937,"lng":139.217407,"zip":"2570023"},{"town":"戸川","koaza":"","lat":35.419913,"lng":139.174456,"zip":"2591306"},{"town":"三廻部","koaza":"","lat":35.419959,"lng":139.152384,"zip":"2591335"},{"town":"南矢名五丁目","koaza":"","lat":35.367411,"lng":139.266435,"zip":"2570003"},{"town":"南矢名四丁目","koaza":"","lat":35.368931,"lng":139.268094,"zip":"2570003"},{"town":"鶴巻南三丁目","koaza":"","lat":35.376895,"lng":139.283802,"zip":"2570002"},{"town":"南矢名一丁目","koaza":"","lat":35.373028,"lng":139.273128,"zip":"2570003"},{"town":"鶴巻南一丁目","koaza":"","lat":35.377067,"lng":139.275604,"zip":"2570002"},{"town":"鶴巻北三丁目","koaza":"","lat":35.383693,"lng":139.274926,"zip":"2570001"},{"town":"鶴巻南五丁目","koaza":"","lat":35.381271,"lng":139.284327,"zip":"2570002"},{"town":"鶴巻南四丁目","koaza":"","lat":35.379631,"lng":139.280937,"zip":"2570002"},{"town":"鶴巻北二丁目","koaza":"","lat":35.38326,"lng":139.277362,"zip":"2570001"},{"town":"鶴巻北一丁目","koaza":"","lat":35.38348,"lng":139.28115,"zip":"2570001"},{"town":"鶴巻南二丁目","koaza":"","lat":35.375545,"lng":139.279119,"zip":"2570002"},{"town":"南矢名二丁目","koaza":"","lat":35.370015,"lng":139.272151,"zip":"2570003"},{"town":"北矢名","koaza":"","lat":35.377585,"lng":139.260895,"zip":"2570006"},{"town":"南矢名三丁目","koaza":"","lat":35.36751,"lng":139.271285,"zip":"2570003"},{"town":"鶴巻","koaza":"","lat":35.380688,"lng":139.271789,"zip":"2570007"},{"town":"今泉台三丁目","koaza":"","lat":35.363234,"lng":139.221187,"zip":"2570018"},{"town":"今泉台一丁目","koaza":"","lat":35.365748,"lng":139.221606,"zip":"2570018"},{"town":"今泉台二丁目","koaza":"","lat":35.363663,"lng":139.223723,"zip":"2570018"},{"town":"立野台一丁目","koaza":"","lat":35.35969,"lng":139.231482,"zip":"2570017"},{"town":"立野台三丁目","koaza":"","lat":35.359383,"lng":139.227624,"zip":"2570017"},{"town":"立野台二丁目","koaza":"","lat":35.357858,"lng":139.233434,"zip":"2570017"},{"town":"千村三丁目","koaza":"","lat":35.368668,"lng":139.175999,"zip":"2591324"},{"town":"千村四丁目","koaza":"","lat":35.370565,"lng":139.173191,"zip":"2591324"},{"town":"渋沢三丁目","koaza":"","lat":35.368864,"lng":139.195614,"zip":"2591322"},{"town":"渋沢上二丁目","koaza":"","lat":35.367228,"lng":139.180437,"zip":"2591326"},{"town":"千村五丁目","koaza":"","lat":35.373454,"lng":139.173594,"zip":"2591324"},{"town":"菖蒲","koaza":"","lat":35.376443,"lng":139.165136,"zip":"2591332"},{"town":"柳川","koaza":"","lat":35.386363,"lng":139.159736,"zip":"2591334"},{"town":"南が丘三丁目","koaza":"","lat":35.353346,"lng":139.229196,"zip":"2570013"},{"town":"南が丘五丁目","koaza":"","lat":35.355842,"lng":139.232601,"zip":"2570013"},{"town":"南が丘四丁目","koaza":"","lat":35.355184,"lng":139.229248,"zip":"2570013"},{"town":"南が丘二丁目","koaza":"","lat":35.354489,"lng":139.224612,"zip":"2570013"},{"town":"南が丘一丁目","koaza":"","lat":35.357703,"lng":139.225531,"zip":"2570013"},{"town":"栃窪","koaza":"","lat":35.358535,"lng":139.186003,"zip":"2570016"},{"town":"河原町","koaza":"","lat":35.368257,"lng":139.236177,"zip":"2570032"},{"town":"西大竹","koaza":"","lat":35.357585,"lng":139.238246,"zip":"2570012"},{"town":"室町","koaza":"","lat":35.367179,"lng":139.231826,"zip":"2570033"},{"town":"本町二丁目","koaza":"","lat":35.371027,"lng":139.228624,"zip":"2570035"},{"town":"尾尻","koaza":"","lat":35.365169,"lng":139.228328,"zip":"2570011"},{"town":"大秦町","koaza":"","lat":35.369208,"lng":139.229222,"zip":"2570034"},{"town":"文京町","koaza":"","lat":35.374579,"lng":139.223579,"zip":"2570044"},{"town":"元町","koaza":"","lat":35.374762,"lng":139.229479,"zip":"2570036"},{"town":"幸町","koaza":"","lat":35.376186,"lng":139.222538,"zip":"2570048"},{"town":"下落合","koaza":"","lat":35.380211,"lng":139.230257,"zip":"2570026"},{"town":"寿町","koaza":"","lat":35.376183,"lng":139.227588,"zip":"2570042"},{"town":"本町三丁目","koaza":"","lat":35.371178,"lng":139.232104,"zip":"2570035"},{"town":"末広町","koaza":"","lat":35.376366,"lng":139.231992,"zip":"2570037"},{"town":"落合","koaza":"","lat":35.384568,"lng":139.231837,"zip":"2570025"},{"town":"入船町","koaza":"","lat":35.377807,"lng":139.229265,"zip":"2570041"},{"town":"上今川町","koaza":"","lat":35.373492,"lng":139.218017,"zip":"2570052"},{"town":"富士見町","koaza":"","lat":35.377021,"lng":139.211804,"zip":"2570057"},{"town":"清水町","koaza":"","lat":35.373882,"lng":139.214419,"zip":"2570053"},{"town":"水神町","koaza":"","lat":35.37836,"lng":139.220378,"zip":"2570047"},{"town":"曽屋一丁目","koaza":"","lat":35.378774,"lng":139.223133,"zip":"2570031"},{"town":"緑町","koaza":"","lat":35.374251,"lng":139.210508,"zip":"2570054"},{"town":"今泉","koaza":"","lat":35.362478,"lng":139.215064,"zip":"2570014"},{"town":"今川町","koaza":"","lat":35.372133,"lng":139.223848,"zip":"2570051"},{"town":"桜町一丁目","koaza":"","lat":35.375654,"lng":139.220153,"zip":"2570045"},{"town":"桜町二丁目","koaza":"","lat":35.376288,"lng":139.217366,"zip":"2570045"},{"town":"ひばりケ丘","koaza":"","lat":35.378029,"lng":139.215864,"zip":"2570046"},{"town":"渋沢上一丁目","koaza":"","lat":35.369349,"lng":139.179993,"zip":"2591326"},{"town":"渋沢二丁目","koaza":"","lat":35.369652,"lng":139.190986,"zip":"2591322"},{"town":"渋沢一丁目","koaza":"","lat":35.368715,"lng":139.185392,"zip":"2591322"},{"town":"曲松二丁目","koaza":"","lat":35.371498,"lng":139.186629,"zip":"2591321"},{"town":"千村一丁目","koaza":"","lat":35.372872,"lng":139.176807,"zip":"2591324"},{"town":"平沢","koaza":"","lat":35.368162,"lng":139.205233,"zip":"2570015"},{"town":"渋沢","koaza":"","lat":35.35886,"lng":139.176572,"zip":"2591322"},{"town":"千村二丁目","koaza":"","lat":35.371006,"lng":139.176724,"zip":"2591324"},{"town":"萩が丘","koaza":"","lat":35.372343,"lng":139.18016,"zip":"2591325"},{"town":"曲松一丁目","koaza":"","lat":35.371451,"lng":139.183119,"zip":"2591321"},{"town":"柳町二丁目","koaza":"","lat":35.375668,"lng":139.180674,"zip":"2591315"},{"town":"柳町一丁目","koaza":"","lat":35.375376,"lng":139.18409,"zip":"2591315"},{"town":"若松町","koaza":"","lat":35.373403,"lng":139.188872,"zip":"2591314"},{"town":"鈴張町","koaza":"","lat":35.373429,"lng":139.206965,"zip":"2570055"},{"town":"新町","koaza":"","lat":35.377547,"lng":139.206532,"zip":"2570056"},{"town":"沼代新町","koaza":"","lat":35.3763,"lng":139.177536,"zip":"2591316"},{"town":"春日町","koaza":"","lat":35.378852,"lng":139.18252,"zip":"2591312"},{"town":"松原町","koaza":"","lat":35.376658,"lng":139.18522,"zip":"2591313"},{"town":"千村","koaza":"","lat":35.366047,"lng":139.169704,"zip":"2591324"},{"town":"曽屋二丁目","koaza":"","lat":35.37936,"lng":139.226372,"zip":"2570031"},{"town":"本町一丁目","koaza":"","lat":35.372787,"lng":139.227149,"zip":"2570035"},{"town":"栄町","koaza":"","lat":35.37445,"lng":139.226474,"zip":"2570043"},{"town":"並木町","koaza":"","lat":35.379631,"lng":139.177334,"zip":"2591317"},{"town":"弥生町","koaza":"","lat":35.382184,"lng":139.180555,"zip":"2591311"},{"town":"堀川","koaza":"","lat":35.383437,"lng":139.183503,"zip":"2591305"},{"town":"八沢","koaza":"","lat":35.378263,"lng":139.152004,"zip":"2591333"},{"town":"三屋","koaza":"","lat":35.385855,"lng":139.196678,"zip":"2591303"},{"town":"小蓑毛","koaza":"","lat":35.410602,"lng":139.238525,"zip":"2570022"},{"town":"羽根","koaza":"","lat":35.400908,"lng":139.204029,"zip":"2591301"},{"town":"西田原","koaza":"","lat":35.397118,"lng":139.214989,"zip":"2570027"},{"town":"東田原","koaza":"","lat":35.395797,"lng":139.225816,"zip":"2570028"},{"town":"堀西","koaza":"","lat":35.391908,"lng":139.173368,"zip":"2591331"},{"town":"丹沢寺山","koaza":"","lat":35.447476,"lng":139.204977,"zip":"2570000"},{"town":"堀川","koaza":"稲荷森","lat":35.379442,"lng":139.186849,"zip":"2591305"}]