[{"town":"中島","koaza":"","lat":35.328485,"lng":139.375121,"zip":"2530073"},{"town":"茅ヶ崎二丁目","koaza":"","lat":35.335297,"lng":139.40727,"zip":"2530041"},{"town":"浜竹三丁目","koaza":"","lat":35.333959,"lng":139.441114,"zip":"2530021"},{"town":"浜之郷","koaza":"","lat":35.337985,"lng":139.390613,"zip":"2530086"},{"town":"本村二丁目","koaza":"","lat":35.335459,"lng":139.418042,"zip":"2530042"},{"town":"小桜町","koaza":"","lat":35.336718,"lng":139.427738,"zip":"2530016"},{"town":"本村三丁目","koaza":"","lat":35.338268,"lng":139.418785,"zip":"2530042"},{"town":"矢畑","koaza":"","lat":35.338035,"lng":139.397875,"zip":"2530085"},{"town":"本宿町","koaza":"","lat":35.339029,"lng":139.438325,"zip":"2530014"},{"town":"代官町","koaza":"","lat":35.337901,"lng":139.43511,"zip":"2530015"},{"town":"本村四丁目","koaza":"","lat":35.336533,"lng":139.412593,"zip":"2530042"},{"town":"茅ヶ崎三丁目","koaza":"","lat":35.338229,"lng":139.40524,"zip":"2530041"},{"town":"今宿","koaza":"","lat":35.336704,"lng":139.381283,"zip":"2530072"},{"town":"下町屋三丁目","koaza":"","lat":35.335832,"lng":139.388729,"zip":"2530087"},{"town":"萩園","koaza":"","lat":35.344395,"lng":139.377864,"zip":"2530071"},{"town":"平太夫新田","koaza":"","lat":35.341939,"lng":139.371861,"zip":"2530074"},{"town":"中海岸三丁目","koaza":"","lat":35.319796,"lng":139.40288,"zip":"2530055"},{"town":"東海岸南六丁目","koaza":"","lat":35.319367,"lng":139.416922,"zip":"2530054"},{"town":"東海岸南四丁目","koaza":"","lat":35.318547,"lng":139.413108,"zip":"2530054"},{"town":"南湖四丁目","koaza":"","lat":35.320697,"lng":139.395932,"zip":"2530061"},{"town":"常盤町","koaza":"","lat":35.325606,"lng":139.438679,"zip":"2530032"},{"town":"出口町","koaza":"","lat":35.334319,"lng":139.429768,"zip":"2530028"},{"town":"汐見台","koaza":"","lat":35.321917,"lng":139.436893,"zip":"2530033"},{"town":"富士見町","koaza":"","lat":35.325799,"lng":139.43441,"zip":"2530031"},{"town":"白浜町","koaza":"","lat":35.321171,"lng":139.424662,"zip":"2530036"},{"town":"平和町","koaza":"","lat":35.326855,"lng":139.428886,"zip":"2530024"},{"town":"松浪二丁目","koaza":"","lat":35.328994,"lng":139.434852,"zip":"2530022"},{"town":"浜竹二丁目","koaza":"","lat":35.33469,"lng":139.43874,"zip":"2530021"},{"town":"浜須賀","koaza":"","lat":35.32288,"lng":139.429606,"zip":"2530035"},{"town":"緑が浜","koaza":"","lat":35.322742,"lng":139.433896,"zip":"2530034"},{"town":"菱沼海岸","koaza":"","lat":35.320737,"lng":139.42026,"zip":"2530037"},{"town":"松が丘二丁目","koaza":"","lat":35.327443,"lng":139.424907,"zip":"2530025"},{"town":"浜竹四丁目","koaza":"","lat":35.330334,"lng":139.440304,"zip":"2530021"},{"town":"美住町","koaza":"","lat":35.330512,"lng":139.428901,"zip":"2530023"},{"town":"ひばりが丘","koaza":"","lat":35.334068,"lng":139.424315,"zip":"2530027"},{"town":"東海岸南五丁目","koaza":"","lat":35.323473,"lng":139.417294,"zip":"2530054"},{"town":"若松町","koaza":"","lat":35.333214,"lng":139.418291,"zip":"2530051"},{"town":"東海岸北五丁目","koaza":"","lat":35.326752,"lng":139.417401,"zip":"2530053"},{"town":"東海岸北三丁目","koaza":"","lat":35.329129,"lng":139.41225,"zip":"2530053"},{"town":"旭が丘","koaza":"","lat":35.331353,"lng":139.423195,"zip":"2530026"},{"town":"浜竹一丁目","koaza":"","lat":35.334568,"lng":139.434841,"zip":"2530021"},{"town":"松浪一丁目","koaza":"","lat":35.331511,"lng":139.435174,"zip":"2530022"},{"town":"東海岸北二丁目","koaza":"","lat":35.32652,"lng":139.41135,"zip":"2530053"},{"town":"東海岸南一丁目","koaza":"","lat":35.321201,"lng":139.406916,"zip":"2530054"},{"town":"中海岸二丁目","koaza":"","lat":35.322853,"lng":139.402935,"zip":"2530055"},{"town":"中海岸一丁目","koaza":"","lat":35.326015,"lng":139.404008,"zip":"2530055"},{"town":"東海岸北一丁目","koaza":"","lat":35.326234,"lng":139.406759,"zip":"2530053"},{"town":"中海岸四丁目","koaza":"","lat":35.320378,"lng":139.398639,"zip":"2530055"},{"town":"本村一丁目","koaza":"","lat":35.33394,"lng":139.412758,"zip":"2530042"},{"town":"十間坂一丁目","koaza":"","lat":35.329845,"lng":139.400205,"zip":"2530045"},{"town":"新栄町","koaza":"","lat":35.33079,"lng":139.404251,"zip":"2530044"},{"town":"東海岸南三丁目","koaza":"","lat":35.319966,"lng":139.409505,"zip":"2530054"},{"town":"東海岸南二丁目","koaza":"","lat":35.323392,"lng":139.411603,"zip":"2530054"},{"town":"幸町","koaza":"","lat":35.330494,"lng":139.409971,"zip":"2530052"},{"town":"元町","koaza":"","lat":35.332309,"lng":139.408234,"zip":"2530043"},{"town":"南湖三丁目","koaza":"","lat":35.325915,"lng":139.395888,"zip":"2530061"},{"town":"十間坂二丁目","koaza":"","lat":35.328644,"lng":139.396673,"zip":"2530045"},{"town":"共恵一丁目","koaza":"","lat":35.328019,"lng":139.403355,"zip":"2530056"},{"town":"共恵二丁目","koaza":"","lat":35.325717,"lng":139.400486,"zip":"2530056"},{"town":"茅ヶ崎一丁目","koaza":"","lat":35.333515,"lng":139.40271,"zip":"2530041"},{"town":"南湖六丁目","koaza":"","lat":35.318581,"lng":139.393039,"zip":"2530061"},{"town":"南湖七丁目","koaza":"","lat":35.318497,"lng":139.388585,"zip":"2530061"},{"town":"十間坂三丁目","koaza":"","lat":35.331148,"lng":139.398233,"zip":"2530045"},{"town":"東海岸北四丁目","koaza":"","lat":35.329899,"lng":139.417661,"zip":"2530053"},{"town":"松が丘一丁目","koaza":"","lat":35.327042,"lng":139.421477,"zip":"2530025"},{"town":"南湖一丁目","koaza":"","lat":35.328809,"lng":139.391829,"zip":"2530061"},{"town":"南湖二丁目","koaza":"","lat":35.325979,"lng":139.391801,"zip":"2530061"},{"town":"下町屋二丁目","koaza":"","lat":35.332424,"lng":139.388673,"zip":"2530087"},{"town":"柳島海岸","koaza":"","lat":35.319363,"lng":139.384327,"zip":"2530063"},{"town":"南湖五丁目","koaza":"","lat":35.322513,"lng":139.391069,"zip":"2530061"},{"town":"下町屋一丁目","koaza":"","lat":35.330451,"lng":139.386184,"zip":"2530087"},{"town":"松尾","koaza":"","lat":35.32639,"lng":139.38576,"zip":"2530065"},{"town":"浜見平","koaza":"","lat":35.32329,"lng":139.387789,"zip":"2530062"},{"town":"柳島一丁目","koaza":"","lat":35.326018,"lng":139.383596,"zip":"2530064"},{"town":"柳島","koaza":"","lat":35.322093,"lng":139.377635,"zip":"2530064"},{"town":"柳島二丁目","koaza":"","lat":35.325007,"lng":139.380454,"zip":"2530064"},{"town":"みずき三丁目","koaza":"","lat":35.36338,"lng":139.405809,"zip":"2530088"},{"town":"みずき二丁目","koaza":"","lat":35.36315,"lng":139.402655,"zip":"2530088"},{"town":"香川七丁目","koaza":"","lat":35.360856,"lng":139.402692,"zip":"2530082"},{"town":"香川六丁目","koaza":"","lat":35.357852,"lng":139.401553,"zip":"2530082"},{"town":"香川三丁目","koaza":"","lat":35.353591,"lng":139.402133,"zip":"2530082"},{"town":"みずき一丁目","koaza":"","lat":35.361425,"lng":139.399496,"zip":"2530088"},{"town":"みずき四丁目","koaza":"","lat":35.359626,"lng":139.405395,"zip":"2530088"},{"town":"香川二丁目","koaza":"","lat":35.356087,"lng":139.405362,"zip":"2530082"},{"town":"円蔵二丁目","koaza":"","lat":35.344696,"lng":139.406241,"zip":"2530084"},{"town":"香川一丁目","koaza":"","lat":35.352679,"lng":139.406426,"zip":"2530082"},{"town":"赤松町","koaza":"","lat":35.34053,"lng":139.441465,"zip":"2530013"},{"town":"松林一丁目","koaza":"","lat":35.338649,"lng":139.42507,"zip":"2530017"},{"town":"菱沼二丁目","koaza":"","lat":35.342623,"lng":139.431347,"zip":"2530011"},{"town":"小和田一丁目","koaza":"","lat":35.339329,"lng":139.429813,"zip":"2530012"},{"town":"小和田二丁目","koaza":"","lat":35.340114,"lng":139.433867,"zip":"2530012"},{"town":"松林二丁目","koaza":"","lat":35.341846,"lng":139.425078,"zip":"2530017"},{"town":"茅ヶ崎","koaza":"","lat":35.339706,"lng":139.408975,"zip":"2530041"},{"town":"高田四丁目","koaza":"","lat":35.342329,"lng":139.412885,"zip":"2530002"},{"town":"高田三丁目","koaza":"","lat":35.342708,"lng":139.416503,"zip":"2530002"},{"town":"小和田三丁目","koaza":"","lat":35.343783,"lng":139.43958,"zip":"2530012"},{"town":"菱沼三丁目","koaza":"","lat":35.343803,"lng":139.43558,"zip":"2530011"},{"town":"菱沼一丁目","koaza":"","lat":35.344804,"lng":139.43033,"zip":"2530011"},{"town":"松林三丁目","koaza":"","lat":35.344319,"lng":139.425207,"zip":"2530017"},{"town":"室田三丁目","koaza":"","lat":35.341231,"lng":139.420612,"zip":"2530018"},{"town":"室田一丁目","koaza":"","lat":35.345139,"lng":139.422291,"zip":"2530018"},{"town":"高田五丁目","koaza":"","lat":35.343812,"lng":139.411515,"zip":"2530002"},{"town":"高田二丁目","koaza":"","lat":35.345911,"lng":139.416306,"zip":"2530002"},{"town":"高田一丁目","koaza":"","lat":35.347545,"lng":139.416984,"zip":"2530002"},{"town":"円蔵一丁目","koaza":"","lat":35.344053,"lng":139.409271,"zip":"2530084"},{"town":"鶴が台","koaza":"","lat":35.348259,"lng":139.407663,"zip":"2530003"},{"town":"赤羽根","koaza":"","lat":35.354603,"lng":139.431798,"zip":"2530001"},{"town":"松風台","koaza":"","lat":35.356321,"lng":139.409509,"zip":"2530005"},{"town":"香川","koaza":"","lat":35.360687,"lng":139.406942,"zip":"2530082"},{"town":"室田二丁目","koaza":"","lat":35.343513,"lng":139.420031,"zip":"2530018"},{"town":"本村五丁目","koaza":"","lat":35.339706,"lng":139.414689,"zip":"2530042"},{"town":"香川四丁目","koaza":"","lat":35.353983,"lng":139.398085,"zip":"2530082"},{"town":"円蔵","koaza":"","lat":35.345504,"lng":139.400349,"zip":"2530084"},{"town":"西久保","koaza":"","lat":35.347977,"lng":139.393594,"zip":"2530083"},{"town":"甘沼","koaza":"","lat":35.354976,"lng":139.418837,"zip":"2530004"},{"town":"香川五丁目","koaza":"","lat":35.358411,"lng":139.397793,"zip":"2530082"},{"town":"下寺尾","koaza":"","lat":35.364457,"lng":139.398917,"zip":"2530081"},{"town":"行谷","koaza":"","lat":35.370544,"lng":139.410854,"zip":"2530007"},{"town":"堤","koaza":"","lat":35.364374,"lng":139.425435,"zip":"2530006"},{"town":"芹沢","koaza":"","lat":35.377617,"lng":139.418424,"zip":"2530008"},{"town":"下寺尾","koaza":"東方","lat":35.365854,"lng":139.412408,"zip":"2530081"}]