[{"town":"川名一丁目","koaza":"","lat":35.335188,"lng":139.497169,"zip":"2510015"},{"town":"片瀬山二丁目","koaza":"","lat":35.324608,"lng":139.495208,"zip":"2510033"},{"town":"片瀬山三丁目","koaza":"","lat":35.319918,"lng":139.495504,"zip":"2510033"},{"town":"川名","koaza":"","lat":35.329538,"lng":139.496453,"zip":"2510015"},{"town":"弥勒寺一丁目","koaza":"","lat":35.338235,"lng":139.496991,"zip":"2510016"},{"town":"村岡東一丁目","koaza":"","lat":35.338136,"lng":139.505245,"zip":"2510012"},{"town":"弥勒寺二丁目","koaza":"","lat":35.338046,"lng":139.501108,"zip":"2510016"},{"town":"弥勒寺","koaza":"","lat":35.33545,"lng":139.502712,"zip":"2510016"},{"town":"宮前","koaza":"","lat":35.336867,"lng":139.508821,"zip":"2510014"},{"town":"辻堂一丁目","koaza":"","lat":35.334698,"lng":139.448616,"zip":"2510047"},{"town":"南藤沢","koaza":"","lat":35.337063,"lng":139.49133,"zip":"2510055"},{"town":"鵠沼東","koaza":"","lat":35.334021,"lng":139.49066,"zip":"2510026"},{"town":"鵠沼石上一丁目","koaza":"","lat":35.335824,"lng":139.488087,"zip":"2510025"},{"town":"柄沢","koaza":"","lat":35.353339,"lng":139.49683,"zip":"2510003"},{"town":"藤が岡三丁目","koaza":"","lat":35.34677,"lng":139.496945,"zip":"2510004"},{"town":"弥勒寺三丁目","koaza":"","lat":35.342855,"lng":139.499362,"zip":"2510016"},{"town":"鵠沼花沢町","koaza":"","lat":35.337128,"lng":139.483332,"zip":"2510023"},{"town":"辻堂元町六丁目","koaza":"","lat":35.335675,"lng":139.464983,"zip":"2510043"},{"town":"鵠沼橘一丁目","koaza":"","lat":35.334822,"lng":139.485008,"zip":"2510024"},{"town":"弥勒寺四丁目","koaza":"","lat":35.346028,"lng":139.499752,"zip":"2510016"},{"town":"大鋸一丁目","koaza":"","lat":35.341335,"lng":139.495356,"zip":"2510002"},{"town":"本鵠沼五丁目","koaza":"","lat":35.336515,"lng":139.472315,"zip":"2510028"},{"town":"辻堂元町二丁目","koaza":"","lat":35.335394,"lng":139.455972,"zip":"2510043"},{"town":"鵠沼橘二丁目","koaza":"","lat":35.334643,"lng":139.481226,"zip":"2510024"},{"town":"辻堂二丁目","koaza":"","lat":35.334758,"lng":139.445388,"zip":"2510047"},{"town":"辻堂元町一丁目","koaza":"","lat":35.335288,"lng":139.451396,"zip":"2510043"},{"town":"本鵠沼一丁目","koaza":"","lat":35.336012,"lng":139.477422,"zip":"2510028"},{"town":"大鋸","koaza":"","lat":35.354004,"lng":139.494004,"zip":"2510002"},{"town":"長後","koaza":"","lat":35.419905,"lng":139.462425,"zip":"2520801"},{"town":"高倉","koaza":"","lat":35.412781,"lng":139.471419,"zip":"2520802"},{"town":"江の島二丁目","koaza":"","lat":35.299951,"lng":139.477418,"zip":"2510036"},{"town":"江の島一丁目","koaza":"","lat":35.300048,"lng":139.482242,"zip":"2510036"},{"town":"辻堂四丁目","koaza":"","lat":35.331076,"lng":139.449368,"zip":"2510047"},{"town":"片瀬海岸二丁目","koaza":"","lat":35.308783,"lng":139.481923,"zip":"2510035"},{"town":"片瀬海岸一丁目","koaza":"","lat":35.308733,"lng":139.486558,"zip":"2510035"},{"town":"鵠沼石上二丁目","koaza":"","lat":35.333348,"lng":139.487339,"zip":"2510025"},{"town":"片瀬二丁目","koaza":"","lat":35.32024,"lng":139.48718,"zip":"2510032"},{"town":"鵠沼藤が谷二丁目","koaza":"","lat":35.322998,"lng":139.485049,"zip":"2510031"},{"town":"片瀬山四丁目","koaza":"","lat":35.320158,"lng":139.492906,"zip":"2510033"},{"town":"片瀬目白山","koaza":"","lat":35.315744,"lng":139.491909,"zip":"2510034"},{"town":"片瀬山五丁目","koaza":"","lat":35.320605,"lng":139.490368,"zip":"2510033"},{"town":"片瀬一丁目","koaza":"","lat":35.32851,"lng":139.489882,"zip":"2510032"},{"town":"鵠沼松が岡三丁目","koaza":"","lat":35.321584,"lng":139.476004,"zip":"2510038"},{"town":"片瀬山一丁目","koaza":"","lat":35.326255,"lng":139.492956,"zip":"2510033"},{"town":"鵠沼石上三丁目","koaza":"","lat":35.330909,"lng":139.486623,"zip":"2510025"},{"town":"川名二丁目","koaza":"","lat":35.333668,"lng":139.493254,"zip":"2510015"},{"town":"鵠沼桜が岡一丁目","koaza":"","lat":35.330732,"lng":139.482128,"zip":"2510027"},{"town":"鵠沼桜が岡四丁目","koaza":"","lat":35.331845,"lng":139.478328,"zip":"2510027"},{"town":"鵠沼桜が岡三丁目","koaza":"","lat":35.327975,"lng":139.475033,"zip":"2510027"},{"town":"鵠沼松が岡五丁目","koaza":"","lat":35.325074,"lng":139.472275,"zip":"2510038"},{"town":"鵠沼藤が谷三丁目","koaza":"","lat":35.323963,"lng":139.481605,"zip":"2510031"},{"town":"片瀬","koaza":"","lat":35.329797,"lng":139.487073,"zip":"2510032"},{"town":"鵠沼桜が岡二丁目","koaza":"","lat":35.326923,"lng":139.478879,"zip":"2510027"},{"town":"鵠沼海岸三丁目","koaza":"","lat":35.32047,"lng":139.467985,"zip":"2510037"},{"town":"鵠沼松が岡二丁目","koaza":"","lat":35.319803,"lng":139.477718,"zip":"2510038"},{"town":"鵠沼海岸五丁目","koaza":"","lat":35.320864,"lng":139.464244,"zip":"2510037"},{"town":"鵠沼海岸一丁目","koaza":"","lat":35.315489,"lng":139.473022,"zip":"2510037"},{"town":"片瀬海岸三丁目","koaza":"","lat":35.3129,"lng":139.480368,"zip":"2510035"},{"town":"本鵠沼二丁目","koaza":"","lat":35.333393,"lng":139.47461,"zip":"2510028"},{"town":"辻堂太平台二丁目","koaza":"","lat":35.332,"lng":139.464067,"zip":"2510044"},{"town":"鵠沼海岸六丁目","koaza":"","lat":35.326467,"lng":139.465309,"zip":"2510037"},{"town":"鵠沼海岸七丁目","koaza":"","lat":35.325098,"lng":139.468261,"zip":"2510037"},{"town":"本鵠沼三丁目","koaza":"","lat":35.329595,"lng":139.471429,"zip":"2510028"},{"town":"本鵠沼四丁目","koaza":"","lat":35.33162,"lng":139.468888,"zip":"2510028"},{"town":"鵠沼海岸二丁目","koaza":"","lat":35.318119,"lng":139.469332,"zip":"2510037"},{"town":"鵠沼松が岡四丁目","koaza":"","lat":35.323203,"lng":139.473831,"zip":"2510038"},{"town":"鵠沼海岸四丁目","koaza":"","lat":35.31933,"lng":139.461648,"zip":"2510037"},{"town":"辻堂東海岸二丁目","koaza":"","lat":35.323589,"lng":139.459644,"zip":"2510045"},{"town":"片瀬五丁目","koaza":"","lat":35.319299,"lng":139.48352,"zip":"2510032"},{"town":"鵠沼松が岡一丁目","koaza":"","lat":35.318084,"lng":139.478707,"zip":"2510038"},{"town":"辻堂東海岸四丁目","koaza":"","lat":35.319275,"lng":139.456671,"zip":"2510045"},{"town":"辻堂東海岸三丁目","koaza":"","lat":35.32274,"lng":139.456243,"zip":"2510045"},{"town":"片瀬四丁目","koaza":"","lat":35.315657,"lng":139.482967,"zip":"2510032"},{"town":"片瀬三丁目","koaza":"","lat":35.314185,"lng":139.488972,"zip":"2510032"},{"town":"辻堂東海岸一丁目","koaza":"","lat":35.3262,"lng":139.45652,"zip":"2510045"},{"town":"辻堂太平台一丁目","koaza":"","lat":35.328346,"lng":139.461683,"zip":"2510044"},{"town":"辻堂元町三丁目","koaza":"","lat":35.33205,"lng":139.453174,"zip":"2510043"},{"town":"辻堂五丁目","koaza":"","lat":35.328271,"lng":139.450068,"zip":"2510047"},{"town":"辻堂元町四丁目","koaza":"","lat":35.330147,"lng":139.455622,"zip":"2510043"},{"town":"鵠沼藤が谷四丁目","koaza":"","lat":35.326983,"lng":139.482966,"zip":"2510031"},{"town":"鵠沼藤が谷一丁目","koaza":"","lat":35.326826,"lng":139.486985,"zip":"2510031"},{"town":"辻堂六丁目","koaza":"","lat":35.327428,"lng":139.444528,"zip":"2510047"},{"town":"辻堂西海岸三丁目","koaza":"","lat":35.320374,"lng":139.44611,"zip":"2510046"},{"town":"辻堂元町五丁目","koaza":"","lat":35.333746,"lng":139.45985,"zip":"2510043"},{"town":"辻堂西海岸二丁目","koaza":"","lat":35.3245,"lng":139.444004,"zip":"2510046"},{"town":"辻堂西海岸一丁目","koaza":"","lat":35.324855,"lng":139.450707,"zip":"2510046"},{"town":"辻堂三丁目","koaza":"","lat":35.330848,"lng":139.445127,"zip":"2510047"},{"town":"渡内","koaza":"","lat":35.34966,"lng":139.503833,"zip":"2510011"},{"town":"渡内二丁目","koaza":"","lat":35.348281,"lng":139.503133,"zip":"2510011"},{"town":"渡内四丁目","koaza":"","lat":35.350957,"lng":139.50573,"zip":"2510011"},{"town":"渡内一丁目","koaza":"","lat":35.344735,"lng":139.503467,"zip":"2510011"},{"town":"村岡東二丁目","koaza":"","lat":35.341931,"lng":139.509352,"zip":"2510012"},{"town":"村岡東三丁目","koaza":"","lat":35.345126,"lng":139.506974,"zip":"2510012"},{"town":"高谷","koaza":"","lat":35.342086,"lng":139.503307,"zip":"2510017"},{"town":"村岡東四丁目","koaza":"","lat":35.345806,"lng":139.508695,"zip":"2510012"},{"town":"渡内三丁目","koaza":"","lat":35.348779,"lng":139.50802,"zip":"2510011"},{"town":"小塚","koaza":"","lat":35.34112,"lng":139.514767,"zip":"2510013"},{"town":"石川三丁目","koaza":"","lat":35.374363,"lng":139.450398,"zip":"2520815"},{"town":"石川六丁目","koaza":"","lat":35.390196,"lng":139.448021,"zip":"2520815"},{"town":"石川五丁目","koaza":"","lat":35.384592,"lng":139.450656,"zip":"2520815"},{"town":"石川一丁目","koaza":"","lat":35.379307,"lng":139.452923,"zip":"2520815"},{"town":"石川二丁目","koaza":"","lat":35.377796,"lng":139.454772,"zip":"2520815"},{"town":"円行","koaza":"","lat":35.385911,"lng":139.461669,"zip":"2520805"},{"town":"円行一丁目","koaza":"","lat":35.386965,"lng":139.458505,"zip":"2520805"},{"town":"白旗二丁目","koaza":"","lat":35.354845,"lng":139.481195,"zip":"2510051"},{"town":"白旗三丁目","koaza":"","lat":35.355683,"lng":139.479313,"zip":"2510051"},{"town":"白旗四丁目","koaza":"","lat":35.358334,"lng":139.481231,"zip":"2510051"},{"town":"立石二丁目","koaza":"","lat":35.364807,"lng":139.479947,"zip":"2510872"},{"town":"善行六丁目","koaza":"","lat":35.367318,"lng":139.474159,"zip":"2510871"},{"town":"善行坂二丁目","koaza":"","lat":35.363286,"lng":139.4626,"zip":"2510876"},{"town":"稲荷","koaza":"","lat":35.35615,"lng":139.460081,"zip":"2510862"},{"town":"本藤沢三丁目","koaza":"","lat":35.355287,"lng":139.47033,"zip":"2510875"},{"town":"花の木","koaza":"","lat":35.352631,"lng":139.475335,"zip":"2510874"},{"town":"稲荷一丁目","koaza":"","lat":35.351908,"lng":139.464125,"zip":"2510862"},{"town":"本藤沢五丁目","koaza":"","lat":35.358539,"lng":139.469573,"zip":"2510875"},{"town":"立石三丁目","koaza":"","lat":35.363653,"lng":139.483407,"zip":"2510872"},{"town":"善行坂一丁目","koaza":"","lat":35.362357,"lng":139.4668,"zip":"2510876"},{"town":"立石四丁目","koaza":"","lat":35.360158,"lng":139.485122,"zip":"2510872"},{"town":"本藤沢二丁目","koaza":"","lat":35.352451,"lng":139.469262,"zip":"2510875"},{"town":"善行七丁目","koaza":"","lat":35.361692,"lng":139.476197,"zip":"2510871"},{"town":"立石一丁目","koaza":"","lat":35.361514,"lng":139.482,"zip":"2510872"},{"town":"天神町一丁目","koaza":"","lat":35.375544,"lng":139.461635,"zip":"2520814"},{"town":"湘南台六丁目","koaza":"","lat":35.401777,"lng":139.472099,"zip":"2520804"},{"town":"西富一丁目","koaza":"","lat":35.348228,"lng":139.48734,"zip":"2510001"},{"town":"鵠沼","koaza":"","lat":35.339888,"lng":139.479858,"zip":"2510022"},{"town":"本藤沢七丁目","koaza":"","lat":35.355521,"lng":139.473287,"zip":"2510875"},{"town":"鵠沼神明二丁目","koaza":"","lat":35.340371,"lng":139.471534,"zip":"2510021"},{"town":"藤沢三丁目","koaza":"","lat":35.349017,"lng":139.47705,"zip":"2510052"},{"town":"辻堂新町二丁目","koaza":"","lat":35.339509,"lng":139.455393,"zip":"2510042"},{"town":"羽鳥三丁目","koaza":"","lat":35.344576,"lng":139.457514,"zip":"2510056"},{"town":"辻堂神台一丁目","koaza":"","lat":35.339407,"lng":139.446209,"zip":"2510041"},{"town":"藤が岡二丁目","koaza":"","lat":35.34556,"lng":139.493842,"zip":"2510004"},{"town":"大鋸二丁目","koaza":"","lat":35.34426,"lng":139.488751,"zip":"2510002"},{"town":"朝日町","koaza":"","lat":35.340345,"lng":139.491911,"zip":"2510054"},{"town":"本町一丁目","koaza":"","lat":35.34519,"lng":139.483535,"zip":"2510053"},{"town":"藤が岡一丁目","koaza":"","lat":35.3446,"lng":139.490775,"zip":"2510004"},{"town":"大鋸三丁目","koaza":"","lat":35.349401,"lng":139.492102,"zip":"2510002"},{"town":"白旗一丁目","koaza":"","lat":35.353039,"lng":139.480259,"zip":"2510051"},{"town":"西富二丁目","koaza":"","lat":35.351167,"lng":139.484762,"zip":"2510001"},{"town":"西富","koaza":"","lat":35.354286,"lng":139.488955,"zip":"2510001"},{"town":"藤沢一丁目","koaza":"","lat":35.347877,"lng":139.482982,"zip":"2510052"},{"town":"藤沢二丁目","koaza":"","lat":35.349944,"lng":139.48047,"zip":"2510052"},{"town":"鵠沼神明一丁目","koaza":"","lat":35.341021,"lng":139.476107,"zip":"2510021"},{"town":"本町三丁目","koaza":"","lat":35.34458,"lng":139.476191,"zip":"2510053"},{"town":"本町二丁目","koaza":"","lat":35.343291,"lng":139.480031,"zip":"2510053"},{"town":"本町四丁目","koaza":"","lat":35.346214,"lng":139.479428,"zip":"2510053"},{"town":"鵠沼神明五丁目","koaza":"","lat":35.344373,"lng":139.472238,"zip":"2510021"},{"town":"鵠沼神明四丁目","koaza":"","lat":35.345383,"lng":139.468489,"zip":"2510021"},{"town":"藤沢五丁目","koaza":"","lat":35.348389,"lng":139.467799,"zip":"2510052"},{"town":"辻堂新町四丁目","koaza":"","lat":35.339804,"lng":139.465273,"zip":"2510042"},{"town":"鵠沼神明三丁目","koaza":"","lat":35.340866,"lng":139.468777,"zip":"2510021"},{"town":"藤沢四丁目","koaza":"","lat":35.348382,"lng":139.472856,"zip":"2510052"},{"town":"本藤沢一丁目","koaza":"","lat":35.351765,"lng":139.472734,"zip":"2510875"},{"town":"羽鳥四丁目","koaza":"","lat":35.344502,"lng":139.461784,"zip":"2510056"},{"town":"城南四丁目","koaza":"","lat":35.347813,"lng":139.461365,"zip":"2510057"},{"town":"天神町三丁目","koaza":"","lat":35.380883,"lng":139.461944,"zip":"2520814"},{"town":"辻堂新町三丁目","koaza":"","lat":35.339438,"lng":139.460178,"zip":"2510042"},{"town":"羽鳥五丁目","koaza":"","lat":35.344222,"lng":139.465238,"zip":"2510056"},{"town":"羽鳥一丁目","koaza":"","lat":35.343826,"lng":139.45077,"zip":"2510056"},{"town":"城南三丁目","koaza":"","lat":35.349951,"lng":139.460308,"zip":"2510057"},{"town":"城南二丁目","koaza":"","lat":35.348164,"lng":139.450408,"zip":"2510057"},{"town":"城南一丁目","koaza":"","lat":35.346447,"lng":139.445346,"zip":"2510057"},{"town":"辻堂神台二丁目","koaza":"","lat":35.342508,"lng":139.446309,"zip":"2510041"},{"town":"辻堂新町一丁目","koaza":"","lat":35.339306,"lng":139.451096,"zip":"2510042"},{"town":"羽鳥二丁目","koaza":"","lat":35.344403,"lng":139.453671,"zip":"2510056"},{"town":"城南五丁目","koaza":"","lat":35.347319,"lng":139.45353,"zip":"2510057"},{"town":"本藤沢四丁目","koaza":"","lat":35.357727,"lng":139.463382,"zip":"2510875"},{"town":"善行一丁目","koaza":"","lat":35.361972,"lng":139.47093,"zip":"2510871"},{"town":"善行五丁目","koaza":"","lat":35.369245,"lng":139.471435,"zip":"2510871"},{"town":"亀井野二丁目","koaza":"","lat":35.381385,"lng":139.473573,"zip":"2520813"},{"town":"善行二丁目","koaza":"","lat":35.365545,"lng":139.470262,"zip":"2510871"},{"town":"本藤沢六丁目","koaza":"","lat":35.359406,"lng":139.472085,"zip":"2510875"},{"town":"みその台","koaza":"","lat":35.355476,"lng":139.475986,"zip":"2510873"},{"town":"大庭","koaza":"","lat":35.360579,"lng":139.446351,"zip":"2510861"},{"town":"石川四丁目","koaza":"","lat":35.377089,"lng":139.448715,"zip":"2520815"},{"town":"天神町二丁目","koaza":"","lat":35.377644,"lng":139.461878,"zip":"2520814"},{"town":"善行四丁目","koaza":"","lat":35.37243,"lng":139.468867,"zip":"2510871"},{"town":"亀井野三丁目","koaza":"","lat":35.382099,"lng":139.477742,"zip":"2520813"},{"town":"亀井野一丁目","koaza":"","lat":35.385018,"lng":139.472366,"zip":"2520813"},{"town":"亀井野四丁目","koaza":"","lat":35.385403,"lng":139.476109,"zip":"2520813"},{"town":"善行三丁目","koaza":"","lat":35.368542,"lng":139.469241,"zip":"2510871"},{"town":"善行団地","koaza":"","lat":35.367412,"lng":139.464174,"zip":"2510877"},{"town":"湘南台七丁目","koaza":"","lat":35.394775,"lng":139.473144,"zip":"2520804"},{"town":"西俣野","koaza":"","lat":35.376134,"lng":139.488809,"zip":"2520812"},{"town":"今田","koaza":"","lat":35.392711,"lng":139.476767,"zip":"2520803"},{"town":"湘南台二丁目","koaza":"","lat":35.393653,"lng":139.465636,"zip":"2520804"},{"town":"湘南台三丁目","koaza":"","lat":35.392867,"lng":139.462516,"zip":"2520804"},{"town":"湘南台四丁目","koaza":"","lat":35.40045,"lng":139.463165,"zip":"2520804"},{"town":"円行二丁目","koaza":"","lat":35.39305,"lng":139.457594,"zip":"2520805"},{"town":"桐原町","koaza":"","lat":35.389037,"lng":139.454393,"zip":"2520811"},{"town":"遠藤","koaza":"","lat":35.384097,"lng":139.439616,"zip":"2520816"},{"town":"獺郷","koaza":"","lat":35.388805,"lng":139.406427,"zip":"2520825"},{"town":"湘南台一丁目","koaza":"","lat":35.394342,"lng":139.469275,"zip":"2520804"},{"town":"石川","koaza":"","lat":35.376202,"lng":139.465885,"zip":"2520815"},{"town":"亀井野","koaza":"","lat":35.378374,"lng":139.475149,"zip":"2520813"},{"town":"宮原","koaza":"","lat":35.396619,"lng":139.402697,"zip":"2520826"},{"town":"湘南台五丁目","koaza":"","lat":35.401482,"lng":139.46729,"zip":"2520804"},{"town":"土棚","koaza":"","lat":35.400938,"lng":139.45248,"zip":"2520806"},{"town":"下土棚","koaza":"","lat":35.40664,"lng":139.45858,"zip":"2520807"},{"town":"藤沢","koaza":"","lat":35.342269,"lng":139.486124,"zip":"2510052"},{"town":"葛原","koaza":"","lat":35.407353,"lng":139.432605,"zip":"2520822"},{"town":"打戻","koaza":"","lat":35.391157,"lng":139.416991,"zip":"2520824"},{"town":"菖蒲沢","koaza":"","lat":35.398711,"lng":139.441176,"zip":"2520823"},{"town":"用田","koaza":"","lat":35.410387,"lng":139.416146,"zip":"2520821"},{"town":"渡内五丁目","koaza":"","lat":35.349823,"lng":139.502047,"zip":"2510011"},{"town":"柄沢一丁目","koaza":"","lat":35.350581,"lng":139.498455,"zip":"2510003"},{"town":"柄沢二丁目","koaza":"","lat":35.354029,"lng":139.499722,"zip":"2510003"},{"town":"並木台一丁目","koaza":"","lat":35.350921,"lng":139.502358,"zip":"2510005"},{"town":"並木台二丁目","koaza":"","lat":35.353383,"lng":139.502786,"zip":"2510005"},{"town":"葛原","koaza":"滝谷戸","lat":35.403567,"lng":139.424214,"zip":"2520822"},{"town":"遠藤","koaza":"滝ノ沢","lat":35.371356,"lng":139.442121,"zip":"2520816"}]