[{"town":"谷ケ","koaza":"","lat":35.366077,"lng":139.037632,"zip":"2580115"},{"town":"向原","koaza":"","lat":35.359697,"lng":139.103054,"zip":"2580111"},{"town":"世附","koaza":"","lat":35.411019,"lng":139.008718,"zip":"2580204"},{"town":"玄倉","koaza":"","lat":35.418153,"lng":139.070084,"zip":"2580202"},{"town":"神尾田","koaza":"","lat":35.413404,"lng":139.042582,"zip":"2580203"},{"town":"中川","koaza":"","lat":35.438548,"lng":139.045638,"zip":"2580201"},{"town":"岸","koaza":"","lat":35.353049,"lng":139.089439,"zip":"2580112"},{"town":"平山","koaza":"","lat":35.35414,"lng":139.068131,"zip":"2580114"},{"town":"山北","koaza":"","lat":35.361235,"lng":139.08105,"zip":"2580113"},{"town":"都夫良野","koaza":"","lat":35.367827,"lng":139.055306,"zip":"2580122"},{"town":"湯触","koaza":"","lat":35.378767,"lng":139.034666,"zip":"2580123"},{"town":"川西","koaza":"","lat":35.372478,"lng":139.030478,"zip":"2580124"},{"town":"皆瀬川","koaza":"","lat":35.372118,"lng":139.06368,"zip":"2580121"},{"town":"神縄","koaza":"","lat":35.402622,"lng":139.045952,"zip":"2580126"},{"town":"山市場","koaza":"","lat":35.395065,"lng":139.040959,"zip":"2580125"}]