[{"town":"仙石原","koaza":"","lat":35.2606,"lng":139.004544,"zip":"2500631"},{"town":"箱根","koaza":"","lat":35.189737,"lng":139.037778,"zip":"2500521"},{"town":"元箱根","koaza":"","lat":35.216444,"lng":139.010472,"zip":"2500522"},{"town":"木賀","koaza":"","lat":35.248418,"lng":139.052072,"zip":"2500402"},{"town":"強羅","koaza":"","lat":35.24864,"lng":139.039085,"zip":"2500408"},{"town":"宮城野","koaza":"","lat":35.263846,"lng":139.048586,"zip":"2500401"},{"town":"須雲川","koaza":"","lat":35.213108,"lng":139.07492,"zip":"2500313"},{"town":"湯本茶屋","koaza":"","lat":35.222086,"lng":139.089696,"zip":"2500312"},{"town":"塔之澤","koaza":"","lat":35.236584,"lng":139.093501,"zip":"2500315"},{"town":"湯本","koaza":"","lat":35.23229,"lng":139.105189,"zip":"2500311"},{"town":"大平台","koaza":"","lat":35.234907,"lng":139.072294,"zip":"2500405"},{"town":"宮ノ下","koaza":"","lat":35.240245,"lng":139.061394,"zip":"2500404"},{"town":"畑宿","koaza":"","lat":35.205265,"lng":139.056263,"zip":"2500314"},{"town":"小涌谷","koaza":"","lat":35.232252,"lng":139.052384,"zip":"2500406"},{"town":"芦之湯","koaza":"","lat":35.219776,"lng":139.043487,"zip":"2500523"},{"town":"二ノ平","koaza":"","lat":35.237925,"lng":139.038479,"zip":"2500407"},{"town":"底倉","koaza":"","lat":35.244144,"lng":139.056258,"zip":"2500403"}]