[{"town":"井ノ口","koaza":"","lat":35.337848,"lng":139.23278,"zip":"2590151"},{"town":"藤沢","koaza":"","lat":35.332455,"lng":139.225842,"zip":"2590152"},{"town":"鴨沢","koaza":"","lat":35.333757,"lng":139.198541,"zip":"2590147"},{"town":"松本","koaza":"","lat":35.343623,"lng":139.19773,"zip":"2590155"},{"town":"比奈窪","koaza":"","lat":35.33574,"lng":139.218559,"zip":"2590153"},{"town":"古怒田","koaza":"","lat":35.323053,"lng":139.192305,"zip":"2590146"},{"town":"北田","koaza":"","lat":35.323068,"lng":139.229231,"zip":"2590143"},{"town":"田中","koaza":"","lat":35.316631,"lng":139.204715,"zip":"2590145"},{"town":"半分形","koaza":"","lat":35.325592,"lng":139.210985,"zip":"2590144"},{"town":"久所","koaza":"","lat":35.325065,"lng":139.221589,"zip":"2590142"},{"town":"遠藤","koaza":"","lat":35.319891,"lng":139.203912,"zip":"2590141"},{"town":"雑色","koaza":"","lat":35.330557,"lng":139.210181,"zip":"2590148"},{"town":"境","koaza":"","lat":35.347981,"lng":139.219937,"zip":"2590157"},{"town":"岩倉","koaza":"","lat":35.344736,"lng":139.208271,"zip":"2590154"},{"town":"境別所","koaza":"","lat":35.354911,"lng":139.202696,"zip":"2590156"},{"town":"井ノ口","koaza":"米山","lat":35.333372,"lng":139.237584,"zip":"2590151"}]