[{"town":"吉浜","koaza":"","lat":35.171964,"lng":139.101959,"zip":"2590312"},{"town":"鍛冶屋","koaza":"","lat":35.170764,"lng":139.075554,"zip":"2590313"},{"town":"宮上","koaza":"","lat":35.162054,"lng":139.053297,"zip":"2590314"},{"town":"福浦","koaza":"","lat":35.151977,"lng":139.131938,"zip":"2590311"},{"town":"中央五丁目","koaza":"","lat":35.147836,"lng":139.114224,"zip":"2590301"},{"town":"中央四丁目","koaza":"","lat":35.151901,"lng":139.112499,"zip":"2590301"},{"town":"中央二丁目","koaza":"","lat":35.148383,"lng":139.110541,"zip":"2590301"},{"town":"中央三丁目","koaza":"","lat":35.151412,"lng":139.110509,"zip":"2590301"},{"town":"門川","koaza":"","lat":35.143506,"lng":139.111718,"zip":"2590302"},{"town":"土肥六丁目","koaza":"","lat":35.141094,"lng":139.09356,"zip":"2590303"},{"town":"土肥四丁目","koaza":"","lat":35.142023,"lng":139.102918,"zip":"2590303"},{"town":"土肥三丁目","koaza":"","lat":35.142451,"lng":139.107414,"zip":"2590303"},{"town":"中央一丁目","koaza":"","lat":35.146407,"lng":139.11036,"zip":"2590301"},{"town":"土肥二丁目","koaza":"","lat":35.144164,"lng":139.107462,"zip":"2590303"},{"town":"土肥一丁目","koaza":"","lat":35.144825,"lng":139.103032,"zip":"2590303"},{"town":"土肥五丁目","koaza":"","lat":35.14181,"lng":139.098593,"zip":"2590303"},{"town":"宮下","koaza":"","lat":35.148898,"lng":139.090838,"zip":"2590304"},{"town":"城堀","koaza":"","lat":35.151958,"lng":139.098208,"zip":"2590305"}]