[{"town":"桜山","koaza":"","lat":35.281544,"lng":139.610675,"zip":"2490005"},{"town":"沼間六丁目","koaza":"","lat":35.298387,"lng":139.616096,"zip":"2490004"},{"town":"沼間五丁目","koaza":"","lat":35.290654,"lng":139.617202,"zip":"2490004"},{"town":"新宿五丁目","koaza":"","lat":35.294752,"lng":139.56693,"zip":"2490007"},{"town":"新宿四丁目","koaza":"","lat":35.298097,"lng":139.566229,"zip":"2490007"},{"town":"新宿一丁目","koaza":"","lat":35.290417,"lng":139.574215,"zip":"2490007"},{"town":"桜山六丁目","koaza":"","lat":35.293048,"lng":139.588346,"zip":"2490005"},{"town":"逗子六丁目","koaza":"","lat":35.29256,"lng":139.577517,"zip":"2490006"},{"town":"桜山九丁目","koaza":"","lat":35.284949,"lng":139.573132,"zip":"2490005"},{"town":"逗子七丁目","koaza":"","lat":35.296009,"lng":139.574388,"zip":"2490006"},{"town":"新宿二丁目","koaza":"","lat":35.293845,"lng":139.572383,"zip":"2490007"},{"town":"新宿三丁目","koaza":"","lat":35.29683,"lng":139.570367,"zip":"2490007"},{"town":"小坪四丁目","koaza":"","lat":35.295134,"lng":139.55871,"zip":"2490008"},{"town":"沼間三丁目","koaza":"","lat":35.293481,"lng":139.609414,"zip":"2490004"},{"town":"沼間一丁目","koaza":"","lat":35.294866,"lng":139.602608,"zip":"2490004"},{"town":"逗子五丁目","koaza":"","lat":35.294031,"lng":139.579473,"zip":"2490006"},{"town":"沼間二丁目","koaza":"","lat":35.302537,"lng":139.603572,"zip":"2490004"},{"town":"沼間四丁目","koaza":"","lat":35.301952,"lng":139.610944,"zip":"2490004"},{"town":"桜山五丁目","koaza":"","lat":35.293921,"lng":139.595835,"zip":"2490005"},{"town":"桜山四丁目","koaza":"","lat":35.299366,"lng":139.596487,"zip":"2490005"},{"town":"桜山八丁目","koaza":"","lat":35.287959,"lng":139.577482,"zip":"2490005"},{"town":"桜山一丁目","koaza":"","lat":35.298061,"lng":139.588495,"zip":"2490005"},{"town":"桜山三丁目","koaza":"","lat":35.297995,"lng":139.592914,"zip":"2490005"},{"town":"池子一丁目","koaza":"","lat":35.301236,"lng":139.591163,"zip":"2490003"},{"town":"桜山七丁目","koaza":"","lat":35.28959,"lng":139.583925,"zip":"2490005"},{"town":"逗子四丁目","koaza":"","lat":35.293751,"lng":139.58293,"zip":"2490006"},{"town":"逗子三丁目","koaza":"","lat":35.296278,"lng":139.583714,"zip":"2490006"},{"town":"桜山二丁目","koaza":"","lat":35.296194,"lng":139.588809,"zip":"2490005"},{"town":"池子三丁目","koaza":"","lat":35.305775,"lng":139.600473,"zip":"2490003"},{"town":"逗子一丁目","koaza":"","lat":35.296374,"lng":139.577673,"zip":"2490006"},{"town":"山の根一丁目","koaza":"","lat":35.299195,"lng":139.578328,"zip":"2490002"},{"town":"久木三丁目","koaza":"","lat":35.300389,"lng":139.573151,"zip":"2490001"},{"town":"逗子二丁目","koaza":"","lat":35.297527,"lng":139.582733,"zip":"2490006"},{"town":"小坪三丁目","koaza":"","lat":35.296715,"lng":139.561652,"zip":"2490008"},{"town":"山の根二丁目","koaza":"","lat":35.300502,"lng":139.581045,"zip":"2490002"},{"town":"山の根三丁目","koaza":"","lat":35.30158,"lng":139.585551,"zip":"2490002"},{"town":"久木","koaza":"","lat":35.309372,"lng":139.582234,"zip":"2490001"},{"town":"久木六丁目","koaza":"","lat":35.305688,"lng":139.576564,"zip":"2490001"},{"town":"久木四丁目","koaza":"","lat":35.30289,"lng":139.56906,"zip":"2490001"},{"town":"久木五丁目","koaza":"","lat":35.30356,"lng":139.572556,"zip":"2490001"},{"town":"久木九丁目","koaza":"","lat":35.30763,"lng":139.568957,"zip":"2490001"},{"town":"小坪二丁目","koaza":"","lat":35.302369,"lng":139.561489,"zip":"2490008"},{"town":"小坪一丁目","koaza":"","lat":35.303659,"lng":139.565364,"zip":"2490008"},{"town":"小坪六丁目","koaza":"","lat":35.301882,"lng":139.556692,"zip":"2490008"},{"town":"小坪五丁目","koaza":"","lat":35.298455,"lng":139.554628,"zip":"2490008"},{"town":"小坪七丁目","koaza":"","lat":35.305139,"lng":139.560323,"zip":"2490008"},{"town":"池子二丁目","koaza":"","lat":35.303732,"lng":139.595104,"zip":"2490003"},{"town":"久木一丁目","koaza":"","lat":35.300365,"lng":139.576445,"zip":"2490001"},{"town":"久木二丁目","koaza":"","lat":35.303132,"lng":139.579851,"zip":"2490001"},{"town":"池子四丁目","koaza":"","lat":35.311272,"lng":139.605337,"zip":"2490003"},{"town":"池子","koaza":"","lat":35.310647,"lng":139.592512,"zip":"2490003"},{"town":"久木七丁目","koaza":"","lat":35.307264,"lng":139.578212,"zip":"2490001"},{"town":"久木八丁目","koaza":"","lat":35.309394,"lng":139.573426,"zip":"2490001"}]