[{"town":"西鎌倉四丁目","koaza":"","lat":35.320847,"lng":139.497922,"zip":"2480035"},{"town":"腰越二丁目","koaza":"","lat":35.308221,"lng":139.494544,"zip":"2480033"},{"town":"腰越一丁目","koaza":"","lat":35.308714,"lng":139.499287,"zip":"2480033"},{"town":"腰越四丁目","koaza":"","lat":35.311832,"lng":139.497237,"zip":"2480033"},{"town":"津西二丁目","koaza":"","lat":35.315068,"lng":139.496544,"zip":"2480034"},{"town":"今泉台六丁目","koaza":"","lat":35.337399,"lng":139.565991,"zip":"2470053"},{"town":"二階堂","koaza":"","lat":35.329099,"lng":139.571058,"zip":"2480002"},{"town":"台","koaza":"","lat":35.339586,"lng":139.536999,"zip":"2470061"},{"town":"山ノ内","koaza":"","lat":35.33556,"lng":139.54847,"zip":"2470062"},{"town":"寺分","koaza":"","lat":35.335418,"lng":139.516503,"zip":"2470064"},{"town":"今泉台五丁目","koaza":"","lat":35.336535,"lng":139.561715,"zip":"2470053"},{"town":"今泉五丁目","koaza":"","lat":35.340116,"lng":139.570464,"zip":"2470052"},{"town":"今泉台四丁目","koaza":"","lat":35.337521,"lng":139.558785,"zip":"2470053"},{"town":"山崎","koaza":"","lat":35.339615,"lng":139.527592,"zip":"2470066"},{"town":"寺分二丁目","koaza":"","lat":35.336141,"lng":139.526789,"zip":"2470064"},{"town":"上町屋","koaza":"","lat":35.33926,"lng":139.518739,"zip":"2470065"},{"town":"関谷","koaza":"","lat":35.361596,"lng":139.508195,"zip":"2470075"},{"town":"手広五丁目","koaza":"","lat":35.325265,"lng":139.50613,"zip":"2480036"},{"town":"手広四丁目","koaza":"","lat":35.328022,"lng":139.50673,"zip":"2480036"},{"town":"手広三丁目","koaza":"","lat":35.330269,"lng":139.507169,"zip":"2480036"},{"town":"笛田","koaza":"","lat":35.331963,"lng":139.510347,"zip":"2480027"},{"town":"笛田四丁目","koaza":"","lat":35.324915,"lng":139.522342,"zip":"2480027"},{"town":"笛田五丁目","koaza":"","lat":35.319672,"lng":139.52513,"zip":"2480027"},{"town":"笛田三丁目","koaza":"","lat":35.325059,"lng":139.51947,"zip":"2480027"},{"town":"手広一丁目","koaza":"","lat":35.329262,"lng":139.512021,"zip":"2480036"},{"town":"浄明寺五丁目","koaza":"","lat":35.318107,"lng":139.573887,"zip":"2480003"},{"town":"浄明寺三丁目","koaza":"","lat":35.32212,"lng":139.57022,"zip":"2480003"},{"town":"材木座五丁目","koaza":"","lat":35.307548,"lng":139.548873,"zip":"2480013"},{"town":"七里ガ浜東二丁目","koaza":"","lat":35.307192,"lng":139.513202,"zip":"2480025"},{"town":"浄明寺二丁目","koaza":"","lat":35.317932,"lng":139.569563,"zip":"2480003"},{"town":"西鎌倉三丁目","koaza":"","lat":35.319657,"lng":139.499806,"zip":"2480035"},{"town":"大町七丁目","koaza":"","lat":35.312051,"lng":139.565955,"zip":"2480007"},{"town":"材木座六丁目","koaza":"","lat":35.303525,"lng":139.554051,"zip":"2480013"},{"town":"大町五丁目","koaza":"","lat":35.30971,"lng":139.561661,"zip":"2480007"},{"town":"材木座一丁目","koaza":"","lat":35.31335,"lng":139.551573,"zip":"2480013"},{"town":"由比ガ浜四丁目","koaza":"","lat":35.310327,"lng":139.543271,"zip":"2480014"},{"town":"材木座四丁目","koaza":"","lat":35.307118,"lng":139.556572,"zip":"2480013"},{"town":"由比ガ浜一丁目","koaza":"","lat":35.315672,"lng":139.545935,"zip":"2480014"},{"town":"由比ガ浜三丁目","koaza":"","lat":35.313346,"lng":139.542461,"zip":"2480014"},{"town":"長谷三丁目","koaza":"","lat":35.314164,"lng":139.533053,"zip":"2480016"},{"town":"稲村ガ崎一丁目","koaza":"","lat":35.304045,"lng":139.525579,"zip":"2480024"},{"town":"笛田六丁目","koaza":"","lat":35.318268,"lng":139.529476,"zip":"2480027"},{"town":"極楽寺三丁目","koaza":"","lat":35.309213,"lng":139.526531,"zip":"2480023"},{"town":"極楽寺一丁目","koaza":"","lat":35.306806,"lng":139.528746,"zip":"2480023"},{"town":"極楽寺四丁目","koaza":"","lat":35.313355,"lng":139.525602,"zip":"2480023"},{"town":"稲村ガ崎三丁目","koaza":"","lat":35.305155,"lng":139.518778,"zip":"2480024"},{"town":"稲村ガ崎二丁目","koaza":"","lat":35.305929,"lng":139.523811,"zip":"2480024"},{"town":"七里ガ浜東一丁目","koaza":"","lat":35.306319,"lng":139.51598,"zip":"2480025"},{"town":"稲村ガ崎四丁目","koaza":"","lat":35.307213,"lng":139.520696,"zip":"2480024"},{"town":"稲村ガ崎五丁目","koaza":"","lat":35.311138,"lng":139.522385,"zip":"2480024"},{"town":"七里ガ浜東四丁目","koaza":"","lat":35.311788,"lng":139.516128,"zip":"2480025"},{"town":"七里ガ浜東三丁目","koaza":"","lat":35.311551,"lng":139.518893,"zip":"2480025"},{"town":"七里ガ浜二丁目","koaza":"","lat":35.308026,"lng":139.505757,"zip":"2480026"},{"town":"坂ノ下","koaza":"","lat":35.307294,"lng":139.532237,"zip":"2480021"},{"town":"長谷二丁目","koaza":"","lat":35.310983,"lng":139.537724,"zip":"2480016"},{"town":"浄明寺四丁目","koaza":"","lat":35.322383,"lng":139.575039,"zip":"2480003"},{"town":"十二所","koaza":"","lat":35.325509,"lng":139.583383,"zip":"2480001"},{"town":"大町六丁目","koaza":"","lat":35.314691,"lng":139.564186,"zip":"2480007"},{"town":"浄明寺一丁目","koaza":"","lat":35.319882,"lng":139.565182,"zip":"2480003"},{"town":"由比ガ浜二丁目","koaza":"","lat":35.313156,"lng":139.547965,"zip":"2480014"},{"town":"雪ノ下五丁目","koaza":"","lat":35.321677,"lng":139.563211,"zip":"2480005"},{"town":"雪ノ下四丁目","koaza":"","lat":35.320848,"lng":139.561655,"zip":"2480005"},{"town":"西御門二丁目","koaza":"","lat":35.327526,"lng":139.562754,"zip":"2480004"},{"town":"雪ノ下","koaza":"","lat":35.323501,"lng":139.562829,"zip":"2480005"},{"town":"大町三丁目","koaza":"","lat":35.315813,"lng":139.559671,"zip":"2480007"},{"town":"大町四丁目","koaza":"","lat":35.312568,"lng":139.559984,"zip":"2480007"},{"town":"小町三丁目","koaza":"","lat":35.320669,"lng":139.558286,"zip":"2480006"},{"town":"材木座三丁目","koaza":"","lat":35.309183,"lng":139.55124,"zip":"2480013"},{"town":"材木座二丁目","koaza":"","lat":35.310109,"lng":139.555575,"zip":"2480013"},{"town":"西御門一丁目","koaza":"","lat":35.329382,"lng":139.560209,"zip":"2480004"},{"town":"雪ノ下三丁目","koaza":"","lat":35.324358,"lng":139.560101,"zip":"2480005"},{"town":"大町二丁目","koaza":"","lat":35.312861,"lng":139.554839,"zip":"2480007"},{"town":"大町一丁目","koaza":"","lat":35.317238,"lng":139.555649,"zip":"2480007"},{"town":"雪ノ下一丁目","koaza":"","lat":35.322642,"lng":139.554531,"zip":"2480005"},{"town":"雪ノ下二丁目","koaza":"","lat":35.327359,"lng":139.556062,"zip":"2480005"},{"town":"扇ガ谷二丁目","koaza":"","lat":35.326523,"lng":139.551539,"zip":"2480011"},{"town":"扇ガ谷三丁目","koaza":"","lat":35.328798,"lng":139.550335,"zip":"2480011"},{"town":"御成町","koaza":"","lat":35.318904,"lng":139.547953,"zip":"2480012"},{"town":"扇ガ谷一丁目","koaza":"","lat":35.323423,"lng":139.54799,"zip":"2480011"},{"town":"小町一丁目","koaza":"","lat":35.318565,"lng":139.55222,"zip":"2480006"},{"town":"小町二丁目","koaza":"","lat":35.320827,"lng":139.553204,"zip":"2480006"},{"town":"極楽寺二丁目","koaza":"","lat":35.313526,"lng":139.529421,"zip":"2480023"},{"town":"長谷四丁目","koaza":"","lat":35.317755,"lng":139.533876,"zip":"2480016"},{"town":"佐助一丁目","koaza":"","lat":35.320073,"lng":139.543015,"zip":"2480017"},{"town":"長谷五丁目","koaza":"","lat":35.319592,"lng":139.538036,"zip":"2480016"},{"town":"扇ガ谷四丁目","koaza":"","lat":35.32786,"lng":139.545748,"zip":"2480011"},{"town":"梶原五丁目","koaza":"","lat":35.328128,"lng":139.53882,"zip":"2470063"},{"town":"梶原四丁目","koaza":"","lat":35.327317,"lng":139.530002,"zip":"2470063"},{"town":"梶原三丁目","koaza":"","lat":35.331316,"lng":139.534582,"zip":"2470063"},{"town":"常盤","koaza":"","lat":35.323076,"lng":139.531539,"zip":"2480022"},{"town":"佐助二丁目","koaza":"","lat":35.324207,"lng":139.541843,"zip":"2480017"},{"town":"梶原二丁目","koaza":"","lat":35.329903,"lng":139.528278,"zip":"2470063"},{"town":"寺分三丁目","koaza":"","lat":35.333091,"lng":139.526435,"zip":"2470064"},{"town":"笛田二丁目","koaza":"","lat":35.324999,"lng":139.517425,"zip":"2480027"},{"town":"長谷一丁目","koaza":"","lat":35.314621,"lng":139.538516,"zip":"2480016"},{"town":"笹目町","koaza":"","lat":35.316838,"lng":139.541597,"zip":"2480015"},{"town":"七里ガ浜一丁目","koaza":"","lat":35.308626,"lng":139.51074,"zip":"2480026"},{"town":"鎌倉山二丁目","koaza":"","lat":35.31659,"lng":139.5186,"zip":"2480031"},{"town":"鎌倉山一丁目","koaza":"","lat":35.318847,"lng":139.520947,"zip":"2480031"},{"town":"梶原一丁目","koaza":"","lat":35.330662,"lng":139.522143,"zip":"2470063"},{"town":"寺分一丁目","koaza":"","lat":35.33394,"lng":139.522422,"zip":"2470064"},{"town":"梶原","koaza":"","lat":35.332743,"lng":139.514074,"zip":"2470063"},{"town":"津西一丁目","koaza":"","lat":35.315671,"lng":139.500183,"zip":"2480034"},{"town":"西鎌倉一丁目","koaza":"","lat":35.320877,"lng":139.504442,"zip":"2480035"},{"town":"鎌倉山三丁目","koaza":"","lat":35.319284,"lng":139.514822,"zip":"2480031"},{"town":"手広","koaza":"","lat":35.323695,"lng":139.509004,"zip":"2480036"},{"town":"西鎌倉二丁目","koaza":"","lat":35.323701,"lng":139.503299,"zip":"2480035"},{"town":"津","koaza":"","lat":35.319525,"lng":139.50908,"zip":"2480032"},{"town":"腰越","koaza":"","lat":35.312434,"lng":139.505309,"zip":"2480033"},{"town":"七里ガ浜東五丁目","koaza":"","lat":35.313347,"lng":139.512733,"zip":"2480025"},{"town":"手広二丁目","koaza":"","lat":35.326412,"lng":139.511268,"zip":"2480036"},{"town":"鎌倉山四丁目","koaza":"","lat":35.32445,"lng":139.514084,"zip":"2480031"},{"town":"手広六丁目","koaza":"","lat":35.32907,"lng":139.502556,"zip":"2480036"},{"town":"笛田一丁目","koaza":"","lat":35.331661,"lng":139.508051,"zip":"2480027"},{"town":"腰越三丁目","koaza":"","lat":35.309215,"lng":139.491298,"zip":"2480033"},{"town":"腰越五丁目","koaza":"","lat":35.31308,"lng":139.493551,"zip":"2480033"},{"town":"岡本一丁目","koaza":"","lat":35.355359,"lng":139.528302,"zip":"2470072"},{"town":"今泉四丁目","koaza":"","lat":35.345132,"lng":139.566224,"zip":"2470052"},{"town":"今泉台三丁目","koaza":"","lat":35.340005,"lng":139.556712,"zip":"2470053"},{"town":"台五丁目","koaza":"","lat":35.342109,"lng":139.534666,"zip":"2470061"},{"town":"岩瀬一丁目","koaza":"","lat":35.35521,"lng":139.540665,"zip":"2470051"},{"town":"今泉台二丁目","koaza":"","lat":35.341085,"lng":139.558881,"zip":"2470053"},{"town":"今泉台七丁目","koaza":"","lat":35.340804,"lng":139.564383,"zip":"2470053"},{"town":"今泉三丁目","koaza":"","lat":35.344701,"lng":139.558631,"zip":"2470052"},{"town":"高野","koaza":"","lat":35.344006,"lng":139.547759,"zip":"2470054"},{"town":"今泉二丁目","koaza":"","lat":35.345047,"lng":139.552319,"zip":"2470052"},{"town":"今泉一丁目","koaza":"","lat":35.349558,"lng":139.55331,"zip":"2470052"},{"town":"今泉台一丁目","koaza":"","lat":35.342348,"lng":139.553728,"zip":"2470053"},{"town":"小袋谷","koaza":"","lat":35.3436,"lng":139.540422,"zip":"2470055"},{"town":"小袋谷二丁目","koaza":"","lat":35.343977,"lng":139.536947,"zip":"2470055"},{"town":"大船六丁目","koaza":"","lat":35.351901,"lng":139.540016,"zip":"2470056"},{"town":"台四丁目","koaza":"","lat":35.341509,"lng":139.531162,"zip":"2470061"},{"town":"台三丁目","koaza":"","lat":35.344896,"lng":139.531358,"zip":"2470061"},{"town":"大船二丁目","koaza":"","lat":35.351832,"lng":139.535421,"zip":"2470056"},{"town":"大船四丁目","koaza":"","lat":35.346039,"lng":139.538498,"zip":"2470056"},{"town":"大船三丁目","koaza":"","lat":35.348401,"lng":139.534816,"zip":"2470056"},{"town":"大船","koaza":"","lat":35.348065,"lng":139.545292,"zip":"2470056"},{"town":"大船五丁目","koaza":"","lat":35.349049,"lng":139.539259,"zip":"2470056"},{"town":"小袋谷一丁目","koaza":"","lat":35.348053,"lng":139.531988,"zip":"2470055"},{"town":"大船一丁目","koaza":"","lat":35.352094,"lng":139.531825,"zip":"2470056"},{"town":"玉縄一丁目","koaza":"","lat":35.351762,"lng":139.523627,"zip":"2470071"},{"town":"岡本二丁目","koaza":"","lat":35.350538,"lng":139.525931,"zip":"2470072"},{"town":"台二丁目","koaza":"","lat":35.34706,"lng":139.528429,"zip":"2470061"},{"town":"台一丁目","koaza":"","lat":35.349373,"lng":139.52708,"zip":"2470061"},{"town":"岡本","koaza":"","lat":35.346681,"lng":139.51823,"zip":"2470072"},{"town":"玉縄三丁目","koaza":"","lat":35.353054,"lng":139.522353,"zip":"2470071"},{"town":"植木","koaza":"","lat":35.349151,"lng":139.514544,"zip":"2470073"},{"town":"玉縄二丁目","koaza":"","lat":35.356417,"lng":139.523647,"zip":"2470071"},{"town":"岩瀬","koaza":"","lat":35.354748,"lng":139.547444,"zip":"2470051"},{"town":"玉縄五丁目","koaza":"","lat":35.359726,"lng":139.521257,"zip":"2470071"},{"town":"城廻","koaza":"","lat":35.355292,"lng":139.510055,"zip":"2470074"},{"town":"玉縄四丁目","koaza":"","lat":35.356584,"lng":139.51849,"zip":"2470071"},{"town":"浄明寺六丁目","koaza":"","lat":35.313948,"lng":139.573197,"zip":"2480003"}]