[{"town":"一之宮","koaza":"","lat":35.365845,"lng":139.37102,"zip":"2530111"},{"town":"田端","koaza":"","lat":35.354697,"lng":139.380561,"zip":"2530114"},{"town":"一之宮六丁目","koaza":"","lat":35.361415,"lng":139.375422,"zip":"2530111"},{"town":"一之宮四丁目","koaza":"","lat":35.368981,"lng":139.377411,"zip":"2530111"},{"town":"一之宮五丁目","koaza":"","lat":35.36779,"lng":139.373902,"zip":"2530111"},{"town":"一之宮七丁目","koaza":"","lat":35.361268,"lng":139.379501,"zip":"2530111"},{"town":"一之宮八丁目","koaza":"","lat":35.361844,"lng":139.383059,"zip":"2530111"},{"town":"大曲四丁目","koaza":"","lat":35.3538,"lng":139.392659,"zip":"2530113"},{"town":"一之宮三丁目","koaza":"","lat":35.367462,"lng":139.379644,"zip":"2530111"},{"town":"大曲三丁目","koaza":"","lat":35.356998,"lng":139.391268,"zip":"2530113"},{"town":"一之宮九丁目","koaza":"","lat":35.359989,"lng":139.387887,"zip":"2530111"},{"town":"小谷三丁目","koaza":"","lat":35.382427,"lng":139.392786,"zip":"2530103"},{"town":"小谷","koaza":"","lat":35.36921,"lng":139.385422,"zip":"2530103"},{"town":"大曲一丁目","koaza":"","lat":35.360312,"lng":139.39333,"zip":"2530113"},{"town":"中瀬","koaza":"","lat":35.363504,"lng":139.390617,"zip":"2530112"},{"town":"大曲二丁目","koaza":"","lat":35.355859,"lng":139.395442,"zip":"2530113"},{"town":"岡田八丁目","koaza":"","lat":35.371004,"lng":139.40089,"zip":"2530105"},{"town":"一之宮二丁目","koaza":"","lat":35.366875,"lng":139.383188,"zip":"2530111"},{"town":"岡田七丁目","koaza":"","lat":35.374223,"lng":139.398401,"zip":"2530105"},{"town":"岡田六丁目","koaza":"","lat":35.374166,"lng":139.39244,"zip":"2530105"},{"town":"岡田三丁目","koaza":"","lat":35.368478,"lng":139.392174,"zip":"2530105"},{"town":"岡田五丁目","koaza":"","lat":35.3723,"lng":139.394853,"zip":"2530105"},{"town":"小谷一丁目","koaza":"","lat":35.379723,"lng":139.398011,"zip":"2530103"},{"town":"一之宮一丁目","koaza":"","lat":35.366046,"lng":139.386291,"zip":"2530111"},{"town":"岡田四丁目","koaza":"","lat":35.370908,"lng":139.397472,"zip":"2530105"},{"town":"大蔵","koaza":"","lat":35.377081,"lng":139.400404,"zip":"2530104"},{"town":"小谷二丁目","koaza":"","lat":35.380225,"lng":139.394346,"zip":"2530103"},{"town":"小動","koaza":"","lat":35.386448,"lng":139.395753,"zip":"2530102"},{"town":"倉見","koaza":"","lat":35.395106,"lng":139.384832,"zip":"2530101"},{"town":"宮山","koaza":"","lat":35.380566,"lng":139.381358,"zip":"2530106"},{"town":"小谷四丁目","koaza":"","lat":35.382606,"lng":139.399714,"zip":"2530103"},{"town":"岡田二丁目","koaza":"","lat":35.371609,"lng":139.388109,"zip":"2530105"},{"town":"岡田一丁目","koaza":"","lat":35.369713,"lng":139.387861,"zip":"2530105"},{"town":"岡田","koaza":"","lat":35.376155,"lng":139.391314,"zip":"2530105"}]