[{"town":"大字兄井","koaza":"","lat":34.285106,"lng":135.506936,"zip":"6497100"},{"town":"大字移","koaza":"","lat":34.293476,"lng":135.455433,"zip":"6497100"},{"town":"大字蛭子","koaza":"","lat":34.292799,"lng":135.495615,"zip":"6497100"},{"town":"大字大谷","koaza":"","lat":34.300369,"lng":135.492361,"zip":"6497100"},{"town":"大字大畑","koaza":"","lat":34.33923,"lng":135.520357,"zip":"6497100"},{"town":"大字大薮","koaza":"","lat":34.301211,"lng":135.499972,"zip":"6497100"},{"town":"大字柏木","koaza":"","lat":34.31488,"lng":135.496213,"zip":"6497100"},{"town":"大字笠田中","koaza":"","lat":34.296077,"lng":135.471166,"zip":"6497100"},{"town":"大字笠田東","koaza":"","lat":34.29081,"lng":135.479304,"zip":"6497100"},{"town":"大字上天野","koaza":"","lat":34.263513,"lng":135.521823,"zip":"6497100"},{"town":"大字教良寺","koaza":"","lat":34.278666,"lng":135.524832,"zip":"6497100"},{"town":"大字窪","koaza":"","lat":34.291764,"lng":135.460113,"zip":"6497100"},{"town":"大字神田","koaza":"","lat":34.246962,"lng":135.527132,"zip":"6497100"},{"town":"大字御所","koaza":"","lat":34.255579,"lng":135.476052,"zip":"6497100"},{"town":"大字佐野","koaza":"","lat":34.293951,"lng":135.485536,"zip":"6497100"},{"town":"大字志賀","koaza":"","lat":34.226157,"lng":135.502353,"zip":"6497100"},{"town":"大字島","koaza":"","lat":34.280146,"lng":135.466531,"zip":"6497100"},{"town":"大字下天野","koaza":"","lat":34.253765,"lng":135.513651,"zip":"6497100"},{"town":"大字新田","koaza":"","lat":34.297654,"lng":135.51172,"zip":"6497100"},{"town":"大字背ノ山","koaza":"","lat":34.284075,"lng":135.457949,"zip":"6497100"},{"town":"大字平","koaza":"","lat":34.342374,"lng":135.465863,"zip":"6497100"},{"town":"大字高田","koaza":"","lat":34.28269,"lng":135.451337,"zip":"6497100"},{"town":"大字滝","koaza":"","lat":34.324107,"lng":135.492612,"zip":"6497100"},{"town":"大字丁ノ町","koaza":"","lat":34.309439,"lng":135.51009,"zip":"6497100"},{"town":"大字寺尾","koaza":"","lat":34.285042,"lng":135.497334,"zip":"6497100"},{"town":"大字中飯降","koaza":"","lat":34.316334,"lng":135.535486,"zip":"6497100"},{"town":"大字西飯降","koaza":"","lat":34.305061,"lng":135.528164,"zip":"6497100"},{"town":"大字西渋田","koaza":"","lat":34.271893,"lng":135.466745,"zip":"6497100"},{"town":"大字萩原","koaza":"","lat":34.29766,"lng":135.464586,"zip":"6497100"},{"town":"大字花園新子","koaza":"","lat":34.124831,"lng":135.557239,"zip":"6497100"},{"town":"大字花園池之窪","koaza":"","lat":34.140651,"lng":135.55107,"zip":"6497100"},{"town":"大字花園北寺","koaza":"","lat":34.130288,"lng":135.534622,"zip":"6497100"},{"town":"大字花園久木","koaza":"","lat":34.167797,"lng":135.566609,"zip":"6497100"},{"town":"大字花園中南","koaza":"","lat":34.130056,"lng":135.575687,"zip":"6497100"},{"town":"大字花園梁瀬","koaza":"","lat":34.145192,"lng":135.516947,"zip":"6497100"},{"town":"大字東渋田","koaza":"","lat":34.276116,"lng":135.481707,"zip":"6497100"},{"town":"大字東谷","koaza":"","lat":34.347842,"lng":135.493767,"zip":"6497100"},{"town":"大字日高","koaza":"","lat":34.244508,"lng":135.490043,"zip":"6497100"},{"town":"大字平沼田","koaza":"","lat":34.274086,"lng":135.491249,"zip":"6497100"},{"town":"大字広浦","koaza":"","lat":34.308586,"lng":135.478571,"zip":"6497100"},{"town":"大字広口","koaza":"","lat":34.32403,"lng":135.471317,"zip":"6497100"},{"town":"大字星川","koaza":"","lat":34.264955,"lng":135.486841,"zip":"6497100"},{"town":"大字星山","koaza":"","lat":34.255309,"lng":135.493838,"zip":"6497100"},{"town":"大字短野","koaza":"","lat":34.324886,"lng":135.515126,"zip":"6497100"},{"town":"大字三谷","koaza":"","lat":34.282689,"lng":135.51392,"zip":"6497100"},{"town":"大字宮本","koaza":"","lat":34.271029,"lng":135.501558,"zip":"6497100"},{"town":"大字妙寺","koaza":"","lat":34.306421,"lng":135.521309,"zip":"6497100"},{"town":"大字山崎","koaza":"","lat":34.290258,"lng":135.535242,"zip":"6497100"}]