[{"town":"葵町","koaza":"","lat":34.21348,"lng":135.163085,"zip":"6408273"},{"town":"秋月","koaza":"","lat":34.230374,"lng":135.203712,"zip":"6408322"},{"town":"秋葉町","koaza":"","lat":34.200466,"lng":135.171405,"zip":"6410056"},{"town":"朝日","koaza":"","lat":34.192106,"lng":135.218759,"zip":"6400344"},{"town":"芦辺丁","koaza":"","lat":34.223697,"lng":135.175487,"zip":"6408134"},{"town":"小豆島","koaza":"","lat":34.252869,"lng":135.229079,"zip":"6496336"},{"town":"網屋町","koaza":"","lat":34.228907,"lng":135.161261,"zip":"6408238"},{"town":"有家","koaza":"","lat":34.22205,"lng":135.19985,"zip":"6408316"},{"town":"有田屋町","koaza":"","lat":34.227224,"lng":135.166584,"zip":"6408248"},{"town":"有田屋町南ノ丁","koaza":"","lat":34.227037,"lng":135.165525,"zip":"6408245"},{"town":"有本","koaza":"","lat":34.249854,"lng":135.194426,"zip":"6408390"},{"town":"新内","koaza":"","lat":34.233578,"lng":135.184124,"zip":"6408351"},{"town":"粟","koaza":"","lat":34.24987,"lng":135.175833,"zip":"6408462"},{"town":"石橋丁","koaza":"","lat":34.238341,"lng":135.167063,"zip":"6408201"},{"town":"磯の浦","koaza":"","lat":34.268912,"lng":135.091693,"zip":"6400114"},{"town":"伊太祈曽","koaza":"","lat":34.1978,"lng":135.251469,"zip":"6400361"},{"town":"板屋町","koaza":"","lat":34.233801,"lng":135.170327,"zip":"6408044"},{"town":"市小路","koaza":"","lat":34.255674,"lng":135.166173,"zip":"6408464"},{"town":"一番丁","koaza":"","lat":34.227823,"lng":135.172113,"zip":"6408146"},{"town":"五筋目","koaza":"","lat":34.240321,"lng":135.1706,"zip":"6408076"},{"town":"井戸","koaza":"","lat":34.199533,"lng":135.228621,"zip":"6400352"},{"town":"井ノ口","koaza":"","lat":34.240497,"lng":135.249115,"zip":"6496323"},{"town":"今福一丁目","koaza":"","lat":34.214738,"lng":135.165668,"zip":"6410044"},{"town":"今福二丁目","koaza":"","lat":34.21033,"lng":135.165987,"zip":"6410044"},{"town":"今福三丁目","koaza":"","lat":34.210381,"lng":135.163764,"zip":"6410044"},{"town":"今福四丁目","koaza":"","lat":34.212497,"lng":135.161124,"zip":"6410044"},{"town":"今福五丁目","koaza":"","lat":34.210618,"lng":135.16122,"zip":"6410044"},{"town":"岩橋","koaza":"","lat":34.235171,"lng":135.231368,"zip":"6408301"},{"town":"井辺","koaza":"","lat":34.219964,"lng":135.214878,"zip":"6408302"},{"town":"上野","koaza":"","lat":34.270896,"lng":135.254502,"zip":"6496316"},{"town":"上野町一丁目","koaza":"","lat":34.226751,"lng":135.168086,"zip":"6408242"},{"town":"上野町二丁目","koaza":"","lat":34.226892,"lng":135.167786,"zip":"6408242"},{"town":"上野町三丁目","koaza":"","lat":34.225939,"lng":135.165065,"zip":"6408242"},{"town":"植松丁","koaza":"","lat":34.227602,"lng":135.161089,"zip":"6408298"},{"town":"宇治鉄砲場","koaza":"","lat":34.243068,"lng":135.17301,"zip":"6408078"},{"town":"宇治袋町","koaza":"","lat":34.236718,"lng":135.173273,"zip":"6408039"},{"town":"宇治家裏","koaza":"","lat":34.241983,"lng":135.178954,"zip":"6408072"},{"town":"宇治藪下","koaza":"","lat":34.243544,"lng":135.177659,"zip":"6400000"},{"town":"宇須一丁目","koaza":"","lat":34.211009,"lng":135.174126,"zip":"6410043"},{"town":"宇須二丁目","koaza":"","lat":34.212179,"lng":135.176076,"zip":"6410043"},{"town":"宇須三丁目","koaza":"","lat":34.210385,"lng":135.177163,"zip":"6410043"},{"town":"宇須四丁目","koaza":"","lat":34.207495,"lng":135.177735,"zip":"6410043"},{"town":"宇田森","koaza":"","lat":34.261085,"lng":135.246799,"zip":"6496332"},{"town":"打越町","koaza":"","lat":34.204308,"lng":135.17676,"zip":"6410053"},{"town":"内原","koaza":"","lat":34.176912,"lng":135.19771,"zip":"6410013"},{"town":"梅原","koaza":"","lat":34.269961,"lng":135.139844,"zip":"6408452"},{"town":"上町","koaza":"","lat":34.229689,"lng":135.160452,"zip":"6408239"},{"town":"餌差町一丁目","koaza":"","lat":34.228763,"lng":135.18461,"zip":"6408335"},{"town":"餌差町二丁目","koaza":"","lat":34.229872,"lng":135.184247,"zip":"6408335"},{"town":"江南","koaza":"","lat":34.188172,"lng":135.230387,"zip":"6400343"},{"town":"榎原","koaza":"","lat":34.255613,"lng":135.13049,"zip":"6408434"},{"town":"大垣内","koaza":"","lat":34.247262,"lng":135.274789,"zip":"6496272"},{"town":"大川","koaza":"","lat":34.302073,"lng":135.088492,"zip":"6400101"},{"town":"大河内","koaza":"","lat":34.193652,"lng":135.269958,"zip":"6400316"},{"town":"太田","koaza":"","lat":34.230096,"lng":135.199521,"zip":"6408323"},{"town":"太田一丁目","koaza":"","lat":34.230684,"lng":135.193219,"zip":"6408323"},{"town":"太田二丁目","koaza":"","lat":34.23071,"lng":135.195421,"zip":"6408323"},{"town":"太田三丁目","koaza":"","lat":34.230924,"lng":135.197456,"zip":"6408323"},{"town":"太田四丁目","koaza":"","lat":34.228754,"lng":135.196081,"zip":"6408323"},{"town":"大谷","koaza":"","lat":34.26808,"lng":135.175374,"zip":"6408472"},{"town":"岡円福院西ノ丁","koaza":"","lat":34.233862,"lng":135.181927,"zip":"6408364"},{"town":"岡円福院東ノ丁","koaza":"","lat":34.234162,"lng":135.183933,"zip":"6408361"},{"town":"岡織屋小路","koaza":"","lat":34.233506,"lng":135.183311,"zip":"6408362"},{"town":"岡北ノ丁","koaza":"","lat":34.233404,"lng":135.182848,"zip":"6408365"},{"town":"岡南ノ丁","koaza":"","lat":34.232002,"lng":135.182433,"zip":"6408363"},{"town":"岡山丁","koaza":"","lat":34.225606,"lng":135.176444,"zip":"6408145"},{"town":"奥須佐","koaza":"","lat":34.193962,"lng":135.24665,"zip":"6400362"},{"town":"小倉","koaza":"","lat":34.251608,"lng":135.291682,"zip":"6496261"},{"town":"尾崎丁","koaza":"","lat":34.222519,"lng":135.165793,"zip":"6408271"},{"town":"落合","koaza":"","lat":34.299831,"lng":135.247095,"zip":"6496308"},{"town":"男野芝丁","koaza":"","lat":34.229496,"lng":135.164419,"zip":"6408230"},{"town":"小野町一丁目","koaza":"","lat":34.231907,"lng":135.16707,"zip":"6408224"},{"town":"小野町二丁目","koaza":"","lat":34.232024,"lng":135.165386,"zip":"6408224"},{"town":"小野町三丁目","koaza":"","lat":34.232018,"lng":135.163631,"zip":"6408224"},{"town":"雄松町一丁目","koaza":"","lat":34.222808,"lng":135.18192,"zip":"6408124"},{"town":"雄松町二丁目","koaza":"","lat":34.222169,"lng":135.181786,"zip":"6408124"},{"town":"雄松町三丁目","koaza":"","lat":34.22103,"lng":135.182217,"zip":"6408124"},{"town":"雄松町四丁目","koaza":"","lat":34.220174,"lng":135.181596,"zip":"6408124"},{"town":"雄松町五丁目","koaza":"","lat":34.219104,"lng":135.180812,"zip":"6408124"},{"town":"雄松町六丁目","koaza":"","lat":34.217824,"lng":135.18201,"zip":"6408124"},{"town":"嘉家作丁","koaza":"","lat":34.242247,"lng":135.177283,"zip":"6408073"},{"town":"駕町","koaza":"","lat":34.225892,"lng":135.163493,"zip":"6408293"},{"town":"加太","koaza":"","lat":34.275072,"lng":135.081156,"zip":"6400103"},{"town":"片岡町一丁目","koaza":"","lat":34.225172,"lng":135.174482,"zip":"6408139"},{"town":"片岡町二丁目","koaza":"","lat":34.223383,"lng":135.174697,"zip":"6408139"},{"town":"徒町","koaza":"","lat":34.225975,"lng":135.166332,"zip":"6408243"},{"town":"金谷","koaza":"","lat":34.230791,"lng":135.2732,"zip":"6496274"},{"town":"加納","koaza":"","lat":34.245537,"lng":135.20449,"zip":"6408391"},{"town":"加納町","koaza":"","lat":34.225515,"lng":135.159664,"zip":"6408288"},{"town":"上黒谷","koaza":"","lat":34.282319,"lng":135.264085,"zip":"6496306"},{"town":"上三毛","koaza":"","lat":34.244117,"lng":135.304608,"zip":"6496262"},{"town":"川辺","koaza":"","lat":34.256882,"lng":135.266203,"zip":"6496312"},{"town":"梶取","koaza":"","lat":34.251438,"lng":135.156502,"zip":"6408411"},{"town":"北","koaza":"","lat":34.256869,"lng":135.241034,"zip":"6496334"},{"town":"北相生丁","koaza":"","lat":34.22406,"lng":135.165068,"zip":"6408253"},{"town":"北牛町","koaza":"","lat":34.227032,"lng":135.161473,"zip":"6408299"},{"town":"北桶屋町","koaza":"","lat":34.236563,"lng":135.175229,"zip":"6408020"},{"town":"北休賀町","koaza":"","lat":34.231476,"lng":135.179211,"zip":"6408103"},{"town":"北釘貫丁","koaza":"","lat":34.240249,"lng":135.173024,"zip":"6408062"},{"town":"北細工町","koaza":"","lat":34.228061,"lng":135.179495,"zip":"6408118"},{"town":"北坂ノ上丁","koaza":"","lat":34.228722,"lng":135.165819,"zip":"6408233"},{"town":"北島","koaza":"","lat":34.240796,"lng":135.161068,"zip":"6408403"},{"town":"北新一丁目","koaza":"","lat":34.24096,"lng":135.177483,"zip":"6408002"},{"town":"北新二丁目","koaza":"","lat":34.239688,"lng":135.17755,"zip":"6408002"},{"town":"北新三丁目","koaza":"","lat":34.238759,"lng":135.177516,"zip":"6408002"},{"town":"北新四丁目","koaza":"","lat":34.237734,"lng":135.177535,"zip":"6408002"},{"town":"北新五丁目","koaza":"","lat":34.235784,"lng":135.177586,"zip":"6408002"},{"town":"北新戎ノ丁","koaza":"","lat":34.238751,"lng":135.178245,"zip":"6408017"},{"town":"北新桶屋町","koaza":"","lat":34.236454,"lng":135.178271,"zip":"6408015"},{"town":"北新金屋丁","koaza":"","lat":34.236747,"lng":135.179533,"zip":"6408012"},{"town":"北甚五兵衛丁","koaza":"","lat":34.227051,"lng":135.163261,"zip":"6408291"},{"town":"北新七軒丁","koaza":"","lat":34.240906,"lng":135.178177,"zip":"6408001"},{"town":"北新中ノ丁","koaza":"","lat":34.237673,"lng":135.178246,"zip":"6408016"},{"town":"北新博労町","koaza":"","lat":34.239993,"lng":135.178396,"zip":"6408003"},{"town":"北新元金屋丁","koaza":"","lat":34.238625,"lng":135.180208,"zip":"6408011"},{"town":"北大工町","koaza":"","lat":34.235091,"lng":135.173623,"zip":"6408031"},{"town":"北田辺丁","koaza":"","lat":34.224467,"lng":135.163458,"zip":"6408252"},{"town":"北中間町","koaza":"","lat":34.225473,"lng":135.16352,"zip":"6408294"},{"town":"北出島","koaza":"","lat":34.221889,"lng":135.194438,"zip":"6408317"},{"town":"北出島一丁目","koaza":"","lat":34.22286,"lng":135.191023,"zip":"6408317"},{"town":"北土佐丁","koaza":"","lat":34.225202,"lng":135.161266,"zip":"6408296"},{"town":"北中島一丁目","koaza":"","lat":34.21212,"lng":135.186941,"zip":"6410008"},{"town":"北野","koaza":"","lat":34.274694,"lng":135.248552,"zip":"6496331"},{"town":"北ノ新地一丁目","koaza":"","lat":34.23118,"lng":135.183823,"zip":"6408355"},{"town":"北ノ新地二丁目","koaza":"","lat":34.232354,"lng":135.183371,"zip":"6408355"},{"town":"北ノ新地裏田町","koaza":"","lat":34.232356,"lng":135.184133,"zip":"6408352"},{"town":"北ノ新地榎丁","koaza":"","lat":34.231976,"lng":135.184252,"zip":"6408353"},{"town":"北ノ新地上六軒丁","koaza":"","lat":34.230966,"lng":135.183192,"zip":"6408356"},{"town":"北ノ新地下六軒丁","koaza":"","lat":34.232099,"lng":135.18298,"zip":"6408358"},{"town":"北ノ新地田町","koaza":"","lat":34.232757,"lng":135.184,"zip":"6408359"},{"town":"北ノ新地中六軒丁","koaza":"","lat":34.231599,"lng":135.183054,"zip":"6408357"},{"town":"北ノ新地東ノ丁","koaza":"","lat":34.231339,"lng":135.184493,"zip":"6408354"},{"town":"北ノ新地分銅丁","koaza":"","lat":34.233201,"lng":135.183638,"zip":"6408350"},{"town":"北別所","koaza":"","lat":34.282744,"lng":135.25392,"zip":"6496307"},{"town":"北町","koaza":"","lat":34.236064,"lng":135.173282,"zip":"6408038"},{"town":"北汀丁","koaza":"","lat":34.229475,"lng":135.168128,"zip":"6408231"},{"town":"狐島","koaza":"","lat":34.245474,"lng":135.150771,"zip":"6408412"},{"town":"木ノ本","koaza":"","lat":34.266823,"lng":135.129006,"zip":"6408453"},{"town":"木広町二丁目","koaza":"","lat":34.22666,"lng":135.186457,"zip":"6408328"},{"town":"木広町三丁目","koaza":"","lat":34.226884,"lng":135.187882,"zip":"6408328"},{"town":"木広町四丁目","koaza":"","lat":34.227046,"lng":135.189192,"zip":"6408328"},{"town":"木広町五丁目","koaza":"","lat":34.227367,"lng":135.191115,"zip":"6408328"},{"town":"紀三井寺","koaza":"","lat":34.182944,"lng":135.188492,"zip":"6410012"},{"town":"久右衛門丁","koaza":"","lat":34.225592,"lng":135.165724,"zip":"6408244"},{"town":"九番丁","koaza":"","lat":34.231272,"lng":135.172133,"zip":"6408155"},{"town":"吉礼","koaza":"","lat":34.209217,"lng":135.237013,"zip":"6400351"},{"town":"金龍寺丁","koaza":"","lat":34.220441,"lng":135.164869,"zip":"6408274"},{"town":"杭ノ瀬","koaza":"","lat":34.208424,"lng":135.192075,"zip":"6410001"},{"town":"九家ノ丁","koaza":"","lat":34.235892,"lng":135.169855,"zip":"6408055"},{"town":"楠右衛門小路","koaza":"","lat":34.230348,"lng":135.18476,"zip":"6408332"},{"town":"楠見中","koaza":"","lat":34.255094,"lng":135.176331,"zip":"6408463"},{"town":"楠本","koaza":"","lat":34.257073,"lng":135.257206,"zip":"6496313"},{"town":"口須佐","koaza":"","lat":34.201892,"lng":135.246022,"zip":"6400364"},{"town":"久保丁一丁目","koaza":"","lat":34.231333,"lng":135.167074,"zip":"6408225"},{"town":"久保丁二丁目","koaza":"","lat":34.231343,"lng":135.165505,"zip":"6408225"},{"town":"久保丁三丁目","koaza":"","lat":34.231341,"lng":135.164029,"zip":"6408225"},{"town":"久保丁四丁目","koaza":"","lat":34.230693,"lng":135.161803,"zip":"6408225"},{"town":"蔵小路","koaza":"","lat":34.229421,"lng":135.184934,"zip":"6408333"},{"town":"栗栖","koaza":"","lat":34.238922,"lng":135.223621,"zip":"6408305"},{"town":"黒岩","koaza":"","lat":34.182071,"lng":135.27349,"zip":"6400311"},{"town":"黒田","koaza":"","lat":34.236413,"lng":135.19528,"zip":"6408341"},{"town":"黒田一丁目","koaza":"","lat":34.233031,"lng":135.192816,"zip":"6408341"},{"town":"黒田二丁目","koaza":"","lat":34.233253,"lng":135.195328,"zip":"6408341"},{"town":"黒谷","koaza":"","lat":34.181865,"lng":135.256092,"zip":"6400312"},{"town":"桑山","koaza":"","lat":34.195902,"lng":135.221867,"zip":"6400345"},{"town":"毛革屋丁","koaza":"","lat":34.23052,"lng":135.182483,"zip":"6408337"},{"town":"下町","koaza":"","lat":34.230266,"lng":135.16298,"zip":"6408220"},{"town":"毛見","koaza":"","lat":34.165258,"lng":135.187063,"zip":"6410014"},{"town":"源蔵馬場一丁目","koaza":"","lat":34.241065,"lng":135.172694,"zip":"6408075"},{"town":"源蔵馬場二丁目","koaza":"","lat":34.242166,"lng":135.172908,"zip":"6408075"},{"town":"神前","koaza":"","lat":34.212236,"lng":135.208171,"zip":"6408314"},{"town":"神波","koaza":"","lat":34.266047,"lng":135.25582,"zip":"6496315"},{"town":"小雑賀","koaza":"","lat":34.201312,"lng":135.183974,"zip":"6410007"},{"town":"小雑賀一丁目","koaza":"","lat":34.211542,"lng":135.179032,"zip":"6410007"},{"town":"小雑賀二丁目","koaza":"","lat":34.21059,"lng":135.181635,"zip":"6410007"},{"town":"小雑賀三丁目","koaza":"","lat":34.211098,"lng":135.18442,"zip":"6410007"},{"town":"小瀬田","koaza":"","lat":34.180211,"lng":135.23094,"zip":"6400323"},{"town":"五番丁","koaza":"","lat":34.229173,"lng":135.176937,"zip":"6408141"},{"town":"木挽丁","koaza":"","lat":34.232968,"lng":135.180739,"zip":"6408373"},{"town":"小人町","koaza":"","lat":34.230679,"lng":135.167094,"zip":"6408226"},{"town":"小人町南ノ丁","koaza":"","lat":34.229646,"lng":135.166067,"zip":"6408228"},{"town":"木枕","koaza":"","lat":34.211404,"lng":135.261441,"zip":"6400301"},{"town":"小松原五丁目","koaza":"","lat":34.218095,"lng":135.167886,"zip":"6408265"},{"town":"小松原六丁目","koaza":"","lat":34.216473,"lng":135.168007,"zip":"6408265"},{"town":"小松原通一丁目","koaza":"","lat":34.225812,"lng":135.168052,"zip":"6408269"},{"town":"小松原通二丁目","koaza":"","lat":34.223602,"lng":135.16914,"zip":"6408269"},{"town":"小松原通三丁目","koaza":"","lat":34.221955,"lng":135.168822,"zip":"6408269"},{"town":"小松原通四丁目","koaza":"","lat":34.220017,"lng":135.1688,"zip":"6408269"},{"town":"小松原通五丁目","koaza":"","lat":34.219234,"lng":135.167006,"zip":"6408269"},{"town":"米屋町","koaza":"","lat":34.23332,"lng":135.175484,"zip":"6408027"},{"town":"古屋","koaza":"","lat":34.248496,"lng":135.117359,"zip":"6408435"},{"town":"雑賀崎","koaza":"","lat":34.19382,"lng":135.144244,"zip":"6410062"},{"town":"雑賀町","koaza":"","lat":34.233188,"lng":135.177292,"zip":"6408108"},{"town":"雑賀道","koaza":"","lat":34.22472,"lng":135.180914,"zip":"6408121"},{"town":"雑賀屋町","koaza":"","lat":34.227765,"lng":135.167664,"zip":"6408249"},{"town":"雑賀屋町東ノ丁","koaza":"","lat":34.226918,"lng":135.168969,"zip":"6408241"},{"town":"材木丁","koaza":"","lat":34.228361,"lng":135.160741,"zip":"6408237"},{"town":"境原","koaza":"","lat":34.186569,"lng":135.244641,"zip":"6400313"},{"town":"栄谷","koaza":"","lat":34.266061,"lng":135.156418,"zip":"6408441"},{"town":"坂田","koaza":"","lat":34.203099,"lng":135.202286,"zip":"6410003"},{"town":"鷺ノ森","koaza":"","lat":34.236129,"lng":135.171108,"zip":"6408053"},{"town":"鷺ノ森片町","koaza":"","lat":34.23643,"lng":135.171494,"zip":"6408054"},{"town":"鷺ノ森新道","koaza":"","lat":34.237048,"lng":135.170715,"zip":"6408057"},{"town":"鷺ノ森堂前丁","koaza":"","lat":34.235837,"lng":135.172083,"zip":"6408052"},{"town":"鷺ノ森中ノ丁","koaza":"","lat":34.236711,"lng":135.170985,"zip":"6408058"},{"town":"鷺ノ森西ノ丁","koaza":"","lat":34.236292,"lng":135.1704,"zip":"6408056"},{"town":"鷺ノ森東ノ丁","koaza":"","lat":34.236734,"lng":135.172379,"zip":"6408051"},{"town":"鷺ノ森南ノ丁","koaza":"","lat":34.235199,"lng":135.170928,"zip":"6408047"},{"town":"鷺ノ森明神丁","koaza":"","lat":34.237,"lng":135.171739,"zip":"6408059"},{"town":"作事丁","koaza":"","lat":34.222655,"lng":135.165083,"zip":"6408276"},{"town":"里","koaza":"","lat":34.265798,"lng":135.26746,"zip":"6496311"},{"town":"山東中","koaza":"","lat":34.198949,"lng":135.274519,"zip":"6400303"},{"town":"三番丁","koaza":"","lat":34.227975,"lng":135.177149,"zip":"6408142"},{"town":"塩ノ谷","koaza":"","lat":34.216961,"lng":135.25262,"zip":"6400306"},{"town":"汐見町一丁目","koaza":"","lat":34.222715,"lng":135.185564,"zip":"6408122"},{"town":"汐見町二丁目","koaza":"","lat":34.221423,"lng":135.185497,"zip":"6408122"},{"town":"汐見町三丁目","koaza":"","lat":34.220723,"lng":135.185269,"zip":"6408122"},{"town":"塩屋一丁目","koaza":"","lat":34.20387,"lng":135.179073,"zip":"6410054"},{"town":"塩屋二丁目","koaza":"","lat":34.201537,"lng":135.175574,"zip":"6410054"},{"town":"塩屋三丁目","koaza":"","lat":34.198321,"lng":135.17516,"zip":"6410054"},{"town":"塩屋四丁目","koaza":"","lat":34.200149,"lng":135.177184,"zip":"6410054"},{"town":"塩屋五丁目","koaza":"","lat":34.199686,"lng":135.18002,"zip":"6410054"},{"town":"塩屋六丁目","koaza":"","lat":34.195875,"lng":135.177368,"zip":"6410054"},{"town":"七番丁","koaza":"","lat":34.230447,"lng":135.171994,"zip":"6408156"},{"town":"芝ノ丁","koaza":"","lat":34.221715,"lng":135.168051,"zip":"6408267"},{"town":"島","koaza":"","lat":34.258011,"lng":135.251811,"zip":"6496314"},{"town":"島崎町一丁目","koaza":"","lat":34.223103,"lng":135.179415,"zip":"6408125"},{"town":"島崎町二丁目","koaza":"","lat":34.222379,"lng":135.179402,"zip":"6408125"},{"town":"島崎町三丁目","koaza":"","lat":34.221637,"lng":135.179341,"zip":"6408125"},{"town":"島崎町四丁目","koaza":"","lat":34.220952,"lng":135.179237,"zip":"6408125"},{"town":"島崎町五丁目","koaza":"","lat":34.219491,"lng":135.179318,"zip":"6408125"},{"town":"島崎町六丁目","koaza":"","lat":34.218023,"lng":135.17902,"zip":"6408125"},{"town":"島崎町七丁目","koaza":"","lat":34.216236,"lng":135.179244,"zip":"6408125"},{"town":"島橋北ノ丁","koaza":"","lat":34.246054,"lng":135.145355,"zip":"6408416"},{"town":"島橋西ノ丁","koaza":"","lat":34.244211,"lng":135.145902,"zip":"6408414"},{"town":"島橋東ノ丁","koaza":"","lat":34.244558,"lng":135.148644,"zip":"6408413"},{"town":"島橋南ノ丁","koaza":"","lat":34.242985,"lng":135.148314,"zip":"6408415"},{"town":"下三毛","koaza":"","lat":34.239916,"lng":135.297428,"zip":"6496263"},{"town":"下和佐","koaza":"","lat":34.228646,"lng":135.237324,"zip":"6496325"},{"town":"十一番丁","koaza":"","lat":34.232024,"lng":135.175145,"zip":"6408159"},{"town":"十三番丁","koaza":"","lat":34.231863,"lng":135.169261,"zip":"6408150"},{"town":"十二番丁","koaza":"","lat":34.232035,"lng":135.172088,"zip":"6408158"},{"town":"十番丁","koaza":"","lat":34.231014,"lng":135.175203,"zip":"6408152"},{"town":"次郎丸","koaza":"","lat":34.255551,"lng":135.150144,"zip":"6408444"},{"town":"新魚町","koaza":"","lat":34.241949,"lng":135.173626,"zip":"6408074"},{"town":"新雑賀町","koaza":"","lat":34.234243,"lng":135.178727,"zip":"6408101"},{"town":"新在家","koaza":"","lat":34.242092,"lng":135.198681,"zip":"6408345"},{"town":"新堺丁","koaza":"","lat":34.234672,"lng":135.179665,"zip":"6408377"},{"town":"新庄","koaza":"","lat":34.239657,"lng":135.289555,"zip":"6496264"},{"town":"新生町","koaza":"","lat":34.222422,"lng":135.18827,"zip":"6408325"},{"town":"新大工町","koaza":"","lat":34.233323,"lng":135.181156,"zip":"6408372"},{"town":"新通一丁目","koaza":"","lat":34.227894,"lng":135.183514,"zip":"6408111"},{"town":"新通二丁目","koaza":"","lat":34.228801,"lng":135.182462,"zip":"6408111"},{"town":"新通三丁目","koaza":"","lat":34.229936,"lng":135.181391,"zip":"6408111"},{"town":"新通四丁目","koaza":"","lat":34.230924,"lng":135.180554,"zip":"6408111"},{"town":"新通五丁目","koaza":"","lat":34.231709,"lng":135.180087,"zip":"6408111"},{"town":"新通六丁目","koaza":"","lat":34.232647,"lng":135.179534,"zip":"6408111"},{"town":"新通七丁目","koaza":"","lat":34.23353,"lng":135.17917,"zip":"6408111"},{"town":"新中島","koaza":"","lat":34.216184,"lng":135.196826,"zip":"6410002"},{"town":"新中通一丁目","koaza":"","lat":34.229091,"lng":135.18298,"zip":"6408376"},{"town":"新中通二丁目","koaza":"","lat":34.230206,"lng":135.181966,"zip":"6408376"},{"town":"新中通三丁目","koaza":"","lat":34.231149,"lng":135.181281,"zip":"6408376"},{"town":"新中通四丁目","koaza":"","lat":34.232075,"lng":135.180698,"zip":"6408376"},{"town":"新中通五丁目","koaza":"","lat":34.232834,"lng":135.18028,"zip":"6408376"},{"town":"新中通六丁目","koaza":"","lat":34.233589,"lng":135.179888,"zip":"6408376"},{"town":"新堀東一丁目","koaza":"","lat":34.213256,"lng":135.172729,"zip":"6410042"},{"town":"新堀東二丁目","koaza":"","lat":34.214234,"lng":135.175771,"zip":"6410042"},{"town":"新八百屋丁","koaza":"","lat":34.234563,"lng":135.180193,"zip":"6408371"},{"town":"新和歌浦","koaza":"","lat":34.187622,"lng":135.159287,"zip":"6410023"},{"town":"杉ノ馬場一丁目","koaza":"","lat":34.235662,"lng":135.168508,"zip":"6408212"},{"town":"杉ノ馬場二丁目","koaza":"","lat":34.236998,"lng":135.168393,"zip":"6408212"},{"town":"杉ノ馬場三丁目","koaza":"","lat":34.237889,"lng":135.168838,"zip":"6408212"},{"town":"杉ノ馬場四丁目","koaza":"","lat":34.238471,"lng":135.168061,"zip":"6408212"},{"town":"杉ノ馬場五丁目","koaza":"","lat":34.240556,"lng":135.167102,"zip":"6408212"},{"town":"数寄屋丁","koaza":"","lat":34.232217,"lng":135.181184,"zip":"6408374"},{"town":"鈴丸丁","koaza":"","lat":34.235796,"lng":135.179822,"zip":"6408378"},{"town":"頭陀寺","koaza":"","lat":34.189604,"lng":135.248965,"zip":"6400314"},{"town":"砂山南一丁目","koaza":"","lat":34.217973,"lng":135.165201,"zip":"6408272"},{"town":"砂山南二丁目","koaza":"","lat":34.218248,"lng":135.161755,"zip":"6408272"},{"town":"砂山南三丁目","koaza":"","lat":34.216015,"lng":135.162622,"zip":"6408272"},{"town":"砂山南四丁目","koaza":"","lat":34.214939,"lng":135.160202,"zip":"6408272"},{"town":"住吉町","koaza":"","lat":34.236972,"lng":135.176242,"zip":"6408022"},{"town":"駿河町","koaza":"","lat":34.232979,"lng":135.173327,"zip":"6408034"},{"town":"関戸一丁目","koaza":"","lat":34.200037,"lng":135.16781,"zip":"6410035"},{"town":"関戸二丁目","koaza":"","lat":34.196588,"lng":135.166953,"zip":"6410035"},{"town":"関戸三丁目","koaza":"","lat":34.196143,"lng":135.16409,"zip":"6410035"},{"town":"関戸四丁目","koaza":"","lat":34.195644,"lng":135.160784,"zip":"6410035"},{"town":"関戸五丁目","koaza":"","lat":34.192542,"lng":135.16076,"zip":"6410035"},{"town":"専光寺門前丁","koaza":"","lat":34.235059,"lng":135.171993,"zip":"6408041"},{"town":"船場町","koaza":"","lat":34.227767,"lng":135.181924,"zip":"6408114"},{"town":"善明寺","koaza":"","lat":34.268084,"lng":135.182678,"zip":"6408471"},{"town":"相坂","koaza":"","lat":34.195908,"lng":135.233913,"zip":"6400341"},{"town":"園部","koaza":"","lat":34.270943,"lng":135.192945,"zip":"6408483"},{"town":"鷹匠町一丁目","koaza":"","lat":34.222817,"lng":135.176741,"zip":"6408135"},{"town":"鷹匠町二丁目","koaza":"","lat":34.221978,"lng":135.176896,"zip":"6408135"},{"town":"鷹匠町三丁目","koaza":"","lat":34.221401,"lng":135.177076,"zip":"6408135"},{"town":"鷹匠町四丁目","koaza":"","lat":34.220494,"lng":135.177048,"zip":"6408135"},{"town":"鷹匠町五丁目","koaza":"","lat":34.219429,"lng":135.176596,"zip":"6408135"},{"town":"鷹匠町六丁目","koaza":"","lat":34.217827,"lng":135.177316,"zip":"6408135"},{"town":"鷹匠町七丁目","koaza":"","lat":34.215899,"lng":135.177085,"zip":"6408135"},{"town":"滝畑","koaza":"","lat":34.301672,"lng":135.263364,"zip":"6496301"},{"town":"匠町","koaza":"","lat":34.234437,"lng":135.17529,"zip":"6408028"},{"town":"田尻","koaza":"","lat":34.203708,"lng":135.196931,"zip":"6410005"},{"town":"畳屋町","koaza":"","lat":34.240518,"lng":135.173646,"zip":"6408061"},{"town":"田中町二丁目","koaza":"","lat":34.228001,"lng":135.186067,"zip":"6408329"},{"town":"田中町三丁目","koaza":"","lat":34.228134,"lng":135.187649,"zip":"6408329"},{"town":"田中町四丁目","koaza":"","lat":34.228372,"lng":135.189002,"zip":"6408329"},{"town":"田中町五丁目","koaza":"","lat":34.228632,"lng":135.190985,"zip":"6408329"},{"town":"谷","koaza":"","lat":34.278122,"lng":135.269585,"zip":"6496305"},{"town":"谷町","koaza":"","lat":34.224045,"lng":135.177446,"zip":"6408133"},{"town":"田野","koaza":"","lat":34.185832,"lng":135.151086,"zip":"6410061"},{"town":"田屋","koaza":"","lat":34.255172,"lng":135.224196,"zip":"6496337"},{"town":"築港一丁目","koaza":"","lat":34.224596,"lng":135.156992,"zip":"6408287"},{"town":"築港二丁目","koaza":"","lat":34.223307,"lng":135.155437,"zip":"6408287"},{"town":"築港三丁目","koaza":"","lat":34.222454,"lng":135.154119,"zip":"6408287"},{"town":"築港四丁目","koaza":"","lat":34.221186,"lng":135.153174,"zip":"6408287"},{"town":"築港五丁目","koaza":"","lat":34.220877,"lng":135.151538,"zip":"6408287"},{"town":"築港六丁目","koaza":"","lat":34.220511,"lng":135.148563,"zip":"6408287"},{"town":"茶屋ノ丁","koaza":"","lat":34.222488,"lng":135.167637,"zip":"6408263"},{"town":"茶屋町","koaza":"","lat":34.228128,"lng":135.183885,"zip":"6408334"},{"town":"つつじが丘一丁目","koaza":"","lat":34.26894,"lng":135.097993,"zip":"6400115"},{"town":"つつじが丘二丁目","koaza":"","lat":34.269972,"lng":135.101071,"zip":"6400115"},{"town":"つつじが丘三丁目","koaza":"","lat":34.27222,"lng":135.102778,"zip":"6400115"},{"town":"つつじが丘四丁目","koaza":"","lat":34.26856,"lng":135.102124,"zip":"6400115"},{"town":"つつじが丘五丁目","koaza":"","lat":34.266653,"lng":135.101667,"zip":"6400115"},{"town":"つつじが丘六丁目","koaza":"","lat":34.26614,"lng":135.104181,"zip":"6400115"},{"town":"つつじが丘七丁目","koaza":"","lat":34.265403,"lng":135.098581,"zip":"6400115"},{"town":"津秦","koaza":"","lat":34.219777,"lng":135.204901,"zip":"6408315"},{"town":"出口甲賀丁","koaza":"","lat":34.222498,"lng":135.163258,"zip":"6408282"},{"town":"出口新端ノ丁","koaza":"","lat":34.220469,"lng":135.162865,"zip":"6408285"},{"town":"出口中ノ丁","koaza":"","lat":34.221733,"lng":135.163259,"zip":"6408283"},{"town":"出口端ノ丁","koaza":"","lat":34.220972,"lng":135.163339,"zip":"6408284"},{"town":"出島","koaza":"","lat":34.247177,"lng":135.2217,"zip":"6408306"},{"town":"手平一丁目","koaza":"","lat":34.218555,"lng":135.187293,"zip":"6408319"},{"town":"手平二丁目","koaza":"","lat":34.220881,"lng":135.190511,"zip":"6408319"},{"town":"手平三丁目","koaza":"","lat":34.215625,"lng":135.18832,"zip":"6408319"},{"town":"手平四丁目","koaza":"","lat":34.217585,"lng":135.185386,"zip":"6408319"},{"town":"手平五丁目","koaza":"","lat":34.214904,"lng":135.185194,"zip":"6408319"},{"town":"手平六丁目","koaza":"","lat":34.215878,"lng":135.18155,"zip":"6408319"},{"town":"出水","koaza":"","lat":34.237037,"lng":135.203897,"zip":"6408321"},{"town":"寺内","koaza":"","lat":34.21746,"lng":135.22592,"zip":"6408311"},{"town":"伝法橋南ノ丁","koaza":"","lat":34.234305,"lng":135.164286,"zip":"6408204"},{"town":"道場町","koaza":"","lat":34.230373,"lng":135.164896,"zip":"6408229"},{"town":"土入","koaza":"","lat":34.252148,"lng":135.142326,"zip":"6408432"},{"town":"徳田木丁","koaza":"","lat":34.239568,"lng":135.165571,"zip":"6408206"},{"town":"土佐町一丁目","koaza":"","lat":34.223967,"lng":135.161164,"zip":"6408256"},{"town":"土佐町二丁目","koaza":"","lat":34.222053,"lng":135.161252,"zip":"6408256"},{"town":"土佐町三丁目","koaza":"","lat":34.220195,"lng":135.161151,"zip":"6408256"},{"town":"友田町二丁目","koaza":"","lat":34.232538,"lng":135.185412,"zip":"6408342"},{"town":"友田町三丁目","koaza":"","lat":34.232843,"lng":135.186814,"zip":"6408342"},{"town":"友田町四丁目","koaza":"","lat":34.232985,"lng":135.188364,"zip":"6408342"},{"town":"友田町五丁目","koaza":"","lat":34.233254,"lng":135.190416,"zip":"6408342"},{"town":"中","koaza":"","lat":34.271103,"lng":135.148486,"zip":"6408451"},{"town":"中島","koaza":"","lat":34.208449,"lng":135.186951,"zip":"6410006"},{"town":"中筋日延","koaza":"","lat":34.269138,"lng":135.271647,"zip":"6496304"},{"town":"中野","koaza":"","lat":34.25621,"lng":135.140477,"zip":"6408433"},{"town":"中之島","koaza":"","lat":34.241873,"lng":135.187805,"zip":"6408392"},{"town":"中ノ店北ノ丁","koaza":"","lat":34.235309,"lng":135.17602,"zip":"6408023"},{"town":"中ノ店中ノ丁","koaza":"","lat":34.234442,"lng":135.176115,"zip":"6408025"},{"town":"中ノ店南ノ丁","koaza":"","lat":34.233508,"lng":135.176028,"zip":"6408026"},{"town":"永山","koaza":"","lat":34.209335,"lng":135.271124,"zip":"6400302"},{"town":"七曲り","koaza":"","lat":34.227916,"lng":135.162855,"zip":"6408236"},{"town":"鍋屋町","koaza":"","lat":34.24153,"lng":135.175007,"zip":"6408009"},{"town":"鳴神","koaza":"","lat":34.230709,"lng":135.213087,"zip":"6408303"},{"town":"永穂","koaza":"","lat":34.2533,"lng":135.246504,"zip":"6496333"},{"town":"新高町","koaza":"","lat":34.202912,"lng":135.167775,"zip":"6410034"},{"town":"仁井辺","koaza":"","lat":34.182941,"lng":135.228447,"zip":"6400322"},{"town":"西","koaza":"","lat":34.209579,"lng":135.21574,"zip":"6408313"},{"town":"西鍛冶屋町","koaza":"","lat":34.234302,"lng":135.170948,"zip":"6408046"},{"town":"西河岸町","koaza":"","lat":34.226963,"lng":135.159335,"zip":"6408297"},{"town":"西釘貫丁一丁目","koaza":"","lat":34.236737,"lng":135.172729,"zip":"6408063"},{"town":"西釘貫丁二丁目","koaza":"","lat":34.238328,"lng":135.172589,"zip":"6408063"},{"town":"西釘貫丁三丁目","koaza":"","lat":34.240141,"lng":135.172543,"zip":"6408063"},{"town":"西蔵前丁","koaza":"","lat":34.236894,"lng":135.164552,"zip":"6408205"},{"town":"西小二里一丁目","koaza":"","lat":34.205216,"lng":135.163151,"zip":"6410031"},{"town":"西小二里二丁目","koaza":"","lat":34.204949,"lng":135.160708,"zip":"6410031"},{"town":"西小二里三丁目","koaza":"","lat":34.208119,"lng":135.161295,"zip":"6410031"},{"town":"西紺屋町一丁目","koaza":"","lat":34.227103,"lng":135.180329,"zip":"6408116"},{"town":"西紺屋町二丁目","koaza":"","lat":34.228091,"lng":135.180326,"zip":"6408116"},{"town":"西坂ノ上丁","koaza":"","lat":34.227794,"lng":135.164675,"zip":"6408234"},{"town":"西田井","koaza":"","lat":34.256515,"lng":135.23596,"zip":"6496335"},{"town":"西大工町","koaza":"","lat":34.235222,"lng":135.172826,"zip":"6408037"},{"town":"西高松一丁目","koaza":"","lat":34.209485,"lng":135.169811,"zip":"6410051"},{"town":"西高松二丁目","koaza":"","lat":34.204707,"lng":135.169375,"zip":"6410051"},{"town":"西仲間町一丁目","koaza":"","lat":34.237376,"lng":135.178855,"zip":"6408014"},{"town":"西仲間町二丁目","koaza":"","lat":34.238764,"lng":135.178843,"zip":"6408014"},{"town":"西長町一丁目","koaza":"","lat":34.226779,"lng":135.162211,"zip":"6408290"},{"town":"西長町二丁目","koaza":"","lat":34.225676,"lng":135.16202,"zip":"6408290"},{"town":"西長町三丁目","koaza":"","lat":34.224459,"lng":135.162208,"zip":"6408290"},{"town":"西長町四丁目","koaza":"","lat":34.223575,"lng":135.162344,"zip":"6408290"},{"town":"西布経丁一丁目","koaza":"","lat":34.236725,"lng":135.169509,"zip":"6408211"},{"town":"西布経丁二丁目","koaza":"","lat":34.23756,"lng":135.169123,"zip":"6408211"},{"town":"西布経丁三丁目","koaza":"","lat":34.238589,"lng":135.169463,"zip":"6408211"},{"town":"西布経丁四丁目","koaza":"","lat":34.239295,"lng":135.16951,"zip":"6408211"},{"town":"西布経丁五丁目","koaza":"","lat":34.240074,"lng":135.169047,"zip":"6408211"},{"town":"西布経丁六丁目","koaza":"","lat":34.24192,"lng":135.1687,"zip":"6408211"},{"town":"西庄","koaza":"","lat":34.262383,"lng":135.113088,"zip":"6400112"},{"town":"西ノ店","koaza":"","lat":34.23384,"lng":135.172106,"zip":"6408042"},{"town":"西旅籠町","koaza":"","lat":34.237832,"lng":135.175458,"zip":"6408021"},{"town":"西浜","koaza":"","lat":34.200634,"lng":135.152203,"zip":"6410036"},{"town":"西浜一丁目","koaza":"","lat":34.200411,"lng":135.166122,"zip":"6410036"},{"town":"西浜二丁目","koaza":"","lat":34.199683,"lng":135.164179,"zip":"6410036"},{"town":"西浜三丁目","koaza":"","lat":34.199333,"lng":135.161074,"zip":"6410036"},{"town":"西汀丁","koaza":"","lat":34.22963,"lng":135.167144,"zip":"6408227"},{"town":"二番丁","koaza":"","lat":34.228085,"lng":135.175874,"zip":"6408143"},{"town":"新留丁","koaza":"","lat":34.226035,"lng":135.185264,"zip":"6408326"},{"town":"布引","koaza":"","lat":34.176292,"lng":135.183397,"zip":"6410015"},{"town":"禰宜","koaza":"","lat":34.230201,"lng":135.251065,"zip":"6400000"},{"town":"直川","koaza":"","lat":34.27889,"lng":135.218012,"zip":"6408481"},{"town":"納定","koaza":"","lat":34.239247,"lng":135.192032,"zip":"6408344"},{"town":"野崎","koaza":"","lat":34.244346,"lng":135.156518,"zip":"6408402"},{"town":"延時","koaza":"","lat":34.252224,"lng":135.15001,"zip":"6408443"},{"town":"橋丁","koaza":"","lat":34.233969,"lng":135.168733,"zip":"6408215"},{"town":"橋向丁","koaza":"","lat":34.227617,"lng":135.184715,"zip":"6408327"},{"town":"畑屋敷榎丁","koaza":"","lat":34.234799,"lng":135.183718,"zip":"6408382"},{"town":"畑屋敷円福院西ノ丁","koaza":"","lat":34.234132,"lng":135.18201,"zip":"6408385"},{"town":"畑屋敷円福院東ノ丁","koaza":"","lat":34.234179,"lng":135.183094,"zip":"6408383"},{"town":"畑屋敷雁木丁","koaza":"","lat":34.234371,"lng":135.181105,"zip":"6408386"},{"town":"畑屋敷葛屋丁","koaza":"","lat":34.234692,"lng":135.18286,"zip":"6408384"},{"town":"畑屋敷新道丁","koaza":"","lat":34.236283,"lng":135.181224,"zip":"6408397"},{"town":"畑屋敷千体仏丁","koaza":"","lat":34.236175,"lng":135.183176,"zip":"6408394"},{"town":"畑屋敷中ノ丁","koaza":"","lat":34.235375,"lng":135.182145,"zip":"6408395"},{"town":"畑屋敷西ノ丁","koaza":"","lat":34.235323,"lng":135.180924,"zip":"6408396"},{"town":"畑屋敷端ノ丁","koaza":"","lat":34.236372,"lng":135.18414,"zip":"6408393"},{"town":"畑屋敷東ノ丁","koaza":"","lat":34.235454,"lng":135.183935,"zip":"6408381"},{"town":"畑屋敷兵庫ノ丁","koaza":"","lat":34.236034,"lng":135.182736,"zip":"6408399"},{"town":"畑屋敷袋町","koaza":"","lat":34.23465,"lng":135.182315,"zip":"6408387"},{"town":"八番丁","koaza":"","lat":34.231128,"lng":135.169092,"zip":"6408157"},{"town":"馬場","koaza":"","lat":34.193901,"lng":135.22595,"zip":"6400353"},{"town":"吐前","koaza":"","lat":34.245098,"lng":135.271116,"zip":"6496275"},{"town":"東鍛冶屋町","koaza":"","lat":34.234579,"lng":135.172487,"zip":"6408036"},{"town":"東釘貫丁一丁目","koaza":"","lat":34.236697,"lng":135.173826,"zip":"6408064"},{"town":"東釘貫丁二丁目","koaza":"","lat":34.238445,"lng":135.173518,"zip":"6408064"},{"town":"東釘貫丁三丁目","koaza":"","lat":34.239463,"lng":135.173514,"zip":"6408064"},{"town":"東蔵前丁","koaza":"","lat":34.236007,"lng":135.166325,"zip":"6408203"},{"town":"東小二里町","koaza":"","lat":34.206862,"lng":135.164872,"zip":"6410032"},{"town":"東紺屋町","koaza":"","lat":34.228067,"lng":135.180888,"zip":"6408115"},{"town":"東坂ノ上丁","koaza":"","lat":34.228014,"lng":135.166191,"zip":"6408247"},{"town":"東高松一丁目","koaza":"","lat":34.209675,"lng":135.173885,"zip":"6410052"},{"town":"東高松二丁目","koaza":"","lat":34.207807,"lng":135.17367,"zip":"6410052"},{"town":"東高松三丁目","koaza":"","lat":34.205108,"lng":135.172203,"zip":"6410052"},{"town":"東高松四丁目","koaza":"","lat":34.204873,"lng":135.174399,"zip":"6410052"},{"town":"東田中","koaza":"","lat":34.235894,"lng":135.284283,"zip":"6496273"},{"town":"東仲間町一丁目","koaza":"","lat":34.237727,"lng":135.1794,"zip":"6408013"},{"town":"東仲間町二丁目","koaza":"","lat":34.238865,"lng":135.179359,"zip":"6408013"},{"town":"東長町十丁目","koaza":"","lat":34.21993,"lng":135.166125,"zip":"6408235"},{"town":"東長町十一丁目","koaza":"","lat":34.219399,"lng":135.166285,"zip":"6408235"},{"town":"東長町一丁目","koaza":"","lat":34.228636,"lng":135.1635,"zip":"6408235"},{"town":"東長町二丁目","koaza":"","lat":34.228058,"lng":135.163402,"zip":"6408235"},{"town":"東長町三丁目","koaza":"","lat":34.226704,"lng":135.164707,"zip":"6408235"},{"town":"東長町四丁目","koaza":"","lat":34.226176,"lng":135.164604,"zip":"6408235"},{"town":"東長町五丁目","koaza":"","lat":34.225112,"lng":135.165413,"zip":"6408235"},{"town":"東長町六丁目","koaza":"","lat":34.224002,"lng":135.165836,"zip":"6408235"},{"town":"東長町七丁目","koaza":"","lat":34.222782,"lng":135.166648,"zip":"6408235"},{"town":"東長町八丁目","koaza":"","lat":34.221729,"lng":135.16625,"zip":"6408235"},{"town":"東長町九丁目","koaza":"","lat":34.220914,"lng":135.166674,"zip":"6408235"},{"town":"東長町中ノ丁","koaza":"","lat":34.220111,"lng":135.167034,"zip":"6408266"},{"town":"東布経丁一丁目","koaza":"","lat":34.237634,"lng":135.171866,"zip":"6408066"},{"town":"東布経丁二丁目","koaza":"","lat":34.238395,"lng":135.171843,"zip":"6408066"},{"town":"東布経丁三丁目","koaza":"","lat":34.239196,"lng":135.171814,"zip":"6408066"},{"town":"東布経丁四丁目","koaza":"","lat":34.239912,"lng":135.171821,"zip":"6408066"},{"town":"東布経丁五丁目","koaza":"","lat":34.240822,"lng":135.171671,"zip":"6408066"},{"town":"東布経丁六丁目","koaza":"","lat":34.242148,"lng":135.171619,"zip":"6408066"},{"town":"東旅籠町","koaza":"","lat":34.237868,"lng":135.176035,"zip":"6408004"},{"town":"一筋目","koaza":"","lat":34.237622,"lng":135.171044,"zip":"6408067"},{"town":"日野","koaza":"","lat":34.27667,"lng":135.104304,"zip":"6400111"},{"town":"屏風丁","koaza":"","lat":34.236182,"lng":135.167269,"zip":"6408202"},{"town":"平井","koaza":"","lat":34.269275,"lng":135.167944,"zip":"6408442"},{"town":"平尾","koaza":"","lat":34.215179,"lng":135.244658,"zip":"6400304"},{"town":"平岡","koaza":"","lat":34.265011,"lng":135.273634,"zip":"6496303"},{"town":"広瀬通丁一丁目","koaza":"","lat":34.226411,"lng":135.180173,"zip":"6408113"},{"town":"広瀬通丁二丁目","koaza":"","lat":34.226363,"lng":135.181647,"zip":"6408113"},{"town":"広瀬通丁三丁目","koaza":"","lat":34.226698,"lng":135.182835,"zip":"6408113"},{"town":"広瀬中ノ丁一丁目","koaza":"","lat":34.22534,"lng":135.179488,"zip":"6408128"},{"town":"広瀬中ノ丁二丁目","koaza":"","lat":34.225579,"lng":135.183107,"zip":"6408128"},{"town":"弘西","koaza":"","lat":34.277501,"lng":135.240395,"zip":"6496339"},{"town":"広原","koaza":"","lat":34.188177,"lng":135.203656,"zip":"6400333"},{"town":"広道","koaza":"","lat":34.224653,"lng":135.166712,"zip":"6408268"},{"town":"吹上一丁目","koaza":"","lat":34.22298,"lng":135.172409,"zip":"6408137"},{"town":"吹上二丁目","koaza":"","lat":34.221503,"lng":135.17013,"zip":"6408137"},{"town":"吹上三丁目","koaza":"","lat":34.218585,"lng":135.171368,"zip":"6408137"},{"town":"吹上四丁目","koaza":"","lat":34.216812,"lng":135.171844,"zip":"6408137"},{"town":"吹上五丁目","koaza":"","lat":34.219064,"lng":135.174483,"zip":"6408137"},{"town":"吹屋町一丁目","koaza":"","lat":34.224478,"lng":135.186253,"zip":"6408324"},{"town":"吹屋町二丁目","koaza":"","lat":34.224918,"lng":135.187122,"zip":"6408324"},{"town":"吹屋町三丁目","koaza":"","lat":34.225104,"lng":135.188255,"zip":"6408324"},{"town":"吹屋町四丁目","koaza":"","lat":34.225295,"lng":135.18945,"zip":"6408324"},{"town":"吹屋町五丁目","koaza":"","lat":34.225536,"lng":135.191356,"zip":"6408324"},{"town":"福島","koaza":"","lat":34.247906,"lng":135.164902,"zip":"6408401"},{"town":"福町","koaza":"","lat":34.232983,"lng":135.171858,"zip":"6408043"},{"town":"藤田","koaza":"","lat":34.267156,"lng":135.264323,"zip":"6496318"},{"town":"二筋目","koaza":"","lat":34.238035,"lng":135.170529,"zip":"6408068"},{"town":"府中","koaza":"","lat":34.281362,"lng":135.231984,"zip":"6496338"},{"town":"舟大工町","koaza":"","lat":34.234525,"lng":135.169031,"zip":"6408213"},{"town":"舟津町一丁目","koaza":"","lat":34.223855,"lng":135.159175,"zip":"6408255"},{"town":"舟津町二丁目","koaza":"","lat":34.222176,"lng":135.159481,"zip":"6408255"},{"town":"舟津町三丁目","koaza":"","lat":34.22019,"lng":135.159465,"zip":"6408255"},{"town":"舟津町四丁目","koaza":"","lat":34.218354,"lng":135.15907,"zip":"6408255"},{"town":"船所","koaza":"","lat":34.252533,"lng":135.185383,"zip":"6408461"},{"town":"冬野","koaza":"","lat":34.183551,"lng":135.210556,"zip":"6400332"},{"town":"弁財天丁","koaza":"","lat":34.224584,"lng":135.177007,"zip":"6408131"},{"town":"坊主丁","koaza":"","lat":34.23236,"lng":135.182056,"zip":"6408375"},{"town":"卜半町","koaza":"","lat":34.233004,"lng":135.170377,"zip":"6408045"},{"town":"布施屋","koaza":"","lat":34.243489,"lng":135.259809,"zip":"6496321"},{"town":"堀止西一丁目","koaza":"","lat":34.214398,"lng":135.168166,"zip":"6410045"},{"town":"堀止西二丁目","koaza":"","lat":34.211851,"lng":135.16857,"zip":"6410045"},{"town":"堀止東一丁目","koaza":"","lat":34.215224,"lng":135.171891,"zip":"6408136"},{"town":"堀止東二丁目","koaza":"","lat":34.216191,"lng":135.174877,"zip":"6408136"},{"town":"堀止南ノ丁","koaza":"","lat":34.212829,"lng":135.171255,"zip":"6410041"},{"town":"本町一丁目","koaza":"","lat":34.233183,"lng":135.174602,"zip":"6408033"},{"town":"本町二丁目","koaza":"","lat":34.234431,"lng":135.174368,"zip":"6408033"},{"town":"本町三丁目","koaza":"","lat":34.235519,"lng":135.17436,"zip":"6408033"},{"town":"本町四丁目","koaza":"","lat":34.236964,"lng":135.174453,"zip":"6408033"},{"town":"本町五丁目","koaza":"","lat":34.238081,"lng":135.174644,"zip":"6408033"},{"town":"本町六丁目","koaza":"","lat":34.239742,"lng":135.174433,"zip":"6408033"},{"town":"本町七丁目","koaza":"","lat":34.240807,"lng":135.174417,"zip":"6408033"},{"town":"本町八丁目","koaza":"","lat":34.241814,"lng":135.174324,"zip":"6408033"},{"town":"本町九丁目","koaza":"","lat":34.242253,"lng":135.175896,"zip":"6408033"},{"town":"真砂丁一丁目","koaza":"","lat":34.224238,"lng":135.169504,"zip":"6408261"},{"town":"松江","koaza":"","lat":34.241171,"lng":135.130627,"zip":"6408421"},{"town":"松江北一丁目","koaza":"","lat":34.248468,"lng":135.14021,"zip":"6408425"},{"town":"松江北二丁目","koaza":"","lat":34.249744,"lng":135.136391,"zip":"6408425"},{"town":"松江北三丁目","koaza":"","lat":34.252807,"lng":135.13673,"zip":"6408425"},{"town":"松江北四丁目","koaza":"","lat":34.252584,"lng":135.133204,"zip":"6408425"},{"town":"松江北五丁目","koaza":"","lat":34.250671,"lng":135.132184,"zip":"6408425"},{"town":"松江北六丁目","koaza":"","lat":34.251403,"lng":135.126195,"zip":"6408425"},{"town":"松江北七丁目","koaza":"","lat":34.252228,"lng":135.12827,"zip":"6408425"},{"town":"松江中一丁目","koaza":"","lat":34.246349,"lng":135.130722,"zip":"6408423"},{"town":"松江中二丁目","koaza":"","lat":34.24654,"lng":135.134313,"zip":"6408423"},{"town":"松江中三丁目","koaza":"","lat":34.248344,"lng":135.131753,"zip":"6408423"},{"town":"松江西一丁目","koaza":"","lat":34.248385,"lng":135.126582,"zip":"6408424"},{"town":"松江西二丁目","koaza":"","lat":34.250547,"lng":135.125953,"zip":"6408424"},{"town":"松江西三丁目","koaza":"","lat":34.249792,"lng":135.124635,"zip":"6408424"},{"town":"松江東一丁目","koaza":"","lat":34.242537,"lng":135.137614,"zip":"6408422"},{"town":"松江東二丁目","koaza":"","lat":34.244856,"lng":135.136278,"zip":"6408422"},{"town":"松江東三丁目","koaza":"","lat":34.247045,"lng":135.136953,"zip":"6408422"},{"town":"松江東四丁目","koaza":"","lat":34.245736,"lng":135.140807,"zip":"6408422"},{"town":"松ケ丘一丁目","koaza":"","lat":34.205516,"lng":135.166684,"zip":"6410033"},{"town":"松ケ丘二丁目","koaza":"","lat":34.203769,"lng":135.16519,"zip":"6410033"},{"town":"松ケ丘三丁目","koaza":"","lat":34.203144,"lng":135.162663,"zip":"6410033"},{"town":"松島","koaza":"","lat":34.247203,"lng":135.210767,"zip":"6408304"},{"town":"松原","koaza":"","lat":34.189809,"lng":135.235886,"zip":"6400342"},{"town":"三葛","koaza":"","lat":34.193144,"lng":135.187864,"zip":"6410011"},{"town":"三木町台所町","koaza":"","lat":34.230225,"lng":135.177708,"zip":"6408153"},{"town":"三木町中ノ丁","koaza":"","lat":34.23089,"lng":135.178168,"zip":"6408106"},{"town":"三木町堀詰","koaza":"","lat":34.231879,"lng":135.177798,"zip":"6408107"},{"town":"三木町南ノ丁","koaza":"","lat":34.230311,"lng":135.1788,"zip":"6408105"},{"town":"三沢町一丁目","koaza":"","lat":34.222697,"lng":135.183935,"zip":"6408123"},{"town":"三沢町二丁目","koaza":"","lat":34.221819,"lng":135.183779,"zip":"6408123"},{"town":"三沢町三丁目","koaza":"","lat":34.220124,"lng":135.184374,"zip":"6408123"},{"town":"三沢町四丁目","koaza":"","lat":34.218742,"lng":135.183689,"zip":"6408123"},{"town":"三筋目","koaza":"","lat":34.238818,"lng":135.170725,"zip":"6408069"},{"town":"美園町二丁目","koaza":"","lat":34.230205,"lng":135.18611,"zip":"6408331"},{"town":"美園町三丁目","koaza":"","lat":34.230318,"lng":135.187451,"zip":"6408331"},{"town":"美園町四丁目","koaza":"","lat":34.230593,"lng":135.188685,"zip":"6408331"},{"town":"美園町五丁目","koaza":"","lat":34.23099,"lng":135.190817,"zip":"6408331"},{"town":"満屋","koaza":"","lat":34.250665,"lng":135.278714,"zip":"6496271"},{"town":"湊","koaza":"","lat":34.220955,"lng":135.144285,"zip":"6408404"},{"town":"湊一丁目","koaza":"","lat":34.235277,"lng":135.149912,"zip":"6408404"},{"town":"湊二丁目","koaza":"","lat":34.234112,"lng":135.146143,"zip":"6408404"},{"town":"湊三丁目","koaza":"","lat":34.232076,"lng":135.146342,"zip":"6408404"},{"town":"湊四丁目","koaza":"","lat":34.23194,"lng":135.142931,"zip":"6408404"},{"town":"湊五丁目","koaza":"","lat":34.228926,"lng":135.145286,"zip":"6408404"},{"town":"湊桶屋町","koaza":"","lat":34.220002,"lng":135.167792,"zip":"6408264"},{"town":"湊北町一丁目","koaza":"","lat":34.232526,"lng":135.166961,"zip":"6408223"},{"town":"湊北町二丁目","koaza":"","lat":34.232605,"lng":135.165371,"zip":"6408223"},{"town":"湊北町三丁目","koaza":"","lat":34.232547,"lng":135.163932,"zip":"6408223"},{"town":"湊御殿一丁目","koaza":"","lat":34.221484,"lng":135.157605,"zip":"6408286"},{"town":"湊御殿二丁目","koaza":"","lat":34.219269,"lng":135.156458,"zip":"6408286"},{"town":"湊御殿三丁目","koaza":"","lat":34.217764,"lng":135.157176,"zip":"6408286"},{"town":"湊紺屋町一丁目","koaza":"","lat":34.234301,"lng":135.167132,"zip":"6408221"},{"town":"湊紺屋町二丁目","koaza":"","lat":34.23375,"lng":135.165464,"zip":"6408221"},{"town":"湊紺屋町三丁目","koaza":"","lat":34.233651,"lng":135.164571,"zip":"6408221"},{"town":"湊通丁北一丁目","koaza":"","lat":34.224519,"lng":135.168786,"zip":"6408262"},{"town":"湊通丁北二丁目","koaza":"","lat":34.223987,"lng":135.167157,"zip":"6408262"},{"town":"湊通丁北三丁目","koaza":"","lat":34.22351,"lng":135.165474,"zip":"6408262"},{"town":"湊通丁北四丁目","koaza":"","lat":34.223429,"lng":135.163832,"zip":"6408262"},{"town":"湊通丁南一丁目","koaza":"","lat":34.223688,"lng":135.16816,"zip":"6408281"},{"town":"湊通丁南二丁目","koaza":"","lat":34.223343,"lng":135.166906,"zip":"6408281"},{"town":"湊通丁南三丁目","koaza":"","lat":34.223149,"lng":135.165534,"zip":"6408281"},{"town":"湊通丁南四丁目","koaza":"","lat":34.223016,"lng":135.163092,"zip":"6408281"},{"town":"湊本町一丁目","koaza":"","lat":34.233186,"lng":135.166972,"zip":"6408222"},{"town":"湊本町二丁目","koaza":"","lat":34.233176,"lng":135.1654,"zip":"6408222"},{"town":"湊本町三丁目","koaza":"","lat":34.233097,"lng":135.163635,"zip":"6408222"},{"town":"南相生丁","koaza":"","lat":34.222919,"lng":135.164679,"zip":"6408275"},{"town":"南牛町","koaza":"","lat":34.226313,"lng":135.161454,"zip":"6408295"},{"town":"南桶屋町","koaza":"","lat":34.235335,"lng":135.175287,"zip":"6408029"},{"town":"南片原一丁目","koaza":"","lat":34.223685,"lng":135.179486,"zip":"6408126"},{"town":"南片原二丁目","koaza":"","lat":34.223963,"lng":135.183186,"zip":"6408126"},{"town":"南休賀町","koaza":"","lat":34.230731,"lng":135.179729,"zip":"6408104"},{"town":"南雑賀町","koaza":"","lat":34.232421,"lng":135.178703,"zip":"6408102"},{"town":"南細工町","koaza":"","lat":34.226908,"lng":135.179504,"zip":"6408117"},{"town":"南材木丁一丁目","koaza":"","lat":34.227521,"lng":135.183118,"zip":"6408112"},{"town":"南材木丁二丁目","koaza":"","lat":34.228512,"lng":135.181947,"zip":"6408112"},{"town":"南材木丁三丁目","koaza":"","lat":34.229556,"lng":135.180811,"zip":"6408112"},{"town":"南甚五兵衛丁","koaza":"","lat":34.226411,"lng":135.16341,"zip":"6408292"},{"town":"南大工町","koaza":"","lat":34.234426,"lng":135.173553,"zip":"6408032"},{"town":"南田辺丁","koaza":"","lat":34.223904,"lng":135.163578,"zip":"6408254"},{"town":"南中間町","koaza":"","lat":34.225028,"lng":135.16361,"zip":"6408251"},{"town":"南出島","koaza":"","lat":34.217564,"lng":135.192704,"zip":"6408318"},{"town":"南畑","koaza":"","lat":34.189581,"lng":135.259236,"zip":"6400315"},{"town":"南汀丁","koaza":"","lat":34.228822,"lng":135.168107,"zip":"6408232"},{"town":"深山","koaza":"","lat":34.290473,"lng":135.083583,"zip":"6400102"},{"town":"明王寺","koaza":"","lat":34.220942,"lng":135.251401,"zip":"6400305"},{"town":"向","koaza":"","lat":34.256716,"lng":135.145012,"zip":"6408431"},{"town":"六筋目","koaza":"","lat":34.241132,"lng":135.170735,"zip":"6408077"},{"town":"六十谷","koaza":"","lat":34.270354,"lng":135.205061,"zip":"6408482"},{"town":"元寺町一丁目","koaza":"","lat":34.234683,"lng":135.177346,"zip":"6408024"},{"town":"元寺町二丁目","koaza":"","lat":34.235543,"lng":135.176912,"zip":"6408024"},{"town":"元寺町三丁目","koaza":"","lat":34.237166,"lng":135.176908,"zip":"6408024"},{"town":"元寺町四丁目","koaza":"","lat":34.238152,"lng":135.176873,"zip":"6408024"},{"town":"元寺町五丁目","koaza":"","lat":34.240298,"lng":135.176555,"zip":"6408024"},{"town":"元寺町北ノ丁","koaza":"","lat":34.241084,"lng":135.175339,"zip":"6408008"},{"town":"元寺町西ノ丁","koaza":"","lat":34.239652,"lng":135.17521,"zip":"6408007"},{"town":"元寺町東ノ丁","koaza":"","lat":34.239667,"lng":135.175744,"zip":"6408006"},{"town":"元寺町南ノ丁","koaza":"","lat":34.238501,"lng":135.175663,"zip":"6408005"},{"town":"元博労町","koaza":"","lat":34.234945,"lng":135.169071,"zip":"6408216"},{"town":"元町奉行丁一丁目","koaza":"","lat":34.224242,"lng":135.179432,"zip":"6408127"},{"town":"元町奉行丁二丁目","koaza":"","lat":34.224303,"lng":135.183951,"zip":"6408127"},{"town":"本脇","koaza":"","lat":34.262943,"lng":135.101783,"zip":"6400113"},{"town":"本渡","koaza":"","lat":34.178794,"lng":135.220773,"zip":"6400324"},{"town":"森小手穂","koaza":"","lat":34.213152,"lng":135.230512,"zip":"6408312"},{"town":"屋形町一丁目","koaza":"","lat":34.230993,"lng":135.177165,"zip":"6408151"},{"town":"屋形町二丁目","koaza":"","lat":34.229286,"lng":135.178659,"zip":"6408151"},{"town":"屋形町三丁目","koaza":"","lat":34.227465,"lng":135.178768,"zip":"6408151"},{"town":"屋形町四丁目","koaza":"","lat":34.22529,"lng":135.178052,"zip":"6408151"},{"town":"屋形町五丁目","koaza":"","lat":34.223852,"lng":135.178328,"zip":"6408151"},{"town":"薬勝寺","koaza":"","lat":34.184445,"lng":135.235396,"zip":"6400321"},{"town":"矢田","koaza":"","lat":34.220101,"lng":135.266853,"zip":"6400307"},{"town":"柳丁","koaza":"","lat":34.229982,"lng":135.18336,"zip":"6408336"},{"town":"藪ノ丁","koaza":"","lat":34.225039,"lng":135.17371,"zip":"6400000"},{"town":"山蔭丁","koaza":"","lat":34.225101,"lng":135.176327,"zip":"6408132"},{"town":"山口西","koaza":"","lat":34.268763,"lng":135.26078,"zip":"6496317"},{"town":"山吹丁","koaza":"","lat":34.237269,"lng":135.173273,"zip":"6408065"},{"town":"湯屋谷","koaza":"","lat":34.282959,"lng":135.273061,"zip":"6496302"},{"town":"吉里","koaza":"","lat":34.19469,"lng":135.240319,"zip":"6400363"},{"town":"吉田","koaza":"","lat":34.235635,"lng":135.188469,"zip":"6408343"},{"town":"吉原","koaza":"","lat":34.190805,"lng":135.199447,"zip":"6400331"},{"town":"四筋目","koaza":"","lat":34.239343,"lng":135.170732,"zip":"6408060"},{"town":"寄合町","koaza":"","lat":34.233013,"lng":135.168719,"zip":"6408214"},{"town":"万町","koaza":"","lat":34.233841,"lng":135.172954,"zip":"6408035"},{"town":"四番丁","koaza":"","lat":34.228062,"lng":135.177861,"zip":"6408144"},{"town":"六番丁","koaza":"","lat":34.229978,"lng":135.175214,"zip":"6408154"},{"town":"和歌浦中一丁目","koaza":"","lat":34.192229,"lng":135.168555,"zip":"6410025"},{"town":"和歌浦中二丁目","koaza":"","lat":34.191417,"lng":135.169692,"zip":"6410025"},{"town":"和歌浦中三丁目","koaza":"","lat":34.189561,"lng":135.171079,"zip":"6410025"},{"town":"和歌浦西一丁目","koaza":"","lat":34.196443,"lng":135.169036,"zip":"6410024"},{"town":"和歌浦西二丁目","koaza":"","lat":34.192122,"lng":135.164877,"zip":"6410024"},{"town":"和歌浦東一丁目","koaza":"","lat":34.196021,"lng":135.172892,"zip":"6410021"},{"town":"和歌浦東二丁目","koaza":"","lat":34.192025,"lng":135.174028,"zip":"6410021"},{"town":"和歌浦東三丁目","koaza":"","lat":34.190229,"lng":135.177568,"zip":"6410021"},{"town":"和歌浦東四丁目","koaza":"","lat":34.188598,"lng":135.174439,"zip":"6410021"},{"town":"和歌浦南一丁目","koaza":"","lat":34.1879,"lng":135.164637,"zip":"6410022"},{"town":"和歌浦南二丁目","koaza":"","lat":34.187768,"lng":135.168012,"zip":"6410022"},{"town":"和歌浦南三丁目","koaza":"","lat":34.178786,"lng":135.174813,"zip":"6410022"},{"town":"和歌川町","koaza":"","lat":34.1943,"lng":135.179257,"zip":"6410055"},{"town":"和歌町","koaza":"","lat":34.229342,"lng":135.179586,"zip":"6408119"},{"town":"和佐関戸","koaza":"","lat":34.239185,"lng":135.257548,"zip":"6496322"},{"town":"和佐中","koaza":"","lat":34.238177,"lng":135.23964,"zip":"6496326"},{"town":"和田","koaza":"","lat":34.202704,"lng":135.209885,"zip":"6410004"},{"town":"榎原","koaza":"西半田","lat":34.254242,"lng":135.126095,"zip":"6408434"},{"town":"有田屋町","koaza":"西ノ丁","lat":34.227438,"lng":135.16503,"zip":"6408248"},{"town":"小雑賀","koaza":"西浜畑","lat":34.199698,"lng":135.183691,"zip":"6410007"},{"town":"黒田","koaza":"流","lat":34.234176,"lng":135.1935,"zip":"6408341"},{"town":"小豆島","koaza":"院田","lat":34.257059,"lng":135.230852,"zip":"6496336"}]