[{"town":"相谷","koaza":"","lat":34.283355,"lng":135.285773,"zip":"6496257"},{"town":"赤垣内","koaza":"","lat":34.26982,"lng":135.297057,"zip":"6496242"},{"town":"尼ケ辻","koaza":"","lat":34.275568,"lng":135.304675,"zip":"6496207"},{"town":"安上","koaza":"","lat":34.285733,"lng":135.298443,"zip":"6496252"},{"town":"荊本","koaza":"","lat":34.264001,"lng":135.307984,"zip":"6496232"},{"town":"今中","koaza":"","lat":34.272625,"lng":135.3136,"zip":"6496204"},{"town":"大町","koaza":"","lat":34.259965,"lng":135.320335,"zip":"6496228"},{"town":"岡田","koaza":"","lat":34.255285,"lng":135.330784,"zip":"6496222"},{"town":"押川","koaza":"","lat":34.307263,"lng":135.318635,"zip":"6496201"},{"town":"金池","koaza":"","lat":34.273917,"lng":135.292135,"zip":"6496256"},{"town":"金屋","koaza":"","lat":34.264515,"lng":135.298614,"zip":"6496243"},{"town":"川尻","koaza":"","lat":34.268403,"lng":135.312762,"zip":"6496231"},{"town":"紀泉台","koaza":"","lat":34.283723,"lng":135.291362,"zip":"6496253"},{"town":"北大池","koaza":"","lat":34.279451,"lng":135.325066,"zip":"6496219"},{"town":"境谷","koaza":"","lat":34.305015,"lng":135.278643,"zip":"6496251"},{"town":"桜台","koaza":"","lat":34.281428,"lng":135.317129,"zip":"6496203"},{"town":"清水","koaza":"","lat":34.254672,"lng":135.318122,"zip":"6496227"},{"town":"新田広芝","koaza":"","lat":34.273289,"lng":135.330197,"zip":"6496212"},{"town":"曽屋","koaza":"","lat":34.268606,"lng":135.302093,"zip":"6496236"},{"town":"高瀬","koaza":"","lat":34.257311,"lng":135.313727,"zip":"6496234"},{"town":"高塚","koaza":"","lat":34.256374,"lng":135.322689,"zip":"6496223"},{"town":"中黒","koaza":"","lat":34.268708,"lng":135.288232,"zip":"6496248"},{"town":"中島","koaza":"","lat":34.259421,"lng":135.287031,"zip":"6496245"},{"town":"中迫","koaza":"","lat":34.263849,"lng":135.316532,"zip":"6496215"},{"town":"西安上","koaza":"","lat":34.278397,"lng":135.291533,"zip":"6496255"},{"town":"西国分","koaza":"","lat":34.26693,"lng":135.333036,"zip":"6496213"},{"town":"西野","koaza":"","lat":34.2573,"lng":135.307724,"zip":"6496235"},{"town":"根来","koaza":"","lat":34.289898,"lng":135.317789,"zip":"6496202"},{"town":"野上野","koaza":"","lat":34.274221,"lng":135.31979,"zip":"6496216"},{"town":"畑毛","koaza":"","lat":34.260812,"lng":135.301559,"zip":"6496244"},{"town":"波分","koaza":"","lat":34.273106,"lng":135.300348,"zip":"6496241"},{"town":"原","koaza":"","lat":34.279631,"lng":135.290177,"zip":"6496254"},{"town":"東坂本","koaza":"","lat":34.279195,"lng":135.329908,"zip":"6496211"},{"town":"備前","koaza":"","lat":34.259933,"lng":135.311222,"zip":"6496233"},{"town":"船戸","koaza":"","lat":34.24844,"lng":135.312229,"zip":"6496225"},{"town":"堀口","koaza":"","lat":34.271797,"lng":135.305786,"zip":"6496206"},{"town":"水栖","koaza":"","lat":34.26832,"lng":135.322947,"zip":"6496214"},{"town":"溝川","koaza":"","lat":34.259747,"lng":135.325228,"zip":"6496221"},{"town":"南大池","koaza":"","lat":34.272119,"lng":135.326074,"zip":"6496218"},{"town":"宮","koaza":"","lat":34.255849,"lng":135.315503,"zip":"6496226"},{"town":"森","koaza":"","lat":34.271541,"lng":135.309238,"zip":"6496205"},{"town":"山","koaza":"","lat":34.281985,"lng":135.278834,"zip":"6496258"},{"town":"山崎","koaza":"","lat":34.243928,"lng":135.318191,"zip":"6496224"},{"town":"山田","koaza":"","lat":34.279535,"lng":135.319994,"zip":"6496217"},{"town":"湯窪","koaza":"","lat":34.26966,"lng":135.293392,"zip":"6496248"},{"town":"吉田","koaza":"","lat":34.264701,"lng":135.279166,"zip":"6496246"}]