[{"town":"荊木","koaza":"","lat":33.917789,"lng":135.149678,"zip":"6440015"},{"town":"熊野","koaza":"","lat":33.886249,"lng":135.186059,"zip":"6440033"},{"town":"岩内","koaza":"","lat":33.887686,"lng":135.169987,"zip":"6440032"},{"town":"御坊","koaza":"","lat":33.888478,"lng":135.157686,"zip":"6440001"},{"town":"塩屋町北塩屋","koaza":"","lat":33.875364,"lng":135.176381,"zip":"6440025"},{"town":"塩屋町南塩屋","koaza":"","lat":33.86385,"lng":135.172307,"zip":"6440024"},{"town":"島","koaza":"","lat":33.892816,"lng":135.163872,"zip":"6440003"},{"town":"薗","koaza":"","lat":33.88998,"lng":135.153212,"zip":"6440002"},{"town":"名田町上野","koaza":"","lat":33.840487,"lng":135.189846,"zip":"6440022"},{"town":"名田町楠井","koaza":"","lat":33.827839,"lng":135.197774,"zip":"6440021"},{"town":"名田町野島","koaza":"","lat":33.845385,"lng":135.176125,"zip":"6440023"},{"town":"名屋","koaza":"","lat":33.879905,"lng":135.156325,"zip":"6440004"},{"town":"名屋町一丁目","koaza":"","lat":33.882515,"lng":135.15874,"zip":"6440005"},{"town":"名屋町二丁目","koaza":"","lat":33.881354,"lng":135.157677,"zip":"6440005"},{"town":"名屋町三丁目","koaza":"","lat":33.883066,"lng":135.154034,"zip":"6440005"},{"town":"野口","koaza":"","lat":33.898882,"lng":135.183696,"zip":"6440031"},{"town":"藤田町藤井","koaza":"","lat":33.907828,"lng":135.178254,"zip":"6491341"},{"town":"藤田町吉田","koaza":"","lat":33.918263,"lng":135.169992,"zip":"6491342"},{"town":"明神川","koaza":"","lat":33.870641,"lng":135.203797,"zip":"6440034"},{"town":"湯川町小松原","koaza":"","lat":33.905442,"lng":135.156966,"zip":"6440012"},{"town":"湯川町財部","koaza":"","lat":33.900035,"lng":135.156676,"zip":"6440011"},{"town":"湯川町富安","koaza":"","lat":33.930528,"lng":135.16397,"zip":"6440014"},{"town":"湯川町丸山","koaza":"","lat":33.909981,"lng":135.150658,"zip":"6440013"}]