[{"town":"市井川","koaza":"","lat":33.870837,"lng":135.35537,"zip":"6450208"},{"town":"晩稲","koaza":"","lat":33.794464,"lng":135.344651,"zip":"6450022"},{"town":"気佐藤","koaza":"","lat":33.775908,"lng":135.319861,"zip":"6450011"},{"town":"北道","koaza":"","lat":33.770026,"lng":135.320444,"zip":"6450006"},{"town":"清川","koaza":"","lat":33.860709,"lng":135.415547,"zip":"6450201"},{"town":"熊岡","koaza":"","lat":33.778634,"lng":135.338768,"zip":"6450023"},{"town":"熊瀬川","koaza":"","lat":33.850748,"lng":135.317492,"zip":"6450028"},{"town":"堺","koaza":"","lat":33.751654,"lng":135.333431,"zip":"6450003"},{"town":"芝","koaza":"","lat":33.76822,"lng":135.32871,"zip":"6450002"},{"town":"島之瀬","koaza":"","lat":33.851307,"lng":135.367387,"zip":"6450203"},{"town":"筋","koaza":"","lat":33.787763,"lng":135.313242,"zip":"6450025"},{"town":"高野","koaza":"","lat":33.864029,"lng":135.333697,"zip":"6450207"},{"town":"滝","koaza":"","lat":33.845831,"lng":135.339304,"zip":"6450205"},{"town":"谷口","koaza":"","lat":33.789063,"lng":135.329928,"zip":"6450026"},{"town":"土井","koaza":"","lat":33.853767,"lng":135.349162,"zip":"6450206"},{"town":"徳蔵","koaza":"","lat":33.782267,"lng":135.322486,"zip":"6450024"},{"town":"西岩代","koaza":"","lat":33.799348,"lng":135.271658,"zip":"6450014"},{"town":"西本庄","koaza":"","lat":33.814412,"lng":135.317458,"zip":"6450027"},{"town":"埴田","koaza":"","lat":33.759321,"lng":135.330933,"zip":"6450004"},{"town":"東岩代","koaza":"","lat":33.797842,"lng":135.292486,"zip":"6450013"},{"town":"東神野川","koaza":"","lat":33.864279,"lng":135.380781,"zip":"6450202"},{"town":"東本庄","koaza":"","lat":33.811589,"lng":135.345271,"zip":"6450021"},{"town":"東吉田","koaza":"","lat":33.775549,"lng":135.326642,"zip":"6450001"},{"town":"広野","koaza":"","lat":33.839689,"lng":135.357449,"zip":"6450204"},{"town":"南道","koaza":"","lat":33.768268,"lng":135.318853,"zip":"6450005"},{"town":"山内","koaza":"","lat":33.775375,"lng":135.3014,"zip":"6450012"},{"town":"東吉田","koaza":"妙堂","lat":33.775743,"lng":135.327713,"zip":"6450001"}]