[{"town":"大字阿尾","koaza":"","lat":33.89312,"lng":135.068349,"zip":"6491200"},{"town":"大字池田","koaza":"","lat":33.944877,"lng":135.130859,"zip":"6491200"},{"town":"大字荊木","koaza":"","lat":33.926348,"lng":135.153745,"zip":"6491200"},{"town":"大字産湯","koaza":"","lat":33.907266,"lng":135.094881,"zip":"6491200"},{"town":"大字小池","koaza":"","lat":33.910035,"lng":135.126667,"zip":"6491200"},{"town":"大字小浦","koaza":"","lat":33.930231,"lng":135.079847,"zip":"6491200"},{"town":"大字小坂","koaza":"","lat":33.917808,"lng":135.092067,"zip":"6491200"},{"town":"大字小中","koaza":"","lat":33.924214,"lng":135.13014,"zip":"6491200"},{"town":"大字方杭","koaza":"","lat":33.937207,"lng":135.090215,"zip":"6491200"},{"town":"大字志賀","koaza":"","lat":33.929419,"lng":135.109031,"zip":"6491200"},{"town":"大字高家","koaza":"","lat":33.924387,"lng":135.139028,"zip":"6491200"},{"town":"大字津久野","koaza":"","lat":33.924009,"lng":135.080887,"zip":"6491200"},{"town":"大字萩原","koaza":"","lat":33.938645,"lng":135.146678,"zip":"6491200"},{"town":"大字原谷","koaza":"","lat":33.964131,"lng":135.160014,"zip":"6491200"},{"town":"大字比井","koaza":"","lat":33.921639,"lng":135.085,"zip":"6491200"}]