[{"town":"大字井関","koaza":"","lat":34.005935,"lng":135.195307,"zip":"6430000"},{"town":"大字上津木","koaza":"","lat":33.966058,"lng":135.200968,"zip":"6430000"},{"town":"大字上中野","koaza":"","lat":34.008822,"lng":135.173802,"zip":"6430000"},{"town":"大字唐尾","koaza":"","lat":33.998625,"lng":135.14994,"zip":"6430000"},{"town":"大字河瀬","koaza":"","lat":33.991251,"lng":135.185289,"zip":"6430000"},{"town":"大字下津木","koaza":"","lat":33.988178,"lng":135.229574,"zip":"6430000"},{"town":"大字殿","koaza":"","lat":34.013436,"lng":135.186183,"zip":"6430000"},{"town":"大字名島","koaza":"","lat":34.024041,"lng":135.185256,"zip":"6430000"},{"town":"大字西広","koaza":"","lat":34.009659,"lng":135.156767,"zip":"6430000"},{"town":"大字東中","koaza":"","lat":34.018857,"lng":135.182648,"zip":"6430000"},{"town":"大字広","koaza":"","lat":34.024307,"lng":135.174418,"zip":"6430000"},{"town":"大字前田","koaza":"","lat":33.995616,"lng":135.202406,"zip":"6430000"},{"town":"大字南金屋","koaza":"","lat":34.01116,"lng":135.181644,"zip":"6430000"},{"town":"大字柳瀬","koaza":"","lat":34.018865,"lng":135.194322,"zip":"6430000"},{"town":"大字山本","koaza":"","lat":34.010374,"lng":135.16628,"zip":"6430000"},{"town":"大字和田","koaza":"","lat":34.026273,"lng":135.163602,"zip":"6430000"}]