[{"town":"糸我町中番","koaza":"","lat":34.064964,"lng":135.180677,"zip":"6490421"},{"town":"糸我町西","koaza":"","lat":34.068443,"lng":135.16874,"zip":"6490422"},{"town":"古江見","koaza":"","lat":34.078064,"lng":135.125651,"zip":"6490317"},{"town":"下中島","koaza":"","lat":34.08665,"lng":135.155765,"zip":"6490301"},{"town":"新堂","koaza":"","lat":34.087478,"lng":135.1342,"zip":"6490303"},{"town":"千田","koaza":"","lat":34.065398,"lng":135.147608,"zip":"6490313"},{"town":"辻堂","koaza":"","lat":34.076281,"lng":135.147724,"zip":"6490311"},{"town":"野","koaza":"","lat":34.073012,"lng":135.136126,"zip":"6490314"},{"town":"初島町里","koaza":"","lat":34.098294,"lng":135.127496,"zip":"6490307"},{"town":"初島町浜","koaza":"","lat":34.102943,"lng":135.117542,"zip":"6490306"},{"town":"星尾","koaza":"","lat":34.072956,"lng":135.159187,"zip":"6490312"},{"town":"港町","koaza":"","lat":34.088668,"lng":135.105504,"zip":"6490305"},{"town":"箕島","koaza":"","lat":34.086637,"lng":135.119976,"zip":"6490304"},{"town":"宮崎町","koaza":"","lat":34.075218,"lng":135.105893,"zip":"6490316"},{"town":"宮原町新町","koaza":"","lat":34.076208,"lng":135.175658,"zip":"6490434"},{"town":"宮原町須谷","koaza":"","lat":34.075384,"lng":135.1877,"zip":"6490433"},{"town":"宮原町滝","koaza":"","lat":34.086139,"lng":135.164406,"zip":"6490437"},{"town":"宮原町滝川原","koaza":"","lat":34.079454,"lng":135.165422,"zip":"6490435"},{"town":"宮原町道","koaza":"","lat":34.086027,"lng":135.176154,"zip":"6490436"},{"town":"宮原町畑","koaza":"","lat":34.09397,"lng":135.176752,"zip":"6490431"},{"town":"宮原町東","koaza":"","lat":34.082877,"lng":135.183855,"zip":"6490432"},{"town":"山田原","koaza":"","lat":34.087564,"lng":135.145376,"zip":"6490302"},{"town":"山地","koaza":"","lat":34.072268,"lng":135.12903,"zip":"6490315"},{"town":"古江見","koaza":"中坪","lat":34.079352,"lng":135.127634,"zip":"6490317"}]