[{"town":"有田","koaza":"","lat":33.484268,"lng":135.730408,"zip":"6493514"},{"town":"有田上","koaza":"","lat":33.498123,"lng":135.735904,"zip":"6493518"},{"town":"伊串","koaza":"","lat":33.514304,"lng":135.796601,"zip":"6494124"},{"town":"出雲","koaza":"","lat":33.449084,"lng":135.786632,"zip":"6493501"},{"town":"上野山","koaza":"","lat":33.518828,"lng":135.833054,"zip":"6494114"},{"town":"江田","koaza":"","lat":33.502679,"lng":135.699237,"zip":"6493521"},{"town":"大島","koaza":"","lat":33.471587,"lng":135.806732,"zip":"6493633"},{"town":"樫野","koaza":"","lat":33.466787,"lng":135.845844,"zip":"6493631"},{"town":"上田原","koaza":"","lat":33.569736,"lng":135.869411,"zip":"6494111"},{"town":"鬮野川","koaza":"","lat":33.493026,"lng":135.784941,"zip":"6493511"},{"town":"串本","koaza":"","lat":33.470358,"lng":135.779952,"zip":"6493503"},{"town":"古座","koaza":"","lat":33.515859,"lng":135.829574,"zip":"6494115"},{"town":"神野川","koaza":"","lat":33.519972,"lng":135.806717,"zip":"6494123"},{"town":"里川","koaza":"","lat":33.547786,"lng":135.650444,"zip":"6493524"},{"town":"佐部","koaza":"","lat":33.558675,"lng":135.845001,"zip":"6494117"},{"town":"サンゴ台","koaza":"","lat":33.483011,"lng":135.7839,"zip":"6493510"},{"town":"潮岬","koaza":"","lat":33.447029,"lng":135.761077,"zip":"6493502"},{"town":"須江","koaza":"","lat":33.464822,"lng":135.825264,"zip":"6493632"},{"town":"高富","koaza":"","lat":33.501594,"lng":135.754212,"zip":"6493513"},{"town":"田子","koaza":"","lat":33.504677,"lng":135.685433,"zip":"6493522"},{"town":"田並","koaza":"","lat":33.48681,"lng":135.717844,"zip":"6493515"},{"town":"田並上","koaza":"","lat":33.510247,"lng":135.720521,"zip":"6493516"},{"town":"田原","koaza":"","lat":33.54042,"lng":135.873089,"zip":"6494112"},{"town":"津荷","koaza":"","lat":33.535755,"lng":135.841068,"zip":"6494113"},{"town":"中湊","koaza":"","lat":33.527771,"lng":135.82925,"zip":"6494116"},{"town":"二色","koaza":"","lat":33.498137,"lng":135.769352,"zip":"6493512"},{"town":"西向","koaza":"","lat":33.514048,"lng":135.821606,"zip":"6494122"},{"town":"吐生","koaza":"","lat":33.516673,"lng":135.737308,"zip":"6493517"},{"town":"姫","koaza":"","lat":33.498257,"lng":135.794394,"zip":"6494125"},{"town":"姫川","koaza":"","lat":33.51399,"lng":135.781655,"zip":"6494126"},{"town":"古田","koaza":"","lat":33.530061,"lng":135.807365,"zip":"6494121"},{"town":"和深","koaza":"","lat":33.509554,"lng":135.659326,"zip":"6493523"}]