[{"town":"大字朝日一丁目","koaza":"","lat":33.628251,"lng":135.938009,"zip":"6495300"},{"town":"大字朝日二丁目","koaza":"","lat":33.628368,"lng":135.9395,"zip":"6495300"},{"town":"大字朝日三丁目","koaza":"","lat":33.629628,"lng":135.940085,"zip":"6495300"},{"town":"大字朝日四丁目","koaza":"","lat":33.629509,"lng":135.941806,"zip":"6495300"},{"town":"大字井鹿","koaza":"","lat":33.613735,"lng":135.893662,"zip":"6495300"},{"town":"大字井関","koaza":"","lat":33.665674,"lng":135.925386,"zip":"6495300"},{"town":"大字市野々","koaza":"","lat":33.668718,"lng":135.907354,"zip":"6495300"},{"town":"大字市屋","koaza":"","lat":33.599749,"lng":135.916746,"zip":"6495300"},{"town":"大字宇久井","koaza":"","lat":33.660746,"lng":135.966058,"zip":"6495300"},{"town":"大字浦神","koaza":"","lat":33.560477,"lng":135.914693,"zip":"6495300"},{"town":"大字大野","koaza":"","lat":33.677058,"lng":135.840718,"zip":"6495300"},{"town":"大字樫原","koaza":"","lat":33.691501,"lng":135.801904,"zip":"6495300"},{"town":"大字勝浦","koaza":"","lat":33.625635,"lng":135.951518,"zip":"6495300"},{"town":"大字川関","koaza":"","lat":33.656004,"lng":135.932376,"zip":"6495300"},{"town":"大字北浜一丁目","koaza":"","lat":33.630805,"lng":135.943048,"zip":"6495300"},{"town":"大字北浜二丁目","koaza":"","lat":33.631888,"lng":135.943154,"zip":"6495300"},{"town":"大字北浜三丁目","koaza":"","lat":33.632741,"lng":135.943607,"zip":"6495300"},{"town":"大字狗子ノ川","koaza":"","lat":33.655671,"lng":135.953452,"zip":"6495300"},{"town":"大字口色川","koaza":"","lat":33.695647,"lng":135.849445,"zip":"6495300"},{"town":"大字熊瀬川","koaza":"","lat":33.648623,"lng":135.853783,"zip":"6495300"},{"town":"大字高津気","koaza":"","lat":33.675553,"lng":135.942326,"zip":"6495300"},{"town":"大字高遠井","koaza":"","lat":33.587918,"lng":135.865785,"zip":"6495300"},{"town":"大字小阪","koaza":"","lat":33.662608,"lng":135.871812,"zip":"6495300"},{"town":"大字小匠","koaza":"","lat":33.597134,"lng":135.841218,"zip":"6495300"},{"town":"大字粉白","koaza":"","lat":33.573614,"lng":135.911194,"zip":"6495300"},{"town":"大字坂足","koaza":"","lat":33.667951,"lng":135.814227,"zip":"6495300"},{"town":"大字下里","koaza":"","lat":33.58138,"lng":135.92754,"zip":"6495300"},{"town":"大字下和田","koaza":"","lat":33.588627,"lng":135.905508,"zip":"6495300"},{"town":"大字庄","koaza":"","lat":33.580848,"lng":135.900417,"zip":"6495300"},{"town":"大字田垣内","koaza":"","lat":33.662609,"lng":135.840401,"zip":"6495300"},{"town":"大字高野","koaza":"","lat":33.626999,"lng":135.82403,"zip":"6495300"},{"town":"大字築地一丁目","koaza":"","lat":33.628552,"lng":135.943966,"zip":"6495300"},{"town":"大字築地二丁目","koaza":"","lat":33.628385,"lng":135.943569,"zip":"6495300"},{"town":"大字築地三丁目","koaza":"","lat":33.628504,"lng":135.942783,"zip":"6495300"},{"town":"大字築地四丁目","koaza":"","lat":33.628115,"lng":135.942692,"zip":"6495300"},{"town":"大字築地五丁目","koaza":"","lat":33.627436,"lng":135.94302,"zip":"6495300"},{"town":"大字築地六丁目","koaza":"","lat":33.627544,"lng":135.942095,"zip":"6495300"},{"town":"大字築地七丁目","koaza":"","lat":33.626414,"lng":135.943384,"zip":"6495300"},{"town":"大字築地八丁目","koaza":"","lat":33.62501,"lng":135.94118,"zip":"6495300"},{"town":"大字天満","koaza":"","lat":33.637781,"lng":135.931462,"zip":"6495300"},{"town":"大字天満一丁目","koaza":"","lat":33.631888,"lng":135.936862,"zip":"6495300"},{"town":"大字長井","koaza":"","lat":33.600296,"lng":135.867381,"zip":"6495300"},{"town":"大字中里","koaza":"","lat":33.584614,"lng":135.885205,"zip":"6495300"},{"town":"大字中ノ川","koaza":"","lat":33.616993,"lng":135.873026,"zip":"6495300"},{"town":"大字那智山","koaza":"","lat":33.687085,"lng":135.889026,"zip":"6495300"},{"town":"大字二河","koaza":"","lat":33.629004,"lng":135.903021,"zip":"6495300"},{"town":"大字西中野川","koaza":"","lat":33.635098,"lng":135.848591,"zip":"6495300"},{"town":"大字橋ノ川","koaza":"","lat":33.622054,"lng":135.915206,"zip":"6495300"},{"town":"大字浜ノ宮","koaza":"","lat":33.648398,"lng":135.940305,"zip":"6495300"},{"town":"大字直柱","koaza":"","lat":33.653359,"lng":135.811182,"zip":"6495300"},{"town":"大字南大居","koaza":"","lat":33.602072,"lng":135.896069,"zip":"6495300"},{"town":"大字南平野","koaza":"","lat":33.642109,"lng":135.877659,"zip":"6495300"},{"town":"大字八尺鏡野","koaza":"","lat":33.581925,"lng":135.9123,"zip":"6495300"},{"town":"大字湯川","koaza":"","lat":33.627679,"lng":135.925357,"zip":"6495300"}]