[{"town":"赤塚","koaza":"","lat":34.311242,"lng":135.650479,"zip":"6480022"},{"town":"あやの台一丁目","koaza":"","lat":34.338656,"lng":135.650612,"zip":"6480019"},{"town":"あやの台二丁目","koaza":"","lat":34.338988,"lng":135.656221,"zip":"6480019"},{"town":"あやの台三丁目","koaza":"","lat":34.343209,"lng":135.654111,"zip":"6480019"},{"town":"市脇","koaza":"","lat":34.324428,"lng":135.598851,"zip":"6480073"},{"town":"市脇一丁目","koaza":"","lat":34.315316,"lng":135.601147,"zip":"6480073"},{"town":"市脇二丁目","koaza":"","lat":34.315608,"lng":135.597853,"zip":"6480073"},{"town":"市脇三丁目","koaza":"","lat":34.312682,"lng":135.598182,"zip":"6480073"},{"town":"市脇四丁目","koaza":"","lat":34.312307,"lng":135.600786,"zip":"6480073"},{"town":"市脇五丁目","koaza":"","lat":34.312467,"lng":135.603763,"zip":"6480073"},{"town":"上田","koaza":"","lat":34.300997,"lng":135.635001,"zip":"6480024"},{"town":"小原田","koaza":"","lat":34.328915,"lng":135.605668,"zip":"6480071"},{"town":"小峰台一丁目","koaza":"","lat":34.350151,"lng":135.624717,"zip":"6480005"},{"town":"小峰台二丁目","koaza":"","lat":34.353974,"lng":135.633514,"zip":"6480005"},{"town":"柿の木坂","koaza":"","lat":34.339818,"lng":135.594598,"zip":"6480097"},{"town":"賢堂","koaza":"","lat":34.307734,"lng":135.614313,"zip":"6480037"},{"town":"柏原","koaza":"","lat":34.320947,"lng":135.585871,"zip":"6480084"},{"town":"学文路","koaza":"","lat":34.290339,"lng":135.582412,"zip":"6480043"},{"town":"岸上","koaza":"","lat":34.310249,"lng":135.586099,"zip":"6480085"},{"town":"北馬場","koaza":"","lat":34.328534,"lng":135.613592,"zip":"6480061"},{"town":"北宿","koaza":"","lat":34.257143,"lng":135.662545,"zip":"6480033"},{"town":"紀ノ光台一丁目","koaza":"","lat":34.339931,"lng":135.6417,"zip":"6480007"},{"town":"紀ノ光台二丁目","koaza":"","lat":34.345403,"lng":135.641132,"zip":"6480007"},{"town":"紀ノ光台三丁目","koaza":"","lat":34.353051,"lng":135.641263,"zip":"6480007"},{"town":"紀見","koaza":"","lat":34.341365,"lng":135.616541,"zip":"6480052"},{"town":"紀見ケ丘一丁目","koaza":"","lat":34.365556,"lng":135.607967,"zip":"6480092"},{"town":"紀見ケ丘二丁目","koaza":"","lat":34.366787,"lng":135.611025,"zip":"6480092"},{"town":"紀見ケ丘三丁目","koaza":"","lat":34.362145,"lng":135.61017,"zip":"6480092"},{"town":"慶賀野","koaza":"","lat":34.3562,"lng":135.610966,"zip":"6480093"},{"town":"恋野","koaza":"","lat":34.318019,"lng":135.660884,"zip":"6480021"},{"town":"高野口町応其","koaza":"","lat":34.322972,"lng":135.567349,"zip":"6497201"},{"town":"高野口町大野","koaza":"","lat":34.313126,"lng":135.548272,"zip":"6497207"},{"town":"高野口町小田","koaza":"","lat":34.298158,"lng":135.562016,"zip":"6497204"},{"town":"高野口町上中","koaza":"","lat":34.333589,"lng":135.546489,"zip":"6497212"},{"town":"高野口町九重","koaza":"","lat":34.344484,"lng":135.547955,"zip":"6497215"},{"town":"高野口町嵯峨谷","koaza":"","lat":34.336968,"lng":135.538583,"zip":"6497213"},{"town":"高野口町下中","koaza":"","lat":34.32505,"lng":135.5464,"zip":"6497211"},{"town":"高野口町竹尾","koaza":"","lat":34.339764,"lng":135.531347,"zip":"6497214"},{"town":"高野口町田原","koaza":"","lat":34.331446,"lng":135.560941,"zip":"6497216"},{"town":"高野口町名倉","koaza":"","lat":34.311202,"lng":135.557822,"zip":"6497205"},{"town":"高野口町名古曽","koaza":"","lat":34.311025,"lng":135.564429,"zip":"6497203"},{"town":"高野口町伏原","koaza":"","lat":34.304675,"lng":135.572442,"zip":"6497202"},{"town":"高野口町向島","koaza":"","lat":34.298841,"lng":135.55331,"zip":"6497206"},{"town":"光陽台一丁目","koaza":"","lat":34.367038,"lng":135.60567,"zip":"6480099"},{"town":"光陽台二丁目","koaza":"","lat":34.369314,"lng":135.605335,"zip":"6480099"},{"town":"古佐田","koaza":"","lat":34.322388,"lng":135.612183,"zip":"6480065"},{"town":"古佐田一丁目","koaza":"","lat":34.317723,"lng":135.613019,"zip":"6480065"},{"town":"古佐田二丁目","koaza":"","lat":34.31807,"lng":135.617256,"zip":"6480065"},{"town":"古佐田三丁目","koaza":"","lat":34.31944,"lng":135.615086,"zip":"6480065"},{"town":"古佐田四丁目","koaza":"","lat":34.320005,"lng":135.611864,"zip":"6480065"},{"town":"神野々","koaza":"","lat":34.312937,"lng":135.58168,"zip":"6480086"},{"town":"胡麻生","koaza":"","lat":34.3363,"lng":135.609411,"zip":"6480066"},{"town":"境原","koaza":"","lat":34.368063,"lng":135.631554,"zip":"6480006"},{"town":"さつき台一丁目","koaza":"","lat":34.333993,"lng":135.598829,"zip":"6480075"},{"town":"さつき台二丁目","koaza":"","lat":34.335025,"lng":135.594541,"zip":"6480075"},{"town":"清水","koaza":"","lat":34.301354,"lng":135.609061,"zip":"6480041"},{"town":"菖蒲谷","koaza":"","lat":34.345732,"lng":135.587869,"zip":"6480082"},{"town":"しらさぎ台","koaza":"","lat":34.338524,"lng":135.612179,"zip":"6480053"},{"town":"城山台一丁目","koaza":"","lat":34.345452,"lng":135.613479,"zip":"6480054"},{"town":"城山台二丁目","koaza":"","lat":34.348456,"lng":135.610393,"zip":"6480054"},{"town":"城山台三丁目","koaza":"","lat":34.351104,"lng":135.613791,"zip":"6480054"},{"town":"城山台四丁目","koaza":"","lat":34.354124,"lng":135.617714,"zip":"6480054"},{"town":"杉尾","koaza":"","lat":34.371891,"lng":135.64155,"zip":"6480001"},{"town":"須河","koaza":"","lat":34.297199,"lng":135.653493,"zip":"6480038"},{"town":"隅田町芋生","koaza":"","lat":34.327415,"lng":135.654075,"zip":"6480012"},{"town":"隅田町上兵庫","koaza":"","lat":34.329227,"lng":135.633836,"zip":"6480014"},{"town":"隅田町河瀬","koaza":"","lat":34.332065,"lng":135.625218,"zip":"6480015"},{"town":"隅田町霜草","koaza":"","lat":34.346105,"lng":135.633735,"zip":"6480004"},{"town":"隅田町下兵庫","koaza":"","lat":34.332022,"lng":135.629684,"zip":"6480016"},{"town":"隅田町垂井","koaza":"","lat":34.336932,"lng":135.645566,"zip":"6480018"},{"town":"隅田町中下","koaza":"","lat":34.324668,"lng":135.645326,"zip":"6480013"},{"town":"隅田町中島","koaza":"","lat":34.335628,"lng":135.639664,"zip":"6480017"},{"town":"隅田町平野","koaza":"","lat":34.358164,"lng":135.658997,"zip":"6480002"},{"town":"隅田町真土","koaza":"","lat":34.33522,"lng":135.657763,"zip":"6480011"},{"town":"隅田町山内","koaza":"","lat":34.363233,"lng":135.647436,"zip":"6480003"},{"town":"只野","koaza":"","lat":34.300383,"lng":135.664198,"zip":"6480031"},{"town":"谷奥深","koaza":"","lat":34.28167,"lng":135.667655,"zip":"6480032"},{"town":"妻","koaza":"","lat":34.325778,"lng":135.622383,"zip":"6480062"},{"town":"妻一丁目","koaza":"","lat":34.319005,"lng":135.620268,"zip":"6480062"},{"town":"妻二丁目","koaza":"","lat":34.3193,"lng":135.622559,"zip":"6480062"},{"town":"妻三丁目","koaza":"","lat":34.320958,"lng":135.622481,"zip":"6480062"},{"town":"出塔","koaza":"","lat":34.329455,"lng":135.583182,"zip":"6480083"},{"town":"東家","koaza":"","lat":34.323004,"lng":135.603591,"zip":"6480072"},{"town":"東家一丁目","koaza":"","lat":34.315712,"lng":135.604599,"zip":"6480072"},{"town":"東家二丁目","koaza":"","lat":34.316158,"lng":135.607091,"zip":"6480072"},{"town":"東家三丁目","koaza":"","lat":34.319296,"lng":135.609968,"zip":"6480072"},{"town":"東家四丁目","koaza":"","lat":34.316069,"lng":135.609934,"zip":"6480072"},{"town":"東家五丁目","koaza":"","lat":34.313706,"lng":135.608858,"zip":"6480072"},{"town":"東家六丁目","koaza":"","lat":34.312906,"lng":135.605653,"zip":"6480072"},{"town":"中道","koaza":"","lat":34.308378,"lng":135.642913,"zip":"6480023"},{"town":"西畑","koaza":"","lat":34.292009,"lng":135.619678,"zip":"6480042"},{"town":"野","koaza":"","lat":34.322823,"lng":135.592654,"zip":"6480074"},{"town":"橋谷","koaza":"","lat":34.351961,"lng":135.605238,"zip":"6480095"},{"town":"橋本","koaza":"","lat":34.321645,"lng":135.615791,"zip":"6480064"},{"town":"橋本一丁目","koaza":"","lat":34.315676,"lng":135.612299,"zip":"6480064"},{"town":"橋本二丁目","koaza":"","lat":34.316473,"lng":135.614395,"zip":"6480064"},{"town":"柱本","koaza":"","lat":34.372631,"lng":135.614075,"zip":"6480091"},{"town":"原田","koaza":"","lat":34.331188,"lng":135.619742,"zip":"6480063"},{"town":"彦谷","koaza":"","lat":34.280413,"lng":135.647216,"zip":"6480035"},{"town":"細川","koaza":"","lat":34.358699,"lng":135.620717,"zip":"6480051"},{"town":"三石台一丁目","koaza":"","lat":34.353209,"lng":135.602322,"zip":"6480094"},{"town":"三石台二丁目","koaza":"","lat":34.350312,"lng":135.600395,"zip":"6480094"},{"town":"三石台三丁目","koaza":"","lat":34.358877,"lng":135.602046,"zip":"6480094"},{"town":"三石台四丁目","koaza":"","lat":34.356633,"lng":135.599291,"zip":"6480094"},{"town":"南馬場","koaza":"","lat":34.296509,"lng":135.594369,"zip":"6480044"},{"town":"南宿","koaza":"","lat":34.25576,"lng":135.643405,"zip":"6480034"},{"town":"みゆき台","koaza":"","lat":34.340531,"lng":135.586776,"zip":"6480088"},{"town":"御幸辻","koaza":"","lat":34.33886,"lng":135.603302,"zip":"6480096"},{"town":"向副","koaza":"","lat":34.311302,"lng":135.618851,"zip":"6480025"},{"town":"矢倉脇","koaza":"","lat":34.369108,"lng":135.58874,"zip":"6480098"},{"town":"山田","koaza":"","lat":34.350732,"lng":135.57477,"zip":"6480081"},{"town":"横座","koaza":"","lat":34.297023,"lng":135.625064,"zip":"6480036"},{"town":"吉原","koaza":"","lat":34.339185,"lng":135.563899,"zip":"6480087"},{"town":"高野口町小田","koaza":"宮田","lat":34.30069,"lng":135.564839,"zip":"6497204"},{"town":"高野口町伏原","koaza":"越ヶ坪","lat":34.303936,"lng":135.569607,"zip":"6497202"},{"town":"学文路","koaza":"安田嶋","lat":34.292708,"lng":135.572485,"zip":"6480043"}]