[{"town":"赤沼","koaza":"","lat":34.124785,"lng":135.282056,"zip":"6401163"},{"town":"且来","koaza":"","lat":34.168944,"lng":135.236322,"zip":"6420015"},{"town":"井田","koaza":"","lat":34.160163,"lng":135.224453,"zip":"6420021"},{"town":"海老谷","koaza":"","lat":34.126278,"lng":135.270618,"zip":"6401164"},{"town":"多田","koaza":"","lat":34.178741,"lng":135.239033,"zip":"6420013"},{"town":"大野中","koaza":"","lat":34.14973,"lng":135.224133,"zip":"6420022"},{"town":"岡田","koaza":"","lat":34.170153,"lng":135.218206,"zip":"6420012"},{"town":"沖野々","koaza":"","lat":34.165203,"lng":135.272966,"zip":"6401175"},{"town":"小野田","koaza":"","lat":34.169401,"lng":135.25799,"zip":"6420014"},{"town":"上谷","koaza":"","lat":34.13179,"lng":135.284249,"zip":"6401162"},{"town":"北赤坂","koaza":"","lat":34.163739,"lng":135.239067,"zip":"6420016"},{"town":"木津","koaza":"","lat":34.151603,"lng":135.277655,"zip":"6401174"},{"town":"九品寺","koaza":"","lat":34.152806,"lng":135.283793,"zip":"6401167"},{"town":"扱沢","koaza":"","lat":34.127473,"lng":135.248009,"zip":"6420027"},{"town":"黒江","koaza":"","lat":34.167174,"lng":135.206536,"zip":"6420011"},{"town":"冷水","koaza":"","lat":34.139755,"lng":135.191185,"zip":"6420035"},{"town":"下津町青枝","koaza":"","lat":34.116816,"lng":135.189442,"zip":"6490147"},{"town":"下津町市坪","koaza":"","lat":34.109929,"lng":135.195235,"zip":"6490145"},{"town":"下津町梅田","koaza":"","lat":34.132322,"lng":135.180658,"zip":"6490132"},{"town":"下津町大窪","koaza":"","lat":34.109778,"lng":135.20978,"zip":"6490155"},{"town":"下津町大崎","koaza":"","lat":34.132435,"lng":135.139733,"zip":"6490112"},{"town":"下津町興","koaza":"","lat":34.117049,"lng":135.226703,"zip":"6490153"},{"town":"下津町小原","koaza":"","lat":34.101609,"lng":135.156534,"zip":"6490162"},{"town":"下津町笠畑","koaza":"","lat":34.111434,"lng":135.224395,"zip":"6490154"},{"town":"下津町方","koaza":"","lat":34.122101,"lng":135.142241,"zip":"6490111"},{"town":"下津町上","koaza":"","lat":34.110953,"lng":135.161632,"zip":"6490164"},{"town":"下津町鰈川","koaza":"","lat":34.099067,"lng":135.144343,"zip":"6490163"},{"town":"下津町橘本","koaza":"","lat":34.128098,"lng":135.197677,"zip":"6490144"},{"town":"下津町沓掛","koaza":"","lat":34.105179,"lng":135.184098,"zip":"6490146"},{"town":"下津町黒田","koaza":"","lat":34.121434,"lng":135.165753,"zip":"6490122"},{"town":"下津町小畑","koaza":"","lat":34.104044,"lng":135.171601,"zip":"6490161"},{"town":"下津町小松原","koaza":"","lat":34.126881,"lng":135.187783,"zip":"6490143"},{"town":"下津町小南","koaza":"","lat":34.121376,"lng":135.174107,"zip":"6490141"},{"town":"下津町塩津","koaza":"","lat":34.135911,"lng":135.17474,"zip":"6490131"},{"town":"下津町下","koaza":"","lat":34.130493,"lng":135.166448,"zip":"6490133"},{"town":"下津町下津","koaza":"","lat":34.111375,"lng":135.128912,"zip":"6490101"},{"town":"下津町曽根田","koaza":"","lat":34.129858,"lng":135.209434,"zip":"6490151"},{"town":"下津町中","koaza":"","lat":34.122198,"lng":135.181357,"zip":"6490142"},{"town":"下津町引尾","koaza":"","lat":34.12784,"lng":135.22615,"zip":"6490152"},{"town":"下津町丸田","koaza":"","lat":34.131113,"lng":135.155354,"zip":"6490121"},{"town":"下津町百垣内","koaza":"","lat":34.12026,"lng":135.214746,"zip":"6490156"},{"town":"下津町丁","koaza":"","lat":34.118013,"lng":135.162221,"zip":"6490147"},{"town":"下津野","koaza":"","lat":34.174472,"lng":135.294297,"zip":"6400443"},{"town":"高津","koaza":"","lat":34.197255,"lng":135.29235,"zip":"6400451"},{"town":"築地","koaza":"","lat":34.152469,"lng":135.208269,"zip":"6420031"},{"town":"次ケ谷","koaza":"","lat":34.147545,"lng":135.274081,"zip":"6401166"},{"town":"鳥居","koaza":"","lat":34.144398,"lng":135.220318,"zip":"6420033"},{"town":"名高","koaza":"","lat":34.152844,"lng":135.215186,"zip":"6420032"},{"town":"七山","koaza":"","lat":34.191305,"lng":135.309383,"zip":"6400441"},{"town":"野上新","koaza":"","lat":34.150137,"lng":135.297028,"zip":"6401161"},{"town":"野上中","koaza":"","lat":34.166097,"lng":135.286364,"zip":"6401171"},{"town":"野尻","koaza":"","lat":34.175331,"lng":135.285595,"zip":"6400453"},{"town":"幡川","koaza":"","lat":34.144414,"lng":135.235951,"zip":"6420028"},{"town":"馬場町一丁目","koaza":"","lat":34.158655,"lng":135.213334,"zip":"6420004"},{"town":"馬場町二丁目","koaza":"","lat":34.158028,"lng":135.214232,"zip":"6420004"},{"town":"馬場町三丁目","koaza":"","lat":34.159107,"lng":135.213669,"zip":"6420004"},{"town":"原野","koaza":"","lat":34.181905,"lng":135.299555,"zip":"6400442"},{"town":"東畑","koaza":"","lat":34.132744,"lng":135.263735,"zip":"6420025"},{"town":"ひや水","koaza":"","lat":34.137722,"lng":135.276345,"zip":"6401165"},{"town":"藤白","koaza":"","lat":34.143145,"lng":135.21007,"zip":"6420034"},{"town":"船尾","koaza":"","lat":34.156907,"lng":135.197502,"zip":"6420001"},{"town":"別院","koaza":"","lat":34.171274,"lng":135.276798,"zip":"6400454"},{"town":"別所","koaza":"","lat":34.135453,"lng":135.24835,"zip":"6420026"},{"town":"溝ノ口","koaza":"","lat":34.159918,"lng":135.290084,"zip":"6401172"},{"town":"南赤坂","koaza":"","lat":34.159031,"lng":135.239133,"zip":"6420017"},{"town":"椋木","koaza":"","lat":34.141205,"lng":135.291359,"zip":"6401173"},{"town":"孟子","koaza":"","lat":34.186695,"lng":135.287861,"zip":"6400452"},{"town":"山崎町一丁目","koaza":"","lat":34.158472,"lng":135.21552,"zip":"6420003"},{"town":"山崎町二丁目","koaza":"","lat":34.159025,"lng":135.214596,"zip":"6420003"},{"town":"山崎町三丁目","koaza":"","lat":34.159332,"lng":135.215521,"zip":"6420003"},{"town":"山田","koaza":"","lat":34.141446,"lng":135.23435,"zip":"6420029"},{"town":"阪井","koaza":"","lat":34.157893,"lng":135.262501,"zip":"6420024"},{"town":"重根","koaza":"","lat":34.147214,"lng":135.252519,"zip":"6420023"},{"town":"重根西一丁目","koaza":"","lat":34.154847,"lng":135.242746,"zip":"6420019"},{"town":"重根西二丁目","koaza":"","lat":34.155093,"lng":135.245752,"zip":"6420019"},{"town":"重根東二丁目","koaza":"","lat":34.155619,"lng":135.251106,"zip":"6420018"},{"town":"重根東一丁目","koaza":"","lat":34.155737,"lng":135.248084,"zip":"6420018"},{"town":"日方","koaza":"","lat":34.158518,"lng":135.218806,"zip":"6420002"}]