[{"town":"赤木","koaza":"","lat":34.131636,"lng":135.38692,"zip":"6401213"},{"town":"上ケ井","koaza":"","lat":34.123735,"lng":135.367823,"zip":"6401231"},{"town":"井堰","koaza":"","lat":34.172477,"lng":135.366538,"zip":"6401207"},{"town":"今西","koaza":"","lat":34.128103,"lng":135.409419,"zip":"6401365"},{"town":"初生谷","koaza":"","lat":34.161856,"lng":135.403229,"zip":"6401202"},{"town":"梅本","koaza":"","lat":34.119196,"lng":135.333533,"zip":"6401113"},{"town":"円明寺","koaza":"","lat":34.167373,"lng":135.418658,"zip":"6401353"},{"town":"大角","koaza":"","lat":34.147016,"lng":135.370113,"zip":"6401222"},{"town":"奥佐々","koaza":"","lat":34.128667,"lng":135.313187,"zip":"6401115"},{"town":"勝谷","koaza":"","lat":34.17261,"lng":135.43677,"zip":"6401351"},{"town":"桂瀬","koaza":"","lat":34.129178,"lng":135.397667,"zip":"6401211"},{"town":"釜滝","koaza":"","lat":34.168772,"lng":135.339209,"zip":"6401255"},{"town":"鎌滝","koaza":"","lat":34.139196,"lng":135.382329,"zip":"6401215"},{"town":"北野","koaza":"","lat":34.16982,"lng":135.405842,"zip":"6401201"},{"town":"国木原","koaza":"","lat":34.186448,"lng":135.344953,"zip":"6401251"},{"town":"毛原上","koaza":"","lat":34.171338,"lng":135.466516,"zip":"6401472"},{"town":"毛原下","koaza":"","lat":34.138058,"lng":135.445088,"zip":"6401476"},{"town":"毛原中","koaza":"","lat":34.149371,"lng":135.465844,"zip":"6401474"},{"town":"毛原宮","koaza":"","lat":34.163443,"lng":135.454871,"zip":"6401473"},{"town":"神野市場","koaza":"","lat":34.145775,"lng":135.35298,"zip":"6401243"},{"town":"小西","koaza":"","lat":34.149597,"lng":135.446667,"zip":"6401475"},{"town":"坂本","koaza":"","lat":34.125174,"lng":135.340581,"zip":"6401112"},{"town":"柴目","koaza":"","lat":34.173077,"lng":135.329004,"zip":"6401102"},{"town":"下佐々","koaza":"","lat":34.149931,"lng":135.313193,"zip":"6401121"},{"town":"小畑","koaza":"","lat":34.169844,"lng":135.301795,"zip":"6401141"},{"town":"菅沢","koaza":"","lat":34.138009,"lng":135.412776,"zip":"6401364"},{"town":"田","koaza":"","lat":34.138201,"lng":135.418331,"zip":"6401363"},{"town":"高畑","koaza":"","lat":34.138789,"lng":135.398636,"zip":"6401212"},{"town":"滝ノ川","koaza":"","lat":34.126213,"lng":135.432506,"zip":"6401362"},{"town":"谷","koaza":"","lat":34.155271,"lng":135.426542,"zip":"6401352"},{"town":"津川","koaza":"","lat":34.155221,"lng":135.376524,"zip":"6401223"},{"town":"動木","koaza":"","lat":34.164387,"lng":135.310046,"zip":"6401131"},{"town":"中","koaza":"","lat":34.135503,"lng":135.424211,"zip":"6401361"},{"town":"中田","koaza":"","lat":34.118648,"lng":135.318884,"zip":"6401114"},{"town":"永谷","koaza":"","lat":34.155357,"lng":135.356833,"zip":"6401241"},{"town":"長谷","koaza":"","lat":34.18452,"lng":135.325959,"zip":"6401101"},{"town":"西野","koaza":"","lat":34.175904,"lng":135.350195,"zip":"6401252"},{"town":"野中","koaza":"","lat":34.143018,"lng":135.34942,"zip":"6401235"},{"town":"長谷宮","koaza":"","lat":34.177706,"lng":135.490249,"zip":"6401471"},{"town":"花野原","koaza":"","lat":34.175222,"lng":135.398948,"zip":"6401203"},{"town":"東野","koaza":"","lat":34.174489,"lng":135.360053,"zip":"6401253"},{"town":"樋下","koaza":"","lat":34.140236,"lng":135.358871,"zip":"6401242"},{"town":"福井","koaza":"","lat":34.145685,"lng":135.326425,"zip":"6401111"},{"town":"福田","koaza":"","lat":34.154439,"lng":135.342631,"zip":"6401244"},{"town":"真国宮","koaza":"","lat":34.173129,"lng":135.379361,"zip":"6401205"},{"town":"松ケ峯","koaza":"","lat":34.139158,"lng":135.406171,"zip":"6401366"},{"town":"松瀬","koaza":"","lat":34.161862,"lng":135.340109,"zip":"6401254"},{"town":"三尾川","koaza":"","lat":34.133615,"lng":135.373363,"zip":"6401221"},{"town":"南畑","koaza":"","lat":34.132112,"lng":135.347361,"zip":"6401233"},{"town":"蓑垣内","koaza":"","lat":34.173939,"lng":135.373969,"zip":"6401206"},{"town":"蓑津呂","koaza":"","lat":34.171515,"lng":135.38585,"zip":"6401204"},{"town":"明添","koaza":"","lat":34.151819,"lng":135.397883,"zip":"6401214"},{"town":"箕六","koaza":"","lat":34.125222,"lng":135.354991,"zip":"6401232"},{"town":"安井","koaza":"","lat":34.143674,"lng":135.340482,"zip":"6401234"},{"town":"四郷","koaza":"","lat":34.179393,"lng":135.413967,"zip":"6401354"},{"town":"吉野","koaza":"","lat":34.160904,"lng":135.325529,"zip":"6401103"}]