[{"town":"赤尾","koaza":"","lat":34.272057,"lng":135.377907,"zip":"6496404"},{"town":"赤沼田","koaza":"","lat":34.256198,"lng":135.458421,"zip":"6496614"},{"town":"穴伏","koaza":"","lat":34.276699,"lng":135.445287,"zip":"6496611"},{"town":"荒見","koaza":"","lat":34.251833,"lng":135.420394,"zip":"6496561"},{"town":"池田新","koaza":"","lat":34.281948,"lng":135.366969,"zip":"6496407"},{"town":"井田","koaza":"","lat":34.26826,"lng":135.41607,"zip":"6496541"},{"town":"猪垣","koaza":"","lat":34.281816,"lng":135.397184,"zip":"6496511"},{"town":"今畑","koaza":"","lat":34.320044,"lng":135.339879,"zip":"6496400"},{"town":"上野","koaza":"","lat":34.259897,"lng":135.361471,"zip":"6496416"},{"town":"打田","koaza":"","lat":34.26186,"lng":135.370517,"zip":"6496414"},{"town":"馬宿","koaza":"","lat":34.284423,"lng":135.43175,"zip":"6496521"},{"town":"江川中","koaza":"","lat":34.29026,"lng":135.441472,"zip":"6496605"},{"town":"王子","koaza":"","lat":34.272933,"lng":135.4259,"zip":"6496624"},{"town":"麻生津中","koaza":"","lat":34.255647,"lng":135.445673,"zip":"6496615"},{"town":"尾崎","koaza":"","lat":34.262961,"lng":135.351147,"zip":"6496423"},{"town":"遠方","koaza":"","lat":34.250262,"lng":135.385273,"zip":"6496562"},{"town":"風市","koaza":"","lat":34.256181,"lng":135.39203,"zip":"6496563"},{"town":"勝神","koaza":"","lat":34.244385,"lng":135.399139,"zip":"6496564"},{"town":"上鞆渕","koaza":"","lat":34.23163,"lng":135.474862,"zip":"6496571"},{"town":"上丹生谷","koaza":"","lat":34.298407,"lng":135.422874,"zip":"6496522"},{"town":"貴志川町尼寺","koaza":"","lat":34.22971,"lng":135.306962,"zip":"6400403"},{"town":"貴志川町井ノ口","koaza":"","lat":34.200003,"lng":135.317594,"zip":"6400424"},{"town":"貴志川町上野山","koaza":"","lat":34.217971,"lng":135.310125,"zip":"6400412"},{"town":"貴志川町岸小野","koaza":"","lat":34.206688,"lng":135.328616,"zip":"6400422"},{"town":"貴志川町岸宮","koaza":"","lat":34.223849,"lng":135.297064,"zip":"6400405"},{"town":"貴志川町北","koaza":"","lat":34.213213,"lng":135.331229,"zip":"6400421"},{"town":"貴志川町北山","koaza":"","lat":34.231537,"lng":135.317058,"zip":"6400402"},{"town":"貴志川町国主","koaza":"","lat":34.205226,"lng":135.309419,"zip":"6400414"},{"town":"貴志川町神戸","koaza":"","lat":34.212941,"lng":135.314775,"zip":"6400413"},{"town":"貴志川町高尾","koaza":"","lat":34.197618,"lng":135.334273,"zip":"6400423"},{"town":"貴志川町鳥居","koaza":"","lat":34.220261,"lng":135.306383,"zip":"6400404"},{"town":"貴志川町長原","koaza":"","lat":34.207341,"lng":135.301474,"zip":"6400415"},{"town":"貴志川町長山","koaza":"","lat":34.208578,"lng":135.288127,"zip":"6400416"},{"town":"貴志川町西山","koaza":"","lat":34.221422,"lng":135.282702,"zip":"6400406"},{"town":"貴志川町前田","koaza":"","lat":34.22432,"lng":135.320448,"zip":"6400411"},{"town":"貴志川町丸栖","koaza":"","lat":34.235425,"lng":135.328633,"zip":"6400401"},{"town":"北大井","koaza":"","lat":34.274078,"lng":135.362441,"zip":"6496406"},{"town":"北志野","koaza":"","lat":34.298628,"lng":135.389335,"zip":"6496501"},{"town":"北勢田","koaza":"","lat":34.288838,"lng":135.377766,"zip":"6496402"},{"town":"北中","koaza":"","lat":34.28613,"lng":135.360962,"zip":"6496443"},{"town":"北長田","koaza":"","lat":34.286515,"lng":135.390346,"zip":"6496502"},{"town":"北涌","koaza":"","lat":34.271621,"lng":135.449363,"zip":"6496612"},{"town":"切畑","koaza":"","lat":34.319182,"lng":135.439404,"zip":"6496606"},{"town":"窪","koaza":"","lat":34.254178,"lng":135.369861,"zip":"6496415"},{"town":"久留壁","koaza":"","lat":34.267204,"lng":135.366698,"zip":"6496418"},{"town":"黒土","koaza":"","lat":34.23273,"lng":135.410214,"zip":"6496412"},{"town":"花野","koaza":"","lat":34.260431,"lng":135.355512,"zip":"6496422"},{"town":"上田井","koaza":"","lat":34.264792,"lng":135.383523,"zip":"6496551"},{"town":"粉河","koaza":"","lat":34.283306,"lng":135.410769,"zip":"6496531"},{"town":"重行","koaza":"","lat":34.294728,"lng":135.375145,"zip":"6496401"},{"town":"嶋","koaza":"","lat":34.262917,"lng":135.39147,"zip":"6496552"},{"town":"下井阪","koaza":"","lat":34.256298,"lng":135.340448,"zip":"6496426"},{"town":"下鞆渕","koaza":"","lat":34.218733,"lng":135.431574,"zip":"6496572"},{"town":"下丹生谷","koaza":"","lat":34.282505,"lng":135.424431,"zip":"6496523"},{"town":"後田","koaza":"","lat":34.267609,"lng":135.430653,"zip":"6496622"},{"town":"神通","koaza":"","lat":34.320144,"lng":135.379917,"zip":"6496451"},{"town":"神領","koaza":"","lat":34.286109,"lng":135.364724,"zip":"6496442"},{"town":"杉原","koaza":"","lat":34.250953,"lng":135.402822,"zip":"6496565"},{"town":"高野","koaza":"","lat":34.232358,"lng":135.373953,"zip":"6496161"},{"town":"竹房","koaza":"","lat":34.230066,"lng":135.364487,"zip":"6496413"},{"town":"田中馬場","koaza":"","lat":34.26747,"lng":135.354581,"zip":"6496421"},{"town":"東毛","koaza":"","lat":34.287539,"lng":135.40408,"zip":"6496512"},{"town":"豊田","koaza":"","lat":34.281733,"lng":135.353649,"zip":"6496445"},{"town":"中井阪","koaza":"","lat":34.258891,"lng":135.343634,"zip":"6496425"},{"town":"長田中","koaza":"","lat":34.278503,"lng":135.390043,"zip":"6496503"},{"town":"中津川","koaza":"","lat":34.316466,"lng":135.413831,"zip":"6496513"},{"town":"中鞆渕","koaza":"","lat":34.222325,"lng":135.45216,"zip":"6496573"},{"town":"中畑","koaza":"","lat":34.319515,"lng":135.358691,"zip":"6496452"},{"town":"中三谷","koaza":"","lat":34.287751,"lng":135.34118,"zip":"6496434"},{"town":"中山","koaza":"","lat":34.276781,"lng":135.397856,"zip":"6496532"},{"town":"名手市場","koaza":"","lat":34.276274,"lng":135.435548,"zip":"6496631"},{"town":"名手上","koaza":"","lat":34.312212,"lng":135.459425,"zip":"6496601"},{"town":"名手下","koaza":"","lat":34.294224,"lng":135.447675,"zip":"6496603"},{"town":"名手西野","koaza":"","lat":34.269118,"lng":135.43767,"zip":"6496621"},{"town":"西井阪","koaza":"","lat":34.259314,"lng":135.337513,"zip":"6496427"},{"town":"西大井","koaza":"","lat":34.268169,"lng":135.359973,"zip":"6496417"},{"town":"西川原","koaza":"","lat":34.308723,"lng":135.42487,"zip":"6496524"},{"town":"西野山","koaza":"","lat":34.283344,"lng":135.443108,"zip":"6496604"},{"town":"西三谷","koaza":"","lat":34.286478,"lng":135.337457,"zip":"6496433"},{"town":"西山田","koaza":"","lat":34.299699,"lng":135.358045,"zip":"6496447"},{"town":"西脇","koaza":"","lat":34.259469,"lng":135.435129,"zip":"6496616"},{"town":"野上","koaza":"","lat":34.294402,"lng":135.428887,"zip":"6496525"},{"town":"登尾","koaza":"","lat":34.291162,"lng":135.358063,"zip":"6496444"},{"town":"畑野上","koaza":"","lat":34.262649,"lng":135.347803,"zip":"6496424"},{"town":"東大井","koaza":"","lat":34.270405,"lng":135.368177,"zip":"6496405"},{"town":"東川原","koaza":"","lat":34.307673,"lng":135.434287,"zip":"6496526"},{"town":"東国分","koaza":"","lat":34.267086,"lng":135.343439,"zip":"6496428"},{"town":"東野","koaza":"","lat":34.270714,"lng":135.419403,"zip":"6496542"},{"town":"東三谷","koaza":"","lat":34.28832,"lng":135.345352,"zip":"6496435"},{"town":"東山田","koaza":"","lat":34.299456,"lng":135.368927,"zip":"6496441"},{"town":"平野","koaza":"","lat":34.313671,"lng":135.45047,"zip":"6496602"},{"town":"広野","koaza":"","lat":34.267709,"lng":135.377074,"zip":"6496411"},{"town":"枇杷谷","koaza":"","lat":34.290628,"lng":135.350965,"zip":"6496446"},{"town":"深田","koaza":"","lat":34.27036,"lng":135.394405,"zip":"6496553"},{"town":"藤井","koaza":"","lat":34.290734,"lng":135.397289,"zip":"6496514"},{"town":"藤崎","koaza":"","lat":34.267975,"lng":135.425105,"zip":"6496623"},{"town":"古和田","koaza":"","lat":34.272713,"lng":135.350265,"zip":"6496432"},{"town":"別所","koaza":"","lat":34.270365,"lng":135.389869,"zip":"6496554"},{"town":"松井","koaza":"","lat":34.26446,"lng":135.397157,"zip":"6496555"},{"town":"南志野","koaza":"","lat":34.277764,"lng":135.382835,"zip":"6496504"},{"town":"南勢田","koaza":"","lat":34.276151,"lng":135.373752,"zip":"6496403"},{"town":"南中","koaza":"","lat":34.278858,"lng":135.358259,"zip":"6496431"},{"town":"桃山町市場","koaza":"","lat":34.241738,"lng":135.34505,"zip":"6496124"},{"town":"桃山町大原","koaza":"","lat":34.219059,"lng":135.383407,"zip":"6496105"},{"town":"桃山町垣内","koaza":"","lat":34.190043,"lng":135.4145,"zip":"6401333"},{"town":"桃山町黒川","koaza":"","lat":34.217325,"lng":135.413667,"zip":"6496102"},{"town":"桃山町神田","koaza":"","lat":34.221277,"lng":135.36273,"zip":"6496123"},{"town":"桃山町善田","koaza":"","lat":34.219513,"lng":135.394895,"zip":"6496101"},{"town":"桃山町段","koaza":"","lat":34.248629,"lng":135.343446,"zip":"6496125"},{"town":"桃山町段新田","koaza":"","lat":34.248378,"lng":135.360883,"zip":"6496121"},{"town":"桃山町調月","koaza":"","lat":34.220109,"lng":135.332389,"zip":"6496112"},{"town":"桃山町中畑","koaza":"","lat":34.185993,"lng":135.445234,"zip":"6401332"},{"town":"桃山町野田原","koaza":"","lat":34.19345,"lng":135.389954,"zip":"6496103"},{"town":"桃山町峯","koaza":"","lat":34.195523,"lng":135.420869,"zip":"6401331"},{"town":"桃山町最上","koaza":"","lat":34.213924,"lng":135.352708,"zip":"6496111"},{"town":"桃山町元","koaza":"","lat":34.240042,"lng":135.35442,"zip":"6496122"},{"town":"桃山町脇谷","koaza":"","lat":34.200072,"lng":135.373137,"zip":"6496104"},{"town":"横谷","koaza":"","lat":34.26377,"lng":135.45325,"zip":"6496613"},{"town":"貴志川町神戸","koaza":"野手","lat":34.217103,"lng":135.316002,"zip":"6400413"},{"town":"桃山町市場","koaza":"高関","lat":34.242394,"lng":135.345211,"zip":"6496124"},{"town":"東三谷","koaza":"川端","lat":34.281046,"lng":135.348604,"zip":"6496435"},{"town":"打田","koaza":"天王","lat":34.260356,"lng":135.366684,"zip":"6496414"}]