[{"town":"安居","koaza":"","lat":33.609899,"lng":135.480537,"zip":"6492532"},{"town":"安宅","koaza":"","lat":33.579679,"lng":135.473439,"zip":"6492524"},{"town":"市鹿野","koaza":"","lat":33.665708,"lng":135.539618,"zip":"6460301"},{"town":"内ノ川","koaza":"","lat":33.672479,"lng":135.414656,"zip":"6492322"},{"town":"宇津木","koaza":"","lat":33.656663,"lng":135.493312,"zip":"6492537"},{"town":"大","koaza":"","lat":33.648185,"lng":135.508171,"zip":"6460312"},{"town":"大瀬","koaza":"","lat":33.645914,"lng":135.583017,"zip":"6460303"},{"town":"大古","koaza":"","lat":33.576276,"lng":135.45584,"zip":"6492521"},{"town":"小房","koaza":"","lat":33.669133,"lng":135.520969,"zip":"6460311"},{"town":"堅田","koaza":"","lat":33.676653,"lng":135.382181,"zip":"6492201"},{"town":"北谷","koaza":"","lat":33.639993,"lng":135.557723,"zip":"6460305"},{"town":"口ケ谷","koaza":"","lat":33.603905,"lng":135.465769,"zip":"6492531"},{"town":"上露","koaza":"","lat":33.653965,"lng":135.569819,"zip":"6460302"},{"town":"小川","koaza":"","lat":33.629119,"lng":135.503214,"zip":"6492538"},{"town":"才野","koaza":"","lat":33.659764,"lng":135.382003,"zip":"6492334"},{"town":"栄","koaza":"","lat":33.653536,"lng":135.395481,"zip":"6492332"},{"town":"里谷","koaza":"","lat":33.684838,"lng":135.529771,"zip":"6460314"},{"town":"塩野","koaza":"","lat":33.559509,"lng":135.465115,"zip":"6492525"},{"town":"庄川","koaza":"","lat":33.660811,"lng":135.434027,"zip":"6492323"},{"town":"城","koaza":"","lat":33.622359,"lng":135.518269,"zip":"6492539"},{"town":"神宮寺","koaza":"","lat":33.63225,"lng":135.484284,"zip":"6492200"},{"town":"平","koaza":"","lat":33.671424,"lng":135.400076,"zip":"6492331"},{"town":"竹垣内","koaza":"","lat":33.638306,"lng":135.616835,"zip":"6460304"},{"town":"田野井","koaza":"","lat":33.602954,"lng":135.434893,"zip":"6492523"},{"town":"玉伝","koaza":"","lat":33.679013,"lng":135.515944,"zip":"6460313"},{"town":"十九渕","koaza":"","lat":33.643766,"lng":135.43664,"zip":"6492324"},{"town":"椿","koaza":"","lat":33.611806,"lng":135.407603,"zip":"6492326"},{"town":"寺山","koaza":"","lat":33.617669,"lng":135.473034,"zip":"6492534"},{"town":"富田","koaza":"","lat":33.633338,"lng":135.406315,"zip":"6492325"},{"town":"中","koaza":"","lat":33.647487,"lng":135.389254,"zip":"6492333"},{"town":"中嶋","koaza":"","lat":33.6228,"lng":135.486125,"zip":"6492533"},{"town":"日置","koaza":"","lat":33.575759,"lng":135.434396,"zip":"6492511"},{"town":"久木","koaza":"","lat":33.648924,"lng":135.466469,"zip":"6492536"},{"town":"保呂","koaza":"","lat":33.679042,"lng":135.422522,"zip":"6492321"},{"town":"向平","koaza":"","lat":33.627197,"lng":135.467546,"zip":"6492535"},{"town":"矢田","koaza":"","lat":33.587995,"lng":135.462003,"zip":"6492522"},{"town":"（大字なし）","koaza":"","lat":33.677833,"lng":135.348754,"zip":"6492200"},{"town":"日置","koaza":"中津川","lat":33.571013,"lng":135.437657,"zip":"6492511"}]