[{"town":"江住","koaza":"","lat":33.520921,"lng":135.601552,"zip":"6493142"},{"town":"大鎌","koaza":"","lat":33.548795,"lng":135.617787,"zip":"6493151"},{"town":"大谷","koaza":"","lat":33.574382,"lng":135.616812,"zip":"6493153"},{"town":"大附","koaza":"","lat":33.607372,"lng":135.571013,"zip":"6492602"},{"town":"小河内","koaza":"","lat":33.563833,"lng":135.581318,"zip":"6492603"},{"town":"口和深","koaza":"","lat":33.53167,"lng":135.521517,"zip":"6492612"},{"town":"小附","koaza":"","lat":33.615382,"lng":135.556337,"zip":"6492601"},{"town":"里野","koaza":"","lat":33.516605,"lng":135.625124,"zip":"6493143"},{"town":"佐本追川","koaza":"","lat":33.582216,"lng":135.604394,"zip":"6493162"},{"town":"佐本中","koaza":"","lat":33.593334,"lng":135.61582,"zip":"6493161"},{"town":"佐本中野","koaza":"","lat":33.605817,"lng":135.615264,"zip":"6493165"},{"town":"佐本西栗垣内","koaza":"","lat":33.60583,"lng":135.592596,"zip":"6493163"},{"town":"佐本西野川","koaza":"","lat":33.60884,"lng":135.633561,"zip":"6493166"},{"town":"佐本根倉","koaza":"","lat":33.593532,"lng":135.640207,"zip":"6493168"},{"town":"佐本東栗垣内","koaza":"","lat":33.59137,"lng":135.601808,"zip":"6493164"},{"town":"佐本平野","koaza":"","lat":33.599267,"lng":135.633013,"zip":"6493167"},{"town":"佐本深谷","koaza":"","lat":33.595284,"lng":135.654937,"zip":"6493169"},{"town":"周参見","koaza":"","lat":33.566285,"lng":135.52394,"zip":"6492621"},{"town":"太間川","koaza":"","lat":33.594216,"lng":135.503825,"zip":"6492631"},{"town":"防己","koaza":"","lat":33.560153,"lng":135.598995,"zip":"6493152"},{"town":"見老津","koaza":"","lat":33.522399,"lng":135.56353,"zip":"6493141"},{"town":"矢ケ谷","koaza":"","lat":33.62295,"lng":135.541996,"zip":"6492600"},{"town":"矢野口","koaza":"","lat":33.620865,"lng":135.531526,"zip":"6492604"},{"town":"和深川","koaza":"","lat":33.53598,"lng":135.548528,"zip":"6492611"}]