[{"town":"有河","koaza":"","lat":36.064586,"lng":140.357802,"zip":"3000212"},{"town":"粟田","koaza":"","lat":36.20073,"lng":140.235529,"zip":"3150078"},{"town":"安食","koaza":"","lat":36.114882,"lng":140.352485,"zip":"3000205"},{"town":"飯田","koaza":"","lat":36.164016,"lng":140.23407,"zip":"3150063"},{"town":"市川","koaza":"","lat":36.177294,"lng":140.261172,"zip":"3150071"},{"town":"一の瀬","koaza":"","lat":36.077705,"lng":140.341613,"zip":"3150000"},{"town":"一の瀬上流","koaza":"","lat":36.099637,"lng":140.303807,"zip":"3150000"},{"town":"稲吉一丁目","koaza":"","lat":36.121909,"lng":140.251668,"zip":"3150054"},{"town":"稲吉二丁目","koaza":"","lat":36.123155,"lng":140.24837,"zip":"3150054"},{"town":"稲吉三丁目","koaza":"","lat":36.125728,"lng":140.246646,"zip":"3150054"},{"town":"稲吉四丁目","koaza":"","lat":36.12794,"lng":140.245368,"zip":"3150054"},{"town":"稲吉五丁目","koaza":"","lat":36.130707,"lng":140.243775,"zip":"3150054"},{"town":"稲吉東一丁目","koaza":"","lat":36.124954,"lng":140.251972,"zip":"3150053"},{"town":"稲吉東二丁目","koaza":"","lat":36.128374,"lng":140.256288,"zip":"3150053"},{"town":"稲吉東三丁目","koaza":"","lat":36.128487,"lng":140.253297,"zip":"3150053"},{"town":"稲吉東四丁目","koaza":"","lat":36.126607,"lng":140.250836,"zip":"3150053"},{"town":"稲吉東五丁目","koaza":"","lat":36.128769,"lng":140.249143,"zip":"3150053"},{"town":"稲吉東六丁目","koaza":"","lat":36.130805,"lng":140.247897,"zip":"3150053"},{"town":"稲吉南一丁目","koaza":"","lat":36.124515,"lng":140.242633,"zip":"3150055"},{"town":"稲吉南二丁目","koaza":"","lat":36.12432,"lng":140.238995,"zip":"3150055"},{"town":"稲吉南三丁目","koaza":"","lat":36.128958,"lng":140.240353,"zip":"3150055"},{"town":"岩坪","koaza":"","lat":36.09863,"lng":140.359375,"zip":"3000203"},{"town":"牛渡","koaza":"","lat":36.073599,"lng":140.329579,"zip":"3000213"},{"town":"大峰","koaza":"","lat":36.16955,"lng":140.222101,"zip":"3150064"},{"town":"大和田","koaza":"","lat":36.093906,"lng":140.327619,"zip":"3000124"},{"town":"男神","koaza":"","lat":36.085255,"lng":140.339857,"zip":"3000132"},{"town":"柏崎","koaza":"","lat":36.10503,"lng":140.372012,"zip":"3000201"},{"town":"上稲吉","koaza":"","lat":36.134166,"lng":140.211274,"zip":"3150056"},{"town":"上大堤","koaza":"","lat":36.108855,"lng":140.288958,"zip":"3000127"},{"town":"上軽部","koaza":"","lat":36.107146,"lng":140.330742,"zip":"3000123"},{"town":"上佐谷","koaza":"","lat":36.171815,"lng":140.208515,"zip":"3150065"},{"town":"上志筑","koaza":"","lat":36.187702,"lng":140.216341,"zip":"3150076"},{"town":"上土田","koaza":"","lat":36.154227,"lng":140.235715,"zip":"3150057"},{"town":"加茂","koaza":"","lat":36.076129,"lng":140.29566,"zip":"3000135"},{"town":"五反田","koaza":"","lat":36.179265,"lng":140.221957,"zip":"3150061"},{"town":"坂","koaza":"","lat":36.078297,"lng":140.363613,"zip":"3000214"},{"town":"宍倉","koaza":"","lat":36.119966,"lng":140.294717,"zip":"3000121"},{"town":"志戸崎","koaza":"","lat":36.065389,"lng":140.365889,"zip":"3000211"},{"town":"下稲吉","koaza":"","lat":36.142078,"lng":140.237981,"zip":"3150052"},{"town":"下大堤","koaza":"","lat":36.087558,"lng":140.331613,"zip":"3000131"},{"town":"下軽部","koaza":"","lat":36.103197,"lng":140.344143,"zip":"3000204"},{"town":"下佐谷","koaza":"","lat":36.155516,"lng":140.211624,"zip":"3150067"},{"town":"下志筑","koaza":"","lat":36.17945,"lng":140.242413,"zip":"3150074"},{"town":"下土田","koaza":"","lat":36.162864,"lng":140.248708,"zip":"3150058"},{"town":"高倉","koaza":"","lat":36.202,"lng":140.221894,"zip":"3150077"},{"town":"田伏","koaza":"","lat":36.085113,"lng":140.377829,"zip":"3000202"},{"town":"戸崎","koaza":"","lat":36.082348,"lng":140.269246,"zip":"3000136"},{"town":"中佐谷","koaza":"","lat":36.151446,"lng":140.223739,"zip":"3150066"},{"town":"中志筑","koaza":"","lat":36.18841,"lng":140.233935,"zip":"3150075"},{"town":"中台","koaza":"","lat":36.081408,"lng":140.344609,"zip":"3000133"},{"town":"新治","koaza":"","lat":36.146838,"lng":140.256295,"zip":"3150051"},{"town":"西成井","koaza":"","lat":36.10356,"lng":140.323993,"zip":"3000122"},{"town":"西野寺","koaza":"","lat":36.168427,"lng":140.256546,"zip":"3150073"},{"town":"東野寺","koaza":"","lat":36.168294,"lng":140.270532,"zip":"3150072"},{"town":"深谷","koaza":"","lat":36.091074,"lng":140.30692,"zip":"3000134"},{"town":"三ツ木","koaza":"","lat":36.108227,"lng":140.299311,"zip":"3000125"},{"town":"南根本","koaza":"","lat":36.101055,"lng":140.309435,"zip":"3000126"},{"town":"山本","koaza":"","lat":36.157546,"lng":140.204414,"zip":"3150068"},{"town":"雪入","koaza":"","lat":36.171251,"lng":140.187997,"zip":"3150069"},{"town":"横堀","koaza":"","lat":36.171158,"lng":140.231873,"zip":"3150062"},{"town":"上稲吉","koaza":"中山","lat":36.129646,"lng":140.196065,"zip":"3150056"}]