[{"town":"青木","koaza":"","lat":35.963058,"lng":140.011609,"zip":"3002346"},{"town":"青古新田","koaza":"","lat":35.967877,"lng":140.017046,"zip":"3002348"},{"town":"足高","koaza":"","lat":35.952762,"lng":140.087803,"zip":"3002315"},{"town":"新戸","koaza":"","lat":35.969446,"lng":140.038025,"zip":"3002354"},{"town":"板橋","koaza":"","lat":35.979608,"lng":140.053788,"zip":"3002307"},{"town":"伊丹","koaza":"","lat":35.952239,"lng":140.079049,"zip":"3002323"},{"town":"市野深","koaza":"","lat":35.97244,"lng":140.030429,"zip":"3002355"},{"town":"伊奈東","koaza":"","lat":35.994766,"lng":140.05896,"zip":"3002308"},{"town":"弥柳","koaza":"","lat":35.956829,"lng":140.033906,"zip":"3002342"},{"town":"大和田","koaza":"","lat":35.983292,"lng":140.080279,"zip":"3002303"},{"town":"押砂","koaza":"","lat":36.021003,"lng":140.013248,"zip":"3002411"},{"town":"小島新田","koaza":"","lat":36.002213,"lng":140.053119,"zip":"3002352"},{"town":"鬼長","koaza":"","lat":35.980554,"lng":140.000826,"zip":"3002432"},{"town":"小張","koaza":"","lat":35.988196,"lng":140.045788,"zip":"3002353"},{"town":"神住新田","koaza":"","lat":35.945565,"lng":140.078505,"zip":"3002331"},{"town":"加藤","koaza":"","lat":35.985637,"lng":140.009118,"zip":"3002424"},{"town":"上小目","koaza":"","lat":35.989257,"lng":139.99878,"zip":"3002431"},{"town":"上島","koaza":"","lat":35.963188,"lng":140.056627,"zip":"3002326"},{"town":"上長沼","koaza":"","lat":36.007177,"lng":140.008759,"zip":"3002453"},{"town":"上平柳","koaza":"","lat":35.942193,"lng":140.036102,"zip":"3002335"},{"town":"川崎","koaza":"","lat":35.992073,"lng":140.006575,"zip":"3002425"},{"town":"神生","koaza":"","lat":35.966361,"lng":140.083189,"zip":"3002312"},{"town":"北袋","koaza":"","lat":36.012696,"lng":139.999168,"zip":"3002456"},{"town":"北山","koaza":"","lat":36.040627,"lng":140.0322,"zip":"3002407"},{"town":"絹の台一丁目","koaza":"","lat":35.979856,"lng":139.978801,"zip":"3002436"},{"town":"絹の台二丁目","koaza":"","lat":35.977618,"lng":139.981214,"zip":"3002436"},{"town":"絹の台三丁目","koaza":"","lat":35.977503,"lng":139.977124,"zip":"3002436"},{"town":"絹の台四丁目","koaza":"","lat":35.972277,"lng":139.979518,"zip":"3002436"},{"town":"絹の台五丁目","koaza":"","lat":35.973894,"lng":139.978777,"zip":"3002436"},{"town":"絹の台六丁目","koaza":"","lat":35.97428,"lng":139.975701,"zip":"3002436"},{"town":"絹の台七丁目","koaza":"","lat":35.979196,"lng":139.975444,"zip":"3002436"},{"town":"小絹","koaza":"","lat":35.984846,"lng":139.981376,"zip":"3002445"},{"town":"坂野新田","koaza":"","lat":36.0245,"lng":140.045637,"zip":"3002402"},{"town":"山王新田","koaza":"","lat":35.943796,"lng":140.064798,"zip":"3002332"},{"town":"山谷","koaza":"","lat":35.94958,"lng":140.040059,"zip":"3002336"},{"town":"紫峰ヶ丘一丁目","koaza":"","lat":35.99856,"lng":140.037005,"zip":"3002359"},{"town":"紫峰ヶ丘二丁目","koaza":"","lat":36.001919,"lng":140.035828,"zip":"3002359"},{"town":"紫峰ヶ丘三丁目","koaza":"","lat":36.004865,"lng":140.037927,"zip":"3002359"},{"town":"紫峰ヶ丘四丁目","koaza":"","lat":36.003392,"lng":140.04133,"zip":"3002359"},{"town":"紫峰ヶ丘五丁目","koaza":"","lat":36.00135,"lng":140.043397,"zip":"3002359"},{"town":"下小目","koaza":"","lat":35.972769,"lng":140.012371,"zip":"3002433"},{"town":"下島","koaza":"","lat":35.952187,"lng":140.064277,"zip":"3002324"},{"town":"下長沼","koaza":"","lat":35.999825,"lng":140.012201,"zip":"3002454"},{"town":"下平柳","koaza":"","lat":35.940152,"lng":140.053836,"zip":"3002333"},{"town":"重右衛門新田","koaza":"","lat":35.98132,"lng":140.072817,"zip":"3002305"},{"town":"十和","koaza":"","lat":35.998419,"lng":139.995863,"zip":"3002455"},{"town":"城中","koaza":"","lat":35.945427,"lng":140.096108,"zip":"3002314"},{"town":"杉下","koaza":"","lat":35.986111,"lng":139.989933,"zip":"3002444"},{"town":"善助新田","koaza":"","lat":36.007007,"lng":140.054983,"zip":"3002351"},{"town":"台","koaza":"","lat":36.03188,"lng":140.040422,"zip":"3002401"},{"town":"高岡","koaza":"","lat":36.002453,"lng":140.066087,"zip":"3002301"},{"town":"田村","koaza":"","lat":36.009895,"lng":140.031579,"zip":"3002413"},{"town":"樛木","koaza":"","lat":36.015973,"lng":140.005691,"zip":"3002452"},{"town":"筒戸","koaza":"","lat":35.969854,"lng":139.989514,"zip":"3002435"},{"town":"寺畑","koaza":"","lat":35.995445,"lng":139.986229,"zip":"3002441"},{"town":"戸崎","koaza":"","lat":35.957784,"lng":140.071775,"zip":"3002322"},{"town":"戸茂","koaza":"","lat":35.962521,"lng":140.069839,"zip":"3002321"},{"town":"中島","koaza":"","lat":35.956152,"lng":140.05812,"zip":"3002325"},{"town":"長渡呂","koaza":"","lat":35.958494,"lng":140.018398,"zip":"3002345"},{"town":"長渡呂新田","koaza":"","lat":35.956802,"lng":140.02588,"zip":"3002344"},{"town":"中原","koaza":"","lat":36.012773,"lng":140.042763,"zip":"3002403"},{"town":"中平柳","koaza":"","lat":35.939205,"lng":140.04387,"zip":"3002334"},{"town":"成瀬","koaza":"","lat":35.978779,"lng":140.018867,"zip":"3002423"},{"town":"仁左衛門新田","koaza":"","lat":36.037206,"lng":140.028275,"zip":"3002405"},{"town":"西楢戸","koaza":"","lat":35.995912,"lng":140.026037,"zip":"3002415"},{"town":"西ノ台","koaza":"","lat":35.990315,"lng":139.983867,"zip":"3002442"},{"town":"西ノ台南","koaza":"","lat":35.988229,"lng":139.985301,"zip":"3002443"},{"town":"西丸山","koaza":"","lat":35.994158,"lng":140.015743,"zip":"3002421"},{"town":"日川","koaza":"","lat":36.010481,"lng":140.018666,"zip":"3002412"},{"town":"野堀","koaza":"","lat":35.97442,"lng":140.080106,"zip":"3002311"},{"town":"東栗山","koaza":"","lat":35.957459,"lng":140.092504,"zip":"3002313"},{"town":"東楢戸","koaza":"","lat":35.989563,"lng":140.028192,"zip":"3002416"},{"town":"東楢戸西楢戸入会地","koaza":"","lat":35.994579,"lng":140.030752,"zip":"3002300"},{"town":"奉社","koaza":"","lat":35.983319,"lng":140.0282,"zip":"3002356"},{"town":"平沼","koaza":"","lat":35.971014,"lng":140.00067,"zip":"3002434"},{"town":"福岡","koaza":"","lat":36.027171,"lng":140.031408,"zip":"3002406"},{"town":"福岡台入会地","koaza":"","lat":36.031317,"lng":140.032423,"zip":"3002300"},{"town":"福田","koaza":"","lat":35.96398,"lng":140.035985,"zip":"3002341"},{"town":"福原","koaza":"","lat":35.962466,"lng":140.050979,"zip":"3002327"},{"town":"富士見ヶ丘一丁目","koaza":"","lat":36.004477,"lng":140.03144,"zip":"3002417"},{"town":"富士見ヶ丘二丁目","koaza":"","lat":35.998999,"lng":140.032776,"zip":"3002417"},{"town":"富士見ヶ丘三丁目","koaza":"","lat":35.999878,"lng":140.027338,"zip":"3002417"},{"town":"富士見ヶ丘四丁目","koaza":"","lat":36.003573,"lng":140.026193,"zip":"3002417"},{"town":"豊体","koaza":"","lat":35.967402,"lng":140.026243,"zip":"3002347"},{"town":"武兵衛新田","koaza":"","lat":35.974395,"lng":140.067936,"zip":"3002304"},{"town":"古川","koaza":"","lat":35.988712,"lng":140.016255,"zip":"3002422"},{"town":"細代","koaza":"","lat":35.998774,"lng":139.977347,"zip":"3002446"},{"town":"真木","koaza":"","lat":36.000953,"lng":140.020855,"zip":"3002414"},{"town":"狸穴","koaza":"","lat":35.991626,"lng":140.074606,"zip":"3002302"},{"town":"南","koaza":"","lat":36.018073,"lng":140.033667,"zip":"3002404"},{"town":"南太田","koaza":"","lat":35.969622,"lng":140.064696,"zip":"3002306"},{"town":"箕輪","koaza":"","lat":36.018543,"lng":140.00913,"zip":"3002451"},{"town":"宮戸","koaza":"","lat":35.996083,"lng":140.002583,"zip":"3002426"},{"town":"狸渕","koaza":"","lat":35.947538,"lng":140.031182,"zip":"3002343"},{"town":"谷井田","koaza":"","lat":35.954326,"lng":140.047403,"zip":"3002337"},{"town":"谷口","koaza":"","lat":35.986351,"lng":140.032575,"zip":"3002357"},{"town":"陽光台一丁目","koaza":"","lat":35.994725,"lng":140.039109,"zip":"3002358"},{"town":"陽光台二丁目","koaza":"","lat":35.997464,"lng":140.043084,"zip":"3002358"},{"town":"陽光台三丁目","koaza":"","lat":35.992632,"lng":140.041876,"zip":"3002358"},{"town":"陽光台四丁目","koaza":"","lat":35.994104,"lng":140.035516,"zip":"3002358"},{"town":"小絹","koaza":"東中宿","lat":35.98298,"lng":139.982093,"zip":"3002445"},{"town":"福岡工業団地","koaza":"","lat":null,"lng":null,"zip":null}]