[{"town":"青葉町","koaza":"","lat":36.386856,"lng":140.531597,"zip":"3120056"},{"town":"赤坂","koaza":"","lat":36.355013,"lng":140.597499,"zip":"3111241"},{"town":"浅井内","koaza":"","lat":36.349759,"lng":140.600521,"zip":"3111264"},{"town":"阿字ケ浦町","koaza":"","lat":36.391121,"lng":140.608914,"zip":"3111201"},{"town":"雨沢谷津","koaza":"","lat":36.358719,"lng":140.583963,"zip":"3111255"},{"town":"石川町","koaza":"","lat":36.390935,"lng":140.529503,"zip":"3120057"},{"town":"磯崎町","koaza":"","lat":36.376839,"lng":140.619333,"zip":"3111202"},{"town":"牛久保一丁目","koaza":"","lat":36.345872,"lng":140.60233,"zip":"3111213"},{"town":"牛久保二丁目","koaza":"","lat":36.348396,"lng":140.601321,"zip":"3111213"},{"town":"後野一丁目","koaza":"","lat":36.393742,"lng":140.558767,"zip":"3120014"},{"town":"後野二丁目","koaza":"","lat":36.39123,"lng":140.558706,"zip":"3120014"},{"town":"大字市毛","koaza":"","lat":36.398764,"lng":140.506742,"zip":"3120000"},{"town":"大字枝川","koaza":"","lat":36.383933,"lng":140.495179,"zip":"3120000"},{"town":"大字勝倉","koaza":"","lat":36.375687,"lng":140.522641,"zip":"3120000"},{"town":"大字金上","koaza":"","lat":36.372818,"lng":140.538928,"zip":"3120000"},{"town":"大字後台","koaza":"","lat":36.418815,"lng":140.504174,"zip":"3120000"},{"town":"大字佐和","koaza":"","lat":36.44764,"lng":140.529742,"zip":"3120000"},{"town":"大字武田","koaza":"","lat":36.384812,"lng":140.517938,"zip":"3120000"},{"town":"大字田彦","koaza":"","lat":36.418231,"lng":140.515615,"zip":"3120000"},{"town":"大字足崎","koaza":"","lat":36.418294,"lng":140.565262,"zip":"3120000"},{"town":"大字津田","koaza":"","lat":36.405021,"lng":140.493834,"zip":"3120000"},{"town":"大字中根","koaza":"","lat":36.389362,"lng":140.556473,"zip":"3120000"},{"town":"大字東石川","koaza":"","lat":36.414592,"lng":140.534939,"zip":"3120000"},{"town":"大字堀口","koaza":"","lat":36.394236,"lng":140.51356,"zip":"3120000"},{"town":"大字前浜","koaza":"","lat":36.380939,"lng":140.57839,"zip":"3120000"},{"town":"大字馬渡","koaza":"","lat":36.396318,"lng":140.571285,"zip":"3120000"},{"town":"大字三反田","koaza":"","lat":36.364671,"lng":140.549197,"zip":"3120000"},{"town":"大平一丁目","koaza":"","lat":36.383353,"lng":140.537277,"zip":"3120023"},{"town":"大平二丁目","koaza":"","lat":36.380871,"lng":140.539133,"zip":"3120023"},{"town":"大平三丁目","koaza":"","lat":36.379133,"lng":140.537825,"zip":"3120023"},{"town":"大平四丁目","koaza":"","lat":36.381658,"lng":140.534044,"zip":"3120023"},{"town":"和尚塚","koaza":"","lat":36.355624,"lng":140.59989,"zip":"3111263"},{"town":"小貫山一丁目","koaza":"","lat":36.435011,"lng":140.543767,"zip":"3120007"},{"town":"小貫山二丁目","koaza":"","lat":36.431566,"lng":140.545609,"zip":"3120007"},{"town":"表町","koaza":"","lat":36.389918,"lng":140.527028,"zip":"3120047"},{"town":"海門町一丁目","koaza":"","lat":36.338518,"lng":140.592313,"zip":"3111222"},{"town":"海門町二丁目","koaza":"","lat":36.338133,"lng":140.587875,"zip":"3111222"},{"town":"鍛治屋窪","koaza":"","lat":36.352654,"lng":140.592537,"zip":"3120000"},{"town":"春日町","koaza":"","lat":36.38818,"lng":140.525512,"zip":"3120048"},{"town":"勝田泉町","koaza":"","lat":36.391724,"lng":140.52523,"zip":"3120046"},{"town":"勝田中央","koaza":"","lat":36.394704,"lng":140.528013,"zip":"3120045"},{"town":"勝田中原町","koaza":"","lat":36.392964,"lng":140.516954,"zip":"3120027"},{"town":"勝田本町","koaza":"","lat":36.391632,"lng":140.520945,"zip":"3120026"},{"town":"上野二丁目","koaza":"","lat":36.391914,"lng":140.556797,"zip":"3120013"},{"town":"烏ケ台","koaza":"","lat":36.366979,"lng":140.602549,"zip":"3111207"},{"town":"北神敷台","koaza":"","lat":36.355845,"lng":140.59416,"zip":"3111243"},{"town":"共栄町","koaza":"","lat":36.398171,"lng":140.526545,"zip":"3120043"},{"town":"国神前","koaza":"","lat":36.346677,"lng":140.578728,"zip":"3111236"},{"town":"小砂町一丁目","koaza":"","lat":36.385634,"lng":140.542901,"zip":"3120015"},{"town":"小谷金","koaza":"","lat":36.361961,"lng":140.587503,"zip":"3111253"},{"town":"西光地一丁目","koaza":"","lat":36.411225,"lng":140.530123,"zip":"3120058"},{"town":"西光地二丁目","koaza":"","lat":36.415675,"lng":140.531882,"zip":"3120058"},{"town":"西光地三丁目","koaza":"","lat":36.419967,"lng":140.53413,"zip":"3120058"},{"town":"幸町","koaza":"","lat":36.348095,"lng":140.587549,"zip":"3111226"},{"town":"栄町一丁目","koaza":"","lat":36.341458,"lng":140.582393,"zip":"3111223"},{"town":"栄町二丁目","koaza":"","lat":36.343412,"lng":140.580598,"zip":"3111223"},{"town":"笹野町一丁目","koaza":"","lat":36.395949,"lng":140.541367,"zip":"3120018"},{"town":"笹野町二丁目","koaza":"","lat":36.397101,"lng":140.544501,"zip":"3120018"},{"town":"笹野町三丁目","koaza":"","lat":36.397577,"lng":140.547295,"zip":"3120018"},{"town":"沢メキ","koaza":"","lat":36.352683,"lng":140.604964,"zip":"3111211"},{"town":"獅子前","koaza":"","lat":36.355074,"lng":140.582707,"zip":"3120000"},{"town":"四十発句","koaza":"","lat":36.353565,"lng":140.590066,"zip":"3111247"},{"town":"釈迦町","koaza":"","lat":36.344855,"lng":140.586718,"zip":"3111225"},{"town":"十三奉行","koaza":"","lat":36.364526,"lng":140.600027,"zip":"3111205"},{"town":"新光町","koaza":"","lat":36.395819,"lng":140.589949,"zip":"3120005"},{"town":"関戸","koaza":"","lat":36.347074,"lng":140.576944,"zip":"3111237"},{"town":"相金","koaza":"","lat":36.353423,"lng":140.585204,"zip":"3111246"},{"town":"相金町","koaza":"","lat":36.35166,"lng":140.586567,"zip":"3111246"},{"town":"外野一丁目","koaza":"","lat":36.405871,"lng":140.536707,"zip":"3120053"},{"town":"外野二丁目","koaza":"","lat":36.408983,"lng":140.535539,"zip":"3120053"},{"town":"大成町","koaza":"","lat":36.385903,"lng":140.537751,"zip":"3120055"},{"town":"館山","koaza":"","lat":36.349594,"lng":140.58782,"zip":"3111245"},{"town":"田中後","koaza":"","lat":36.349499,"lng":140.581475,"zip":"3111235"},{"town":"田宮原","koaza":"","lat":36.354424,"lng":140.590611,"zip":"3111248"},{"town":"津田東一丁目","koaza":"","lat":36.410932,"lng":140.505896,"zip":"3120036"},{"town":"津田東二丁目","koaza":"","lat":36.407933,"lng":140.506865,"zip":"3120036"},{"town":"津田東三丁目","koaza":"","lat":36.410698,"lng":140.502843,"zip":"3120036"},{"town":"津田東四丁目","koaza":"","lat":36.412818,"lng":140.502271,"zip":"3120036"},{"town":"鶴代","koaza":"","lat":36.358648,"lng":140.599312,"zip":"3111261"},{"town":"洞下町","koaza":"","lat":36.346232,"lng":140.588572,"zip":"3111227"},{"town":"堂端一丁目","koaza":"","lat":36.408852,"lng":140.528544,"zip":"3120051"},{"town":"堂端二丁目","koaza":"","lat":36.409681,"lng":140.527258,"zip":"3120051"},{"town":"道メキ","koaza":"","lat":36.355623,"lng":140.602279,"zip":"3111262"},{"town":"殿山町一丁目","koaza":"","lat":36.348349,"lng":140.606101,"zip":"3111212"},{"town":"殿山町二丁目","koaza":"","lat":36.350456,"lng":140.605109,"zip":"3111212"},{"town":"長堀町一丁目","koaza":"","lat":36.392044,"lng":140.53769,"zip":"3120017"},{"town":"長堀町二丁目","koaza":"","lat":36.392812,"lng":140.541083,"zip":"3120017"},{"town":"長堀町三丁目","koaza":"","lat":36.389494,"lng":140.542371,"zip":"3120017"},{"town":"ナメシ","koaza":"","lat":36.351873,"lng":140.603158,"zip":"3120000"},{"town":"新堤","koaza":"","lat":36.358078,"lng":140.586701,"zip":"3111254"},{"town":"西赤坂","koaza":"","lat":36.357512,"lng":140.595748,"zip":"3111242"},{"town":"西大島一丁目","koaza":"","lat":36.402314,"lng":140.523377,"zip":"3120041"},{"town":"西大島二丁目","koaza":"","lat":36.40627,"lng":140.527484,"zip":"3120041"},{"town":"西大島三丁目","koaza":"","lat":36.40744,"lng":140.524091,"zip":"3120041"},{"town":"西十三奉行","koaza":"","lat":36.367866,"lng":140.593017,"zip":"3111206"},{"town":"はしかべ一丁目","koaza":"","lat":36.407694,"lng":140.541066,"zip":"3120054"},{"town":"はしかべ二丁目","koaza":"","lat":36.410361,"lng":140.539321,"zip":"3120054"},{"town":"八幡町","koaza":"","lat":36.347023,"lng":140.591626,"zip":"3111228"},{"town":"東石川一丁目","koaza":"","lat":36.396257,"lng":140.530209,"zip":"3120052"},{"town":"東石川二丁目","koaza":"","lat":36.396693,"lng":140.534918,"zip":"3120052"},{"town":"東石川三丁目","koaza":"","lat":36.391591,"lng":140.533043,"zip":"3120052"},{"town":"東大島一丁目","koaza":"","lat":36.401197,"lng":140.528522,"zip":"3120042"},{"town":"東大島二丁目","koaza":"","lat":36.405722,"lng":140.530206,"zip":"3120042"},{"town":"東大島三丁目","koaza":"","lat":36.400825,"lng":140.533078,"zip":"3120042"},{"town":"東大島四丁目","koaza":"","lat":36.404173,"lng":140.53283,"zip":"3120042"},{"town":"東本町","koaza":"","lat":36.34442,"lng":140.595123,"zip":"3111215"},{"town":"平磯町","koaza":"","lat":36.365101,"lng":140.614718,"zip":"3111203"},{"town":"平磯遠原町","koaza":"","lat":36.36195,"lng":140.607702,"zip":"3111204"},{"town":"富士ノ上","koaza":"","lat":36.346621,"lng":140.598433,"zip":"3111218"},{"town":"船窪","koaza":"","lat":36.347937,"lng":140.59416,"zip":"3111266"},{"town":"部田野","koaza":"","lat":36.367971,"lng":140.579525,"zip":"3111252"},{"town":"堀川","koaza":"","lat":36.350384,"lng":140.578578,"zip":"3111233"},{"town":"松戸町一丁目","koaza":"","lat":36.393129,"lng":140.544731,"zip":"3120016"},{"town":"松戸町二丁目","koaza":"","lat":36.393401,"lng":140.547941,"zip":"3120016"},{"town":"松戸町三丁目","koaza":"","lat":36.389788,"lng":140.546384,"zip":"3120016"},{"town":"廻り目","koaza":"","lat":36.350774,"lng":140.596008,"zip":"3111267"},{"town":"美田多町","koaza":"","lat":36.352766,"lng":140.565729,"zip":"3111238"},{"town":"湊泉町","koaza":"","lat":36.345084,"lng":140.59292,"zip":"3111216"},{"town":"湊中央一丁目","koaza":"","lat":36.341472,"lng":140.589746,"zip":"3111229"},{"town":"湊中央二丁目","koaza":"","lat":36.343301,"lng":140.590504,"zip":"3111229"},{"town":"湊中原","koaza":"","lat":36.352127,"lng":140.598627,"zip":"3111268"},{"town":"湊本町","koaza":"","lat":36.340281,"lng":140.593997,"zip":"3111221"},{"town":"南神敷台","koaza":"","lat":36.351646,"lng":140.594194,"zip":"3111244"},{"town":"峰後","koaza":"","lat":36.348234,"lng":140.578789,"zip":"3111234"},{"town":"狢谷津","koaza":"","lat":36.34891,"lng":140.597551,"zip":"3111265"},{"town":"元町","koaza":"","lat":36.396541,"lng":140.526202,"zip":"3120044"},{"town":"柳が丘","koaza":"","lat":36.35306,"lng":140.573614,"zip":"3111232"},{"town":"柳沢","koaza":"","lat":36.358609,"lng":140.573814,"zip":"3111231"},{"town":"山崎","koaza":"","lat":36.379485,"lng":140.575167,"zip":"3111251"},{"town":"山ノ上町","koaza":"","lat":36.341852,"lng":140.585754,"zip":"3111224"},{"town":"和田町一丁目","koaza":"","lat":36.34393,"lng":140.597417,"zip":"3111214"},{"town":"和田町二丁目","koaza":"","lat":36.343883,"lng":140.600257,"zip":"3111214"},{"town":"和田町三丁目","koaza":"","lat":36.342106,"lng":140.599502,"zip":"3111214"},{"town":"大字稲田","koaza":"","lat":36.433088,"lng":140.524338,"zip":"3120000"},{"town":"稲田二丁目","koaza":"","lat":36.434153,"lng":140.537267,"zip":"3120061"},{"town":"高場四丁目","koaza":"","lat":36.431895,"lng":140.536103,"zip":"3120062"},{"town":"高場三丁目","koaza":"","lat":36.427066,"lng":140.534107,"zip":"3120062"},{"town":"高場二丁目","koaza":"","lat":36.425862,"lng":140.536733,"zip":"3120062"},{"town":"高場一丁目","koaza":"","lat":36.430873,"lng":140.538781,"zip":"3120062"},{"town":"大字高場","koaza":"","lat":36.418793,"lng":140.54252,"zip":"3120000"},{"town":"稲田一丁目","koaza":"","lat":36.433637,"lng":140.539749,"zip":"3120061"},{"town":"大字高野","koaza":"","lat":36.431162,"lng":140.55592,"zip":"3120000"},{"town":"高場五丁目","koaza":"","lat":36.431465,"lng":140.532463,"zip":"3120062"},{"town":"高場六丁目","koaza":"","lat":36.427605,"lng":140.531634,"zip":"3120062"},{"town":"大字長砂","koaza":"","lat":36.421292,"lng":140.593446,"zip":"3120000"}]