[{"town":"赤須","koaza":"","lat":36.207032,"lng":139.932719,"zip":"3040074"},{"town":"伊古立","koaza":"","lat":36.145853,"lng":139.982741,"zip":"3040803"},{"town":"石の宮","koaza":"","lat":36.195117,"lng":139.94559,"zip":"3040057"},{"town":"今泉","koaza":"","lat":36.177152,"lng":139.947034,"zip":"3040053"},{"town":"江","koaza":"","lat":36.234255,"lng":139.929416,"zip":"3040002"},{"town":"大木","koaza":"","lat":36.215825,"lng":139.957692,"zip":"3040004"},{"town":"大木新田","koaza":"","lat":36.217112,"lng":139.964015,"zip":"3040025"},{"town":"大園木","koaza":"","lat":36.154308,"lng":139.996703,"zip":"3040801"},{"town":"長萱","koaza":"","lat":36.148217,"lng":139.981931,"zip":"3040804"},{"town":"小島","koaza":"","lat":36.173896,"lng":139.967895,"zip":"3040051"},{"town":"小野子町一丁目","koaza":"","lat":36.181994,"lng":139.966062,"zip":"3040063"},{"town":"小野子町二丁目","koaza":"","lat":36.182416,"lng":139.967998,"zip":"3040063"},{"town":"数須","koaza":"","lat":36.214013,"lng":139.988186,"zip":"3040016"},{"town":"鎌庭","koaza":"","lat":36.152617,"lng":139.954141,"zip":"3040819"},{"town":"亀崎","koaza":"","lat":36.162058,"lng":139.991515,"zip":"3040050"},{"town":"加養","koaza":"","lat":36.169133,"lng":139.984793,"zip":"3040048"},{"town":"唐崎","koaza":"","lat":36.151764,"lng":139.982291,"zip":"3040805"},{"town":"北大宝","koaza":"","lat":36.21316,"lng":139.974341,"zip":"3040021"},{"town":"鬼怒","koaza":"","lat":36.153691,"lng":139.962444,"zip":"3040818"},{"town":"桐ケ瀬","koaza":"","lat":36.205863,"lng":139.92088,"zip":"3040073"},{"town":"鯨","koaza":"","lat":36.141093,"lng":139.996947,"zip":"3040802"},{"town":"黒駒","koaza":"","lat":36.218375,"lng":139.924924,"zip":"3040007"},{"town":"五箇","koaza":"","lat":36.140003,"lng":139.928125,"zip":"3040823"},{"town":"坂本新田","koaza":"","lat":36.192548,"lng":139.968688,"zip":"3040024"},{"town":"砂沼新田","koaza":"","lat":36.182008,"lng":139.954469,"zip":"3040055"},{"town":"下宮","koaza":"","lat":36.227067,"lng":139.98964,"zip":"3040013"},{"town":"尻手","koaza":"","lat":36.21418,"lng":139.919116,"zip":"3040071"},{"town":"柴","koaza":"","lat":36.213439,"lng":139.932525,"zip":"3040006"},{"town":"渋井","koaza":"","lat":36.210147,"lng":139.921931,"zip":"3040072"},{"town":"渋田","koaza":"","lat":36.149974,"lng":139.972818,"zip":"3040815"},{"town":"下木戸","koaza":"","lat":36.195364,"lng":139.951845,"zip":"3040028"},{"town":"下栗","koaza":"","lat":36.165975,"lng":139.95911,"zip":"3040811"},{"town":"下田","koaza":"","lat":36.21189,"lng":139.999217,"zip":"3040015"},{"town":"下妻乙","koaza":"","lat":36.183586,"lng":139.961689,"zip":"3040067"},{"town":"下妻甲","koaza":"","lat":36.185888,"lng":139.962501,"zip":"3040066"},{"town":"下妻丁","koaza":"","lat":36.17973,"lng":139.957081,"zip":"3040066"},{"town":"下妻丙","koaza":"","lat":36.190263,"lng":139.954837,"zip":"3040061"},{"town":"神明","koaza":"","lat":36.221874,"lng":139.970709,"zip":"3040011"},{"town":"関本下","koaza":"","lat":36.242207,"lng":139.93002,"zip":"3040003"},{"town":"宗道","koaza":"","lat":36.156136,"lng":139.976346,"zip":"3040814"},{"town":"高道祖","koaza":"","lat":36.191751,"lng":140.008726,"zip":"3040031"},{"town":"田下","koaza":"","lat":36.16651,"lng":139.967237,"zip":"3040812"},{"town":"田町一丁目","koaza":"","lat":36.187622,"lng":139.970422,"zip":"3040069"},{"town":"田町二丁目","koaza":"","lat":36.185724,"lng":139.97137,"zip":"3040069"},{"town":"筑波島","koaza":"","lat":36.205218,"lng":139.991504,"zip":"3040017"},{"town":"中居指","koaza":"","lat":36.177975,"lng":139.938468,"zip":"3040054"},{"town":"中郷","koaza":"","lat":36.226292,"lng":139.997535,"zip":"3040014"},{"town":"長塚","koaza":"","lat":36.188371,"lng":139.944159,"zip":"3040056"},{"town":"新堀","koaza":"","lat":36.167733,"lng":139.974263,"zip":"3040049"},{"town":"二本紀","koaza":"","lat":36.164253,"lng":139.948932,"zip":"3040052"},{"town":"羽子","koaza":"","lat":36.151317,"lng":139.966505,"zip":"3040817"},{"town":"原","koaza":"","lat":36.146332,"lng":139.967467,"zip":"3040816"},{"town":"半谷","koaza":"","lat":36.213347,"lng":139.944155,"zip":"3040005"},{"town":"比毛","koaza":"","lat":36.188118,"lng":139.995761,"zip":"3040032"},{"town":"肘谷","koaza":"","lat":36.172194,"lng":139.996307,"zip":"3040047"},{"town":"樋橋","koaza":"","lat":36.165987,"lng":140.000486,"zip":"3040046"},{"town":"平方","koaza":"","lat":36.227073,"lng":139.915198,"zip":"3040001"},{"town":"平沼","koaza":"","lat":36.195172,"lng":139.96928,"zip":"3040026"},{"town":"福田","koaza":"","lat":36.202604,"lng":139.964589,"zip":"3040027"},{"town":"袋畑","koaza":"","lat":36.180338,"lng":139.984074,"zip":"3040042"},{"town":"古沢","koaza":"","lat":36.181171,"lng":139.978288,"zip":"3040041"},{"town":"別府","koaza":"","lat":36.154464,"lng":139.943797,"zip":"3040821"},{"town":"本宿町一丁目","koaza":"","lat":36.186997,"lng":139.964246,"zip":"3040065"},{"town":"本宿町二丁目","koaza":"","lat":36.186599,"lng":139.968291,"zip":"3040065"},{"town":"本宗道","koaza":"","lat":36.159795,"lng":139.969752,"zip":"3040813"},{"town":"前河原","koaza":"","lat":36.200512,"lng":139.932741,"zip":"3040076"},{"town":"見田","koaza":"","lat":36.155229,"lng":139.984709,"zip":"3040806"},{"town":"皆葉","koaza":"","lat":36.14478,"lng":139.937073,"zip":"3040822"},{"town":"南原","koaza":"","lat":36.201952,"lng":139.943871,"zip":"3040075"},{"town":"村岡","koaza":"","lat":36.159179,"lng":139.92117,"zip":"3040824"},{"town":"本城町一丁目","koaza":"","lat":36.185501,"lng":139.965348,"zip":"3040064"},{"town":"本城町二丁目","koaza":"","lat":36.183823,"lng":139.96612,"zip":"3040064"},{"town":"本城町三丁目","koaza":"","lat":36.184976,"lng":139.969085,"zip":"3040064"},{"town":"柳原","koaza":"","lat":36.177402,"lng":140.007127,"zip":"3040044"},{"town":"谷田部","koaza":"","lat":36.179864,"lng":139.992523,"zip":"3040043"},{"town":"山尻","koaza":"","lat":36.176455,"lng":139.997659,"zip":"3040045"},{"town":"若柳乙","koaza":"","lat":36.22278,"lng":139.982549,"zip":"3040000"},{"town":"若柳甲","koaza":"","lat":36.217176,"lng":139.982588,"zip":"3040000"},{"town":"若柳丙","koaza":"","lat":36.227972,"lng":139.976149,"zip":"3040000"},{"town":"平川戸","koaza":"","lat":36.208376,"lng":139.984338,"zip":"3040018"},{"town":"大宝","koaza":"","lat":36.204041,"lng":139.975462,"zip":"3040022"},{"town":"大串","koaza":"","lat":36.194706,"lng":139.976822,"zip":"3040023"},{"town":"下妻戊","koaza":"","lat":36.184438,"lng":139.972994,"zip":"3040062"},{"town":"坂井","koaza":"","lat":36.193189,"lng":139.983585,"zip":"3040034"},{"town":"堀篭","koaza":"","lat":36.189028,"lng":139.985815,"zip":"3040033"},{"town":"横根","koaza":"","lat":36.199983,"lng":139.985434,"zip":"3040035"},{"town":"南原","koaza":"南原","lat":36.200725,"lng":139.94444,"zip":"3040075"},{"town":"下木戸","koaza":"三枚畑","lat":36.197504,"lng":139.955818,"zip":"3040028"},{"town":"大木","koaza":"稲荷山","lat":36.202505,"lng":139.956505,"zip":"3040004"},{"town":"高道祖","koaza":"西原","lat":36.189981,"lng":140.016079,"zip":"3040031"},{"town":"長塚","koaza":"乙","lat":36.195354,"lng":139.940984,"zip":"3040056"}]