[{"town":"大字奥山","koaza":"","lat":35.877466,"lng":140.167109,"zip":"3001600"},{"town":"大字押付新田","koaza":"","lat":35.865088,"lng":140.13727,"zip":"3001600"},{"town":"大字押戸","koaza":"","lat":35.880553,"lng":140.172221,"zip":"3001600"},{"town":"大字加納新田","koaza":"","lat":35.86639,"lng":140.20632,"zip":"3001600"},{"town":"大字上曽根","koaza":"","lat":35.871695,"lng":140.137366,"zip":"3001600"},{"town":"大字下井","koaza":"","lat":35.869365,"lng":140.148711,"zip":"3001600"},{"town":"大字下曽根","koaza":"","lat":35.870574,"lng":140.144436,"zip":"3001600"},{"town":"大字惣新田","koaza":"","lat":35.870523,"lng":140.19835,"zip":"3001600"},{"town":"大字大平","koaza":"","lat":35.877593,"lng":140.154737,"zip":"3001600"},{"town":"大字大房","koaza":"","lat":35.878232,"lng":140.183014,"zip":"3001600"},{"town":"大字立木","koaza":"","lat":35.870671,"lng":140.176569,"zip":"3001600"},{"town":"大字立崎","koaza":"","lat":35.860631,"lng":140.18745,"zip":"3001600"},{"town":"大字中田切","koaza":"","lat":35.863758,"lng":140.15752,"zip":"3001600"},{"town":"大字中谷","koaza":"","lat":35.858675,"lng":140.179768,"zip":"3001600"},{"town":"大字八幡台","koaza":"","lat":35.858729,"lng":140.142683,"zip":"3001600"},{"town":"大字羽中","koaza":"","lat":35.858867,"lng":140.163971,"zip":"3001600"},{"town":"大字羽根野","koaza":"","lat":35.87807,"lng":140.134203,"zip":"3001600"},{"town":"大字早尾","koaza":"","lat":35.876424,"lng":140.146537,"zip":"3001600"},{"town":"大字東奥山新田","koaza":"","lat":35.86387,"lng":140.21055,"zip":"3001600"},{"town":"大字布川","koaza":"","lat":35.85503,"lng":140.144215,"zip":"3001600"},{"town":"大字福木","koaza":"","lat":35.858713,"lng":140.171815,"zip":"3001600"},{"town":"大字横須賀","koaza":"","lat":35.871883,"lng":140.159729,"zip":"3001600"},{"town":"四季の丘一丁目","koaza":"","lat":35.857885,"lng":140.14961,"zip":"3001626"},{"town":"四季の丘二丁目","koaza":"","lat":35.851586,"lng":140.148296,"zip":"3001626"},{"town":"もえぎ野台一丁目","koaza":"","lat":35.877201,"lng":140.159099,"zip":"3001606"},{"town":"もえぎ野台二丁目","koaza":"","lat":35.875604,"lng":140.158112,"zip":"3001606"},{"town":"もえぎ野台三丁目","koaza":"","lat":35.878257,"lng":140.161641,"zip":"3001606"},{"town":"もえぎ野台四丁目","koaza":"","lat":35.875701,"lng":140.162095,"zip":"3001606"},{"town":"もえぎ野台五丁目","koaza":"","lat":35.875903,"lng":140.164334,"zip":"3001606"}]