[{"town":"青柳","koaza":"","lat":35.897057,"lng":140.084797,"zip":"3020006"},{"town":"青柳一丁目","koaza":"","lat":35.895042,"lng":140.078489,"zip":"3020006"},{"town":"市之代","koaza":"","lat":35.947059,"lng":140.024658,"zip":"3020037"},{"town":"稲","koaza":"","lat":35.90486,"lng":140.035434,"zip":"3020026"},{"town":"井野","koaza":"","lat":35.90224,"lng":140.079614,"zip":"3020011"},{"town":"井野一丁目","koaza":"","lat":35.898999,"lng":140.071696,"zip":"3020011"},{"town":"井野二丁目","koaza":"","lat":35.901316,"lng":140.075864,"zip":"3020011"},{"town":"井野三丁目","koaza":"","lat":35.89548,"lng":140.076595,"zip":"3020011"},{"town":"井野台一丁目","koaza":"","lat":35.901815,"lng":140.067667,"zip":"3020015"},{"town":"井野台二丁目","koaza":"","lat":35.904306,"lng":140.069023,"zip":"3020015"},{"town":"井野台三丁目","koaza":"","lat":35.906971,"lng":140.064568,"zip":"3020015"},{"town":"井野台四丁目","koaza":"","lat":35.907986,"lng":140.067555,"zip":"3020015"},{"town":"井野台五丁目","koaza":"","lat":35.910292,"lng":140.066058,"zip":"3020015"},{"town":"井野団地","koaza":"","lat":35.897345,"lng":140.074044,"zip":"3020012"},{"town":"大留","koaza":"","lat":35.894295,"lng":140.14362,"zip":"3001523"},{"town":"小堀","koaza":"","lat":35.880351,"lng":140.077221,"zip":"3020003"},{"town":"大曲","koaza":"","lat":35.928966,"lng":140.1179,"zip":"3001503"},{"town":"岡","koaza":"","lat":35.926739,"lng":140.05327,"zip":"3001546"},{"town":"押切","koaza":"","lat":35.910079,"lng":140.131686,"zip":"3001521"},{"town":"小文間","koaza":"","lat":35.885423,"lng":140.109885,"zip":"3020001"},{"town":"貝塚","koaza":"","lat":35.941141,"lng":140.022089,"zip":"3020036"},{"town":"神住","koaza":"","lat":35.939153,"lng":140.082179,"zip":"3001542"},{"town":"片町","koaza":"","lat":35.922359,"lng":140.11724,"zip":"3001513"},{"town":"上萱場","koaza":"","lat":35.938614,"lng":140.105077,"zip":"3001506"},{"town":"上高井","koaza":"","lat":35.93375,"lng":140.021067,"zip":"3020035"},{"town":"萱場","koaza":"","lat":35.931888,"lng":140.114748,"zip":"3001504"},{"town":"神浦","koaza":"","lat":35.891859,"lng":140.128694,"zip":"3001524"},{"town":"椚木","koaza":"","lat":35.92725,"lng":140.097165,"zip":"3001511"},{"town":"桑原","koaza":"","lat":35.912254,"lng":140.078319,"zip":"3020017"},{"town":"毛有","koaza":"","lat":35.91309,"lng":140.086581,"zip":"3001537"},{"town":"小泉","koaza":"","lat":35.898995,"lng":140.093775,"zip":"3001539"},{"town":"光風台一丁目","koaza":"","lat":35.908377,"lng":140.091571,"zip":"3001536"},{"town":"光風台二丁目","koaza":"","lat":35.906491,"lng":140.092969,"zip":"3001536"},{"town":"光風台三丁目","koaza":"","lat":35.904477,"lng":140.093639,"zip":"3001536"},{"town":"小浮気","koaza":"","lat":35.919758,"lng":140.098176,"zip":"3001531"},{"town":"駒場一丁目","koaza":"","lat":35.914313,"lng":140.055243,"zip":"3020027"},{"town":"駒場二丁目","koaza":"","lat":35.917633,"lng":140.055244,"zip":"3020027"},{"town":"駒場三丁目","koaza":"","lat":35.918188,"lng":140.051525,"zip":"3020027"},{"town":"駒場四丁目","koaza":"","lat":35.914588,"lng":140.051148,"zip":"3020027"},{"town":"米ノ井","koaza":"","lat":35.919669,"lng":140.02297,"zip":"3020033"},{"town":"桜が丘一丁目","koaza":"","lat":35.906799,"lng":140.123026,"zip":"3001525"},{"town":"桜が丘二丁目","koaza":"","lat":35.903246,"lng":140.125078,"zip":"3001525"},{"town":"桜が丘三丁目","koaza":"","lat":35.900693,"lng":140.126983,"zip":"3001525"},{"town":"桜が丘四丁目","koaza":"","lat":35.897507,"lng":140.127214,"zip":"3001525"},{"town":"山王","koaza":"","lat":35.929166,"lng":140.077024,"zip":"3001544"},{"town":"紫水一丁目","koaza":"","lat":35.937298,"lng":140.093072,"zip":"3001508"},{"town":"紫水二丁目","koaza":"","lat":35.936024,"lng":140.096975,"zip":"3001508"},{"town":"紫水三丁目","koaza":"","lat":35.934466,"lng":140.098957,"zip":"3001508"},{"town":"渋沼","koaza":"","lat":35.901388,"lng":140.118166,"zip":"3001534"},{"town":"清水","koaza":"","lat":35.907563,"lng":140.09716,"zip":"3001535"},{"town":"下萱場","koaza":"","lat":35.936796,"lng":140.114121,"zip":"3001505"},{"town":"下高井","koaza":"","lat":35.931324,"lng":140.03522,"zip":"3020038"},{"town":"新川","koaza":"","lat":35.934119,"lng":140.126609,"zip":"3001502"},{"town":"新取手一丁目","koaza":"","lat":35.917601,"lng":140.046178,"zip":"3020031"},{"town":"新取手二丁目","koaza":"","lat":35.919179,"lng":140.045052,"zip":"3020031"},{"town":"新取手三丁目","koaza":"","lat":35.920399,"lng":140.044546,"zip":"3020031"},{"town":"新取手四丁目","koaza":"","lat":35.91838,"lng":140.049217,"zip":"3020031"},{"town":"新取手五丁目","koaza":"","lat":35.921011,"lng":140.050793,"zip":"3020031"},{"town":"新町一丁目","koaza":"","lat":35.893077,"lng":140.05923,"zip":"3020024"},{"town":"新町二丁目","koaza":"","lat":35.898278,"lng":140.062476,"zip":"3020024"},{"town":"新町三丁目","koaza":"","lat":35.898937,"lng":140.058557,"zip":"3020024"},{"town":"新町四丁目","koaza":"","lat":35.89694,"lng":140.057557,"zip":"3020024"},{"town":"新町五丁目","koaza":"","lat":35.898673,"lng":140.053064,"zip":"3020024"},{"town":"新町六丁目","koaza":"","lat":35.901935,"lng":140.054145,"zip":"3020024"},{"town":"台宿","koaza":"","lat":35.889276,"lng":140.076261,"zip":"3020013"},{"town":"台宿一丁目","koaza":"","lat":35.892713,"lng":140.068744,"zip":"3020013"},{"town":"台宿二丁目","koaza":"","lat":35.896503,"lng":140.068359,"zip":"3020013"},{"town":"高須","koaza":"","lat":35.902225,"lng":140.140447,"zip":"3001522"},{"town":"中央町","koaza":"","lat":35.895282,"lng":140.062709,"zip":"3020014"},{"town":"長兵衛新田","koaza":"","lat":35.890857,"lng":140.092308,"zip":"3020002"},{"town":"寺田","koaza":"","lat":35.91762,"lng":140.068681,"zip":"3020021"},{"town":"戸頭","koaza":"","lat":35.915356,"lng":140.009029,"zip":"3020034"},{"town":"戸頭一丁目","koaza":"","lat":35.9186,"lng":140.012253,"zip":"3020034"},{"town":"戸頭二丁目","koaza":"","lat":35.922877,"lng":140.018137,"zip":"3020034"},{"town":"戸頭三丁目","koaza":"","lat":35.92168,"lng":140.015063,"zip":"3020034"},{"town":"戸頭四丁目","koaza":"","lat":35.92642,"lng":140.014879,"zip":"3020034"},{"town":"戸頭五丁目","koaza":"","lat":35.929209,"lng":140.013078,"zip":"3020034"},{"town":"戸頭六丁目","koaza":"","lat":35.92686,"lng":140.011028,"zip":"3020034"},{"town":"戸頭七丁目","koaza":"","lat":35.921781,"lng":140.01105,"zip":"3020034"},{"town":"戸頭八丁目","koaza":"","lat":35.92416,"lng":140.007989,"zip":"3020034"},{"town":"戸頭九丁目","koaza":"","lat":35.92876,"lng":140.007284,"zip":"3020034"},{"town":"取手","koaza":"","lat":35.883116,"lng":140.069077,"zip":"3020004"},{"town":"取手一丁目","koaza":"","lat":35.890625,"lng":140.063174,"zip":"3020004"},{"town":"取手二丁目","koaza":"","lat":35.892992,"lng":140.064639,"zip":"3020004"},{"town":"取手三丁目","koaza":"","lat":35.895338,"lng":140.064613,"zip":"3020004"},{"town":"中内","koaza":"","lat":35.93016,"lng":140.087858,"zip":"3001543"},{"town":"中田","koaza":"","lat":35.905567,"lng":140.110325,"zip":"3001533"},{"town":"中原町","koaza":"","lat":35.904633,"lng":140.064053,"zip":"3020016"},{"town":"西一丁目","koaza":"","lat":35.9019,"lng":140.046076,"zip":"3020025"},{"town":"西二丁目","koaza":"","lat":35.90541,"lng":140.050277,"zip":"3020025"},{"town":"野々井","koaza":"","lat":35.914943,"lng":140.031101,"zip":"3020032"},{"town":"配松","koaza":"","lat":35.939295,"lng":140.072815,"zip":"3001541"},{"town":"白山一丁目","koaza":"","lat":35.900353,"lng":140.064085,"zip":"3020023"},{"town":"白山二丁目","koaza":"","lat":35.90124,"lng":140.060192,"zip":"3020023"},{"town":"白山三丁目","koaza":"","lat":35.902395,"lng":140.063071,"zip":"3020023"},{"town":"白山四丁目","koaza":"","lat":35.904026,"lng":140.062853,"zip":"3020023"},{"town":"白山五丁目","koaza":"","lat":35.907797,"lng":140.058236,"zip":"3020023"},{"town":"白山六丁目","koaza":"","lat":35.902618,"lng":140.056701,"zip":"3020023"},{"town":"白山七丁目","koaza":"","lat":35.903113,"lng":140.051988,"zip":"3020023"},{"town":"白山八丁目","koaza":"","lat":35.907997,"lng":140.054552,"zip":"3020023"},{"town":"浜田","koaza":"","lat":35.940215,"lng":140.094705,"zip":"3001507"},{"town":"東一丁目","koaza":"","lat":35.889046,"lng":140.067262,"zip":"3020005"},{"town":"東二丁目","koaza":"","lat":35.890384,"lng":140.068428,"zip":"3020005"},{"town":"東三丁目","koaza":"","lat":35.888071,"lng":140.07397,"zip":"3020005"},{"town":"東四丁目","koaza":"","lat":35.889675,"lng":140.074168,"zip":"3020005"},{"town":"東五丁目","koaza":"","lat":35.890862,"lng":140.071311,"zip":"3020005"},{"town":"東六丁目","koaza":"","lat":35.892163,"lng":140.075496,"zip":"3020005"},{"town":"平野","koaza":"","lat":35.914357,"lng":140.128219,"zip":"3001515"},{"town":"藤代","koaza":"","lat":35.920506,"lng":140.111643,"zip":"3001512"},{"town":"藤代南一丁目","koaza":"","lat":35.918713,"lng":140.117011,"zip":"3001516"},{"town":"藤代南二丁目","koaza":"","lat":35.916724,"lng":140.118951,"zip":"3001516"},{"town":"藤代南三丁目","koaza":"","lat":35.914668,"lng":140.121874,"zip":"3001516"},{"town":"双葉一丁目","koaza":"","lat":35.936117,"lng":140.119457,"zip":"3001501"},{"town":"双葉二丁目","koaza":"","lat":35.937385,"lng":140.121203,"zip":"3001501"},{"town":"双葉三丁目","koaza":"","lat":35.938258,"lng":140.122933,"zip":"3001501"},{"town":"本郷一丁目","koaza":"","lat":35.909392,"lng":140.060453,"zip":"3020022"},{"town":"本郷二丁目","koaza":"","lat":35.911392,"lng":140.066346,"zip":"3020022"},{"town":"本郷三丁目","koaza":"","lat":35.913682,"lng":140.062901,"zip":"3020022"},{"town":"本郷四丁目","koaza":"","lat":35.914594,"lng":140.059146,"zip":"3020022"},{"town":"本郷五丁目","koaza":"","lat":35.91128,"lng":140.057638,"zip":"3020022"},{"town":"宮和田","koaza":"","lat":35.918251,"lng":140.12299,"zip":"3001514"},{"town":"谷中","koaza":"","lat":35.916546,"lng":140.103533,"zip":"3001532"},{"town":"ゆめみ野一丁目","koaza":"","lat":35.921313,"lng":140.036095,"zip":"3020039"},{"town":"ゆめみ野二丁目","koaza":"","lat":35.925796,"lng":140.037203,"zip":"3020039"},{"town":"ゆめみ野三丁目","koaza":"","lat":35.926646,"lng":140.041115,"zip":"3020039"},{"town":"ゆめみ野四丁目","koaza":"","lat":35.922546,"lng":140.041716,"zip":"3020039"},{"town":"ゆめみ野五丁目","koaza":"","lat":35.921717,"lng":140.045164,"zip":"3020039"},{"town":"吉田","koaza":"","lat":35.891175,"lng":140.086715,"zip":"3020007"},{"town":"米田","koaza":"","lat":35.910511,"lng":140.101859,"zip":"3001538"},{"town":"和田","koaza":"","lat":35.92817,"lng":140.062462,"zip":"3001545"},{"town":"戸頭","koaza":"長町","lat":35.919796,"lng":140.004885,"zip":"3020034"},{"town":"谷中","koaza":"中道","lat":35.917911,"lng":140.104773,"zip":"3001532"}]