[{"town":"旭町一丁目","koaza":"","lat":36.197117,"lng":139.72136,"zip":"3060012"},{"town":"旭町二丁目","koaza":"","lat":36.1972,"lng":139.726091,"zip":"3060012"},{"town":"新久田","koaza":"","lat":36.169551,"lng":139.699423,"zip":"3060044"},{"town":"砂井新田","koaza":"","lat":36.160691,"lng":139.727516,"zip":"3060224"},{"town":"磯部","koaza":"","lat":36.165322,"lng":139.741191,"zip":"3060225"},{"town":"稲宮","koaza":"","lat":36.191416,"lng":139.779226,"zip":"3060202"},{"town":"江口","koaza":"","lat":36.181629,"lng":139.834024,"zip":"3060105"},{"town":"大堤","koaza":"","lat":36.177312,"lng":139.717586,"zip":"3060236"},{"town":"大手町","koaza":"","lat":36.197359,"lng":139.700781,"zip":"3060032"},{"town":"大山","koaza":"","lat":36.146518,"lng":139.72291,"zip":"3060052"},{"town":"大和田","koaza":"","lat":36.190438,"lng":139.791133,"zip":"3060111"},{"town":"丘里","koaza":"","lat":36.198978,"lng":139.755017,"zip":"3060206"},{"town":"尾崎","koaza":"","lat":36.200969,"lng":139.842914,"zip":"3060101"},{"town":"女沼","koaza":"","lat":36.179011,"lng":139.741247,"zip":"3060226"},{"town":"恩名","koaza":"","lat":36.167436,"lng":139.845455,"zip":"3060104"},{"town":"葛生","koaza":"","lat":36.161089,"lng":139.79013,"zip":"3060211"},{"town":"上砂井","koaza":"","lat":36.15441,"lng":139.730271,"zip":"3060223"},{"town":"上大野","koaza":"","lat":36.21193,"lng":139.782411,"zip":"3060201"},{"town":"上辺見","koaza":"","lat":36.187543,"lng":139.733495,"zip":"3060234"},{"town":"上和田","koaza":"","lat":36.225427,"lng":139.814418,"zip":"3060122"},{"town":"北利根","koaza":"","lat":36.152728,"lng":139.766941,"zip":"3060213"},{"town":"北町","koaza":"","lat":36.203026,"lng":139.715746,"zip":"3060005"},{"town":"北間中橋","koaza":"","lat":36.201128,"lng":139.856914,"zip":"3060106"},{"town":"北山田","koaza":"","lat":36.174548,"lng":139.797462,"zip":"3060115"},{"town":"久能","koaza":"","lat":36.159599,"lng":139.773109,"zip":"3060212"},{"town":"けやき平一丁目","koaza":"","lat":36.162567,"lng":139.710468,"zip":"3060055"},{"town":"けやき平二丁目","koaza":"","lat":36.161217,"lng":139.712572,"zip":"3060055"},{"town":"鴻巣","koaza":"","lat":36.174461,"lng":139.707849,"zip":"3060041"},{"town":"高野","koaza":"","lat":36.143033,"lng":139.774241,"zip":"3060214"},{"town":"古河","koaza":"","lat":36.195124,"lng":139.692996,"zip":"3060016"},{"town":"小堤","koaza":"","lat":36.212249,"lng":139.763532,"zip":"3060231"},{"town":"五部","koaza":"","lat":36.208372,"lng":139.816169,"zip":"3060123"},{"town":"駒ケ崎","koaza":"","lat":36.173428,"lng":139.700142,"zip":"3060045"},{"town":"駒込","koaza":"","lat":36.226669,"lng":139.80815,"zip":"3060121"},{"town":"駒羽根","koaza":"","lat":36.16651,"lng":139.758007,"zip":"3060221"},{"town":"幸町","koaza":"","lat":36.184212,"lng":139.71049,"zip":"3060024"},{"town":"坂間","koaza":"","lat":36.164447,"lng":139.708439,"zip":"3060056"},{"town":"桜町","koaza":"","lat":36.189954,"lng":139.697684,"zip":"3060036"},{"town":"三和","koaza":"","lat":36.164925,"lng":139.706254,"zip":"3060042"},{"town":"静町","koaza":"","lat":36.208312,"lng":139.717157,"zip":"3060001"},{"town":"下大野","koaza":"","lat":36.17811,"lng":139.76298,"zip":"3060204"},{"town":"下辺見","koaza":"","lat":36.172566,"lng":139.729154,"zip":"3060235"},{"town":"下山町","koaza":"","lat":36.18992,"lng":139.723825,"zip":"3060014"},{"town":"釈迦","koaza":"","lat":36.154419,"lng":139.752362,"zip":"3060222"},{"town":"新和田","koaza":"","lat":36.17778,"lng":139.790965,"zip":"3060116"},{"town":"関戸","koaza":"","lat":36.192344,"lng":139.759442,"zip":"3060205"},{"town":"立崎","koaza":"","lat":36.178912,"lng":139.692646,"zip":"3060047"},{"town":"茶屋新田","koaza":"","lat":36.16317,"lng":139.718977,"zip":"3060051"},{"town":"中央町一丁目","koaza":"","lat":36.195862,"lng":139.703442,"zip":"3060033"},{"town":"中央町二丁目","koaza":"","lat":36.193878,"lng":139.702826,"zip":"3060033"},{"town":"中央町三丁目","koaza":"","lat":36.191083,"lng":139.702321,"zip":"3060033"},{"town":"長左エ門新田","koaza":"","lat":36.15306,"lng":139.847402,"zip":"3060103"},{"town":"常盤町","koaza":"","lat":36.205289,"lng":139.714068,"zip":"3060007"},{"town":"鳥喰","koaza":"","lat":36.162306,"lng":139.700258,"zip":"3060043"},{"town":"中田","koaza":"","lat":36.144816,"lng":139.710968,"zip":"3060053"},{"town":"中田新田","koaza":"","lat":36.155304,"lng":139.700546,"zip":"3060054"},{"town":"名崎","koaza":"","lat":36.180072,"lng":139.846085,"zip":"3060110"},{"town":"西牛谷","koaza":"","lat":36.20122,"lng":139.736748,"zip":"3060233"},{"town":"錦町","koaza":"","lat":36.193757,"lng":139.69785,"zip":"3060037"},{"town":"西町","koaza":"","lat":36.19709,"lng":139.697353,"zip":"3060038"},{"town":"西間中橋","koaza":"","lat":36.189122,"lng":139.857117,"zip":"3060109"},{"town":"仁連","koaza":"","lat":36.183944,"lng":139.815816,"zip":"3060125"},{"town":"長谷","koaza":"","lat":36.185019,"lng":139.699158,"zip":"3060035"},{"town":"長谷町","koaza":"","lat":36.18557,"lng":139.702305,"zip":"3060034"},{"town":"原","koaza":"","lat":36.178585,"lng":139.713273,"zip":"3060026"},{"town":"原町","koaza":"","lat":36.184178,"lng":139.706743,"zip":"3060025"},{"town":"東一丁目","koaza":"","lat":36.196212,"lng":139.711703,"zip":"3060011"},{"town":"東二丁目","koaza":"","lat":36.198886,"lng":139.709972,"zip":"3060011"},{"town":"東三丁目","koaza":"","lat":36.196406,"lng":139.714914,"zip":"3060011"},{"town":"東四丁目","koaza":"","lat":36.196568,"lng":139.717664,"zip":"3060011"},{"town":"東牛谷","koaza":"","lat":36.205386,"lng":139.748248,"zip":"3060232"},{"town":"東本町一丁目","koaza":"","lat":36.193571,"lng":139.712088,"zip":"3060013"},{"town":"東本町二丁目","koaza":"","lat":36.193612,"lng":139.716588,"zip":"3060013"},{"town":"東本町三丁目","koaza":"","lat":36.193205,"lng":139.720947,"zip":"3060013"},{"town":"東本町四丁目","koaza":"","lat":36.192071,"lng":139.725653,"zip":"3060013"},{"town":"東間中橋","koaza":"","lat":36.193104,"lng":139.862999,"zip":"3060107"},{"town":"東諸川","koaza":"","lat":36.195409,"lng":139.82873,"zip":"3060124"},{"town":"東山田","koaza":"","lat":36.16265,"lng":139.823621,"zip":"3060112"},{"town":"平和町","koaza":"","lat":36.202909,"lng":139.711704,"zip":"3060006"},{"town":"本町一丁目","koaza":"","lat":36.196759,"lng":139.707398,"zip":"3060023"},{"town":"本町二丁目","koaza":"","lat":36.192408,"lng":139.706641,"zip":"3060023"},{"town":"本町三丁目","koaza":"","lat":36.188438,"lng":139.706156,"zip":"3060023"},{"town":"本町四丁目","koaza":"","lat":36.191226,"lng":139.709074,"zip":"3060023"},{"town":"前林","koaza":"","lat":36.144845,"lng":139.739295,"zip":"3060216"},{"town":"牧野地","koaza":"","lat":36.180818,"lng":139.698795,"zip":"3060046"},{"town":"松並一丁目","koaza":"","lat":36.204028,"lng":139.709063,"zip":"3060021"},{"town":"松並二丁目","koaza":"","lat":36.207887,"lng":139.7113,"zip":"3060021"},{"town":"水海","koaza":"","lat":36.138158,"lng":139.754532,"zip":"3060215"},{"town":"三杉町一丁目","koaza":"","lat":36.200367,"lng":139.72193,"zip":"3060002"},{"town":"三杉町二丁目","koaza":"","lat":36.204825,"lng":139.719765,"zip":"3060002"},{"town":"緑町","koaza":"","lat":36.203865,"lng":139.724237,"zip":"3060003"},{"town":"南町","koaza":"","lat":36.188377,"lng":139.71991,"zip":"3060015"},{"town":"南間中橋","koaza":"","lat":36.185307,"lng":139.857379,"zip":"3060108"},{"town":"宮前町","koaza":"","lat":36.201654,"lng":139.699699,"zip":"3060031"},{"town":"諸川","koaza":"","lat":36.205172,"lng":139.80829,"zip":"3060126"},{"town":"谷貝","koaza":"","lat":36.1467,"lng":139.812344,"zip":"3060113"},{"town":"柳橋","koaza":"","lat":36.174293,"lng":139.78119,"zip":"3060203"},{"town":"山田","koaza":"","lat":36.166015,"lng":139.803191,"zip":"3060114"},{"town":"横山町一丁目","koaza":"","lat":36.197821,"lng":139.704347,"zip":"3060022"},{"town":"横山町二丁目","koaza":"","lat":36.200256,"lng":139.706847,"zip":"3060022"},{"town":"横山町三丁目","koaza":"","lat":36.201486,"lng":139.704695,"zip":"3060022"},{"town":"雷電町","koaza":"","lat":36.200588,"lng":139.715479,"zip":"3060004"},{"town":"上片田","koaza":"","lat":36.223549,"lng":139.79558,"zip":"3060128"},{"town":"下片田","koaza":"","lat":36.205715,"lng":139.799107,"zip":"3060127"},{"town":"中田","koaza":"小山","lat":36.151099,"lng":139.714976,"zip":"3060053"},{"town":"西牛谷","koaza":"北の前","lat":36.201732,"lng":139.736526,"zip":"3060233"},{"town":"小堤","koaza":"下宿","lat":36.206939,"lng":139.76445,"zip":"3060231"},{"town":"諸川","koaza":"明神下","lat":36.20233,"lng":139.806393,"zip":"3060126"},{"town":"坂間","koaza":"四ツ塚","lat":36.165105,"lng":139.708518,"zip":"3060056"}]