[{"town":"天川一丁目","koaza":"","lat":36.065893,"lng":140.174972,"zip":"3000818"},{"town":"天川二丁目","koaza":"","lat":36.069595,"lng":140.172852,"zip":"3000818"},{"town":"荒川沖","koaza":"","lat":36.025427,"lng":140.157138,"zip":"3000873"},{"town":"荒川沖西一丁目","koaza":"","lat":36.034454,"lng":140.163664,"zip":"3000874"},{"town":"荒川沖西二丁目","koaza":"","lat":36.028298,"lng":140.162749,"zip":"3000874"},{"town":"荒川沖東一丁目","koaza":"","lat":36.03368,"lng":140.169773,"zip":"3000871"},{"town":"荒川沖東二丁目","koaza":"","lat":36.02966,"lng":140.169894,"zip":"3000871"},{"town":"荒川沖東三丁目","koaza":"","lat":36.023482,"lng":140.166378,"zip":"3000871"},{"town":"荒川本郷","koaza":"","lat":36.016735,"lng":140.156627,"zip":"3000877"},{"town":"有明町","koaza":"","lat":36.077463,"lng":140.2063,"zip":"3000035"},{"town":"粟野町","koaza":"","lat":36.145481,"lng":140.199561,"zip":"3000002"},{"town":"飯田","koaza":"","lat":36.097226,"lng":140.164757,"zip":"3000802"},{"town":"生田町","koaza":"","lat":36.081384,"lng":140.187706,"zip":"3000047"},{"town":"板谷一丁目","koaza":"","lat":36.11247,"lng":140.201565,"zip":"3000007"},{"town":"板谷二丁目","koaza":"","lat":36.113937,"lng":140.195929,"zip":"3000007"},{"town":"板谷三丁目","koaza":"","lat":36.117191,"lng":140.194698,"zip":"3000007"},{"town":"板谷四丁目","koaza":"","lat":36.117479,"lng":140.199033,"zip":"3000007"},{"town":"板谷五丁目","koaza":"","lat":36.117032,"lng":140.203321,"zip":"3000007"},{"town":"板谷六丁目","koaza":"","lat":36.113953,"lng":140.205944,"zip":"3000007"},{"town":"板谷七丁目","koaza":"","lat":36.113436,"lng":140.211276,"zip":"3000007"},{"town":"今泉","koaza":"","lat":36.143921,"lng":140.188925,"zip":"3000001"},{"town":"大岩田","koaza":"","lat":36.060163,"lng":140.212359,"zip":"3000835"},{"town":"大志戸","koaza":"","lat":36.153488,"lng":140.166369,"zip":"3004103"},{"town":"おおつ野一丁目","koaza":"","lat":36.093089,"lng":140.254283,"zip":"3000028"},{"town":"おおつ野二丁目","koaza":"","lat":36.087555,"lng":140.256627,"zip":"3000028"},{"town":"おおつ野三丁目","koaza":"","lat":36.084584,"lng":140.261397,"zip":"3000028"},{"town":"おおつ野四丁目","koaza":"","lat":36.083179,"lng":140.26114,"zip":"3000028"},{"town":"おおつ野五丁目","koaza":"","lat":36.082786,"lng":140.255967,"zip":"3000028"},{"town":"おおつ野六丁目","koaza":"","lat":36.083057,"lng":140.252886,"zip":"3000028"},{"town":"おおつ野七丁目","koaza":"","lat":36.086378,"lng":140.254525,"zip":"3000028"},{"town":"おおつ野八丁目","koaza":"","lat":36.091939,"lng":140.253552,"zip":"3000028"},{"town":"大手町","koaza":"","lat":36.082646,"lng":140.195844,"zip":"3000044"},{"town":"大畑","koaza":"","lat":36.130602,"lng":140.169731,"zip":"3004111"},{"town":"大町","koaza":"","lat":36.07972,"lng":140.193307,"zip":"3000038"},{"town":"沖宿町","koaza":"","lat":36.075299,"lng":140.256579,"zip":"3000023"},{"town":"沖新田","koaza":"","lat":36.021889,"lng":140.162707,"zip":"3000872"},{"town":"小高","koaza":"","lat":36.147841,"lng":140.14621,"zip":"3004106"},{"town":"乙戸","koaza":"","lat":36.035817,"lng":140.152158,"zip":"3000844"},{"town":"乙戸南一丁目","koaza":"","lat":36.028481,"lng":140.151787,"zip":"3000845"},{"town":"乙戸南二丁目","koaza":"","lat":36.03073,"lng":140.147642,"zip":"3000845"},{"town":"乙戸南三丁目","koaza":"","lat":36.032998,"lng":140.14562,"zip":"3000845"},{"town":"小野","koaza":"","lat":36.165788,"lng":140.164124,"zip":"3004108"},{"town":"小山田一丁目","koaza":"","lat":36.04157,"lng":140.14211,"zip":"3000846"},{"town":"小山田二丁目","koaza":"","lat":36.029381,"lng":140.144054,"zip":"3000846"},{"town":"卸町一丁目","koaza":"","lat":36.045116,"lng":140.148304,"zip":"3000847"},{"town":"卸町二丁目","koaza":"","lat":36.048318,"lng":140.147045,"zip":"3000847"},{"town":"笠師町","koaza":"","lat":36.123247,"lng":140.19244,"zip":"3000008"},{"town":"粕毛","koaza":"","lat":36.085393,"lng":140.171521,"zip":"3000804"},{"town":"霞ケ岡町","koaza":"","lat":36.061618,"lng":140.203714,"zip":"3000825"},{"town":"上坂田","koaza":"","lat":36.113595,"lng":140.16436,"zip":"3004114"},{"town":"上高津","koaza":"","lat":36.076263,"lng":140.171451,"zip":"3000811"},{"town":"上高津新町","koaza":"","lat":36.071874,"lng":140.175145,"zip":"3000819"},{"town":"烏山","koaza":"","lat":36.050465,"lng":140.196968,"zip":"3000836"},{"town":"烏山一丁目","koaza":"","lat":36.050528,"lng":140.200779,"zip":"3000836"},{"town":"烏山二丁目","koaza":"","lat":36.048906,"lng":140.205943,"zip":"3000836"},{"town":"烏山三丁目","koaza":"","lat":36.047954,"lng":140.197508,"zip":"3000836"},{"town":"烏山四丁目","koaza":"","lat":36.042348,"lng":140.199476,"zip":"3000836"},{"town":"烏山五丁目","koaza":"","lat":36.043301,"lng":140.194475,"zip":"3000836"},{"town":"川口一丁目","koaza":"","lat":36.081095,"lng":140.204379,"zip":"3000033"},{"town":"川口二丁目","koaza":"","lat":36.082584,"lng":140.211841,"zip":"3000033"},{"town":"神立中央一丁目","koaza":"","lat":36.119478,"lng":140.24596,"zip":"3000011"},{"town":"神立中央二丁目","koaza":"","lat":36.119109,"lng":140.242929,"zip":"3000011"},{"town":"神立中央三丁目","koaza":"","lat":36.120929,"lng":140.2382,"zip":"3000011"},{"town":"神立中央四丁目","koaza":"","lat":36.120897,"lng":140.233136,"zip":"3000011"},{"town":"神立中央五丁目","koaza":"","lat":36.121609,"lng":140.227243,"zip":"3000011"},{"town":"神立東一丁目","koaza":"","lat":36.116432,"lng":140.252318,"zip":"3000012"},{"town":"神立東二丁目","koaza":"","lat":36.114514,"lng":140.248974,"zip":"3000012"},{"town":"神立町","koaza":"","lat":36.109218,"lng":140.229949,"zip":"3000013"},{"town":"北荒川沖町","koaza":"","lat":36.037688,"lng":140.168088,"zip":"3000876"},{"town":"北神立町","koaza":"","lat":36.116075,"lng":140.228705,"zip":"3000015"},{"town":"木田余","koaza":"","lat":36.097709,"lng":140.215485,"zip":"3000026"},{"town":"木田余西台","koaza":"","lat":36.099226,"lng":140.210601,"zip":"3000056"},{"town":"木田余東台一丁目","koaza":"","lat":36.101571,"lng":140.221199,"zip":"3000027"},{"town":"木田余東台二丁目","koaza":"","lat":36.101935,"lng":140.217477,"zip":"3000027"},{"town":"木田余東台三丁目","koaza":"","lat":36.105744,"lng":140.217839,"zip":"3000027"},{"town":"木田余東台四丁目","koaza":"","lat":36.105031,"lng":140.221975,"zip":"3000027"},{"town":"木田余東台五丁目","koaza":"","lat":36.10435,"lng":140.226139,"zip":"3000027"},{"town":"小岩田西一丁目","koaza":"","lat":36.057749,"lng":140.193354,"zip":"3000833"},{"town":"小岩田西二丁目","koaza":"","lat":36.058149,"lng":140.188611,"zip":"3000833"},{"town":"小岩田東一丁目","koaza":"","lat":36.057291,"lng":140.197619,"zip":"3000834"},{"town":"小岩田東二丁目","koaza":"","lat":36.057183,"lng":140.200975,"zip":"3000834"},{"town":"国分町","koaza":"","lat":36.067867,"lng":140.190322,"zip":"3000814"},{"town":"湖北一丁目","koaza":"","lat":36.086812,"lng":140.211839,"zip":"3000032"},{"town":"湖北二丁目","koaza":"","lat":36.085944,"lng":140.215584,"zip":"3000032"},{"town":"小松一丁目","koaza":"","lat":36.069344,"lng":140.207086,"zip":"3000823"},{"town":"小松二丁目","koaza":"","lat":36.066532,"lng":140.198415,"zip":"3000823"},{"town":"小松三丁目","koaza":"","lat":36.066501,"lng":140.206036,"zip":"3000823"},{"town":"小松ケ丘町","koaza":"","lat":36.065914,"lng":140.195129,"zip":"3000826"},{"town":"小山崎","koaza":"","lat":36.133882,"lng":140.185128,"zip":"3000004"},{"town":"桜ケ丘町","koaza":"","lat":36.062359,"lng":140.19327,"zip":"3000832"},{"town":"桜町一丁目","koaza":"","lat":36.076588,"lng":140.20294,"zip":"3000037"},{"town":"桜町二丁目","koaza":"","lat":36.077659,"lng":140.199255,"zip":"3000037"},{"town":"桜町三丁目","koaza":"","lat":36.079417,"lng":140.200196,"zip":"3000037"},{"town":"桜町四丁目","koaza":"","lat":36.078464,"lng":140.195855,"zip":"3000037"},{"town":"佐野子","koaza":"","lat":36.091528,"lng":140.171814,"zip":"3000803"},{"town":"沢辺","koaza":"","lat":36.14667,"lng":140.157797,"zip":"3004104"},{"town":"宍塚","koaza":"","lat":36.080624,"lng":140.1644,"zip":"3000805"},{"town":"下坂田","koaza":"","lat":36.108483,"lng":140.170764,"zip":"3004113"},{"town":"下高津一丁目","koaza":"","lat":36.0727,"lng":140.195029,"zip":"3000812"},{"town":"下高津二丁目","koaza":"","lat":36.074199,"lng":140.190989,"zip":"3000812"},{"town":"下高津三丁目","koaza":"","lat":36.076371,"lng":140.186653,"zip":"3000812"},{"town":"下高津四丁目","koaza":"","lat":36.077454,"lng":140.18133,"zip":"3000812"},{"town":"城北町","koaza":"","lat":36.08599,"lng":140.203379,"zip":"3000042"},{"town":"白鳥町","koaza":"","lat":36.103837,"lng":140.254896,"zip":"3000022"},{"town":"菅谷町","koaza":"","lat":36.10465,"lng":140.273074,"zip":"3000021"},{"town":"千束町","koaza":"","lat":36.080967,"lng":140.190723,"zip":"3000046"},{"town":"高岡","koaza":"","lat":36.124838,"lng":140.140435,"zip":"3004117"},{"town":"滝田一丁目","koaza":"","lat":36.069145,"lng":140.215295,"zip":"3000839"},{"town":"滝田二丁目","koaza":"","lat":36.067546,"lng":140.21733,"zip":"3000839"},{"town":"立田町","koaza":"","lat":36.088108,"lng":140.196335,"zip":"3000041"},{"town":"田土部","koaza":"","lat":36.128571,"lng":140.131264,"zip":"3004118"},{"town":"田中一丁目","koaza":"","lat":36.087609,"lng":140.192106,"zip":"3000048"},{"town":"田中二丁目","koaza":"","lat":36.087602,"lng":140.187159,"zip":"3000048"},{"town":"田中三丁目","koaza":"","lat":36.084349,"lng":140.18484,"zip":"3000048"},{"town":"田中町","koaza":"","lat":36.091683,"lng":140.188216,"zip":"3000049"},{"town":"田宮","koaza":"","lat":36.137276,"lng":140.14394,"zip":"3004105"},{"town":"田村町","koaza":"","lat":36.084207,"lng":140.243519,"zip":"3000024"},{"town":"千鳥ケ丘町","koaza":"","lat":36.065606,"lng":140.204275,"zip":"3000824"},{"town":"中央一丁目","koaza":"","lat":36.083246,"lng":140.199354,"zip":"3000043"},{"town":"中央二丁目","koaza":"","lat":36.084049,"lng":140.201792,"zip":"3000043"},{"town":"都和一丁目","koaza":"","lat":36.107816,"lng":140.19577,"zip":"3000062"},{"town":"都和二丁目","koaza":"","lat":36.110872,"lng":140.193761,"zip":"3000062"},{"town":"都和三丁目","koaza":"","lat":36.112613,"lng":140.192564,"zip":"3000062"},{"town":"都和四丁目","koaza":"","lat":36.110629,"lng":140.197074,"zip":"3000062"},{"town":"手野町","koaza":"","lat":36.094486,"lng":140.233447,"zip":"3000025"},{"town":"東崎町","koaza":"","lat":36.084077,"lng":140.207028,"zip":"3000031"},{"town":"東城寺","koaza":"","lat":36.16338,"lng":140.144089,"zip":"3004107"},{"town":"殿里","koaza":"","lat":36.096685,"lng":140.193293,"zip":"3000055"},{"town":"中","koaza":"","lat":36.051839,"lng":140.175731,"zip":"3000043"},{"town":"中荒川沖町","koaza":"","lat":36.032984,"lng":140.166452,"zip":"3000875"},{"town":"永井","koaza":"","lat":36.150814,"lng":140.188085,"zip":"3004101"},{"town":"中神立町","koaza":"","lat":36.117542,"lng":140.23381,"zip":"3000016"},{"town":"永国","koaza":"","lat":36.061019,"lng":140.178968,"zip":"3000817"},{"town":"永国台","koaza":"","lat":36.063253,"lng":140.173258,"zip":"3000810"},{"town":"永国東町","koaza":"","lat":36.059866,"lng":140.186714,"zip":"3000816"},{"town":"中高津一丁目","koaza":"","lat":36.068077,"lng":140.186504,"zip":"3000815"},{"town":"中高津二丁目","koaza":"","lat":36.071354,"lng":140.183486,"zip":"3000815"},{"town":"中高津三丁目","koaza":"","lat":36.067939,"lng":140.180645,"zip":"3000815"},{"town":"中都町一丁目","koaza":"","lat":36.120848,"lng":140.186038,"zip":"3000009"},{"town":"中都町二丁目","koaza":"","lat":36.123777,"lng":140.200054,"zip":"3000009"},{"town":"中都町三丁目","koaza":"","lat":36.127059,"lng":140.198708,"zip":"3000009"},{"town":"中都町四丁目","koaza":"","lat":36.126087,"lng":140.183535,"zip":"3000009"},{"town":"中貫","koaza":"","lat":36.118721,"lng":140.205326,"zip":"3000005"},{"town":"中村西根","koaza":"","lat":36.050264,"lng":140.159279,"zip":"3000849"},{"town":"中村東一丁目","koaza":"","lat":36.045958,"lng":140.1689,"zip":"3000850"},{"town":"中村東二丁目","koaza":"","lat":36.044297,"lng":140.171935,"zip":"3000850"},{"town":"中村東三丁目","koaza":"","lat":36.043368,"lng":140.174181,"zip":"3000850"},{"town":"中村南一丁目","koaza":"","lat":36.043758,"lng":140.167862,"zip":"3000843"},{"town":"中村南二丁目","koaza":"","lat":36.041058,"lng":140.170293,"zip":"3000843"},{"town":"中村南三丁目","koaza":"","lat":36.039097,"lng":140.165648,"zip":"3000843"},{"town":"中村南四丁目","koaza":"","lat":36.040889,"lng":140.161433,"zip":"3000843"},{"town":"中村南五丁目","koaza":"","lat":36.042787,"lng":140.160878,"zip":"3000843"},{"town":"中村南六丁目","koaza":"","lat":36.038791,"lng":140.159723,"zip":"3000843"},{"town":"並木一丁目","koaza":"","lat":36.10607,"lng":140.193474,"zip":"3000061"},{"town":"並木二丁目","koaza":"","lat":36.111613,"lng":140.191121,"zip":"3000061"},{"town":"並木三丁目","koaza":"","lat":36.111866,"lng":140.185755,"zip":"3000061"},{"town":"並木四丁目","koaza":"","lat":36.115199,"lng":140.186096,"zip":"3000061"},{"town":"並木五丁目","koaza":"","lat":36.11667,"lng":140.191902,"zip":"3000061"},{"town":"西並木町","koaza":"","lat":36.109637,"lng":140.183959,"zip":"3000068"},{"town":"西根西一丁目","koaza":"","lat":36.046928,"lng":140.152156,"zip":"3000848"},{"town":"西根南一丁目","koaza":"","lat":36.046375,"lng":140.16487,"zip":"3000842"},{"town":"西根南二丁目","koaza":"","lat":36.046045,"lng":140.161077,"zip":"3000842"},{"town":"西根南三丁目","koaza":"","lat":36.04417,"lng":140.157272,"zip":"3000842"},{"town":"西真鍋町","koaza":"","lat":36.094857,"lng":140.197249,"zip":"3000054"},{"town":"蓮河原新町","koaza":"","lat":36.072643,"lng":140.207759,"zip":"3000821"},{"town":"蓮河原町","koaza":"","lat":36.072391,"lng":140.215565,"zip":"3000822"},{"town":"東都和","koaza":"","lat":36.110022,"lng":140.200611,"zip":"3000067"},{"town":"東中貫町","koaza":"","lat":36.121787,"lng":140.217291,"zip":"3000006"},{"town":"東並木町","koaza":"","lat":36.104857,"lng":140.190916,"zip":"3000069"},{"town":"東真鍋町","koaza":"","lat":36.093862,"lng":140.206532,"zip":"3000052"},{"town":"東若松町","koaza":"","lat":36.108343,"lng":140.207988,"zip":"3000064"},{"town":"常名","koaza":"","lat":36.10237,"lng":140.183966,"zip":"3000065"},{"town":"富士崎一丁目","koaza":"","lat":36.073486,"lng":140.200949,"zip":"3000813"},{"town":"富士崎二丁目","koaza":"","lat":36.069643,"lng":140.19571,"zip":"3000813"},{"town":"藤沢","koaza":"","lat":36.12782,"lng":140.155582,"zip":"3004115"},{"town":"藤沢新田","koaza":"","lat":36.116297,"lng":140.141728,"zip":"3004116"},{"town":"文京町","koaza":"","lat":36.084916,"lng":140.193425,"zip":"3000045"},{"town":"本郷","koaza":"","lat":36.153322,"lng":140.176815,"zip":"3004102"},{"town":"真鍋一丁目","koaza":"","lat":36.089165,"lng":140.203313,"zip":"3000051"},{"town":"真鍋二丁目","koaza":"","lat":36.090851,"lng":140.195695,"zip":"3000051"},{"town":"真鍋三丁目","koaza":"","lat":36.093782,"lng":140.202018,"zip":"3000051"},{"town":"真鍋四丁目","koaza":"","lat":36.100428,"lng":140.205405,"zip":"3000051"},{"town":"真鍋五丁目","koaza":"","lat":36.099601,"lng":140.199817,"zip":"3000051"},{"town":"真鍋六丁目","koaza":"","lat":36.104001,"lng":140.199691,"zip":"3000051"},{"town":"真鍋新町","koaza":"","lat":36.089673,"lng":140.209629,"zip":"3000053"},{"town":"摩利山新田","koaza":"","lat":36.04068,"lng":140.178449,"zip":"3000838"},{"town":"右籾","koaza":"","lat":36.043017,"lng":140.185808,"zip":"3000837"},{"town":"港町一丁目","koaza":"","lat":36.077202,"lng":140.208675,"zip":"3000034"},{"town":"港町二丁目","koaza":"","lat":36.076821,"lng":140.212736,"zip":"3000034"},{"town":"港町三丁目","koaza":"","lat":36.077983,"lng":140.217036,"zip":"3000034"},{"town":"虫掛","koaza":"","lat":36.096749,"lng":140.175517,"zip":"3000066"},{"town":"紫ケ丘","koaza":"","lat":36.135483,"lng":140.195278,"zip":"3000003"},{"town":"矢作","koaza":"","lat":36.0942,"lng":140.155071,"zip":"3000801"},{"town":"大和町","koaza":"","lat":36.079059,"lng":140.204451,"zip":"3000036"},{"town":"若松町","koaza":"","lat":36.108064,"lng":140.202729,"zip":"3000063"},{"town":"宍塚","koaza":"下田","lat":36.084193,"lng":140.168416,"zip":"3000805"},{"town":"右籾","koaza":"宮塚","lat":36.036169,"lng":140.183443,"zip":"3000837"}]