[{"town":"岩井","koaza":"","lat":36.05688,"lng":139.886649,"zip":"3060631"},{"town":"内野山","koaza":"","lat":36.087782,"lng":139.917161,"zip":"3060514"},{"town":"生子","koaza":"","lat":36.101329,"lng":139.856562,"zip":"3060504"},{"town":"生子新田","koaza":"","lat":36.115805,"lng":139.889074,"zip":"3060503"},{"town":"大口","koaza":"","lat":36.038553,"lng":139.945058,"zip":"3060615"},{"town":"大口新田","koaza":"","lat":36.049034,"lng":139.943049,"zip":"3060613"},{"town":"大崎","koaza":"","lat":36.000364,"lng":139.916023,"zip":"3060622"},{"town":"大馬新田","koaza":"","lat":36.083453,"lng":139.932747,"zip":"3060601"},{"town":"大谷口","koaza":"","lat":36.01366,"lng":139.911358,"zip":"3060621"},{"town":"小山","koaza":"","lat":36.009691,"lng":139.882688,"zip":"3060626"},{"town":"神田山","koaza":"","lat":36.03276,"lng":139.918571,"zip":"3060617"},{"town":"神田山新田","koaza":"","lat":36.058344,"lng":139.93491,"zip":"3060611"},{"town":"上出島","koaza":"","lat":36.070843,"lng":139.870988,"zip":"3060654"},{"town":"借宿","koaza":"","lat":36.088868,"lng":139.866076,"zip":"3060657"},{"town":"勘助新田","koaza":"","lat":36.069479,"lng":139.927888,"zip":"3060603"},{"town":"木間ケ瀬","koaza":"","lat":36.037409,"lng":139.847112,"zip":"3060643"},{"town":"桐木","koaza":"","lat":36.022525,"lng":139.887114,"zip":"3060636"},{"town":"鵠戸","koaza":"","lat":36.050366,"lng":139.873796,"zip":"3060641"},{"town":"栗山新田","koaza":"","lat":36.105608,"lng":139.911271,"zip":"3060513"},{"town":"小泉","koaza":"","lat":36.01283,"lng":139.896912,"zip":"3060635"},{"town":"幸神平","koaza":"","lat":36.053072,"lng":139.916977,"zip":"3060608"},{"town":"幸田","koaza":"","lat":36.054828,"lng":139.904851,"zip":"3060606"},{"town":"幸田新田","koaza":"","lat":36.061822,"lng":139.93019,"zip":"3060604"},{"town":"古布内","koaza":"","lat":36.051076,"lng":139.829595,"zip":"3060644"},{"town":"駒跿","koaza":"","lat":36.077313,"lng":139.879341,"zip":"3060653"},{"town":"逆井","koaza":"","lat":36.136807,"lng":139.853398,"zip":"3060501"},{"town":"左平太新田","koaza":"","lat":36.106919,"lng":139.909975,"zip":"3060512"},{"town":"下出島","koaza":"","lat":36.028371,"lng":139.901666,"zip":"3060633"},{"town":"庄右衛門新田","koaza":"","lat":36.051154,"lng":139.953565,"zip":"3060614"},{"town":"菅谷","koaza":"","lat":36.113845,"lng":139.850849,"zip":"3060505"},{"town":"寺久","koaza":"","lat":36.084008,"lng":139.849076,"zip":"3060656"},{"town":"冨田","koaza":"","lat":36.08557,"lng":139.884914,"zip":"3060652"},{"town":"中里","koaza":"","lat":36.02413,"lng":139.897358,"zip":"3060634"},{"town":"長須","koaza":"","lat":36.051838,"lng":139.851531,"zip":"3060645"},{"town":"長谷","koaza":"","lat":36.029884,"lng":139.875022,"zip":"3060642"},{"town":"猫実","koaza":"","lat":36.038036,"lng":139.926849,"zip":"3060616"},{"town":"猫実新田","koaza":"","lat":36.05082,"lng":139.937492,"zip":"3060612"},{"town":"平八新田","koaza":"","lat":36.073895,"lng":139.927923,"zip":"3060602"},{"town":"辺田","koaza":"","lat":36.037685,"lng":139.897916,"zip":"3060632"},{"town":"法師戸","koaza":"","lat":35.982222,"lng":139.920766,"zip":"3060623"},{"town":"孫兵ヱ新田","koaza":"","lat":36.110153,"lng":139.906292,"zip":"3060600"},{"town":"馬立","koaza":"","lat":36.064222,"lng":139.907506,"zip":"3060605"},{"town":"みどり町","koaza":"","lat":36.038208,"lng":139.887736,"zip":"3060637"},{"town":"みむら","koaza":"","lat":36.073671,"lng":139.857687,"zip":"3060655"},{"town":"莚打","koaza":"","lat":35.99162,"lng":139.891039,"zip":"3060625"},{"town":"矢作","koaza":"","lat":35.990833,"lng":139.907016,"zip":"3060624"},{"town":"山","koaza":"","lat":36.124192,"lng":139.877717,"zip":"3060502"},{"town":"弓田","koaza":"","lat":36.076905,"lng":139.901044,"zip":"3060607"},{"town":"半谷","koaza":"","lat":36.100342,"lng":139.881488,"zip":"3060651"},{"town":"沓掛","koaza":"","lat":36.102508,"lng":139.900987,"zip":"3060515"},{"town":"緑の里","koaza":"","lat":36.108525,"lng":139.878282,"zip":"3060658"}]