[{"town":"赤法花","koaza":"","lat":35.956983,"lng":140.008045,"zip":"3020111"},{"town":"板戸井","koaza":"","lat":35.969985,"lng":139.945805,"zip":"3020101"},{"town":"大柏","koaza":"","lat":35.938295,"lng":139.97279,"zip":"3020116"},{"town":"大木","koaza":"","lat":35.950489,"lng":139.937799,"zip":"3020107"},{"town":"大山新田","koaza":"","lat":35.973888,"lng":139.96444,"zip":"3020103"},{"town":"乙子","koaza":"","lat":35.930066,"lng":140.000873,"zip":"3020123"},{"town":"久保ケ丘一丁目","koaza":"","lat":35.969135,"lng":139.976691,"zip":"3020104"},{"town":"久保ケ丘二丁目","koaza":"","lat":35.968022,"lng":139.973794,"zip":"3020104"},{"town":"久保ケ丘三丁目","koaza":"","lat":35.970051,"lng":139.973046,"zip":"3020104"},{"town":"久保ケ丘四丁目","koaza":"","lat":35.973396,"lng":139.972585,"zip":"3020104"},{"town":"けやき台一丁目","koaza":"","lat":35.933942,"lng":140.000494,"zip":"3020128"},{"town":"けやき台二丁目","koaza":"","lat":35.930401,"lng":139.99538,"zip":"3020128"},{"town":"けやき台三丁目","koaza":"","lat":35.933334,"lng":139.993659,"zip":"3020128"},{"town":"けやき台四丁目","koaza":"","lat":35.934854,"lng":139.99632,"zip":"3020128"},{"town":"けやき台五丁目","koaza":"","lat":35.939229,"lng":139.993334,"zip":"3020128"},{"town":"けやき台六丁目","koaza":"","lat":35.936746,"lng":139.992568,"zip":"3020128"},{"town":"高野","koaza":"","lat":35.929177,"lng":139.98534,"zip":"3020125"},{"town":"御所ケ丘一丁目","koaza":"","lat":35.966343,"lng":139.985174,"zip":"3020119"},{"town":"御所ケ丘二丁目","koaza":"","lat":35.964377,"lng":139.979747,"zip":"3020119"},{"town":"御所ケ丘三丁目","koaza":"","lat":35.967293,"lng":139.981768,"zip":"3020119"},{"town":"御所ケ丘四丁目","koaza":"","lat":35.964042,"lng":139.97604,"zip":"3020119"},{"town":"御所ケ丘五丁目","koaza":"","lat":35.964992,"lng":139.973528,"zip":"3020119"},{"town":"小山","koaza":"","lat":35.93236,"lng":140.010566,"zip":"3020122"},{"town":"鈴塚","koaza":"","lat":35.937317,"lng":139.984618,"zip":"3020126"},{"town":"立沢","koaza":"","lat":35.958926,"lng":139.975536,"zip":"3020118"},{"town":"中央一丁目","koaza":"","lat":35.95247,"lng":139.990218,"zip":"3020115"},{"town":"中央二丁目","koaza":"","lat":35.952857,"lng":139.993046,"zip":"3020115"},{"town":"中央三丁目","koaza":"","lat":35.94999,"lng":139.993844,"zip":"3020115"},{"town":"中央四丁目","koaza":"","lat":35.948661,"lng":139.990595,"zip":"3020115"},{"town":"同地","koaza":"","lat":35.951683,"lng":140.013294,"zip":"3020112"},{"town":"野木崎","koaza":"","lat":35.942053,"lng":139.957328,"zip":"3020117"},{"town":"ひがし野一丁目","koaza":"","lat":35.953691,"lng":139.995176,"zip":"3020131"},{"town":"ひがし野二丁目","koaza":"","lat":35.951904,"lng":140.000668,"zip":"3020131"},{"town":"ひがし野三丁目","koaza":"","lat":35.949607,"lng":140.001108,"zip":"3020131"},{"town":"ひがし野四丁目","koaza":"","lat":35.955553,"lng":139.992629,"zip":"3020131"},{"town":"本町","koaza":"","lat":35.940848,"lng":140.002061,"zip":"3020109"},{"town":"松ケ丘一丁目","koaza":"","lat":35.94217,"lng":139.992162,"zip":"3020127"},{"town":"松ケ丘二丁目","koaza":"","lat":35.941205,"lng":139.988419,"zip":"3020127"},{"town":"松ケ丘三丁目","koaza":"","lat":35.938815,"lng":139.988453,"zip":"3020127"},{"town":"松ケ丘四丁目","koaza":"","lat":35.941291,"lng":139.982021,"zip":"3020127"},{"town":"松ケ丘五丁目","koaza":"","lat":35.942619,"lng":139.984871,"zip":"3020127"},{"town":"松ケ丘六丁目","koaza":"","lat":35.942416,"lng":139.978049,"zip":"3020127"},{"town":"松ケ丘七丁目","koaza":"","lat":35.939437,"lng":139.979885,"zip":"3020127"},{"town":"松並","koaza":"","lat":35.958789,"lng":139.995133,"zip":"3020108"},{"town":"松前台一丁目","koaza":"","lat":35.968082,"lng":139.967516,"zip":"3020102"},{"town":"松前台二丁目","koaza":"","lat":35.969933,"lng":139.967603,"zip":"3020102"},{"town":"松前台三丁目","koaza":"","lat":35.974357,"lng":139.96983,"zip":"3020102"},{"town":"松前台四丁目","koaza":"","lat":35.970912,"lng":139.96391,"zip":"3020102"},{"town":"松前台五丁目","koaza":"","lat":35.968849,"lng":139.961834,"zip":"3020102"},{"town":"松前台六丁目","koaza":"","lat":35.970261,"lng":139.958778,"zip":"3020102"},{"town":"松前台七丁目","koaza":"","lat":35.972887,"lng":139.958866,"zip":"3020102"},{"town":"みずき野一丁目","koaza":"","lat":35.934379,"lng":140.007284,"zip":"3020121"},{"town":"みずき野二丁目","koaza":"","lat":35.933902,"lng":140.011828,"zip":"3020121"},{"town":"みずき野三丁目","koaza":"","lat":35.932759,"lng":140.015076,"zip":"3020121"},{"town":"みずき野四丁目","koaza":"","lat":35.935897,"lng":140.016035,"zip":"3020121"},{"town":"みずき野五丁目","koaza":"","lat":35.936934,"lng":140.012427,"zip":"3020121"},{"town":"みずき野六丁目","koaza":"","lat":35.94086,"lng":140.011368,"zip":"3020121"},{"town":"みずき野七丁目","koaza":"","lat":35.939947,"lng":140.014741,"zip":"3020121"},{"town":"みずき野八丁目","koaza":"","lat":35.93896,"lng":140.016983,"zip":"3020121"},{"town":"美園一丁目","koaza":"","lat":35.928369,"lng":140.003144,"zip":"3020124"},{"town":"美園二丁目","koaza":"","lat":35.925512,"lng":140.001162,"zip":"3020124"},{"town":"美園三丁目","koaza":"","lat":35.924039,"lng":139.998226,"zip":"3020124"},{"town":"美園四丁目","koaza":"","lat":35.922996,"lng":140.00041,"zip":"3020124"},{"town":"美園五丁目","koaza":"","lat":35.921982,"lng":140.001995,"zip":"3020124"},{"town":"緑一丁目","koaza":"","lat":35.952254,"lng":139.963203,"zip":"3020106"},{"town":"緑二丁目","koaza":"","lat":35.956789,"lng":139.960061,"zip":"3020106"},{"town":"薬師台一丁目","koaza":"","lat":35.965938,"lng":139.968554,"zip":"3020105"},{"town":"薬師台二丁目","koaza":"","lat":35.963652,"lng":139.968293,"zip":"3020105"},{"town":"薬師台三丁目","koaza":"","lat":35.965351,"lng":139.964654,"zip":"3020105"},{"town":"薬師台四丁目","koaza":"","lat":35.962079,"lng":139.964618,"zip":"3020105"},{"town":"薬師台五丁目","koaza":"","lat":35.958039,"lng":139.964024,"zip":"3020105"},{"town":"薬師台六丁目","koaza":"","lat":35.959533,"lng":139.961826,"zip":"3020105"},{"town":"薬師台七丁目","koaza":"","lat":35.961439,"lng":139.960643,"zip":"3020105"},{"town":"百合ケ丘一丁目","koaza":"","lat":35.956185,"lng":139.983796,"zip":"3020110"},{"town":"百合ケ丘二丁目","koaza":"","lat":35.950455,"lng":139.984148,"zip":"3020110"},{"town":"百合ケ丘三丁目","koaza":"","lat":35.94595,"lng":139.98669,"zip":"3020110"},{"town":"同地","koaza":"仲山","lat":35.95332,"lng":140.017383,"zip":"3020112"},{"town":"松並青葉一丁目","koaza":"","lat":null,"lng":null,"zip":null},{"town":"松並青葉二丁目","koaza":"","lat":null,"lng":null,"zip":null},{"town":"松並青葉三丁目","koaza":"","lat":null,"lng":null,"zip":null},{"town":"松並青葉四丁目","koaza":"","lat":null,"lng":null,"zip":null}]