[{"town":"飯前","koaza":"","lat":36.206582,"lng":140.407295,"zip":"3113404"},{"town":"江戸","koaza":"","lat":36.252424,"lng":140.31212,"zip":"3190122"},{"town":"大笹","koaza":"","lat":36.273925,"lng":140.310187,"zip":"3190137"},{"town":"大谷","koaza":"","lat":36.221023,"lng":140.288906,"zip":"3190126"},{"town":"小川","koaza":"","lat":36.166138,"lng":140.35819,"zip":"3113423"},{"town":"小曽納","koaza":"","lat":36.223357,"lng":140.299281,"zip":"3190125"},{"town":"堅倉","koaza":"","lat":36.236288,"lng":140.349872,"zip":"3190106"},{"town":"上合","koaza":"","lat":36.199697,"lng":140.421352,"zip":"3113405"},{"town":"上玉里","koaza":"","lat":36.166319,"lng":140.335085,"zip":"3113436"},{"town":"上馬場","koaza":"","lat":36.198645,"lng":140.338927,"zip":"3190115"},{"town":"上吉影","koaza":"","lat":36.215993,"lng":140.403574,"zip":"3113403"},{"town":"川戸","koaza":"","lat":36.186382,"lng":140.387068,"zip":"3113412"},{"town":"川中子","koaza":"","lat":36.158216,"lng":140.351913,"zip":"3113431"},{"town":"倉数","koaza":"","lat":36.151186,"lng":140.414151,"zip":"3113417"},{"town":"栗又四ケ","koaza":"","lat":36.180408,"lng":140.326732,"zip":"3113434"},{"town":"小岩戸","koaza":"","lat":36.251671,"lng":140.3479,"zip":"3190107"},{"town":"小塙","koaza":"","lat":36.160559,"lng":140.367646,"zip":"3113425"},{"town":"西郷地","koaza":"","lat":36.248468,"lng":140.37737,"zip":"3190102"},{"town":"佐才","koaza":"","lat":36.216696,"lng":140.390318,"zip":"3113402"},{"town":"三箇","koaza":"","lat":36.210119,"lng":140.348674,"zip":"3190104"},{"town":"柴高","koaza":"","lat":36.226878,"lng":140.372398,"zip":"3190103"},{"town":"下玉里","koaza":"","lat":36.151164,"lng":140.342902,"zip":"3113432"},{"town":"下馬場","koaza":"","lat":36.159178,"lng":140.361848,"zip":"3113426"},{"town":"下吉影","koaza":"","lat":36.182823,"lng":140.435957,"zip":"3113406"},{"town":"世楽","koaza":"","lat":36.224055,"lng":140.385522,"zip":"3113401"},{"town":"高崎","koaza":"","lat":36.161469,"lng":140.316852,"zip":"3113433"},{"town":"高田","koaza":"","lat":36.265138,"lng":140.318604,"zip":"3190135"},{"town":"田木谷","koaza":"","lat":36.17055,"lng":140.347603,"zip":"3113435"},{"town":"竹原","koaza":"","lat":36.210285,"lng":140.317622,"zip":"3190113"},{"town":"竹原下郷","koaza":"","lat":36.218775,"lng":140.320502,"zip":"3190112"},{"town":"竹原中郷","koaza":"","lat":36.203371,"lng":140.329768,"zip":"3190114"},{"town":"鶴田","koaza":"","lat":36.221925,"lng":140.348825,"zip":"3190105"},{"town":"手堤","koaza":"","lat":36.270644,"lng":140.318521,"zip":"3190136"},{"town":"寺崎","koaza":"","lat":36.263114,"lng":140.334038,"zip":"3190131"},{"town":"外之内","koaza":"","lat":36.174463,"lng":140.398564,"zip":"3113414"},{"town":"中台","koaza":"","lat":36.222584,"lng":140.31123,"zip":"3190116"},{"town":"中延","koaza":"","lat":36.192675,"lng":140.358825,"zip":"3113422"},{"town":"中野谷","koaza":"","lat":36.226919,"lng":140.330748,"zip":"3190111"},{"town":"納場","koaza":"","lat":36.258541,"lng":140.321087,"zip":"3190134"},{"town":"野田","koaza":"","lat":36.197878,"lng":140.377077,"zip":"3113411"},{"town":"羽刈","koaza":"","lat":36.256716,"lng":140.301767,"zip":"3190121"},{"town":"橋場美","koaza":"","lat":36.258898,"lng":140.373009,"zip":"3190101"},{"town":"幡谷","koaza":"","lat":36.16138,"lng":140.375469,"zip":"3113424"},{"town":"羽鳥","koaza":"","lat":36.239619,"lng":140.288391,"zip":"3190123"},{"town":"花野井","koaza":"","lat":36.233798,"lng":140.306645,"zip":"3190124"},{"town":"張星","koaza":"","lat":36.240156,"lng":140.315965,"zip":"3190133"},{"town":"東田中","koaza":"","lat":36.17611,"lng":140.32484,"zip":"3113437"},{"town":"百里","koaza":"","lat":36.179975,"lng":140.418768,"zip":"3113415"},{"town":"部室","koaza":"","lat":36.244176,"lng":140.327248,"zip":"3190132"},{"town":"先後","koaza":"","lat":36.263387,"lng":140.353415,"zip":"3190108"},{"town":"宮田","koaza":"","lat":36.196445,"lng":140.348881,"zip":"3113421"},{"town":"山野","koaza":"","lat":36.17423,"lng":140.385389,"zip":"3113413"},{"town":"与沢","koaza":"","lat":36.167868,"lng":140.421249,"zip":"3113416"},{"town":"栗又四ケ","koaza":"逆井","lat":36.182476,"lng":140.308719,"zip":"3113434"},{"town":"西郷地","koaza":"荒井下","lat":36.250775,"lng":140.37717,"zip":"3190102"},{"town":"野田","koaza":"御用山","lat":36.192346,"lng":140.37995,"zip":"3113411"},{"town":"上吉影","koaza":"南原","lat":36.205079,"lng":140.395327,"zip":"3113403"}]