[{"town":"秋田","koaza":"","lat":36.577859,"lng":140.264704,"zip":"3114611"},{"town":"石沢","koaza":"","lat":36.540682,"lng":140.40615,"zip":"3192135"},{"town":"泉","koaza":"","lat":36.530741,"lng":140.427778,"zip":"3192144"},{"town":"入本郷","koaza":"","lat":36.598451,"lng":140.267281,"zip":"3192415"},{"town":"岩崎","koaza":"","lat":36.597208,"lng":140.413757,"zip":"3192211"},{"town":"姥賀町","koaza":"","lat":36.560669,"lng":140.406632,"zip":"3192251"},{"town":"宇留野","koaza":"","lat":36.541969,"lng":140.431001,"zip":"3192145"},{"town":"大岩","koaza":"","lat":36.63684,"lng":140.252186,"zip":"3192418"},{"town":"小倉","koaza":"","lat":36.565036,"lng":140.423325,"zip":"3192203"},{"town":"長田","koaza":"","lat":36.611321,"lng":140.364855,"zip":"3193116"},{"town":"小瀬沢","koaza":"","lat":36.604204,"lng":140.3017,"zip":"3192412"},{"town":"小田野","koaza":"","lat":36.679895,"lng":140.26319,"zip":"3192602"},{"town":"小玉","koaza":"","lat":36.589897,"lng":140.303393,"zip":"3192405"},{"town":"小貫","koaza":"","lat":36.614142,"lng":140.410288,"zip":"3193112"},{"town":"小野","koaza":"","lat":36.528722,"lng":140.370153,"zip":"3192133"},{"town":"小場","koaza":"","lat":36.508458,"lng":140.39648,"zip":"3192132"},{"town":"門井","koaza":"","lat":36.569332,"lng":140.333413,"zip":"3114501"},{"town":"金井","koaza":"","lat":36.568476,"lng":140.298137,"zip":"3114614"},{"town":"上伊勢畑","koaza":"","lat":36.552738,"lng":140.267831,"zip":"3114617"},{"town":"上岩瀬","koaza":"","lat":36.521565,"lng":140.443976,"zip":"3192142"},{"town":"上大賀","koaza":"","lat":36.587982,"lng":140.407202,"zip":"3192212"},{"town":"上小瀬","koaza":"","lat":36.61068,"lng":140.322078,"zip":"3192401"},{"town":"上町","koaza":"","lat":36.54964,"lng":140.411072,"zip":"3192261"},{"town":"上檜沢","koaza":"","lat":36.677574,"lng":140.320053,"zip":"3192511"},{"town":"上村田","koaza":"","lat":36.52795,"lng":140.407338,"zip":"3192136"},{"town":"北塩子","koaza":"","lat":36.597776,"lng":140.352088,"zip":"3192226"},{"town":"北町","koaza":"","lat":36.553625,"lng":140.413115,"zip":"3192254"},{"town":"北富田","koaza":"","lat":36.676634,"lng":140.412676,"zip":"3193104"},{"town":"国長","koaza":"","lat":36.581772,"lng":140.301818,"zip":"3192404"},{"town":"久隆","koaza":"","lat":36.704397,"lng":140.329948,"zip":"3193101"},{"town":"小祝","koaza":"","lat":36.586473,"lng":140.393798,"zip":"3192213"},{"town":"工業団地","koaza":"","lat":36.536335,"lng":140.376455,"zip":"3192134"},{"town":"小舟","koaza":"","lat":36.630741,"lng":140.287322,"zip":"3192411"},{"town":"栄町","koaza":"","lat":36.540389,"lng":140.417708,"zip":"3192264"},{"town":"塩原","koaza":"","lat":36.574396,"lng":140.424168,"zip":"3192202"},{"town":"下伊勢畑","koaza":"","lat":36.542246,"lng":140.298255,"zip":"3114615"},{"town":"下岩瀬","koaza":"","lat":36.516285,"lng":140.454008,"zip":"3192141"},{"town":"下小瀬","koaza":"","lat":36.590587,"lng":140.330184,"zip":"3192402"},{"town":"下町","koaza":"","lat":36.550956,"lng":140.420558,"zip":"3192262"},{"town":"下檜沢","koaza":"","lat":36.660419,"lng":140.346825,"zip":"3192512"},{"town":"下村田","koaza":"","lat":36.520082,"lng":140.42704,"zip":"3192131"},{"town":"千田","koaza":"","lat":36.594322,"lng":140.252497,"zip":"3192416"},{"town":"鷹巣","koaza":"","lat":36.574602,"lng":140.396418,"zip":"3192214"},{"town":"高部","koaza":"","lat":36.674902,"lng":140.293341,"zip":"3192601"},{"town":"高渡町","koaza":"","lat":36.558454,"lng":140.415921,"zip":"3192253"},{"town":"田子内町","koaza":"","lat":36.561838,"lng":140.398189,"zip":"3192256"},{"town":"辰ノ口","koaza":"","lat":36.586049,"lng":140.421898,"zip":"3192201"},{"town":"照田","koaza":"","lat":36.592324,"lng":140.373464,"zip":"3192227"},{"town":"照山","koaza":"","lat":36.613584,"lng":140.426644,"zip":"3193113"},{"town":"東野","koaza":"","lat":36.574203,"lng":140.365298,"zip":"3192224"},{"town":"富岡","koaza":"","lat":36.549942,"lng":140.432863,"zip":"3192204"},{"town":"鷲子","koaza":"","lat":36.672922,"lng":140.238458,"zip":"3192603"},{"town":"那賀","koaza":"","lat":36.574354,"lng":140.322254,"zip":"3192403"},{"town":"中居","koaza":"","lat":36.582266,"lng":140.277279,"zip":"3114612"},{"town":"長倉","koaza":"","lat":36.571393,"lng":140.279675,"zip":"3114613"},{"town":"長沢","koaza":"","lat":36.627545,"lng":140.352847,"zip":"3193117"},{"town":"中富町","koaza":"","lat":36.5447,"lng":140.409068,"zip":"3192265"},{"town":"西塩子","koaza":"","lat":36.585343,"lng":140.342439,"zip":"3192225"},{"town":"西野内","koaza":"","lat":36.645521,"lng":140.400954,"zip":"3193106"},{"town":"根本","koaza":"","lat":36.530538,"lng":140.440172,"zip":"3192143"},{"town":"野上","koaza":"","lat":36.6075,"lng":140.388808,"zip":"3193114"},{"town":"野口","koaza":"","lat":36.558484,"lng":140.320951,"zip":"3114503"},{"town":"野口平","koaza":"","lat":36.563534,"lng":140.343861,"zip":"3114502"},{"town":"野田","koaza":"","lat":36.568437,"lng":140.254122,"zip":"3114618"},{"town":"野中町","koaza":"","lat":36.555386,"lng":140.402231,"zip":"3192255"},{"town":"八田","koaza":"","lat":36.558855,"lng":140.380947,"zip":"3192221"},{"town":"東富町","koaza":"","lat":36.557224,"lng":140.408458,"zip":"3192252"},{"town":"氷之沢","koaza":"","lat":36.638265,"lng":140.316319,"zip":"3192513"},{"town":"檜山","koaza":"","lat":36.535021,"lng":140.259254,"zip":"3192200"},{"town":"舟生","koaza":"","lat":36.653001,"lng":140.375548,"zip":"3193107"},{"town":"松之草","koaza":"","lat":36.608076,"lng":140.280311,"zip":"3192413"},{"town":"南町","koaza":"","lat":36.544365,"lng":140.414889,"zip":"3192263"},{"town":"宮の郷","koaza":"","lat":36.547093,"lng":140.442244,"zip":"3192205"},{"town":"三美","koaza":"","lat":36.545034,"lng":140.355053,"zip":"3192223"},{"town":"盛金","koaza":"","lat":36.680048,"lng":140.377944,"zip":"3193102"},{"town":"諸沢","koaza":"","lat":36.671849,"lng":140.430917,"zip":"3193105"},{"town":"山方","koaza":"","lat":36.626686,"lng":140.383964,"zip":"3193111"},{"town":"家和楽","koaza":"","lat":36.661764,"lng":140.396439,"zip":"3193103"},{"town":"抽ヶ台町","koaza":"","lat":36.551117,"lng":140.402844,"zip":"3192200"},{"town":"油河内","koaza":"","lat":36.61695,"lng":140.258888,"zip":"3192417"},{"town":"吉丸","koaza":"","lat":36.594745,"lng":140.282721,"zip":"3192414"},{"town":"若林","koaza":"","lat":36.542916,"lng":140.387211,"zip":"3192222"},{"town":"泉","koaza":"根本上","lat":36.526518,"lng":140.430224,"zip":"3192144"}]