[{"town":"赤土町","koaza":"","lat":36.627376,"lng":140.450515,"zip":"3130102"},{"town":"芦間町","koaza":"","lat":36.569478,"lng":140.492396,"zip":"3130121"},{"town":"新地町","koaza":"","lat":36.527205,"lng":140.454711,"zip":"3130132"},{"town":"新宿町","koaza":"","lat":36.544281,"lng":140.51012,"zip":"3130007"},{"town":"粟原町","koaza":"","lat":36.498362,"lng":140.502365,"zip":"3130045"},{"town":"磯部町","koaza":"","lat":36.518971,"lng":140.531597,"zip":"3130042"},{"town":"稲木町","koaza":"","lat":36.531692,"lng":140.516358,"zip":"3130041"},{"town":"岩手町","koaza":"","lat":36.560778,"lng":140.47386,"zip":"3130112"},{"town":"内田町","koaza":"","lat":36.512383,"lng":140.548392,"zip":"3130037"},{"town":"内堀町","koaza":"","lat":36.543078,"lng":140.527155,"zip":"3130063"},{"town":"大方町","koaza":"","lat":36.538476,"lng":140.468937,"zip":"3130116"},{"town":"大里町","koaza":"","lat":36.532651,"lng":140.490206,"zip":"3130125"},{"town":"大菅町","koaza":"","lat":36.680014,"lng":140.515346,"zip":"3110508"},{"town":"大平町","koaza":"","lat":36.54971,"lng":140.495709,"zip":"3130124"},{"town":"大中町","koaza":"","lat":36.731811,"lng":140.490583,"zip":"3110505"},{"town":"大森町","koaza":"","lat":36.522033,"lng":140.589207,"zip":"3130021"},{"town":"岡田町","koaza":"","lat":36.52201,"lng":140.554161,"zip":"3130031"},{"town":"小沢町","koaza":"","lat":36.525598,"lng":140.543,"zip":"3130038"},{"town":"小島町","koaza":"","lat":36.504695,"lng":140.481912,"zip":"3130135"},{"town":"落合町","koaza":"","lat":36.508356,"lng":140.546182,"zip":"3130036"},{"town":"小目町","koaza":"","lat":36.517028,"lng":140.56439,"zip":"3130033"},{"town":"折橋町","koaza":"","lat":36.73215,"lng":140.534107,"zip":"3110506"},{"town":"堅磐町","koaza":"","lat":36.501142,"lng":140.55801,"zip":"3130035"},{"town":"金井町","koaza":"","lat":36.538047,"lng":140.529435,"zip":"3130016"},{"town":"上大門町","koaza":"","lat":36.604716,"lng":140.511867,"zip":"3130001"},{"town":"上河合町","koaza":"","lat":36.509811,"lng":140.513478,"zip":"3130046"},{"town":"上高倉町","koaza":"","lat":36.728961,"lng":140.457119,"zip":"3130353"},{"town":"上土木内町","koaza":"","lat":36.506116,"lng":140.56031,"zip":"3130034"},{"town":"上利員町","koaza":"","lat":36.596247,"lng":140.442128,"zip":"3130104"},{"town":"上深荻町","koaza":"","lat":36.665995,"lng":140.528177,"zip":"3110509"},{"town":"上宮河内町","koaza":"","lat":36.642878,"lng":140.434712,"zip":"3130101"},{"town":"亀作町","koaza":"","lat":36.540743,"lng":140.565488,"zip":"3130023"},{"town":"河内西町","koaza":"","lat":36.650558,"lng":140.513957,"zip":"3110301"},{"town":"木崎一町","koaza":"","lat":36.534773,"lng":140.521632,"zip":"3130015"},{"town":"木崎二町","koaza":"","lat":36.53336,"lng":140.523666,"zip":"3130014"},{"town":"薬谷町","koaza":"","lat":36.529572,"lng":140.474522,"zip":"3130126"},{"town":"国安町","koaza":"","lat":36.599788,"lng":140.489299,"zip":"3130221"},{"town":"久米町","koaza":"","lat":36.54634,"lng":140.47789,"zip":"3130123"},{"town":"天下野町","koaza":"","lat":36.665921,"lng":140.4735,"zip":"3130351"},{"town":"小菅町","koaza":"","lat":36.700026,"lng":140.516973,"zip":"3110507"},{"town":"小妻町","koaza":"","lat":36.776001,"lng":140.514743,"zip":"3110503"},{"town":"寿町","koaza":"","lat":36.540278,"lng":140.520106,"zip":"3130064"},{"town":"小中町","koaza":"","lat":36.754682,"lng":140.512226,"zip":"3110504"},{"town":"栄町","koaza":"","lat":36.547788,"lng":140.521745,"zip":"3130005"},{"town":"里川町","koaza":"","lat":36.825159,"lng":140.53434,"zip":"3110501"},{"town":"里野宮町","koaza":"","lat":36.568611,"lng":140.539155,"zip":"3110325"},{"town":"沢目町","koaza":"","lat":36.515109,"lng":140.551913,"zip":"3130032"},{"town":"三才町","koaza":"","lat":36.528948,"lng":140.53609,"zip":"3130012"},{"town":"島町","koaza":"","lat":36.50642,"lng":140.497855,"zip":"3130047"},{"town":"下大門町","koaza":"","lat":36.577586,"lng":140.512011,"zip":"3130002"},{"town":"下河合町","koaza":"","lat":36.506479,"lng":140.528551,"zip":"3130044"},{"town":"下高倉町","koaza":"","lat":36.697982,"lng":140.4669,"zip":"3130352"},{"town":"下利員町","koaza":"","lat":36.560946,"lng":140.439203,"zip":"3130106"},{"town":"下宮河内町","koaza":"","lat":36.618827,"lng":140.436248,"zip":"3130103"},{"town":"常福地町","koaza":"","lat":36.587409,"lng":140.530916,"zip":"3110322"},{"town":"白羽町","koaza":"","lat":36.575288,"lng":140.553797,"zip":"3110324"},{"town":"瑞龍町","koaza":"","lat":36.569738,"lng":140.527402,"zip":"3130003"},{"town":"千寿町","koaza":"","lat":36.57571,"lng":140.463886,"zip":"3130111"},{"town":"高柿町","koaza":"","lat":36.555142,"lng":140.468873,"zip":"3130113"},{"town":"高貫町","koaza":"","lat":36.556727,"lng":140.566761,"zip":"3130024"},{"town":"竹合町","koaza":"","lat":36.545645,"lng":140.459197,"zip":"3130115"},{"town":"棚谷町","koaza":"","lat":36.598543,"lng":140.464539,"zip":"3130225"},{"town":"玉造町","koaza":"","lat":36.558406,"lng":140.489297,"zip":"3130122"},{"town":"田渡町","koaza":"","lat":36.565599,"lng":140.558898,"zip":"3130026"},{"town":"茅根町","koaza":"","lat":36.587327,"lng":140.56837,"zip":"3110323"},{"town":"天神林町","koaza":"","lat":36.526051,"lng":140.503026,"zip":"3130049"},{"town":"東連地町","koaza":"","lat":36.57506,"lng":140.477347,"zip":"3130224"},{"town":"徳田町","koaza":"","lat":36.79135,"lng":140.483218,"zip":"3110502"},{"town":"中城町","koaza":"","lat":36.545331,"lng":140.526658,"zip":"3130061"},{"town":"中染町","koaza":"","lat":36.635715,"lng":140.491608,"zip":"3130212"},{"town":"中利員町","koaza":"","lat":36.579799,"lng":140.447582,"zip":"3130105"},{"town":"中野町","koaza":"","lat":36.51147,"lng":140.476537,"zip":"3130134"},{"town":"西一町","koaza":"","lat":36.541544,"lng":140.522371,"zip":"3130056"},{"town":"西河内上町","koaza":"","lat":36.63222,"lng":140.512388,"zip":"3110314"},{"town":"西河内下町","koaza":"","lat":36.612051,"lng":140.534193,"zip":"3110312"},{"town":"西河内中町","koaza":"","lat":36.623544,"lng":140.527911,"zip":"3110313"},{"town":"西三町","koaza":"","lat":36.537215,"lng":140.521721,"zip":"3130054"},{"town":"西染町","koaza":"","lat":36.624907,"lng":140.469398,"zip":"3130215"},{"town":"西二町","koaza":"","lat":36.539751,"lng":140.5225,"zip":"3130055"},{"town":"西宮町","koaza":"","lat":36.548847,"lng":140.537636,"zip":"3130011"},{"town":"長谷町","koaza":"","lat":36.554166,"lng":140.556613,"zip":"3130027"},{"town":"幡町","koaza":"","lat":36.540277,"lng":140.542474,"zip":"3130025"},{"town":"花房町","koaza":"","lat":36.53341,"lng":140.459014,"zip":"3130131"},{"town":"塙町","koaza":"","lat":36.54134,"lng":140.528813,"zip":"3130062"},{"town":"馬場町","koaza":"","lat":36.552701,"lng":140.523962,"zip":"3130004"},{"town":"春友町","koaza":"","lat":36.597813,"lng":140.56235,"zip":"3110321"},{"town":"東一町","koaza":"","lat":36.541476,"lng":140.523828,"zip":"3130051"},{"town":"東三町","koaza":"","lat":36.537959,"lng":140.524096,"zip":"3130053"},{"town":"東染町","koaza":"","lat":36.663291,"lng":140.504989,"zip":"3130211"},{"town":"東二町","koaza":"","lat":36.53974,"lng":140.524252,"zip":"3130052"},{"town":"藤田町","koaza":"","lat":36.517925,"lng":140.491854,"zip":"3130048"},{"town":"増井町","koaza":"","lat":36.562805,"lng":140.517589,"zip":"3130008"},{"town":"町田町","koaza":"","lat":36.620247,"lng":140.491827,"zip":"3130213"},{"town":"町屋町","koaza":"","lat":36.608288,"lng":140.561962,"zip":"3110311"},{"town":"松栄町","koaza":"","lat":36.514175,"lng":140.46467,"zip":"3130133"},{"town":"松平町","koaza":"","lat":36.588644,"lng":140.491815,"zip":"3130222"},{"town":"真弓町","koaza":"","lat":36.539715,"lng":140.58163,"zip":"3130022"},{"town":"箕町","koaza":"","lat":36.556964,"lng":140.447811,"zip":"3130114"},{"town":"宮の郷町","koaza":"","lat":36.546406,"lng":140.44967,"zip":"3130117"},{"town":"宮本町","koaza":"","lat":36.54542,"lng":140.517728,"zip":"3130006"},{"town":"谷河原町","koaza":"","lat":36.515791,"lng":140.519431,"zip":"3130043"},{"town":"山下町","koaza":"","lat":36.5286,"lng":140.529527,"zip":"3130013"},{"town":"和久町","koaza":"","lat":36.611291,"lng":140.484508,"zip":"3130214"},{"town":"和田町","koaza":"","lat":36.581125,"lng":140.49401,"zip":"3130223"},{"town":"中城町","koaza":"西鯉沼","lat":36.544878,"lng":140.52988,"zip":"3130061"}]