[{"town":"相賀町","koaza":"","lat":36.581847,"lng":140.659725,"zip":"3170075"},{"town":"相田町一丁目","koaza":"","lat":36.62991,"lng":140.682171,"zip":"3191415"},{"town":"相田町二丁目","koaza":"","lat":36.630335,"lng":140.68708,"zip":"3191415"},{"town":"相田町三丁目","koaza":"","lat":36.6268,"lng":140.686152,"zip":"3191415"},{"town":"旭町一丁目","koaza":"","lat":36.59116,"lng":140.663555,"zip":"3170074"},{"town":"旭町二丁目","koaza":"","lat":36.58704,"lng":140.661757,"zip":"3170074"},{"town":"旭町三丁目","koaza":"","lat":36.583615,"lng":140.661318,"zip":"3170074"},{"town":"鮎川町一丁目","koaza":"","lat":36.56061,"lng":140.638802,"zip":"3160036"},{"town":"鮎川町二丁目","koaza":"","lat":36.5656,"lng":140.637298,"zip":"3160036"},{"town":"鮎川町三丁目","koaza":"","lat":36.566179,"lng":140.642196,"zip":"3160036"},{"town":"鮎川町四丁目","koaza":"","lat":36.569324,"lng":140.646966,"zip":"3160036"},{"town":"鮎川町五丁目","koaza":"","lat":36.570894,"lng":140.636802,"zip":"3160036"},{"town":"鮎川町六丁目","koaza":"","lat":36.569459,"lng":140.633317,"zip":"3160036"},{"town":"砂沢町","koaza":"","lat":36.656997,"lng":140.668475,"zip":"3191418"},{"town":"石名坂町","koaza":"","lat":36.519806,"lng":140.601251,"zip":"3191225"},{"town":"石名坂町一丁目","koaza":"","lat":36.509549,"lng":140.596718,"zip":"3191225"},{"town":"石名坂町二丁目","koaza":"","lat":36.516525,"lng":140.595262,"zip":"3191225"},{"town":"入四間町","koaza":"","lat":36.643672,"lng":140.579073,"zip":"3110402"},{"town":"会瀬町一丁目","koaza":"","lat":36.576937,"lng":140.655418,"zip":"3170076"},{"town":"会瀬町二丁目","koaza":"","lat":36.579543,"lng":140.652253,"zip":"3170076"},{"town":"会瀬町三丁目","koaza":"","lat":36.581662,"lng":140.646336,"zip":"3170076"},{"town":"会瀬町四丁目","koaza":"","lat":36.584168,"lng":140.645589,"zip":"3170076"},{"town":"大久保町","koaza":"","lat":36.559534,"lng":140.597518,"zip":"3160012"},{"town":"大久保町一丁目","koaza":"","lat":36.555498,"lng":140.625612,"zip":"3160012"},{"town":"大久保町二丁目","koaza":"","lat":36.554272,"lng":140.622827,"zip":"3160012"},{"town":"大久保町三丁目","koaza":"","lat":36.549849,"lng":140.621608,"zip":"3160012"},{"town":"大久保町四丁目","koaza":"","lat":36.554114,"lng":140.619214,"zip":"3160012"},{"town":"大久保町五丁目","koaza":"","lat":36.549309,"lng":140.617738,"zip":"3160012"},{"town":"大沼町","koaza":"","lat":36.533093,"lng":140.602349,"zip":"3160022"},{"town":"大沼町一丁目","koaza":"","lat":36.531647,"lng":140.620244,"zip":"3160022"},{"town":"大沼町二丁目","koaza":"","lat":36.536158,"lng":140.617388,"zip":"3160022"},{"town":"大沼町三丁目","koaza":"","lat":36.530927,"lng":140.616179,"zip":"3160022"},{"town":"大沼町四丁目","koaza":"","lat":36.5351,"lng":140.614189,"zip":"3160022"},{"town":"大みか町一丁目","koaza":"","lat":36.510335,"lng":140.621859,"zip":"3191221"},{"town":"大みか町二丁目","koaza":"","lat":36.513953,"lng":140.623085,"zip":"3191221"},{"town":"大みか町三丁目","koaza":"","lat":36.514048,"lng":140.628626,"zip":"3191221"},{"town":"大みか町四丁目","koaza":"","lat":36.509041,"lng":140.6292,"zip":"3191221"},{"town":"大みか町五丁目","koaza":"","lat":36.505481,"lng":140.623614,"zip":"3191221"},{"town":"大みか町六丁目","koaza":"","lat":36.512183,"lng":140.613159,"zip":"3191221"},{"town":"大みか町七丁目","koaza":"","lat":36.516989,"lng":140.609583,"zip":"3191221"},{"town":"大和田町","koaza":"","lat":36.507506,"lng":140.582064,"zip":"3191234"},{"town":"大和田町一丁目","koaza":"","lat":36.511887,"lng":140.587172,"zip":"3191234"},{"town":"小木津町","koaza":"","lat":36.649008,"lng":140.64722,"zip":"3191413"},{"town":"小木津町一丁目","koaza":"","lat":36.638401,"lng":140.670875,"zip":"3191413"},{"town":"小木津町二丁目","koaza":"","lat":36.643395,"lng":140.67087,"zip":"3191413"},{"town":"小木津町三丁目","koaza":"","lat":36.64195,"lng":140.678486,"zip":"3191413"},{"town":"小木津町四丁目","koaza":"","lat":36.643011,"lng":140.685275,"zip":"3191413"},{"town":"小木津町五丁目","koaza":"","lat":36.642656,"lng":140.69165,"zip":"3191413"},{"town":"折笠町","koaza":"","lat":36.650587,"lng":140.689004,"zip":"3191412"},{"town":"折笠町一丁目","koaza":"","lat":36.657777,"lng":140.684452,"zip":"3191412"},{"town":"鹿島町一丁目","koaza":"","lat":36.594729,"lng":140.651817,"zip":"3170071"},{"town":"鹿島町二丁目","koaza":"","lat":36.592311,"lng":140.650154,"zip":"3170071"},{"town":"鹿島町三丁目","koaza":"","lat":36.588877,"lng":140.647483,"zip":"3170071"},{"town":"金沢町","koaza":"","lat":36.541478,"lng":140.599226,"zip":"3160015"},{"town":"金沢町一丁目","koaza":"","lat":36.541256,"lng":140.623428,"zip":"3160015"},{"town":"金沢町二丁目","koaza":"","lat":36.545339,"lng":140.618669,"zip":"3160015"},{"town":"金沢町三丁目","koaza":"","lat":36.542226,"lng":140.617186,"zip":"3160015"},{"town":"金沢町四丁目","koaza":"","lat":36.538686,"lng":140.619514,"zip":"3160015"},{"town":"金沢町五丁目","koaza":"","lat":36.539205,"lng":140.612002,"zip":"3160015"},{"town":"金沢町六丁目","koaza":"","lat":36.541123,"lng":140.60961,"zip":"3160015"},{"town":"金沢町七丁目","koaza":"","lat":36.539205,"lng":140.607617,"zip":"3160015"},{"town":"かみあい町一丁目","koaza":"","lat":36.629635,"lng":140.66523,"zip":"3191417"},{"town":"かみあい町二丁目","koaza":"","lat":36.629216,"lng":140.660328,"zip":"3191417"},{"town":"かみあい町三丁目","koaza":"","lat":36.627186,"lng":140.659702,"zip":"3191417"},{"town":"神峰町一丁目","koaza":"","lat":36.597169,"lng":140.653137,"zip":"3170064"},{"town":"神峰町二丁目","koaza":"","lat":36.600219,"lng":140.65377,"zip":"3170064"},{"town":"神峰町三丁目","koaza":"","lat":36.602004,"lng":140.65552,"zip":"3170064"},{"town":"神峰町四丁目","koaza":"","lat":36.603066,"lng":140.657924,"zip":"3170064"},{"town":"川尻町","koaza":"","lat":36.657021,"lng":140.691789,"zip":"3191411"},{"town":"川尻町一丁目","koaza":"","lat":36.652366,"lng":140.69751,"zip":"3191411"},{"town":"川尻町二丁目","koaza":"","lat":36.658515,"lng":140.710414,"zip":"3191411"},{"town":"川尻町三丁目","koaza":"","lat":36.660355,"lng":140.705536,"zip":"3191411"},{"town":"川尻町四丁目","koaza":"","lat":36.661699,"lng":140.698114,"zip":"3191411"},{"town":"川尻町五丁目","koaza":"","lat":36.660047,"lng":140.69405,"zip":"3191411"},{"town":"川尻町六丁目","koaza":"","lat":36.665883,"lng":140.687577,"zip":"3191411"},{"town":"川尻町七丁目","koaza":"","lat":36.659088,"lng":140.686916,"zip":"3191411"},{"town":"河原子町一丁目","koaza":"","lat":36.549263,"lng":140.642995,"zip":"3160005"},{"town":"河原子町二丁目","koaza":"","lat":36.545017,"lng":140.643043,"zip":"3160005"},{"town":"河原子町三丁目","koaza":"","lat":36.541019,"lng":140.640156,"zip":"3160005"},{"town":"河原子町四丁目","koaza":"","lat":36.545195,"lng":140.638881,"zip":"3160005"},{"town":"神田町","koaza":"","lat":36.500989,"lng":140.570147,"zip":"3191233"},{"town":"久慈町二丁目","koaza":"","lat":36.503674,"lng":140.61562,"zip":"3191222"},{"town":"久慈町三丁目","koaza":"","lat":36.497373,"lng":140.613612,"zip":"3191222"},{"town":"久慈町四丁目","koaza":"","lat":36.490553,"lng":140.611341,"zip":"3191222"},{"town":"久慈町五丁目","koaza":"","lat":36.497783,"lng":140.6072,"zip":"3191222"},{"town":"久慈町六丁目","koaza":"","lat":36.505463,"lng":140.61098,"zip":"3191222"},{"town":"久慈町七丁目","koaza":"","lat":36.509275,"lng":140.607611,"zip":"3191222"},{"town":"国分町一丁目","koaza":"","lat":36.560162,"lng":140.64299,"zip":"3160035"},{"town":"国分町二丁目","koaza":"","lat":36.556534,"lng":140.645404,"zip":"3160035"},{"town":"国分町三丁目","koaza":"","lat":36.566213,"lng":140.648558,"zip":"3160035"},{"town":"幸町一丁目","koaza":"","lat":36.590667,"lng":140.660409,"zip":"3170073"},{"town":"幸町二丁目","koaza":"","lat":36.58942,"lng":140.658154,"zip":"3170073"},{"town":"幸町三丁目","koaza":"","lat":36.585182,"lng":140.654291,"zip":"3170073"},{"town":"桜川町一丁目","koaza":"","lat":36.557918,"lng":140.628759,"zip":"3160002"},{"town":"桜川町二丁目","koaza":"","lat":36.559977,"lng":140.630213,"zip":"3160002"},{"town":"桜川町三丁目","koaza":"","lat":36.562341,"lng":140.632658,"zip":"3160002"},{"town":"桜川町四丁目","koaza":"","lat":36.562866,"lng":140.629307,"zip":"3160002"},{"town":"下土木内町","koaza":"","lat":36.496706,"lng":140.57804,"zip":"3191232"},{"town":"下深荻町","koaza":"","lat":36.644623,"lng":140.53128,"zip":"3110404"},{"town":"十王町伊師","koaza":"","lat":36.679804,"lng":140.706543,"zip":"3191301"},{"town":"十王町伊師本郷","koaza":"","lat":36.677504,"lng":140.69459,"zip":"3191302"},{"town":"十王町黒坂","koaza":"","lat":36.698529,"lng":140.553717,"zip":"3191306"},{"town":"十王町城の丘一丁目","koaza":"","lat":36.668488,"lng":140.679601,"zip":"3191308"},{"town":"十王町城の丘二丁目","koaza":"","lat":36.670469,"lng":140.677353,"zip":"3191308"},{"town":"十王町城の丘三丁目","koaza":"","lat":36.666295,"lng":140.677478,"zip":"3191308"},{"town":"十王町城の丘四丁目","koaza":"","lat":36.669827,"lng":140.673861,"zip":"3191308"},{"town":"十王町城の丘五丁目","koaza":"","lat":36.665751,"lng":140.674677,"zip":"3191308"},{"town":"十王町高原","koaza":"","lat":36.672696,"lng":140.613975,"zip":"3191305"},{"town":"十王町友部","koaza":"","lat":36.677056,"lng":140.667861,"zip":"3191304"},{"town":"十王町友部東一丁目","koaza":"","lat":36.67133,"lng":140.68806,"zip":"3191303"},{"town":"十王町友部東二丁目","koaza":"","lat":36.67018,"lng":140.687196,"zip":"3191303"},{"town":"十王町友部東三丁目","koaza":"","lat":36.668567,"lng":140.686139,"zip":"3191303"},{"town":"十王町友部東四丁目","koaza":"","lat":36.667532,"lng":140.684556,"zip":"3191303"},{"town":"十王町山部","koaza":"","lat":36.691734,"lng":140.654188,"zip":"3191307"},{"town":"城南町一丁目","koaza":"","lat":36.586261,"lng":140.645946,"zip":"3170077"},{"town":"城南町二丁目","koaza":"","lat":36.589321,"lng":140.64352,"zip":"3170077"},{"town":"城南町三丁目","koaza":"","lat":36.585886,"lng":140.640563,"zip":"3170077"},{"town":"城南町四丁目","koaza":"","lat":36.584412,"lng":140.636913,"zip":"3170077"},{"town":"城南町五丁目","koaza":"","lat":36.58855,"lng":140.637505,"zip":"3170077"},{"town":"白銀町一丁目","koaza":"","lat":36.605754,"lng":140.650529,"zip":"3170056"},{"town":"白銀町二丁目","koaza":"","lat":36.610996,"lng":140.647788,"zip":"3170056"},{"town":"白銀町三丁目","koaza":"","lat":36.614927,"lng":140.641371,"zip":"3170056"},{"town":"末広町一丁目","koaza":"","lat":36.557807,"lng":140.626056,"zip":"3160006"},{"town":"末広町二丁目","koaza":"","lat":36.559062,"lng":140.625657,"zip":"3160006"},{"town":"末広町三丁目","koaza":"","lat":36.561248,"lng":140.624806,"zip":"3160006"},{"town":"末広町四丁目","koaza":"","lat":36.562731,"lng":140.621805,"zip":"3160006"},{"town":"末広町五丁目","koaza":"","lat":36.558737,"lng":140.620233,"zip":"3160006"},{"town":"助川町","koaza":"","lat":36.599451,"lng":140.619939,"zip":"3170065"},{"town":"助川町一丁目","koaza":"","lat":36.597282,"lng":140.650345,"zip":"3170065"},{"town":"助川町二丁目","koaza":"","lat":36.592288,"lng":140.64688,"zip":"3170065"},{"town":"助川町三丁目","koaza":"","lat":36.597371,"lng":140.645849,"zip":"3170065"},{"town":"助川町四丁目","koaza":"","lat":36.593486,"lng":140.642794,"zip":"3170065"},{"town":"助川町五丁目","koaza":"","lat":36.590752,"lng":140.639991,"zip":"3170065"},{"town":"諏訪町","koaza":"","lat":36.592133,"lng":140.596902,"zip":"3160001"},{"town":"諏訪町一丁目","koaza":"","lat":36.565698,"lng":140.631205,"zip":"3160001"},{"town":"諏訪町二丁目","koaza":"","lat":36.570131,"lng":140.629473,"zip":"3160001"},{"town":"諏訪町三丁目","koaza":"","lat":36.569971,"lng":140.624844,"zip":"3160001"},{"town":"諏訪町四丁目","koaza":"","lat":36.567129,"lng":140.61782,"zip":"3160001"},{"town":"諏訪町五丁目","koaza":"","lat":36.566046,"lng":140.617049,"zip":"3160001"},{"town":"諏訪町六丁目","koaza":"","lat":36.566182,"lng":140.611286,"zip":"3160001"},{"town":"台原町一丁目","koaza":"","lat":36.533543,"lng":140.611,"zip":"3160021"},{"town":"台原町二丁目","koaza":"","lat":36.533906,"lng":140.60886,"zip":"3160021"},{"town":"台原町三丁目","koaza":"","lat":36.530656,"lng":140.610777,"zip":"3160021"},{"town":"高鈴町一丁目","koaza":"","lat":36.599857,"lng":140.645543,"zip":"3170066"},{"town":"高鈴町二丁目","koaza":"","lat":36.601676,"lng":140.645277,"zip":"3170066"},{"town":"高鈴町三丁目","koaza":"","lat":36.603155,"lng":140.648663,"zip":"3170066"},{"town":"高鈴町四丁目","koaza":"","lat":36.605099,"lng":140.646204,"zip":"3170066"},{"town":"高鈴町五丁目","koaza":"","lat":36.606794,"lng":140.642801,"zip":"3170066"},{"town":"多賀町一丁目","koaza":"","lat":36.554588,"lng":140.632843,"zip":"3160003"},{"town":"多賀町二丁目","koaza":"","lat":36.556321,"lng":140.630165,"zip":"3160003"},{"town":"多賀町三丁目","koaza":"","lat":36.558104,"lng":140.633035,"zip":"3160003"},{"town":"多賀町五丁目","koaza":"","lat":36.560545,"lng":140.635355,"zip":"3160003"},{"town":"多賀町四丁目","koaza":"","lat":36.557377,"lng":140.635724,"zip":"3160003"},{"town":"田尻町","koaza":"","lat":36.634222,"lng":140.653511,"zip":"3191416"},{"town":"田尻町一丁目","koaza":"","lat":36.631331,"lng":140.673863,"zip":"3191416"},{"town":"田尻町二丁目","koaza":"","lat":36.629546,"lng":140.668364,"zip":"3191416"},{"town":"田尻町三丁目","koaza":"","lat":36.626089,"lng":140.672322,"zip":"3191416"},{"town":"田尻町四丁目","koaza":"","lat":36.62634,"lng":140.679015,"zip":"3191416"},{"town":"田尻町五丁目","koaza":"","lat":36.622737,"lng":140.681115,"zip":"3191416"},{"town":"田尻町六丁目","koaza":"","lat":36.619945,"lng":140.68427,"zip":"3191416"},{"town":"田尻町七丁目","koaza":"","lat":36.622855,"lng":140.686149,"zip":"3191416"},{"town":"千石町一丁目","koaza":"","lat":36.552168,"lng":140.629453,"zip":"3160013"},{"town":"千石町二丁目","koaza":"","lat":36.554292,"lng":140.627398,"zip":"3160013"},{"town":"千石町三丁目","koaza":"","lat":36.551324,"lng":140.625887,"zip":"3160013"},{"town":"千石町四丁目","koaza":"","lat":36.548535,"lng":140.625512,"zip":"3160013"},{"town":"留町","koaza":"","lat":36.489836,"lng":140.59985,"zip":"3191231"},{"town":"中成沢町一丁目","koaza":"","lat":36.578819,"lng":140.645112,"zip":"3160033"},{"town":"中成沢町二丁目","koaza":"","lat":36.579223,"lng":140.640011,"zip":"3160033"},{"town":"中成沢町三丁目","koaza":"","lat":36.574621,"lng":140.637227,"zip":"3160033"},{"town":"中成沢町四丁目","koaza":"","lat":36.573472,"lng":140.641412,"zip":"3160033"},{"town":"中深荻町","koaza":"","lat":36.670606,"lng":140.558837,"zip":"3110401"},{"town":"中丸町一丁目","koaza":"","lat":36.558377,"lng":140.614021,"zip":"3160007"},{"town":"中丸町二丁目","koaza":"","lat":36.559776,"lng":140.612435,"zip":"3160007"},{"town":"滑川町","koaza":"","lat":36.622677,"lng":140.651505,"zip":"3170053"},{"town":"滑川町一丁目","koaza":"","lat":36.611267,"lng":140.667172,"zip":"3170053"},{"town":"滑川町二丁目","koaza":"","lat":36.612893,"lng":140.665046,"zip":"3170053"},{"town":"滑川町三丁目","koaza":"","lat":36.613051,"lng":140.660004,"zip":"3170053"},{"town":"滑川本町一丁目","koaza":"","lat":36.616599,"lng":140.666321,"zip":"3170051"},{"town":"滑川本町二丁目","koaza":"","lat":36.619944,"lng":140.662877,"zip":"3170051"},{"town":"滑川本町三丁目","koaza":"","lat":36.622837,"lng":140.664591,"zip":"3170051"},{"town":"滑川本町四丁目","koaza":"","lat":36.620304,"lng":140.667751,"zip":"3170051"},{"town":"滑川本町五丁目","koaza":"","lat":36.619583,"lng":140.671998,"zip":"3170051"},{"town":"成沢町","koaza":"","lat":36.583984,"lng":140.621449,"zip":"3160031"},{"town":"西成沢町一丁目","koaza":"","lat":36.580825,"lng":140.634755,"zip":"3160032"},{"town":"西成沢町二丁目","koaza":"","lat":36.577934,"lng":140.63061,"zip":"3160032"},{"town":"西成沢町三丁目","koaza":"","lat":36.573874,"lng":140.628347,"zip":"3160032"},{"town":"西成沢町四丁目","koaza":"","lat":36.578462,"lng":140.622987,"zip":"3160032"},{"town":"塙山町一丁目","koaza":"","lat":36.54807,"lng":140.612546,"zip":"3160011"},{"town":"塙山町二丁目","koaza":"","lat":36.547632,"lng":140.608379,"zip":"3160011"},{"town":"東大沼町一丁目","koaza":"","lat":36.530681,"lng":140.633267,"zip":"3160023"},{"town":"東大沼町二丁目","koaza":"","lat":36.532796,"lng":140.626144,"zip":"3160023"},{"town":"東大沼町三丁目","koaza":"","lat":36.528188,"lng":140.624513,"zip":"3160023"},{"town":"東大沼町四丁目","koaza":"","lat":36.526473,"lng":140.631393,"zip":"3160023"},{"town":"東金沢町一丁目","koaza":"","lat":36.537807,"lng":140.635193,"zip":"3160014"},{"town":"東金沢町二丁目","koaza":"","lat":36.538812,"lng":140.631117,"zip":"3160014"},{"town":"東金沢町三丁目","koaza":"","lat":36.543878,"lng":140.627711,"zip":"3160014"},{"town":"東金沢町四丁目","koaza":"","lat":36.540984,"lng":140.627142,"zip":"3160014"},{"town":"東金沢町五丁目","koaza":"","lat":36.537331,"lng":140.62605,"zip":"3160014"},{"town":"東河内町","koaza":"","lat":36.62861,"lng":140.559563,"zip":"3110403"},{"town":"東多賀町一丁目","koaza":"","lat":36.55211,"lng":140.637281,"zip":"3160004"},{"town":"東多賀町二丁目","koaza":"","lat":36.548815,"lng":140.633829,"zip":"3160004"},{"town":"東多賀町三丁目","koaza":"","lat":36.544513,"lng":140.635256,"zip":"3160004"},{"town":"東多賀町四丁目","koaza":"","lat":36.545364,"lng":140.631886,"zip":"3160004"},{"town":"東多賀町五丁目","koaza":"","lat":36.547414,"lng":140.630058,"zip":"3160004"},{"town":"東町一丁目","koaza":"","lat":36.597169,"lng":140.662871,"zip":"3170061"},{"town":"東町二丁目","koaza":"","lat":36.599993,"lng":140.663778,"zip":"3170061"},{"town":"東町三丁目","koaza":"","lat":36.596093,"lng":140.667002,"zip":"3170061"},{"town":"東町四丁目","koaza":"","lat":36.601023,"lng":140.669654,"zip":"3170061"},{"town":"東滑川町一丁目","koaza":"","lat":36.607823,"lng":140.671028,"zip":"3170052"},{"town":"東滑川町二丁目","koaza":"","lat":36.610022,"lng":140.673147,"zip":"3170052"},{"town":"東滑川町三丁目","koaza":"","lat":36.612977,"lng":140.674191,"zip":"3170052"},{"town":"東滑川町四丁目","koaza":"","lat":36.61859,"lng":140.674551,"zip":"3170052"},{"town":"東滑川町五丁目","koaza":"","lat":36.615703,"lng":140.678037,"zip":"3170052"},{"town":"東成沢町一丁目","koaza":"","lat":36.572504,"lng":140.651619,"zip":"3160034"},{"town":"東成沢町二丁目","koaza":"","lat":36.575053,"lng":140.648283,"zip":"3160034"},{"town":"東成沢町三丁目","koaza":"","lat":36.571895,"lng":140.646843,"zip":"3160034"},{"town":"日高町一丁目","koaza":"","lat":36.635758,"lng":140.676129,"zip":"3191414"},{"town":"日高町二丁目","koaza":"","lat":36.639261,"lng":140.679589,"zip":"3191414"},{"town":"日高町三丁目","koaza":"","lat":36.639261,"lng":140.687537,"zip":"3191414"},{"town":"日高町四丁目","koaza":"","lat":36.633794,"lng":140.688655,"zip":"3191414"},{"town":"日高町五丁目","koaza":"","lat":36.633974,"lng":140.682068,"zip":"3191414"},{"town":"平和町一丁目","koaza":"","lat":36.593441,"lng":140.659229,"zip":"3170062"},{"town":"平和町二丁目","koaza":"","lat":36.595361,"lng":140.660214,"zip":"3170062"},{"town":"弁天町一丁目","koaza":"","lat":36.59344,"lng":140.654977,"zip":"3170072"},{"town":"弁天町二丁目","koaza":"","lat":36.590933,"lng":140.652992,"zip":"3170072"},{"town":"弁天町三丁目","koaza":"","lat":36.588114,"lng":140.650724,"zip":"3170072"},{"town":"みかの原町一丁目","koaza":"","lat":36.527045,"lng":140.612307,"zip":"3160026"},{"town":"みかの原町二丁目","koaza":"","lat":36.52416,"lng":140.611665,"zip":"3160026"},{"town":"水木町一丁目","koaza":"","lat":36.518494,"lng":140.631132,"zip":"3160024"},{"town":"水木町二丁目","koaza":"","lat":36.520215,"lng":140.625149,"zip":"3160024"},{"town":"みなと町","koaza":"","lat":36.493581,"lng":140.617611,"zip":"3191223"},{"town":"南高野町一丁目","koaza":"","lat":36.500945,"lng":140.602989,"zip":"3191224"},{"town":"南高野町二丁目","koaza":"","lat":36.506006,"lng":140.603174,"zip":"3191224"},{"town":"南高野町三丁目","koaza":"","lat":36.5086,"lng":140.603735,"zip":"3191224"},{"town":"宮田町","koaza":"","lat":36.621951,"lng":140.617609,"zip":"3170055"},{"town":"宮田町一丁目","koaza":"","lat":36.601145,"lng":140.65038,"zip":"3170055"},{"town":"宮田町二丁目","koaza":"","lat":36.602208,"lng":140.652262,"zip":"3170055"},{"town":"宮田町三丁目","koaza":"","lat":36.604874,"lng":140.655205,"zip":"3170055"},{"town":"宮田町四丁目","koaza":"","lat":36.606004,"lng":140.653376,"zip":"3170055"},{"town":"宮田町五丁目","koaza":"","lat":36.607833,"lng":140.656625,"zip":"3170055"},{"town":"本宮町一丁目","koaza":"","lat":36.605575,"lng":140.659297,"zip":"3170054"},{"town":"本宮町二丁目","koaza":"","lat":36.603292,"lng":140.662127,"zip":"3170054"},{"town":"本宮町三丁目","koaza":"","lat":36.607043,"lng":140.663339,"zip":"3170054"},{"town":"本宮町四丁目","koaza":"","lat":36.604377,"lng":140.666053,"zip":"3170054"},{"town":"本宮町五丁目","koaza":"","lat":36.604332,"lng":140.669038,"zip":"3170054"},{"town":"茂宮町","koaza":"","lat":36.502437,"lng":140.593976,"zip":"3191235"},{"town":"森山町","koaza":"","lat":36.524772,"lng":140.605918,"zip":"3160025"},{"town":"森山町一丁目","koaza":"","lat":36.522647,"lng":140.622997,"zip":"3160025"},{"town":"森山町二丁目","koaza":"","lat":36.523973,"lng":140.619053,"zip":"3160025"},{"town":"森山町三丁目","koaza":"","lat":36.52416,"lng":140.615464,"zip":"3160025"},{"town":"森山町四丁目","koaza":"","lat":36.51807,"lng":140.613383,"zip":"3160025"},{"town":"森山町五丁目","koaza":"","lat":36.518113,"lng":140.618777,"zip":"3160025"},{"town":"若葉町一丁目","koaza":"","lat":36.595632,"lng":140.655921,"zip":"3170063"},{"town":"若葉町二丁目","koaza":"","lat":36.59848,"lng":140.656506,"zip":"3170063"},{"town":"若葉町三丁目","koaza":"","lat":36.600422,"lng":140.659221,"zip":"3170063"},{"town":"久慈町一丁目","koaza":"","lat":36.498388,"lng":140.622592,"zip":"3191222"},{"town":"留町","koaza":"前川","lat":36.49181,"lng":140.604023,"zip":"3191231"}]