[{"town":"青木","koaza":"","lat":36.348354,"lng":140.085229,"zip":"3091241"},{"town":"青柳","koaza":"","lat":36.356713,"lng":140.116301,"zip":"3091456"},{"town":"明日香一丁目","koaza":"","lat":36.365912,"lng":140.107939,"zip":"3091216"},{"town":"明日香二丁目","koaza":"","lat":36.365481,"lng":140.110144,"zip":"3091216"},{"town":"明日香三丁目","koaza":"","lat":36.365152,"lng":140.112207,"zip":"3091216"},{"town":"明日香四丁目","koaza":"","lat":36.36722,"lng":140.109034,"zip":"3091216"},{"town":"阿部田","koaza":"","lat":36.316444,"lng":140.09463,"zip":"3091234"},{"town":"飯渕","koaza":"","lat":36.387969,"lng":140.09513,"zip":"3091200"},{"town":"池亀","koaza":"","lat":36.390918,"lng":140.166251,"zip":"3091332"},{"town":"磯部","koaza":"","lat":36.367029,"lng":140.137651,"zip":"3091457"},{"town":"稲","koaza":"","lat":36.371823,"lng":140.148023,"zip":"3091458"},{"town":"犬田","koaza":"","lat":36.348732,"lng":140.10424,"zip":"3091217"},{"town":"今泉","koaza":"","lat":36.328993,"lng":140.17379,"zip":"3091464"},{"town":"入野","koaza":"","lat":36.388707,"lng":140.120722,"zip":"3091345"},{"town":"岩瀬","koaza":"","lat":36.371524,"lng":140.122281,"zip":"3091211"},{"town":"上野原地新田","koaza":"","lat":36.349322,"lng":140.050205,"zip":"3091226"},{"town":"大泉","koaza":"","lat":36.389937,"lng":140.079821,"zip":"3091201"},{"town":"大国玉","koaza":"","lat":36.324921,"lng":140.071678,"zip":"3091244"},{"town":"大曽根","koaza":"","lat":36.314815,"lng":140.125553,"zip":"3091232"},{"town":"大月","koaza":"","lat":36.367945,"lng":140.170684,"zip":"3091335"},{"town":"長方","koaza":"","lat":36.356185,"lng":140.075013,"zip":"3091222"},{"town":"門毛","koaza":"","lat":36.401064,"lng":140.13209,"zip":"3091341"},{"town":"金敷","koaza":"","lat":36.322747,"lng":140.056009,"zip":"3091245"},{"town":"上城","koaza":"","lat":36.350701,"lng":140.126477,"zip":"3091454"},{"town":"亀岡","koaza":"","lat":36.377353,"lng":140.141047,"zip":"3091343"},{"town":"加茂部","koaza":"","lat":36.351501,"lng":140.157512,"zip":"3091452"},{"town":"木植","koaza":"","lat":36.321068,"lng":140.161464,"zip":"3091465"},{"town":"久原","koaza":"","lat":36.376399,"lng":140.088824,"zip":"3091204"},{"town":"鍬田","koaza":"","lat":36.360126,"lng":140.094086,"zip":"3091223"},{"town":"小塩","koaza":"","lat":36.378601,"lng":140.159263,"zip":"3091336"},{"town":"御領一丁目","koaza":"","lat":36.365497,"lng":140.104711,"zip":"3091215"},{"town":"御領二丁目","koaza":"","lat":36.365385,"lng":140.102241,"zip":"3091215"},{"town":"御領三丁目","koaza":"","lat":36.366843,"lng":140.102635,"zip":"3091215"},{"town":"坂本","koaza":"","lat":36.373667,"lng":140.168294,"zip":"3091334"},{"town":"猿田","koaza":"","lat":36.32423,"lng":140.146896,"zip":"3091466"},{"town":"下泉","koaza":"","lat":36.359751,"lng":140.05387,"zip":"3091225"},{"town":"曽根","koaza":"","lat":36.334311,"lng":140.144497,"zip":"3091462"},{"town":"高久","koaza":"","lat":36.313084,"lng":140.08189,"zip":"3091243"},{"town":"高幡","koaza":"","lat":36.342983,"lng":140.157098,"zip":"3091463"},{"town":"高森","koaza":"","lat":36.343591,"lng":140.070232,"zip":"3091246"},{"town":"堤上","koaza":"","lat":36.372115,"lng":140.06043,"zip":"3091205"},{"town":"富岡","koaza":"","lat":36.366447,"lng":140.087562,"zip":"3091203"},{"town":"富谷","koaza":"","lat":36.378676,"lng":140.106363,"zip":"3091347"},{"town":"友部","koaza":"","lat":36.348526,"lng":140.134775,"zip":"3091453"},{"town":"中泉","koaza":"","lat":36.3554,"lng":140.062938,"zip":"3091224"},{"town":"中里","koaza":"","lat":36.379802,"lng":140.118182,"zip":"3091346"},{"town":"西飯岡","koaza":"","lat":36.37156,"lng":140.07526,"zip":"3091221"},{"town":"西小塙","koaza":"","lat":36.363764,"lng":140.151777,"zip":"3091451"},{"town":"西桜川一丁目","koaza":"","lat":36.36339,"lng":140.10153,"zip":"3091213"},{"town":"西桜川二丁目","koaza":"","lat":36.363991,"lng":140.104533,"zip":"3091213"},{"town":"西桜川三丁目","koaza":"","lat":36.364151,"lng":140.107652,"zip":"3091213"},{"town":"羽田","koaza":"","lat":36.331673,"lng":140.089123,"zip":"3091242"},{"town":"東飯田","koaza":"","lat":36.309907,"lng":140.111579,"zip":"3091233"},{"town":"東桜川一丁目","koaza":"","lat":36.363652,"lng":140.110756,"zip":"3091214"},{"town":"東桜川二丁目","koaza":"","lat":36.36226,"lng":140.113105,"zip":"3091214"},{"town":"東桜川三丁目","koaza":"","lat":36.361556,"lng":140.116137,"zip":"3091214"},{"town":"平沢","koaza":"","lat":36.389899,"lng":140.151363,"zip":"3091200"},{"town":"福崎","koaza":"","lat":36.378623,"lng":140.152202,"zip":"3091337"},{"town":"富士見台一丁目","koaza":"","lat":36.36438,"lng":140.114318,"zip":"3091212"},{"town":"富士見台二丁目","koaza":"","lat":36.363566,"lng":140.116481,"zip":"3091212"},{"town":"富士見台三丁目","koaza":"","lat":36.366283,"lng":140.115073,"zip":"3091212"},{"town":"富士見台四丁目","koaza":"","lat":36.365471,"lng":140.117106,"zip":"3091212"},{"town":"本郷","koaza":"","lat":36.368849,"lng":140.047038,"zip":"3091227"},{"town":"真壁町飯塚","koaza":"","lat":36.276872,"lng":140.091337,"zip":"3004417"},{"town":"真壁町伊佐々","koaza":"","lat":36.271654,"lng":140.084865,"zip":"3004416"},{"town":"真壁町大塚新田","koaza":"","lat":36.308199,"lng":140.067828,"zip":"3004428"},{"town":"真壁町上小幡","koaza":"","lat":36.304587,"lng":140.120167,"zip":"3004401"},{"town":"真壁町上谷貝","koaza":"","lat":36.30649,"lng":140.058257,"zip":"3004427"},{"town":"真壁町亀熊","koaza":"","lat":36.289249,"lng":140.087205,"zip":"3004422"},{"town":"真壁町源法寺","koaza":"","lat":36.272946,"lng":140.070185,"zip":"3004424"},{"town":"真壁町酒寄","koaza":"","lat":36.235025,"lng":140.065023,"zip":"3004413"},{"town":"真壁町桜井","koaza":"","lat":36.27689,"lng":140.1277,"zip":"3004405"},{"town":"真壁町椎尾","koaza":"","lat":36.245887,"lng":140.07245,"zip":"3004414"},{"town":"真壁町下小幡","koaza":"","lat":36.300072,"lng":140.129152,"zip":"3004402"},{"town":"真壁町下谷貝","koaza":"","lat":36.28707,"lng":140.060152,"zip":"3004426"},{"town":"真壁町白井","koaza":"","lat":36.285631,"lng":140.127644,"zip":"3004404"},{"town":"真壁町田","koaza":"","lat":36.253551,"lng":140.108075,"zip":"3004411"},{"town":"真壁町長岡","koaza":"","lat":36.29442,"lng":140.134015,"zip":"3004403"},{"town":"真壁町羽鳥","koaza":"","lat":36.248615,"lng":140.095998,"zip":"3004412"},{"town":"真壁町塙世","koaza":"","lat":36.280572,"lng":140.079844,"zip":"3004423"},{"town":"真壁町原方","koaza":"","lat":36.301484,"lng":140.091879,"zip":"3004421"},{"town":"真壁町東矢貝","koaza":"","lat":36.297078,"lng":140.075697,"zip":"3004429"},{"town":"真壁町東山田","koaza":"","lat":36.252441,"lng":140.083293,"zip":"3004415"},{"town":"真壁町古城","koaza":"","lat":36.275635,"lng":140.106652,"zip":"3004407"},{"town":"真壁町細芝","koaza":"","lat":36.280226,"lng":140.062896,"zip":"3004425"},{"town":"真壁町真壁","koaza":"","lat":36.276831,"lng":140.100642,"zip":"3004408"},{"town":"真壁町山尾","koaza":"","lat":36.259131,"lng":140.120984,"zip":"3004406"},{"town":"松田","koaza":"","lat":36.33826,"lng":140.138076,"zip":"3091461"},{"town":"間中","koaza":"","lat":36.38865,"lng":140.140045,"zip":"3091342"},{"town":"水戸","koaza":"","lat":36.351973,"lng":140.121844,"zip":"3091455"},{"town":"南飯田","koaza":"","lat":36.386053,"lng":140.132033,"zip":"3091344"},{"town":"本木","koaza":"","lat":36.329665,"lng":140.112674,"zip":"3091231"},{"town":"山口","koaza":"","lat":36.385632,"lng":140.177454,"zip":"3091333"}]