[{"town":"あやめ一丁目","koaza":"","lat":35.936508,"lng":140.547471,"zip":"3112425"},{"town":"あやめ二丁目","koaza":"","lat":35.937617,"lng":140.551934,"zip":"3112425"},{"town":"潮来","koaza":"","lat":35.924649,"lng":140.580692,"zip":"3112424"},{"town":"牛堀","koaza":"","lat":35.961249,"lng":140.516172,"zip":"3112436"},{"town":"上戸","koaza":"","lat":35.953109,"lng":140.53265,"zip":"3112435"},{"town":"大生","koaza":"","lat":35.991198,"lng":140.551163,"zip":"3112402"},{"town":"大賀","koaza":"","lat":35.99808,"lng":140.545728,"zip":"3112401"},{"town":"大洲","koaza":"","lat":35.943896,"lng":140.573886,"zip":"3112422"},{"town":"大塚野一丁目","koaza":"","lat":35.944461,"lng":140.54019,"zip":"3112426"},{"town":"大塚野二丁目","koaza":"","lat":35.947515,"lng":140.538438,"zip":"3112426"},{"town":"大山","koaza":"","lat":35.963265,"lng":140.577392,"zip":"3112441"},{"town":"釜谷","koaza":"","lat":35.992646,"lng":140.563438,"zip":"3112403"},{"town":"川尾","koaza":"","lat":35.963543,"lng":140.562045,"zip":"3112440"},{"town":"清水","koaza":"","lat":35.992197,"lng":140.519544,"zip":"3112431"},{"town":"小泉","koaza":"","lat":35.958128,"lng":140.575507,"zip":"3112442"},{"town":"小泉南","koaza":"","lat":35.952682,"lng":140.578694,"zip":"3112444"},{"town":"下田","koaza":"","lat":35.960136,"lng":140.59198,"zip":"3112407"},{"town":"島須","koaza":"","lat":35.976822,"lng":140.53777,"zip":"3112434"},{"town":"新宮","koaza":"","lat":35.9651,"lng":140.579856,"zip":"3112406"},{"town":"新宮南","koaza":"","lat":35.956692,"lng":140.583689,"zip":"3112443"},{"town":"須賀","koaza":"","lat":35.953063,"lng":140.565081,"zip":"3112448"},{"town":"須賀南","koaza":"","lat":35.951854,"lng":140.562136,"zip":"3112446"},{"town":"洲崎","koaza":"","lat":35.957259,"lng":140.596763,"zip":"3112408"},{"town":"築地","koaza":"","lat":35.970593,"lng":140.558972,"zip":"3112405"},{"town":"辻","koaza":"","lat":35.956168,"lng":140.5533,"zip":"3112421"},{"town":"徳島","koaza":"","lat":35.925167,"lng":140.605177,"zip":"3112418"},{"town":"永山","koaza":"","lat":35.968931,"lng":140.510109,"zip":"3112437"},{"town":"延方西","koaza":"","lat":35.952796,"lng":140.585837,"zip":"3112410"},{"town":"延方東","koaza":"","lat":35.953246,"lng":140.592289,"zip":"3112409"},{"town":"日の出一丁目","koaza":"","lat":35.933042,"lng":140.584613,"zip":"3112423"},{"town":"日の出二丁目","koaza":"","lat":35.934424,"lng":140.578247,"zip":"3112423"},{"town":"日の出三丁目","koaza":"","lat":35.936397,"lng":140.572668,"zip":"3112423"},{"town":"日の出四丁目","koaza":"","lat":35.932334,"lng":140.5733,"zip":"3112423"},{"town":"日の出五丁目","koaza":"","lat":35.928604,"lng":140.571295,"zip":"3112423"},{"town":"日の出六丁目","koaza":"","lat":35.93202,"lng":140.568592,"zip":"3112423"},{"town":"日の出七丁目","koaza":"","lat":35.93664,"lng":140.567943,"zip":"3112423"},{"town":"日の出八丁目","koaza":"","lat":35.932861,"lng":140.563861,"zip":"3112423"},{"town":"福島","koaza":"","lat":35.935071,"lng":140.591878,"zip":"3112419"},{"town":"古高","koaza":"","lat":35.963258,"lng":140.569527,"zip":"3112449"},{"town":"堀之内","koaza":"","lat":35.973025,"lng":140.523703,"zip":"3112433"},{"town":"前川","koaza":"","lat":35.949372,"lng":140.5992,"zip":"3112416"},{"town":"曲松","koaza":"","lat":35.951925,"lng":140.569931,"zip":"3112447"},{"town":"曲松南","koaza":"","lat":35.949114,"lng":140.572294,"zip":"3112445"},{"town":"水原","koaza":"","lat":35.981928,"lng":140.575707,"zip":"3112404"},{"town":"宮前一丁目","koaza":"","lat":35.958236,"lng":140.590327,"zip":"3112412"},{"town":"宮前二丁目","koaza":"","lat":35.958864,"lng":140.587524,"zip":"3112412"},{"town":"茂木","koaza":"","lat":35.988058,"lng":140.529447,"zip":"3112432"},{"town":"米島","koaza":"","lat":35.936846,"lng":140.6087,"zip":"3112417"},{"town":"潮来","koaza":"浅間下","lat":35.941479,"lng":140.5383,"zip":"3112424"},{"town":"潮来","koaza":"前","lat":35.935927,"lng":140.552793,"zip":"3112424"},{"town":"延方","koaza":"","lat":35.941392,"lng":140.591849,"zip":"3112415"}]