[{"town":"井ノ岡町","koaza":"","lat":35.965114,"lng":140.254378,"zip":"3001282"},{"town":"牛久町","koaza":"","lat":35.965255,"lng":140.135606,"zip":"3001221"},{"town":"岡見町","koaza":"","lat":35.976807,"lng":140.177973,"zip":"3001204"},{"town":"奥原町","koaza":"","lat":35.94853,"lng":140.258022,"zip":"3001283"},{"town":"小坂町","koaza":"","lat":35.966745,"lng":140.201144,"zip":"3001286"},{"town":"女化町","koaza":"","lat":35.947144,"lng":140.178986,"zip":"3001214"},{"town":"柏田町","koaza":"","lat":35.974845,"lng":140.161373,"zip":"3001211"},{"town":"桂町","koaza":"","lat":35.973489,"lng":140.244745,"zip":"3001281"},{"town":"上太田町","koaza":"","lat":35.959877,"lng":140.190166,"zip":"3001213"},{"town":"上柏田一丁目","koaza":"","lat":35.993839,"lng":140.153519,"zip":"3001232"},{"town":"上柏田二丁目","koaza":"","lat":35.991288,"lng":140.155212,"zip":"3001232"},{"town":"上柏田三丁目","koaza":"","lat":35.99035,"lng":140.160468,"zip":"3001232"},{"town":"上柏田四丁目","koaza":"","lat":35.985502,"lng":140.158906,"zip":"3001232"},{"town":"神谷一丁目","koaza":"","lat":35.973329,"lng":140.153756,"zip":"3001216"},{"town":"神谷二丁目","koaza":"","lat":35.968334,"lng":140.154491,"zip":"3001216"},{"town":"神谷三丁目","koaza":"","lat":35.969223,"lng":140.157735,"zip":"3001216"},{"town":"神谷四丁目","koaza":"","lat":35.965363,"lng":140.162309,"zip":"3001216"},{"town":"神谷五丁目","koaza":"","lat":35.964412,"lng":140.158628,"zip":"3001216"},{"town":"神谷六丁目","koaza":"","lat":35.966169,"lng":140.152623,"zip":"3001216"},{"town":"刈谷町一丁目","koaza":"","lat":35.974826,"lng":140.127715,"zip":"3001235"},{"town":"刈谷町二丁目","koaza":"","lat":35.971417,"lng":140.129309,"zip":"3001235"},{"town":"刈谷町三丁目","koaza":"","lat":35.967999,"lng":140.129175,"zip":"3001235"},{"town":"刈谷町四丁目","koaza":"","lat":35.96798,"lng":140.124737,"zip":"3001235"},{"town":"刈谷町五丁目","koaza":"","lat":35.971214,"lng":140.125044,"zip":"3001235"},{"town":"久野町","koaza":"","lat":35.969744,"lng":140.22188,"zip":"3001288"},{"town":"結束町","koaza":"","lat":35.964445,"lng":140.175721,"zip":"3001212"},{"town":"栄町一丁目","koaza":"","lat":35.987961,"lng":140.147922,"zip":"3001233"},{"town":"栄町二丁目","koaza":"","lat":35.9891,"lng":140.151538,"zip":"3001233"},{"town":"栄町三丁目","koaza":"","lat":35.986615,"lng":140.152505,"zip":"3001233"},{"town":"栄町四丁目","koaza":"","lat":35.983908,"lng":140.154754,"zip":"3001233"},{"town":"栄町五丁目","koaza":"","lat":35.979726,"lng":140.151377,"zip":"3001233"},{"town":"栄町六丁目","koaza":"","lat":35.984481,"lng":140.150302,"zip":"3001233"},{"town":"さくら台一丁目","koaza":"","lat":35.959235,"lng":140.152534,"zip":"3001217"},{"town":"さくら台二丁目","koaza":"","lat":35.959082,"lng":140.159153,"zip":"3001217"},{"town":"さくら台三丁目","koaza":"","lat":35.959401,"lng":140.163625,"zip":"3001217"},{"town":"さくら台四丁目","koaza":"","lat":35.960145,"lng":140.168243,"zip":"3001217"},{"town":"猪子町","koaza":"","lat":35.997136,"lng":140.143229,"zip":"3001231"},{"town":"島田町","koaza":"","lat":35.952755,"lng":140.237109,"zip":"3001284"},{"town":"下根町","koaza":"","lat":35.994935,"lng":140.169488,"zip":"3001203"},{"town":"正直町","koaza":"","lat":35.95502,"lng":140.224891,"zip":"3001285"},{"town":"城中町","koaza":"","lat":35.959147,"lng":140.130921,"zip":"3001223"},{"town":"庄兵衛新田町","koaza":"","lat":35.969146,"lng":140.115959,"zip":"3001224"},{"town":"新地町","koaza":"","lat":35.969993,"lng":140.119368,"zip":"3001225"},{"town":"田宮二丁目","koaza":"","lat":35.985144,"lng":140.142134,"zip":"3001237"},{"town":"田宮三丁目","koaza":"","lat":35.979502,"lng":140.140578,"zip":"3001237"},{"town":"田宮町","koaza":"","lat":35.980686,"lng":140.134078,"zip":"3001236"},{"town":"中央一丁目","koaza":"","lat":35.984155,"lng":140.145277,"zip":"3001234"},{"town":"中央二丁目","koaza":"","lat":35.983429,"lng":140.147673,"zip":"3001234"},{"town":"中央三丁目","koaza":"","lat":35.978211,"lng":140.146439,"zip":"3001234"},{"town":"中央四丁目","koaza":"","lat":35.977187,"lng":140.149222,"zip":"3001234"},{"town":"中央五丁目","koaza":"","lat":35.977155,"lng":140.142427,"zip":"3001234"},{"town":"遠山町","koaza":"","lat":35.949945,"lng":140.153657,"zip":"3001215"},{"town":"中根町","koaza":"","lat":36.000512,"lng":140.155383,"zip":"3001202"},{"town":"東大和田町","koaza":"","lat":36.003464,"lng":140.1509,"zip":"3001205"},{"town":"東猯穴町","koaza":"","lat":36.018114,"lng":140.147754,"zip":"3001201"},{"town":"ひたち野西一丁目","koaza":"","lat":36.010801,"lng":140.148966,"zip":"3001206"},{"town":"ひたち野西二丁目","koaza":"","lat":36.011434,"lng":140.154658,"zip":"3001206"},{"town":"ひたち野西三丁目","koaza":"","lat":36.011134,"lng":140.157766,"zip":"3001206"},{"town":"ひたち野西四丁目","koaza":"","lat":36.006912,"lng":140.152919,"zip":"3001206"},{"town":"ひたち野東一丁目","koaza":"","lat":36.009978,"lng":140.161365,"zip":"3001207"},{"town":"ひたち野東二丁目","koaza":"","lat":36.00694,"lng":140.166507,"zip":"3001207"},{"town":"ひたち野東三丁目","koaza":"","lat":36.001178,"lng":140.171549,"zip":"3001207"},{"town":"ひたち野東四丁目","koaza":"","lat":36.00304,"lng":140.16607,"zip":"3001207"},{"town":"ひたち野東五丁目","koaza":"","lat":36.003355,"lng":140.160084,"zip":"3001207"},{"town":"福田町","koaza":"","lat":35.972964,"lng":140.20011,"zip":"3001287"},{"town":"南一丁目","koaza":"","lat":35.970303,"lng":140.142399,"zip":"3001222"},{"town":"南二丁目","koaza":"","lat":35.972647,"lng":140.145505,"zip":"3001222"},{"town":"南三丁目","koaza":"","lat":35.971167,"lng":140.148183,"zip":"3001222"},{"town":"南四丁目","koaza":"","lat":35.966519,"lng":140.145048,"zip":"3001222"},{"town":"南五丁目","koaza":"","lat":35.966474,"lng":140.149213,"zip":"3001222"},{"town":"南六丁目","koaza":"","lat":35.961873,"lng":140.14777,"zip":"3001222"},{"town":"南七丁目","koaza":"","lat":35.962829,"lng":140.142272,"zip":"3001222"},{"town":"柏田町","koaza":"新田","lat":35.978328,"lng":140.153381,"zip":"3001211"}]