[{"town":"大字一ノ谷","koaza":"","lat":36.08648,"lng":139.820201,"zip":"3060400"},{"town":"大字稲尾","koaza":"","lat":36.142142,"lng":139.792792,"zip":"3060400"},{"town":"大字内門","koaza":"","lat":36.117218,"lng":139.82715,"zip":"3060400"},{"town":"大字浦向","koaza":"","lat":36.092253,"lng":139.808355,"zip":"3060400"},{"town":"大字金岡","koaza":"","lat":36.082812,"lng":139.810398,"zip":"3060400"},{"town":"大字上小橋","koaza":"","lat":36.117337,"lng":139.805179,"zip":"3060400"},{"town":"大字桐ケ作","koaza":"","lat":36.064544,"lng":139.818841,"zip":"3060400"},{"town":"大字栗山","koaza":"","lat":36.130082,"lng":139.826286,"zip":"3060400"},{"town":"大字猿山","koaza":"","lat":36.140758,"lng":139.802469,"zip":"3060400"},{"town":"大字志鳥","koaza":"","lat":36.149117,"lng":139.793725,"zip":"3060400"},{"town":"大字下砂井","koaza":"","lat":36.136796,"lng":139.824277,"zip":"3060400"},{"town":"大字下小橋","koaza":"","lat":36.103455,"lng":139.805966,"zip":"3060400"},{"town":"大字蛇池","koaza":"","lat":36.12993,"lng":139.812875,"zip":"3060400"},{"town":"大字染谷","koaza":"","lat":36.098024,"lng":139.817145,"zip":"3060400"},{"town":"大字塚崎","koaza":"","lat":36.123349,"lng":139.774225,"zip":"3060400"},{"town":"大字長井戸","koaza":"","lat":36.126908,"lng":139.796356,"zip":"3060400"},{"town":"大字西泉田","koaza":"","lat":36.117163,"lng":139.8158,"zip":"3060400"},{"town":"大字新田戸","koaza":"","lat":36.072362,"lng":139.813192,"zip":"3060400"},{"town":"大字伏木","koaza":"","lat":36.095454,"lng":139.829877,"zip":"3060400"},{"town":"大字百戸","koaza":"","lat":36.076234,"lng":139.821437,"zip":"3060400"},{"town":"大字山崎","koaza":"","lat":36.122678,"lng":139.83621,"zip":"3060400"},{"town":"大字横塚","koaza":"","lat":36.145636,"lng":139.782552,"zip":"3060400"},{"town":"大字若林","koaza":"","lat":36.073566,"lng":139.837762,"zip":"3060400"},{"town":"大字大歩","koaza":"","lat":36.108089,"lng":139.825568,"zip":"3060400"},{"town":"陽光台一丁目","koaza":"","lat":36.110855,"lng":139.805023,"zip":"3060435"},{"town":"陽光台二丁目","koaza":"","lat":36.108508,"lng":139.804746,"zip":"3060435"},{"town":"（大字なし）","koaza":"","lat":36.100302,"lng":139.79574,"zip":"3060400"}]