[{"town":"大字江川","koaza":"","lat":36.094614,"lng":139.767814,"zip":"3060300"},{"town":"大字大福田","koaza":"","lat":36.121005,"lng":139.755864,"zip":"3060300"},{"town":"大字川妻","koaza":"","lat":36.128385,"lng":139.723117,"zip":"3060300"},{"town":"大字幸主","koaza":"","lat":36.088837,"lng":139.75803,"zip":"3060300"},{"town":"大字山王","koaza":"","lat":36.102052,"lng":139.774254,"zip":"3060300"},{"town":"大字山王山","koaza":"","lat":36.108263,"lng":139.764705,"zip":"3060300"},{"town":"大字新幸谷","koaza":"","lat":36.117393,"lng":139.740522,"zip":"3060300"},{"town":"大字冬木","koaza":"","lat":36.095597,"lng":139.751037,"zip":"3060300"},{"town":"大字前林","koaza":"","lat":36.127335,"lng":139.740692,"zip":"3060300"},{"town":"大字元栗橋","koaza":"","lat":36.102185,"lng":139.73773,"zip":"3060300"},{"town":"原宿台一丁目","koaza":"","lat":36.099532,"lng":139.739196,"zip":"3060306"},{"town":"原宿台二丁目","koaza":"","lat":36.095151,"lng":139.741572,"zip":"3060306"},{"town":"原宿台三丁目","koaza":"","lat":36.098089,"lng":139.737499,"zip":"3060306"},{"town":"原宿台四丁目","koaza":"","lat":36.095497,"lng":139.73686,"zip":"3060306"},{"town":"大字小手指","koaza":"","lat":36.122781,"lng":139.735398,"zip":"3060300"},{"town":"大字釈迦","koaza":"","lat":36.126098,"lng":139.743409,"zip":"3060300"},{"town":"大字小福田","koaza":"","lat":36.113712,"lng":139.752517,"zip":"3060300"}]