[{"town":"青田","koaza":"","lat":36.19809,"lng":140.173106,"zip":"3150148"},{"town":"朝日","koaza":"","lat":36.189385,"lng":140.173117,"zip":"3150000"},{"town":"旭台一丁目","koaza":"","lat":36.193059,"lng":140.298634,"zip":"3150038"},{"town":"旭台二丁目","koaza":"","lat":36.192074,"lng":140.302392,"zip":"3150038"},{"town":"旭台三丁目","koaza":"","lat":36.189548,"lng":140.302862,"zip":"3150038"},{"town":"芦穂中部","koaza":"","lat":36.255381,"lng":140.166925,"zip":"3150000"},{"town":"荒金","koaza":"","lat":36.212151,"lng":140.286492,"zip":"3150021"},{"town":"池の台","koaza":"","lat":36.220442,"lng":140.268715,"zip":"3150030"},{"town":"石岡","koaza":"","lat":36.179662,"lng":140.270558,"zip":"3150001"},{"town":"石岡一丁目","koaza":"","lat":36.190583,"lng":140.284956,"zip":"3150001"},{"town":"石岡二丁目","koaza":"","lat":36.193463,"lng":140.281159,"zip":"3150001"},{"town":"石川","koaza":"","lat":36.141102,"lng":140.297617,"zip":"3150046"},{"town":"泉町","koaza":"","lat":36.195328,"lng":140.278857,"zip":"3150025"},{"town":"井関","koaza":"","lat":36.133525,"lng":140.31885,"zip":"3150047"},{"town":"宇治会","koaza":"","lat":36.274021,"lng":140.193681,"zip":"3150162"},{"town":"浦須","koaza":"","lat":36.244848,"lng":140.208829,"zip":"3150115"},{"town":"上曽","koaza":"","lat":36.259125,"lng":140.149789,"zip":"3150157"},{"town":"大砂","koaza":"","lat":36.21877,"lng":140.248654,"zip":"3150009"},{"town":"太田","koaza":"","lat":36.307326,"lng":140.197274,"zip":"3150102"},{"town":"大塚","koaza":"","lat":36.291706,"lng":140.167679,"zip":"3150105"},{"town":"大増","koaza":"","lat":36.308639,"lng":140.168399,"zip":"3150101"},{"town":"大谷津","koaza":"","lat":36.179,"lng":140.292516,"zip":"3150036"},{"town":"小倉","koaza":"","lat":36.240304,"lng":140.175381,"zip":"3150165"},{"town":"小野越","koaza":"","lat":36.185805,"lng":140.155707,"zip":"3150144"},{"town":"小幡","koaza":"","lat":36.216171,"lng":140.138643,"zip":"3150155"},{"town":"小見","koaza":"","lat":36.289626,"lng":140.19241,"zip":"3150104"},{"town":"小山田","koaza":"","lat":36.273998,"lng":140.167936,"zip":"3150166"},{"town":"貝地一丁目","koaza":"","lat":36.18359,"lng":140.277129,"zip":"3150015"},{"town":"貝地二丁目","koaza":"","lat":36.184061,"lng":140.281689,"zip":"3150015"},{"town":"柿岡","koaza":"","lat":36.243397,"lng":140.19185,"zip":"3150116"},{"town":"柏原","koaza":"","lat":36.217352,"lng":140.26165,"zip":"3150002"},{"town":"柏原町","koaza":"","lat":36.2121,"lng":140.255173,"zip":"3150004"},{"town":"片岡","koaza":"","lat":36.252137,"lng":140.213408,"zip":"3150113"},{"town":"片野","koaza":"","lat":36.219515,"lng":140.197002,"zip":"3150136"},{"town":"金指","koaza":"","lat":36.229701,"lng":140.198533,"zip":"3150137"},{"town":"鹿の子一丁目","koaza":"","lat":36.203871,"lng":140.26217,"zip":"3150005"},{"town":"鹿の子二丁目","koaza":"","lat":36.203444,"lng":140.256863,"zip":"3150005"},{"town":"鹿の子三丁目","koaza":"","lat":36.208928,"lng":140.256222,"zip":"3150005"},{"town":"鹿の子四丁目","koaza":"","lat":36.206258,"lng":140.25281,"zip":"3150005"},{"town":"上青柳","koaza":"","lat":36.20381,"lng":140.153692,"zip":"3150154"},{"town":"上林","koaza":"","lat":36.236804,"lng":140.209932,"zip":"3150138"},{"town":"加生野","koaza":"","lat":36.21372,"lng":140.184182,"zip":"3150135"},{"town":"嘉良寿理","koaza":"","lat":36.252184,"lng":140.228307,"zip":"3150114"},{"town":"川又","koaza":"","lat":36.209027,"lng":140.196725,"zip":"3150134"},{"town":"瓦谷","koaza":"","lat":36.277725,"lng":140.221726,"zip":"3150111"},{"town":"北根本","koaza":"","lat":36.162526,"lng":140.290058,"zip":"3150044"},{"town":"北府中一丁目","koaza":"","lat":36.204422,"lng":140.277422,"zip":"3150012"},{"town":"北府中二丁目","koaza":"","lat":36.207107,"lng":140.272131,"zip":"3150012"},{"town":"北府中三丁目","koaza":"","lat":36.211082,"lng":140.278514,"zip":"3150012"},{"town":"鯨岡","koaza":"","lat":36.267909,"lng":140.181971,"zip":"3150163"},{"town":"碁石沢","koaza":"","lat":36.228186,"lng":140.254218,"zip":"3150010"},{"town":"小井戸","koaza":"","lat":36.189252,"lng":140.335401,"zip":"3150032"},{"town":"国府一丁目","koaza":"","lat":36.191062,"lng":140.279637,"zip":"3150014"},{"town":"国府二丁目","koaza":"","lat":36.189414,"lng":140.276248,"zip":"3150014"},{"town":"国府三丁目","koaza":"","lat":36.189455,"lng":140.274095,"zip":"3150014"},{"town":"国府四丁目","koaza":"","lat":36.187428,"lng":140.27983,"zip":"3150014"},{"town":"国府五丁目","koaza":"","lat":36.186297,"lng":140.276652,"zip":"3150014"},{"town":"国府六丁目","koaza":"","lat":36.186972,"lng":140.27372,"zip":"3150014"},{"town":"国府七丁目","koaza":"","lat":36.182928,"lng":140.27256,"zip":"3150014"},{"town":"小塙","koaza":"","lat":36.281251,"lng":140.197294,"zip":"3150161"},{"town":"小屋","koaza":"","lat":36.263988,"lng":140.170146,"zip":"3150164"},{"town":"栄松","koaza":"","lat":36.238892,"lng":140.253931,"zip":"3150019"},{"town":"佐久","koaza":"","lat":36.261929,"lng":140.200354,"zip":"3150117"},{"town":"柴内","koaza":"","lat":36.18429,"lng":140.175015,"zip":"3150143"},{"town":"柴間","koaza":"","lat":36.259895,"lng":140.230358,"zip":"3150124"},{"town":"下青柳","koaza":"","lat":36.206983,"lng":140.168357,"zip":"3150153"},{"town":"下林","koaza":"","lat":36.236105,"lng":140.230434,"zip":"3150131"},{"town":"正上内","koaza":"","lat":36.217648,"lng":140.277828,"zip":"3150011"},{"town":"菖蒲沢","koaza":"","lat":36.187173,"lng":140.164158,"zip":"3150146"},{"town":"須釜","koaza":"","lat":36.222793,"lng":140.176502,"zip":"3150151"},{"town":"杉並一丁目","koaza":"","lat":36.199725,"lng":140.28226,"zip":"3150027"},{"town":"杉並二丁目","koaza":"","lat":36.204473,"lng":140.284645,"zip":"3150027"},{"town":"杉並三丁目","koaza":"","lat":36.204674,"lng":140.28084,"zip":"3150027"},{"town":"杉並四丁目","koaza":"","lat":36.207917,"lng":140.283664,"zip":"3150027"},{"town":"杉の井","koaza":"","lat":36.199415,"lng":140.279303,"zip":"3150026"},{"town":"総社一丁目","koaza":"","lat":36.190309,"lng":140.267034,"zip":"3150016"},{"town":"総社二丁目","koaza":"","lat":36.18674,"lng":140.269991,"zip":"3150016"},{"town":"染谷","koaza":"","lat":36.201288,"lng":140.248301,"zip":"3150007"},{"town":"高浜","koaza":"","lat":36.162235,"lng":140.300686,"zip":"3150045"},{"town":"田島一丁目","koaza":"","lat":36.180181,"lng":140.278213,"zip":"3150041"},{"town":"田島二丁目","koaza":"","lat":36.176777,"lng":140.281476,"zip":"3150041"},{"town":"月岡","koaza":"","lat":36.202602,"lng":140.182648,"zip":"3150141"},{"town":"辻","koaza":"","lat":36.189643,"lng":140.169906,"zip":"3150147"},{"town":"東光台一丁目","koaza":"","lat":36.188462,"lng":140.300069,"zip":"3150033"},{"town":"東光台二丁目","koaza":"","lat":36.185916,"lng":140.302107,"zip":"3150033"},{"town":"東光台三丁目","koaza":"","lat":36.18351,"lng":140.300904,"zip":"3150033"},{"town":"東光台四丁目","koaza":"","lat":36.184184,"lng":140.305872,"zip":"3150033"},{"town":"東光台五丁目","koaza":"","lat":36.187746,"lng":140.305561,"zip":"3150033"},{"town":"中津川","koaza":"","lat":36.16709,"lng":140.281908,"zip":"3150043"},{"town":"中戸","koaza":"","lat":36.301961,"lng":140.210942,"zip":"3150103"},{"town":"並木","koaza":"","lat":36.210051,"lng":140.249968,"zip":"3150006"},{"town":"行里川","koaza":"","lat":36.208947,"lng":140.292669,"zip":"3150022"},{"town":"根当","koaza":"","lat":36.226829,"lng":140.265784,"zip":"3150029"},{"town":"根小屋","koaza":"","lat":36.216136,"lng":140.2238,"zip":"3150132"},{"town":"野田","koaza":"","lat":36.259421,"lng":140.207896,"zip":"3150118"},{"town":"八軒台","koaza":"","lat":36.200718,"lng":140.300542,"zip":"3150024"},{"town":"茨城一丁目","koaza":"","lat":36.179944,"lng":140.284585,"zip":"3150042"},{"town":"茨城二丁目","koaza":"","lat":36.177911,"lng":140.28773,"zip":"3150042"},{"town":"茨城三丁目","koaza":"","lat":36.176511,"lng":140.285433,"zip":"3150042"},{"town":"半田","koaza":"","lat":36.196464,"lng":140.206406,"zip":"3150133"},{"town":"半ノ木","koaza":"","lat":36.236433,"lng":140.264992,"zip":"3150028"},{"town":"東石岡一丁目","koaza":"","lat":36.188791,"lng":140.288127,"zip":"3150037"},{"town":"東石岡二丁目","koaza":"","lat":36.185905,"lng":140.288343,"zip":"3150037"},{"town":"東石岡三丁目","koaza":"","lat":36.185005,"lng":140.295177,"zip":"3150037"},{"town":"東石岡四丁目","koaza":"","lat":36.187912,"lng":140.293848,"zip":"3150037"},{"town":"東石岡五丁目","koaza":"","lat":36.190633,"lng":140.294088,"zip":"3150037"},{"town":"東大橋","koaza":"","lat":36.196688,"lng":140.311021,"zip":"3150031"},{"town":"東田中","koaza":"","lat":36.17239,"lng":140.302162,"zip":"3150034"},{"town":"東成井","koaza":"","lat":36.261191,"lng":140.279861,"zip":"3150122"},{"town":"東府中","koaza":"","lat":36.204868,"lng":140.300205,"zip":"3150023"},{"town":"府中一丁目","koaza":"","lat":36.192302,"lng":140.276396,"zip":"3150013"},{"town":"府中二丁目","koaza":"","lat":36.190718,"lng":140.272207,"zip":"3150013"},{"town":"府中三丁目","koaza":"","lat":36.194965,"lng":140.275093,"zip":"3150013"},{"town":"府中四丁目","koaza":"","lat":36.19932,"lng":140.275856,"zip":"3150013"},{"town":"府中五丁目","koaza":"","lat":36.198958,"lng":140.272212,"zip":"3150013"},{"town":"仏生寺","koaza":"","lat":36.184041,"lng":140.140951,"zip":"3150145"},{"town":"部原","koaza":"","lat":36.266851,"lng":140.225704,"zip":"3150112"},{"town":"細谷","koaza":"","lat":36.215434,"lng":140.16004,"zip":"3150152"},{"town":"真家","koaza":"","lat":36.271859,"lng":140.246391,"zip":"3150121"},{"town":"南台一丁目","koaza":"","lat":36.182712,"lng":140.288622,"zip":"3150035"},{"town":"南台二丁目","koaza":"","lat":36.182047,"lng":140.293712,"zip":"3150035"},{"town":"南台三丁目","koaza":"","lat":36.180112,"lng":140.302098,"zip":"3150035"},{"town":"南台四丁目","koaza":"","lat":36.177875,"lng":140.297089,"zip":"3150035"},{"town":"三村","koaza":"","lat":36.148371,"lng":140.284254,"zip":"3150048"},{"town":"宮ケ崎","koaza":"","lat":36.254732,"lng":140.253099,"zip":"3150123"},{"town":"村上","koaza":"","lat":36.217209,"lng":140.241783,"zip":"3150008"},{"town":"山崎","koaza":"","lat":36.249206,"lng":140.265146,"zip":"3150125"},{"town":"谷向町","koaza":"","lat":36.209967,"lng":140.265944,"zip":"3150003"},{"town":"弓弦","koaza":"","lat":36.188568,"lng":140.18864,"zip":"3150142"},{"town":"吉生","koaza":"","lat":36.237836,"lng":140.153082,"zip":"3150156"},{"town":"龍明","koaza":"","lat":36.28092,"lng":140.162478,"zip":"3150167"},{"town":"若松一丁目","koaza":"","lat":36.198617,"lng":140.268536,"zip":"3150018"},{"town":"若松二丁目","koaza":"","lat":36.200465,"lng":140.264051,"zip":"3150018"},{"town":"若松三丁目","koaza":"","lat":36.203559,"lng":140.268909,"zip":"3150018"},{"town":"若宮一丁目","koaza":"","lat":36.192884,"lng":140.269744,"zip":"3150017"},{"town":"若宮二丁目","koaza":"","lat":36.191817,"lng":140.263008,"zip":"3150017"},{"town":"若宮三丁目","koaza":"","lat":36.195073,"lng":140.269725,"zip":"3150017"},{"town":"若宮四丁目","koaza":"","lat":36.196465,"lng":140.262724,"zip":"3150017"},{"town":"柿岡","koaza":"沖","lat":36.243773,"lng":140.19714,"zip":"3150116"},{"town":"東大橋","koaza":"中峯","lat":36.198202,"lng":140.308095,"zip":"3150031"}]