[{"town":"息栖","koaza":"","lat":35.881714,"lng":140.625895,"zip":"3140133"},{"town":"居切","koaza":"","lat":35.924155,"lng":140.652105,"zip":"3140052"},{"town":"石神","koaza":"","lat":35.863786,"lng":140.649673,"zip":"3140124"},{"town":"太田","koaza":"","lat":35.827973,"lng":140.728705,"zip":"3140254"},{"town":"太田新町一丁目","koaza":"","lat":35.832697,"lng":140.731423,"zip":"3140257"},{"town":"太田新町二丁目","koaza":"","lat":35.832048,"lng":140.729828,"zip":"3140257"},{"town":"太田新町三丁目","koaza":"","lat":35.834827,"lng":140.729655,"zip":"3140257"},{"town":"太田新町四丁目","koaza":"","lat":35.834275,"lng":140.72821,"zip":"3140257"},{"town":"太田新町五丁目","koaza":"","lat":35.833802,"lng":140.725901,"zip":"3140257"},{"town":"大野原一丁目","koaza":"","lat":35.891278,"lng":140.651448,"zip":"3140144"},{"town":"大野原二丁目","koaza":"","lat":35.893321,"lng":140.646573,"zip":"3140144"},{"town":"大野原三丁目","koaza":"","lat":35.894932,"lng":140.642613,"zip":"3140144"},{"town":"大野原四丁目","koaza":"","lat":35.897366,"lng":140.637929,"zip":"3140144"},{"town":"大野原五丁目","koaza":"","lat":35.892952,"lng":140.636074,"zip":"3140144"},{"town":"大野原六丁目","koaza":"","lat":35.890627,"lng":140.639887,"zip":"3140144"},{"town":"大野原七丁目","koaza":"","lat":35.888975,"lng":140.643843,"zip":"3140144"},{"town":"大野原八丁目","koaza":"","lat":35.886961,"lng":140.648674,"zip":"3140144"},{"town":"大野原中央一丁目","koaza":"","lat":35.883539,"lng":140.646497,"zip":"3140128"},{"town":"大野原中央二丁目","koaza":"","lat":35.88582,"lng":140.641105,"zip":"3140128"},{"town":"大野原中央三丁目","koaza":"","lat":35.888335,"lng":140.635556,"zip":"3140128"},{"town":"大野原中央四丁目","koaza":"","lat":35.885059,"lng":140.634238,"zip":"3140128"},{"town":"大野原中央五丁目","koaza":"","lat":35.882418,"lng":140.638962,"zip":"3140128"},{"town":"大野原中央六丁目","koaza":"","lat":35.880162,"lng":140.644348,"zip":"3140128"},{"town":"奥野谷","koaza":"","lat":35.899382,"lng":140.709007,"zip":"3140116"},{"town":"賀","koaza":"","lat":35.901193,"lng":140.617933,"zip":"3140134"},{"town":"神栖一丁目","koaza":"","lat":35.899562,"lng":140.643745,"zip":"3140143"},{"town":"神栖二丁目","koaza":"","lat":35.901063,"lng":140.649316,"zip":"3140143"},{"town":"神栖三丁目","koaza":"","lat":35.903921,"lng":140.650511,"zip":"3140143"},{"town":"神栖四丁目","koaza":"","lat":35.908135,"lng":140.652803,"zip":"3140143"},{"town":"木崎","koaza":"","lat":35.890222,"lng":140.657347,"zip":"3140127"},{"town":"北浜","koaza":"","lat":35.912626,"lng":140.709456,"zip":"3140101"},{"town":"知手","koaza":"","lat":35.872711,"lng":140.685072,"zip":"3140115"},{"town":"知手中央十丁目","koaza":"","lat":35.878161,"lng":140.69724,"zip":"3140112"},{"town":"知手中央一丁目","koaza":"","lat":35.880776,"lng":140.702653,"zip":"3140112"},{"town":"知手中央二丁目","koaza":"","lat":35.883774,"lng":140.709047,"zip":"3140112"},{"town":"知手中央三丁目","koaza":"","lat":35.880489,"lng":140.711007,"zip":"3140112"},{"town":"知手中央四丁目","koaza":"","lat":35.878202,"lng":140.715149,"zip":"3140112"},{"town":"知手中央五丁目","koaza":"","lat":35.875731,"lng":140.71151,"zip":"3140112"},{"town":"知手中央六丁目","koaza":"","lat":35.876892,"lng":140.704454,"zip":"3140112"},{"town":"知手中央七丁目","koaza":"","lat":35.871297,"lng":140.707464,"zip":"3140112"},{"town":"知手中央八丁目","koaza":"","lat":35.868481,"lng":140.704474,"zip":"3140112"},{"town":"知手中央九丁目","koaza":"","lat":35.874262,"lng":140.700165,"zip":"3140112"},{"town":"芝崎","koaza":"","lat":35.866011,"lng":140.65678,"zip":"3140123"},{"town":"下幡木","koaza":"","lat":35.917598,"lng":140.622198,"zip":"3140131"},{"town":"須田","koaza":"","lat":35.828672,"lng":140.75045,"zip":"3140253"},{"town":"砂山","koaza":"","lat":35.854819,"lng":140.725985,"zip":"3140255"},{"town":"高浜","koaza":"","lat":35.86821,"lng":140.640982,"zip":"3140125"},{"town":"田畑","koaza":"","lat":35.878312,"lng":140.650501,"zip":"3140126"},{"town":"筒井","koaza":"","lat":35.90506,"lng":140.628855,"zip":"3140132"},{"town":"土合北一丁目","koaza":"","lat":35.791812,"lng":140.785607,"zip":"3140342"},{"town":"土合北二丁目","koaza":"","lat":35.796247,"lng":140.783045,"zip":"3140342"},{"town":"土合中央一丁目","koaza":"","lat":35.788059,"lng":140.778005,"zip":"3140347"},{"town":"土合中央二丁目","koaza":"","lat":35.789709,"lng":140.775469,"zip":"3140347"},{"town":"土合中央三丁目","koaza":"","lat":35.791775,"lng":140.773328,"zip":"3140347"},{"town":"土合西一丁目","koaza":"","lat":35.792533,"lng":140.769938,"zip":"3140346"},{"town":"土合西二丁目","koaza":"","lat":35.793662,"lng":140.768597,"zip":"3140346"},{"town":"土合西三丁目","koaza":"","lat":35.79707,"lng":140.773132,"zip":"3140346"},{"town":"土合西四丁目","koaza":"","lat":35.800631,"lng":140.777854,"zip":"3140346"},{"town":"土合東一丁目","koaza":"","lat":35.785563,"lng":140.780222,"zip":"3140344"},{"town":"土合東二丁目","koaza":"","lat":35.783668,"lng":140.778188,"zip":"3140344"},{"town":"土合本町一丁目","koaza":"","lat":35.788545,"lng":140.782933,"zip":"3140343"},{"town":"土合本町二丁目","koaza":"","lat":35.790672,"lng":140.779186,"zip":"3140343"},{"town":"土合本町三丁目","koaza":"","lat":35.793442,"lng":140.780465,"zip":"3140343"},{"town":"土合本町四丁目","koaza":"","lat":35.796307,"lng":140.779208,"zip":"3140343"},{"town":"土合本町五丁目","koaza":"","lat":35.79773,"lng":140.776848,"zip":"3140343"},{"town":"土合南一丁目","koaza":"","lat":35.785785,"lng":140.775592,"zip":"3140345"},{"town":"土合南二丁目","koaza":"","lat":35.787771,"lng":140.773642,"zip":"3140345"},{"town":"土合南三丁目","koaza":"","lat":35.790141,"lng":140.770743,"zip":"3140345"},{"town":"東和田","koaza":"","lat":35.901411,"lng":140.689788,"zip":"3140102"},{"town":"日川","koaza":"","lat":35.857103,"lng":140.690026,"zip":"3140114"},{"town":"萩原","koaza":"","lat":35.860199,"lng":140.667716,"zip":"3140122"},{"town":"波崎","koaza":"","lat":35.767438,"lng":140.79848,"zip":"3140408"},{"town":"波崎新港","koaza":"","lat":35.746831,"lng":140.83984,"zip":"3140407"},{"town":"東深芝","koaza":"","lat":35.904927,"lng":140.664343,"zip":"3140103"},{"town":"光","koaza":"","lat":35.925795,"lng":140.677384,"zip":"3140051"},{"town":"平泉","koaza":"","lat":35.910646,"lng":140.63505,"zip":"3140146"},{"town":"平泉外十二入会","koaza":"","lat":35.90089,"lng":140.636775,"zip":"3140100"},{"town":"平泉東一丁目","koaza":"","lat":35.902486,"lng":140.639682,"zip":"3140145"},{"town":"平泉東二丁目","koaza":"","lat":35.904612,"lng":140.643,"zip":"3140145"},{"town":"平泉東三丁目","koaza":"","lat":35.906559,"lng":140.643484,"zip":"3140145"},{"town":"深芝","koaza":"","lat":35.916952,"lng":140.64611,"zip":"3140148"},{"town":"深芝南一丁目","koaza":"","lat":35.90881,"lng":140.65014,"zip":"3140142"},{"town":"深芝南二丁目","koaza":"","lat":35.90879,"lng":140.646762,"zip":"3140142"},{"town":"深芝南三丁目","koaza":"","lat":35.912737,"lng":140.650535,"zip":"3140142"},{"town":"深芝南四丁目","koaza":"","lat":35.91705,"lng":140.654503,"zip":"3140142"},{"town":"深芝南五丁目","koaza":"","lat":35.913828,"lng":140.654116,"zip":"3140142"},{"town":"堀割一丁目","koaza":"","lat":35.920915,"lng":140.635457,"zip":"3140135"},{"town":"堀割二丁目","koaza":"","lat":35.925247,"lng":140.636009,"zip":"3140135"},{"town":"堀割三丁目","koaza":"","lat":35.922457,"lng":140.639817,"zip":"3140135"},{"town":"溝口","koaza":"","lat":35.881531,"lng":140.664084,"zip":"3140121"},{"town":"南浜","koaza":"","lat":35.887364,"lng":140.728349,"zip":"3140111"},{"town":"矢田部","koaza":"","lat":35.801984,"lng":140.736859,"zip":"3140341"},{"town":"柳川","koaza":"","lat":35.861171,"lng":140.743223,"zip":"3140252"},{"town":"柳川中央一丁目","koaza":"","lat":35.859747,"lng":140.739254,"zip":"3140258"},{"town":"柳川中央二丁目","koaza":"","lat":35.863261,"lng":140.735718,"zip":"3140258"},{"town":"横瀬","koaza":"","lat":35.85459,"lng":140.707998,"zip":"3140113"},{"town":"若松中央一丁目","koaza":"","lat":35.836632,"lng":140.738488,"zip":"3140256"},{"town":"若松中央二丁目","koaza":"","lat":35.835128,"lng":140.735175,"zip":"3140256"},{"town":"若松中央三丁目","koaza":"","lat":35.833689,"lng":140.73629,"zip":"3140256"},{"town":"若松中央四丁目","koaza":"","lat":35.835199,"lng":140.739493,"zip":"3140256"},{"town":"若松中央五丁目","koaza":"","lat":35.833754,"lng":140.74052,"zip":"3140256"},{"town":"鰐川","koaza":"","lat":35.929597,"lng":140.627384,"zip":"3140147"},{"town":"息栖","koaza":"大塚","lat":35.890682,"lng":140.629867,"zip":"3140133"},{"town":"平泉","koaza":"出口","lat":35.911877,"lng":140.637216,"zip":"3140146"},{"town":"平泉","koaza":"西谷原","lat":35.91491,"lng":140.637812,"zip":"3140146"},{"town":"波崎","koaza":"石津","lat":35.769435,"lng":140.789037,"zip":"3140408"},{"town":"波崎","koaza":"荒波","lat":35.762286,"lng":140.794467,"zip":"3140408"},{"town":"波崎","koaza":"別所","lat":35.756935,"lng":140.802177,"zip":"3140408"},{"town":"波崎","koaza":"高野","lat":35.754659,"lng":140.803201,"zip":"3140408"},{"town":"波崎","koaza":"本郷","lat":35.754834,"lng":140.811779,"zip":"3140408"},{"town":"波崎","koaza":"舎利浜","lat":35.769861,"lng":140.812101,"zip":"3140408"},{"town":"波崎","koaza":"浜新田","lat":35.754233,"lng":140.820511,"zip":"3140408"}]