[{"town":"阿波","koaza":"","lat":35.95259,"lng":140.382225,"zip":"3000621"},{"town":"阿波崎","koaza":"","lat":35.950062,"lng":140.416966,"zip":"3000602"},{"town":"甘田","koaza":"","lat":35.95193,"lng":140.399909,"zip":"3000626"},{"town":"荒沼","koaza":"","lat":35.947837,"lng":140.329446,"zip":"3000500"},{"town":"飯出","koaza":"","lat":35.979008,"lng":140.375473,"zip":"3000632"},{"town":"伊崎","koaza":"","lat":35.891355,"lng":140.309495,"zip":"3001413"},{"town":"伊佐津","koaza":"","lat":35.918728,"lng":140.297162,"zip":"3001411"},{"town":"伊佐部","koaza":"","lat":35.940051,"lng":140.409164,"zip":"3000603"},{"town":"市崎","koaza":"","lat":35.935228,"lng":140.363453,"zip":"3000612"},{"town":"稲波","koaza":"","lat":35.967266,"lng":140.332677,"zip":"3000503"},{"town":"犬塚","koaza":"","lat":35.968529,"lng":140.296604,"zip":"3000507"},{"town":"戌渡","koaza":"","lat":35.889994,"lng":140.30197,"zip":"3001414"},{"town":"今","koaza":"","lat":35.910022,"lng":140.422023,"zip":"3000500"},{"town":"浮島","koaza":"","lat":35.97126,"lng":140.432077,"zip":"3000641"},{"town":"江戸崎","koaza":"","lat":35.960328,"lng":140.318988,"zip":"3000509"},{"town":"江戸崎みらい","koaza":"","lat":35.944369,"lng":140.294715,"zip":"3000529"},{"town":"大島","koaza":"","lat":35.956019,"lng":140.50572,"zip":"3000721"},{"town":"太田","koaza":"","lat":35.913631,"lng":140.325024,"zip":"3001423"},{"town":"岡飯出","koaza":"","lat":35.974604,"lng":140.379038,"zip":"3000633"},{"town":"押砂","koaza":"","lat":35.916212,"lng":140.408145,"zip":"3000744"},{"town":"小野","koaza":"","lat":35.92865,"lng":140.317589,"zip":"3001425"},{"town":"柏木","koaza":"","lat":35.967063,"lng":140.36067,"zip":"3000634"},{"town":"柏木古渡","koaza":"","lat":35.969926,"lng":140.356268,"zip":"3000637"},{"town":"釜井","koaza":"","lat":35.938327,"lng":140.394111,"zip":"3000604"},{"town":"蒲ケ山","koaza":"","lat":35.962291,"lng":140.276817,"zip":"3000522"},{"town":"上君山","koaza":"","lat":35.934287,"lng":140.266694,"zip":"3000528"},{"town":"上須田","koaza":"","lat":35.945729,"lng":140.443021,"zip":"3000737"},{"town":"上根本","koaza":"","lat":35.913914,"lng":140.259197,"zip":"3010902"},{"town":"上之島","koaza":"","lat":35.932892,"lng":140.46767,"zip":"3000732"},{"town":"上馬渡","koaza":"","lat":35.978133,"lng":140.400822,"zip":"3000643"},{"town":"桑山","koaza":"","lat":35.923841,"lng":140.341804,"zip":"3000513"},{"town":"結佐","koaza":"","lat":35.926696,"lng":140.446453,"zip":"3000734"},{"town":"神崎本宿","koaza":"","lat":35.925289,"lng":140.388076,"zip":"3000746"},{"town":"幸田","koaza":"","lat":35.936244,"lng":140.384172,"zip":"3000605"},{"town":"石納","koaza":"","lat":35.92288,"lng":140.46727,"zip":"3000733"},{"town":"小羽賀","koaza":"","lat":35.946308,"lng":140.302079,"zip":"3000524"},{"town":"駒塚","koaza":"","lat":35.925223,"lng":140.335664,"zip":"3000514"},{"town":"境島","koaza":"","lat":35.951898,"lng":140.500594,"zip":"3000723"},{"town":"佐倉","koaza":"","lat":35.984822,"lng":140.326586,"zip":"3000508"},{"town":"佐原組新田","koaza":"","lat":35.929472,"lng":140.400328,"zip":"3000749"},{"town":"佐原下手","koaza":"","lat":35.933591,"lng":140.489306,"zip":"3000725"},{"town":"椎塚","koaza":"","lat":35.941054,"lng":140.336773,"zip":"3000512"},{"town":"四箇","koaza":"","lat":35.962845,"lng":140.385546,"zip":"3000623"},{"town":"信太古渡","koaza":"","lat":35.980154,"lng":140.341899,"zip":"3000502"},{"town":"柴崎","koaza":"","lat":35.907611,"lng":140.301357,"zip":"3001412"},{"town":"清水","koaza":"","lat":35.927974,"lng":140.347025,"zip":"3000614"},{"town":"下太田","koaza":"","lat":35.921223,"lng":140.318914,"zip":"3001424"},{"town":"下君山","koaza":"","lat":35.929941,"lng":140.28052,"zip":"3000527"},{"town":"下須田","koaza":"","lat":35.954017,"lng":140.433533,"zip":"3000601"},{"town":"下根本","koaza":"","lat":35.913558,"lng":140.272285,"zip":"3010901"},{"town":"下馬渡","koaza":"","lat":35.973679,"lng":140.407566,"zip":"3000642"},{"town":"神宮寺","koaza":"","lat":35.957025,"lng":140.36479,"zip":"3000622"},{"town":"新橋","koaza":"","lat":35.912199,"lng":140.356964,"zip":"3000613"},{"town":"須賀津","koaza":"","lat":35.963928,"lng":140.403777,"zip":"3000625"},{"town":"月出里","koaza":"","lat":35.971348,"lng":140.270243,"zip":"3000521"},{"town":"角崎","koaza":"","lat":35.912623,"lng":140.285376,"zip":"3001416"},{"town":"清久島","koaza":"","lat":35.916135,"lng":140.376743,"zip":"3000748"},{"town":"高田","koaza":"","lat":35.950214,"lng":140.344084,"zip":"3000511"},{"town":"手賀組新田","koaza":"","lat":35.926035,"lng":140.417616,"zip":"3000741"},{"town":"寺内","koaza":"","lat":35.928096,"lng":140.31126,"zip":"3001426"},{"town":"時崎","koaza":"","lat":35.950983,"lng":140.293327,"zip":"3000523"},{"town":"中島","koaza":"","lat":35.930982,"lng":140.377752,"zip":"3000611"},{"town":"中山","koaza":"","lat":35.909442,"lng":140.277306,"zip":"3001415"},{"town":"西代","koaza":"","lat":35.919403,"lng":140.48139,"zip":"3000726"},{"town":"西の洲","koaza":"","lat":35.979841,"lng":140.412355,"zip":"3000500"},{"town":"沼田","koaza":"","lat":35.957555,"lng":140.304774,"zip":"3000506"},{"town":"羽賀","koaza":"","lat":35.941465,"lng":140.289852,"zip":"3000525"},{"town":"羽賀浦","koaza":"","lat":35.930811,"lng":140.306556,"zip":"3001427"},{"town":"羽賀沼","koaza":"","lat":35.930703,"lng":140.300475,"zip":"3000500"},{"town":"橋向","koaza":"","lat":35.916602,"lng":140.394057,"zip":"3000745"},{"town":"八千石","koaza":"","lat":35.933682,"lng":140.433725,"zip":"3000736"},{"town":"鳩崎","koaza":"","lat":35.996336,"lng":140.344145,"zip":"3000501"},{"town":"羽生","koaza":"","lat":35.964417,"lng":140.347909,"zip":"3000636"},{"town":"東大沼","koaza":"","lat":35.937978,"lng":140.354355,"zip":"3000616"},{"town":"福田","koaza":"","lat":35.932443,"lng":140.371941,"zip":"3000617"},{"town":"古渡","koaza":"","lat":35.979025,"lng":140.359924,"zip":"3000638"},{"town":"堀川","koaza":"","lat":35.90338,"lng":140.336672,"zip":"3001421"},{"town":"堀之内","koaza":"","lat":35.967169,"lng":140.354267,"zip":"3000635"},{"town":"曲渕","koaza":"","lat":35.91349,"lng":140.417027,"zip":"3000743"},{"town":"町田","koaza":"","lat":35.925464,"lng":140.358752,"zip":"3000615"},{"town":"松山","koaza":"","lat":35.934798,"lng":140.283631,"zip":"3000526"},{"town":"狸穴","koaza":"","lat":35.915914,"lng":140.28782,"zip":"3001417"},{"town":"三島","koaza":"","lat":35.95794,"lng":140.507582,"zip":"3000722"},{"town":"三次","koaza":"","lat":35.977202,"lng":140.391595,"zip":"3000631"},{"town":"光葉","koaza":"","lat":35.942206,"lng":140.388714,"zip":"3000607"},{"town":"南太田","koaza":"","lat":35.895709,"lng":140.319217,"zip":"3001422"},{"town":"南ケ丘","koaza":"","lat":35.93103,"lng":140.335997,"zip":"3000515"},{"town":"南山来","koaza":"","lat":35.96726,"lng":140.398394,"zip":"3000624"},{"town":"村田","koaza":"","lat":35.94246,"lng":140.31078,"zip":"3000505"},{"town":"本新","koaza":"","lat":35.946802,"lng":140.469414,"zip":"3000731"},{"town":"八筋川","koaza":"","lat":35.944135,"lng":140.491098,"zip":"3000724"},{"town":"余津谷","koaza":"","lat":35.907585,"lng":140.382303,"zip":"3000747"},{"town":"四ツ谷","koaza":"","lat":35.914019,"lng":140.426915,"zip":"3000500"},{"town":"六角","koaza":"","lat":35.916442,"lng":140.435383,"zip":"3000735"},{"town":"脇川","koaza":"","lat":35.922917,"lng":140.382544,"zip":"3000606"},{"town":"江戸崎","koaza":"甲","lat":35.962317,"lng":140.314952,"zip":"3000509"},{"town":"江戸崎","koaza":"荒句甲","lat":35.972118,"lng":140.323926,"zip":"3000509"},{"town":"飯島","koaza":"","lat":35.918336,"lng":140.473557,"zip":"3000727"},{"town":"西代","koaza":"東田","lat":35.917099,"lng":140.488452,"zip":"3000726"}]