[{"town":"うずら野一丁目","koaza":"","lat":36.032002,"lng":140.174378,"zip":"3000341"},{"town":"うずら野二丁目","koaza":"","lat":36.033597,"lng":140.17836,"zip":"3000341"},{"town":"うずら野三丁目","koaza":"","lat":36.031131,"lng":140.182384,"zip":"3000341"},{"town":"うずら野四丁目","koaza":"","lat":36.029356,"lng":140.174907,"zip":"3000341"},{"town":"大字青宿","koaza":"","lat":36.048369,"lng":140.220479,"zip":"3000300"},{"town":"大字曙","koaza":"","lat":36.03749,"lng":140.227826,"zip":"3000300"},{"town":"大字阿見","koaza":"","lat":36.034827,"lng":140.201053,"zip":"3000300"},{"town":"大字荒川本郷","koaza":"","lat":36.017585,"lng":140.176523,"zip":"3000300"},{"town":"大字飯倉","koaza":"","lat":35.994174,"lng":140.249159,"zip":"3000300"},{"town":"大字石川","koaza":"","lat":36.015661,"lng":140.270779,"zip":"3000300"},{"town":"大字大形","koaza":"","lat":35.992351,"lng":140.267557,"zip":"3000300"},{"town":"大字大室","koaza":"","lat":36.039083,"lng":140.235111,"zip":"3000300"},{"town":"大字追原","koaza":"","lat":36.015453,"lng":140.258571,"zip":"3000300"},{"town":"大字掛馬","koaza":"","lat":36.030661,"lng":140.244224,"zip":"3000300"},{"town":"大字香澄の里","koaza":"","lat":36.014844,"lng":140.245015,"zip":"3000300"},{"town":"大字上長","koaza":"","lat":36.004599,"lng":140.204177,"zip":"3000300"},{"town":"大字君島","koaza":"","lat":36.003494,"lng":140.271257,"zip":"3000300"},{"town":"大字小池","koaza":"","lat":35.990206,"lng":140.189654,"zip":"3000300"},{"town":"大字実穀","koaza":"","lat":36.009882,"lng":140.189095,"zip":"3000300"},{"town":"大字島津","koaza":"","lat":36.029517,"lng":140.261884,"zip":"3000300"},{"town":"大字上条","koaza":"","lat":36.008406,"lng":140.239644,"zip":"3000300"},{"town":"大字鈴木","koaza":"","lat":36.02162,"lng":140.212063,"zip":"3000300"},{"town":"大字竹来","koaza":"","lat":36.030439,"lng":140.234461,"zip":"3000300"},{"town":"大字廻戸","koaza":"","lat":36.042822,"lng":140.223458,"zip":"3000300"},{"town":"大字塙","koaza":"","lat":36.007751,"lng":140.25739,"zip":"3000300"},{"town":"大字福田","koaza":"","lat":35.982488,"lng":140.206059,"zip":"3000300"},{"town":"大字星の里","koaza":"","lat":36.000815,"lng":140.248043,"zip":"3000300"},{"town":"大字吉原","koaza":"","lat":35.991065,"lng":140.225403,"zip":"3000300"},{"town":"大字若栗","koaza":"","lat":36.014892,"lng":140.218475,"zip":"3000300"},{"town":"岡崎一丁目","koaza":"","lat":36.041999,"lng":140.219199,"zip":"3000335"},{"town":"岡崎二丁目","koaza":"","lat":36.037622,"lng":140.222456,"zip":"3000335"},{"town":"岡崎三丁目","koaza":"","lat":36.038975,"lng":140.21766,"zip":"3000335"},{"town":"住吉一丁目","koaza":"","lat":36.037416,"lng":140.172385,"zip":"3001158"},{"town":"住吉二丁目","koaza":"","lat":36.036829,"lng":140.176299,"zip":"3001158"},{"town":"中央一丁目","koaza":"","lat":36.028357,"lng":140.214393,"zip":"3000332"},{"town":"中央二丁目","koaza":"","lat":36.027366,"lng":140.217853,"zip":"3000332"},{"town":"中央三丁目","koaza":"","lat":36.034498,"lng":140.215522,"zip":"3000332"},{"town":"中央四丁目","koaza":"","lat":36.030369,"lng":140.219443,"zip":"3000332"},{"town":"中央五丁目","koaza":"","lat":36.033944,"lng":140.221338,"zip":"3000332"},{"town":"中央六丁目","koaza":"","lat":36.029228,"lng":140.222165,"zip":"3000332"},{"town":"中央七丁目","koaza":"","lat":36.031286,"lng":140.225139,"zip":"3000332"},{"town":"中央八丁目","koaza":"","lat":36.025526,"lng":140.223054,"zip":"3000332"},{"town":"中郷二丁目","koaza":"","lat":36.040036,"lng":140.213775,"zip":"3000337"},{"town":"中郷三丁目","koaza":"","lat":36.039552,"lng":140.211544,"zip":"3000337"},{"town":"南平台一丁目","koaza":"","lat":36.024104,"lng":140.253446,"zip":"3000312"},{"town":"南平台二丁目","koaza":"","lat":36.026408,"lng":140.254978,"zip":"3000312"},{"town":"南平台三丁目","koaza":"","lat":36.025802,"lng":140.250447,"zip":"3000312"},{"town":"西郷三丁目","koaza":"","lat":36.040104,"lng":140.209341,"zip":"3000336"},{"town":"本郷一丁目","koaza":"","lat":36.025401,"lng":140.176903,"zip":"3001159"},{"town":"本郷二丁目","koaza":"","lat":36.024604,"lng":140.181422,"zip":"3001159"},{"town":"本郷三丁目","koaza":"","lat":36.023068,"lng":140.174871,"zip":"3001159"},{"town":"よしわら一丁目","koaza":"","lat":35.985732,"lng":140.235224,"zip":"3001161"},{"town":"よしわら二丁目","koaza":"","lat":35.989597,"lng":140.23779,"zip":"3001161"},{"town":"よしわら三丁目","koaza":"","lat":35.986601,"lng":140.239457,"zip":"3001161"},{"town":"よしわら四丁目","koaza":"","lat":35.983866,"lng":140.237936,"zip":"3001161"},{"town":"よしわら五丁目","koaza":"","lat":35.98263,"lng":140.232904,"zip":"3001161"},{"town":"よしわら六丁目","koaza":"","lat":35.982987,"lng":140.232406,"zip":"3001161"}]