[{"town":"片巻","koaza":"","lat":35.878199,"lng":140.307087,"zip":"3001404"},{"town":"金江津","koaza":"","lat":35.884165,"lng":140.334858,"zip":"3001403"},{"town":"源清田","koaza":"","lat":35.881466,"lng":140.254385,"zip":"3001324"},{"town":"幸谷","koaza":"","lat":35.878448,"lng":140.240488,"zip":"3001332"},{"town":"古河林","koaza":"","lat":35.895425,"lng":140.258607,"zip":"3001322"},{"town":"小林町歩","koaza":"","lat":35.863378,"lng":140.240521,"zip":"3001334"},{"town":"猿島","koaza":"","lat":35.866542,"lng":140.248912,"zip":"3001327"},{"town":"下加納","koaza":"","lat":35.893889,"lng":140.327085,"zip":"3001406"},{"town":"下町歩","koaza":"","lat":35.876153,"lng":140.275866,"zip":"3001314"},{"town":"十三間戸","koaza":"","lat":35.90768,"lng":140.367565,"zip":"3001401"},{"town":"十里","koaza":"","lat":35.875235,"lng":140.270595,"zip":"3001315"},{"town":"庄布川","koaza":"","lat":35.893696,"lng":140.273905,"zip":"3001311"},{"town":"角崎町歩","koaza":"","lat":35.865317,"lng":140.244878,"zip":"3001333"},{"town":"大徳鍋子新田","koaza":"","lat":35.86295,"lng":140.233992,"zip":"3001336"},{"town":"田川","koaza":"","lat":35.87091,"lng":140.297585,"zip":"3001313"},{"town":"手栗","koaza":"","lat":35.889908,"lng":140.257062,"zip":"3001323"},{"town":"長竿","koaza":"","lat":35.886637,"lng":140.282115,"zip":"3001312"},{"town":"羽子騎","koaza":"","lat":35.891323,"lng":140.242107,"zip":"3001321"},{"town":"平川","koaza":"","lat":35.899554,"lng":140.356808,"zip":"3001402"},{"town":"布鎌","koaza":"","lat":35.871924,"lng":140.262977,"zip":"3001316"},{"town":"平三郎","koaza":"","lat":35.8698,"lng":140.258669,"zip":"3001325"},{"town":"生板","koaza":"","lat":35.888908,"lng":140.225301,"zip":"3001331"},{"town":"生板鍋子新田","koaza":"","lat":35.874461,"lng":140.236968,"zip":"3001335"},{"town":"宮渕","koaza":"","lat":35.868255,"lng":140.253608,"zip":"3001300"},{"town":"龍ケ崎町歩","koaza":"","lat":35.86234,"lng":140.222297,"zip":"3001300"},{"town":"源清田","koaza":"古道","lat":35.882973,"lng":140.245209,"zip":"3001324"}]