[{"town":"赤坂","koaza":"","lat":36.390394,"lng":140.249788,"zip":"3091616"},{"town":"安居","koaza":"","lat":36.281661,"lng":140.337658,"zip":"3190206"},{"town":"旭町","koaza":"","lat":36.326647,"lng":140.320704,"zip":"3091717"},{"town":"飯合","koaza":"","lat":36.382915,"lng":140.221718,"zip":"3091632"},{"town":"飯田","koaza":"","lat":36.417971,"lng":140.268765,"zip":"3091605"},{"town":"池野辺","koaza":"","lat":36.410162,"lng":140.336464,"zip":"3091602"},{"town":"石井","koaza":"","lat":36.386953,"lng":140.236558,"zip":"3091613"},{"town":"石寺","koaza":"","lat":36.427649,"lng":140.259485,"zip":"3091607"},{"town":"泉","koaza":"","lat":36.281663,"lng":140.26082,"zip":"3190209"},{"town":"市野谷","koaza":"","lat":36.27791,"lng":140.284538,"zip":"3190208"},{"town":"稲田","koaza":"","lat":36.370252,"lng":140.201559,"zip":"3091635"},{"town":"大郷戸","koaza":"","lat":36.393814,"lng":140.198908,"zip":"3091636"},{"town":"大古山","koaza":"","lat":36.316891,"lng":140.296289,"zip":"3091724"},{"town":"大田町","koaza":"","lat":36.348768,"lng":140.290124,"zip":"3091738"},{"town":"大橋","koaza":"","lat":36.428649,"lng":140.30829,"zip":"3091601"},{"town":"大渕","koaza":"","lat":36.395547,"lng":140.275912,"zip":"3091604"},{"town":"押辺","koaza":"","lat":36.289214,"lng":140.309191,"zip":"3190205"},{"town":"小原","koaza":"","lat":36.37577,"lng":140.322346,"zip":"3091701"},{"town":"笠間","koaza":"","lat":36.37878,"lng":140.261722,"zip":"3091611"},{"town":"柏井","koaza":"","lat":36.313275,"lng":140.351695,"zip":"3091713"},{"town":"片庭","koaza":"","lat":36.413235,"lng":140.207355,"zip":"3091637"},{"town":"金井","koaza":"","lat":36.399165,"lng":140.259073,"zip":"3091615"},{"town":"上市原","koaza":"","lat":36.389332,"lng":140.297284,"zip":"3091731"},{"town":"上加賀田","koaza":"","lat":36.335139,"lng":140.253093,"zip":"3091623"},{"town":"上郷","koaza":"","lat":36.305304,"lng":140.245253,"zip":"3190201"},{"town":"北吉原","koaza":"","lat":36.354845,"lng":140.239338,"zip":"3091624"},{"town":"来栖","koaza":"","lat":36.371025,"lng":140.234113,"zip":"3091625"},{"town":"鯉淵","koaza":"","lat":36.344212,"lng":140.325985,"zip":"3091703"},{"town":"鴻巣","koaza":"","lat":36.355805,"lng":140.317115,"zip":"3091706"},{"town":"五平","koaza":"","lat":36.353388,"lng":140.334511,"zip":"3091702"},{"town":"下市毛","koaza":"","lat":36.366466,"lng":140.253864,"zip":"3091626"},{"town":"下市原","koaza":"","lat":36.37052,"lng":140.300498,"zip":"3091733"},{"town":"下加賀田","koaza":"","lat":36.332622,"lng":140.272539,"zip":"3091726"},{"town":"下郷","koaza":"","lat":36.306373,"lng":140.283105,"zip":"3190202"},{"town":"住吉","koaza":"","lat":36.316149,"lng":140.319604,"zip":"3091716"},{"town":"平町","koaza":"","lat":36.354629,"lng":140.27685,"zip":"3091722"},{"town":"中央一丁目","koaza":"","lat":36.345352,"lng":140.307049,"zip":"3091737"},{"town":"中央二丁目","koaza":"","lat":36.342941,"lng":140.308232,"zip":"3091737"},{"town":"中央三丁目","koaza":"","lat":36.344334,"lng":140.303234,"zip":"3091737"},{"town":"中央四丁目","koaza":"","lat":36.341602,"lng":140.29989,"zip":"3091737"},{"town":"手越","koaza":"","lat":36.36048,"lng":140.26731,"zip":"3091621"},{"town":"寺崎","koaza":"","lat":36.397991,"lng":140.251462,"zip":"3091614"},{"town":"友部駅前","koaza":"","lat":36.350299,"lng":140.307729,"zip":"3091735"},{"town":"中市原","koaza":"","lat":36.375553,"lng":140.29336,"zip":"3091732"},{"town":"長兎路","koaza":"","lat":36.304746,"lng":140.338673,"zip":"3091712"},{"town":"長兎路仁古田入会地","koaza":"","lat":36.312881,"lng":140.365412,"zip":"3091600"},{"town":"随分附","koaza":"","lat":36.325235,"lng":140.338822,"zip":"3091711"},{"town":"仁古田","koaza":"","lat":36.303234,"lng":140.35188,"zip":"3091714"},{"town":"箱田","koaza":"","lat":36.414492,"lng":140.229162,"zip":"3091631"},{"town":"土師","koaza":"","lat":36.30434,"lng":140.301098,"zip":"3190204"},{"town":"橋爪","koaza":"","lat":36.337026,"lng":140.294457,"zip":"3091721"},{"town":"東平一丁目","koaza":"","lat":36.350944,"lng":140.312509,"zip":"3091705"},{"town":"東平二丁目","koaza":"","lat":36.347881,"lng":140.30974,"zip":"3091705"},{"town":"東平三丁目","koaza":"","lat":36.348652,"lng":140.314519,"zip":"3091705"},{"town":"東平四丁目","koaza":"","lat":36.345469,"lng":140.316299,"zip":"3091705"},{"town":"日草場","koaza":"","lat":36.380659,"lng":140.282664,"zip":"3091612"},{"town":"日沢","koaza":"","lat":36.411897,"lng":140.25056,"zip":"3091606"},{"town":"福島","koaza":"","lat":36.274805,"lng":140.294196,"zip":"3190207"},{"town":"福田","koaza":"","lat":36.410294,"lng":140.297675,"zip":"3091603"},{"town":"福原","koaza":"","lat":36.342504,"lng":140.180489,"zip":"3091634"},{"town":"南小泉","koaza":"","lat":36.326484,"lng":140.285926,"zip":"3091725"},{"town":"南友部","koaza":"","lat":36.358194,"lng":140.303138,"zip":"3091734"},{"town":"南吉原","koaza":"","lat":36.353516,"lng":140.256865,"zip":"3091622"},{"town":"美原一丁目","koaza":"","lat":36.344879,"lng":140.311545,"zip":"3091704"},{"town":"美原二丁目","koaza":"","lat":36.341405,"lng":140.314607,"zip":"3091704"},{"town":"美原三丁目","koaza":"","lat":36.343615,"lng":140.316525,"zip":"3091704"},{"town":"美原四丁目","koaza":"","lat":36.340124,"lng":140.318835,"zip":"3091704"},{"town":"本戸","koaza":"","lat":36.339472,"lng":140.218981,"zip":"3091633"},{"town":"八雲一丁目","koaza":"","lat":36.347688,"lng":140.305753,"zip":"3091736"},{"town":"八雲二丁目","koaza":"","lat":36.346252,"lng":140.302093,"zip":"3091736"},{"town":"矢野下","koaza":"","lat":36.324071,"lng":140.302942,"zip":"3091723"},{"town":"湯崎","koaza":"","lat":36.315892,"lng":140.336787,"zip":"3091715"},{"town":"吉岡","koaza":"","lat":36.295112,"lng":140.287038,"zip":"3190203"},{"town":"石井","koaza":"南町","lat":36.383274,"lng":140.246456,"zip":"3091613"},{"town":"箱田","koaza":"元〆","lat":36.392008,"lng":140.247061,"zip":"3091631"},{"town":"市野谷","koaza":"山王","lat":36.281458,"lng":140.275678,"zip":"3190208"}]