[{"town":"赤浜","koaza":"","lat":36.210589,"lng":140.016531,"zip":"3004523"},{"town":"旭ヶ丘","koaza":"","lat":36.263354,"lng":139.987044,"zip":"3080000"},{"town":"新井新田","koaza":"","lat":36.24788,"lng":140.025091,"zip":"3004516"},{"town":"有田","koaza":"","lat":36.243214,"lng":140.057266,"zip":"3004512"},{"town":"飯島","koaza":"","lat":36.306002,"lng":139.942202,"zip":"3080064"},{"town":"飯田","koaza":"","lat":36.266748,"lng":139.993391,"zip":"3080835"},{"town":"伊讃美","koaza":"","lat":36.303724,"lng":139.933037,"zip":"3080853"},{"town":"伊佐山","koaza":"","lat":36.299985,"lng":139.91244,"zip":"3080856"},{"town":"石塔","koaza":"","lat":36.336851,"lng":139.96162,"zip":"3080075"},{"town":"石原田","koaza":"","lat":36.313939,"lng":139.959873,"zip":"3080055"},{"town":"泉","koaza":"","lat":36.334374,"lng":139.958048,"zip":"3080076"},{"town":"板橋","koaza":"","lat":36.248541,"lng":139.941434,"zip":"3080116"},{"town":"市野辺","koaza":"","lat":36.315275,"lng":139.987443,"zip":"3080827"},{"town":"一本松","koaza":"","lat":36.293644,"lng":139.968426,"zip":"3080842"},{"town":"井出蛯沢","koaza":"","lat":36.338446,"lng":140.01128,"zip":"3091108"},{"town":"稲野辺","koaza":"","lat":36.32007,"lng":139.985817,"zip":"3080805"},{"town":"稲荷","koaza":"","lat":36.235793,"lng":139.991392,"zip":"3080106"},{"town":"犬塚","koaza":"","lat":36.251362,"lng":139.9476,"zip":"3080117"},{"town":"井上","koaza":"","lat":36.256225,"lng":139.972539,"zip":"3080101"},{"town":"上野","koaza":"","lat":36.236781,"lng":139.914405,"zip":"3080129"},{"town":"内淀","koaza":"","lat":36.277974,"lng":140.033269,"zip":"3004507"},{"town":"江","koaza":"","lat":36.236544,"lng":139.918419,"zip":"3080128"},{"town":"海老江","koaza":"","lat":36.251999,"lng":140.007835,"zip":"3004538"},{"town":"海老ヶ島","koaza":"","lat":36.248446,"lng":140.037395,"zip":"3080000"},{"town":"大島","koaza":"","lat":36.30351,"lng":140.048595,"zip":"3091125"},{"town":"大関","koaza":"","lat":36.342743,"lng":139.997858,"zip":"3080015"},{"town":"大塚","koaza":"","lat":36.286779,"lng":140.003361,"zip":"3080813"},{"town":"大林","koaza":"","lat":36.252983,"lng":139.999391,"zip":"3004537"},{"town":"大谷","koaza":"","lat":36.32995,"lng":139.929788,"zip":"3080852"},{"town":"岡芹","koaza":"","lat":36.32216,"lng":139.971006,"zip":"3080051"},{"town":"小川","koaza":"","lat":36.309634,"lng":139.91942,"zip":"3080857"},{"town":"奥田","koaza":"","lat":36.369036,"lng":140.003685,"zip":"3080012"},{"town":"小栗","koaza":"","lat":36.36355,"lng":140.018052,"zip":"3091101"},{"town":"女方","koaza":"","lat":36.285132,"lng":139.915377,"zip":"3080854"},{"town":"押尾","koaza":"","lat":36.25099,"lng":140.055438,"zip":"3004511"},{"town":"落合","koaza":"","lat":36.362179,"lng":139.983841,"zip":"3080002"},{"town":"乙","koaza":"","lat":36.307649,"lng":139.975194,"zip":"3080041"},{"town":"小林","koaza":"","lat":36.325013,"lng":139.983299,"zip":"3080806"},{"town":"折本","koaza":"","lat":36.348902,"lng":139.968739,"zip":"3080007"},{"town":"嘉家佐和","koaza":"","lat":36.263256,"lng":139.97257,"zip":"3080837"},{"town":"梶内","koaza":"","lat":36.237209,"lng":139.980144,"zip":"3080107"},{"town":"門井","koaza":"","lat":36.336506,"lng":140.02679,"zip":"3091107"},{"town":"金丸","koaza":"","lat":36.311783,"lng":140.004778,"zip":"3080804"},{"town":"上川中子","koaza":"","lat":36.280819,"lng":139.992915,"zip":"3080815"},{"town":"上中山","koaza":"","lat":36.337446,"lng":139.982181,"zip":"3080017"},{"town":"上西郷谷","koaza":"","lat":36.274262,"lng":140.062901,"zip":"3004502"},{"town":"上平塚","koaza":"","lat":36.319704,"lng":139.933322,"zip":"3080067"},{"town":"上星谷","koaza":"","lat":36.323915,"lng":140.043979,"zip":"3091111"},{"town":"神分","koaza":"","lat":36.304823,"lng":139.9562,"zip":"3080063"},{"town":"川澄","koaza":"","lat":36.327575,"lng":139.995835,"zip":"3080801"},{"town":"川連","koaza":"","lat":36.281178,"lng":139.997827,"zip":"3080814"},{"town":"木戸","koaza":"","lat":36.238018,"lng":139.971675,"zip":"3080104"},{"town":"久地楽","koaza":"","lat":36.344378,"lng":140.03569,"zip":"3091103"},{"town":"口戸","koaza":"","lat":36.354103,"lng":139.965637,"zip":"3080071"},{"town":"倉持","koaza":"","lat":36.236039,"lng":140.034991,"zip":"3004515"},{"town":"栗島","koaza":"","lat":36.31949,"lng":139.953976,"zip":"3080061"},{"town":"黒子","koaza":"","lat":36.250484,"lng":139.978615,"zip":"3080102"},{"town":"桑山","koaza":"","lat":36.298079,"lng":140.032004,"zip":"3091127"},{"town":"甲","koaza":"","lat":36.311068,"lng":139.977846,"zip":"3080021"},{"town":"国府田","koaza":"","lat":36.346172,"lng":139.98242,"zip":"3080004"},{"town":"子思儀","koaza":"","lat":36.344462,"lng":139.95626,"zip":"3080077"},{"town":"五所宮","koaza":"","lat":36.333747,"lng":139.942204,"zip":"3080866"},{"town":"小塙","koaza":"","lat":36.334973,"lng":139.951691,"zip":"3080862"},{"town":"幸町一丁目","koaza":"","lat":36.286309,"lng":139.939956,"zip":"3080848"},{"town":"幸町二丁目","koaza":"","lat":36.284828,"lng":139.943583,"zip":"3080848"},{"town":"幸町三丁目","koaza":"","lat":36.282104,"lng":139.946087,"zip":"3080848"},{"town":"鷺島","koaza":"","lat":36.238466,"lng":140.00835,"zip":"3004532"},{"town":"笹塚","koaza":"","lat":36.309608,"lng":139.95002,"zip":"3080065"},{"town":"山王堂","koaza":"","lat":36.238825,"lng":140.044367,"zip":"3004514"},{"town":"三郷","koaza":"","lat":36.331566,"lng":140.046858,"zip":"3091105"},{"town":"柴山","koaza":"","lat":36.34694,"lng":139.96552,"zip":"3080072"},{"town":"島","koaza":"","lat":36.299193,"lng":139.995175,"zip":"3080823"},{"town":"清水","koaza":"","lat":36.300542,"lng":140.043542,"zip":"3091126"},{"town":"下江連","koaza":"","lat":36.334169,"lng":139.922472,"zip":"3080851"},{"town":"下岡崎","koaza":"","lat":36.301039,"lng":139.984821,"zip":"3080826"},{"town":"下岡崎一丁目","koaza":"","lat":36.305622,"lng":139.983407,"zip":"3080826"},{"town":"下岡崎二丁目","koaza":"","lat":36.302973,"lng":139.982306,"zip":"3080826"},{"town":"下岡崎三丁目","koaza":"","lat":36.299598,"lng":139.983095,"zip":"3080826"},{"town":"下川島","koaza":"","lat":36.292355,"lng":139.904927,"zip":"3080855"},{"town":"下川中子","koaza":"","lat":36.268442,"lng":139.997951,"zip":"3004545"},{"town":"下郷谷","koaza":"","lat":36.308562,"lng":140.049917,"zip":"3091123"},{"town":"下高田","koaza":"","lat":36.365607,"lng":139.9929,"zip":"3080011"},{"town":"下中山","koaza":"","lat":36.303812,"lng":139.987922,"zip":"3080825"},{"town":"下野殿","koaza":"","lat":36.268684,"lng":139.972975,"zip":"3080844"},{"town":"下平塚","koaza":"","lat":36.31274,"lng":139.941114,"zip":"3080066"},{"town":"下星谷","koaza":"","lat":36.315268,"lng":140.048421,"zip":"3091122"},{"town":"菅谷","koaza":"","lat":36.30508,"lng":139.968156,"zip":"3080052"},{"town":"関舘","koaza":"","lat":36.230502,"lng":139.963221,"zip":"3080113"},{"town":"関本肥土","koaza":"","lat":36.259883,"lng":139.905531,"zip":"3080124"},{"town":"関本上","koaza":"","lat":36.260576,"lng":139.914725,"zip":"3080122"},{"town":"関本上中","koaza":"","lat":36.253031,"lng":139.914211,"zip":"3080123"},{"town":"関本下","koaza":"","lat":36.243374,"lng":139.91468,"zip":"3080127"},{"town":"関本中","koaza":"","lat":36.24972,"lng":139.911886,"zip":"3080126"},{"town":"関本分中","koaza":"","lat":36.26024,"lng":139.898409,"zip":"3080125"},{"town":"掉ヶ島","koaza":"","lat":36.329583,"lng":139.950805,"zip":"3080000"},{"town":"高島","koaza":"","lat":36.331664,"lng":139.981615,"zip":"3080807"},{"town":"高津","koaza":"","lat":36.228695,"lng":140.010532,"zip":"3004534"},{"town":"竹垣","koaza":"","lat":36.259208,"lng":140.01242,"zip":"3004543"},{"town":"田宿","koaza":"","lat":36.265186,"lng":140.043708,"zip":"3004505"},{"town":"玉戸","koaza":"","lat":36.28984,"lng":139.943033,"zip":"3080847"},{"town":"知行","koaza":"","lat":36.306468,"lng":140.040257,"zip":"3091124"},{"town":"筑瀬","koaza":"","lat":36.343873,"lng":139.961867,"zip":"3080074"},{"town":"築地","koaza":"","lat":36.250168,"lng":140.017432,"zip":"3004531"},{"town":"塚原","koaza":"","lat":36.302916,"lng":139.992001,"zip":"3080822"},{"town":"辻","koaza":"","lat":36.250676,"lng":139.98864,"zip":"3080103"},{"town":"寺上野","koaza":"","lat":36.225515,"lng":140.03488,"zip":"3004525"},{"town":"徳持","koaza":"","lat":36.291056,"lng":140.000913,"zip":"3080816"},{"town":"外塚","koaza":"","lat":36.306548,"lng":139.963276,"zip":"3080053"},{"town":"直井","koaza":"","lat":36.311513,"lng":139.995463,"zip":"3080803"},{"town":"中上野","koaza":"","lat":36.222612,"lng":140.019454,"zip":"3004524"},{"town":"中舘","koaza":"","lat":36.333561,"lng":139.970844,"zip":"3080005"},{"town":"中根","koaza":"","lat":36.235543,"lng":140.049699,"zip":"3004513"},{"town":"中村新田","koaza":"","lat":36.22763,"lng":139.968874,"zip":"3080108"},{"town":"鍋山","koaza":"","lat":36.275359,"lng":140.023702,"zip":"3004506"},{"town":"成田","koaza":"","lat":36.307267,"lng":139.99494,"zip":"3080821"},{"town":"成井","koaza":"","lat":36.235449,"lng":140.015928,"zip":"3004533"},{"town":"新治","koaza":"","lat":36.330617,"lng":140.038138,"zip":"3091106"},{"town":"二木成","koaza":"","lat":36.292336,"lng":139.978079,"zip":"3080841"},{"town":"西石田","koaza":"","lat":36.277301,"lng":139.990475,"zip":"3080834"},{"town":"西大島","koaza":"","lat":36.31175,"lng":139.956469,"zip":"3080062"},{"town":"西方","koaza":"","lat":36.284473,"lng":139.963557,"zip":"3080845"},{"town":"西保末","koaza":"","lat":36.244504,"lng":139.994766,"zip":"3080105"},{"town":"西谷貝","koaza":"","lat":36.312902,"lng":139.964402,"zip":"3080054"},{"town":"西山田","koaza":"","lat":36.33834,"lng":139.932832,"zip":"3080867"},{"town":"西榎生","koaza":"","lat":36.289167,"lng":139.984439,"zip":"3080832"},{"town":"布川","koaza":"","lat":36.28037,"lng":139.930403,"zip":"3080846"},{"town":"猫島","koaza":"","lat":36.277372,"lng":140.045248,"zip":"3004501"},{"town":"野","koaza":"","lat":36.33866,"lng":139.99011,"zip":"3080016"},{"town":"野田","koaza":"","lat":36.28189,"lng":139.98268,"zip":"3080833"},{"town":"野殿","koaza":"","lat":36.275733,"lng":139.974864,"zip":"3080843"},{"town":"灰塚","koaza":"","lat":36.324696,"lng":139.956868,"zip":"3080863"},{"town":"羽方","koaza":"","lat":36.353456,"lng":139.993038,"zip":"3080014"},{"town":"蓮沼","koaza":"","lat":36.319324,"lng":140.02187,"zip":"3091115"},{"town":"八田","koaza":"","lat":36.355781,"lng":140.0027,"zip":"3080013"},{"town":"花田","koaza":"","lat":36.235206,"lng":139.948428,"zip":"3080114"},{"town":"花橋","koaza":"","lat":36.242023,"lng":139.943544,"zip":"3080115"},{"town":"林","koaza":"","lat":36.342112,"lng":139.964048,"zip":"3080073"},{"town":"東石田","koaza":"","lat":36.221198,"lng":140.050184,"zip":"3004521"},{"town":"東保末","koaza":"","lat":36.244245,"lng":140.00587,"zip":"3004536"},{"town":"東榎生","koaza":"","lat":36.290506,"lng":139.989488,"zip":"3080831"},{"town":"樋口","koaza":"","lat":36.364833,"lng":139.97107,"zip":"3080001"},{"town":"深見","koaza":"","lat":36.29312,"lng":140.007852,"zip":"3080812"},{"town":"福岡新田","koaza":"","lat":36.213049,"lng":140.005314,"zip":"3080000"},{"town":"藤ケ谷","koaza":"","lat":36.25332,"lng":139.95919,"zip":"3080112"},{"town":"船玉","koaza":"","lat":36.273804,"lng":139.911097,"zip":"3080121"},{"town":"舟生","koaza":"","lat":36.260904,"lng":139.9302,"zip":"3080111"},{"town":"古内","koaza":"","lat":36.260062,"lng":140.000325,"zip":"3004544"},{"town":"古郡","koaza":"","lat":36.342904,"lng":140.042878,"zip":"3091104"},{"town":"丙","koaza":"","lat":36.308371,"lng":139.980571,"zip":"3080031"},{"town":"細田","koaza":"","lat":36.317689,"lng":140.031043,"zip":"3091114"},{"town":"蒔田","koaza":"","lat":36.354788,"lng":139.97981,"zip":"3080003"},{"town":"松原","koaza":"","lat":36.263267,"lng":140.027249,"zip":"3004541"},{"town":"みどり町一丁目","koaza":"","lat":36.301314,"lng":139.972677,"zip":"3080042"},{"town":"みどり町二丁目","koaza":"","lat":36.298378,"lng":139.971202,"zip":"3080042"},{"town":"宮後","koaza":"","lat":36.265223,"lng":140.055993,"zip":"3004503"},{"town":"宮山","koaza":"","lat":36.256934,"lng":140.051335,"zip":"3004504"},{"town":"向上野","koaza":"","lat":36.20908,"lng":140.034826,"zip":"3004522"},{"town":"向川澄","koaza":"","lat":36.327394,"lng":140.009803,"zip":"3091117"},{"town":"村田","koaza":"","lat":36.278289,"lng":140.007921,"zip":"3004546"},{"town":"茂田","koaza":"","lat":36.303859,"lng":140.008925,"zip":"3080811"},{"town":"森添島","koaza":"","lat":36.342321,"lng":139.944274,"zip":"3080861"},{"town":"谷中","koaza":"","lat":36.321172,"lng":139.962801,"zip":"3080056"},{"town":"谷永島","koaza":"","lat":36.313456,"lng":140.037291,"zip":"3091121"},{"town":"柳","koaza":"","lat":36.320797,"lng":140.041485,"zip":"3091113"},{"town":"谷部","koaza":"","lat":36.337461,"lng":139.968462,"zip":"3080006"},{"town":"山崎","koaza":"","lat":36.323221,"lng":139.945173,"zip":"3080865"},{"town":"八幡","koaza":"","lat":36.321703,"lng":140.050066,"zip":"3091112"},{"town":"谷原","koaza":"","lat":36.239078,"lng":140.000505,"zip":"3004535"},{"town":"横島","koaza":"","lat":36.318688,"lng":139.995935,"zip":"3080802"},{"town":"横塚","koaza":"","lat":36.314504,"lng":140.011872,"zip":"3091116"},{"town":"吉田","koaza":"","lat":36.266364,"lng":140.008839,"zip":"3004542"},{"town":"榎生一丁目","koaza":"","lat":36.296361,"lng":139.983181,"zip":"3080838"},{"town":"蓬田","koaza":"","lat":36.3648,"lng":140.037051,"zip":"3091102"},{"town":"蕨","koaza":"","lat":36.291362,"lng":139.994867,"zip":"3080824"},{"town":"玉戸","koaza":"山ヶ島","lat":36.295833,"lng":139.94018,"zip":"3080847"},{"town":"玉戸","koaza":"西原","lat":36.297308,"lng":139.947595,"zip":"3080847"},{"town":"西谷貝","koaza":"沼堀","lat":36.309408,"lng":139.965962,"zip":"3080054"},{"town":"岡芹一丁目","koaza":"","lat":null,"lng":null,"zip":null},{"town":"岡芹二丁目","koaza":"","lat":null,"lng":null,"zip":null},{"town":"八丁台","koaza":"","lat":null,"lng":null,"zip":null}]