[{"town":"大字今宿","koaza":"","lat":36.23134,"lng":139.875924,"zip":"3070000"},{"town":"大字上成","koaza":"","lat":36.274487,"lng":139.844026,"zip":"3070000"},{"town":"大字江川大町","koaza":"","lat":36.240412,"lng":139.839285,"zip":"3070000"},{"town":"大字江川新宿","koaza":"","lat":36.235954,"lng":139.830756,"zip":"3070000"},{"town":"大字大木","koaza":"","lat":36.252798,"lng":139.859684,"zip":"3070000"},{"town":"大字大谷瀬","koaza":"","lat":36.305743,"lng":139.893028,"zip":"3070000"},{"town":"大字小田林","koaza":"","lat":36.292332,"lng":139.845506,"zip":"3070000"},{"town":"大字粕礼","koaza":"","lat":36.218845,"lng":139.882009,"zip":"3070000"},{"town":"大字鹿窪","koaza":"","lat":36.276192,"lng":139.881635,"zip":"3070000"},{"town":"大字久保田","koaza":"","lat":36.280771,"lng":139.902288,"zip":"3070000"},{"town":"大字五助","koaza":"","lat":36.302868,"lng":139.856711,"zip":"3070000"},{"town":"大字小森","koaza":"","lat":36.283746,"lng":139.894854,"zip":"3070000"},{"town":"大字山王","koaza":"","lat":36.240775,"lng":139.894448,"zip":"3070000"},{"town":"大字七五三場","koaza":"","lat":36.207608,"lng":139.825727,"zip":"3070000"},{"town":"大字新宿新田","koaza":"","lat":36.227501,"lng":139.853808,"zip":"3070000"},{"town":"大字善右ヱ門新田","koaza":"","lat":36.218144,"lng":139.860252,"zip":"3070000"},{"town":"大字武井","koaza":"","lat":36.243484,"lng":139.827277,"zip":"3070000"},{"town":"大字田間","koaza":"","lat":36.26016,"lng":139.838757,"zip":"3070000"},{"town":"大字中","koaza":"","lat":36.270249,"lng":139.897344,"zip":"3070000"},{"town":"大字芳賀崎","koaza":"","lat":36.230148,"lng":139.884607,"zip":"3070000"},{"town":"大字浜野辺","koaza":"","lat":36.229563,"lng":139.891229,"zip":"3070000"},{"town":"大字林","koaza":"","lat":36.267134,"lng":139.890326,"zip":"3070000"},{"town":"大字東茂呂","koaza":"","lat":36.225404,"lng":139.838842,"zip":"3070000"},{"town":"大字古宿新田","koaza":"","lat":36.237218,"lng":139.872636,"zip":"3070000"},{"town":"大字北南茂呂","koaza":"","lat":36.221831,"lng":139.821633,"zip":"3070000"},{"town":"大字水海道","koaza":"","lat":36.230787,"lng":139.895741,"zip":"3070000"},{"town":"大字山川新宿","koaza":"","lat":36.230605,"lng":139.862775,"zip":"3070000"},{"town":"大字結城","koaza":"","lat":36.299076,"lng":139.887517,"zip":"3070000"},{"town":"大字結城作","koaza":"","lat":36.277502,"lng":139.852137,"zip":"3070000"},{"town":"大橋町","koaza":"","lat":36.295842,"lng":139.86803,"zip":"3070055"},{"town":"川木谷一丁目","koaza":"","lat":36.298395,"lng":139.865568,"zip":"3070005"},{"town":"川木谷二丁目","koaza":"","lat":36.298602,"lng":139.862849,"zip":"3070005"},{"town":"国府町一丁目","koaza":"","lat":36.29874,"lng":139.873235,"zip":"3070051"},{"town":"城南町一丁目","koaza":"","lat":36.288482,"lng":139.863138,"zip":"3070054"},{"town":"新堤仲通り","koaza":"","lat":36.276257,"lng":139.86632,"zip":"3070016"},{"town":"新福寺一丁目","koaza":"","lat":36.294387,"lng":139.866908,"zip":"3070053"},{"town":"新福寺二丁目","koaza":"","lat":36.293803,"lng":139.869877,"zip":"3070053"},{"town":"新福寺三丁目","koaza":"","lat":36.291179,"lng":139.864821,"zip":"3070053"},{"town":"新福寺四丁目","koaza":"","lat":36.29107,"lng":139.868798,"zip":"3070053"},{"town":"新福寺五丁目","koaza":"","lat":36.289359,"lng":139.867816,"zip":"3070053"},{"town":"新福寺六丁目","koaza":"","lat":36.28775,"lng":139.866299,"zip":"3070053"},{"town":"中央町一丁目","koaza":"","lat":36.293525,"lng":139.87225,"zip":"3070052"},{"town":"中央町二丁目","koaza":"","lat":36.290736,"lng":139.871572,"zip":"3070052"},{"town":"富士見町三丁目","koaza":"","lat":36.301203,"lng":139.863551,"zip":"3070003"},{"town":"富士見町四丁目","koaza":"","lat":36.301466,"lng":139.867553,"zip":"3070003"},{"town":"みどり町一丁目","koaza":"","lat":36.299837,"lng":139.866344,"zip":"3070004"},{"town":"みどり町二丁目","koaza":"","lat":36.300223,"lng":139.863021,"zip":"3070004"},{"town":"若宮","koaza":"","lat":36.270767,"lng":139.871456,"zip":"3070017"},{"town":"大字矢畑","koaza":"","lat":36.262414,"lng":139.872332,"zip":"3070000"},{"town":"大字上山川","koaza":"","lat":36.252849,"lng":139.876652,"zip":"3070000"},{"town":"新矢畑","koaza":"","lat":36.267102,"lng":139.871129,"zip":"3070029"}]