[{"town":"青沼","koaza":"","lat":36.028024,"lng":140.514404,"zip":"3113831"},{"town":"麻生","koaza":"","lat":36.001427,"lng":140.49081,"zip":"3113832"},{"town":"天掛","koaza":"","lat":36.049099,"lng":140.545882,"zip":"3113814"},{"town":"荒宿","koaza":"","lat":36.052945,"lng":140.440082,"zip":"3113518"},{"town":"井貝","koaza":"","lat":36.043746,"lng":140.48166,"zip":"3113803"},{"town":"石神","koaza":"","lat":36.013933,"lng":140.517643,"zip":"3113827"},{"town":"板峰","koaza":"","lat":36.042283,"lng":140.520978,"zip":"3113817"},{"town":"井上","koaza":"","lat":36.066249,"lng":140.440807,"zip":"3113515"},{"town":"井上藤井","koaza":"","lat":36.067642,"lng":140.458505,"zip":"3113516"},{"town":"宇崎","koaza":"","lat":36.017807,"lng":140.54803,"zip":"3113824"},{"town":"内宿","koaza":"","lat":36.09974,"lng":140.505304,"zip":"3111705"},{"town":"岡","koaza":"","lat":36.026608,"lng":140.531926,"zip":"3113822"},{"town":"沖洲","koaza":"","lat":36.14997,"lng":140.374515,"zip":"3113508"},{"town":"於下","koaza":"","lat":36.042131,"lng":140.465642,"zip":"3113802"},{"town":"小高","koaza":"","lat":36.032632,"lng":140.490132,"zip":"3113804"},{"town":"小貫","koaza":"","lat":36.112342,"lng":140.465383,"zip":"3111724"},{"town":"小幡","koaza":"","lat":36.074579,"lng":140.48147,"zip":"3111715"},{"town":"北高岡","koaza":"","lat":36.077429,"lng":140.500466,"zip":"3111716"},{"town":"蔵川","koaza":"","lat":36.033533,"lng":140.529096,"zip":"3113821"},{"town":"五町田","koaza":"","lat":36.04775,"lng":140.444033,"zip":"3113807"},{"town":"小牧","koaza":"","lat":36.043409,"lng":140.52835,"zip":"3113816"},{"town":"籠田","koaza":"","lat":36.051267,"lng":140.527942,"zip":"3113813"},{"town":"西蓮寺","koaza":"","lat":36.074188,"lng":140.437878,"zip":"3113514"},{"town":"島並","koaza":"","lat":36.013699,"lng":140.480432,"zip":"3113835"},{"town":"白浜","koaza":"","lat":36.030282,"lng":140.549855,"zip":"3113823"},{"town":"四鹿","koaza":"","lat":36.040909,"lng":140.502129,"zip":"3113811"},{"town":"新宮","koaza":"","lat":36.04295,"lng":140.545334,"zip":"3113815"},{"town":"杉平","koaza":"","lat":36.045164,"lng":140.512572,"zip":"3113812"},{"town":"芹沢","koaza":"","lat":36.145625,"lng":140.438399,"zip":"3113501"},{"town":"玉造乙","koaza":"","lat":36.114049,"lng":140.419977,"zip":"3113511"},{"town":"玉造甲","koaza":"","lat":36.107804,"lng":140.433231,"zip":"3113512"},{"town":"手賀","koaza":"","lat":36.086612,"lng":140.434457,"zip":"3113513"},{"town":"富田","koaza":"","lat":35.988771,"lng":140.506924,"zip":"3113833"},{"town":"中根","koaza":"","lat":36.060986,"lng":140.506093,"zip":"3111713"},{"town":"長野江","koaza":"","lat":36.122907,"lng":140.500408,"zip":"3111701"},{"town":"次木","koaza":"","lat":36.109258,"lng":140.487689,"zip":"3111722"},{"town":"行方","koaza":"","lat":36.052066,"lng":140.460756,"zip":"3113801"},{"town":"成田","koaza":"","lat":36.103114,"lng":140.512896,"zip":"3111703"},{"town":"根小屋","koaza":"","lat":36.02086,"lng":140.528127,"zip":"3113825"},{"town":"捻木","koaza":"","lat":36.132814,"lng":140.41335,"zip":"3113503"},{"town":"橋門","koaza":"","lat":36.023431,"lng":140.458744,"zip":"3113805"},{"town":"羽生","koaza":"","lat":36.144354,"lng":140.39069,"zip":"3113507"},{"town":"浜","koaza":"","lat":36.113714,"lng":140.402393,"zip":"3113505"},{"town":"繁昌","koaza":"","lat":36.060938,"lng":140.522917,"zip":"3111712"},{"town":"藤井","koaza":"","lat":36.0597,"lng":140.450508,"zip":"3113517"},{"town":"船子","koaza":"","lat":36.046133,"lng":140.451804,"zip":"3113806"},{"town":"粗毛","koaza":"","lat":35.986244,"lng":140.496556,"zip":"3113834"},{"town":"南","koaza":"","lat":36.022013,"lng":140.472952,"zip":"3113836"},{"town":"南高岡","koaza":"","lat":36.063741,"lng":140.494198,"zip":"3111714"},{"town":"三和","koaza":"","lat":36.110132,"lng":140.518299,"zip":"3111702"},{"town":"八木蒔","koaza":"","lat":36.129555,"lng":140.395452,"zip":"3113506"},{"town":"谷島","koaza":"","lat":36.116036,"lng":140.408409,"zip":"3113504"},{"town":"矢幡","koaza":"","lat":36.003281,"lng":140.53492,"zip":"3113826"},{"town":"山田","koaza":"","lat":36.082627,"lng":140.51755,"zip":"3111704"},{"town":"行戸","koaza":"","lat":36.085968,"lng":140.465043,"zip":"3111723"},{"town":"吉川","koaza":"","lat":36.059494,"lng":140.539737,"zip":"3111711"},{"town":"両宿","koaza":"","lat":36.105976,"lng":140.49565,"zip":"3111721"},{"town":"若海","koaza":"","lat":36.124733,"lng":140.428407,"zip":"3113502"}]