[{"town":"飯田","koaza":"","lat":36.45705,"lng":140.458626,"zip":"3110134"},{"town":"瓜連","koaza":"","lat":36.502657,"lng":140.448498,"zip":"3192102"},{"town":"大内","koaza":"","lat":36.482046,"lng":140.415646,"zip":"3110125"},{"town":"鹿島","koaza":"","lat":36.492352,"lng":140.464667,"zip":"3110135"},{"town":"門部","koaza":"","lat":36.489144,"lng":140.478929,"zip":"3110136"},{"town":"上河内","koaza":"","lat":36.41491,"lng":140.459459,"zip":"3110116"},{"town":"北酒出","koaza":"","lat":36.483092,"lng":140.484852,"zip":"3110131"},{"town":"鴻巣","koaza":"","lat":36.467993,"lng":140.475272,"zip":"3110133"},{"town":"後台","koaza":"","lat":36.431067,"lng":140.484046,"zip":"3110111"},{"town":"古徳","koaza":"","lat":36.492505,"lng":140.436019,"zip":"3192105"},{"town":"静","koaza":"","lat":36.502816,"lng":140.423566,"zip":"3192106"},{"town":"下江戸","koaza":"","lat":36.490652,"lng":140.408271,"zip":"3110126"},{"town":"下大賀","koaza":"","lat":36.509233,"lng":140.438948,"zip":"3192107"},{"town":"菅谷","koaza":"","lat":36.449025,"lng":140.49229,"zip":"3110105"},{"town":"杉","koaza":"","lat":36.461809,"lng":140.506662,"zip":"3110106"},{"town":"竹ノ内一丁目","koaza":"","lat":36.451199,"lng":140.499458,"zip":"3110110"},{"town":"竹ノ内二丁目","koaza":"","lat":36.447585,"lng":140.500331,"zip":"3110110"},{"town":"竹ノ内三丁目","koaza":"","lat":36.447863,"lng":140.503031,"zip":"3110110"},{"town":"竹ノ内四丁目","koaza":"","lat":36.451178,"lng":140.503089,"zip":"3110110"},{"town":"田崎","koaza":"","lat":36.477204,"lng":140.426815,"zip":"3110124"},{"town":"津田","koaza":"","lat":36.413109,"lng":140.48859,"zip":"3110112"},{"town":"堤","koaza":"","lat":36.455641,"lng":140.520708,"zip":"3110104"},{"town":"戸崎","koaza":"","lat":36.471864,"lng":140.444435,"zip":"3110121"},{"town":"豊喰","koaza":"","lat":36.43284,"lng":140.463744,"zip":"3110117"},{"town":"中里","koaza":"","lat":36.487694,"lng":140.452455,"zip":"3192103"},{"town":"中台","koaza":"","lat":36.40994,"lng":140.47877,"zip":"3110113"},{"town":"西木倉","koaza":"","lat":36.419249,"lng":140.461599,"zip":"3110115"},{"town":"額田北郷","koaza":"","lat":36.49626,"lng":140.516757,"zip":"3110108"},{"town":"額田東郷","koaza":"","lat":36.494083,"lng":140.534141,"zip":"3110109"},{"town":"額田南郷","koaza":"","lat":36.482018,"lng":140.516802,"zip":"3110107"},{"town":"東木倉","koaza":"","lat":36.415699,"lng":140.469971,"zip":"3110114"},{"town":"平野","koaza":"","lat":36.487206,"lng":140.436552,"zip":"3192104"},{"town":"福田","koaza":"","lat":36.446939,"lng":140.480792,"zip":"3110118"},{"town":"南酒出","koaza":"","lat":36.4763,"lng":140.497522,"zip":"3110132"},{"town":"向山","koaza":"","lat":36.472188,"lng":140.538211,"zip":"3110102"},{"town":"本米崎","koaza":"","lat":36.490652,"lng":140.54767,"zip":"3110101"},{"town":"横堀","koaza":"","lat":36.465812,"lng":140.519748,"zip":"3110103"},{"town":"上国井","koaza":"","lat":36.45086,"lng":140.43992,"zip":"3110123"},{"town":"戸","koaza":"","lat":36.46529,"lng":140.424354,"zip":"3110122"},{"town":"瓜連","koaza":"西室家","lat":36.495396,"lng":140.44888,"zip":"3192102"},{"town":"菅谷","koaza":"杉原","lat":36.455281,"lng":140.501014,"zip":"3110105"},{"town":"菅谷","koaza":"寄居","lat":36.43132,"lng":140.513083,"zip":"3110105"},{"town":"菅谷","koaza":"字上菅谷","lat":36.455652,"lng":140.493723,"zip":"3110105"}]