[{"town":"大字石神内宿","koaza":"","lat":36.48142,"lng":140.576021,"zip":"3191100"},{"town":"大字石神外宿","koaza":"","lat":36.485272,"lng":140.562859,"zip":"3191100"},{"town":"大字亀下","koaza":"","lat":36.482208,"lng":140.596227,"zip":"3191100"},{"town":"大字白方","koaza":"","lat":36.466188,"lng":140.598802,"zip":"3191100"},{"town":"大字須和間","koaza":"","lat":36.446067,"lng":140.560166,"zip":"3191100"},{"town":"大字竹瓦","koaza":"","lat":36.488344,"lng":140.585152,"zip":"3191100"},{"town":"大字照沼","koaza":"","lat":36.434408,"lng":140.605507,"zip":"3191100"},{"town":"大字豊岡","koaza":"","lat":36.474074,"lng":140.586667,"zip":"3191100"},{"town":"大字船場","koaza":"","lat":36.45761,"lng":140.551882,"zip":"3191100"},{"town":"大字村松","koaza":"","lat":36.450245,"lng":140.587747,"zip":"3191100"},{"town":"白方中央一丁目","koaza":"","lat":36.46959,"lng":140.579631,"zip":"3191109"},{"town":"白方中央二丁目","koaza":"","lat":36.46673,"lng":140.584897,"zip":"3191109"},{"town":"東海一丁目","koaza":"","lat":36.471314,"lng":140.571427,"zip":"3191117"},{"town":"東海二丁目","koaza":"","lat":36.472019,"lng":140.568685,"zip":"3191117"},{"town":"豊白一丁目","koaza":"","lat":36.470582,"lng":140.575283,"zip":"3191107"},{"town":"舟石川駅西一丁目","koaza":"","lat":36.464404,"lng":140.562484,"zip":"3191116"},{"town":"舟石川駅西二丁目","koaza":"","lat":36.46766,"lng":140.566704,"zip":"3191116"},{"town":"舟石川駅東一丁目","koaza":"","lat":36.462325,"lng":140.562997,"zip":"3191118"},{"town":"舟石川駅東二丁目","koaza":"","lat":36.466521,"lng":140.568354,"zip":"3191118"},{"town":"舟石川駅東三丁目","koaza":"","lat":36.464722,"lng":140.569236,"zip":"3191118"},{"town":"舟石川駅東四丁目","koaza":"","lat":36.462404,"lng":140.566,"zip":"3191118"},{"town":"村松北一丁目","koaza":"","lat":36.467419,"lng":140.576987,"zip":"3191108"},{"town":"村松北二丁目","koaza":"","lat":36.465419,"lng":140.582389,"zip":"3191108"},{"town":"東海三丁目","koaza":"","lat":36.472414,"lng":140.564225,"zip":"3191117"},{"town":"舟石川駅西三丁目","koaza":"","lat":36.468826,"lng":140.564732,"zip":"3191116"},{"town":"大字舟石川","koaza":"","lat":36.470456,"lng":140.554002,"zip":"3191100"},{"town":"大山台二丁目","koaza":"","lat":36.470552,"lng":140.560055,"zip":"3191119"},{"town":"大山台一丁目","koaza":"","lat":36.468675,"lng":140.556481,"zip":"3191119"},{"town":"舟石川駅西四丁目","koaza":"","lat":36.466934,"lng":140.560332,"zip":"3191116"}]