[{"town":"青柳","koaza":"","lat":36.177131,"lng":140.457945,"zip":"3111535"},{"town":"青山","koaza":"","lat":36.133424,"lng":140.561592,"zip":"3112101"},{"town":"秋山","koaza":"","lat":36.177372,"lng":140.498321,"zip":"3111506"},{"town":"阿玉","koaza":"","lat":36.096392,"lng":140.539011,"zip":"3112118"},{"town":"荒地","koaza":"","lat":36.231912,"lng":140.552299,"zip":"3111411"},{"town":"安房","koaza":"","lat":36.171878,"lng":140.520928,"zip":"3111504"},{"town":"飯島","koaza":"","lat":36.087332,"lng":140.589357,"zip":"3112112"},{"town":"飯名","koaza":"","lat":36.166133,"lng":140.501358,"zip":"3111521"},{"town":"江川","koaza":"","lat":36.072491,"lng":140.551803,"zip":"3112114"},{"town":"大蔵","koaza":"","lat":36.093876,"lng":140.563009,"zip":"3112117"},{"town":"大竹","koaza":"","lat":36.159828,"lng":140.574372,"zip":"3111513"},{"town":"大戸","koaza":"","lat":36.208996,"lng":140.504267,"zip":"3111502"},{"town":"大和田","koaza":"","lat":36.206888,"lng":140.444011,"zip":"3111536"},{"town":"梶山","koaza":"","lat":36.110131,"lng":140.534193,"zip":"3112104"},{"town":"柏熊","koaza":"","lat":36.177172,"lng":140.570131,"zip":"3111511"},{"town":"柏熊新田","koaza":"","lat":36.187276,"lng":140.5634,"zip":"3111424"},{"town":"勝下","koaza":"","lat":36.201448,"lng":140.56258,"zip":"3111422"},{"town":"勝下新田","koaza":"","lat":36.210808,"lng":140.547946,"zip":"3111421"},{"town":"烟田","koaza":"","lat":36.148152,"lng":140.527393,"zip":"3111515"},{"town":"上太田","koaza":"","lat":36.250272,"lng":140.529688,"zip":"3111405"},{"town":"上釜","koaza":"","lat":36.251983,"lng":140.546495,"zip":"3111403"},{"town":"上沢","koaza":"","lat":36.108685,"lng":140.592498,"zip":"3112111"},{"town":"上冨田","koaza":"","lat":36.209602,"lng":140.469568,"zip":"3111532"},{"town":"上幡木","koaza":"","lat":36.069316,"lng":140.564323,"zip":"3112113"},{"town":"借宿","koaza":"","lat":36.158498,"lng":140.467926,"zip":"3111527"},{"town":"串挽","koaza":"","lat":36.137331,"lng":140.50576,"zip":"3111523"},{"town":"汲上","koaza":"","lat":36.121393,"lng":140.586576,"zip":"3112103"},{"town":"子生","koaza":"","lat":36.218021,"lng":140.541668,"zip":"3111414"},{"town":"駒木根","koaza":"","lat":36.185369,"lng":140.508937,"zip":"3111505"},{"town":"沢尻","koaza":"","lat":36.240355,"lng":140.552337,"zip":"3111404"},{"town":"鹿田","koaza":"","lat":36.229077,"lng":140.498703,"zip":"3111416"},{"town":"下太田","koaza":"","lat":36.262124,"lng":140.531272,"zip":"3111402"},{"town":"下冨田","koaza":"","lat":36.195294,"lng":140.467735,"zip":"3111533"},{"town":"白塚","koaza":"","lat":36.166637,"lng":140.559237,"zip":"3111512"},{"town":"新鉾田一丁目","koaza":"","lat":36.152075,"lng":140.519575,"zip":"3111516"},{"town":"新鉾田二丁目","koaza":"","lat":36.153781,"lng":140.521827,"zip":"3111516"},{"town":"新鉾田西一丁目","koaza":"","lat":36.148953,"lng":140.513478,"zip":"3111518"},{"town":"新鉾田西二丁目","koaza":"","lat":36.149539,"lng":140.515392,"zip":"3111518"},{"town":"菅野谷","koaza":"","lat":36.219585,"lng":140.452091,"zip":"3111531"},{"town":"台濁沢","koaza":"","lat":36.136203,"lng":140.582924,"zip":"3112102"},{"town":"高田","koaza":"","lat":36.126716,"lng":140.517151,"zip":"3111524"},{"town":"滝浜","koaza":"","lat":36.191126,"lng":140.559793,"zip":"3111423"},{"town":"田崎","koaza":"","lat":36.251617,"lng":140.50895,"zip":"3111406"},{"town":"玉田","koaza":"","lat":36.22353,"lng":140.556509,"zip":"3111412"},{"town":"造谷","koaza":"","lat":36.227416,"lng":140.521122,"zip":"3111415"},{"town":"塔ケ崎","koaza":"","lat":36.152359,"lng":140.502648,"zip":"3111522"},{"town":"当間","koaza":"","lat":36.154378,"lng":140.487385,"zip":"3111528"},{"town":"常磐","koaza":"","lat":36.211023,"lng":140.536016,"zip":"3111427"},{"town":"徳宿","koaza":"","lat":36.188855,"lng":140.520937,"zip":"3111503"},{"town":"鳥栖","koaza":"","lat":36.186996,"lng":140.47144,"zip":"3111534"},{"town":"中居","koaza":"","lat":36.079021,"lng":140.56579,"zip":"3112115"},{"town":"野友","koaza":"","lat":36.14715,"lng":140.487215,"zip":"3111525"},{"town":"半原","koaza":"","lat":36.135641,"lng":140.465611,"zip":"3111526"},{"town":"冷水","koaza":"","lat":36.209707,"lng":140.558998,"zip":"3111413"},{"town":"札","koaza":"","lat":36.083215,"lng":140.547833,"zip":"3112116"},{"town":"二重作","koaza":"","lat":36.128773,"lng":140.541904,"zip":"3112105"},{"town":"舟木","koaza":"","lat":36.21024,"lng":140.47948,"zip":"3111501"},{"town":"鉾田","koaza":"","lat":36.154247,"lng":140.510684,"zip":"3111517"},{"town":"箕輪","koaza":"","lat":36.265746,"lng":140.511725,"zip":"3111401"},{"town":"紅葉","koaza":"","lat":36.224169,"lng":140.431925,"zip":"3111537"},{"town":"樅山","koaza":"","lat":36.194179,"lng":140.546265,"zip":"3111426"},{"town":"安塚","koaza":"","lat":36.136866,"lng":140.526587,"zip":"3111514"},{"town":"湯坪","koaza":"","lat":36.183898,"lng":140.567468,"zip":"3111425"},{"town":"塔ケ崎","koaza":"塙下","lat":36.153656,"lng":140.494977,"zip":"3111522"},{"town":"安房","koaza":"水砂","lat":36.169289,"lng":140.528026,"zip":"3111504"},{"town":"汲上","koaza":"麦の内","lat":36.117102,"lng":140.587129,"zip":"3112103"}]