[{"town":"有明町一丁目","koaza":"","lat":36.714995,"lng":140.721275,"zip":"3180012"},{"town":"有明町二丁目","koaza":"","lat":36.71166,"lng":140.720257,"zip":"3180012"},{"town":"有明町三丁目","koaza":"","lat":36.713324,"lng":140.723464,"zip":"3180012"},{"town":"大字赤浜","koaza":"","lat":36.739966,"lng":140.721852,"zip":"3180000"},{"town":"大字秋山","koaza":"","lat":36.716914,"lng":140.668034,"zip":"3180000"},{"town":"大字安良川","koaza":"","lat":36.708938,"lng":140.707726,"zip":"3180000"},{"town":"大字石滝","koaza":"","lat":36.699203,"lng":140.701084,"zip":"3180000"},{"town":"大字大能","koaza":"","lat":36.746621,"lng":140.589972,"zip":"3180000"},{"town":"大字上君田","koaza":"","lat":36.791304,"lng":140.566721,"zip":"3180000"},{"town":"大字上手綱","koaza":"","lat":36.749791,"lng":140.655867,"zip":"3180000"},{"town":"大字島名","koaza":"","lat":36.708385,"lng":140.69226,"zip":"3180000"},{"town":"大字下君田","koaza":"","lat":36.826132,"lng":140.576982,"zip":"3180000"},{"town":"大字下手綱","koaza":"","lat":36.732371,"lng":140.709851,"zip":"3180000"},{"town":"大字高戸","koaza":"","lat":36.722997,"lng":140.720718,"zip":"3180000"},{"town":"大字高萩","koaza":"","lat":36.721299,"lng":140.696066,"zip":"3180000"},{"town":"大字中戸川","koaza":"","lat":36.721389,"lng":140.597385,"zip":"3180000"},{"town":"大字福平","koaza":"","lat":36.710334,"lng":140.647929,"zip":"3180000"},{"town":"大字望海","koaza":"","lat":36.755161,"lng":140.681848,"zip":"3180000"},{"town":"大字横川","koaza":"","lat":36.82756,"lng":140.620884,"zip":"3180000"},{"town":"大字若栗","koaza":"","lat":36.77741,"lng":140.630366,"zip":"3180000"},{"town":"春日町一丁目","koaza":"","lat":36.715048,"lng":140.716095,"zip":"3180031"},{"town":"春日町二丁目","koaza":"","lat":36.715519,"lng":140.714669,"zip":"3180031"},{"town":"春日町三丁目","koaza":"","lat":36.718187,"lng":140.716422,"zip":"3180031"},{"town":"高浜町一丁目","koaza":"","lat":36.708403,"lng":140.718285,"zip":"3180013"},{"town":"高浜町二丁目","koaza":"","lat":36.708066,"lng":140.721075,"zip":"3180013"},{"town":"高浜町三丁目","koaza":"","lat":36.702041,"lng":140.717854,"zip":"3180013"},{"town":"東本町一丁目","koaza":"","lat":36.711876,"lng":140.718341,"zip":"3180014"},{"town":"東本町二丁目","koaza":"","lat":36.714528,"lng":140.71861,"zip":"3180014"},{"town":"東本町三丁目","koaza":"","lat":36.716963,"lng":140.718887,"zip":"3180014"},{"town":"東本町四丁目","koaza":"","lat":36.71936,"lng":140.718769,"zip":"3180014"},{"town":"肥前町一丁目","koaza":"","lat":36.717057,"lng":140.721678,"zip":"3180011"},{"town":"肥前町二丁目","koaza":"","lat":36.718875,"lng":140.721511,"zip":"3180011"},{"town":"本町一丁目","koaza":"","lat":36.714357,"lng":140.709112,"zip":"3180033"},{"town":"本町二丁目","koaza":"","lat":36.715645,"lng":140.711957,"zip":"3180033"},{"town":"本町三丁目","koaza":"","lat":36.717712,"lng":140.712433,"zip":"3180033"},{"town":"本町四丁目","koaza":"","lat":36.719259,"lng":140.714506,"zip":"3180033"},{"town":"大和町一丁目","koaza":"","lat":36.712926,"lng":140.715329,"zip":"3180032"},{"town":"大和町二丁目","koaza":"","lat":36.713173,"lng":140.713162,"zip":"3180032"},{"town":"大和町三丁目","koaza":"","lat":36.711278,"lng":140.712931,"zip":"3180032"},{"town":"大和町四丁目","koaza":"","lat":36.711323,"lng":140.714932,"zip":"3180032"}]