[{"town":"旭ケ丘二丁目","koaza":"","lat":35.96645,"lng":140.658782,"zip":"3140017"},{"town":"大字粟生","koaza":"","lat":35.947194,"lng":140.654298,"zip":"3140000"},{"town":"大字青塚","koaza":"","lat":36.044506,"lng":140.621176,"zip":"3140000"},{"town":"大字明石","koaza":"","lat":35.995954,"lng":140.649293,"zip":"3140000"},{"town":"大字荒井","koaza":"","lat":36.052457,"lng":140.616608,"zip":"3140000"},{"town":"大字泉川","koaza":"","lat":35.93313,"lng":140.654603,"zip":"3140000"},{"town":"大字大船津","koaza":"","lat":35.957444,"lng":140.617291,"zip":"3140000"},{"town":"大字和","koaza":"","lat":36.038673,"lng":140.601161,"zip":"3140000"},{"town":"大字木滝","koaza":"","lat":35.945223,"lng":140.647336,"zip":"3140000"},{"town":"大字木滝佐田下塙谷原入会","koaza":"","lat":35.945787,"lng":140.641831,"zip":"3140000"},{"town":"大字木滝佐田谷原入会","koaza":"","lat":35.954375,"lng":140.638498,"zip":"3140000"},{"town":"大字宮中","koaza":"","lat":35.974562,"lng":140.640117,"zip":"3140000"},{"town":"大字国末","koaza":"","lat":35.941673,"lng":140.684472,"zip":"3140000"},{"town":"大字荒野","koaza":"","lat":36.021165,"lng":140.631999,"zip":"3140000"},{"town":"大字小宮作","koaza":"","lat":35.988869,"lng":140.657146,"zip":"3140000"},{"town":"大字小山","koaza":"","lat":36.010639,"lng":140.632037,"zip":"3140000"},{"town":"大字佐田","koaza":"","lat":35.950251,"lng":140.640515,"zip":"3140000"},{"town":"大字猿田","koaza":"","lat":35.988592,"lng":140.632416,"zip":"3140000"},{"town":"大字志崎","koaza":"","lat":36.067536,"lng":140.585417,"zip":"3140000"},{"town":"大字清水","koaza":"","lat":36.005354,"lng":140.641172,"zip":"3140000"},{"town":"大字下塙","koaza":"","lat":35.946643,"lng":140.636402,"zip":"3140000"},{"town":"大字神向寺","koaza":"","lat":35.989032,"lng":140.642983,"zip":"3140000"},{"town":"大字新浜","koaza":"","lat":35.946201,"lng":140.690127,"zip":"3140000"},{"town":"大字須賀","koaza":"","lat":35.985732,"lng":140.610145,"zip":"3140000"},{"town":"大字大小志崎","koaza":"","lat":36.073643,"lng":140.605946,"zip":"3140000"},{"town":"大字武井","koaza":"","lat":36.049091,"lng":140.580326,"zip":"3140000"},{"town":"大字武井釜","koaza":"","lat":36.06336,"lng":140.60743,"zip":"3140000"},{"town":"大字棚木","koaza":"","lat":36.027302,"lng":140.602105,"zip":"3140000"},{"town":"大字田野辺","koaza":"","lat":35.999796,"lng":140.614018,"zip":"3140000"},{"town":"大字田谷","koaza":"","lat":35.995184,"lng":140.623646,"zip":"3140000"},{"town":"大字田谷沼","koaza":"","lat":35.992737,"lng":140.617364,"zip":"3140000"},{"town":"大字津賀","koaza":"","lat":36.041341,"lng":140.582865,"zip":"3140000"},{"town":"大字角折","koaza":"","lat":36.032921,"lng":140.625834,"zip":"3140000"},{"town":"大字爪木","koaza":"","lat":35.976659,"lng":140.603504,"zip":"3140000"},{"town":"大字中","koaza":"","lat":36.016849,"lng":140.594706,"zip":"3140000"},{"town":"大字長栖","koaza":"","lat":35.933157,"lng":140.642855,"zip":"3140000"},{"town":"大字奈良毛","koaza":"","lat":36.008775,"lng":140.591842,"zip":"3140000"},{"town":"大字沼尾","koaza":"","lat":35.999211,"lng":140.601982,"zip":"3140000"},{"town":"大字根三田","koaza":"","lat":35.945234,"lng":140.627601,"zip":"3140000"},{"town":"大字鉢形","koaza":"","lat":35.958583,"lng":140.653518,"zip":"3140000"},{"town":"大字浜津賀","koaza":"","lat":36.05791,"lng":140.610786,"zip":"3140000"},{"town":"大字林","koaza":"","lat":36.014863,"lng":140.616329,"zip":"3140000"},{"town":"大字光","koaza":"","lat":35.941564,"lng":140.669969,"zip":"3140000"},{"town":"大字宮津台","koaza":"","lat":35.979847,"lng":140.649518,"zip":"3140000"},{"town":"大字山之上","koaza":"","lat":35.983845,"lng":140.622342,"zip":"3140000"},{"town":"大字谷原","koaza":"","lat":35.938331,"lng":140.639628,"zip":"3140000"},{"town":"大字鰐川","koaza":"","lat":35.934932,"lng":140.629047,"zip":"3140000"},{"town":"神野一丁目","koaza":"","lat":35.958482,"lng":140.625683,"zip":"3140037"},{"town":"神野二丁目","koaza":"","lat":35.959861,"lng":140.623577,"zip":"3140037"},{"town":"神野三丁目","koaza":"","lat":35.95963,"lng":140.622015,"zip":"3140037"},{"town":"神野四丁目","koaza":"","lat":35.95754,"lng":140.623184,"zip":"3140037"},{"town":"宮中一丁目","koaza":"","lat":35.967448,"lng":140.629822,"zip":"3140031"},{"town":"宮中二丁目","koaza":"","lat":35.965915,"lng":140.626158,"zip":"3140031"},{"town":"宮中三丁目","koaza":"","lat":35.964012,"lng":140.626732,"zip":"3140031"},{"town":"宮中四丁目","koaza":"","lat":35.963907,"lng":140.629439,"zip":"3140031"},{"town":"宮中五丁目","koaza":"","lat":35.963761,"lng":140.631448,"zip":"3140031"},{"town":"宮中六丁目","koaza":"","lat":35.963877,"lng":140.63436,"zip":"3140031"},{"town":"宮中七丁目","koaza":"","lat":35.961129,"lng":140.633273,"zip":"3140031"},{"town":"宮中八丁目","koaza":"","lat":35.96169,"lng":140.62833,"zip":"3140031"},{"town":"厨一丁目","koaza":"","lat":35.973836,"lng":140.62934,"zip":"3140030"},{"town":"厨二丁目","koaza":"","lat":35.975247,"lng":140.631296,"zip":"3140030"},{"town":"厨三丁目","koaza":"","lat":35.976679,"lng":140.629948,"zip":"3140030"},{"town":"厨四丁目","koaza":"","lat":35.975602,"lng":140.627182,"zip":"3140030"},{"town":"厨五丁目","koaza":"","lat":35.975461,"lng":140.624884,"zip":"3140030"},{"town":"城山一丁目","koaza":"","lat":35.968481,"lng":140.621868,"zip":"3140038"},{"town":"城山二丁目","koaza":"","lat":35.965466,"lng":140.622436,"zip":"3140038"},{"town":"城山四丁目","koaza":"","lat":35.962384,"lng":140.622686,"zip":"3140038"},{"town":"鉢形台一丁目","koaza":"","lat":35.96364,"lng":140.647669,"zip":"3140033"},{"town":"鉢形台二丁目","koaza":"","lat":35.961016,"lng":140.648239,"zip":"3140033"},{"town":"鉢形台三丁目","koaza":"","lat":35.95818,"lng":140.649236,"zip":"3140033"},{"town":"平井南","koaza":"","lat":35.958027,"lng":140.676559,"zip":"3140000"},{"town":"緑ヶ丘一丁目","koaza":"","lat":35.973731,"lng":140.623658,"zip":"3140039"},{"town":"緑ヶ丘二丁目","koaza":"","lat":35.972016,"lng":140.622091,"zip":"3140039"},{"town":"緑ヶ丘三丁目","koaza":"","lat":35.971853,"lng":140.618483,"zip":"3140039"},{"town":"緑ヶ丘四丁目","koaza":"","lat":35.975917,"lng":140.622679,"zip":"3140039"},{"town":"宮下一丁目","koaza":"","lat":35.971278,"lng":140.630494,"zip":"3140032"},{"town":"宮下二丁目","koaza":"","lat":35.969001,"lng":140.625983,"zip":"3140032"},{"town":"宮下三丁目","koaza":"","lat":35.968473,"lng":140.624028,"zip":"3140032"},{"town":"宮下四丁目","koaza":"","lat":35.971816,"lng":140.626119,"zip":"3140032"},{"town":"宮下五丁目","koaza":"","lat":35.973025,"lng":140.632961,"zip":"3140032"},{"town":"高天原一丁目","koaza":"","lat":35.974501,"lng":140.650973,"zip":"3140005"},{"town":"高天原二丁目","koaza":"","lat":35.976346,"lng":140.654376,"zip":"3140005"},{"town":"港ケ丘二丁目","koaza":"","lat":35.973974,"lng":140.655164,"zip":"3140011"},{"town":"旭ケ丘一丁目","koaza":"","lat":35.967941,"lng":140.658007,"zip":"3140017"},{"town":"港ケ丘一丁目","koaza":"","lat":35.971759,"lng":140.654653,"zip":"3140011"},{"town":"大字平井","koaza":"","lat":35.964484,"lng":140.669297,"zip":"3140000"},{"town":"大字下津","koaza":"","lat":35.979913,"lng":140.6611,"zip":"3140000"},{"town":"大字港ケ丘","koaza":"","lat":35.973342,"lng":140.659119,"zip":"3140000"}]