[{"town":"愛戸町","koaza":"","lat":35.913113,"lng":140.189236,"zip":"3010838"},{"town":"泉町","koaza":"","lat":35.950614,"lng":140.212387,"zip":"3010857"},{"town":"板橋町","koaza":"","lat":35.934891,"lng":140.248173,"zip":"3010801"},{"town":"稲荷新田町","koaza":"","lat":35.927169,"lng":140.156236,"zip":"3010045"},{"town":"入地町","koaza":"","lat":35.919939,"lng":140.153418,"zip":"3010046"},{"town":"薄倉町","koaza":"","lat":35.933057,"lng":140.221621,"zip":"3010805"},{"town":"大塚町","koaza":"","lat":35.940201,"lng":140.23789,"zip":"3010851"},{"town":"大留町","koaza":"","lat":35.894578,"lng":140.153721,"zip":"3010025"},{"town":"貝原塚町","koaza":"","lat":35.941183,"lng":140.18745,"zip":"3010856"},{"town":"門倉新田町","koaza":"","lat":35.912645,"lng":140.167254,"zip":"3010006"},{"town":"上大徳新町","koaza":"","lat":35.899612,"lng":140.200074,"zip":"3010817"},{"town":"上町","koaza":"","lat":35.905561,"lng":140.187684,"zip":"3010012"},{"town":"川崎町","koaza":"","lat":35.926907,"lng":140.146793,"zip":"3010048"},{"town":"川余郷","koaza":"","lat":35.903115,"lng":140.182626,"zip":"3010825"},{"town":"川原代町","koaza":"","lat":35.912865,"lng":140.152982,"zip":"3010005"},{"town":"北方町","koaza":"","lat":35.884464,"lng":140.157839,"zip":"3010021"},{"town":"久保台一丁目","koaza":"","lat":35.929062,"lng":140.177686,"zip":"3010001"},{"town":"久保台二丁目","koaza":"","lat":35.934542,"lng":140.177905,"zip":"3010001"},{"town":"久保台三丁目","koaza":"","lat":35.935175,"lng":140.181301,"zip":"3010001"},{"town":"久保台四丁目","koaza":"","lat":35.933939,"lng":140.179711,"zip":"3010001"},{"town":"高作町","koaza":"","lat":35.919935,"lng":140.239129,"zip":"3010802"},{"town":"光順田","koaza":"","lat":35.90591,"lng":140.195474,"zip":"3010822"},{"town":"向陽台一丁目","koaza":"","lat":35.93591,"lng":140.227001,"zip":"3010852"},{"town":"向陽台二丁目","koaza":"","lat":35.938014,"lng":140.229388,"zip":"3010852"},{"town":"向陽台三丁目","koaza":"","lat":35.936249,"lng":140.233506,"zip":"3010852"},{"town":"向陽台四丁目","koaza":"","lat":35.933913,"lng":140.237039,"zip":"3010852"},{"town":"向陽台五丁目","koaza":"","lat":35.933521,"lng":140.231652,"zip":"3010852"},{"town":"小柴五丁目","koaza":"","lat":35.932662,"lng":140.158825,"zip":"3010044"},{"town":"古城","koaza":"","lat":35.909239,"lng":140.192767,"zip":"3010834"},{"town":"小通幸谷町","koaza":"","lat":35.927937,"lng":140.132906,"zip":"3010034"},{"town":"米町","koaza":"","lat":35.907483,"lng":140.181389,"zip":"3010018"},{"town":"佐貫一丁目","koaza":"","lat":35.928509,"lng":140.139764,"zip":"3010032"},{"town":"佐貫二丁目","koaza":"","lat":35.927893,"lng":140.143666,"zip":"3010032"},{"town":"佐貫三丁目","koaza":"","lat":35.931274,"lng":140.140941,"zip":"3010032"},{"town":"佐貫四丁目","koaza":"","lat":35.935136,"lng":140.139481,"zip":"3010032"},{"town":"佐貫町","koaza":"","lat":35.946323,"lng":140.129726,"zip":"3010033"},{"town":"佐沼町","koaza":"","lat":35.886158,"lng":140.196016,"zip":"3010812"},{"town":"下町","koaza":"","lat":35.904715,"lng":140.192391,"zip":"3010824"},{"town":"城ノ内一丁目","koaza":"","lat":35.927963,"lng":140.197691,"zip":"3010847"},{"town":"城ノ内二丁目","koaza":"","lat":35.925459,"lng":140.198304,"zip":"3010847"},{"town":"城ノ内三丁目","koaza":"","lat":35.923104,"lng":140.204603,"zip":"3010847"},{"town":"城ノ内四丁目","koaza":"","lat":35.92504,"lng":140.203096,"zip":"3010847"},{"town":"城ノ内五丁目","koaza":"","lat":35.921035,"lng":140.209243,"zip":"3010847"},{"town":"庄兵衛新田町","koaza":"","lat":35.944571,"lng":140.137495,"zip":"3010031"},{"town":"白羽一丁目","koaza":"","lat":35.922513,"lng":140.218306,"zip":"3010841"},{"town":"白羽二丁目","koaza":"","lat":35.922841,"lng":140.22235,"zip":"3010841"},{"town":"白羽三丁目","koaza":"","lat":35.920551,"lng":140.226586,"zip":"3010841"},{"town":"白羽四丁目","koaza":"","lat":35.924472,"lng":140.223766,"zip":"3010841"},{"town":"新町","koaza":"","lat":35.906762,"lng":140.183871,"zip":"3010813"},{"town":"直鮒","koaza":"","lat":35.899732,"lng":140.186637,"zip":"3010815"},{"town":"須藤堀町","koaza":"","lat":35.895306,"lng":140.16986,"zip":"3010014"},{"town":"砂町","koaza":"","lat":35.903174,"lng":140.196888,"zip":"3010823"},{"town":"大徳町","koaza":"","lat":35.897889,"lng":140.206137,"zip":"3010816"},{"town":"高砂","koaza":"","lat":35.895694,"lng":140.184628,"zip":"3010814"},{"town":"高須町","koaza":"","lat":35.901454,"lng":140.15719,"zip":"3010026"},{"town":"出し山町","koaza":"","lat":35.912363,"lng":140.193926,"zip":"3010839"},{"town":"田町","koaza":"","lat":35.908594,"lng":140.188293,"zip":"3010835"},{"town":"寺後","koaza":"","lat":35.911059,"lng":140.182713,"zip":"3010836"},{"town":"豊田町","koaza":"","lat":35.88631,"lng":140.141901,"zip":"3010024"},{"town":"長沖新田町","koaza":"","lat":35.900062,"lng":140.164793,"zip":"3010016"},{"town":"長沖町","koaza":"","lat":35.892909,"lng":140.159573,"zip":"3010015"},{"town":"中里一丁目","koaza":"","lat":35.933921,"lng":140.203266,"zip":"3010854"},{"town":"中里二丁目","koaza":"","lat":35.929533,"lng":140.203553,"zip":"3010854"},{"town":"中里三丁目","koaza":"","lat":35.925401,"lng":140.206491,"zip":"3010854"},{"town":"中根台一丁目","koaza":"","lat":35.929481,"lng":140.169186,"zip":"3010002"},{"town":"中根台二丁目","koaza":"","lat":35.930346,"lng":140.170916,"zip":"3010002"},{"town":"中根台三丁目","koaza":"","lat":35.932061,"lng":140.171565,"zip":"3010002"},{"town":"中根台四丁目","koaza":"","lat":35.930184,"lng":140.174201,"zip":"3010002"},{"town":"中根台五丁目","koaza":"","lat":35.926737,"lng":140.175054,"zip":"3010002"},{"town":"長峰町","koaza":"","lat":35.913756,"lng":140.228003,"zip":"3010804"},{"town":"長山一丁目","koaza":"","lat":35.942557,"lng":140.153618,"zip":"3010042"},{"town":"長山二丁目","koaza":"","lat":35.945125,"lng":140.154837,"zip":"3010042"},{"town":"長山三丁目","koaza":"","lat":35.94369,"lng":140.157079,"zip":"3010042"},{"town":"長山四丁目","koaza":"","lat":35.945016,"lng":140.160334,"zip":"3010042"},{"town":"長山五丁目","koaza":"","lat":35.947666,"lng":140.1563,"zip":"3010042"},{"town":"長山六丁目","koaza":"","lat":35.947713,"lng":140.159479,"zip":"3010042"},{"town":"長山七丁目","koaza":"","lat":35.948429,"lng":140.161885,"zip":"3010042"},{"town":"長山八丁目","koaza":"","lat":35.944577,"lng":140.163685,"zip":"3010042"},{"town":"中谷原","koaza":"","lat":35.901739,"lng":140.173297,"zip":"3010000"},{"town":"奈戸岡","koaza":"","lat":35.91746,"lng":140.187847,"zip":"3010845"},{"town":"馴馬町","koaza":"","lat":35.921105,"lng":140.176372,"zip":"3010004"},{"town":"馴柴町","koaza":"","lat":35.920134,"lng":140.161419,"zip":"3010007"},{"town":"塗戸町","koaza":"","lat":35.916841,"lng":140.243858,"zip":"3010803"},{"town":"根町","koaza":"","lat":35.910856,"lng":140.188063,"zip":"3010837"},{"town":"羽黒町","koaza":"","lat":35.881382,"lng":140.136534,"zip":"3010023"},{"town":"羽原町","koaza":"","lat":35.925916,"lng":140.190436,"zip":"3010843"},{"town":"半田町","koaza":"","lat":35.920064,"lng":140.236125,"zip":"3010806"},{"town":"稗柄町","koaza":"","lat":35.933445,"lng":140.132181,"zip":"3010035"},{"town":"姫宮","koaza":"","lat":35.903251,"lng":140.171724,"zip":"3010017"},{"town":"姫宮町","koaza":"","lat":35.905633,"lng":140.174674,"zip":"3010017"},{"town":"平台一丁目","koaza":"","lat":35.92058,"lng":140.168474,"zip":"3010003"},{"town":"平台二丁目","koaza":"","lat":35.922174,"lng":140.165009,"zip":"3010003"},{"town":"平台四丁目","koaza":"","lat":35.924042,"lng":140.165573,"zip":"3010003"},{"town":"平台五丁目","koaza":"","lat":35.923194,"lng":140.16969,"zip":"3010003"},{"town":"藤ケ丘一丁目","koaza":"","lat":35.934719,"lng":140.200296,"zip":"3010855"},{"town":"藤ケ丘二丁目","koaza":"","lat":35.937536,"lng":140.201903,"zip":"3010855"},{"town":"藤ケ丘三丁目","koaza":"","lat":35.938977,"lng":140.199515,"zip":"3010855"},{"town":"藤ケ丘四丁目","koaza":"","lat":35.939956,"lng":140.195681,"zip":"3010855"},{"town":"藤ケ丘五丁目","koaza":"","lat":35.936424,"lng":140.197377,"zip":"3010855"},{"town":"藤ケ丘六丁目","koaza":"","lat":35.931801,"lng":140.196124,"zip":"3010855"},{"town":"藤ケ丘七丁目","koaza":"","lat":35.929534,"lng":140.199431,"zip":"3010855"},{"town":"別所町","koaza":"","lat":35.931699,"lng":140.183526,"zip":"3010846"},{"town":"松ケ丘一丁目","koaza":"","lat":35.934803,"lng":140.206442,"zip":"3010853"},{"town":"松ケ丘二丁目","koaza":"","lat":35.928221,"lng":140.207636,"zip":"3010853"},{"town":"松ケ丘三丁目","koaza":"","lat":35.932155,"lng":140.210499,"zip":"3010853"},{"town":"松ケ丘四丁目","koaza":"","lat":35.936975,"lng":140.208684,"zip":"3010853"},{"town":"松葉一丁目","koaza":"","lat":35.93475,"lng":140.156282,"zip":"3010043"},{"town":"松葉二丁目","koaza":"","lat":35.935773,"lng":140.158754,"zip":"3010043"},{"town":"松葉三丁目","koaza":"","lat":35.937219,"lng":140.154585,"zip":"3010043"},{"town":"松葉四丁目","koaza":"","lat":35.939258,"lng":140.152437,"zip":"3010043"},{"town":"松葉五丁目","koaza":"","lat":35.938834,"lng":140.156053,"zip":"3010043"},{"town":"松葉六丁目","koaza":"","lat":35.937484,"lng":140.159957,"zip":"3010043"},{"town":"緑町","koaza":"","lat":35.908586,"lng":140.197558,"zip":"3010832"},{"town":"南が丘一丁目","koaza":"","lat":35.881145,"lng":140.141537,"zip":"3010022"},{"town":"南が丘二丁目","koaza":"","lat":35.881261,"lng":140.14438,"zip":"3010022"},{"town":"南が丘三丁目","koaza":"","lat":35.881178,"lng":140.146196,"zip":"3010022"},{"town":"南が丘四丁目","koaza":"","lat":35.881206,"lng":140.147799,"zip":"3010022"},{"town":"南が丘五丁目","koaza":"","lat":35.881535,"lng":140.149512,"zip":"3010022"},{"town":"南が丘六丁目","koaza":"","lat":35.879699,"lng":140.146481,"zip":"3010022"},{"town":"南中島町","koaza":"","lat":35.922131,"lng":140.147536,"zip":"3010047"},{"town":"宮渕町","koaza":"","lat":35.898874,"lng":140.223829,"zip":"3010811"},{"town":"八代町","koaza":"","lat":35.915055,"lng":140.211431,"zip":"3010842"},{"town":"野原","koaza":"","lat":35.913464,"lng":140.200713,"zip":"3010831"},{"town":"野原町","koaza":"","lat":35.911602,"lng":140.199391,"zip":"3010831"},{"town":"横町","koaza":"","lat":35.907248,"lng":140.187004,"zip":"3010011"},{"town":"六斗蒔","koaza":"","lat":35.900692,"lng":140.178409,"zip":"3010000"},{"town":"若柴町","koaza":"","lat":35.937446,"lng":140.145898,"zip":"3010041"},{"town":"小柴一丁目","koaza":"","lat":35.931182,"lng":140.164296,"zip":"3010044"},{"town":"小柴二丁目","koaza":"","lat":35.929207,"lng":140.164453,"zip":"3010044"},{"town":"小柴四丁目","koaza":"","lat":35.929274,"lng":140.16112,"zip":"3010044"},{"town":"平台三丁目","koaza":"","lat":35.926013,"lng":140.160056,"zip":"3010003"},{"town":"小柴三丁目","koaza":"","lat":35.927711,"lng":140.164855,"zip":"3010044"},{"town":"（大字なし）","koaza":"","lat":35.899728,"lng":140.18415,"zip":"3010000"},{"town":"馴馬町","koaza":"上米","lat":35.909264,"lng":140.17675,"zip":"3010004"},{"town":"馴柴町","koaza":"参区","lat":35.913125,"lng":140.176812,"zip":"3010007"},{"town":"川原代町","koaza":"四区","lat":35.911127,"lng":140.171369,"zip":"3010005"}]