[{"town":"赤川","koaza":"","lat":36.95944,"lng":137.545975,"zip":"9390735"},{"town":"荒川","koaza":"","lat":36.954693,"lng":137.559505,"zip":"9390746"},{"town":"大家庄","koaza":"","lat":36.927656,"lng":137.550958,"zip":"9390722"},{"town":"金山","koaza":"","lat":36.923528,"lng":137.538701,"zip":"9390727"},{"town":"草野","koaza":"","lat":36.952398,"lng":137.546855,"zip":"9390734"},{"town":"窪田","koaza":"","lat":36.928507,"lng":137.534576,"zip":"9390728"},{"town":"境","koaza":"","lat":36.966119,"lng":137.622606,"zip":"9390704"},{"town":"桜町","koaza":"","lat":36.936982,"lng":137.559255,"zip":"9390714"},{"town":"笹川","koaza":"","lat":36.942183,"lng":137.607798,"zip":"9390711"},{"town":"山王","koaza":"","lat":36.914443,"lng":137.56205,"zip":"9380167"},{"town":"三枚橋","koaza":"","lat":36.935574,"lng":137.54705,"zip":"9390721"},{"town":"下野","koaza":"","lat":36.911777,"lng":137.545464,"zip":"9380169"},{"town":"大屋","koaza":"","lat":36.962092,"lng":137.563233,"zip":"9390747"},{"town":"大屋新","koaza":"","lat":36.961684,"lng":137.558906,"zip":"9390748"},{"town":"大平","koaza":"","lat":36.933263,"lng":137.678344,"zip":"9390705"},{"town":"高橋","koaza":"","lat":36.917583,"lng":137.545032,"zip":"9390725"},{"town":"棚山","koaza":"","lat":36.887275,"lng":137.579076,"zip":"9380164"},{"town":"月山","koaza":"","lat":36.942025,"lng":137.548146,"zip":"9390733"},{"town":"月山新","koaza":"","lat":36.941603,"lng":137.55479,"zip":"9390737"},{"town":"道下","koaza":"","lat":36.948827,"lng":137.56343,"zip":"9390743"},{"town":"殿町","koaza":"","lat":36.923684,"lng":137.567291,"zip":"9380161"},{"town":"泊","koaza":"","lat":36.958487,"lng":137.561008,"zip":"9390741"},{"town":"泊新","koaza":"","lat":36.960533,"lng":137.563507,"zip":"9390749"},{"town":"中草野","koaza":"","lat":36.95775,"lng":137.551193,"zip":"9390732"},{"town":"長野","koaza":"","lat":36.928748,"lng":137.564762,"zip":"9390713"},{"town":"南原","koaza":"","lat":36.946487,"lng":137.552158,"zip":"9390700"},{"town":"南保","koaza":"","lat":36.930677,"lng":137.578722,"zip":"9390715"},{"town":"下山新","koaza":"","lat":36.914422,"lng":137.536434,"zip":"9390726"},{"town":"西町","koaza":"","lat":36.953917,"lng":137.554355,"zip":"9390745"},{"town":"沼保","koaza":"","lat":36.955078,"lng":137.56462,"zip":"9390742"},{"town":"野新","koaza":"","lat":36.914058,"lng":137.544803,"zip":"9390751"},{"town":"浜草野","koaza":"","lat":36.959844,"lng":137.55137,"zip":"9390736"},{"town":"東草野","koaza":"","lat":36.957212,"lng":137.554267,"zip":"9390731"},{"town":"平柳","koaza":"","lat":36.948946,"lng":137.556175,"zip":"9390744"},{"town":"蛭谷","koaza":"","lat":36.904701,"lng":137.628392,"zip":"9390712"},{"town":"藤塚","koaza":"","lat":36.915186,"lng":137.555051,"zip":"9380168"},{"town":"不動堂","koaza":"","lat":36.923425,"lng":137.557467,"zip":"9390723"},{"town":"舟川新","koaza":"","lat":36.938086,"lng":137.536025,"zip":"9390729"},{"town":"細野","koaza":"","lat":36.908382,"lng":137.562519,"zip":"9380166"},{"town":"宮崎","koaza":"","lat":36.966294,"lng":137.593757,"zip":"9390703"},{"town":"元屋敷","koaza":"","lat":36.962464,"lng":137.580826,"zip":"9390702"},{"town":"山崎","koaza":"","lat":36.836833,"lng":137.690236,"zip":"9380162"},{"town":"山崎新","koaza":"","lat":36.899777,"lng":137.561788,"zip":"9380165"},{"town":"横尾","koaza":"","lat":36.957212,"lng":137.573072,"zip":"9390701"},{"town":"横崎新","koaza":"","lat":36.961787,"lng":137.568908,"zip":"9390700"},{"town":"横水","koaza":"","lat":36.918873,"lng":137.553115,"zip":"9390724"},{"town":"平柳","koaza":"上折戸","lat":36.948077,"lng":137.557343,"zip":"9390744"},{"town":"平柳","koaza":"西島","lat":36.951074,"lng":137.555234,"zip":"9390744"}]