[{"town":"青木","koaza":"","lat":36.919168,"lng":137.484518,"zip":"9390643"},{"town":"青木新","koaza":"","lat":36.910536,"lng":137.485745,"zip":"9390646"},{"town":"青島","koaza":"","lat":36.927564,"lng":137.512564,"zip":"9390624"},{"town":"荒又","koaza":"","lat":36.941753,"lng":137.52458,"zip":"9390621"},{"town":"新屋","koaza":"","lat":36.899795,"lng":137.522522,"zip":"9390637"},{"town":"五十里","koaza":"","lat":36.93393,"lng":137.452275,"zip":"9390679"},{"town":"板屋","koaza":"","lat":36.90864,"lng":137.452883,"zip":"9390654"},{"town":"一宿","koaza":"","lat":36.902137,"lng":137.505815,"zip":"9390636"},{"town":"今江","koaza":"","lat":36.904677,"lng":137.551973,"zip":"9380101"},{"town":"浦山新","koaza":"","lat":36.880729,"lng":137.526563,"zip":"9390633"},{"town":"上野","koaza":"","lat":36.923966,"lng":137.495504,"zip":"9390642"},{"town":"春日","koaza":"","lat":36.954411,"lng":137.524111,"zip":"9390617"},{"town":"上飯野","koaza":"","lat":36.907245,"lng":137.470109,"zip":"9390653"},{"town":"上飯野新","koaza":"","lat":36.912407,"lng":137.478058,"zip":"9390651"},{"town":"神林","koaza":"","lat":36.916488,"lng":137.511406,"zip":"9390625"},{"town":"木根","koaza":"","lat":36.933691,"lng":137.466428,"zip":"9390677"},{"town":"君島","koaza":"","lat":36.947268,"lng":137.507824,"zip":"9390614"},{"town":"椚山","koaza":"","lat":36.937496,"lng":137.517143,"zip":"9390627"},{"town":"椚山新","koaza":"","lat":36.946823,"lng":137.517293,"zip":"9390628"},{"town":"小杉","koaza":"","lat":36.923943,"lng":137.522046,"zip":"9390623"},{"town":"小摺戸","koaza":"","lat":36.890972,"lng":137.511618,"zip":"9390634"},{"town":"五郎八","koaza":"","lat":36.913514,"lng":137.445533,"zip":"9390655"},{"town":"笹原","koaza":"","lat":36.917292,"lng":137.454494,"zip":"9390656"},{"town":"下飯野","koaza":"","lat":36.9267,"lng":137.442815,"zip":"9390663"},{"town":"下飯野新","koaza":"","lat":36.928751,"lng":137.457436,"zip":"9390662"},{"town":"下上野","koaza":"","lat":36.940707,"lng":137.4925,"zip":"9390641"},{"town":"袖沢","koaza":"","lat":36.908965,"lng":137.481874,"zip":"9390652"},{"town":"高瀬","koaza":"","lat":36.930219,"lng":137.449694,"zip":"9390661"},{"town":"田中","koaza":"","lat":36.947794,"lng":137.493823,"zip":"9390672"},{"town":"田ノ又","koaza":"","lat":36.948413,"lng":137.521619,"zip":"9390600"},{"town":"道市","koaza":"","lat":36.935763,"lng":137.483344,"zip":"9390675"},{"town":"道古","koaza":"","lat":36.91769,"lng":137.478245,"zip":"9390647"},{"town":"東狐","koaza":"","lat":36.919562,"lng":137.46535,"zip":"9390657"},{"town":"中沢","koaza":"","lat":36.906069,"lng":137.538435,"zip":"9380105"},{"town":"下山","koaza":"","lat":36.90193,"lng":137.529999,"zip":"9390631"},{"town":"西中","koaza":"","lat":36.897575,"lng":137.539349,"zip":"9380104"},{"town":"入膳","koaza":"","lat":36.933449,"lng":137.503536,"zip":"9390626"},{"town":"野中","koaza":"","lat":36.905216,"lng":137.547611,"zip":"9380106"},{"town":"墓ノ木","koaza":"","lat":36.877951,"lng":137.540256,"zip":"9390632"},{"town":"東五十里","koaza":"","lat":36.950813,"lng":137.501772,"zip":"9390671"},{"town":"日吉","koaza":"","lat":36.928197,"lng":137.527707,"zip":"9390622"},{"town":"福島","koaza":"","lat":36.902545,"lng":137.488565,"zip":"9390645"},{"town":"福島新","koaza":"","lat":36.906141,"lng":137.491469,"zip":"9390644"},{"town":"藤原","koaza":"","lat":36.948054,"lng":137.530002,"zip":"9390612"},{"town":"舟見","koaza":"","lat":36.881632,"lng":137.553034,"zip":"9380103"},{"town":"古黒部","koaza":"","lat":36.951787,"lng":137.537262,"zip":"9390611"},{"town":"古林","koaza":"","lat":36.906198,"lng":137.556775,"zip":"9380102"},{"town":"蛇沢","koaza":"","lat":36.918906,"lng":137.444978,"zip":"9390664"},{"town":"神子沢","koaza":"","lat":36.934263,"lng":137.459459,"zip":"9390678"},{"town":"目川","koaza":"","lat":36.936438,"lng":137.47218,"zip":"9390676"},{"town":"八幡","koaza":"","lat":36.95415,"lng":137.505616,"zip":"9390615"},{"town":"横山","koaza":"","lat":36.954183,"lng":137.514656,"zip":"9390616"},{"town":"吉原","koaza":"","lat":36.944349,"lng":137.479246,"zip":"9390674"},{"town":"吉原東","koaza":"","lat":36.945031,"lng":137.488337,"zip":"9390673"},{"town":"若栗新","koaza":"","lat":36.897384,"lng":137.498002,"zip":"9390635"},{"town":"芦崎","koaza":"","lat":36.924222,"lng":137.431611,"zip":"9390667"},{"town":"高畠","koaza":"","lat":36.921708,"lng":137.435856,"zip":"9390666"},{"town":"本村","koaza":"","lat":36.916029,"lng":137.440446,"zip":"9390665"}]