[{"town":"芦峅寺","koaza":"","lat":36.583675,"lng":137.581904,"zip":"9301406"},{"town":"芦見","koaza":"","lat":36.633864,"lng":137.352996,"zip":"9303242"},{"town":"浅生","koaza":"","lat":36.700651,"lng":137.294186,"zip":"9300271"},{"town":"池田","koaza":"","lat":36.611756,"lng":137.358745,"zip":"9303239"},{"town":"石坂","koaza":"","lat":36.644217,"lng":137.349614,"zip":"9303215"},{"town":"伊豆林","koaza":"","lat":36.612197,"lng":137.323172,"zip":"9301361"},{"town":"泉","koaza":"","lat":36.699834,"lng":137.327046,"zip":"9300201"},{"town":"伊勢屋","koaza":"","lat":36.615878,"lng":137.373139,"zip":"9303234"},{"town":"一本木","koaza":"","lat":36.641655,"lng":137.308796,"zip":"9300256"},{"town":"鋳物師沢","koaza":"","lat":36.624736,"lng":137.32283,"zip":"9300246"},{"town":"岩峅寺","koaza":"","lat":36.601094,"lng":137.317149,"zip":"9301368"},{"town":"岩峅野","koaza":"","lat":36.614488,"lng":137.312097,"zip":"9301369"},{"town":"浦田","koaza":"","lat":36.694611,"lng":137.315756,"zip":"9300208"},{"town":"浦田新","koaza":"","lat":36.694837,"lng":137.310229,"zip":"9300207"},{"town":"上末","koaza":"","lat":36.618367,"lng":137.344184,"zip":"9303245"},{"town":"上野","koaza":"","lat":36.675798,"lng":137.28883,"zip":"9300200"},{"town":"江崎","koaza":"","lat":36.666638,"lng":137.330242,"zip":"9303267"},{"town":"榎","koaza":"","lat":36.652065,"lng":137.317889,"zip":"9300235"},{"town":"大石原","koaza":"","lat":36.667456,"lng":137.298923,"zip":"9300261"},{"town":"大窪","koaza":"","lat":36.671812,"lng":137.303999,"zip":"9300216"},{"town":"大窪開","koaza":"","lat":36.641868,"lng":137.320122,"zip":"9300253"},{"town":"大島","koaza":"","lat":36.653098,"lng":137.31061,"zip":"9300251"},{"town":"大清水","koaza":"","lat":36.64564,"lng":137.301437,"zip":"9300263"},{"town":"女川新","koaza":"","lat":36.676626,"lng":137.346493,"zip":"9303202"},{"town":"小又","koaza":"","lat":36.610391,"lng":137.372612,"zip":"9303236"},{"town":"柿の木沢","koaza":"","lat":36.652251,"lng":137.314818,"zip":"9300237"},{"town":"上開発","koaza":"","lat":36.680191,"lng":137.299042,"zip":"9300200"},{"town":"上金剛寺","koaza":"","lat":36.639547,"lng":137.330928,"zip":"9300233"},{"town":"上瀬戸","koaza":"","lat":36.626882,"lng":137.34955,"zip":"9303244"},{"town":"上中","koaza":"","lat":36.65156,"lng":137.340599,"zip":"9303251"},{"town":"上福来","koaza":"","lat":36.66823,"lng":137.344996,"zip":"9303203"},{"town":"上鉾木","koaza":"","lat":36.69051,"lng":137.296655,"zip":"9300223"},{"town":"上宮","koaza":"","lat":36.637771,"lng":137.342896,"zip":"9303254"},{"town":"川原木","koaza":"","lat":36.644737,"lng":137.306018,"zip":"9300257"},{"town":"草野","koaza":"","lat":36.66561,"lng":137.304662,"zip":"9300227"},{"town":"蔵本新","koaza":"","lat":36.6586,"lng":137.295622,"zip":"9300262"},{"town":"黒谷","koaza":"","lat":36.618763,"lng":137.335189,"zip":"9300200"},{"town":"小林","koaza":"","lat":36.636878,"lng":137.340682,"zip":"9303255"},{"town":"五百石","koaza":"","lat":36.664768,"lng":137.316822,"zip":"9300214"},{"town":"五郎丸","koaza":"","lat":36.685007,"lng":137.299546,"zip":"9300274"},{"town":"金剛寺","koaza":"","lat":36.644585,"lng":137.335712,"zip":"9300232"},{"town":"金剛新","koaza":"","lat":36.65868,"lng":137.335827,"zip":"9303262"},{"town":"坂井沢","koaza":"","lat":36.651062,"lng":137.329484,"zip":"9300231"},{"town":"座主坊","koaza":"","lat":36.592248,"lng":137.371589,"zip":"9303238"},{"town":"沢新","koaza":"","lat":36.660574,"lng":137.328962,"zip":"9303264"},{"town":"沢端","koaza":"","lat":36.676571,"lng":137.323534,"zip":"9300212"},{"town":"下段","koaza":"","lat":36.644074,"lng":137.326232,"zip":"9300234"},{"town":"四谷尾","koaza":"","lat":36.631557,"lng":137.391602,"zip":"9303221"},{"town":"柴山","koaza":"","lat":36.667755,"lng":137.350039,"zip":"9303212"},{"town":"下沢","koaza":"","lat":36.637704,"lng":137.348684,"zip":"9303241"},{"town":"下白岩","koaza":"","lat":36.655703,"lng":137.352906,"zip":"9303214"},{"town":"下新","koaza":"","lat":36.67916,"lng":137.332712,"zip":"9303208"},{"town":"下瀬戸","koaza":"","lat":36.628283,"lng":137.35204,"zip":"9303243"},{"town":"下鉾木","koaza":"","lat":36.692927,"lng":137.294319,"zip":"9300200"},{"town":"城前","koaza":"","lat":36.60707,"lng":137.406892,"zip":"9300200"},{"town":"白岩","koaza":"","lat":36.638205,"lng":137.37021,"zip":"9303224"},{"town":"新瀬戸","koaza":"","lat":36.63343,"lng":137.341106,"zip":"9303248"},{"town":"新堀","koaza":"","lat":36.658958,"lng":137.320185,"zip":"9300236"},{"town":"末上野","koaza":"","lat":36.645326,"lng":137.341458,"zip":"9303252"},{"town":"末三賀","koaza":"","lat":36.628584,"lng":137.315609,"zip":"9300247"},{"town":"末谷口","koaza":"","lat":36.623572,"lng":137.33273,"zip":"9300244"},{"town":"瀬戸新","koaza":"","lat":36.631506,"lng":137.343934,"zip":"9303247"},{"town":"曽我","koaza":"","lat":36.689859,"lng":137.291547,"zip":"9300200"},{"town":"高原","koaza":"","lat":36.682914,"lng":137.338634,"zip":"9303201"},{"town":"高原八ツ屋","koaza":"","lat":36.653436,"lng":137.293283,"zip":"9300268"},{"town":"竹鼻新","koaza":"","lat":36.690765,"lng":137.311674,"zip":"9300206"},{"town":"竹林","koaza":"","lat":36.677415,"lng":137.33889,"zip":"9303206"},{"town":"田添","koaza":"","lat":36.678823,"lng":137.317464,"zip":"9300219"},{"town":"谷","koaza":"","lat":36.620052,"lng":137.38719,"zip":"9303233"},{"town":"谷口","koaza":"","lat":36.613242,"lng":137.342528,"zip":"9303222"},{"town":"手屋","koaza":"","lat":36.66484,"lng":137.308722,"zip":"9300228"},{"town":"千垣","koaza":"","lat":36.579503,"lng":137.362368,"zip":"9301408"},{"town":"塚越","koaza":"","lat":36.697893,"lng":137.29861,"zip":"9300272"},{"town":"辻","koaza":"","lat":36.686942,"lng":137.336643,"zip":"9300211"},{"town":"寺田","koaza":"","lat":36.691595,"lng":137.321162,"zip":"9300204"},{"town":"寺田ことぶき町","koaza":"","lat":36.686785,"lng":137.320132,"zip":"9300209"},{"town":"寺坪","koaza":"","lat":36.628657,"lng":137.326769,"zip":"9300242"},{"town":"天林","koaza":"","lat":36.600159,"lng":137.33018,"zip":"9301364"},{"town":"道源寺","koaza":"","lat":36.633164,"lng":137.323839,"zip":"9300241"},{"town":"道新","koaza":"","lat":36.659356,"lng":137.303619,"zip":"9300226"},{"town":"栃津","koaza":"","lat":36.597821,"lng":137.345862,"zip":"9301363"},{"town":"泊新","koaza":"","lat":36.628335,"lng":137.298536,"zip":"9300265"},{"town":"長倉","koaza":"","lat":36.613439,"lng":137.388297,"zip":"9303235"},{"town":"中林","koaza":"","lat":36.635159,"lng":137.344768,"zip":"9303246"},{"town":"長屋","koaza":"","lat":36.641665,"lng":137.342861,"zip":"9303253"},{"town":"中山","koaza":"","lat":36.622011,"lng":137.324347,"zip":"9300245"},{"town":"半屋","koaza":"","lat":36.661623,"lng":137.28756,"zip":"9300269"},{"town":"西芦原","koaza":"","lat":36.687249,"lng":137.283488,"zip":"9300224"},{"town":"西大森","koaza":"","lat":36.64847,"lng":137.287658,"zip":"9300267"},{"town":"日中","koaza":"","lat":36.672167,"lng":137.353363,"zip":"9303211"},{"town":"日中上野","koaza":"","lat":36.661236,"lng":137.348688,"zip":"9303213"},{"town":"貫田","koaza":"","lat":36.653322,"lng":137.305539,"zip":"9300222"},{"town":"野口","koaza":"","lat":36.679804,"lng":137.309195,"zip":"9300217"},{"town":"野口新","koaza":"","lat":36.672761,"lng":137.322177,"zip":"9300213"},{"town":"野沢","koaza":"","lat":36.660758,"lng":137.341837,"zip":"9303217"},{"town":"野町","koaza":"","lat":36.670312,"lng":137.333717,"zip":"9303261"},{"town":"野村","koaza":"","lat":36.635044,"lng":137.305461,"zip":"9300248"},{"town":"日置","koaza":"","lat":36.670034,"lng":137.28752,"zip":"9300200"},{"town":"東大森","koaza":"","lat":36.644893,"lng":137.296213,"zip":"9300264"},{"town":"東中野新","koaza":"","lat":36.595812,"lng":137.326481,"zip":"9301365"},{"town":"東野","koaza":"","lat":36.671998,"lng":137.342693,"zip":"9303204"},{"town":"日俣","koaza":"","lat":36.649886,"lng":137.309211,"zip":"9300252"},{"town":"日水","koaza":"","lat":36.679807,"lng":137.30406,"zip":"9300200"},{"town":"福田","koaza":"","lat":36.651906,"lng":137.349348,"zip":"9303216"},{"town":"福来","koaza":"","lat":36.678411,"lng":137.343382,"zip":"9303205"},{"town":"二ツ塚","koaza":"","lat":36.686412,"lng":137.312959,"zip":"9300218"},{"town":"渕上","koaza":"","lat":36.655532,"lng":137.336797,"zip":"9303263"},{"town":"古川","koaza":"","lat":36.640627,"lng":137.316459,"zip":"9300254"},{"town":"鉾木","koaza":"","lat":36.694706,"lng":137.292619,"zip":"9300276"},{"town":"本郷島","koaza":"","lat":36.656508,"lng":137.302359,"zip":"9300225"},{"town":"前沢","koaza":"","lat":36.663459,"lng":137.313689,"zip":"9300221"},{"town":"前沢新","koaza":"","lat":36.66622,"lng":137.320169,"zip":"9303266"},{"town":"前沢新町","koaza":"","lat":36.667459,"lng":137.312113,"zip":"9300229"},{"town":"前沢中央町","koaza":"","lat":36.662342,"lng":137.311523,"zip":"9300220"},{"town":"松倉","koaza":"","lat":36.601668,"lng":137.386983,"zip":"9303237"},{"town":"下田","koaza":"","lat":36.613607,"lng":137.324023,"zip":"9301361"},{"town":"三ツ塚新","koaza":"","lat":36.633306,"lng":137.293657,"zip":"9300266"},{"town":"宮路","koaza":"","lat":36.608892,"lng":137.320563,"zip":"9301367"},{"town":"宮成","koaza":"","lat":36.674411,"lng":137.315886,"zip":"9300215"},{"town":"向新庄","koaza":"","lat":36.640733,"lng":137.312267,"zip":"9300255"},{"town":"虫谷","koaza":"","lat":36.64179,"lng":137.386988,"zip":"9303223"},{"town":"目桑","koaza":"","lat":36.624014,"lng":137.371472,"zip":"9303232"},{"town":"横江","koaza":"","lat":36.584969,"lng":137.336921,"zip":"9303277"},{"town":"横江野開","koaza":"","lat":36.594535,"lng":137.324231,"zip":"9301366"},{"town":"横沢","koaza":"","lat":36.685694,"lng":137.304046,"zip":"9300273"},{"town":"吉峰野開","koaza":"","lat":36.613306,"lng":137.33163,"zip":"9301362"},{"town":"米沢","koaza":"","lat":36.665033,"lng":137.322709,"zip":"9303265"},{"town":"米道","koaza":"","lat":36.630522,"lng":137.333945,"zip":"9301362"},{"town":"利田","koaza":"","lat":36.683172,"lng":137.29058,"zip":"9300275"},{"town":"立泉寺","koaza":"","lat":36.674156,"lng":137.297898,"zip":"9300200"},{"town":"六郎谷","koaza":"","lat":36.630996,"lng":137.359507,"zip":"9303231"},{"town":"若林","koaza":"","lat":36.6878,"lng":137.324468,"zip":"9300203"},{"town":"若宮","koaza":"","lat":36.689198,"lng":137.328628,"zip":"9300202"},{"town":"米沢","koaza":"下島割","lat":36.667055,"lng":137.319501,"zip":"9303265"}]