[{"town":"相ノ木新町","koaza":"","lat":36.707954,"lng":137.334318,"zip":"9300374"},{"town":"青出新","koaza":"","lat":36.714656,"lng":137.339031,"zip":"9300384"},{"town":"旭町","koaza":"","lat":36.709076,"lng":137.367581,"zip":"9300331"},{"town":"浅生","koaza":"","lat":36.651487,"lng":137.412085,"zip":"9300464"},{"town":"新清水","koaza":"","lat":36.7069,"lng":137.32353,"zip":"9300377"},{"town":"新屋","koaza":"","lat":36.687327,"lng":137.357808,"zip":"9300471"},{"town":"荒田","koaza":"","lat":36.713606,"lng":137.3579,"zip":"9300305"},{"town":"飯坂","koaza":"","lat":36.713411,"lng":137.334939,"zip":"9300385"},{"town":"飯坂新","koaza":"","lat":36.715757,"lng":137.329676,"zip":"9300387"},{"town":"伊折","koaza":"","lat":36.634493,"lng":137.558584,"zip":"9300437"},{"town":"石浦町","koaza":"","lat":36.706895,"lng":137.36536,"zip":"9300332"},{"town":"石仏","koaza":"","lat":36.730119,"lng":137.348292,"zip":"9300302"},{"town":"稲村","koaza":"","lat":36.678638,"lng":137.433031,"zip":"9300432"},{"town":"江上","koaza":"","lat":36.719065,"lng":137.343681,"zip":"9300318"},{"town":"江又","koaza":"","lat":36.714175,"lng":137.344431,"zip":"9300317"},{"town":"大岩","koaza":"","lat":36.667311,"lng":137.390166,"zip":"9300463"},{"town":"大沢","koaza":"","lat":36.638019,"lng":137.403693,"zip":"9300465"},{"town":"大坪","koaza":"","lat":36.698561,"lng":137.352307,"zip":"9300354"},{"town":"大松","koaza":"","lat":36.668328,"lng":137.383255,"zip":"9300462"},{"town":"大松新","koaza":"","lat":36.672598,"lng":137.376581,"zip":"9300461"},{"town":"大永田","koaza":"","lat":36.725525,"lng":137.355216,"zip":"9300303"},{"town":"女川","koaza":"","lat":36.681244,"lng":137.355976,"zip":"9300472"},{"town":"折戸","koaza":"","lat":36.681345,"lng":137.446495,"zip":"9300435"},{"town":"開谷","koaza":"","lat":36.713131,"lng":137.415129,"zip":"9300300"},{"town":"柿沢","koaza":"","lat":36.67282,"lng":137.371583,"zip":"9300473"},{"town":"柿沢新","koaza":"","lat":36.722256,"lng":137.371401,"zip":"9300406"},{"town":"鍵町","koaza":"","lat":36.703917,"lng":137.361441,"zip":"9300346"},{"town":"片地","koaza":"","lat":36.702747,"lng":137.404228,"zip":"9300421"},{"town":"上荒又","koaza":"","lat":36.708917,"lng":137.331065,"zip":"9300375"},{"town":"上経田一丁目","koaza":"","lat":36.705279,"lng":137.341352,"zip":"9300372"},{"town":"上経田二丁目","koaza":"","lat":36.705913,"lng":137.344632,"zip":"9300372"},{"town":"上経田三丁目","koaza":"","lat":36.705005,"lng":137.344734,"zip":"9300372"},{"town":"上経田四丁目","koaza":"","lat":36.704013,"lng":137.345333,"zip":"9300372"},{"town":"上経田五丁目","koaza":"","lat":36.702765,"lng":137.342127,"zip":"9300372"},{"town":"上正","koaza":"","lat":36.702638,"lng":137.346629,"zip":"9300356"},{"town":"上中町","koaza":"","lat":36.705664,"lng":137.365219,"zip":"9300333"},{"town":"上法音寺","koaza":"","lat":36.700407,"lng":137.366608,"zip":"9300352"},{"town":"川原田","koaza":"","lat":36.696088,"lng":137.342053,"zip":"9300368"},{"town":"北島","koaza":"","lat":36.701208,"lng":137.375026,"zip":"9300351"},{"town":"熊野町","koaza":"","lat":36.705149,"lng":137.36156,"zip":"9300347"},{"town":"黒川","koaza":"","lat":36.71782,"lng":137.402618,"zip":"9300416"},{"town":"下田","koaza":"","lat":36.705067,"lng":137.490711,"zip":"9300434"},{"town":"五位尾","koaza":"","lat":36.70167,"lng":137.4232,"zip":"9300417"},{"town":"郷柿沢","koaza":"","lat":36.717722,"lng":137.36587,"zip":"9300405"},{"town":"極楽寺","koaza":"","lat":36.690051,"lng":137.399848,"zip":"9300451"},{"town":"護摩堂","koaza":"","lat":36.717587,"lng":137.428471,"zip":"9360891"},{"town":"斉神新","koaza":"","lat":36.705883,"lng":137.370848,"zip":"9300300"},{"town":"幸町","koaza":"","lat":36.707032,"lng":137.36263,"zip":"9300335"},{"town":"栄町","koaza":"","lat":36.708018,"lng":137.362923,"zip":"9300322"},{"town":"眼目","koaza":"","lat":36.695954,"lng":137.400458,"zip":"9300422"},{"town":"眼目新","koaza":"","lat":36.695107,"lng":137.383295,"zip":"9300458"},{"town":"塩谷","koaza":"","lat":36.666651,"lng":137.3793,"zip":"9300467"},{"town":"下青出","koaza":"","lat":36.722897,"lng":137.331502,"zip":"9300382"},{"town":"下荒又","koaza":"","lat":36.707799,"lng":137.326341,"zip":"9300376"},{"town":"下経田","koaza":"","lat":36.704678,"lng":137.336992,"zip":"9300373"},{"town":"下経田一丁目","koaza":"","lat":36.703326,"lng":137.341571,"zip":"9300373"},{"town":"釈泉寺","koaza":"","lat":36.689327,"lng":137.416173,"zip":"9300431"},{"town":"正印","koaza":"","lat":36.70034,"lng":137.346572,"zip":"9300357"},{"town":"正印一丁目","koaza":"","lat":36.703371,"lng":137.346256,"zip":"9300357"},{"town":"正印新","koaza":"","lat":36.701837,"lng":137.334166,"zip":"9300358"},{"town":"上条沖","koaza":"","lat":36.722418,"lng":137.335984,"zip":"9300383"},{"town":"神田","koaza":"","lat":36.695164,"lng":137.336611,"zip":"9300365"},{"town":"新町","koaza":"","lat":36.706604,"lng":137.361408,"zip":"9300324"},{"town":"新村","koaza":"","lat":36.693532,"lng":137.332855,"zip":"9300366"},{"town":"神明町","koaza":"","lat":36.704708,"lng":137.367402,"zip":"9300342"},{"town":"砂林開","koaza":"","lat":36.71022,"lng":137.397544,"zip":"9300411"},{"town":"須山","koaza":"","lat":36.678399,"lng":137.398794,"zip":"9300452"},{"town":"千石","koaza":"","lat":36.636655,"lng":137.473929,"zip":"9300442"},{"town":"竹鼻","koaza":"","lat":36.735399,"lng":137.340799,"zip":"9300301"},{"town":"田島野","koaza":"","lat":36.708311,"lng":137.372854,"zip":"9300425"},{"town":"舘","koaza":"","lat":36.66836,"lng":137.365312,"zip":"9300474"},{"town":"堤谷","koaza":"","lat":36.686768,"lng":137.377961,"zip":"9300453"},{"town":"天神町","koaza":"","lat":36.71163,"lng":137.360841,"zip":"9300321"},{"town":"中青出","koaza":"","lat":36.717252,"lng":137.333185,"zip":"9300386"},{"town":"中江上","koaza":"","lat":36.717241,"lng":137.351425,"zip":"9300313"},{"town":"中開発","koaza":"","lat":36.71082,"lng":137.334668,"zip":"9300371"},{"town":"中ノ又","koaza":"","lat":36.645389,"lng":137.406631,"zip":"9300300"},{"town":"中村","koaza":"","lat":36.698405,"lng":137.439356,"zip":"9300433"},{"town":"錦町","koaza":"","lat":36.705906,"lng":137.366913,"zip":"9300341"},{"town":"西種","koaza":"","lat":36.664738,"lng":137.419447,"zip":"9300444"},{"town":"西町","koaza":"","lat":36.708869,"lng":137.360788,"zip":"9300323"},{"town":"西中町","koaza":"","lat":36.705318,"lng":137.363269,"zip":"9300334"},{"town":"野開発","koaza":"","lat":36.717047,"lng":137.374019,"zip":"9300403"},{"town":"野島","koaza":"","lat":36.700987,"lng":137.387149,"zip":"9300423"},{"town":"野福","koaza":"","lat":36.698079,"lng":137.34136,"zip":"9300367"},{"town":"稗田","koaza":"","lat":36.693328,"lng":137.357184,"zip":"9300362"},{"town":"東江上","koaza":"","lat":36.722194,"lng":137.347984,"zip":"9300312"},{"town":"東種","koaza":"","lat":36.640177,"lng":137.43841,"zip":"9300441"},{"town":"東町","koaza":"","lat":36.704393,"lng":137.369236,"zip":"9300343"},{"town":"久金","koaza":"","lat":36.723271,"lng":137.32687,"zip":"9300381"},{"town":"久金新","koaza":"","lat":36.722679,"lng":137.323388,"zip":"9300388"},{"town":"桧谷","koaza":"","lat":36.650106,"lng":137.391097,"zip":"9300466"},{"town":"広市新","koaza":"","lat":36.712241,"lng":137.373689,"zip":"9300402"},{"town":"広野","koaza":"","lat":36.709642,"lng":137.383957,"zip":"9300412"},{"town":"広野新","koaza":"","lat":36.720994,"lng":137.37844,"zip":"9300401"},{"town":"法音寺","koaza":"","lat":36.698674,"lng":137.362015,"zip":"9300353"},{"town":"放士ケ瀬","koaza":"","lat":36.7101,"lng":137.320613,"zip":"9300378"},{"town":"放士ケ瀬新","koaza":"","lat":36.713869,"lng":137.326581,"zip":"9300379"},{"town":"松和町","koaza":"","lat":36.707254,"lng":137.364069,"zip":"9300336"},{"town":"丸山","koaza":"","lat":36.694387,"lng":137.379775,"zip":"9300456"},{"town":"南町","koaza":"","lat":36.704283,"lng":137.364162,"zip":"9300345"},{"town":"森尻","koaza":"","lat":36.720185,"lng":137.357211,"zip":"9300304"},{"town":"森元町","koaza":"","lat":36.704083,"lng":137.366066,"zip":"9300344"},{"town":"弥市","koaza":"","lat":36.725037,"lng":137.342003,"zip":"9300311"},{"town":"柳町","koaza":"","lat":36.710318,"lng":137.359003,"zip":"9300326"},{"town":"湯上野","koaza":"","lat":36.696969,"lng":137.371921,"zip":"9300361"},{"town":"湯崎野","koaza":"","lat":36.693963,"lng":137.372206,"zip":"9300455"},{"town":"湯神子","koaza":"","lat":36.690062,"lng":137.370249,"zip":"9300454"},{"town":"湯神子野","koaza":"","lat":36.693029,"lng":137.382247,"zip":"9300457"},{"town":"横越","koaza":"","lat":36.691031,"lng":137.345677,"zip":"9300364"},{"town":"横法音寺","koaza":"","lat":36.701884,"lng":137.355336,"zip":"9300355"},{"town":"四葉台","koaza":"","lat":36.703759,"lng":137.350013,"zip":"9300359"},{"town":"蓬沢","koaza":"","lat":36.674594,"lng":137.505699,"zip":"9300436"},{"town":"若杉新一丁目","koaza":"","lat":36.70365,"lng":137.348064,"zip":"9300315"},{"town":"若杉新二丁目","koaza":"","lat":36.706561,"lng":137.346702,"zip":"9300315"},{"town":"和合","koaza":"","lat":36.685579,"lng":137.346446,"zip":"9300363"},{"town":"三日市","koaza":"","lat":36.706513,"lng":137.359171,"zip":"9300325"},{"town":"若杉","koaza":"","lat":36.708915,"lng":137.354065,"zip":"9300314"},{"town":"中小泉","koaza":"","lat":36.709217,"lng":137.342819,"zip":"9300316"},{"town":"若杉一丁目","koaza":"","lat":36.704939,"lng":137.35751,"zip":"9300314"},{"town":"若杉新","koaza":"","lat":36.70661,"lng":137.348546,"zip":"9300315"},{"town":"若杉三丁目","koaza":"","lat":36.707766,"lng":137.35134,"zip":"9300314"},{"town":"法音寺","koaza":"吉田","lat":36.69867,"lng":137.36398,"zip":"9300353"}]