[{"town":"相倉","koaza":"","lat":36.430688,"lng":136.914051,"zip":"9391915"},{"town":"赤坂","koaza":"","lat":36.527052,"lng":136.882979,"zip":"9391751"},{"town":"安室","koaza":"","lat":36.588195,"lng":136.950494,"zip":"9320206"},{"town":"遊部","koaza":"","lat":36.56913,"lng":136.883969,"zip":"9391701"},{"town":"遊部川原","koaza":"","lat":36.569545,"lng":136.879225,"zip":"9391622"},{"town":"新屋","koaza":"","lat":36.386028,"lng":136.883855,"zip":"9391976"},{"town":"天池","koaza":"","lat":36.536936,"lng":136.886653,"zip":"9391744"},{"town":"天池出","koaza":"","lat":36.531029,"lng":136.85659,"zip":"9391600"},{"town":"雨潜","koaza":"","lat":36.56966,"lng":136.931866,"zip":"9391524"},{"town":"荒木","koaza":"","lat":36.554572,"lng":136.881619,"zip":"9391732"},{"town":"荒見崎","koaza":"","lat":36.556847,"lng":136.89772,"zip":"9391716"},{"town":"在房","koaza":"","lat":36.568969,"lng":136.909919,"zip":"9391711"},{"town":"池田","koaza":"","lat":36.540772,"lng":136.939206,"zip":"9391873"},{"town":"池尻","koaza":"","lat":36.548098,"lng":136.928607,"zip":"9391871"},{"town":"石田","koaza":"","lat":36.570144,"lng":136.922442,"zip":"9391535"},{"town":"和泉","koaza":"","lat":36.575803,"lng":136.877068,"zip":"9391621"},{"town":"泉沢","koaza":"","lat":36.503557,"lng":136.897471,"zip":"9391821"},{"town":"院瀬見","koaza":"","lat":36.540436,"lng":136.948506,"zip":"9320247"},{"town":"糸谷新","koaza":"","lat":36.520657,"lng":136.822613,"zip":"9391673"},{"town":"井波","koaza":"","lat":36.564027,"lng":136.976725,"zip":"9320211"},{"town":"井波軸屋","koaza":"","lat":36.585493,"lng":136.942895,"zip":"9320205"},{"town":"井波外二ケ村入会地","koaza":"","lat":36.5544,"lng":136.976565,"zip":"9391600"},{"town":"井波外四ケ村入会地","koaza":"","lat":36.549274,"lng":136.983458,"zip":"9391600"},{"town":"井波外五ケ村入会地","koaza":"","lat":36.555965,"lng":136.984902,"zip":"9391600"},{"town":"井口","koaza":"","lat":36.538847,"lng":136.92493,"zip":"9391877"},{"town":"猪谷","koaza":"","lat":36.383727,"lng":136.924243,"zip":"9391962"},{"town":"今里","koaza":"","lat":36.558356,"lng":136.954152,"zip":"9320256"},{"town":"入谷","koaza":"","lat":36.451292,"lng":136.988963,"zip":"9391904"},{"town":"岩木","koaza":"","lat":36.585886,"lng":136.872198,"zip":"9391612"},{"town":"岩武新","koaza":"","lat":36.608309,"lng":136.920733,"zip":"9391503"},{"town":"岩屋","koaza":"","lat":36.580358,"lng":136.960738,"zip":"9320203"},{"town":"岩安","koaza":"","lat":36.590207,"lng":136.880772,"zip":"9391611"},{"town":"院林","koaza":"","lat":36.586554,"lng":136.907103,"zip":"9391531"},{"town":"上田","koaza":"","lat":36.456726,"lng":136.888151,"zip":"9391824"},{"town":"上野","koaza":"","lat":36.595301,"lng":136.942122,"zip":"9391512"},{"town":"臼中","koaza":"","lat":36.458464,"lng":136.85069,"zip":"9391600"},{"town":"打尾","koaza":"","lat":36.496626,"lng":136.902046,"zip":"9391823"},{"town":"打越","koaza":"","lat":36.356087,"lng":136.835467,"zip":"9391600"},{"town":"梅ケ島","koaza":"","lat":36.584678,"lng":136.898347,"zip":"9391542"},{"town":"梅野","koaza":"","lat":36.541553,"lng":136.903521,"zip":"9391724"},{"town":"梅原","koaza":"","lat":36.56145,"lng":136.901664,"zip":"9391716"},{"town":"漆谷","koaza":"","lat":36.402718,"lng":136.868447,"zip":"9391979"},{"town":"上見","koaza":"","lat":36.494046,"lng":136.883373,"zip":"9391833"},{"town":"江田","koaza":"","lat":36.565675,"lng":136.927637,"zip":"9391526"},{"town":"大崩島","koaza":"","lat":36.46057,"lng":136.982524,"zip":"9391902"},{"town":"大窪","koaza":"","lat":36.53398,"lng":136.897458,"zip":"9391855"},{"town":"大島","koaza":"","lat":36.410611,"lng":136.953439,"zip":"9391912"},{"town":"大谷","koaza":"","lat":36.541701,"lng":136.974023,"zip":"9391600"},{"town":"大塚","koaza":"","lat":36.538479,"lng":136.892095,"zip":"9391743"},{"town":"大寺","koaza":"","lat":36.529855,"lng":136.967189,"zip":"9391600"},{"town":"大西","koaza":"","lat":36.522622,"lng":136.878544,"zip":"9391752"},{"town":"大宮野","koaza":"","lat":36.509784,"lng":136.904275,"zip":"9391814"},{"town":"大宮野新","koaza":"","lat":36.510655,"lng":136.89093,"zip":"9391837"},{"town":"大鋸屋","koaza":"","lat":36.479339,"lng":136.898011,"zip":"9391824"},{"town":"沖","koaza":"","lat":36.552753,"lng":136.948105,"zip":"9320248"},{"town":"小瀬","koaza":"","lat":36.419008,"lng":136.8735,"zip":"9391971"},{"town":"小原","koaza":"","lat":36.384739,"lng":136.90938,"zip":"9391967"},{"town":"小又","koaza":"","lat":36.565337,"lng":136.81488,"zip":"9391605"},{"town":"開発","koaza":"","lat":36.55511,"lng":136.860415,"zip":"9391667"},{"town":"皆葎","koaza":"","lat":36.404885,"lng":136.920801,"zip":"9391961"},{"town":"篭渡","koaza":"","lat":36.413652,"lng":136.967508,"zip":"9391911"},{"town":"桂","koaza":"","lat":36.324808,"lng":136.813777,"zip":"9391969"},{"town":"金戸","koaza":"","lat":36.515858,"lng":136.893838,"zip":"9391843"},{"town":"上川崎","koaza":"","lat":36.597416,"lng":136.896107,"zip":"9391553"},{"town":"上平細島","koaza":"","lat":36.392363,"lng":136.896107,"zip":"9391968"},{"town":"上中田","koaza":"","lat":36.390908,"lng":136.883238,"zip":"9391975"},{"town":"上梨","koaza":"","lat":36.419924,"lng":136.912506,"zip":"9391914"},{"town":"上原","koaza":"","lat":36.493355,"lng":136.873058,"zip":"9391834"},{"town":"上広安","koaza":"","lat":36.544712,"lng":136.920076,"zip":"9391878"},{"town":"上松尾","koaza":"","lat":36.44835,"lng":136.956424,"zip":"9391928"},{"town":"上三日市","koaza":"","lat":36.58815,"lng":136.917126,"zip":"9391575"},{"town":"川上中","koaza":"","lat":36.526871,"lng":136.939603,"zip":"9391876"},{"town":"川西","koaza":"","lat":36.577201,"lng":136.859621,"zip":"9391613"},{"town":"川除新","koaza":"","lat":36.602894,"lng":136.943835,"zip":"9391504"},{"town":"川原崎","koaza":"","lat":36.555361,"lng":136.955322,"zip":"9320241"},{"town":"北市","koaza":"","lat":36.5624,"lng":136.947066,"zip":"9320257"},{"town":"北川","koaza":"","lat":36.569883,"lng":136.971766,"zip":"9320226"},{"town":"北野","koaza":"","lat":36.525487,"lng":136.921641,"zip":"9391807"},{"town":"経塚野","koaza":"","lat":36.517785,"lng":136.883471,"zip":"9391846"},{"town":"桐木","koaza":"","lat":36.581394,"lng":136.884694,"zip":"9391548"},{"town":"国広","koaza":"","lat":36.520803,"lng":136.886658,"zip":"9391846"},{"town":"久保","koaza":"","lat":36.547488,"lng":136.935274,"zip":"9391872"},{"town":"蔵原","koaza":"","lat":36.585659,"lng":136.833956,"zip":"9391614"},{"town":"来栖","koaza":"","lat":36.435305,"lng":136.936424,"zip":"9391925"},{"town":"小院瀬見","koaza":"","lat":36.493526,"lng":136.817435,"zip":"9391684"},{"town":"香城寺","koaza":"","lat":36.52772,"lng":136.821814,"zip":"9391674"},{"town":"楮","koaza":"","lat":36.363151,"lng":136.889543,"zip":"9391964"},{"town":"小来栖","koaza":"","lat":36.442101,"lng":136.94082,"zip":"9391926"},{"town":"小坂","koaza":"","lat":36.539058,"lng":136.858509,"zip":"9391671"},{"town":"小林","koaza":"","lat":36.548512,"lng":136.881438,"zip":"9391735"},{"town":"小二又","koaza":"","lat":36.512485,"lng":136.833246,"zip":"9391682"},{"town":"小山","koaza":"","lat":36.548177,"lng":136.835612,"zip":"9391665"},{"town":"五領","koaza":"","lat":36.559397,"lng":136.959899,"zip":"9320254"},{"town":"是安","koaza":"","lat":36.526477,"lng":136.903482,"zip":"9391852"},{"town":"才川七","koaza":"","lat":36.512235,"lng":136.81078,"zip":"9391681"},{"town":"西明","koaza":"","lat":36.503054,"lng":136.939401,"zip":"9391804"},{"town":"坂本","koaza":"","lat":36.558606,"lng":136.839512,"zip":"9391655"},{"town":"三清西","koaza":"","lat":36.566031,"lng":136.933783,"zip":"9391525"},{"town":"三清東","koaza":"","lat":36.557234,"lng":136.940633,"zip":"9320258"},{"town":"志観寺","koaza":"","lat":36.555022,"lng":136.970424,"zip":"9320243"},{"town":"寺家","koaza":"","lat":36.583525,"lng":136.914127,"zip":"9391532"},{"town":"寺家新屋敷","koaza":"","lat":36.592537,"lng":136.915449,"zip":"9391577"},{"town":"下島","koaza":"","lat":36.394137,"lng":136.870263,"zip":"9391978"},{"town":"下野","koaza":"","lat":36.549786,"lng":136.888114,"zip":"9391733"},{"town":"一日市","koaza":"","lat":36.558096,"lng":136.891031,"zip":"9391703"},{"town":"柴田屋","koaza":"","lat":36.595293,"lng":136.908526,"zip":"9391552"},{"town":"清水明","koaza":"","lat":36.588858,"lng":136.961533,"zip":"9320202"},{"town":"示野","koaza":"","lat":36.511287,"lng":136.891293,"zip":"9391845"},{"town":"下出","koaza":"","lat":36.400457,"lng":136.973164,"zip":"9391908"},{"town":"下梨","koaza":"","lat":36.443126,"lng":136.9631,"zip":"9391923"},{"town":"下吉江","koaza":"","lat":36.575699,"lng":136.897357,"zip":"9391543"},{"town":"蛇喰","koaza":"","lat":36.535822,"lng":136.938314,"zip":"9391874"},{"town":"城","koaza":"","lat":36.475613,"lng":136.974295,"zip":"9391861"},{"town":"障子倉","koaza":"","lat":36.483985,"lng":136.976119,"zip":"9391600"},{"town":"上津","koaza":"","lat":36.605475,"lng":136.904592,"zip":"9391551"},{"town":"城端","koaza":"","lat":36.513478,"lng":136.900353,"zip":"9391861"},{"town":"神宮寺","koaza":"","lat":36.547848,"lng":136.884706,"zip":"9391735"},{"town":"新邸","koaza":"","lat":36.5685,"lng":136.89425,"zip":"9391544"},{"town":"菅沼","koaza":"","lat":36.399578,"lng":136.886868,"zip":"9391973"},{"town":"寿川","koaza":"","lat":36.458708,"lng":136.993063,"zip":"9391903"},{"town":"杉尾","koaza":"","lat":36.474569,"lng":136.958839,"zip":"9391921"},{"town":"杉谷","koaza":"","lat":36.548348,"lng":137.002189,"zip":"9391600"},{"town":"砂子谷","koaza":"","lat":36.594815,"lng":136.810323,"zip":"9391603"},{"town":"清玄寺","koaza":"","lat":36.549918,"lng":136.964673,"zip":"9320245"},{"town":"瀬戸","koaza":"","lat":36.476909,"lng":136.883311,"zip":"9391826"},{"town":"専勝寺","koaza":"","lat":36.592873,"lng":136.95332,"zip":"9320207"},{"town":"千福","koaza":"","lat":36.51041,"lng":136.884991,"zip":"9391831"},{"town":"千福新","koaza":"","lat":36.510692,"lng":136.889083,"zip":"9391831"},{"town":"祖谷","koaza":"","lat":36.534806,"lng":136.817768,"zip":"9391675"},{"town":"祖山","koaza":"","lat":36.482067,"lng":136.993927,"zip":"9391901"},{"town":"高儀","koaza":"","lat":36.601203,"lng":136.931803,"zip":"9391506"},{"town":"高窪","koaza":"","lat":36.597618,"lng":136.795143,"zip":"9391602"},{"town":"高瀬","koaza":"","lat":36.57051,"lng":136.949109,"zip":"9320252"},{"town":"高草嶺","koaza":"","lat":36.444875,"lng":136.990496,"zip":"9391906"},{"town":"高堀","koaza":"","lat":36.59993,"lng":136.946107,"zip":"9391511"},{"town":"高宮","koaza":"","lat":36.545521,"lng":136.873123,"zip":"9391741"},{"town":"高屋","koaza":"","lat":36.595946,"lng":136.956449,"zip":"9320201"},{"town":"竹内","koaza":"","lat":36.549112,"lng":136.856918,"zip":"9391664"},{"town":"竹林","koaza":"","lat":36.546586,"lng":136.891793,"zip":"9391734"},{"town":"田尻","koaza":"","lat":36.455052,"lng":136.870592,"zip":"9391538"},{"town":"田代","koaza":"","lat":36.447809,"lng":136.945629,"zip":"9391600"},{"town":"舘","koaza":"","lat":36.541555,"lng":136.832932,"zip":"9391676"},{"town":"立野原西","koaza":"","lat":36.511795,"lng":136.869484,"zip":"9391755"},{"town":"立野原東","koaza":"","lat":36.508794,"lng":136.877103,"zip":"9391835"},{"town":"立野脇","koaza":"","lat":36.482038,"lng":136.820032,"zip":"9391766"},{"town":"田中","koaza":"","lat":36.562067,"lng":136.888384,"zip":"9391704"},{"town":"谷","koaza":"","lat":36.553747,"lng":136.960383,"zip":"9320242"},{"town":"田下","koaza":"","lat":36.397072,"lng":136.881409,"zip":"9391974"},{"town":"田向","koaza":"","lat":36.380037,"lng":136.945854,"zip":"9391913"},{"town":"田屋","koaza":"","lat":36.55937,"lng":136.922354,"zip":"9391537"},{"town":"長源寺","koaza":"","lat":36.602476,"lng":136.939117,"zip":"9391505"},{"town":"綱掛","koaza":"","lat":36.4898,"lng":136.831401,"zip":"9391765"},{"town":"坪野","koaza":"","lat":36.572136,"lng":136.966015,"zip":"9320218"},{"town":"出村","koaza":"","lat":36.532563,"lng":136.881254,"zip":"9391746"},{"town":"天神","koaza":"","lat":36.547955,"lng":136.865361,"zip":"9391661"},{"town":"戸板","koaza":"","lat":36.561786,"lng":136.956125,"zip":"9320253"},{"town":"東城寺","koaza":"","lat":36.548082,"lng":136.95761,"zip":"9320246"},{"town":"塔尾","koaza":"","lat":36.499904,"lng":136.881035,"zip":"9391832"},{"town":"刀利","koaza":"","lat":36.422242,"lng":136.812155,"zip":"9391766"},{"town":"利賀村","koaza":"","lat":36.460692,"lng":137.020731,"zip":"9392507"},{"town":"利賀村阿別当","koaza":"","lat":36.404119,"lng":137.011847,"zip":"9392517"},{"town":"利賀村新山","koaza":"","lat":36.497112,"lng":136.974449,"zip":"9391600"},{"town":"利賀村岩渕","koaza":"","lat":36.447627,"lng":137.022042,"zip":"9392508"},{"town":"利賀村上畠","koaza":"","lat":36.43505,"lng":137.010435,"zip":"9392514"},{"town":"利賀村大牧","koaza":"","lat":36.502987,"lng":137.003506,"zip":"9320371"},{"town":"利賀村大豆谷","koaza":"","lat":36.467236,"lng":137.031869,"zip":"9392506"},{"town":"利賀村押場","koaza":"","lat":36.480491,"lng":137.019057,"zip":"9392504"},{"town":"利賀村上百瀬","koaza":"","lat":36.395283,"lng":137.037205,"zip":"9392513"},{"town":"利賀村北島","koaza":"","lat":36.448006,"lng":137.011827,"zip":"9392509"},{"town":"利賀村北原","koaza":"","lat":36.533558,"lng":136.997856,"zip":"9320371"},{"town":"利賀村北豆谷","koaza":"","lat":36.481609,"lng":137.036182,"zip":"9392505"},{"town":"利賀村栗当","koaza":"","lat":36.534596,"lng":137.02379,"zip":"9392501"},{"town":"利賀村坂上","koaza":"","lat":36.424051,"lng":137.010744,"zip":"9392516"},{"town":"利賀村下原","koaza":"","lat":36.535597,"lng":136.987451,"zip":"9320371"},{"town":"利賀村仙野原","koaza":"","lat":36.519209,"lng":137.015409,"zip":"9391600"},{"town":"利賀村草嶺","koaza":"","lat":36.493186,"lng":137.023109,"zip":"9392503"},{"town":"利賀村大勘場","koaza":"","lat":36.377459,"lng":136.992876,"zip":"9392518"},{"town":"利賀村高沼","koaza":"","lat":36.513287,"lng":137.027342,"zip":"9392502"},{"town":"利賀村栃原","koaza":"","lat":36.516701,"lng":136.979045,"zip":"9320371"},{"town":"利賀村長崎","koaza":"","lat":36.515863,"lng":136.998493,"zip":"9320371"},{"town":"利賀村細島","koaza":"","lat":36.444072,"lng":137.004914,"zip":"9392515"},{"town":"利賀村水無","koaza":"","lat":36.323698,"lng":136.987475,"zip":"9392519"},{"town":"利賀村百瀬川","koaza":"","lat":36.471745,"lng":137.051062,"zip":"9392511"},{"town":"利屋","koaza":"","lat":36.589957,"lng":136.945651,"zip":"9320206"},{"town":"徳成","koaza":"","lat":36.54298,"lng":136.912352,"zip":"9391722"},{"town":"殿","koaza":"","lat":36.53586,"lng":136.864216,"zip":"9391758"},{"town":"利波河","koaza":"","lat":36.542518,"lng":136.91681,"zip":"9391723"},{"town":"渡原","koaza":"","lat":36.46706,"lng":136.941373,"zip":"9391922"},{"town":"土山","koaza":"","lat":36.58113,"lng":136.802493,"zip":"9391604"},{"town":"中尾","koaza":"","lat":36.500034,"lng":136.887476,"zip":"9391828"},{"town":"中ノ江","koaza":"","lat":36.56602,"lng":136.86396,"zip":"9391625"},{"town":"中畑","koaza":"","lat":36.432392,"lng":136.932545,"zip":"9391924"},{"town":"梨谷","koaza":"","lat":36.452069,"lng":136.930379,"zip":"9391927"},{"town":"夏焼","koaza":"","lat":36.431654,"lng":136.986106,"zip":"9391907"},{"town":"七曲","koaza":"","lat":36.499219,"lng":136.857668,"zip":"9391762"},{"town":"七村","koaza":"","lat":36.592912,"lng":136.859245,"zip":"9391555"},{"town":"成出","koaza":"","lat":36.350148,"lng":136.882555,"zip":"9391963"},{"town":"縄蔵","koaza":"","lat":36.532323,"lng":136.885939,"zip":"9391745"},{"town":"西赤尾町","koaza":"","lat":36.38342,"lng":136.851164,"zip":"9391977"},{"town":"西原","koaza":"","lat":36.492771,"lng":136.866267,"zip":"9391837"},{"town":"年代","koaza":"","lat":36.588825,"lng":136.937673,"zip":"9391514"},{"town":"野口","koaza":"","lat":36.507327,"lng":136.890712,"zip":"9391844"},{"town":"苗島","koaza":"","lat":36.586684,"lng":136.929784,"zip":"9391521"},{"town":"野尻","koaza":"","lat":36.60425,"lng":136.917388,"zip":"9391502"},{"town":"野尻野","koaza":"","lat":36.594534,"lng":136.935298,"zip":"9391513"},{"town":"野新","koaza":"","lat":36.580532,"lng":136.935236,"zip":"9391522"},{"town":"野田","koaza":"","lat":36.520175,"lng":136.898063,"zip":"9391842"},{"town":"野能原","koaza":"","lat":36.577525,"lng":136.949668,"zip":"9320251"},{"town":"野原","koaza":"","lat":36.571685,"lng":136.93583,"zip":"9391523"},{"town":"信末","koaza":"","lat":36.535559,"lng":136.908882,"zip":"9391851"},{"town":"能美","koaza":"","lat":36.573295,"lng":136.796739,"zip":"9391606"},{"town":"八幡","koaza":"","lat":36.566531,"lng":136.876009,"zip":"9391624"},{"town":"土生","koaza":"","lat":36.505589,"lng":136.810443,"zip":"9391757"},{"town":"土生新","koaza":"","lat":36.514567,"lng":136.858444,"zip":"9391756"},{"town":"晩田","koaza":"","lat":36.593038,"lng":136.897623,"zip":"9391541"},{"town":"東赤尾","koaza":"","lat":36.375467,"lng":136.891937,"zip":"9391966"},{"town":"東石田","koaza":"","lat":36.56739,"lng":136.92454,"zip":"9391536"},{"town":"東中江","koaza":"","lat":36.444844,"lng":136.971629,"zip":"9391905"},{"town":"東西原","koaza":"","lat":36.507993,"lng":136.945032,"zip":"9391803"},{"town":"久戸","koaza":"","lat":36.564373,"lng":136.910123,"zip":"9391712"},{"town":"飛騨屋","koaza":"","lat":36.583545,"lng":136.953448,"zip":"9320204"},{"town":"人母","koaza":"","lat":36.608376,"lng":136.805116,"zip":"9391601"},{"town":"樋瀬戸","koaza":"","lat":36.48302,"lng":136.84405,"zip":"9391763"},{"town":"百町","koaza":"","lat":36.589695,"lng":136.931771,"zip":"9391517"},{"town":"広谷","koaza":"","lat":36.527482,"lng":136.841053,"zip":"9391672"},{"town":"広安","koaza":"","lat":36.567797,"lng":136.917156,"zip":"9391534"},{"town":"福野","koaza":"","lat":36.590669,"lng":136.923176,"zip":"9391561"},{"town":"福野軸屋","koaza":"","lat":36.583705,"lng":136.940426,"zip":"9391515"},{"town":"福光","koaza":"","lat":36.559973,"lng":136.867121,"zip":"9391610"},{"town":"福光新町","koaza":"","lat":36.556865,"lng":136.871987,"zip":"9391652"},{"town":"藤橋","koaza":"","lat":36.558701,"lng":136.970385,"zip":"9320224"},{"town":"二日町","koaza":"","lat":36.598257,"lng":136.921005,"zip":"9391507"},{"town":"太美","koaza":"","lat":36.501268,"lng":136.844328,"zip":"9391761"},{"town":"太美舘","koaza":"","lat":36.491692,"lng":136.844986,"zip":"9391600"},{"town":"法林寺","koaza":"","lat":36.569646,"lng":136.843141,"zip":"9391626"},{"town":"細木","koaza":"","lat":36.527501,"lng":136.893794,"zip":"9391841"},{"town":"細野","koaza":"","lat":36.509473,"lng":136.925481,"zip":"9391805"},{"town":"布袋","koaza":"","lat":36.579608,"lng":136.893612,"zip":"9391545"},{"town":"本江","koaza":"","lat":36.615048,"lng":136.913202,"zip":"9391501"},{"town":"本町一丁目","koaza":"","lat":36.562036,"lng":136.970178,"zip":"9320217"},{"town":"本町二丁目","koaza":"","lat":36.563105,"lng":136.969789,"zip":"9320217"},{"town":"本町三丁目","koaza":"","lat":36.564297,"lng":136.969828,"zip":"9320217"},{"town":"本町四丁目","koaza":"","lat":36.566444,"lng":136.970016,"zip":"9320217"},{"town":"前田","koaza":"","lat":36.589994,"lng":136.891659,"zip":"9391549"},{"town":"真木","koaza":"","lat":36.374355,"lng":136.876323,"zip":"9391965"},{"town":"正谷","koaza":"","lat":36.482455,"lng":136.93047,"zip":"9391813"},{"town":"松島","koaza":"","lat":36.558611,"lng":136.976306,"zip":"9320223"},{"town":"松木","koaza":"","lat":36.570281,"lng":136.874379,"zip":"9391623"},{"town":"松原","koaza":"","lat":36.595274,"lng":136.929344,"zip":"9391518"},{"town":"松原新","koaza":"","lat":36.589222,"lng":136.919393,"zip":"9391571"},{"town":"見座","koaza":"","lat":36.425323,"lng":136.939746,"zip":"9391916"},{"town":"三ツ屋","koaza":"","lat":36.582604,"lng":136.891464,"zip":"9391547"},{"town":"蓑谷","koaza":"","lat":36.498607,"lng":136.924632,"zip":"9391812"},{"town":"宮後","koaza":"","lat":36.547593,"lng":136.923466,"zip":"9391879"},{"town":"葎島","koaza":"","lat":36.409442,"lng":136.907101,"zip":"9391972"},{"town":"森","koaza":"","lat":36.576789,"lng":136.888942,"zip":"9391546"},{"town":"森清","koaza":"","lat":36.557546,"lng":136.933833,"zip":"9391527"},{"town":"盛新","koaza":"","lat":36.490595,"lng":136.890128,"zip":"9391827"},{"town":"やかた","koaza":"","lat":36.591108,"lng":136.917924,"zip":"9391576"},{"town":"焼野","koaza":"","lat":36.579245,"lng":136.941666,"zip":"9391516"},{"town":"安居","koaza":"","lat":36.596377,"lng":136.881731,"zip":"9391554"},{"town":"安清","koaza":"","lat":36.558068,"lng":136.928875,"zip":"9391528"},{"town":"八塚","koaza":"","lat":36.579087,"lng":136.923986,"zip":"9391533"},{"town":"山下","koaza":"","lat":36.563924,"lng":136.971413,"zip":"9320215"},{"town":"山田","koaza":"","lat":36.530848,"lng":136.890731,"zip":"9391747"},{"town":"山斐","koaza":"","lat":36.579018,"lng":136.967382,"zip":"9320212"},{"town":"山見","koaza":"","lat":36.561698,"lng":136.964271,"zip":"9320231"},{"town":"山本","koaza":"","lat":36.553051,"lng":136.82851,"zip":"9391666"},{"town":"湯谷","koaza":"","lat":36.578126,"lng":136.820864,"zip":"9391615"},{"town":"吉江中","koaza":"","lat":36.570882,"lng":136.890857,"zip":"9391702"},{"town":"吉江野","koaza":"","lat":36.53995,"lng":136.879981,"zip":"9391742"},{"town":"吉見","koaza":"","lat":36.478811,"lng":136.831805,"zip":"9391764"},{"town":"嫁兼","koaza":"","lat":36.503674,"lng":136.852817,"zip":"9391754"},{"town":"理休","koaza":"","lat":36.511174,"lng":136.908245,"zip":"9391811"},{"town":"林道","koaza":"","lat":36.476102,"lng":136.917623,"zip":"9391822"},{"town":"連代寺","koaza":"","lat":36.551587,"lng":136.96644,"zip":"9320244"},{"town":"神成","koaza":"","lat":36.560103,"lng":136.91286,"zip":"9391713"},{"town":"宗守","koaza":"","lat":36.556796,"lng":136.906474,"zip":"9391715"},{"town":"高畠","koaza":"","lat":36.554664,"lng":136.914734,"zip":"9391714"},{"town":"東殿","koaza":"","lat":36.549034,"lng":136.914168,"zip":"9391721"},{"town":"鍛治","koaza":"","lat":36.547512,"lng":136.904234,"zip":"9391725"},{"town":"福光","koaza":"荒町","lat":36.559442,"lng":136.869629,"zip":"9391610"},{"town":"福光","koaza":"本町","lat":36.558947,"lng":136.871885,"zip":"9391610"},{"town":"安居","koaza":"ト","lat":36.603368,"lng":136.887027,"zip":"9391554"},{"town":"大鋸屋","koaza":"大谷島","lat":36.487088,"lng":136.894508,"zip":"9391824"},{"town":"城端","koaza":"大工町","lat":36.51488,"lng":136.902091,"zip":"9391861"}]