[{"town":"相生町","koaza":"","lat":36.685821,"lng":137.207233,"zip":"9300075"},{"town":"綾田町一丁目","koaza":"","lat":36.702108,"lng":137.236682,"zip":"9300845"},{"town":"綾田町二丁目","koaza":"","lat":36.6989,"lng":137.234088,"zip":"9300845"},{"town":"綾田町三丁目","koaza":"","lat":36.69656,"lng":137.235293,"zip":"9300845"},{"town":"青柳","koaza":"","lat":36.610593,"lng":137.242509,"zip":"9398162"},{"town":"青柳新","koaza":"","lat":36.612286,"lng":137.230118,"zip":"9398163"},{"town":"赤江町","koaza":"","lat":36.701281,"lng":137.218752,"zip":"9300855"},{"town":"赤倉","koaza":"","lat":36.552306,"lng":137.325249,"zip":"9390000"},{"town":"赤田","koaza":"","lat":36.653456,"lng":137.219063,"zip":"9398064"},{"town":"秋ヶ島","koaza":"","lat":36.645287,"lng":137.191462,"zip":"9390000"},{"town":"秋吉","koaza":"","lat":36.682065,"lng":137.245168,"zip":"9300953"},{"town":"秋吉新町","koaza":"","lat":36.679675,"lng":137.241968,"zip":"9300954"},{"town":"悪王寺","koaza":"","lat":36.632593,"lng":137.217506,"zip":"9398182"},{"town":"曙町","koaza":"","lat":36.69965,"lng":137.22443,"zip":"9300847"},{"town":"朝日","koaza":"","lat":36.684448,"lng":137.278033,"zip":"9300931"},{"town":"旭町","koaza":"","lat":36.686068,"lng":137.228201,"zip":"9398091"},{"town":"芦生","koaza":"","lat":36.541608,"lng":137.24092,"zip":"9392161"},{"town":"安住町","koaza":"","lat":36.695503,"lng":137.209567,"zip":"9300094"},{"town":"愛宕町一丁目","koaza":"","lat":36.699121,"lng":137.206516,"zip":"9300091"},{"town":"愛宕町二丁目","koaza":"","lat":36.698199,"lng":137.206228,"zip":"9300091"},{"town":"荒川","koaza":"","lat":36.68919,"lng":137.256609,"zip":"9300982"},{"town":"荒川一丁目","koaza":"","lat":36.700163,"lng":137.247269,"zip":"9300982"},{"town":"荒川二丁目","koaza":"","lat":36.697671,"lng":137.248801,"zip":"9300982"},{"town":"荒川三丁目","koaza":"","lat":36.695476,"lng":137.247667,"zip":"9300982"},{"town":"荒川四丁目","koaza":"","lat":36.693627,"lng":137.246795,"zip":"9300982"},{"town":"荒川五丁目","koaza":"","lat":36.694967,"lng":137.251694,"zip":"9300982"},{"town":"荒川新町","koaza":"","lat":36.693536,"lng":137.24972,"zip":"9300984"},{"town":"荒町","koaza":"","lat":36.690957,"lng":137.215875,"zip":"9300028"},{"town":"新町","koaza":"","lat":36.591909,"lng":137.316969,"zip":"9301321"},{"town":"新屋","koaza":"","lat":36.723422,"lng":137.252153,"zip":"9300822"},{"town":"有沢","koaza":"","lat":36.68376,"lng":137.192166,"zip":"9300862"},{"town":"有沢新町","koaza":"","lat":36.687506,"lng":137.190516,"zip":"9300861"},{"town":"有峰","koaza":"","lat":36.47195,"lng":137.518958,"zip":"9301458"},{"town":"粟島町一丁目","koaza":"","lat":36.724309,"lng":137.227712,"zip":"9318314"},{"town":"粟島町二丁目","koaza":"","lat":36.722866,"lng":137.230212,"zip":"9318314"},{"town":"粟島町三丁目","koaza":"","lat":36.720056,"lng":137.228534,"zip":"9318314"},{"town":"安蔵","koaza":"","lat":36.565851,"lng":137.32485,"zip":"9390000"},{"town":"安養寺","koaza":"","lat":36.627044,"lng":137.211446,"zip":"9398177"},{"town":"安養坊","koaza":"","lat":36.709167,"lng":137.189062,"zip":"9300881"},{"town":"飯野","koaza":"","lat":36.718792,"lng":137.253613,"zip":"9300821"},{"town":"庵谷","koaza":"","lat":36.504739,"lng":137.215814,"zip":"9392185"},{"town":"池多","koaza":"","lat":36.678312,"lng":137.124335,"zip":"9300158"},{"town":"石金一丁目","koaza":"","lat":36.689758,"lng":137.234648,"zip":"9300966"},{"town":"石金二丁目","koaza":"","lat":36.687362,"lng":137.234295,"zip":"9300966"},{"town":"石金三丁目","koaza":"","lat":36.686042,"lng":137.237504,"zip":"9300966"},{"town":"石倉町","koaza":"","lat":36.690536,"lng":137.222138,"zip":"9300043"},{"town":"石坂","koaza":"","lat":36.712668,"lng":137.202498,"zip":"9300892"},{"town":"石坂新","koaza":"","lat":36.716019,"lng":137.199809,"zip":"9300891"},{"town":"石坂東町","koaza":"","lat":36.710128,"lng":137.204699,"zip":"9300893"},{"town":"石田","koaza":"","lat":36.64211,"lng":137.227808,"zip":"9398193"},{"town":"石渕","koaza":"","lat":36.556826,"lng":137.271466,"zip":"9301271"},{"town":"石屋","koaza":"","lat":36.654752,"lng":137.257497,"zip":"9398121"},{"town":"泉町一丁目","koaza":"","lat":36.692005,"lng":137.223571,"zip":"9300042"},{"town":"泉町二丁目","koaza":"","lat":36.690968,"lng":137.223685,"zip":"9300042"},{"town":"磯部町一丁目","koaza":"","lat":36.689427,"lng":137.200965,"zip":"9300077"},{"town":"磯部町二丁目","koaza":"","lat":36.687399,"lng":137.202734,"zip":"9300077"},{"town":"磯部町三丁目","koaza":"","lat":36.685761,"lng":137.202692,"zip":"9300077"},{"town":"磯部町四丁目","koaza":"","lat":36.683985,"lng":137.202936,"zip":"9300077"},{"town":"市場","koaza":"","lat":36.570805,"lng":137.240759,"zip":"9392211"},{"town":"一番町","koaza":"","lat":36.688591,"lng":137.212192,"zip":"9300061"},{"town":"一本木","koaza":"","lat":36.715496,"lng":137.270044,"zip":"9300904"},{"town":"稲代","koaza":"","lat":36.572614,"lng":137.194961,"zip":"9392231"},{"town":"稲荷園町","koaza":"","lat":36.698884,"lng":137.229395,"zip":"9300849"},{"town":"稲荷町一丁目","koaza":"","lat":36.694986,"lng":137.226346,"zip":"9300012"},{"town":"稲荷町二丁目","koaza":"","lat":36.695084,"lng":137.229065,"zip":"9300012"},{"town":"稲荷町三丁目","koaza":"","lat":36.695025,"lng":137.231664,"zip":"9300012"},{"town":"稲荷町四丁目","koaza":"","lat":36.695959,"lng":137.233315,"zip":"9300012"},{"town":"稲荷元町一丁目","koaza":"","lat":36.696976,"lng":137.226916,"zip":"9300010"},{"town":"稲荷元町二丁目","koaza":"","lat":36.696721,"lng":137.229481,"zip":"9300010"},{"town":"稲荷元町三丁目","koaza":"","lat":36.700114,"lng":137.228206,"zip":"9300010"},{"town":"犬島一丁目","koaza":"","lat":36.738539,"lng":137.228392,"zip":"9318321"},{"town":"犬島二丁目","koaza":"","lat":36.737881,"lng":137.233266,"zip":"9318321"},{"town":"犬島三丁目","koaza":"","lat":36.735752,"lng":137.234603,"zip":"9318321"},{"town":"犬島四丁目","koaza":"","lat":36.736107,"lng":137.23142,"zip":"9318321"},{"town":"犬島五丁目","koaza":"","lat":36.734228,"lng":137.232115,"zip":"9318321"},{"town":"犬島六丁目","koaza":"","lat":36.733273,"lng":137.233503,"zip":"9318321"},{"town":"犬島七丁目","koaza":"","lat":36.732512,"lng":137.23418,"zip":"9318321"},{"town":"犬島新町一丁目","koaza":"","lat":36.736304,"lng":137.22817,"zip":"9318328"},{"town":"犬島新町二丁目","koaza":"","lat":36.734981,"lng":137.229326,"zip":"9318328"},{"town":"猪谷","koaza":"","lat":36.467163,"lng":137.220638,"zip":"9392187"},{"town":"今泉","koaza":"","lat":36.669113,"lng":137.21373,"zip":"9398075"},{"town":"今泉西部町","koaza":"","lat":36.671312,"lng":137.209465,"zip":"9398281"},{"town":"今泉北部町","koaza":"","lat":36.67274,"lng":137.212058,"zip":"9398282"},{"town":"今市","koaza":"","lat":36.746946,"lng":137.198298,"zip":"9302221"},{"town":"今木町","koaza":"","lat":36.695282,"lng":137.2172,"zip":"9300021"},{"town":"今生津","koaza":"","lat":36.532044,"lng":137.246885,"zip":"9392162"},{"town":"岩稲","koaza":"","lat":36.548773,"lng":137.222872,"zip":"9392182"},{"town":"岩木","koaza":"","lat":36.580378,"lng":137.18336,"zip":"9392246"},{"town":"岩木新","koaza":"","lat":36.580338,"lng":137.186564,"zip":"9392247"},{"town":"岩瀬赤田町","koaza":"","lat":36.753216,"lng":137.235056,"zip":"9318374"},{"town":"岩瀬天池町","koaza":"","lat":36.759824,"lng":137.240141,"zip":"9318372"},{"town":"岩瀬池田町","koaza":"","lat":36.756616,"lng":137.236135,"zip":"9318376"},{"town":"岩瀬入船町","koaza":"","lat":36.760422,"lng":137.229195,"zip":"9318365"},{"town":"岩瀬梅本町","koaza":"","lat":36.758378,"lng":137.230556,"zip":"9318362"},{"town":"岩瀬御蔵町","koaza":"","lat":36.753443,"lng":137.23035,"zip":"9318341"},{"town":"岩瀬表町","koaza":"","lat":36.756527,"lng":137.230465,"zip":"9318352"},{"town":"岩瀬古志町","koaza":"","lat":36.761358,"lng":137.236702,"zip":"9318371"},{"town":"岩瀬諏訪町","koaza":"","lat":36.762956,"lng":137.230258,"zip":"9318377"},{"town":"岩瀬高畠町","koaza":"","lat":36.751219,"lng":137.232526,"zip":"9318375"},{"town":"岩瀬天神町","koaza":"","lat":36.762677,"lng":137.234006,"zip":"9318378"},{"town":"岩瀬萩浦町","koaza":"","lat":36.760191,"lng":137.230167,"zip":"9318366"},{"town":"岩瀬白山町","koaza":"","lat":36.757469,"lng":137.232759,"zip":"9318361"},{"town":"岩瀬文化町","koaza":"","lat":36.755761,"lng":137.231614,"zip":"9318353"},{"town":"岩瀬前田町","koaza":"","lat":36.755447,"lng":137.239614,"zip":"9318373"},{"town":"岩瀬松原町","koaza":"","lat":36.759598,"lng":137.231062,"zip":"9318367"},{"town":"岩瀬港町","koaza":"","lat":36.758944,"lng":137.228439,"zip":"9318364"},{"town":"牛ケ増","koaza":"","lat":36.552687,"lng":137.227491,"zip":"9392213"},{"town":"牛島新町","koaza":"","lat":36.702671,"lng":137.217113,"zip":"9300856"},{"town":"牛島町","koaza":"","lat":36.703405,"lng":137.214224,"zip":"9300858"},{"town":"牛島本町一丁目","koaza":"","lat":36.705885,"lng":137.21143,"zip":"9300859"},{"town":"牛島本町二丁目","koaza":"","lat":36.708727,"lng":137.208813,"zip":"9300859"},{"town":"薄波","koaza":"","lat":36.510342,"lng":137.263083,"zip":"9392171"},{"town":"打出","koaza":"","lat":36.752779,"lng":137.183536,"zip":"9302237"},{"town":"打出新","koaza":"","lat":36.757123,"lng":137.181043,"zip":"9302238"},{"town":"内幸町","koaza":"","lat":36.697432,"lng":137.210311,"zip":"9300093"},{"town":"馬瀬","koaza":"","lat":36.565879,"lng":137.279111,"zip":"9301284"},{"town":"梅沢町一丁目","koaza":"","lat":36.684861,"lng":137.218273,"zip":"9300055"},{"town":"梅沢町二丁目","koaza":"","lat":36.682977,"lng":137.218725,"zip":"9300055"},{"town":"梅沢町三丁目","koaza":"","lat":36.684221,"lng":137.22055,"zip":"9300055"},{"town":"上野","koaza":"","lat":36.640761,"lng":137.218146,"zip":"9398195"},{"town":"上野寿町","koaza":"","lat":36.63781,"lng":137.215549,"zip":"9398197"},{"town":"上野新","koaza":"","lat":36.738126,"lng":137.222419,"zip":"9318327"},{"town":"上野新町","koaza":"","lat":36.735011,"lng":137.224851,"zip":"9318326"},{"town":"永楽町","koaza":"","lat":36.703907,"lng":137.221417,"zip":"9300853"},{"town":"越前町","koaza":"","lat":36.68868,"lng":137.21054,"zip":"9300067"},{"town":"江本","koaza":"","lat":36.618547,"lng":137.237831,"zip":"9398155"},{"town":"荏原新町","koaza":"","lat":36.695047,"lng":137.264688,"zip":"9300913"},{"town":"蛯町","koaza":"","lat":36.691163,"lng":137.216839,"zip":"9300027"},{"town":"追分茶屋","koaza":"","lat":36.706564,"lng":137.169057,"zip":"9300116"},{"town":"大井","koaza":"","lat":36.610034,"lng":137.247817,"zip":"9398145"},{"town":"大泉","koaza":"","lat":36.674504,"lng":137.226839,"zip":"9398058"},{"town":"大泉北町","koaza":"","lat":36.682781,"lng":137.22589,"zip":"9398097"},{"town":"大泉中町","koaza":"","lat":36.680212,"lng":137.226531,"zip":"9398095"},{"town":"大泉東町一丁目","koaza":"","lat":36.682353,"lng":137.228473,"zip":"9398093"},{"town":"大泉東町二丁目","koaza":"","lat":36.678701,"lng":137.228555,"zip":"9398093"},{"town":"大泉本町一丁目","koaza":"","lat":36.677471,"lng":137.224247,"zip":"9398094"},{"town":"大泉本町二丁目","koaza":"","lat":36.675999,"lng":137.22465,"zip":"9398094"},{"town":"大泉町一丁目","koaza":"","lat":36.682434,"lng":137.221669,"zip":"9398087"},{"town":"大泉町二丁目","koaza":"","lat":36.682597,"lng":137.223602,"zip":"9398087"},{"town":"大泉町三丁目","koaza":"","lat":36.684351,"lng":137.224006,"zip":"9398087"},{"town":"大江干","koaza":"","lat":36.693235,"lng":137.266574,"zip":"9300922"},{"town":"大江干新町","koaza":"","lat":36.69254,"lng":137.263775,"zip":"9300927"},{"town":"大栗","koaza":"","lat":36.612076,"lng":137.280313,"zip":"9301327"},{"town":"大島一丁目","koaza":"","lat":36.663401,"lng":137.277126,"zip":"9398025"},{"town":"大島二丁目","koaza":"","lat":36.67337,"lng":137.271994,"zip":"9398025"},{"town":"大島三丁目","koaza":"","lat":36.667648,"lng":137.280711,"zip":"9398025"},{"town":"大島四丁目","koaza":"","lat":36.671942,"lng":137.277984,"zip":"9398025"},{"town":"大清水","koaza":"","lat":36.528027,"lng":137.269158,"zip":"9301275"},{"town":"大双嶺","koaza":"","lat":36.522509,"lng":137.289101,"zip":"9301274"},{"town":"太田","koaza":"","lat":36.662945,"lng":137.242178,"zip":"9398048"},{"town":"太田薄波","koaza":"","lat":36.498352,"lng":137.267686,"zip":"9392171"},{"town":"太田口通り一丁目","koaza":"","lat":36.687504,"lng":137.21469,"zip":"9300063"},{"town":"太田口通り二丁目","koaza":"","lat":36.685966,"lng":137.214985,"zip":"9300063"},{"town":"太田口通り三丁目","koaza":"","lat":36.684722,"lng":137.215152,"zip":"9300063"},{"town":"於保多町","koaza":"","lat":36.69402,"lng":137.226409,"zip":"9300015"},{"town":"太田南町","koaza":"","lat":36.656383,"lng":137.244544,"zip":"9398044"},{"town":"大塚","koaza":"","lat":36.730484,"lng":137.16163,"zip":"9300107"},{"town":"大塚北","koaza":"","lat":36.737503,"lng":137.16429,"zip":"9300107"},{"town":"大塚西","koaza":"","lat":36.730832,"lng":137.15795,"zip":"9300107"},{"town":"大塚東","koaza":"","lat":36.734882,"lng":137.166383,"zip":"9300107"},{"town":"大塚南","koaza":"","lat":36.7267,"lng":137.161024,"zip":"9300107"},{"town":"大手町","koaza":"","lat":36.691012,"lng":137.211534,"zip":"9300084"},{"town":"大野","koaza":"","lat":36.579712,"lng":137.216724,"zip":"9392207"},{"town":"大場","koaza":"","lat":36.65047,"lng":137.277234,"zip":"9398103"},{"town":"大町","koaza":"","lat":36.668031,"lng":137.222892,"zip":"9398073"},{"town":"大宮町","koaza":"","lat":36.660908,"lng":137.250354,"zip":"9398035"},{"town":"大山上野","koaza":"","lat":36.600555,"lng":137.310761,"zip":"9301321"},{"town":"大山北新町","koaza":"","lat":36.613111,"lng":137.30273,"zip":"9301311"},{"town":"大山布目","koaza":"","lat":36.588436,"lng":137.286964,"zip":"9301264"},{"town":"大山松木","koaza":"","lat":36.569664,"lng":137.343259,"zip":"9301466"},{"town":"岡田","koaza":"","lat":36.579256,"lng":137.330158,"zip":"9301322"},{"town":"奥井町","koaza":"","lat":36.703339,"lng":137.22579,"zip":"9300846"},{"town":"奥田寿町","koaza":"","lat":36.705765,"lng":137.219996,"zip":"9300852"},{"town":"奥田新町","koaza":"","lat":36.705496,"lng":137.217277,"zip":"9300857"},{"town":"奥田双葉町","koaza":"","lat":36.708243,"lng":137.219281,"zip":"9300851"},{"town":"奥田本町","koaza":"","lat":36.713744,"lng":137.22129,"zip":"9300819"},{"town":"奥田町","koaza":"","lat":36.710831,"lng":137.22005,"zip":"9300818"},{"town":"奥山","koaza":"","lat":36.481137,"lng":137.29988,"zip":"9390000"},{"town":"小黒","koaza":"","lat":36.604968,"lng":137.226201,"zip":"9392202"},{"town":"小佐波","koaza":"","lat":36.554675,"lng":137.255733,"zip":"9301286"},{"town":"押上","koaza":"","lat":36.612598,"lng":137.186633,"zip":"9398243"},{"town":"小谷","koaza":"","lat":36.570288,"lng":137.298661,"zip":"9301265"},{"town":"音羽町一丁目","koaza":"","lat":36.689726,"lng":137.227784,"zip":"9300037"},{"town":"音羽町二丁目","koaza":"","lat":36.689918,"lng":137.229974,"zip":"9300037"},{"town":"小原","koaza":"","lat":36.524618,"lng":137.346525,"zip":"9301328"},{"town":"小原屋","koaza":"","lat":36.614958,"lng":137.2851,"zip":"9301328"},{"town":"小見","koaza":"","lat":36.559412,"lng":137.385976,"zip":"9301456"},{"town":"雄山町","koaza":"","lat":36.684489,"lng":137.228121,"zip":"9398092"},{"town":"折谷","koaza":"","lat":36.540429,"lng":137.267794,"zip":"9301276"},{"town":"隠土","koaza":"","lat":36.561378,"lng":137.338802,"zip":"9390000"},{"town":"海岸通","koaza":"","lat":36.757998,"lng":137.2509,"zip":"9318405"},{"town":"開発","koaza":"","lat":36.631827,"lng":137.247743,"zip":"9398137"},{"town":"加賀沢","koaza":"","lat":36.443882,"lng":137.211063,"zip":"9392189"},{"town":"掛尾栄町","koaza":"","lat":36.667628,"lng":137.207264,"zip":"9398215"},{"town":"掛尾町","koaza":"","lat":36.664432,"lng":137.209706,"zip":"9398212"},{"town":"鹿島町一丁目","koaza":"","lat":36.691183,"lng":137.204164,"zip":"9300086"},{"town":"鹿島町二丁目","koaza":"","lat":36.689111,"lng":137.204661,"zip":"9300086"},{"town":"春日","koaza":"","lat":36.563817,"lng":137.203561,"zip":"9392224"},{"town":"片掛","koaza":"","lat":36.495899,"lng":137.225599,"zip":"9392186"},{"town":"金代","koaza":"","lat":36.688975,"lng":137.260456,"zip":"9300926"},{"town":"金屋","koaza":"","lat":36.690421,"lng":137.164291,"zip":"9300873"},{"town":"金山新","koaza":"","lat":36.740773,"lng":137.207482,"zip":"9302206"},{"town":"金山新北","koaza":"","lat":36.744896,"lng":137.205138,"zip":"9302206"},{"town":"金山新桜ヶ丘","koaza":"","lat":36.740204,"lng":137.217203,"zip":"9390000"},{"town":"金山新中","koaza":"","lat":36.738715,"lng":137.205564,"zip":"9302206"},{"town":"金山新西","koaza":"","lat":36.742443,"lng":137.20159,"zip":"9302206"},{"town":"金山新東","koaza":"","lat":36.737903,"lng":137.217055,"zip":"9302205"},{"town":"金山新南","koaza":"","lat":36.731403,"lng":137.214589,"zip":"9302206"},{"town":"蟹寺","koaza":"","lat":36.456481,"lng":137.232663,"zip":"9392188"},{"town":"加納","koaza":"","lat":36.580511,"lng":137.192276,"zip":"9392245"},{"town":"上赤江","koaza":"","lat":36.708268,"lng":137.237139,"zip":"9300837"},{"town":"上赤江町一丁目","koaza":"","lat":36.709542,"lng":137.233946,"zip":"9300816"},{"town":"上赤江町二丁目","koaza":"","lat":36.711715,"lng":137.230353,"zip":"9300816"},{"town":"上飯野","koaza":"","lat":36.709523,"lng":137.2495,"zip":"9300827"},{"town":"上飯野新町一丁目","koaza":"","lat":36.713472,"lng":137.253862,"zip":"9300825"},{"town":"上飯野新町二丁目","koaza":"","lat":36.713353,"lng":137.255662,"zip":"9300825"},{"town":"上飯野新町五丁目","koaza":"","lat":36.713263,"lng":137.252513,"zip":"9300825"},{"town":"上今町","koaza":"","lat":36.605486,"lng":137.252479,"zip":"9398144"},{"town":"上大浦","koaza":"","lat":36.607242,"lng":137.275118,"zip":"9301333"},{"town":"上大久保","koaza":"","lat":36.591116,"lng":137.208162,"zip":"9392252"},{"town":"上熊野","koaza":"","lat":36.621344,"lng":137.22307,"zip":"9398166"},{"town":"上栄","koaza":"","lat":36.629784,"lng":137.237246,"zip":"9398151"},{"town":"上庄町","koaza":"","lat":36.706506,"lng":137.252503,"zip":"9300826"},{"town":"上新保","koaza":"","lat":36.652561,"lng":137.237429,"zip":"9398061"},{"town":"上千俵町","koaza":"","lat":36.621129,"lng":137.250175,"zip":"9398134"},{"town":"上滝","koaza":"","lat":36.61036,"lng":137.304078,"zip":"9301312"},{"town":"上布目","koaza":"","lat":36.610557,"lng":137.255957,"zip":"9398143"},{"town":"上袋","koaza":"","lat":36.659005,"lng":137.213869,"zip":"9398071"},{"town":"上冨居","koaza":"","lat":36.712125,"lng":137.238967,"zip":"9300835"},{"town":"上冨居一丁目","koaza":"","lat":36.70504,"lng":137.241797,"zip":"9300835"},{"town":"上冨居二丁目","koaza":"","lat":36.70888,"lng":137.243209,"zip":"9300835"},{"town":"上冨居三丁目","koaza":"","lat":36.708825,"lng":137.240377,"zip":"9300835"},{"town":"上冨居新町","koaza":"","lat":36.70735,"lng":137.238994,"zip":"9300836"},{"town":"上二杉","koaza":"","lat":36.590814,"lng":137.198858,"zip":"9392256"},{"town":"上堀南町","koaza":"","lat":36.65143,"lng":137.235081,"zip":"9398062"},{"town":"上本町","koaza":"","lat":36.686557,"lng":137.215779,"zip":"9300057"},{"town":"上八日町","koaza":"","lat":36.645782,"lng":137.198655,"zip":"9398225"},{"town":"亀谷","koaza":"","lat":36.543125,"lng":137.440678,"zip":"9301459"},{"town":"河内","koaza":"","lat":36.515599,"lng":137.315149,"zip":"9390000"},{"town":"川原毛","koaza":"","lat":36.692208,"lng":137.272596,"zip":"9390000"},{"town":"願海寺","koaza":"","lat":36.717634,"lng":137.140944,"zip":"9300175"},{"town":"北押川","koaza":"","lat":36.685184,"lng":137.130464,"zip":"9300164"},{"town":"北新町一丁目","koaza":"","lat":36.694313,"lng":137.220888,"zip":"9300023"},{"town":"北新町二丁目","koaza":"","lat":36.692956,"lng":137.220909,"zip":"9300023"},{"town":"北代","koaza":"","lat":36.716519,"lng":137.182161,"zip":"9300103"},{"town":"北代新","koaza":"","lat":36.721167,"lng":137.186028,"zip":"9300104"},{"town":"北代中部","koaza":"","lat":36.725083,"lng":137.178013,"zip":"9300103"},{"town":"北代東部","koaza":"","lat":36.724939,"lng":137.184715,"zip":"9300103"},{"town":"北代北部","koaza":"","lat":36.73122,"lng":137.175242,"zip":"9300103"},{"town":"北野","koaza":"","lat":36.67104,"lng":137.112887,"zip":"9390000"},{"town":"北二ツ屋","koaza":"","lat":36.721957,"lng":137.146281,"zip":"9300172"},{"town":"木場町","koaza":"","lat":36.713547,"lng":137.209958,"zip":"9300806"},{"town":"経田","koaza":"","lat":36.650128,"lng":137.189503,"zip":"9398264"},{"town":"経堂","koaza":"","lat":36.69089,"lng":137.253097,"zip":"9300951"},{"town":"経堂一丁目","koaza":"","lat":36.686535,"lng":137.253211,"zip":"9300951"},{"town":"経堂二丁目","koaza":"","lat":36.687039,"lng":137.254914,"zip":"9300951"},{"town":"経堂三丁目","koaza":"","lat":36.689992,"lng":137.252624,"zip":"9300951"},{"town":"経堂四丁目","koaza":"","lat":36.691737,"lng":137.250713,"zip":"9300951"},{"town":"経堂新町","koaza":"","lat":36.686062,"lng":137.257027,"zip":"9300956"},{"town":"経力","koaza":"","lat":36.637347,"lng":137.224134,"zip":"9398152"},{"town":"金泉寺","koaza":"","lat":36.722621,"lng":137.262825,"zip":"9300906"},{"town":"銀嶺町","koaza":"","lat":36.750061,"lng":137.252054,"zip":"9318451"},{"town":"久郷","koaza":"","lat":36.684693,"lng":137.179588,"zip":"9300865"},{"town":"草島","koaza":"","lat":36.751616,"lng":137.215951,"zip":"9302201"},{"town":"楠木","koaza":"","lat":36.734663,"lng":137.256757,"zip":"9318442"},{"town":"窪新町","koaza":"","lat":36.70562,"lng":137.232084,"zip":"9300842"},{"town":"窪本町","koaza":"","lat":36.701979,"lng":137.23,"zip":"9300843"},{"town":"公文名","koaza":"","lat":36.677101,"lng":137.234377,"zip":"9398002"},{"town":"栗山","koaza":"","lat":36.62385,"lng":137.204757,"zip":"9398178"},{"town":"楜ケ原","koaza":"","lat":36.578328,"lng":137.288693,"zip":"9301268"},{"town":"呉羽野田","koaza":"","lat":36.734756,"lng":137.170864,"zip":"9300102"},{"town":"呉羽町","koaza":"","lat":36.714407,"lng":137.16975,"zip":"9300138"},{"town":"呉羽町北","koaza":"","lat":36.722598,"lng":137.171645,"zip":"9300138"},{"town":"呉羽町西","koaza":"","lat":36.719745,"lng":137.164762,"zip":"9300138"},{"town":"黒崎","koaza":"","lat":36.652002,"lng":137.207437,"zip":"9398214"},{"town":"黒瀬","koaza":"","lat":36.664147,"lng":137.19965,"zip":"9398213"},{"town":"黒瀬北町一丁目","koaza":"","lat":36.669004,"lng":137.200617,"zip":"9398216"},{"town":"黒瀬北町二丁目","koaza":"","lat":36.665228,"lng":137.202615,"zip":"9398216"},{"town":"桑原","koaza":"","lat":36.615359,"lng":137.265305,"zip":"9301336"},{"town":"下伏","koaza":"","lat":36.548203,"lng":137.18736,"zip":"9392235"},{"town":"小泉町","koaza":"","lat":36.677227,"lng":137.217082,"zip":"9398082"},{"town":"小糸","koaza":"","lat":36.478243,"lng":137.256279,"zip":"9392174"},{"town":"興人町","koaza":"","lat":36.725233,"lng":137.215024,"zip":"9300809"},{"town":"合田","koaza":"","lat":36.612655,"lng":137.219728,"zip":"9392201"},{"town":"高来","koaza":"","lat":36.756924,"lng":137.290748,"zip":"9318411"},{"town":"小坂","koaza":"","lat":36.546605,"lng":137.280656,"zip":"9301273"},{"town":"古志町一丁目","koaza":"","lat":36.757433,"lng":137.27527,"zip":"9318417"},{"town":"古志町二丁目","koaza":"","lat":36.755983,"lng":137.274837,"zip":"9318417"},{"town":"古志町三丁目","koaza":"","lat":36.754655,"lng":137.274047,"zip":"9318417"},{"town":"古志町四丁目","koaza":"","lat":36.753314,"lng":137.27348,"zip":"9318417"},{"town":"古志町五丁目","koaza":"","lat":36.755246,"lng":137.271248,"zip":"9318417"},{"town":"古志町六丁目","koaza":"","lat":36.753916,"lng":137.270791,"zip":"9318417"},{"town":"小島町","koaza":"","lat":36.693492,"lng":137.219505,"zip":"9300022"},{"town":"小杉","koaza":"","lat":36.648259,"lng":137.22921,"zip":"9398063"},{"town":"五艘","koaza":"","lat":36.708259,"lng":137.194788,"zip":"9300882"},{"town":"小中","koaza":"","lat":36.638461,"lng":137.210747,"zip":"9398183"},{"town":"小西","koaza":"","lat":36.721185,"lng":137.256641,"zip":"9318435"},{"town":"小羽","koaza":"","lat":36.564346,"lng":137.190552,"zip":"9392232"},{"town":"五番町","koaza":"","lat":36.686938,"lng":137.220073,"zip":"9300052"},{"town":"五福","koaza":"","lat":36.700942,"lng":137.19233,"zip":"9300887"},{"town":"五本榎","koaza":"","lat":36.716577,"lng":137.259913,"zip":"9300905"},{"town":"駒見","koaza":"","lat":36.705169,"lng":137.202627,"zip":"9300895"},{"town":"才覚寺","koaza":"","lat":36.652776,"lng":137.193678,"zip":"9398263"},{"town":"才覚地","koaza":"","lat":36.565439,"lng":137.362585,"zip":"9301464"},{"town":"境野新","koaza":"","lat":36.675756,"lng":137.131985,"zip":"9300153"},{"town":"栄新町","koaza":"","lat":36.687491,"lng":137.259702,"zip":"9300925"},{"town":"栄町一丁目","koaza":"","lat":36.692687,"lng":137.232426,"zip":"9300032"},{"town":"栄町二丁目","koaza":"","lat":36.691335,"lng":137.232084,"zip":"9300032"},{"town":"栄町三丁目","koaza":"","lat":36.69006,"lng":137.232118,"zip":"9300032"},{"town":"坂下新","koaza":"","lat":36.667203,"lng":137.093953,"zip":"9300156"},{"town":"坂本","koaza":"","lat":36.584968,"lng":137.225663,"zip":"9392206"},{"town":"桜木町","koaza":"","lat":36.694234,"lng":137.214155,"zip":"9300082"},{"town":"桜谷みどり町一丁目","koaza":"","lat":36.710428,"lng":137.197583,"zip":"9300898"},{"town":"桜谷みどり町二丁目","koaza":"","lat":36.712959,"lng":137.195518,"zip":"9300898"},{"town":"桜橋通り","koaza":"","lat":36.697424,"lng":137.21607,"zip":"9300004"},{"town":"桜町一丁目","koaza":"","lat":36.69941,"lng":137.214665,"zip":"9300003"},{"town":"桜町二丁目","koaza":"","lat":36.698222,"lng":137.212471,"zip":"9300003"},{"town":"笹津","koaza":"","lat":36.565684,"lng":137.211429,"zip":"9392223"},{"town":"山王町","koaza":"","lat":36.687021,"lng":137.213348,"zip":"9300064"},{"town":"三熊","koaza":"","lat":36.662274,"lng":137.100709,"zip":"9300155"},{"town":"三番町","koaza":"","lat":36.688141,"lng":137.217397,"zip":"9300059"},{"town":"塩","koaza":"","lat":36.60087,"lng":137.190869,"zip":"9392242"},{"town":"寺家","koaza":"","lat":36.556853,"lng":137.233288,"zip":"9392214"},{"town":"下タ林","koaza":"","lat":36.567484,"lng":137.19755,"zip":"9392226"},{"town":"七軒町","koaza":"","lat":36.693891,"lng":137.206189,"zip":"9300089"},{"town":"芝園町一丁目","koaza":"","lat":36.698396,"lng":137.202638,"zip":"9300097"},{"town":"芝園町二丁目","koaza":"","lat":36.697105,"lng":137.207719,"zip":"9300097"},{"town":"芝園町三丁目","koaza":"","lat":36.696058,"lng":137.202139,"zip":"9300097"},{"town":"島田","koaza":"","lat":36.640231,"lng":137.206447,"zip":"9398223"},{"town":"清水中町","koaza":"","lat":36.687414,"lng":137.22857,"zip":"9300035"},{"town":"清水町一丁目","koaza":"","lat":36.689513,"lng":137.224159,"zip":"9300036"},{"town":"清水町二丁目","koaza":"","lat":36.689416,"lng":137.226054,"zip":"9300036"},{"town":"清水町三丁目","koaza":"","lat":36.6882,"lng":137.223837,"zip":"9300036"},{"town":"清水町四丁目","koaza":"","lat":36.688224,"lng":137.225978,"zip":"9300036"},{"town":"清水町五丁目","koaza":"","lat":36.687005,"lng":137.223836,"zip":"9300036"},{"town":"清水町六丁目","koaza":"","lat":36.687212,"lng":137.226175,"zip":"9300036"},{"town":"清水町七丁目","koaza":"","lat":36.685651,"lng":137.223181,"zip":"9300036"},{"town":"清水町八丁目","koaza":"","lat":36.685155,"lng":137.224774,"zip":"9300036"},{"town":"清水町九丁目","koaza":"","lat":36.685243,"lng":137.226148,"zip":"9300036"},{"town":"清水元町","koaza":"","lat":36.687197,"lng":137.231105,"zip":"9300034"},{"town":"下赤江","koaza":"","lat":36.71047,"lng":137.237484,"zip":"9300838"},{"town":"下赤江町一丁目","koaza":"","lat":36.714658,"lng":137.235505,"zip":"9300813"},{"town":"下赤江町二丁目","koaza":"","lat":36.716465,"lng":137.230855,"zip":"9300813"},{"town":"下飯野","koaza":"","lat":36.737445,"lng":137.260739,"zip":"9318443"},{"town":"下大浦","koaza":"","lat":36.608953,"lng":137.262006,"zip":"9301335"},{"town":"下大久保","koaza":"","lat":36.610578,"lng":137.207287,"zip":"9392251"},{"town":"下奥井一丁目","koaza":"","lat":36.713334,"lng":137.225702,"zip":"9300817"},{"town":"下奥井二丁目","koaza":"","lat":36.710018,"lng":137.226712,"zip":"9300817"},{"town":"下熊野","koaza":"","lat":36.632888,"lng":137.210239,"zip":"9398231"},{"town":"下新北町","koaza":"","lat":36.718036,"lng":137.219391,"zip":"9300802"},{"town":"下新西町","koaza":"","lat":36.716158,"lng":137.211183,"zip":"9300807"},{"town":"下新日曹町","koaza":"","lat":36.719016,"lng":137.211257,"zip":"9300808"},{"town":"下新本町","koaza":"","lat":36.714609,"lng":137.217101,"zip":"9300803"},{"town":"下新町","koaza":"","lat":36.71129,"lng":137.215825,"zip":"9300804"},{"town":"下双嶺","koaza":"","lat":36.549601,"lng":137.272469,"zip":"9301272"},{"town":"下野","koaza":"","lat":36.692197,"lng":137.181983,"zip":"9300871"},{"town":"下野新","koaza":"","lat":36.690768,"lng":137.176146,"zip":"9300872"},{"town":"下番","koaza":"","lat":36.632327,"lng":137.273314,"zip":"9301305"},{"town":"下冨居","koaza":"","lat":36.720221,"lng":137.241387,"zip":"9300814"},{"town":"下冨居一丁目","koaza":"","lat":36.721631,"lng":137.238735,"zip":"9300814"},{"town":"下冨居二丁目","koaza":"","lat":36.717235,"lng":137.236394,"zip":"9300814"},{"town":"下堀","koaza":"","lat":36.659111,"lng":137.228257,"zip":"9398055"},{"town":"城川原一丁目","koaza":"","lat":36.732496,"lng":137.228522,"zip":"9318325"},{"town":"城川原二丁目","koaza":"","lat":36.729997,"lng":137.227024,"zip":"9318325"},{"town":"城川原三丁目","koaza":"","lat":36.731301,"lng":137.224628,"zip":"9318325"},{"town":"庄高田","koaza":"","lat":36.691013,"lng":137.187372,"zip":"9300867"},{"town":"城北町","koaza":"","lat":36.70044,"lng":137.221686,"zip":"9300854"},{"town":"城村","koaza":"","lat":36.647545,"lng":137.266878,"zip":"9398114"},{"town":"城村新町","koaza":"","lat":36.64991,"lng":137.267319,"zip":"9398115"},{"town":"白銀町","koaza":"","lat":36.691273,"lng":137.218416,"zip":"9300048"},{"town":"新金代一丁目","koaza":"","lat":36.686384,"lng":137.261413,"zip":"9300924"},{"town":"新金代二丁目","koaza":"","lat":36.686147,"lng":137.262711,"zip":"9300924"},{"town":"新川原町","koaza":"","lat":36.693815,"lng":137.218043,"zip":"9300024"},{"town":"新桜町","koaza":"","lat":36.696742,"lng":137.214235,"zip":"9300005"},{"town":"新庄北町","koaza":"","lat":36.716352,"lng":137.263778,"zip":"9300997"},{"town":"新庄銀座一丁目","koaza":"","lat":36.714262,"lng":137.262886,"zip":"9300991"},{"town":"新庄銀座二丁目","koaza":"","lat":36.711962,"lng":137.262645,"zip":"9300991"},{"town":"新庄銀座三丁目","koaza":"","lat":36.71307,"lng":137.259328,"zip":"9300991"},{"town":"新庄本町一丁目","koaza":"","lat":36.708797,"lng":137.257853,"zip":"9300996"},{"town":"新庄本町二丁目","koaza":"","lat":36.707319,"lng":137.260606,"zip":"9300996"},{"town":"新庄本町三丁目","koaza":"","lat":36.704259,"lng":137.257213,"zip":"9300996"},{"town":"新庄町","koaza":"","lat":36.694629,"lng":137.257936,"zip":"9300992"},{"town":"新庄町一丁目","koaza":"","lat":36.70098,"lng":137.251905,"zip":"9300992"},{"town":"新庄町二丁目","koaza":"","lat":36.700897,"lng":137.256493,"zip":"9300992"},{"town":"新庄町三丁目","koaza":"","lat":36.697862,"lng":137.254019,"zip":"9300992"},{"town":"新庄町四丁目","koaza":"","lat":36.695492,"lng":137.254932,"zip":"9300992"},{"town":"新総曲輪","koaza":"","lat":36.695954,"lng":137.211472,"zip":"9300006"},{"town":"新千原崎","koaza":"","lat":36.743439,"lng":137.213289,"zip":"9302203"},{"town":"神通","koaza":"","lat":36.608002,"lng":137.188937,"zip":"9392241"},{"town":"神通本町一丁目","koaza":"","lat":36.701702,"lng":137.208853,"zip":"9300008"},{"town":"神通本町二丁目","koaza":"","lat":36.700096,"lng":137.207715,"zip":"9300008"},{"town":"神通町一丁目","koaza":"","lat":36.703406,"lng":137.206737,"zip":"9300009"},{"town":"神通町二丁目","koaza":"","lat":36.702239,"lng":137.20566,"zip":"9300009"},{"town":"神通町三丁目","koaza":"","lat":36.700831,"lng":137.204537,"zip":"9300009"},{"town":"新富町一丁目","koaza":"","lat":36.699813,"lng":137.212052,"zip":"9300002"},{"town":"新富町二丁目","koaza":"","lat":36.698446,"lng":137.210882,"zip":"9300002"},{"town":"新根塚町一丁目","koaza":"","lat":36.681132,"lng":137.202065,"zip":"9398205"},{"town":"新根塚町二丁目","koaza":"","lat":36.678158,"lng":137.203317,"zip":"9398205"},{"town":"新根塚町三丁目","koaza":"","lat":36.678047,"lng":137.206096,"zip":"9398205"},{"town":"新冨居","koaza":"","lat":36.703267,"lng":137.234563,"zip":"9300839"},{"town":"新保","koaza":"","lat":36.63358,"lng":137.190864,"zip":"9398253"},{"town":"新名","koaza":"","lat":36.647091,"lng":137.25338,"zip":"9398122"},{"town":"新村","koaza":"","lat":36.618957,"lng":137.215255,"zip":"9392201"},{"town":"杉瀬","koaza":"","lat":36.614383,"lng":137.226104,"zip":"9398165"},{"town":"杉谷","koaza":"","lat":36.683176,"lng":137.140826,"zip":"9300152"},{"town":"直坂","koaza":"","lat":36.563665,"lng":137.219131,"zip":"9392215"},{"town":"砂町","koaza":"","lat":36.690608,"lng":137.220899,"zip":"9300045"},{"town":"砂見","koaza":"","lat":36.556884,"lng":137.294733,"zip":"9301266"},{"town":"住友町","koaza":"","lat":36.747384,"lng":137.241834,"zip":"9318454"},{"town":"住吉","koaza":"","lat":36.704363,"lng":137.151917,"zip":"9300144"},{"town":"住吉町一丁目","koaza":"","lat":36.692971,"lng":137.230038,"zip":"9300031"},{"town":"住吉町二丁目","koaza":"","lat":36.691308,"lng":137.230139,"zip":"9300031"},{"town":"諏訪川原一丁目","koaza":"","lat":36.692966,"lng":137.206387,"zip":"9300088"},{"town":"諏訪川原二丁目","koaza":"","lat":36.69192,"lng":137.206258,"zip":"9300088"},{"town":"諏訪川原三丁目","koaza":"","lat":36.691077,"lng":137.206147,"zip":"9300088"},{"town":"須原","koaza":"","lat":36.544908,"lng":137.199894,"zip":"9392234"},{"town":"清風町","koaza":"","lat":36.752802,"lng":137.253022,"zip":"9318409"},{"town":"関","koaza":"","lat":36.643782,"lng":137.248408,"zip":"9398123"},{"town":"瀬戸","koaza":"","lat":36.56529,"lng":137.26991,"zip":"9301285"},{"town":"千石町一丁目","koaza":"","lat":36.687385,"lng":137.211238,"zip":"9300066"},{"town":"千石町二丁目","koaza":"","lat":36.686572,"lng":137.209318,"zip":"9300066"},{"town":"千石町三丁目","koaza":"","lat":36.686121,"lng":137.211325,"zip":"9300066"},{"town":"千石町四丁目","koaza":"","lat":36.684921,"lng":137.208929,"zip":"9300066"},{"town":"千石町五丁目","koaza":"","lat":36.684553,"lng":137.210708,"zip":"9300066"},{"town":"千石町六丁目","koaza":"","lat":36.683289,"lng":137.209864,"zip":"9300066"},{"town":"善名","koaza":"","lat":36.625745,"lng":137.275256,"zip":"9301303"},{"town":"千長原","koaza":"","lat":36.53186,"lng":137.298737,"zip":"9390000"},{"town":"千成町","koaza":"","lat":36.719981,"lng":137.243396,"zip":"9300815"},{"town":"千俵町","koaza":"","lat":36.624041,"lng":137.235828,"zip":"9398135"},{"town":"総曲輪一丁目","koaza":"","lat":36.692451,"lng":137.214026,"zip":"9300083"},{"town":"総曲輪二丁目","koaza":"","lat":36.690979,"lng":137.213924,"zip":"9300083"},{"town":"総曲輪三丁目","koaza":"","lat":36.689744,"lng":137.213547,"zip":"9300083"},{"town":"総曲輪四丁目","koaza":"","lat":36.690297,"lng":137.208891,"zip":"9300083"},{"town":"惣在寺","koaza":"","lat":36.620126,"lng":137.200501,"zip":"9398241"},{"town":"双代町","koaza":"","lat":36.695136,"lng":137.237647,"zip":"9300971"},{"town":"大利","koaza":"","lat":36.617122,"lng":137.199374,"zip":"9390000"},{"town":"高内","koaza":"","lat":36.578049,"lng":137.202249,"zip":"9392254"},{"town":"高木","koaza":"","lat":36.723722,"lng":137.163119,"zip":"9300106"},{"town":"高木西","koaza":"","lat":36.722463,"lng":137.157942,"zip":"9300106"},{"town":"高木東","koaza":"","lat":36.726614,"lng":137.168268,"zip":"9300106"},{"town":"高木南","koaza":"","lat":36.715718,"lng":137.155088,"zip":"9300106"},{"town":"高島","koaza":"","lat":36.737602,"lng":137.268754,"zip":"9318441"},{"town":"高園町","koaza":"","lat":36.726201,"lng":137.232208,"zip":"9318315"},{"town":"高田","koaza":"","lat":36.685075,"lng":137.185192,"zip":"9300866"},{"town":"高畠町一丁目","koaza":"","lat":36.750259,"lng":137.23112,"zip":"9318336"},{"town":"高畠町二丁目","koaza":"","lat":36.747738,"lng":137.229646,"zip":"9318336"},{"town":"高屋敷","koaza":"","lat":36.669354,"lng":137.246224,"zip":"9398036"},{"town":"宝町一丁目","koaza":"","lat":36.700607,"lng":137.210411,"zip":"9300007"},{"town":"宝町二丁目","koaza":"","lat":36.69908,"lng":137.20916,"zip":"9300007"},{"town":"田刈屋","koaza":"","lat":36.707154,"lng":137.198696,"zip":"9300897"},{"town":"館出町一丁目","koaza":"","lat":36.693758,"lng":137.228779,"zip":"9300014"},{"town":"館出町二丁目","koaza":"","lat":36.693964,"lng":137.231883,"zip":"9300014"},{"town":"辰尾","koaza":"","lat":36.623332,"lng":137.216497,"zip":"9398172"},{"town":"辰巳町一丁目","koaza":"","lat":36.687095,"lng":137.222069,"zip":"9300053"},{"town":"辰巳町二丁目","koaza":"","lat":36.684921,"lng":137.222083,"zip":"9300053"},{"town":"田中町一丁目","koaza":"","lat":36.701311,"lng":137.240563,"zip":"9300985"},{"town":"田中町二丁目","koaza":"","lat":36.700256,"lng":137.243739,"zip":"9300985"},{"town":"田中町三丁目","koaza":"","lat":36.69871,"lng":137.239498,"zip":"9300985"},{"town":"田中町四丁目","koaza":"","lat":36.696829,"lng":137.239439,"zip":"9300985"},{"town":"田中町五丁目","koaza":"","lat":36.69536,"lng":137.242492,"zip":"9300985"},{"town":"田尻","koaza":"","lat":36.73559,"lng":137.202224,"zip":"9302224"},{"town":"田尻西","koaza":"","lat":36.736339,"lng":137.199397,"zip":"9302224"},{"town":"田尻東","koaza":"","lat":36.73531,"lng":137.205072,"zip":"9302224"},{"town":"田尻南","koaza":"","lat":36.732976,"lng":137.202513,"zip":"9302224"},{"town":"田畑","koaza":"","lat":36.753049,"lng":137.258503,"zip":"9318403"},{"town":"田畠","koaza":"","lat":36.615676,"lng":137.274617,"zip":"9301331"},{"town":"珠泉西町","koaza":"","lat":36.634031,"lng":137.224435,"zip":"9398157"},{"town":"珠泉東町","koaza":"","lat":36.634654,"lng":137.227999,"zip":"9398156"},{"town":"手屋","koaza":"","lat":36.722749,"lng":137.269023,"zip":"9300901"},{"town":"手屋一丁目","koaza":"","lat":36.721309,"lng":137.266531,"zip":"9300901"},{"town":"手屋二丁目","koaza":"","lat":36.72129,"lng":137.268878,"zip":"9300901"},{"town":"手屋三丁目","koaza":"","lat":36.718228,"lng":137.266423,"zip":"9300901"},{"town":"太郎丸","koaza":"","lat":36.672779,"lng":137.217845,"zip":"9398076"},{"town":"太郎丸西町一丁目","koaza":"","lat":36.677934,"lng":137.209193,"zip":"9398271"},{"town":"太郎丸西町二丁目","koaza":"","lat":36.675463,"lng":137.209307,"zip":"9398271"},{"town":"太郎丸本町一丁目","koaza":"","lat":36.677779,"lng":137.212623,"zip":"9398272"},{"town":"太郎丸本町二丁目","koaza":"","lat":36.676611,"lng":137.214612,"zip":"9398272"},{"town":"太郎丸本町三丁目","koaza":"","lat":36.675426,"lng":137.212497,"zip":"9398272"},{"town":"太郎丸本町四丁目","koaza":"","lat":36.672839,"lng":137.214981,"zip":"9398272"},{"town":"千歳町一丁目","koaza":"","lat":36.698519,"lng":137.217948,"zip":"9300018"},{"town":"千歳町二丁目","koaza":"","lat":36.697901,"lng":137.219889,"zip":"9300018"},{"town":"千歳町三丁目","koaza":"","lat":36.697568,"lng":137.222106,"zip":"9300018"},{"town":"千原崎","koaza":"","lat":36.748365,"lng":137.219937,"zip":"9318334"},{"town":"千原崎一丁目","koaza":"","lat":36.740668,"lng":137.222796,"zip":"9318334"},{"town":"千原崎二丁目","koaza":"","lat":36.745081,"lng":137.23007,"zip":"9318334"},{"town":"茶屋町","koaza":"","lat":36.708855,"lng":137.178265,"zip":"9300115"},{"town":"中央通り一丁目","koaza":"","lat":36.689633,"lng":137.217152,"zip":"9300044"},{"town":"中央通り二丁目","koaza":"","lat":36.689684,"lng":137.219931,"zip":"9300044"},{"town":"中央通り三丁目","koaza":"","lat":36.689604,"lng":137.222128,"zip":"9300044"},{"town":"中間島","koaza":"","lat":36.694691,"lng":137.271174,"zip":"9300921"},{"town":"中間島一丁目","koaza":"","lat":36.691717,"lng":137.26838,"zip":"9300921"},{"town":"中間島二丁目","koaza":"","lat":36.690188,"lng":137.26573,"zip":"9300921"},{"town":"千代田町","koaza":"","lat":36.716888,"lng":137.223637,"zip":"9300811"},{"town":"塚原","koaza":"","lat":36.656648,"lng":137.190678,"zip":"9398262"},{"town":"月岡新","koaza":"","lat":36.626483,"lng":137.239734,"zip":"9398139"},{"town":"月岡西緑町","koaza":"","lat":36.618713,"lng":137.24647,"zip":"9398142"},{"town":"月岡東緑町一丁目","koaza":"","lat":36.616703,"lng":137.254737,"zip":"9398141"},{"town":"月岡東緑町二丁目","koaza":"","lat":36.616074,"lng":137.256987,"zip":"9398141"},{"town":"月岡東緑町三丁目","koaza":"","lat":36.614624,"lng":137.256262,"zip":"9398141"},{"town":"月岡東緑町四丁目","koaza":"","lat":36.615047,"lng":137.253753,"zip":"9398141"},{"town":"月岡町一丁目","koaza":"","lat":36.624109,"lng":137.267796,"zip":"9398132"},{"town":"月岡町二丁目","koaza":"","lat":36.623876,"lng":137.262716,"zip":"9398132"},{"town":"月岡町三丁目","koaza":"","lat":36.630471,"lng":137.261972,"zip":"9398132"},{"town":"月岡町四丁目","koaza":"","lat":36.624198,"lng":137.254792,"zip":"9398132"},{"town":"月岡町五丁目","koaza":"","lat":36.629385,"lng":137.253396,"zip":"9398132"},{"town":"月岡町六丁目","koaza":"","lat":36.63576,"lng":137.240102,"zip":"9398132"},{"town":"月岡町七丁目","koaza":"","lat":36.637336,"lng":137.246067,"zip":"9398132"},{"town":"月見町一丁目","koaza":"","lat":36.632869,"lng":137.241834,"zip":"9398136"},{"town":"月見町二丁目","koaza":"","lat":36.63229,"lng":137.243015,"zip":"9398136"},{"town":"月見町三丁目","koaza":"","lat":36.63123,"lng":137.24384,"zip":"9398136"},{"town":"月見町四丁目","koaza":"","lat":36.629876,"lng":137.245035,"zip":"9398136"},{"town":"月見町五丁目","koaza":"","lat":36.627705,"lng":137.246402,"zip":"9398136"},{"town":"月見町六丁目","koaza":"","lat":36.626915,"lng":137.245135,"zip":"9398136"},{"town":"月見町七丁目","koaza":"","lat":36.626118,"lng":137.248184,"zip":"9398136"},{"town":"辻ヶ堂","koaza":"","lat":36.737582,"lng":137.284718,"zip":"9390000"},{"town":"葛原","koaza":"","lat":36.569198,"lng":137.1813,"zip":"9392238"},{"town":"堤町通り一丁目","koaza":"","lat":36.688938,"lng":137.217156,"zip":"9300046"},{"town":"堤町通り二丁目","koaza":"","lat":36.688848,"lng":137.220756,"zip":"9300046"},{"town":"つばめ野一丁目","koaza":"","lat":36.751656,"lng":137.189346,"zip":"9302239"},{"town":"つばめ野二丁目","koaza":"","lat":36.753789,"lng":137.189756,"zip":"9302239"},{"town":"つばめ野三丁目","koaza":"","lat":36.753198,"lng":137.192427,"zip":"9302239"},{"town":"鶴ヶ丘町","koaza":"","lat":36.714809,"lng":137.256513,"zip":"9390000"},{"town":"津羽見","koaza":"","lat":36.611642,"lng":137.270861,"zip":"9301332"},{"town":"手出","koaza":"","lat":36.551007,"lng":137.313103,"zip":"9390000"},{"town":"寺島","koaza":"","lat":36.733972,"lng":137.195916,"zip":"9302225"},{"town":"寺津","koaza":"","lat":36.512082,"lng":137.243945,"zip":"9392165"},{"town":"寺町","koaza":"","lat":36.698777,"lng":137.17084,"zip":"9300874"},{"town":"寺町けや木台","koaza":"","lat":36.70002,"lng":137.176097,"zip":"9300875"},{"town":"天正寺","koaza":"","lat":36.682254,"lng":137.250018,"zip":"9300955"},{"town":"土","koaza":"","lat":36.549734,"lng":137.179176,"zip":"9392236"},{"town":"土居原町","koaza":"","lat":36.687918,"lng":137.205044,"zip":"9300078"},{"town":"問屋町一丁目","koaza":"","lat":36.702024,"lng":137.247276,"zip":"9300834"},{"town":"問屋町二丁目","koaza":"","lat":36.704313,"lng":137.24749,"zip":"9300834"},{"town":"問屋町三丁目","koaza":"","lat":36.703667,"lng":137.242373,"zip":"9300834"},{"town":"道正","koaza":"","lat":36.743178,"lng":137.259894,"zip":"9318445"},{"town":"任海","koaza":"","lat":36.632387,"lng":137.200151,"zip":"9398233"},{"town":"常盤台","koaza":"","lat":36.691872,"lng":137.253809,"zip":"9300983"},{"town":"常盤町","koaza":"","lat":36.690193,"lng":137.218032,"zip":"9300047"},{"town":"栃谷","koaza":"","lat":36.692506,"lng":137.132476,"zip":"9300163"},{"town":"利波","koaza":"","lat":36.744329,"lng":137.172119,"zip":"9302227"},{"town":"富岡町","koaza":"","lat":36.693989,"lng":137.261891,"zip":"9300928"},{"town":"友杉","koaza":"","lat":36.639592,"lng":137.200301,"zip":"9398224"},{"town":"豊丘町","koaza":"","lat":36.728949,"lng":137.232112,"zip":"9318316"},{"town":"豊川町","koaza":"","lat":36.691131,"lng":137.220177,"zip":"9300049"},{"town":"豊島町","koaza":"","lat":36.731271,"lng":137.231024,"zip":"9318322"},{"town":"豊城新町","koaza":"","lat":36.72954,"lng":137.229569,"zip":"9318323"},{"town":"豊城町","koaza":"","lat":36.727307,"lng":137.228727,"zip":"9318324"},{"town":"豊田","koaza":"","lat":36.730133,"lng":137.23997,"zip":"9318311"},{"town":"豊田本町一丁目","koaza":"","lat":36.72891,"lng":137.235202,"zip":"9318312"},{"town":"豊田本町二丁目","koaza":"","lat":36.726071,"lng":137.235415,"zip":"9318312"},{"town":"豊田本町三丁目","koaza":"","lat":36.725702,"lng":137.239266,"zip":"9318312"},{"town":"豊田本町四丁目","koaza":"","lat":36.726884,"lng":137.242064,"zip":"9318312"},{"town":"豊田町一丁目","koaza":"","lat":36.722382,"lng":137.233283,"zip":"9318313"},{"town":"豊田町二丁目","koaza":"","lat":36.721976,"lng":137.235626,"zip":"9318313"},{"town":"豊若町一丁目","koaza":"","lat":36.732908,"lng":137.237864,"zip":"9318305"},{"town":"豊若町二丁目","koaza":"","lat":36.731072,"lng":137.23581,"zip":"9318305"},{"town":"豊若町三丁目","koaza":"","lat":36.730377,"lng":137.238353,"zip":"9318305"},{"town":"永久町","koaza":"","lat":36.748974,"lng":137.247765,"zip":"9318456"},{"town":"中市","koaza":"","lat":36.678502,"lng":137.234325,"zip":"9398005"},{"town":"中市一丁目","koaza":"","lat":36.681277,"lng":137.239129,"zip":"9398005"},{"town":"中市二丁目","koaza":"","lat":36.679324,"lng":137.238182,"zip":"9398005"},{"town":"長江","koaza":"","lat":36.687548,"lng":137.246429,"zip":"9300974"},{"town":"長江一丁目","koaza":"","lat":36.690799,"lng":137.244441,"zip":"9300974"},{"town":"長江二丁目","koaza":"","lat":36.690161,"lng":137.241519,"zip":"9300974"},{"town":"長江三丁目","koaza":"","lat":36.68782,"lng":137.241002,"zip":"9300974"},{"town":"長江四丁目","koaza":"","lat":36.688478,"lng":137.24339,"zip":"9300974"},{"town":"長江五丁目","koaza":"","lat":36.68827,"lng":137.245747,"zip":"9300974"},{"town":"長江新町一丁目","koaza":"","lat":36.693898,"lng":137.240896,"zip":"9300972"},{"town":"長江新町二丁目","koaza":"","lat":36.693452,"lng":137.243554,"zip":"9300972"},{"town":"長江新町三丁目","koaza":"","lat":36.691586,"lng":137.245558,"zip":"9300972"},{"town":"長江新町四丁目","koaza":"","lat":36.691828,"lng":137.242007,"zip":"9300972"},{"town":"長江東町一丁目","koaza":"","lat":36.691121,"lng":137.24859,"zip":"9300973"},{"town":"長江東町二丁目","koaza":"","lat":36.689432,"lng":137.247458,"zip":"9300973"},{"town":"長江東町三丁目","koaza":"","lat":36.689126,"lng":137.249912,"zip":"9300973"},{"town":"長江本町","koaza":"","lat":36.686122,"lng":137.244642,"zip":"9300962"},{"town":"長柄町一丁目","koaza":"","lat":36.685186,"lng":137.204167,"zip":"9300076"},{"town":"長柄町二丁目","koaza":"","lat":36.685139,"lng":137.204686,"zip":"9300076"},{"town":"長柄町三丁目","koaza":"","lat":36.684784,"lng":137.205477,"zip":"9300076"},{"town":"中老田","koaza":"","lat":36.703868,"lng":137.130368,"zip":"9300166"},{"town":"中大浦","koaza":"","lat":36.608751,"lng":137.267496,"zip":"9301334"},{"town":"中大久保","koaza":"","lat":36.597629,"lng":137.196838,"zip":"9392243"},{"town":"長岡","koaza":"","lat":36.719363,"lng":137.188911,"zip":"9300111"},{"town":"長岡新","koaza":"","lat":36.715657,"lng":137.193608,"zip":"9300113"},{"town":"中沖","koaza":"","lat":36.738786,"lng":137.156973,"zip":"9300101"},{"town":"中川原","koaza":"","lat":36.673978,"lng":137.249328,"zip":"9398015"},{"town":"中川原新町","koaza":"","lat":36.676663,"lng":137.245262,"zip":"9398014"},{"town":"中川原台一丁目","koaza":"","lat":36.67716,"lng":137.252764,"zip":"9398016"},{"town":"中川原台二丁目","koaza":"","lat":36.676985,"lng":137.25136,"zip":"9398016"},{"town":"中島一丁目","koaza":"","lat":36.727763,"lng":137.223344,"zip":"9300801"},{"town":"中島二丁目","koaza":"","lat":36.724027,"lng":137.222044,"zip":"9300801"},{"town":"中島三丁目","koaza":"","lat":36.720712,"lng":137.220909,"zip":"9300801"},{"town":"中島四丁目","koaza":"","lat":36.725992,"lng":137.22601,"zip":"9300801"},{"town":"中島五丁目","koaza":"","lat":36.720914,"lng":137.225354,"zip":"9300801"},{"town":"長走","koaza":"","lat":36.56447,"lng":137.198739,"zip":"9392225"},{"town":"長瀬","koaza":"","lat":36.56872,"lng":137.31258,"zip":"9390000"},{"town":"中田","koaza":"","lat":36.751423,"lng":137.242162,"zip":"9318453"},{"town":"中田一丁目","koaza":"","lat":36.747213,"lng":137.244134,"zip":"9318453"},{"town":"中田二丁目","koaza":"","lat":36.745861,"lng":137.246647,"zip":"9318453"},{"town":"中田三丁目","koaza":"","lat":36.743235,"lng":137.24316,"zip":"9318453"},{"town":"中滝","koaza":"","lat":36.608949,"lng":137.296195,"zip":"9301313"},{"town":"中地山","koaza":"","lat":36.537801,"lng":137.396835,"zip":"9301462"},{"town":"長附","koaza":"","lat":36.584918,"lng":137.202285,"zip":"9392255"},{"town":"長棟","koaza":"","lat":36.455188,"lng":137.349858,"zip":"9390000"},{"town":"中布目","koaza":"","lat":36.614177,"lng":137.248791,"zip":"9398146"},{"town":"中野","koaza":"","lat":36.57329,"lng":137.222939,"zip":"9300903"},{"town":"中野新","koaza":"","lat":36.721428,"lng":137.273836,"zip":"9300903"},{"town":"中野新町一丁目","koaza":"","lat":36.68399,"lng":137.21535,"zip":"9398085"},{"town":"中野新町二丁目","koaza":"","lat":36.682435,"lng":137.216463,"zip":"9398085"},{"town":"中番","koaza":"","lat":36.616848,"lng":137.294693,"zip":"9301315"},{"town":"中冨居","koaza":"","lat":36.709874,"lng":137.245892,"zip":"9300832"},{"town":"中冨居新町","koaza":"","lat":36.716306,"lng":137.244785,"zip":"9300830"},{"town":"中屋","koaza":"","lat":36.639507,"lng":137.255165,"zip":"9398131"},{"town":"流杉","koaza":"","lat":36.663046,"lng":137.269426,"zip":"9398032"},{"town":"鍋田","koaza":"","lat":36.715077,"lng":137.242158,"zip":"9300831"},{"town":"南央町","koaza":"","lat":36.628665,"lng":137.203039,"zip":"9398232"},{"town":"長川原","koaza":"","lat":36.56019,"lng":137.197289,"zip":"9392233"},{"town":"西四十物町","koaza":"","lat":36.688501,"lng":137.208232,"zip":"9300068"},{"town":"西荒屋","koaza":"","lat":36.65207,"lng":137.196855,"zip":"9398251"},{"town":"西大泉","koaza":"","lat":36.680172,"lng":137.224113,"zip":"9398096"},{"town":"西大沢","koaza":"","lat":36.571238,"lng":137.205996,"zip":"9392221"},{"town":"西押川","koaza":"","lat":36.68269,"lng":137.121589,"zip":"9300165"},{"town":"西小俣","koaza":"","lat":36.581641,"lng":137.309614,"zip":"9301324"},{"town":"西金屋","koaza":"","lat":36.695664,"lng":137.155093,"zip":"9300143"},{"town":"西公文名町","koaza":"","lat":36.683385,"lng":137.230592,"zip":"9398003"},{"town":"西黒牧","koaza":"","lat":36.605807,"lng":137.261687,"zip":"9390000"},{"town":"西笹津","koaza":"","lat":36.551921,"lng":137.213001,"zip":"9392181"},{"town":"西山王町","koaza":"","lat":36.687654,"lng":137.20891,"zip":"9300073"},{"town":"西塩野","koaza":"","lat":36.587395,"lng":137.192962,"zip":"9392244"},{"town":"西新庄","koaza":"","lat":36.697342,"lng":137.2437,"zip":"9300981"},{"town":"西田中","koaza":"","lat":36.606237,"lng":137.259221,"zip":"9390000"},{"town":"西町","koaza":"","lat":36.688512,"lng":137.214334,"zip":"9300062"},{"town":"西田地方町一丁目","koaza":"","lat":36.684732,"lng":137.207045,"zip":"9398202"},{"town":"西田地方町二丁目","koaza":"","lat":36.682398,"lng":137.206602,"zip":"9398202"},{"town":"西田地方町三丁目","koaza":"","lat":36.682269,"lng":137.204374,"zip":"9398202"},{"town":"西長江一丁目","koaza":"","lat":36.693351,"lng":137.23506,"zip":"9300975"},{"town":"西長江二丁目","koaza":"","lat":36.692619,"lng":137.238586,"zip":"9300975"},{"town":"西長江三丁目","koaza":"","lat":36.690189,"lng":137.238251,"zip":"9300975"},{"town":"西長江四丁目","koaza":"","lat":36.688053,"lng":137.238153,"zip":"9300975"},{"town":"西長江本町","koaza":"","lat":36.686666,"lng":137.239416,"zip":"9300961"},{"town":"西中野本町","koaza":"","lat":36.680323,"lng":137.216928,"zip":"9398083"},{"town":"西中野町一丁目","koaza":"","lat":36.680858,"lng":137.212566,"zip":"9398084"},{"town":"西中野町二丁目","koaza":"","lat":36.680829,"lng":137.21518,"zip":"9398084"},{"town":"西野新","koaza":"","lat":36.657988,"lng":137.265737,"zip":"9398101"},{"town":"西番","koaza":"","lat":36.638066,"lng":137.274801,"zip":"9398104"},{"town":"西宮町","koaza":"","lat":36.749372,"lng":137.22482,"zip":"9318335"},{"town":"西福沢","koaza":"","lat":36.604605,"lng":137.245802,"zip":"9390000"},{"town":"西二俣","koaza":"","lat":36.720045,"lng":137.133542,"zip":"9300177"},{"town":"西宮","koaza":"","lat":36.75109,"lng":137.22805,"zip":"9318335"},{"town":"蜷川","koaza":"","lat":36.644735,"lng":137.207645,"zip":"9398222"},{"town":"楡原","koaza":"","lat":36.526851,"lng":137.215026,"zip":"9392184"},{"town":"布市","koaza":"","lat":36.643783,"lng":137.239124,"zip":"9398191"},{"town":"布市新町","koaza":"","lat":36.649102,"lng":137.2407,"zip":"9398192"},{"town":"布尻","koaza":"","lat":36.526046,"lng":137.244519,"zip":"9392163"},{"town":"布瀬本町","koaza":"","lat":36.678341,"lng":137.199647,"zip":"9398207"},{"town":"布瀬町","koaza":"","lat":36.679625,"lng":137.196549,"zip":"9398206"},{"town":"布瀬町一丁目","koaza":"","lat":36.6851,"lng":137.200782,"zip":"9398206"},{"town":"布瀬町二丁目","koaza":"","lat":36.681456,"lng":137.199771,"zip":"9398206"},{"town":"布瀬町南一丁目","koaza":"","lat":36.675727,"lng":137.199548,"zip":"9398208"},{"town":"布瀬町南二丁目","koaza":"","lat":36.67559,"lng":137.203176,"zip":"9398208"},{"town":"布瀬町南三丁目","koaza":"","lat":36.672657,"lng":137.199785,"zip":"9398208"},{"town":"布目","koaza":"","lat":36.744078,"lng":137.189379,"zip":"9302233"},{"town":"布目北","koaza":"","lat":36.749138,"lng":137.1884,"zip":"9302233"},{"town":"布目西","koaza":"","lat":36.74436,"lng":137.181212,"zip":"9302233"},{"town":"根塚町一丁目","koaza":"","lat":36.675495,"lng":137.205913,"zip":"9398204"},{"town":"根塚町二丁目","koaza":"","lat":36.675452,"lng":137.207538,"zip":"9398204"},{"town":"根塚町三丁目","koaza":"","lat":36.672061,"lng":137.207763,"zip":"9398204"},{"town":"根塚町四丁目","koaza":"","lat":36.673257,"lng":137.205749,"zip":"9398204"},{"town":"根上","koaza":"","lat":36.556986,"lng":137.174775,"zip":"9392237"},{"town":"野口","koaza":"","lat":36.719389,"lng":137.151382,"zip":"9300173"},{"town":"野口南部","koaza":"","lat":36.715578,"lng":137.151728,"zip":"9300173"},{"town":"野口北部","koaza":"","lat":36.721645,"lng":137.154676,"zip":"9300173"},{"town":"野沢","koaza":"","lat":36.574064,"lng":137.22393,"zip":"9390000"},{"town":"野田","koaza":"","lat":36.746989,"lng":137.281801,"zip":"9318413"},{"town":"野中","koaza":"","lat":36.739436,"lng":137.280015,"zip":"9318422"},{"town":"野中新","koaza":"","lat":36.740288,"lng":137.272473,"zip":"9318428"},{"town":"野々上","koaza":"","lat":36.722432,"lng":137.14273,"zip":"9300171"},{"town":"野町","koaza":"","lat":36.716957,"lng":137.148501,"zip":"9300174"},{"town":"萩原","koaza":"","lat":36.662052,"lng":137.194096,"zip":"9398261"},{"town":"蓮町一丁目","koaza":"","lat":36.74243,"lng":137.225749,"zip":"9318333"},{"town":"蓮町二丁目","koaza":"","lat":36.743555,"lng":137.229857,"zip":"9318333"},{"town":"蓮町三丁目","koaza":"","lat":36.740697,"lng":137.228426,"zip":"9318333"},{"town":"蓮町四丁目","koaza":"","lat":36.741971,"lng":137.233902,"zip":"9318333"},{"town":"蓮町五丁目","koaza":"","lat":36.739758,"lng":137.234042,"zip":"9318333"},{"town":"蓮町六丁目","koaza":"","lat":36.743525,"lng":137.233714,"zip":"9318333"},{"town":"旅籠町","koaza":"","lat":36.689194,"lng":137.208381,"zip":"9300069"},{"town":"畑中","koaza":"","lat":36.702585,"lng":137.200798,"zip":"9300896"},{"town":"八川","koaza":"","lat":36.649783,"lng":137.259224,"zip":"9398124"},{"town":"八人町","koaza":"","lat":36.69327,"lng":137.217092,"zip":"9300026"},{"town":"八ヶ山","koaza":"","lat":36.723992,"lng":137.194341,"zip":"9390000"},{"town":"八町","koaza":"","lat":36.735868,"lng":137.185568,"zip":"9302226"},{"town":"八町北","koaza":"","lat":36.742736,"lng":137.172974,"zip":"9302226"},{"town":"八町中","koaza":"","lat":36.736577,"lng":137.179298,"zip":"9302226"},{"town":"八町西","koaza":"","lat":36.737822,"lng":137.174448,"zip":"9302226"},{"town":"八町東","koaza":"","lat":36.73498,"lng":137.188459,"zip":"9302226"},{"town":"八町南","koaza":"","lat":36.728298,"lng":137.186964,"zip":"9302226"},{"town":"花崎","koaza":"","lat":36.607928,"lng":137.286327,"zip":"9301326"},{"town":"花園町一丁目","koaza":"","lat":36.682243,"lng":137.20972,"zip":"9398201"},{"town":"花園町二丁目","koaza":"","lat":36.68112,"lng":137.209005,"zip":"9398201"},{"town":"花園町三丁目","koaza":"","lat":36.680072,"lng":137.20926,"zip":"9398201"},{"town":"花園町四丁目","koaza":"","lat":36.680342,"lng":137.205748,"zip":"9398201"},{"town":"花木","koaza":"","lat":36.70081,"lng":137.149807,"zip":"9300162"},{"town":"羽根","koaza":"","lat":36.680136,"lng":137.18391,"zip":"9300864"},{"town":"浜黒崎","koaza":"","lat":36.751993,"lng":137.276275,"zip":"9318414"},{"town":"林崎","koaza":"","lat":36.618054,"lng":137.229738,"zip":"9398164"},{"town":"原","koaza":"","lat":36.570221,"lng":137.412757,"zip":"9301454"},{"town":"針日","koaza":"","lat":36.748293,"lng":137.264913,"zip":"9318415"},{"town":"針原中町","koaza":"","lat":36.728389,"lng":137.266178,"zip":"9318431"},{"town":"晴海台","koaza":"","lat":36.749416,"lng":137.241604,"zip":"9318455"},{"town":"日尾","koaza":"","lat":36.583314,"lng":137.2756,"zip":"9301283"},{"town":"東石金町","koaza":"","lat":36.68423,"lng":137.239039,"zip":"9300964"},{"town":"東猪谷","koaza":"","lat":36.462634,"lng":137.261315,"zip":"9392175"},{"town":"東岩瀬町","koaza":"","lat":36.755454,"lng":137.227911,"zip":"9318358"},{"town":"東岩瀬村","koaza":"","lat":36.757442,"lng":137.23056,"zip":"9318359"},{"town":"東老田","koaza":"","lat":36.704999,"lng":137.142538,"zip":"9300161"},{"town":"東大久保","koaza":"","lat":36.602273,"lng":137.219696,"zip":"9392209"},{"town":"東小俣","koaza":"","lat":36.581026,"lng":137.319116,"zip":"9301323"},{"town":"東黒牧","koaza":"","lat":36.592248,"lng":137.288092,"zip":"9301262"},{"town":"東田地方町一丁目","koaza":"","lat":36.695609,"lng":137.219329,"zip":"9300017"},{"town":"東田地方町二丁目","koaza":"","lat":36.695715,"lng":137.222386,"zip":"9300017"},{"town":"東富山寿町一丁目","koaza":"","lat":36.747281,"lng":137.252779,"zip":"9318452"},{"town":"東富山寿町二丁目","koaza":"","lat":36.748173,"lng":137.249694,"zip":"9318452"},{"town":"東富山寿町三丁目","koaza":"","lat":36.743259,"lng":137.248181,"zip":"9318452"},{"town":"東中野町一丁目","koaza":"","lat":36.681919,"lng":137.219653,"zip":"9398086"},{"town":"東中野町二丁目","koaza":"","lat":36.680239,"lng":137.218685,"zip":"9398086"},{"town":"東中野町三丁目","koaza":"","lat":36.680135,"lng":137.221231,"zip":"9398086"},{"town":"東流杉","koaza":"","lat":36.665699,"lng":137.272929,"zip":"9398031"},{"town":"東福沢","koaza":"","lat":36.586871,"lng":137.255452,"zip":"9301281"},{"town":"東町一丁目","koaza":"","lat":36.69277,"lng":137.226293,"zip":"9300039"},{"town":"東町二丁目","koaza":"","lat":36.691828,"lng":137.226368,"zip":"9300039"},{"town":"東町三丁目","koaza":"","lat":36.69091,"lng":137.22645,"zip":"9300039"},{"town":"日方江","koaza":"","lat":36.756126,"lng":137.264862,"zip":"9318416"},{"town":"久方町","koaza":"","lat":36.709051,"lng":137.22308,"zip":"9300848"},{"town":"日之出町","koaza":"","lat":36.69245,"lng":137.218307,"zip":"9300025"},{"town":"日俣","koaza":"","lat":36.696008,"lng":137.274187,"zip":"9300912"},{"town":"百塚","koaza":"","lat":36.719758,"lng":137.20115,"zip":"9302214"},{"town":"鵯島","koaza":"","lat":36.693595,"lng":137.195819,"zip":"9300885"},{"town":"ひよどり南台","koaza":"","lat":36.69194,"lng":137.190572,"zip":"9300886"},{"town":"平榎","koaza":"","lat":36.742184,"lng":137.275676,"zip":"9318421"},{"town":"平岡","koaza":"","lat":36.6717,"lng":137.127669,"zip":"9300154"},{"town":"開","koaza":"","lat":36.681456,"lng":137.262161,"zip":"9398137"},{"town":"開ヶ丘","koaza":"","lat":36.674991,"lng":137.118137,"zip":"9390000"},{"town":"平吹町","koaza":"","lat":36.690001,"lng":137.206226,"zip":"9300071"},{"town":"福居","koaza":"","lat":36.61352,"lng":137.195522,"zip":"9398242"},{"town":"冨居栄町","koaza":"","lat":36.706621,"lng":137.247878,"zip":"9300833"},{"town":"伏木","koaza":"","lat":36.483628,"lng":137.254208,"zip":"9392173"},{"town":"不二越本町一丁目","koaza":"","lat":36.684068,"lng":137.233565,"zip":"9300965"},{"town":"不二越本町二丁目","koaza":"","lat":36.681728,"lng":137.234189,"zip":"9300965"},{"town":"不二越町","koaza":"","lat":36.683784,"lng":137.243433,"zip":"9300963"},{"town":"藤木","koaza":"","lat":36.684646,"lng":137.271635,"zip":"9300936"},{"town":"藤木新","koaza":"","lat":36.678889,"lng":137.272781,"zip":"9300933"},{"town":"藤木新町","koaza":"","lat":36.680097,"lng":137.27519,"zip":"9300932"},{"town":"藤の木園町","koaza":"","lat":36.68226,"lng":137.267462,"zip":"9300942"},{"town":"藤の木台一丁目","koaza":"","lat":36.677134,"lng":137.270643,"zip":"9300934"},{"town":"藤の木台二丁目","koaza":"","lat":36.679324,"lng":137.271396,"zip":"9300934"},{"town":"藤の木台三丁目","koaza":"","lat":36.680403,"lng":137.271432,"zip":"9300934"},{"town":"二口町一丁目","koaza":"","lat":36.672075,"lng":137.202976,"zip":"9398211"},{"town":"二口町二丁目","koaza":"","lat":36.671141,"lng":137.205566,"zip":"9398211"},{"town":"二口町三丁目","koaza":"","lat":36.668726,"lng":137.208141,"zip":"9398211"},{"town":"二口町四丁目","koaza":"","lat":36.668308,"lng":137.205365,"zip":"9398211"},{"town":"二口町五丁目","koaza":"","lat":36.668441,"lng":137.202774,"zip":"9398211"},{"town":"二俣","koaza":"","lat":36.647522,"lng":137.217076,"zip":"9398185"},{"town":"二俣新町","koaza":"","lat":36.649084,"lng":137.212156,"zip":"9398184"},{"town":"二松","koaza":"","lat":36.592386,"lng":137.225092,"zip":"9392205"},{"town":"婦中町青島","koaza":"","lat":36.630848,"lng":137.18326,"zip":"9392731"},{"town":"婦中町新町","koaza":"","lat":36.659571,"lng":137.124759,"zip":"9392607"},{"town":"婦中町新町村西","koaza":"","lat":36.659525,"lng":137.122057,"zip":"9390000"},{"town":"婦中町新屋","koaza":"","lat":36.624867,"lng":137.174593,"zip":"9392734"},{"town":"婦中町板倉","koaza":"","lat":36.652971,"lng":137.169511,"zip":"9392721"},{"town":"婦中町板倉新","koaza":"","lat":36.648864,"lng":137.17599,"zip":"9392721"},{"town":"婦中町鵜坂","koaza":"","lat":36.672289,"lng":137.188496,"zip":"9392711"},{"town":"婦中町牛滑","koaza":"","lat":36.614163,"lng":137.076635,"zip":"9392634"},{"town":"婦中町上野","koaza":"","lat":36.602081,"lng":137.088692,"zip":"9392627"},{"town":"婦中町大瀬谷","koaza":"","lat":36.611117,"lng":137.063365,"zip":"9392635"},{"town":"婦中町小倉","koaza":"","lat":36.628314,"lng":137.134897,"zip":"9392616"},{"town":"婦中町皆杓","koaza":"","lat":36.602577,"lng":137.080644,"zip":"9392627"},{"town":"婦中町上新屋","koaza":"","lat":36.629065,"lng":137.176489,"zip":"9392736"},{"town":"婦中町上井沢","koaza":"","lat":36.627988,"lng":137.145735,"zip":"9392614"},{"town":"婦中町上轡田","koaza":"","lat":36.655369,"lng":137.181758,"zip":"9392713"},{"town":"婦中町上瀬","koaza":"","lat":36.622624,"lng":137.100268,"zip":"9392625"},{"town":"婦中町上田島","koaza":"","lat":36.670338,"lng":137.174528,"zip":"9392717"},{"town":"婦中町上吉川","koaza":"","lat":36.641449,"lng":137.141096,"zip":"9392612"},{"town":"婦中町河原町","koaza":"","lat":36.643518,"lng":137.129852,"zip":"9392605"},{"town":"婦中町北上瀬","koaza":"","lat":36.631502,"lng":137.100369,"zip":"9390000"},{"town":"婦中町北下瀬","koaza":"","lat":36.632492,"lng":137.100505,"zip":"9390000"},{"town":"婦中町希望ケ丘","koaza":"","lat":36.677223,"lng":137.17804,"zip":"9392703"},{"town":"婦中町下条","koaza":"","lat":36.670822,"lng":137.150241,"zip":"9392758"},{"town":"婦中町小泉","koaza":"","lat":36.673438,"lng":137.157311,"zip":"9392752"},{"town":"婦中町小長沢","koaza":"","lat":36.665662,"lng":137.130695,"zip":"9392601"},{"town":"婦中町小野島","koaza":"","lat":36.655609,"lng":137.145417,"zip":"9392604"},{"town":"婦中町笹倉","koaza":"","lat":36.667075,"lng":137.157798,"zip":"9392753"},{"town":"婦中町沢田","koaza":"","lat":36.63443,"lng":137.128959,"zip":"9392622"},{"town":"婦中町三瀬","koaza":"","lat":36.622305,"lng":137.093517,"zip":"9392625"},{"town":"婦中町地角","koaza":"","lat":36.631631,"lng":137.168046,"zip":"9392744"},{"town":"婦中町島田","koaza":"","lat":36.631538,"lng":137.137996,"zip":"9392617"},{"town":"婦中町島本郷","koaza":"","lat":36.678422,"lng":137.170974,"zip":"9392708"},{"town":"婦中町清水島","koaza":"","lat":36.636416,"lng":137.163703,"zip":"9392743"},{"town":"婦中町下井沢","koaza":"","lat":36.643565,"lng":137.156792,"zip":"9392756"},{"town":"婦中町下轡田","koaza":"","lat":36.662492,"lng":137.174967,"zip":"9392716"},{"town":"婦中町下坂倉","koaza":"","lat":36.663619,"lng":137.169797,"zip":"9392715"},{"town":"婦中町下瀬","koaza":"","lat":36.636871,"lng":137.104317,"zip":"9392624"},{"town":"婦中町下邑","koaza":"","lat":36.66052,"lng":137.136602,"zip":"9392602"},{"town":"婦中町下吉川","koaza":"","lat":36.646461,"lng":137.143755,"zip":"9392611"},{"town":"婦中町十五丁","koaza":"","lat":36.629348,"lng":137.174752,"zip":"9392731"},{"town":"婦中町砂子田","koaza":"","lat":36.653056,"lng":137.162982,"zip":"9392727"},{"town":"婦中町蔵島","koaza":"","lat":36.645615,"lng":137.171854,"zip":"9392726"},{"town":"婦中町添島","koaza":"","lat":36.644479,"lng":137.178449,"zip":"9392722"},{"town":"婦中町外輪野","koaza":"","lat":36.635834,"lng":137.095126,"zip":"9392632"},{"town":"婦中町平等","koaza":"","lat":36.647708,"lng":137.068396,"zip":"9392639"},{"town":"婦中町高田","koaza":"","lat":36.649059,"lng":137.151699,"zip":"9392611"},{"town":"婦中町高塚","koaza":"","lat":36.647988,"lng":137.091796,"zip":"9392631"},{"town":"婦中町高日附","koaza":"","lat":36.634744,"lng":137.139727,"zip":"9392613"},{"town":"婦中町高山","koaza":"","lat":36.617257,"lng":137.086836,"zip":"9392625"},{"town":"婦中町田島","koaza":"","lat":36.673159,"lng":137.176642,"zip":"9392702"},{"town":"婦中町為成新","koaza":"","lat":36.626281,"lng":137.178754,"zip":"9392735"},{"town":"婦中町田屋","koaza":"","lat":36.630165,"lng":137.155404,"zip":"9392748"},{"town":"婦中町千里","koaza":"","lat":36.629937,"lng":137.119139,"zip":"9392622"},{"town":"婦中町塚原","koaza":"","lat":36.663219,"lng":137.186014,"zip":"9392712"},{"town":"婦中町道喜島","koaza":"","lat":36.631508,"lng":137.171509,"zip":"9392738"},{"town":"婦中町道島","koaza":"","lat":36.608967,"lng":137.087228,"zip":"9392626"},{"town":"婦中町道場","koaza":"","lat":36.645617,"lng":137.159954,"zip":"9392757"},{"town":"婦中町富川","koaza":"","lat":36.651621,"lng":137.147354,"zip":"9392604"},{"town":"婦中町富崎","koaza":"","lat":36.638786,"lng":137.122714,"zip":"9392621"},{"town":"婦中町友坂","koaza":"","lat":36.67617,"lng":137.142478,"zip":"9392759"},{"town":"婦中町長沢","koaza":"","lat":36.648867,"lng":137.126368,"zip":"9392606"},{"town":"婦中町中島","koaza":"","lat":36.618899,"lng":137.146955,"zip":"9392747"},{"town":"婦中町中名","koaza":"","lat":36.64303,"lng":137.166535,"zip":"9392741"},{"town":"婦中町成子","koaza":"","lat":36.612167,"lng":137.179263,"zip":"9392733"},{"town":"婦中町西ヶ丘","koaza":"","lat":36.658358,"lng":137.170657,"zip":"9392719"},{"town":"婦中町西本郷","koaza":"","lat":36.678929,"lng":137.166262,"zip":"9392701"},{"town":"婦中町ねむの木","koaza":"","lat":36.639551,"lng":137.175181,"zip":"9392724"},{"town":"婦中町萩島","koaza":"","lat":36.633218,"lng":137.176759,"zip":"9392723"},{"town":"婦中町羽根","koaza":"","lat":36.656436,"lng":137.135234,"zip":"9392603"},{"town":"婦中町羽根新","koaza":"","lat":36.675854,"lng":137.180338,"zip":"9392704"},{"town":"婦中町浜子","koaza":"","lat":36.619577,"lng":137.155942,"zip":"9392746"},{"town":"婦中町速星","koaza":"","lat":36.662089,"lng":137.164118,"zip":"9392706"},{"town":"婦中町東谷","koaza":"","lat":36.626558,"lng":137.082697,"zip":"9392633"},{"town":"婦中町東本郷","koaza":"","lat":36.672789,"lng":137.16821,"zip":"9392707"},{"town":"婦中町響の杜","koaza":"","lat":36.652055,"lng":137.15949,"zip":"9392729"},{"town":"婦中町広田","koaza":"","lat":36.623475,"lng":137.16543,"zip":"9392745"},{"town":"婦中町袋","koaza":"","lat":36.654622,"lng":137.154821,"zip":"9392755"},{"town":"婦中町古沢","koaza":"","lat":36.676857,"lng":137.138198,"zip":"9390000"},{"town":"婦中町分田","koaza":"","lat":36.670088,"lng":137.18263,"zip":"9392718"},{"town":"婦中町鉾木","koaza":"","lat":36.630769,"lng":137.121566,"zip":"9392622"},{"town":"婦中町蛍川","koaza":"","lat":36.65066,"lng":137.166349,"zip":"9392728"},{"town":"婦中町堀","koaza":"","lat":36.636591,"lng":137.168582,"zip":"9392742"},{"town":"婦中町増田","koaza":"","lat":36.653953,"lng":137.174557,"zip":"9392714"},{"town":"婦中町鶚谷","koaza":"","lat":36.628167,"lng":137.067467,"zip":"9392637"},{"town":"婦中町三屋","koaza":"","lat":36.638045,"lng":137.109404,"zip":"9390000"},{"town":"婦中町南下瀬","koaza":"","lat":36.629499,"lng":137.099392,"zip":"9390000"},{"town":"婦中町宮ケ島","koaza":"","lat":36.668006,"lng":137.169381,"zip":"9392705"},{"town":"婦中町宮ケ谷","koaza":"","lat":36.660297,"lng":137.080595,"zip":"9392631"},{"town":"婦中町麦島","koaza":"","lat":36.656587,"lng":137.152112,"zip":"9392754"},{"town":"婦中町葎原","koaza":"","lat":36.621446,"lng":137.064452,"zip":"9392636"},{"town":"婦中町持田","koaza":"","lat":36.63964,"lng":137.171671,"zip":"9392725"},{"town":"婦中町安田","koaza":"","lat":36.682695,"lng":137.156878,"zip":"9392751"},{"town":"婦中町熊野道","koaza":"","lat":36.626605,"lng":137.140174,"zip":"9392615"},{"town":"婦中町夢ケ丘","koaza":"","lat":36.676421,"lng":137.173781,"zip":"9392709"},{"town":"婦中町余川","koaza":"","lat":36.63999,"lng":137.154475,"zip":"9392649"},{"town":"婦中町横野","koaza":"","lat":36.620756,"lng":137.178788,"zip":"9392732"},{"town":"婦中町吉住","koaza":"","lat":36.637615,"lng":137.089587,"zip":"9392632"},{"town":"婦中町吉谷","koaza":"","lat":36.634162,"lng":137.07315,"zip":"9392638"},{"town":"婦中町蓮花寺","koaza":"","lat":36.641907,"lng":137.11301,"zip":"9392623"},{"town":"舟倉","koaza":"","lat":36.563412,"lng":137.229855,"zip":"9392212"},{"town":"舟新","koaza":"","lat":36.560018,"lng":137.221814,"zip":"9390000"},{"town":"舟渡","koaza":"","lat":36.474724,"lng":137.244082,"zip":"9392176"},{"town":"舟橋今町","koaza":"","lat":36.699703,"lng":137.203671,"zip":"9300098"},{"town":"舟橋北町","koaza":"","lat":36.696469,"lng":137.20689,"zip":"9300096"},{"town":"舟橋南町","koaza":"","lat":36.694854,"lng":137.206366,"zip":"9300095"},{"town":"古鍛冶町","koaza":"","lat":36.687248,"lng":137.217279,"zip":"9300058"},{"town":"古川","koaza":"","lat":36.749356,"lng":137.206777,"zip":"9302208"},{"town":"古沢","koaza":"","lat":36.689307,"lng":137.145691,"zip":"9300151"},{"town":"古寺","koaza":"","lat":36.671999,"lng":137.263134,"zip":"9398023"},{"town":"文京町一丁目","koaza":"","lat":36.693277,"lng":137.172265,"zip":"9300876"},{"town":"文京町二丁目","koaza":"","lat":36.690765,"lng":137.170625,"zip":"9300876"},{"town":"文京町三丁目","koaza":"","lat":36.690223,"lng":137.171657,"zip":"9300876"},{"town":"別名","koaza":"","lat":36.641452,"lng":137.184625,"zip":"9398254"},{"town":"星井町一丁目","koaza":"","lat":36.68571,"lng":137.213222,"zip":"9300065"},{"town":"星井町二丁目","koaza":"","lat":36.684385,"lng":137.213156,"zip":"9300065"},{"town":"星井町三丁目","koaza":"","lat":36.682993,"lng":137.213169,"zip":"9300065"},{"town":"堀","koaza":"","lat":36.654421,"lng":137.230464,"zip":"9398057"},{"town":"堀川小泉町","koaza":"","lat":36.674758,"lng":137.218988,"zip":"9398081"},{"town":"堀川小泉町一丁目","koaza":"","lat":36.676005,"lng":137.221439,"zip":"9398081"},{"town":"堀川小泉町二丁目","koaza":"","lat":36.67317,"lng":137.222327,"zip":"9398081"},{"town":"堀川本郷","koaza":"","lat":36.656314,"lng":137.234611,"zip":"9398049"},{"town":"堀川町","koaza":"","lat":36.660681,"lng":137.220439,"zip":"9398072"},{"town":"堀端町","koaza":"","lat":36.686899,"lng":137.20645,"zip":"9300074"},{"town":"本宮","koaza":"","lat":36.555988,"lng":137.481876,"zip":"9301455"},{"town":"本郷","koaza":"","lat":36.722072,"lng":137.149658,"zip":"9300108"},{"town":"本郷島","koaza":"","lat":36.704223,"lng":137.271834,"zip":"9300911"},{"town":"本郷新","koaza":"","lat":36.669383,"lng":137.229687,"zip":"9398046"},{"town":"本郷西部","koaza":"","lat":36.723916,"lng":137.1477,"zip":"9300108"},{"town":"本郷中部","koaza":"","lat":36.730088,"lng":137.151358,"zip":"9300108"},{"town":"本郷東部","koaza":"","lat":36.724904,"lng":137.153162,"zip":"9300108"},{"town":"本郷北部","koaza":"","lat":36.731587,"lng":137.155818,"zip":"9300108"},{"town":"本郷町","koaza":"","lat":36.659618,"lng":137.235598,"zip":"9398045"},{"town":"本町","koaza":"","lat":36.693905,"lng":137.215929,"zip":"9300029"},{"town":"本丸","koaza":"","lat":36.693266,"lng":137.211069,"zip":"9300081"},{"town":"牧","koaza":"","lat":36.566511,"lng":137.353553,"zip":"9301465"},{"town":"牧田","koaza":"","lat":36.612438,"lng":137.236463,"zip":"9398161"},{"town":"牧野","koaza":"","lat":36.585218,"lng":137.268144,"zip":"9301282"},{"town":"馬瀬口","koaza":"","lat":36.623673,"lng":137.289907,"zip":"9301301"},{"town":"町新","koaza":"","lat":36.68894,"lng":137.264434,"zip":"9300923"},{"town":"町長","koaza":"","lat":36.518654,"lng":137.236897,"zip":"9392164"},{"town":"町袋","koaza":"","lat":36.732836,"lng":137.280156,"zip":"9318423"},{"town":"町村","koaza":"","lat":36.678579,"lng":137.256709,"zip":"9300952"},{"town":"町村一丁目","koaza":"","lat":36.683354,"lng":137.255534,"zip":"9300952"},{"town":"町村二丁目","koaza":"","lat":36.679454,"lng":137.259902,"zip":"9300952"},{"town":"松浦町","koaza":"","lat":36.76005,"lng":137.24301,"zip":"9318406"},{"town":"松野","koaza":"","lat":36.602978,"lng":137.23112,"zip":"9392203"},{"town":"松木","koaza":"","lat":36.724541,"lng":137.206661,"zip":"9302213"},{"town":"松木新","koaza":"","lat":36.727564,"lng":137.210261,"zip":"9302212"},{"town":"松若町","koaza":"","lat":36.716747,"lng":137.226971,"zip":"9300812"},{"town":"丸の内一丁目","koaza":"","lat":36.693215,"lng":137.208415,"zip":"9300085"},{"town":"丸の内二丁目","koaza":"","lat":36.69133,"lng":137.208016,"zip":"9300085"},{"town":"丸の内三丁目","koaza":"","lat":36.691753,"lng":137.209752,"zip":"9300085"},{"town":"万願寺","koaza":"","lat":36.592809,"lng":137.235673,"zip":"9392204"},{"town":"三上","koaza":"","lat":36.721838,"lng":137.259753,"zip":"9318434"},{"town":"水落","koaza":"","lat":36.735223,"lng":137.248965,"zip":"9318301"},{"town":"水須","koaza":"","lat":36.53125,"lng":137.373268,"zip":"9301463"},{"town":"水橋池田舘","koaza":"","lat":36.740239,"lng":137.303812,"zip":"9393523"},{"town":"水橋池田町","koaza":"","lat":36.734559,"lng":137.30422,"zip":"9393531"},{"town":"水橋石政","koaza":"","lat":36.740763,"lng":137.31179,"zip":"9390551"},{"town":"水橋石割","koaza":"","lat":36.72483,"lng":137.314654,"zip":"9390561"},{"town":"水橋伊勢屋","koaza":"","lat":36.74229,"lng":137.298235,"zip":"9393524"},{"town":"水橋伊勢領","koaza":"","lat":36.738114,"lng":137.323921,"zip":"9390545"},{"town":"水橋市江","koaza":"","lat":36.753182,"lng":137.318006,"zip":"9390531"},{"town":"水橋市田袋","koaza":"","lat":36.72926,"lng":137.287204,"zip":"9393555"},{"town":"水橋入江","koaza":"","lat":36.707274,"lng":137.278658,"zip":"9393544"},{"town":"水橋魚躬","koaza":"","lat":36.758261,"lng":137.314153,"zip":"9390511"},{"town":"水橋大町","koaza":"","lat":36.754068,"lng":137.300225,"zip":"9390506"},{"town":"水橋沖","koaza":"","lat":36.7218,"lng":137.285592,"zip":"9393541"},{"town":"水橋肘崎","koaza":"","lat":36.732901,"lng":137.292107,"zip":"9393552"},{"town":"水橋開発","koaza":"","lat":36.703581,"lng":137.289488,"zip":"9393542"},{"town":"水橋開発町","koaza":"","lat":36.746951,"lng":137.314311,"zip":"9390535"},{"town":"水橋鏡田","koaza":"","lat":36.748671,"lng":137.327341,"zip":"9390541"},{"town":"水橋堅田","koaza":"","lat":36.743613,"lng":137.32895,"zip":"9390542"},{"town":"水橋金尾","koaza":"","lat":36.722432,"lng":137.306003,"zip":"9393534"},{"town":"水橋金尾新","koaza":"","lat":36.71633,"lng":137.294218,"zip":"9393536"},{"town":"水橋金広","koaza":"","lat":36.714783,"lng":137.306922,"zip":"9390565"},{"town":"水橋上桜木","koaza":"","lat":36.740202,"lng":137.324717,"zip":"9390546"},{"town":"水橋上砂子坂","koaza":"","lat":36.728929,"lng":137.337115,"zip":"9390544"},{"town":"水橋川原町","koaza":"","lat":36.755564,"lng":137.301784,"zip":"9393502"},{"town":"水橋北馬場","koaza":"","lat":36.720252,"lng":137.311585,"zip":"9390567"},{"town":"水橋狐塚","koaza":"","lat":36.747156,"lng":137.319236,"zip":"9390534"},{"town":"水橋小池","koaza":"","lat":36.738862,"lng":137.328962,"zip":"9390547"},{"town":"水橋恋塚","koaza":"","lat":36.739944,"lng":137.319668,"zip":"9390552"},{"town":"水橋小出","koaza":"","lat":36.734771,"lng":137.318854,"zip":"9390553"},{"town":"水橋五郎丸","koaza":"","lat":36.738707,"lng":137.334882,"zip":"9390543"},{"town":"水橋桜木","koaza":"","lat":36.745336,"lng":137.324546,"zip":"9390546"},{"town":"水橋佐野竹","koaza":"","lat":36.717137,"lng":137.323562,"zip":"9390563"},{"town":"水橋山王町","koaza":"","lat":36.755063,"lng":137.297523,"zip":"9393506"},{"town":"水橋下段","koaza":"","lat":36.756412,"lng":137.307754,"zip":"9390521"},{"town":"水橋柴草","koaza":"","lat":36.723124,"lng":137.280238,"zip":"9393547"},{"town":"水橋清水堂","koaza":"","lat":36.712963,"lng":137.31226,"zip":"9390564"},{"town":"水橋下砂子坂","koaza":"","lat":36.729117,"lng":137.32979,"zip":"9390544"},{"town":"水橋下砂子坂新","koaza":"","lat":36.733838,"lng":137.331633,"zip":"9390544"},{"town":"水橋常願寺","koaza":"","lat":36.703225,"lng":137.280489,"zip":"9393543"},{"town":"水橋小路","koaza":"","lat":36.722193,"lng":137.292221,"zip":"9393554"},{"town":"水橋上条新町","koaza":"","lat":36.73014,"lng":137.316794,"zip":"9390558"},{"town":"水橋新保","koaza":"","lat":36.740429,"lng":137.290324,"zip":"9393557"},{"town":"水橋新堀","koaza":"","lat":36.71187,"lng":137.298152,"zip":"9393535"},{"town":"水橋専光寺","koaza":"","lat":36.729227,"lng":137.321138,"zip":"9390554"},{"town":"水橋大正","koaza":"","lat":36.734861,"lng":137.308684,"zip":"9390557"},{"town":"水橋高月","koaza":"","lat":36.757958,"lng":137.311285,"zip":"9390511"},{"town":"水橋高寺","koaza":"","lat":36.723597,"lng":137.320584,"zip":"9390555"},{"town":"水橋高堂","koaza":"","lat":36.726437,"lng":137.302069,"zip":"9393533"},{"town":"水橋舘町","koaza":"","lat":36.753055,"lng":137.310653,"zip":"9390526"},{"town":"水橋田伏","koaza":"","lat":36.720077,"lng":137.318671,"zip":"9390562"},{"town":"水橋辻ヶ堂","koaza":"","lat":36.748787,"lng":137.296086,"zip":"9390000"},{"town":"水橋中馬場","koaza":"","lat":36.717721,"lng":137.31037,"zip":"9390566"},{"town":"水橋中町","koaza":"","lat":36.753993,"lng":137.299687,"zip":"9393511"},{"town":"水橋中村","koaza":"","lat":36.73721,"lng":137.295454,"zip":"9393551"},{"town":"水橋中村町","koaza":"","lat":36.756042,"lng":137.308667,"zip":"9390521"},{"town":"水橋入部町","koaza":"","lat":36.710074,"lng":137.279345,"zip":"9393545"},{"town":"水橋畠等","koaza":"","lat":36.74713,"lng":137.305502,"zip":"9393521"},{"town":"水橋番頭名","koaza":"","lat":36.719781,"lng":137.30282,"zip":"9393534"},{"town":"水橋平榎","koaza":"","lat":36.741165,"lng":137.291857,"zip":"9393557"},{"town":"水橋平塚","koaza":"","lat":36.725482,"lng":137.308906,"zip":"9390568"},{"town":"水橋二杉","koaza":"","lat":36.714152,"lng":137.280078,"zip":"9393546"},{"town":"水橋二ツ屋","koaza":"","lat":36.729396,"lng":137.302226,"zip":"9393532"},{"town":"水橋曲淵","koaza":"","lat":36.730354,"lng":137.307227,"zip":"9390556"},{"town":"水橋町","koaza":"","lat":36.754717,"lng":137.304787,"zip":"9390509"},{"town":"水橋町袋","koaza":"","lat":36.738275,"lng":137.290129,"zip":"9393557"},{"town":"水橋的場","koaza":"","lat":36.725386,"lng":137.295484,"zip":"9393553"},{"town":"水橋柳寺","koaza":"","lat":36.746614,"lng":137.310855,"zip":"9390536"},{"town":"緑町一丁目","koaza":"","lat":36.692382,"lng":137.228299,"zip":"9300038"},{"town":"緑町二丁目","koaza":"","lat":36.691073,"lng":137.228564,"zip":"9300038"},{"town":"湊入船町","koaza":"","lat":36.708549,"lng":137.213764,"zip":"9300805"},{"town":"南大場","koaza":"","lat":36.621436,"lng":137.275532,"zip":"9301304"},{"town":"南金屋","koaza":"","lat":36.635883,"lng":137.230311,"zip":"9398194"},{"town":"南栗山","koaza":"","lat":36.619123,"lng":137.204529,"zip":"9398176"},{"town":"南新町","koaza":"","lat":36.686098,"lng":137.219126,"zip":"9300054"},{"town":"南田町一丁目","koaza":"","lat":36.686037,"lng":137.217024,"zip":"9300056"},{"town":"南田町二丁目","koaza":"","lat":36.68433,"lng":137.216781,"zip":"9300056"},{"town":"南中田","koaza":"","lat":36.622449,"lng":137.197324,"zip":"9398234"},{"town":"南野田","koaza":"","lat":36.591288,"lng":137.219198,"zip":"9392208"},{"town":"三室荒屋","koaza":"","lat":36.612644,"lng":137.294532,"zip":"9301314"},{"town":"宮尾","koaza":"","lat":36.727973,"lng":137.203206,"zip":"9302211"},{"town":"宮条","koaza":"","lat":36.737512,"lng":137.27326,"zip":"9318427"},{"town":"宮園町","koaza":"","lat":36.726862,"lng":137.260888,"zip":"9318436"},{"town":"宮成","koaza":"","lat":36.726423,"lng":137.272672,"zip":"9318425"},{"town":"宮成新","koaza":"","lat":36.723459,"lng":137.274603,"zip":"9300902"},{"town":"宮保","koaza":"","lat":36.627646,"lng":137.220771,"zip":"9398171"},{"town":"宮町","koaza":"","lat":36.729223,"lng":137.258851,"zip":"9318437"},{"town":"向新庄","koaza":"","lat":36.696902,"lng":137.266797,"zip":"9300916"},{"town":"向新庄町一丁目","koaza":"","lat":36.700667,"lng":137.261637,"zip":"9300916"},{"town":"向新庄町二丁目","koaza":"","lat":36.700839,"lng":137.266673,"zip":"9300916"},{"town":"向新庄町三丁目","koaza":"","lat":36.701401,"lng":137.272269,"zip":"9300916"},{"town":"向新庄町四丁目","koaza":"","lat":36.704977,"lng":137.268366,"zip":"9300916"},{"town":"向新庄町五丁目","koaza":"","lat":36.705609,"lng":137.265307,"zip":"9300916"},{"town":"向新庄町六丁目","koaza":"","lat":36.705413,"lng":137.262765,"zip":"9300916"},{"town":"向新庄町七丁目","koaza":"","lat":36.711269,"lng":137.265665,"zip":"9300916"},{"town":"向新庄町八丁目","koaza":"","lat":36.709894,"lng":137.268557,"zip":"9300916"},{"town":"向川原町","koaza":"","lat":36.691619,"lng":137.221178,"zip":"9300041"},{"town":"室町通り一丁目","koaza":"","lat":36.688188,"lng":137.220028,"zip":"9300051"},{"town":"室町通り二丁目","koaza":"","lat":36.68815,"lng":137.222015,"zip":"9300051"},{"town":"明輪町","koaza":"","lat":36.702044,"lng":137.211759,"zip":"9300001"},{"town":"元町一丁目","koaza":"","lat":36.688551,"lng":137.228412,"zip":"9300033"},{"town":"元町二丁目","koaza":"","lat":36.688996,"lng":137.231294,"zip":"9300033"},{"town":"桃井町一丁目","koaza":"","lat":36.688756,"lng":137.206016,"zip":"9300072"},{"town":"桃井町二丁目","koaza":"","lat":36.687623,"lng":137.206422,"zip":"9300072"},{"town":"森","koaza":"","lat":36.750435,"lng":137.233917,"zip":"9318332"},{"town":"森一丁目","koaza":"","lat":36.748829,"lng":137.233896,"zip":"9318332"},{"town":"森二丁目","koaza":"","lat":36.748959,"lng":137.237095,"zip":"9318332"},{"town":"森三丁目","koaza":"","lat":36.746954,"lng":137.235237,"zip":"9318332"},{"town":"森四丁目","koaza":"","lat":36.744784,"lng":137.234684,"zip":"9318332"},{"town":"森五丁目","koaza":"","lat":36.742948,"lng":137.238805,"zip":"9318332"},{"town":"森住町","koaza":"","lat":36.74852,"lng":137.239299,"zip":"9318331"},{"town":"森田","koaza":"","lat":36.6249,"lng":137.229546,"zip":"9398154"},{"town":"森若町","koaza":"","lat":36.747201,"lng":137.231559,"zip":"9318337"},{"town":"文珠寺","koaza":"","lat":36.589423,"lng":137.301881,"zip":"9301325"},{"town":"八木山","koaza":"","lat":36.581669,"lng":137.209001,"zip":"9392253"},{"town":"安田町","koaza":"","lat":36.698052,"lng":137.208669,"zip":"9300092"},{"town":"安野屋町一丁目","koaza":"","lat":36.692841,"lng":137.200862,"zip":"9300087"},{"town":"安野屋町二丁目","koaza":"","lat":36.69278,"lng":137.204277,"zip":"9300087"},{"town":"安野屋町三丁目","koaza":"","lat":36.691528,"lng":137.202474,"zip":"9300087"},{"town":"八尾町青根","koaza":"","lat":36.545206,"lng":137.119329,"zip":"9392405"},{"town":"八尾町赤石","koaza":"","lat":36.506299,"lng":137.120915,"zip":"9392413"},{"town":"八尾町足谷","koaza":"","lat":36.547084,"lng":137.085628,"zip":"9392475"},{"town":"八尾町油","koaza":"","lat":36.56847,"lng":137.126442,"zip":"9392401"},{"town":"八尾町天池","koaza":"","lat":36.568892,"lng":137.095667,"zip":"9392466"},{"town":"八尾町新屋","koaza":"","lat":36.447099,"lng":137.071802,"zip":"9392423"},{"town":"八尾町庵谷","koaza":"","lat":36.438904,"lng":137.070516,"zip":"9392425"},{"town":"八尾町井栗谷","koaza":"","lat":36.578408,"lng":137.174897,"zip":"9392315"},{"town":"八尾町井田","koaza":"","lat":36.593945,"lng":137.150149,"zip":"9392306"},{"town":"八尾町井田新","koaza":"","lat":36.608997,"lng":137.145252,"zip":"9392305"},{"town":"八尾町今町","koaza":"","lat":36.580038,"lng":137.138477,"zip":"9392353"},{"town":"八尾町入谷","koaza":"","lat":36.533955,"lng":137.10766,"zip":"9392445"},{"town":"八尾町岩島","koaza":"","lat":36.541591,"lng":137.124435,"zip":"9392405"},{"town":"八尾町岩屋","koaza":"","lat":36.561634,"lng":137.165123,"zip":"9392326"},{"town":"八尾町上ケ島","koaza":"","lat":36.550058,"lng":137.129249,"zip":"9392404"},{"town":"八尾町上ノ名","koaza":"","lat":36.549391,"lng":137.103225,"zip":"9392473"},{"town":"八尾町薄島","koaza":"","lat":36.602508,"lng":137.174166,"zip":"9392312"},{"town":"八尾町内名","koaza":"","lat":36.477857,"lng":137.115728,"zip":"9392436"},{"town":"八尾町梅苑町一丁目","koaza":"","lat":36.572053,"lng":137.135316,"zip":"9392337"},{"town":"八尾町梅苑町二丁目","koaza":"","lat":36.571987,"lng":137.137357,"zip":"9392337"},{"town":"八尾町上野","koaza":"","lat":36.557273,"lng":137.090028,"zip":"9392477"},{"town":"八尾町越後谷","koaza":"","lat":36.487967,"lng":137.073271,"zip":"9390000"},{"town":"八尾町追分","koaza":"","lat":36.573777,"lng":137.095303,"zip":"9392467"},{"town":"八尾町大下","koaza":"","lat":36.54794,"lng":137.11107,"zip":"9392441"},{"town":"八尾町大杉","koaza":"","lat":36.606461,"lng":137.162386,"zip":"9392303"},{"town":"八尾町大玉生","koaza":"","lat":36.50899,"lng":137.089059,"zip":"9392455"},{"town":"八尾町大道","koaza":"","lat":36.544602,"lng":137.074876,"zip":"9390000"},{"town":"八尾町尾久","koaza":"","lat":36.571632,"lng":137.10274,"zip":"9392465"},{"town":"八尾町奥田","koaza":"","lat":36.619033,"lng":137.126643,"zip":"9392362"},{"town":"八尾町尾畑","koaza":"","lat":36.516589,"lng":137.092022,"zip":"9392454"},{"town":"八尾町小原","koaza":"","lat":36.529865,"lng":137.162547,"zip":"9390000"},{"town":"八尾町鏡町","koaza":"","lat":36.577949,"lng":137.132663,"zip":"9392341"},{"town":"八尾町角間","koaza":"","lat":36.56741,"lng":137.135147,"zip":"9392336"},{"town":"八尾町掛畑","koaza":"","lat":36.553125,"lng":137.156446,"zip":"9392332"},{"town":"八尾町樫尾","koaza":"","lat":36.567999,"lng":137.160704,"zip":"9392327"},{"town":"八尾町桂原","koaza":"","lat":36.493051,"lng":137.11844,"zip":"9392415"},{"town":"八尾町上黒瀬","koaza":"","lat":36.540084,"lng":137.157456,"zip":"9392332"},{"town":"八尾町上高善寺","koaza":"","lat":36.605561,"lng":137.138688,"zip":"9392374"},{"town":"八尾町上笹原","koaza":"","lat":36.535619,"lng":137.150182,"zip":"9392334"},{"town":"八尾町上新町","koaza":"","lat":36.576758,"lng":137.130384,"zip":"9392342"},{"town":"八尾町上田池","koaza":"","lat":36.564128,"lng":137.126624,"zip":"9392402"},{"town":"八尾町上仁歩","koaza":"","lat":36.536643,"lng":137.108031,"zip":"9392444"},{"town":"八尾町上牧","koaza":"","lat":36.48597,"lng":137.083016,"zip":"9392435"},{"town":"八尾町川住","koaza":"","lat":36.53634,"lng":137.118525,"zip":"9392417"},{"town":"八尾町北谷","koaza":"","lat":36.559005,"lng":137.172996,"zip":"9392324"},{"town":"八尾町北袋","koaza":"","lat":36.564834,"lng":137.114488,"zip":"9390000"},{"town":"八尾町桐谷","koaza":"","lat":36.493791,"lng":137.188861,"zip":"9392333"},{"town":"八尾町切詰","koaza":"","lat":36.404765,"lng":137.080851,"zip":"9392426"},{"town":"八尾町窪","koaza":"","lat":36.569435,"lng":137.100251,"zip":"9392465"},{"town":"八尾町倉ケ谷","koaza":"","lat":36.51514,"lng":137.100387,"zip":"9392453"},{"town":"八尾町栗須","koaza":"","lat":36.495567,"lng":137.058607,"zip":"9392431"},{"town":"八尾町黒田","koaza":"","lat":36.605189,"lng":137.15245,"zip":"9392304"},{"town":"八尾町小井波","koaza":"","lat":36.500205,"lng":137.162545,"zip":"9392333"},{"town":"八尾町高善寺","koaza":"","lat":36.61046,"lng":137.138546,"zip":"9392373"},{"town":"八尾町小谷","koaza":"","lat":36.537174,"lng":137.084182,"zip":"9390000"},{"town":"八尾町小長谷","koaza":"","lat":36.578219,"lng":137.149885,"zip":"9392321"},{"town":"八尾町小長谷新","koaza":"","lat":36.577312,"lng":137.158048,"zip":"9392322"},{"town":"八尾町小畑","koaza":"","lat":36.513114,"lng":137.093561,"zip":"9390000"},{"town":"八尾町坂ノ下","koaza":"","lat":36.565305,"lng":137.109786,"zip":"9392471"},{"town":"八尾町東坂下","koaza":"","lat":36.566602,"lng":137.172116,"zip":"9392324"},{"town":"八尾町寺家","koaza":"","lat":36.613415,"lng":137.153005,"zip":"9392301"},{"town":"八尾町下新町","koaza":"","lat":36.58243,"lng":137.139893,"zip":"9392352"},{"town":"八尾町下ノ名","koaza":"","lat":36.550456,"lng":137.096816,"zip":"9392474"},{"town":"八尾町柴橋","koaza":"","lat":36.572964,"lng":137.113459,"zip":"9392462"},{"town":"八尾町島地","koaza":"","lat":36.484617,"lng":137.09424,"zip":"9392434"},{"town":"八尾町下笹原","koaza":"","lat":36.570991,"lng":137.143778,"zip":"9392331"},{"town":"八尾町下島","koaza":"","lat":36.480395,"lng":137.077942,"zip":"9392435"},{"town":"八尾町下田池","koaza":"","lat":36.565869,"lng":137.1269,"zip":"9392402"},{"town":"八尾町下仁歩","koaza":"","lat":36.543702,"lng":137.107558,"zip":"9392442"},{"town":"八尾町下乗嶺","koaza":"","lat":36.558302,"lng":137.125313,"zip":"9392407"},{"town":"八尾町下牧","koaza":"","lat":36.531735,"lng":137.114766,"zip":"9392417"},{"town":"八尾町清水","koaza":"","lat":36.46637,"lng":137.067575,"zip":"9392433"},{"town":"八尾町城生","koaza":"","lat":36.584157,"lng":137.179322,"zip":"9392314"},{"town":"八尾町新田","koaza":"","lat":36.610764,"lng":137.126998,"zip":"9392363"},{"town":"八尾町新名","koaza":"","lat":36.558114,"lng":137.120692,"zip":"9392407"},{"town":"八尾町杉平","koaza":"","lat":36.428538,"lng":137.092534,"zip":"9390000"},{"town":"八尾町杉田","koaza":"","lat":36.610192,"lng":137.170779,"zip":"9392302"},{"town":"八尾町須郷","koaza":"","lat":36.542139,"lng":137.096461,"zip":"9392474"},{"town":"八尾町薄尾","koaza":"","lat":36.481249,"lng":137.06201,"zip":"9392432"},{"town":"八尾町諏訪町","koaza":"","lat":36.574338,"lng":137.132946,"zip":"9392343"},{"town":"八尾町石戸","koaza":"","lat":36.59977,"lng":137.13817,"zip":"9392375"},{"town":"八尾町専沢","koaza":"","lat":36.498109,"lng":137.067806,"zip":"9390000"},{"town":"八尾町草蓮坂","koaza":"","lat":36.533303,"lng":137.105672,"zip":"9390000"},{"town":"八尾町外堀","koaza":"","lat":36.547763,"lng":137.169672,"zip":"9392325"},{"town":"八尾町高尾","koaza":"","lat":36.567078,"lng":137.108911,"zip":"9392471"},{"town":"八尾町高熊","koaza":"","lat":36.574928,"lng":137.122871,"zip":"9392461"},{"town":"八尾町高瀬","koaza":"","lat":36.571294,"lng":137.088893,"zip":"9392467"},{"town":"八尾町高野","koaza":"","lat":36.464779,"lng":137.080052,"zip":"9392437"},{"town":"八尾町高橋","koaza":"","lat":36.574622,"lng":137.11157,"zip":"9392462"},{"town":"八尾町高峯","koaza":"","lat":36.561324,"lng":137.117971,"zip":"9392406"},{"town":"八尾町滝谷","koaza":"","lat":36.44827,"lng":137.120407,"zip":"9390000"},{"town":"八尾町滝脇","koaza":"","lat":36.525708,"lng":137.16816,"zip":"9392333"},{"town":"八尾町竹ノ内","koaza":"","lat":36.56966,"lng":137.107053,"zip":"9392464"},{"town":"八尾町舘本郷","koaza":"","lat":36.615258,"lng":137.137736,"zip":"9392372"},{"town":"八尾町田中","koaza":"","lat":36.62135,"lng":137.141663,"zip":"9392371"},{"town":"八尾町谷折","koaza":"","lat":36.490704,"lng":137.106465,"zip":"9392416"},{"town":"八尾町田頭","koaza":"","lat":36.464015,"lng":137.107526,"zip":"9392421"},{"town":"八尾町天満町","koaza":"","lat":36.583926,"lng":137.142753,"zip":"9392351"},{"town":"八尾町土玉生","koaza":"","lat":36.526496,"lng":137.079265,"zip":"9390000"},{"town":"八尾町栃折","koaza":"","lat":36.509352,"lng":137.061091,"zip":"9392431"},{"town":"八尾町道畑下中山","koaza":"","lat":36.558197,"lng":137.131359,"zip":"9392403"},{"town":"八尾町中","koaza":"","lat":36.559066,"lng":137.082839,"zip":"9392463"},{"town":"八尾町中島","koaza":"","lat":36.478516,"lng":137.081873,"zip":"9392436"},{"town":"八尾町中神通","koaza":"","lat":36.598864,"lng":137.183933,"zip":"9392311"},{"town":"八尾町中仁歩","koaza":"","lat":36.540147,"lng":137.109177,"zip":"9392443"},{"town":"八尾町中山","koaza":"","lat":36.49113,"lng":137.074235,"zip":"9392432"},{"town":"八尾町夏前","koaza":"","lat":36.443267,"lng":137.087046,"zip":"9390000"},{"town":"八尾町西原","koaza":"","lat":36.456716,"lng":137.083327,"zip":"9392422"},{"town":"八尾町西川倉","koaza":"","lat":36.532435,"lng":137.121736,"zip":"9392417"},{"town":"八尾町西葛坂","koaza":"","lat":36.568294,"lng":137.123108,"zip":"9392401"},{"town":"八尾町西神通","koaza":"","lat":36.597753,"lng":137.178628,"zip":"9392311"},{"town":"八尾町西新町","koaza":"","lat":36.574662,"lng":137.128214,"zip":"9392345"},{"town":"八尾町西町","koaza":"","lat":36.578648,"lng":137.136232,"zip":"9392355"},{"town":"八尾町西松瀬","koaza":"","lat":36.497281,"lng":137.130138,"zip":"9392415"},{"town":"八尾町布谷","koaza":"","lat":36.511908,"lng":137.112108,"zip":"9392416"},{"town":"八尾町野飼","koaza":"","lat":36.595802,"lng":137.173447,"zip":"9392314"},{"town":"八尾町野須郷","koaza":"","lat":36.563407,"lng":137.109461,"zip":"9392472"},{"town":"八尾町乗嶺","koaza":"","lat":36.553826,"lng":137.116694,"zip":"9392406"},{"town":"八尾町花房","koaza":"","lat":36.478772,"lng":137.068846,"zip":"9392433"},{"town":"八尾町東川倉","koaza":"","lat":36.532844,"lng":137.129468,"zip":"9392411"},{"town":"八尾町東葛坂","koaza":"","lat":36.566406,"lng":137.130322,"zip":"9392401"},{"town":"八尾町東新町","koaza":"","lat":36.573182,"lng":137.129787,"zip":"9392344"},{"town":"八尾町東布谷","koaza":"","lat":36.520943,"lng":137.127598,"zip":"9392412"},{"town":"八尾町東原","koaza":"","lat":36.450105,"lng":137.091536,"zip":"9392424"},{"town":"八尾町東町","koaza":"","lat":36.57683,"lng":137.136042,"zip":"9392354"},{"town":"八尾町東松瀬","koaza":"","lat":36.504478,"lng":137.143118,"zip":"9392414"},{"town":"八尾町平沢","koaza":"","lat":36.533739,"lng":137.098078,"zip":"9392451"},{"town":"八尾町平林","koaza":"","lat":36.605423,"lng":137.107999,"zip":"9392367"},{"town":"八尾町深谷","koaza":"","lat":36.586963,"lng":137.165332,"zip":"9392316"},{"town":"八尾町福島","koaza":"","lat":36.586601,"lng":137.135341,"zip":"9392376"},{"town":"八尾町福島三丁目","koaza":"","lat":36.592455,"lng":137.142148,"zip":"9392376"},{"town":"八尾町福島四丁目","koaza":"","lat":36.591194,"lng":137.140064,"zip":"9392376"},{"town":"八尾町福島五丁目","koaza":"","lat":36.594026,"lng":137.139729,"zip":"9392376"},{"town":"八尾町福島六丁目","koaza":"","lat":36.593718,"lng":137.13763,"zip":"9392376"},{"town":"八尾町福島七丁目","koaza":"","lat":36.596042,"lng":137.136839,"zip":"9392376"},{"town":"八尾町二屋","koaza":"","lat":36.497666,"lng":137.073816,"zip":"9390000"},{"town":"八尾町武道原","koaza":"","lat":36.521718,"lng":137.087141,"zip":"9392454"},{"town":"八尾町細滝","koaza":"","lat":36.561311,"lng":137.100633,"zip":"9392476"},{"town":"八尾町正間","koaza":"","lat":36.531969,"lng":137.08972,"zip":"9392456"},{"town":"八尾町松原","koaza":"","lat":36.606833,"lng":137.118913,"zip":"9392367"},{"town":"八尾町丸山","koaza":"","lat":36.590151,"lng":137.157953,"zip":"9392317"},{"town":"八尾町翠尾","koaza":"","lat":36.621914,"lng":137.135008,"zip":"9392371"},{"town":"八尾町水谷","koaza":"","lat":36.599211,"lng":137.130034,"zip":"9392364"},{"town":"八尾町水無","koaza":"","lat":36.47231,"lng":137.082706,"zip":"9392437"},{"town":"八尾町三田","koaza":"","lat":36.615172,"lng":137.106207,"zip":"9392361"},{"town":"八尾町三ツ松","koaza":"","lat":36.522907,"lng":137.095885,"zip":"9392452"},{"town":"八尾町水口","koaza":"","lat":36.544919,"lng":137.128508,"zip":"9392404"},{"town":"八尾町峯","koaza":"","lat":36.557064,"lng":137.11195,"zip":"9392473"},{"town":"八尾町宮ケ島","koaza":"","lat":36.567573,"lng":137.102598,"zip":"9392464"},{"town":"八尾町宮腰","koaza":"","lat":36.54523,"lng":137.163407,"zip":"9392325"},{"town":"八尾町宮ノ下","koaza":"","lat":36.552698,"lng":137.128418,"zip":"9392403"},{"town":"八尾町茗ケ島","koaza":"","lat":36.514694,"lng":137.074496,"zip":"9392456"},{"town":"八尾町茗ケ原","koaza":"","lat":36.540555,"lng":137.140218,"zip":"9392335"},{"town":"八尾町妙川寺","koaza":"","lat":36.594194,"lng":137.133381,"zip":"9392365"},{"town":"八尾町村杉","koaza":"","lat":36.573201,"lng":137.158526,"zip":"9392323"},{"town":"八尾町滅鬼","koaza":"","lat":36.59965,"lng":137.169423,"zip":"9392313"},{"town":"八尾町保内一丁目","koaza":"","lat":36.59369,"lng":137.122515,"zip":"9392366"},{"town":"八尾町保内二丁目","koaza":"","lat":36.586318,"lng":137.122743,"zip":"9392366"},{"town":"八尾町保内三丁目","koaza":"","lat":36.592547,"lng":137.114186,"zip":"9392366"},{"town":"八尾町安谷","koaza":"","lat":36.487892,"lng":137.079016,"zip":"9390000"},{"town":"八尾町八十島","koaza":"","lat":36.56309,"lng":137.122246,"zip":"9392402"},{"town":"八尾町谷内","koaza":"","lat":36.569678,"lng":137.115346,"zip":"9392463"},{"town":"八尾町山中","koaza":"","lat":36.525703,"lng":137.068165,"zip":"9390000"},{"town":"八尾町柚木","koaza":"","lat":36.56336,"lng":137.091649,"zip":"9392475"},{"town":"八尾町横平","koaza":"","lat":36.498482,"lng":137.077219,"zip":"9390000"},{"town":"八尾町吉友","koaza":"","lat":36.498304,"lng":137.089115,"zip":"9390000"},{"town":"八尾町鼠谷","koaza":"","lat":36.52915,"lng":137.106897,"zip":"9392447"},{"town":"八尾町猟師ケ原","koaza":"","lat":36.471984,"lng":137.153816,"zip":"9392414"},{"town":"八尾町和山","koaza":"","lat":36.562658,"lng":137.111986,"zip":"9392472"},{"town":"柳町一丁目","koaza":"","lat":36.693124,"lng":137.222208,"zip":"9300016"},{"town":"柳町二丁目","koaza":"","lat":36.693244,"lng":137.223371,"zip":"9300016"},{"town":"柳町三丁目","koaza":"","lat":36.693734,"lng":137.224276,"zip":"9300016"},{"town":"柳町四丁目","koaza":"","lat":36.694624,"lng":137.222613,"zip":"9300016"},{"town":"八幡","koaza":"","lat":36.740613,"lng":137.196575,"zip":"9302222"},{"town":"山岸","koaza":"","lat":36.719659,"lng":137.204355,"zip":"9302215"},{"town":"山田赤目谷","koaza":"","lat":36.578048,"lng":137.066549,"zip":"9302117"},{"town":"山田居舟","koaza":"","lat":36.541358,"lng":137.053089,"zip":"9302114"},{"town":"山田今山田","koaza":"","lat":36.570696,"lng":137.044501,"zip":"9302125"},{"town":"山田鎌倉","koaza":"","lat":36.566842,"lng":137.083822,"zip":"9302111"},{"town":"山田北山","koaza":"","lat":36.581548,"lng":137.076684,"zip":"9302106"},{"town":"山田高清水","koaza":"","lat":36.51063,"lng":137.035696,"zip":"9390000"},{"town":"山田小島","koaza":"","lat":36.593553,"lng":137.072243,"zip":"9302123"},{"town":"山田小谷","koaza":"","lat":36.571833,"lng":137.059985,"zip":"9302115"},{"town":"山田清水","koaza":"","lat":36.589793,"lng":137.05144,"zip":"9302126"},{"town":"山田白井谷","koaza":"","lat":36.599722,"lng":137.075682,"zip":"9302121"},{"town":"山田宿坊","koaza":"","lat":36.587851,"lng":137.101522,"zip":"9302102"},{"town":"山田数納","koaza":"","lat":36.524061,"lng":137.051676,"zip":"9390000"},{"town":"山田谷","koaza":"","lat":36.55196,"lng":137.067828,"zip":"9302113"},{"town":"山田中瀬","koaza":"","lat":36.592478,"lng":137.091473,"zip":"9302101"},{"town":"山田中村","koaza":"","lat":36.582732,"lng":137.064367,"zip":"9302124"},{"town":"山田鍋谷","koaza":"","lat":36.54943,"lng":137.045719,"zip":"9302114"},{"town":"山田沼又","koaza":"","lat":36.601975,"lng":137.060913,"zip":"9302128"},{"town":"山田深道","koaza":"","lat":36.528778,"lng":137.040077,"zip":"9390000"},{"town":"山田牧","koaza":"","lat":36.596014,"lng":137.056448,"zip":"9302127"},{"town":"山田湯","koaza":"","lat":36.576878,"lng":137.084476,"zip":"9302105"},{"town":"山田若狭","koaza":"","lat":36.537864,"lng":137.064761,"zip":"9390000"},{"town":"山田若土","koaza":"","lat":36.563562,"lng":137.061303,"zip":"9302112"},{"town":"山室","koaza":"","lat":36.672364,"lng":137.236084,"zip":"9398006"},{"town":"山室荒屋","koaza":"","lat":36.668361,"lng":137.252971,"zip":"9398022"},{"town":"山室荒屋新町","koaza":"","lat":36.670826,"lng":137.258749,"zip":"9398026"},{"town":"山本","koaza":"","lat":36.675197,"lng":137.107034,"zip":"9300156"},{"town":"山本新","koaza":"","lat":36.670303,"lng":137.100969,"zip":"9390000"},{"town":"弥生町一丁目","koaza":"","lat":36.697589,"lng":137.224483,"zip":"9300019"},{"town":"弥生町二丁目","koaza":"","lat":36.695908,"lng":137.2247,"zip":"9300019"},{"town":"八日町","koaza":"","lat":36.651969,"lng":137.200764,"zip":"9398221"},{"town":"四方","koaza":"","lat":36.754215,"lng":137.194725,"zip":"9302243"},{"town":"四方荒屋","koaza":"","lat":36.751849,"lng":137.200681,"zip":"9302243"},{"town":"四方一番町","koaza":"","lat":36.758573,"lng":137.192017,"zip":"9302255"},{"town":"四方恵比須町","koaza":"","lat":36.760041,"lng":137.195785,"zip":"9302258"},{"town":"四方北窪","koaza":"","lat":36.754521,"lng":137.207967,"zip":"9302242"},{"town":"四方新","koaza":"","lat":36.756586,"lng":137.189452,"zip":"9302246"},{"town":"四方新出町","koaza":"","lat":36.756087,"lng":137.192303,"zip":"9302247"},{"town":"四方神明町","koaza":"","lat":36.757451,"lng":137.193416,"zip":"9302254"},{"town":"四方田町","koaza":"","lat":36.757653,"lng":137.194618,"zip":"9302253"},{"town":"四方西岩瀬","koaza":"","lat":36.758853,"lng":137.205661,"zip":"9302241"},{"town":"四方二番町","koaza":"","lat":36.758911,"lng":137.194331,"zip":"9302257"},{"town":"四方野割町","koaza":"","lat":36.758125,"lng":137.197243,"zip":"9302252"},{"town":"四方港町","koaza":"","lat":36.759821,"lng":137.193494,"zip":"9302256"},{"town":"横内","koaza":"","lat":36.660196,"lng":137.259311,"zip":"9398033"},{"town":"横越","koaza":"","lat":36.750357,"lng":137.287275,"zip":"9318412"},{"town":"横樋","koaza":"","lat":36.571326,"lng":137.218755,"zip":"9392216"},{"town":"吉岡","koaza":"","lat":36.628751,"lng":137.233187,"zip":"9398153"},{"town":"吉倉","koaza":"","lat":36.62276,"lng":137.18889,"zip":"9398244"},{"town":"吉作","koaza":"","lat":36.704961,"lng":137.161439,"zip":"9300142"},{"town":"吉野","koaza":"","lat":36.493209,"lng":137.251306,"zip":"9392172"},{"town":"四ツ葉町","koaza":"","lat":36.707231,"lng":137.227154,"zip":"9300841"},{"town":"米田","koaza":"","lat":36.736045,"lng":137.24537,"zip":"9318303"},{"town":"米田すずかけ台一丁目","koaza":"","lat":36.737391,"lng":137.237805,"zip":"9318306"},{"town":"米田すずかけ台二丁目","koaza":"","lat":36.735231,"lng":137.238068,"zip":"9318306"},{"town":"米田すずかけ台三丁目","koaza":"","lat":36.734242,"lng":137.238562,"zip":"9318306"},{"town":"米田町一丁目","koaza":"","lat":36.738461,"lng":137.241282,"zip":"9318304"},{"town":"米田町二丁目","koaza":"","lat":36.734049,"lng":137.241595,"zip":"9318304"},{"town":"米田町三丁目","koaza":"","lat":36.739071,"lng":137.245891,"zip":"9318304"},{"town":"若竹町一丁目","koaza":"","lat":36.635743,"lng":137.220072,"zip":"9398181"},{"town":"若竹町二丁目","koaza":"","lat":36.634842,"lng":137.220976,"zip":"9398181"},{"town":"若竹町三丁目","koaza":"","lat":36.633896,"lng":137.221059,"zip":"9398181"},{"town":"若竹町四丁目","koaza":"","lat":36.632842,"lng":137.221554,"zip":"9398181"},{"town":"若竹町五丁目","koaza":"","lat":36.634779,"lng":137.217366,"zip":"9398181"},{"town":"若竹町六丁目","koaza":"","lat":36.634175,"lng":137.218715,"zip":"9398181"},{"town":"和田","koaza":"","lat":36.563917,"lng":137.37764,"zip":"9301461"},{"town":"割山","koaza":"","lat":36.542813,"lng":137.216395,"zip":"9392183"},{"town":"上飯野新町三丁目","koaza":"","lat":36.710164,"lng":137.253606,"zip":"9300825"},{"town":"上飯野新町四丁目","koaza":"","lat":36.712017,"lng":137.256177,"zip":"9300825"},{"town":"水落一丁目","koaza":"","lat":36.735136,"lng":137.248964,"zip":"9318301"},{"town":"水橋舘町","koaza":"下柳町","lat":36.755865,"lng":137.312663,"zip":"9390526"},{"town":"願海寺","koaza":"水口","lat":36.721806,"lng":137.139455,"zip":"9300175"},{"town":"布目","koaza":"新町","lat":36.745965,"lng":137.187199,"zip":"9302233"},{"town":"四方","koaza":"江代町","lat":36.754847,"lng":137.192744,"zip":"9302243"},{"town":"四方","koaza":"南町","lat":36.756042,"lng":137.194821,"zip":"9302243"},{"town":"下飯野","koaza":"荒田","lat":36.741448,"lng":137.255845,"zip":"9318443"},{"town":"山室","koaza":"東田割","lat":36.670278,"lng":137.238587,"zip":"9398006"},{"town":"中川原","koaza":"川原田割","lat":36.673648,"lng":137.247201,"zip":"9398015"},{"town":"中川原","koaza":"八幡田割","lat":36.675245,"lng":137.248682,"zip":"9398015"},{"town":"公文名","koaza":"山室新町","lat":36.678344,"lng":137.231011,"zip":"9398002"},{"town":"八尾町福島","koaza":"上野","lat":36.585534,"lng":137.132603,"zip":"9392376"},{"town":"上大久保","koaza":"栄町","lat":36.58772,"lng":137.209081,"zip":"9392252"},{"town":"上大久保","koaza":"北新町","lat":36.592076,"lng":137.20912,"zip":"9392252"},{"town":"黒崎","koaza":"寺田割","lat":36.650496,"lng":137.208962,"zip":"9398214"},{"town":"下大久保","koaza":"緑町","lat":36.606373,"lng":137.212368,"zip":"9392251"},{"town":"上大久保","koaza":"東新町","lat":36.59152,"lng":137.212525,"zip":"9392252"},{"town":"下大久保","koaza":"東ケ丘","lat":36.608824,"lng":137.212533,"zip":"9392251"},{"town":"長附","koaza":"南花園町","lat":36.588992,"lng":137.203566,"zip":"9392255"},{"town":"城村","koaza":"城ヶ丘","lat":36.647116,"lng":137.272583,"zip":"9398114"},{"town":"新庄町","koaza":"馬場","lat":36.698085,"lng":137.260053,"zip":"9300992"},{"town":"呉羽町","koaza":"海老山","lat":36.709618,"lng":137.170306,"zip":"9300138"},{"town":"婦中町余川","koaza":"西余川","lat":36.636424,"lng":137.147259,"zip":"9392649"},{"town":"婦中町余川","koaza":"東余川","lat":36.638071,"lng":137.156243,"zip":"9392649"},{"town":"東黒牧","koaza":"上野","lat":36.598027,"lng":137.273596,"zip":"9301262"}]