[{"town":"青井谷","koaza":"","lat":36.676826,"lng":137.066661,"zip":"9390321"},{"town":"あおば台一丁目","koaza":"","lat":36.718116,"lng":137.052174,"zip":"9390247"},{"town":"あおば台二丁目","koaza":"","lat":36.717888,"lng":137.051587,"zip":"9390247"},{"town":"赤井","koaza":"","lat":36.727352,"lng":137.068045,"zip":"9390287"},{"town":"足洗新町一丁目","koaza":"","lat":36.758652,"lng":137.167643,"zip":"9330241"},{"town":"荒町","koaza":"","lat":36.696008,"lng":137.049148,"zip":"9390412"},{"town":"有磯一丁目","koaza":"","lat":36.762533,"lng":137.14247,"zip":"9330251"},{"town":"有磯二丁目","koaza":"","lat":36.759086,"lng":137.149903,"zip":"9330251"},{"town":"池多","koaza":"","lat":36.690105,"lng":137.103865,"zip":"9390318"},{"town":"一条","koaza":"","lat":36.713093,"lng":137.088193,"zip":"9390333"},{"town":"市井","koaza":"","lat":36.706284,"lng":137.055267,"zip":"9390404"},{"town":"稲積","koaza":"","lat":36.739127,"lng":137.107162,"zip":"9390301"},{"town":"今井","koaza":"","lat":36.737637,"lng":137.087833,"zip":"9340046"},{"town":"今開発","koaza":"","lat":36.730724,"lng":137.091792,"zip":"9390286"},{"town":"射水町一丁目","koaza":"","lat":36.768749,"lng":137.12375,"zip":"9330227"},{"town":"射水町二丁目","koaza":"","lat":36.768737,"lng":137.127348,"zip":"9330227"},{"town":"犬内","koaza":"","lat":36.738214,"lng":137.04698,"zip":"9390231"},{"town":"梅木","koaza":"","lat":36.68338,"lng":137.044923,"zip":"9390415"},{"town":"海老江","koaza":"","lat":36.766848,"lng":137.145785,"zip":"9330233"},{"town":"海老江七軒","koaza":"","lat":36.757254,"lng":137.154986,"zip":"9330234"},{"town":"海老江練合","koaza":"","lat":36.759703,"lng":137.159528,"zip":"9330235"},{"town":"海老江浜開","koaza":"","lat":36.768148,"lng":137.138803,"zip":"9330231"},{"town":"大江","koaza":"","lat":36.732103,"lng":137.114396,"zip":"9390302"},{"town":"大島北野","koaza":"","lat":36.746076,"lng":137.049066,"zip":"9390271"},{"town":"沖","koaza":"","lat":36.737598,"lng":137.096394,"zip":"9340045"},{"town":"沖塚原","koaza":"","lat":36.750901,"lng":137.072663,"zip":"9340055"},{"town":"海王町","koaza":"","lat":36.780804,"lng":137.105892,"zip":"9340023"},{"town":"開口","koaza":"","lat":36.711592,"lng":137.056914,"zip":"9390406"},{"town":"海竜新町","koaza":"","lat":36.771338,"lng":137.135544,"zip":"9390300"},{"town":"海竜町","koaza":"","lat":36.774858,"lng":137.128098,"zip":"9330222"},{"town":"鏡宮","koaza":"","lat":36.752385,"lng":137.083277,"zip":"9340049"},{"town":"鏡宮弥生一丁目","koaza":"","lat":36.758725,"lng":137.084508,"zip":"9340040"},{"town":"鏡宮弥生二丁目","koaza":"","lat":36.757089,"lng":137.083906,"zip":"9340040"},{"town":"片口","koaza":"","lat":36.760898,"lng":137.116497,"zip":"9340032"},{"town":"片口久々江","koaza":"","lat":36.744219,"lng":137.117932,"zip":"9340037"},{"town":"片口高場","koaza":"","lat":36.75116,"lng":137.115245,"zip":"9340036"},{"town":"加茂西部","koaza":"","lat":36.739848,"lng":137.139853,"zip":"9330205"},{"town":"加茂中部","koaza":"","lat":36.742916,"lng":137.148912,"zip":"9330204"},{"town":"加茂東部","koaza":"","lat":36.749711,"lng":137.152589,"zip":"9330203"},{"town":"かもめ台","koaza":"","lat":36.757511,"lng":137.176093,"zip":"9330240"},{"town":"北高木","koaza":"","lat":36.742105,"lng":137.070444,"zip":"9390281"},{"town":"北野","koaza":"","lat":36.733155,"lng":137.054078,"zip":"9390276"},{"town":"久々湊","koaza":"","lat":36.7568,"lng":137.098081,"zip":"9340039"},{"town":"草岡町一丁目","koaza":"","lat":36.76855,"lng":137.130078,"zip":"9330225"},{"town":"草岡町二丁目","koaza":"","lat":36.76779,"lng":137.133205,"zip":"9330225"},{"town":"串田新","koaza":"","lat":36.683297,"lng":137.039203,"zip":"9390416"},{"town":"倉垣小杉","koaza":"","lat":36.732967,"lng":137.144782,"zip":"9330206"},{"town":"黒河","koaza":"","lat":36.707556,"lng":137.111581,"zip":"9390311"},{"town":"黒河新","koaza":"","lat":36.697694,"lng":137.110176,"zip":"9390311"},{"town":"下条","koaza":"","lat":36.717079,"lng":137.043611,"zip":"9390252"},{"town":"下条新","koaza":"","lat":36.713402,"lng":137.078474,"zip":"9390331"},{"town":"小泉","koaza":"","lat":36.703552,"lng":137.031588,"zip":"9390417"},{"town":"越の潟町","koaza":"","lat":36.775783,"lng":137.10656,"zip":"9340024"},{"town":"小島","koaza":"","lat":36.736278,"lng":137.060647,"zip":"9390274"},{"town":"小杉北野","koaza":"","lat":36.685561,"lng":137.11834,"zip":"9390316"},{"town":"小杉白石","koaza":"","lat":36.729051,"lng":137.129285,"zip":"9390304"},{"town":"小林","koaza":"","lat":36.734881,"lng":137.070534,"zip":"9390288"},{"town":"桜町","koaza":"","lat":36.777418,"lng":137.083124,"zip":"9340015"},{"town":"三ケ","koaza":"","lat":36.723987,"lng":137.089547,"zip":"9390341"},{"town":"椎土","koaza":"","lat":36.688149,"lng":137.119251,"zip":"9390315"},{"town":"七美","koaza":"","lat":36.752044,"lng":137.137344,"zip":"9330252"},{"town":"七美一丁目","koaza":"","lat":36.755278,"lng":137.133504,"zip":"9330252"},{"town":"七美二丁目","koaza":"","lat":36.754878,"lng":137.142122,"zip":"9330252"},{"town":"七美中野","koaza":"","lat":36.759988,"lng":137.136919,"zip":"9330253"},{"town":"島","koaza":"","lat":36.712389,"lng":137.039014,"zip":"9390254"},{"town":"下村三箇","koaza":"","lat":36.750116,"lng":137.163333,"zip":"9330202"},{"town":"下若","koaza":"","lat":36.718272,"lng":137.077446,"zip":"9390243"},{"town":"宿屋","koaza":"","lat":36.694501,"lng":137.073109,"zip":"9390321"},{"town":"庄川本町","koaza":"","lat":36.784885,"lng":137.071407,"zip":"9340003"},{"town":"生源寺","koaza":"","lat":36.698128,"lng":137.060217,"zip":"9390403"},{"town":"庄西町一丁目","koaza":"","lat":36.790015,"lng":137.071091,"zip":"9340001"},{"town":"庄西町二丁目","koaza":"","lat":36.788425,"lng":137.06326,"zip":"9340001"},{"town":"浄土寺","koaza":"","lat":36.676452,"lng":137.087177,"zip":"9390321"},{"town":"白石","koaza":"","lat":36.733461,"lng":137.136209,"zip":"9330207"},{"town":"新開発","koaza":"","lat":36.730782,"lng":137.076351,"zip":"9390284"},{"town":"新片町一丁目","koaza":"","lat":36.758861,"lng":137.11361,"zip":"9340033"},{"town":"新片町二丁目","koaza":"","lat":36.759419,"lng":137.115603,"zip":"9340033"},{"town":"新片町三丁目","koaza":"","lat":36.758396,"lng":137.119529,"zip":"9340033"},{"town":"新片町四丁目","koaza":"","lat":36.757215,"lng":137.119281,"zip":"9340033"},{"town":"新片町五丁目","koaza":"","lat":36.757857,"lng":137.115722,"zip":"9340033"},{"town":"新堀","koaza":"","lat":36.754243,"lng":137.124571,"zip":"9340035"},{"town":"摺出寺","koaza":"","lat":36.744337,"lng":137.133495,"zip":"9330209"},{"town":"善光寺","koaza":"","lat":36.77615,"lng":137.077368,"zip":"9340005"},{"town":"太閤町","koaza":"","lat":36.709864,"lng":137.097715,"zip":"9390361"},{"town":"太閤山十丁目","koaza":"","lat":36.710709,"lng":137.092279,"zip":"9390362"},{"town":"太閤山十一丁目","koaza":"","lat":36.709467,"lng":137.09054,"zip":"9390362"},{"town":"太閤山一丁目","koaza":"","lat":36.709701,"lng":137.095284,"zip":"9390362"},{"town":"太閤山二丁目","koaza":"","lat":36.706549,"lng":137.095006,"zip":"9390362"},{"town":"太閤山三丁目","koaza":"","lat":36.70645,"lng":137.092875,"zip":"9390362"},{"town":"太閤山四丁目","koaza":"","lat":36.705227,"lng":137.093783,"zip":"9390362"},{"town":"太閤山五丁目","koaza":"","lat":36.704756,"lng":137.090393,"zip":"9390362"},{"town":"太閤山六丁目","koaza":"","lat":36.704998,"lng":137.088068,"zip":"9390362"},{"town":"太閤山七丁目","koaza":"","lat":36.706706,"lng":137.088399,"zip":"9390362"},{"town":"太閤山八丁目","koaza":"","lat":36.70737,"lng":137.090773,"zip":"9390362"},{"town":"太閤山九丁目","koaza":"","lat":36.708841,"lng":137.091732,"zip":"9390362"},{"town":"大門","koaza":"","lat":36.734461,"lng":137.049116,"zip":"9390232"},{"town":"大門島","koaza":"","lat":36.720344,"lng":137.051872,"zip":"9390300"},{"town":"大門新","koaza":"","lat":36.735024,"lng":137.045662,"zip":"9390233"},{"town":"大門本江","koaza":"","lat":36.715086,"lng":137.055691,"zip":"9390246"},{"town":"高木","koaza":"","lat":36.743219,"lng":137.083199,"zip":"9340047"},{"town":"高場新町一丁目","koaza":"","lat":36.756009,"lng":137.116944,"zip":"9340034"},{"town":"高場新町二丁目","koaza":"","lat":36.755807,"lng":137.114827,"zip":"9340034"},{"town":"高場新町三丁目","koaza":"","lat":36.753869,"lng":137.115374,"zip":"9340034"},{"town":"高場新町四丁目","koaza":"","lat":36.75237,"lng":137.115566,"zip":"9340034"},{"town":"竹鼻","koaza":"","lat":36.711843,"lng":137.062937,"zip":"9390407"},{"town":"立町","koaza":"","lat":36.779855,"lng":137.088348,"zip":"9340013"},{"town":"棚田","koaza":"","lat":36.718978,"lng":137.061446,"zip":"9390245"},{"town":"中央町","koaza":"","lat":36.779452,"lng":137.084705,"zip":"9340012"},{"town":"塚越","koaza":"","lat":36.698807,"lng":137.121174,"zip":"9390313"},{"town":"津幡江","koaza":"","lat":36.749015,"lng":137.106769,"zip":"9340038"},{"town":"円池","koaza":"","lat":36.699697,"lng":137.053175,"zip":"9390411"},{"town":"手崎","koaza":"","lat":36.720942,"lng":137.116878,"zip":"9390306"},{"town":"寺塚原","koaza":"","lat":36.752595,"lng":137.056792,"zip":"9340056"},{"town":"東明七軒","koaza":"","lat":36.761457,"lng":137.153343,"zip":"9330236"},{"town":"東明中町","koaza":"","lat":36.763662,"lng":137.147486,"zip":"9330238"},{"town":"東明西町","koaza":"","lat":36.76531,"lng":137.143442,"zip":"9330239"},{"town":"東明東町","koaza":"","lat":36.762444,"lng":137.150143,"zip":"9330237"},{"town":"土代","koaza":"","lat":36.692531,"lng":137.116143,"zip":"9390314"},{"town":"鳥取","koaza":"","lat":36.737001,"lng":137.077258,"zip":"9390283"},{"town":"殿村","koaza":"","lat":36.74522,"lng":137.091512,"zip":"9340044"},{"town":"中老田","koaza":"","lat":36.697183,"lng":137.119075,"zip":"9390312"},{"town":"中老田新","koaza":"","lat":36.700929,"lng":137.116387,"zip":"9390312"},{"town":"中新湊","koaza":"","lat":36.776873,"lng":137.08832,"zip":"9340027"},{"town":"中太閤山十丁目","koaza":"","lat":36.701111,"lng":137.092912,"zip":"9390363"},{"town":"中太閤山十一丁目","koaza":"","lat":36.701288,"lng":137.094978,"zip":"9390363"},{"town":"中太閤山十二丁目","koaza":"","lat":36.702236,"lng":137.09641,"zip":"9390363"},{"town":"中太閤山十三丁目","koaza":"","lat":36.700855,"lng":137.096125,"zip":"9390363"},{"town":"中太閤山十四丁目","koaza":"","lat":36.701038,"lng":137.097438,"zip":"9390363"},{"town":"中太閤山十五丁目","koaza":"","lat":36.703766,"lng":137.097999,"zip":"9390363"},{"town":"中太閤山十六丁目","koaza":"","lat":36.701828,"lng":137.098942,"zip":"9390363"},{"town":"中太閤山十七丁目","koaza":"","lat":36.699447,"lng":137.099908,"zip":"9390363"},{"town":"中太閤山十八丁目","koaza":"","lat":36.699301,"lng":137.089717,"zip":"9390363"},{"town":"中太閤山十九丁目","koaza":"","lat":36.700567,"lng":137.086356,"zip":"9390363"},{"town":"中太閤山一丁目","koaza":"","lat":36.703789,"lng":137.095801,"zip":"9390363"},{"town":"中太閤山二丁目","koaza":"","lat":36.703567,"lng":137.093087,"zip":"9390363"},{"town":"中太閤山三丁目","koaza":"","lat":36.702001,"lng":137.093318,"zip":"9390363"},{"town":"中太閤山四丁目","koaza":"","lat":36.702886,"lng":137.090498,"zip":"9390363"},{"town":"中太閤山五丁目","koaza":"","lat":36.703574,"lng":137.088209,"zip":"9390363"},{"town":"中太閤山六丁目","koaza":"","lat":36.703068,"lng":137.085928,"zip":"9390363"},{"town":"中太閤山七丁目","koaza":"","lat":36.702095,"lng":137.088853,"zip":"9390363"},{"town":"中太閤山八丁目","koaza":"","lat":36.700675,"lng":137.091007,"zip":"9390363"},{"town":"中太閤山九丁目","koaza":"","lat":36.699995,"lng":137.092505,"zip":"9390363"},{"town":"中野","koaza":"","lat":36.742225,"lng":137.059505,"zip":"9390273"},{"town":"中村","koaza":"","lat":36.721949,"lng":137.054395,"zip":"9390241"},{"town":"奈呉の江","koaza":"","lat":36.762551,"lng":137.10034,"zip":"9340031"},{"town":"西新湊","koaza":"","lat":36.780411,"lng":137.076429,"zip":"9340004"},{"town":"西高木","koaza":"","lat":36.742316,"lng":137.123593,"zip":"9390303"},{"town":"西広上","koaza":"","lat":36.702018,"lng":137.015628,"zip":"9390257"},{"town":"二の丸町","koaza":"","lat":36.77446,"lng":137.091971,"zip":"9340026"},{"town":"布目","koaza":"","lat":36.746302,"lng":137.08019,"zip":"9340048"},{"town":"布目沢","koaza":"","lat":36.702897,"lng":137.045855,"zip":"9390418"},{"town":"野手","koaza":"","lat":36.665986,"lng":137.066943,"zip":"9390321"},{"town":"野村","koaza":"","lat":36.750598,"lng":137.098501,"zip":"9340043"},{"town":"橋下条","koaza":"","lat":36.707763,"lng":137.081548,"zip":"9390332"},{"town":"八幡町一丁目","koaza":"","lat":36.78169,"lng":137.091582,"zip":"9340025"},{"town":"八幡町二丁目","koaza":"","lat":36.779357,"lng":137.096656,"zip":"9340025"},{"town":"八幡町三丁目","koaza":"","lat":36.776233,"lng":137.097511,"zip":"9340025"},{"town":"八講","koaza":"","lat":36.742786,"lng":137.128123,"zip":"9330208"},{"town":"浜開新町","koaza":"","lat":36.766833,"lng":137.138088,"zip":"9330232"},{"town":"坂東","koaza":"","lat":36.755964,"lng":137.057095,"zip":"9340057"},{"town":"東太閤山一丁目","koaza":"","lat":36.70014,"lng":137.117846,"zip":"9390319"},{"town":"東太閤山二丁目","koaza":"","lat":36.699229,"lng":137.117613,"zip":"9390319"},{"town":"東太閤山三丁目","koaza":"","lat":36.698119,"lng":137.117458,"zip":"9390319"},{"town":"東太閤山四丁目","koaza":"","lat":36.698082,"lng":137.115376,"zip":"9390319"},{"town":"日宮","koaza":"","lat":36.703985,"lng":137.085362,"zip":"9390332"},{"town":"戸破","koaza":"","lat":36.721682,"lng":137.110661,"zip":"9390351"},{"town":"平野","koaza":"","lat":36.689227,"lng":137.09638,"zip":"9390323"},{"town":"広上","koaza":"","lat":36.703815,"lng":137.023792,"zip":"9390256"},{"town":"枇杷首","koaza":"","lat":36.735323,"lng":137.041358,"zip":"9390235"},{"town":"藤巻","koaza":"","lat":36.710142,"lng":137.052856,"zip":"9390405"},{"town":"二口","koaza":"","lat":36.725469,"lng":137.056105,"zip":"9390234"},{"town":"放生津町","koaza":"","lat":36.782602,"lng":137.085896,"zip":"9340022"},{"town":"朴木","koaza":"","lat":36.757772,"lng":137.078532,"zip":"9340053"},{"town":"堀江千石","koaza":"","lat":36.766351,"lng":137.125299,"zip":"9330226"},{"town":"堀岡","koaza":"","lat":36.772064,"lng":137.124083,"zip":"9330223"},{"town":"堀岡新明神","koaza":"","lat":36.775021,"lng":137.112067,"zip":"9340021"},{"town":"堀岡古明神","koaza":"","lat":36.769167,"lng":137.134316,"zip":"9330224"},{"town":"堀岡明神新","koaza":"","lat":36.773027,"lng":137.119822,"zip":"9330228"},{"town":"堀内","koaza":"","lat":36.714425,"lng":137.050206,"zip":"9390253"},{"town":"本開発","koaza":"","lat":36.728786,"lng":137.082865,"zip":"9390285"},{"town":"本江","koaza":"","lat":36.758345,"lng":137.172965,"zip":"9330244"},{"town":"本江北","koaza":"","lat":36.754113,"lng":137.17102,"zip":"9330244"},{"town":"本江三箇","koaza":"","lat":36.75954,"lng":137.170521,"zip":"9330244"},{"town":"本江利波","koaza":"","lat":36.746071,"lng":137.167106,"zip":"9330245"},{"town":"本江中","koaza":"","lat":36.748231,"lng":137.169513,"zip":"9330244"},{"town":"本江中新","koaza":"","lat":36.753929,"lng":137.168442,"zip":"9330247"},{"town":"本江西","koaza":"","lat":36.753281,"lng":137.165793,"zip":"9330244"},{"town":"本江針山","koaza":"","lat":36.756298,"lng":137.163023,"zip":"9330248"},{"town":"本江針山新","koaza":"","lat":36.757694,"lng":137.160269,"zip":"9330249"},{"town":"本江針山開","koaza":"","lat":36.759086,"lng":137.163545,"zip":"9330242"},{"town":"本江東","koaza":"","lat":36.752193,"lng":137.178353,"zip":"9330244"},{"town":"本江南","koaza":"","lat":36.745087,"lng":137.16723,"zip":"9330244"},{"town":"本田","koaza":"","lat":36.718412,"lng":137.07183,"zip":"9390244"},{"town":"本町一丁目","koaza":"","lat":36.783698,"lng":137.076426,"zip":"9340011"},{"town":"本町二丁目","koaza":"","lat":36.783051,"lng":137.079598,"zip":"9340011"},{"town":"本町三丁目","koaza":"","lat":36.781917,"lng":137.081947,"zip":"9340011"},{"town":"松木","koaza":"","lat":36.761477,"lng":137.06992,"zip":"9340052"},{"town":"三日曽根","koaza":"","lat":36.778922,"lng":137.079719,"zip":"9340016"},{"town":"水戸田","koaza":"","lat":36.707442,"lng":137.071885,"zip":"9390401"},{"town":"緑町","koaza":"","lat":36.775036,"lng":137.081535,"zip":"9340014"},{"town":"港町","koaza":"","lat":36.786868,"lng":137.077598,"zip":"9340002"},{"town":"南太閤山十丁目","koaza":"","lat":36.69686,"lng":137.092052,"zip":"9390364"},{"town":"南太閤山十一丁目","koaza":"","lat":36.696985,"lng":137.094147,"zip":"9390364"},{"town":"南太閤山十二丁目","koaza":"","lat":36.696973,"lng":137.096217,"zip":"9390364"},{"town":"南太閤山十三丁目","koaza":"","lat":36.697609,"lng":137.097523,"zip":"9390364"},{"town":"南太閤山十四丁目","koaza":"","lat":36.698289,"lng":137.098545,"zip":"9390364"},{"town":"南太閤山十五丁目","koaza":"","lat":36.696397,"lng":137.099195,"zip":"9390364"},{"town":"南太閤山十六丁目","koaza":"","lat":36.694417,"lng":137.097218,"zip":"9390364"},{"town":"南太閤山十七丁目","koaza":"","lat":36.694845,"lng":137.09347,"zip":"9390364"},{"town":"南太閤山十八丁目","koaza":"","lat":36.695695,"lng":137.088474,"zip":"9390364"},{"town":"南太閤山十九丁目","koaza":"","lat":36.695566,"lng":137.084793,"zip":"9390364"},{"town":"南太閤山一丁目","koaza":"","lat":36.699551,"lng":137.097164,"zip":"9390364"},{"town":"南太閤山二丁目","koaza":"","lat":36.698841,"lng":137.093533,"zip":"9390364"},{"town":"南太閤山三丁目","koaza":"","lat":36.69844,"lng":137.091362,"zip":"9390364"},{"town":"南太閤山四丁目","koaza":"","lat":36.697593,"lng":137.090006,"zip":"9390364"},{"town":"南太閤山五丁目","koaza":"","lat":36.697587,"lng":137.088304,"zip":"9390364"},{"town":"南太閤山六丁目","koaza":"","lat":36.697781,"lng":137.086902,"zip":"9390364"},{"town":"南太閤山七丁目","koaza":"","lat":36.699425,"lng":137.08257,"zip":"9390364"},{"town":"南太閤山八丁目","koaza":"","lat":36.696241,"lng":137.088692,"zip":"9390364"},{"town":"南太閤山九丁目","koaza":"","lat":36.69518,"lng":137.094803,"zip":"9390364"},{"town":"南高木","koaza":"","lat":36.739202,"lng":137.07408,"zip":"9390282"},{"town":"八島","koaza":"","lat":36.755582,"lng":137.149791,"zip":"9390300"},{"town":"安吉","koaza":"","lat":36.721464,"lng":137.068272,"zip":"9390242"},{"town":"八塚","koaza":"","lat":36.729236,"lng":137.059349,"zip":"9390275"},{"town":"山本","koaza":"","lat":36.684059,"lng":137.104621,"zip":"9390317"},{"town":"山本新","koaza":"","lat":36.687712,"lng":137.111993,"zip":"9390317"},{"town":"山屋","koaza":"","lat":36.751203,"lng":137.160019,"zip":"9330201"},{"town":"流通センター青井谷一丁目","koaza":"","lat":36.694464,"lng":137.065447,"zip":"9390300"},{"town":"流通センター青井谷二丁目","koaza":"","lat":36.696185,"lng":137.070275,"zip":"9390300"},{"town":"流通センター下条一丁目","koaza":"","lat":36.69844,"lng":137.071844,"zip":"9390300"},{"town":"流通センター水戸田二丁目","koaza":"","lat":36.697954,"lng":137.066085,"zip":"9390402"},{"town":"流通センター水戸田三丁目","koaza":"","lat":36.698831,"lng":137.069149,"zip":"9390402"},{"town":"若杉","koaza":"","lat":36.744253,"lng":137.055577,"zip":"9390272"},{"town":"若林","koaza":"","lat":36.710864,"lng":137.065199,"zip":"9390408"},{"town":"鷲塚","koaza":"","lat":36.72133,"lng":137.125007,"zip":"9390305"},{"town":"作道","koaza":"","lat":36.755717,"lng":137.09028,"zip":"9340041"},{"town":"神楽町","koaza":"","lat":36.760913,"lng":137.083243,"zip":"9340054"},{"town":"川口宮袋入会地","koaza":"","lat":36.765857,"lng":137.051499,"zip":"9390300"},{"town":"串田","koaza":"","lat":36.691829,"lng":137.042553,"zip":"9390413"},{"town":"生源寺新","koaza":"","lat":36.689406,"lng":137.045793,"zip":"9390414"},{"town":"上野","koaza":"","lat":36.692531,"lng":137.084005,"zip":"9390322"},{"town":"入会地","koaza":"","lat":36.675591,"lng":137.08325,"zip":"9390321"},{"town":"上条","koaza":"","lat":36.712009,"lng":137.032286,"zip":"9390255"},{"town":"土合","koaza":"","lat":36.722752,"lng":137.039161,"zip":"9390251"},{"town":"本開発","koaza":"代官免","lat":36.730128,"lng":137.084455,"zip":"9390285"},{"town":"戸破","koaza":"元町","lat":36.713394,"lng":137.097277,"zip":"9390351"},{"town":"三ケ","koaza":"本中町","lat":36.722903,"lng":137.093978,"zip":"9390341"},{"town":"戸破","koaza":"荒町","lat":36.722176,"lng":137.10128,"zip":"9390351"},{"town":"本江","koaza":"後新","lat":36.757602,"lng":137.171904,"zip":"9330244"},{"town":"橋下条","koaza":"二の井","lat":36.707863,"lng":137.082621,"zip":"9390332"},{"town":"戸破","koaza":"若葉町","lat":36.718314,"lng":137.102458,"zip":"9390351"}]