[{"town":"赤倉","koaza":"","lat":36.658977,"lng":136.887375,"zip":"9320814"},{"town":"浅地","koaza":"","lat":36.635735,"lng":136.874679,"zip":"9320122"},{"town":"荒間","koaza":"","lat":36.713005,"lng":136.821934,"zip":"9320071"},{"town":"安養寺","koaza":"","lat":36.631275,"lng":136.869401,"zip":"9320129"},{"town":"安楽寺","koaza":"","lat":36.673516,"lng":136.840346,"zip":"9320062"},{"town":"石王丸","koaza":"","lat":36.692375,"lng":136.893627,"zip":"9320037"},{"town":"石坂","koaza":"","lat":36.657626,"lng":136.846841,"zip":"9320835"},{"town":"今石動町一丁目","koaza":"","lat":36.677101,"lng":136.87603,"zip":"9320051"},{"town":"今石動町二丁目","koaza":"","lat":36.674648,"lng":136.87731,"zip":"9320051"},{"town":"岩尾滝","koaza":"","lat":36.701355,"lng":136.820441,"zip":"9320073"},{"town":"岩崎","koaza":"","lat":36.699674,"lng":136.855324,"zip":"9320014"},{"town":"岩武","koaza":"","lat":36.623646,"lng":136.900453,"zip":"9320113"},{"town":"宇治新","koaza":"","lat":36.689467,"lng":136.888924,"zip":"9320036"},{"town":"臼谷","koaza":"","lat":36.611652,"lng":136.821591,"zip":"9320853"},{"town":"内御堂","koaza":"","lat":36.64298,"lng":136.894327,"zip":"9320106"},{"town":"内山","koaza":"","lat":36.617754,"lng":136.791673,"zip":"9320863"},{"town":"上野本","koaza":"","lat":36.675766,"lng":136.858121,"zip":"9320054"},{"town":"小神","koaza":"","lat":36.669963,"lng":136.879917,"zip":"9320817"},{"town":"小矢部町","koaza":"","lat":36.675771,"lng":136.871948,"zip":"9320058"},{"town":"金屋本江","koaza":"","lat":36.664814,"lng":136.899197,"zip":"9320812"},{"town":"鴨島","koaza":"","lat":36.614119,"lng":136.900263,"zip":"9320125"},{"town":"嘉例谷","koaza":"","lat":36.720105,"lng":136.804955,"zip":"9320075"},{"town":"川開新","koaza":"","lat":36.623909,"lng":136.824711,"zip":"9320855"},{"town":"観音町","koaza":"","lat":36.677812,"lng":136.863556,"zip":"9320046"},{"town":"北一","koaza":"","lat":36.641432,"lng":136.829941,"zip":"9320844"},{"town":"北屋敷","koaza":"","lat":36.721658,"lng":136.847806,"zip":"9320003"},{"town":"経田","koaza":"","lat":36.637754,"lng":136.885496,"zip":"9320103"},{"town":"清沢","koaza":"","lat":36.620001,"lng":136.894733,"zip":"9320112"},{"town":"清原","koaza":"","lat":36.706062,"lng":136.855756,"zip":"9320013"},{"town":"久利須","koaza":"","lat":36.73347,"lng":136.832434,"zip":"9320001"},{"town":"興法寺","koaza":"","lat":36.60977,"lng":136.884639,"zip":"9320127"},{"town":"五社","koaza":"","lat":36.68312,"lng":136.919788,"zip":"9320801"},{"town":"胡麻島","koaza":"","lat":36.646593,"lng":136.884728,"zip":"9320105"},{"town":"小森谷","koaza":"","lat":36.616291,"lng":136.846278,"zip":"9320133"},{"town":"五郎丸","koaza":"","lat":36.630398,"lng":136.81391,"zip":"9320862"},{"town":"坂又","koaza":"","lat":36.683771,"lng":136.885418,"zip":"9320034"},{"town":"桜町","koaza":"","lat":36.686704,"lng":136.862034,"zip":"9320022"},{"town":"七社","koaza":"","lat":36.67567,"lng":136.928553,"zip":"9320802"},{"town":"渋江","koaza":"","lat":36.640962,"lng":136.859585,"zip":"9320137"},{"town":"島","koaza":"","lat":36.659587,"lng":136.873536,"zip":"9320825"},{"town":"清水","koaza":"","lat":36.619228,"lng":136.90414,"zip":"9320114"},{"town":"下川崎","koaza":"","lat":36.60711,"lng":136.898661,"zip":"9320126"},{"town":"下後亟","koaza":"","lat":36.650901,"lng":136.903904,"zip":"9320101"},{"town":"下島","koaza":"","lat":36.653125,"lng":136.874905,"zip":"9320824"},{"town":"下中","koaza":"","lat":36.66582,"lng":136.909257,"zip":"9320804"},{"town":"下屋敷","koaza":"","lat":36.724448,"lng":136.854689,"zip":"9320005"},{"town":"城山町","koaza":"","lat":36.681942,"lng":136.860723,"zip":"9320047"},{"town":"新富町","koaza":"","lat":36.677313,"lng":136.871658,"zip":"9320044"},{"town":"新西","koaza":"","lat":36.62858,"lng":136.896002,"zip":"9320111"},{"town":"末沢新","koaza":"","lat":36.624687,"lng":136.822586,"zip":"9320854"},{"town":"末友","koaza":"","lat":36.618281,"lng":136.834826,"zip":"9320851"},{"town":"菅ケ原","koaza":"","lat":36.721425,"lng":136.83623,"zip":"9320008"},{"town":"杉谷内","koaza":"","lat":36.614558,"lng":136.854529,"zip":"9320132"},{"town":"千石","koaza":"","lat":36.709597,"lng":136.806094,"zip":"9320074"},{"town":"高木","koaza":"","lat":36.626987,"lng":136.882034,"zip":"9320123"},{"town":"高木出","koaza":"","lat":36.664851,"lng":136.883402,"zip":"9320815"},{"town":"高坂","koaza":"","lat":36.714211,"lng":136.852023,"zip":"9320006"},{"town":"田川","koaza":"","lat":36.705456,"lng":136.87907,"zip":"9320021"},{"town":"棚田","koaza":"","lat":36.638358,"lng":136.8427,"zip":"9320843"},{"town":"谷坪野","koaza":"","lat":36.693458,"lng":136.820859,"zip":"9320064"},{"town":"中央町","koaza":"","lat":36.676792,"lng":136.867435,"zip":"9320045"},{"town":"長","koaza":"","lat":36.647356,"lng":136.856209,"zip":"9320842"},{"town":"津沢","koaza":"","lat":36.62235,"lng":136.897224,"zip":"9320115"},{"town":"津沢一丁目","koaza":"","lat":36.625329,"lng":136.898081,"zip":"9320115"},{"town":"峠","koaza":"","lat":36.708179,"lng":136.830035,"zip":"9320072"},{"town":"道坪野","koaza":"","lat":36.684942,"lng":136.834447,"zip":"9320061"},{"town":"道明","koaza":"","lat":36.676076,"lng":136.913735,"zip":"9320803"},{"town":"道林寺","koaza":"","lat":36.649274,"lng":136.850363,"zip":"9320841"},{"town":"戸久","koaza":"","lat":36.615539,"lng":136.863423,"zip":"9320128"},{"town":"茄子島","koaza":"","lat":36.666566,"lng":136.872611,"zip":"9320826"},{"town":"名畑","koaza":"","lat":36.635353,"lng":136.86194,"zip":"9320131"},{"town":"西川原","koaza":"","lat":36.642131,"lng":136.880991,"zip":"9320104"},{"town":"西町","koaza":"","lat":36.675295,"lng":136.862587,"zip":"9320055"},{"town":"西中","koaza":"","lat":36.65441,"lng":136.910992,"zip":"9320805"},{"town":"西中野","koaza":"","lat":36.687923,"lng":136.878409,"zip":"9320035"},{"town":"西島","koaza":"","lat":36.631027,"lng":136.891498,"zip":"9320116"},{"town":"西福町","koaza":"","lat":36.681806,"lng":136.881058,"zip":"9320042"},{"town":"二ノ滝","koaza":"","lat":36.717566,"lng":136.847631,"zip":"9320004"},{"town":"糠子島","koaza":"","lat":36.699387,"lng":136.847596,"zip":"9320016"},{"town":"野寺","koaza":"","lat":36.664345,"lng":136.89079,"zip":"9320813"},{"town":"蓮沼","koaza":"","lat":36.655894,"lng":136.857628,"zip":"9320834"},{"town":"畠中町","koaza":"","lat":36.680236,"lng":136.872966,"zip":"9320043"},{"town":"八伏","koaza":"","lat":36.645131,"lng":136.804632,"zip":"9320864"},{"town":"八講田","koaza":"","lat":36.639364,"lng":136.813154,"zip":"9320861"},{"town":"埴生","koaza":"","lat":36.666517,"lng":136.838847,"zip":"9320836"},{"town":"原牧","koaza":"","lat":36.712767,"lng":136.860479,"zip":"9320011"},{"town":"東福町","koaza":"","lat":36.678605,"lng":136.88525,"zip":"9320041"},{"town":"平桜","koaza":"","lat":36.628423,"lng":136.845816,"zip":"9320134"},{"town":"平田","koaza":"","lat":36.639808,"lng":136.849725,"zip":"9320136"},{"town":"福上","koaza":"","lat":36.647465,"lng":136.877514,"zip":"9320823"},{"town":"福久","koaza":"","lat":36.670816,"lng":136.87351,"zip":"9320816"},{"town":"藤森","koaza":"","lat":36.634136,"lng":136.856023,"zip":"9320135"},{"town":"フロンティアパーク","koaza":"","lat":36.627621,"lng":136.820285,"zip":"9320856"},{"town":"別所滝","koaza":"","lat":36.707753,"lng":136.850989,"zip":"9320018"},{"town":"法楽寺","koaza":"","lat":36.700049,"lng":136.867891,"zip":"9320027"},{"town":"松尾","koaza":"","lat":36.646448,"lng":136.837046,"zip":"9320845"},{"town":"松永","koaza":"","lat":36.654314,"lng":136.837215,"zip":"9320846"},{"town":"水落","koaza":"","lat":36.674107,"lng":136.906395,"zip":"9320806"},{"town":"水島","koaza":"","lat":36.637161,"lng":136.906891,"zip":"9320102"},{"town":"水牧","koaza":"","lat":36.671042,"lng":136.890402,"zip":"9320811"},{"town":"嶺","koaza":"","lat":36.703974,"lng":136.861292,"zip":"9320012"},{"town":"峯坪野","koaza":"","lat":36.687759,"lng":136.827259,"zip":"9320000"},{"town":"蓑輪","koaza":"","lat":36.618573,"lng":136.885379,"zip":"9320124"},{"town":"宮須","koaza":"","lat":36.696141,"lng":136.863648,"zip":"9320026"},{"town":"宮中","koaza":"","lat":36.693089,"lng":136.858697,"zip":"9320025"},{"town":"名ケ滝","koaza":"","lat":36.716621,"lng":136.834433,"zip":"9320007"},{"town":"メルヘンランド","koaza":"","lat":36.660799,"lng":136.848848,"zip":"9320838"},{"town":"森屋","koaza":"","lat":36.727203,"lng":136.842731,"zip":"9320002"},{"town":"矢水町","koaza":"","lat":36.655261,"lng":136.866659,"zip":"9320121"},{"town":"八和町","koaza":"","lat":36.681719,"lng":136.868405,"zip":"9320048"},{"town":"柳原","koaza":"","lat":36.680243,"lng":136.901694,"zip":"9320807"},{"town":"矢波","koaza":"","lat":36.695343,"lng":136.848813,"zip":"9320015"},{"town":"屋波牧","koaza":"","lat":36.690854,"lng":136.848683,"zip":"9320024"},{"town":"横谷","koaza":"","lat":36.691647,"lng":136.864132,"zip":"9320023"},{"town":"了輪","koaza":"","lat":36.707096,"lng":136.841632,"zip":"9320017"},{"town":"六郎谷","koaza":"","lat":36.721278,"lng":136.866161,"zip":"9320000"},{"town":"論田","koaza":"","lat":36.699635,"lng":136.827398,"zip":"9320065"},{"town":"和沢","koaza":"","lat":36.653101,"lng":136.885336,"zip":"9320822"},{"town":"鷲島","koaza":"","lat":36.661225,"lng":136.879137,"zip":"9320821"},{"town":"石名田","koaza":"","lat":36.685875,"lng":136.907793,"zip":"9320808"},{"town":"岡","koaza":"","lat":36.696345,"lng":136.902655,"zip":"9320031"},{"town":"地崎","koaza":"","lat":36.689764,"lng":136.903849,"zip":"9320032"},{"town":"芹川","koaza":"","lat":36.681534,"lng":136.894239,"zip":"9320033"},{"town":"本町","koaza":"","lat":36.674429,"lng":136.86829,"zip":"9320057"},{"town":"泉町","koaza":"","lat":36.672693,"lng":136.870456,"zip":"9320052"},{"town":"石動町","koaza":"","lat":36.672959,"lng":136.864077,"zip":"9320053"},{"town":"後谷","koaza":"","lat":36.676395,"lng":136.853794,"zip":"9320831"},{"town":"野端","koaza":"","lat":36.670779,"lng":136.856912,"zip":"9320832"},{"town":"綾子","koaza":"","lat":36.666327,"lng":136.863257,"zip":"9320833"},{"town":"今石動町","koaza":"","lat":36.677956,"lng":136.860013,"zip":"9320051"},{"town":"芹川","koaza":"日光島","lat":36.686505,"lng":136.892559,"zip":"9320033"},{"town":"平桜","koaza":"岡山","lat":36.626462,"lng":136.848458,"zip":"9320134"}]