[{"town":"阿尾","koaza":"","lat":36.884243,"lng":136.986391,"zip":"9350002"},{"town":"赤毛","koaza":"","lat":36.795581,"lng":136.879228,"zip":"9350274"},{"town":"朝日丘","koaza":"","lat":36.847754,"lng":136.982665,"zip":"9350023"},{"town":"朝日本町","koaza":"","lat":36.852917,"lng":136.983675,"zip":"9350022"},{"town":"味川","koaza":"","lat":36.896667,"lng":136.925678,"zip":"9350343"},{"town":"粟原","koaza":"","lat":36.830481,"lng":136.936681,"zip":"9350054"},{"town":"五十谷","koaza":"","lat":36.921044,"lng":136.973408,"zip":"9350426"},{"town":"飯久保","koaza":"","lat":36.807003,"lng":136.958993,"zip":"9350112"},{"town":"泉","koaza":"","lat":36.861704,"lng":136.942675,"zip":"9350065"},{"town":"伊勢大町一丁目","koaza":"","lat":36.849886,"lng":136.988279,"zip":"9350015"},{"town":"伊勢大町二丁目","koaza":"","lat":36.847389,"lng":136.988841,"zip":"9350015"},{"town":"磯辺","koaza":"","lat":36.918986,"lng":136.956135,"zip":"9350338"},{"town":"稲積","koaza":"","lat":36.88176,"lng":136.972352,"zip":"9350006"},{"town":"岩瀬","koaza":"","lat":36.824597,"lng":136.869414,"zip":"9350272"},{"town":"宇波","koaza":"","lat":36.917926,"lng":137.008185,"zip":"9350422"},{"town":"上田","koaza":"","lat":36.849661,"lng":136.93118,"zip":"9350056"},{"town":"老谷","koaza":"","lat":36.835277,"lng":136.862976,"zip":"9350271"},{"town":"大浦","koaza":"","lat":36.825097,"lng":136.976842,"zip":"9350103"},{"town":"大浦新町","koaza":"","lat":36.830718,"lng":136.974507,"zip":"9350101"},{"town":"大窪","koaza":"","lat":36.943273,"lng":136.980428,"zip":"9350416"},{"town":"大境","koaza":"","lat":36.923304,"lng":137.027056,"zip":"9350412"},{"town":"大野","koaza":"","lat":36.861018,"lng":136.958416,"zip":"9350026"},{"town":"大野新","koaza":"","lat":36.859811,"lng":136.964908,"zip":"9350027"},{"town":"大覚口","koaza":"","lat":36.794225,"lng":136.948282,"zip":"9350000"},{"town":"小窪","koaza":"","lat":36.860564,"lng":136.903419,"zip":"9350257"},{"town":"小久米","koaza":"","lat":36.845894,"lng":136.893415,"zip":"9350263"},{"town":"小滝","koaza":"","lat":36.945736,"lng":136.943505,"zip":"9350337"},{"town":"小竹","koaza":"","lat":36.797306,"lng":137.008885,"zip":"9350034"},{"town":"海津","koaza":"","lat":36.825573,"lng":136.964336,"zip":"9350045"},{"town":"柿谷","koaza":"","lat":36.876267,"lng":136.934256,"zip":"9350067"},{"town":"角間","koaza":"","lat":36.937113,"lng":136.961791,"zip":"9350331"},{"town":"懸札","koaza":"","lat":36.919676,"lng":136.903498,"zip":"9350346"},{"town":"加納","koaza":"","lat":36.867918,"lng":136.965929,"zip":"9350063"},{"town":"上泉","koaza":"","lat":36.82113,"lng":136.994482,"zip":"9350037"},{"town":"上久津呂","koaza":"","lat":36.821744,"lng":136.947304,"zip":"9350047"},{"town":"上田子","koaza":"","lat":36.80255,"lng":136.992902,"zip":"9350035"},{"town":"上余川","koaza":"","lat":36.889722,"lng":136.910758,"zip":"9350344"},{"town":"川崎","koaza":"","lat":36.833291,"lng":136.96599,"zip":"9350043"},{"town":"川尻","koaza":"","lat":36.828589,"lng":136.963465,"zip":"9350044"},{"town":"蒲田","koaza":"","lat":36.796755,"lng":136.969951,"zip":"9350105"},{"town":"北大町","koaza":"","lat":36.864253,"lng":136.984861,"zip":"9350004"},{"town":"北八代","koaza":"","lat":36.902417,"lng":136.980556,"zip":"9350001"},{"town":"葛葉","koaza":"","lat":36.842276,"lng":136.867728,"zip":"9350268"},{"town":"国見","koaza":"","lat":36.932088,"lng":136.942117,"zip":"9350336"},{"town":"窪","koaza":"","lat":36.840314,"lng":136.99207,"zip":"9350024"},{"town":"熊無","koaza":"","lat":36.878816,"lng":136.896475,"zip":"9350251"},{"town":"久目","koaza":"","lat":36.833018,"lng":136.902736,"zip":"9350265"},{"town":"鞍川","koaza":"","lat":36.85488,"lng":136.965291,"zip":"9350025"},{"town":"鞍骨","koaza":"","lat":36.805527,"lng":136.925217,"zip":"9350115"},{"town":"胡桃","koaza":"","lat":36.930392,"lng":136.926025,"zip":"9350335"},{"town":"桑院","koaza":"","lat":36.812865,"lng":136.889583,"zip":"9350273"},{"town":"湖光","koaza":"","lat":36.838358,"lng":136.974207,"zip":"9350042"},{"town":"神代","koaza":"","lat":36.798142,"lng":136.960258,"zip":"9350106"},{"town":"小境","koaza":"","lat":36.919976,"lng":137.021035,"zip":"9350413"},{"town":"小杉","koaza":"","lat":36.900098,"lng":137.000859,"zip":"9350424"},{"town":"幸町","koaza":"","lat":36.85662,"lng":136.980531,"zip":"9350021"},{"town":"栄町","koaza":"","lat":36.869596,"lng":136.980653,"zip":"9350005"},{"town":"坂津","koaza":"","lat":36.839476,"lng":136.959451,"zip":"9350052"},{"town":"指崎","koaza":"","lat":36.891265,"lng":136.975179,"zip":"9350007"},{"town":"地蔵町","koaza":"","lat":36.850211,"lng":136.99216,"zip":"9350014"},{"town":"七分一","koaza":"","lat":36.870186,"lng":136.952817,"zip":"9350066"},{"town":"島尾","koaza":"","lat":36.823981,"lng":137.008126,"zip":"9350032"},{"town":"下久津呂","koaza":"","lat":36.827102,"lng":136.952313,"zip":"9350046"},{"town":"下田子","koaza":"","lat":36.814315,"lng":136.994651,"zip":"9350036"},{"town":"十二町","koaza":"","lat":36.844943,"lng":136.968502,"zip":"9350051"},{"town":"白川","koaza":"","lat":36.923501,"lng":136.985713,"zip":"9350414"},{"town":"新保","koaza":"","lat":36.860019,"lng":136.91482,"zip":"9350254"},{"town":"姿","koaza":"","lat":36.930718,"lng":137.017248,"zip":"9350411"},{"town":"諏訪野","koaza":"","lat":36.863264,"lng":136.978502,"zip":"9350062"},{"town":"惣領","koaza":"","lat":36.804439,"lng":136.947237,"zip":"9350113"},{"town":"園","koaza":"","lat":36.833246,"lng":136.982488,"zip":"9350041"},{"town":"平","koaza":"","lat":36.961997,"lng":136.992516,"zip":"9350406"},{"town":"田江","koaza":"","lat":36.85214,"lng":136.906592,"zip":"9350256"},{"town":"棚懸","koaza":"","lat":36.812343,"lng":136.862589,"zip":"9350277"},{"town":"谷屋","koaza":"","lat":36.871297,"lng":136.91333,"zip":"9350253"},{"town":"中央町","koaza":"","lat":36.860467,"lng":136.986863,"zip":"9350011"},{"town":"坪池","koaza":"","lat":36.799281,"lng":136.863005,"zip":"9350276"},{"town":"寺尾","koaza":"","lat":36.900283,"lng":136.895312,"zip":"9350345"},{"town":"床鍋","koaza":"","lat":36.846403,"lng":136.873431,"zip":"9350269"},{"town":"戸津宮","koaza":"","lat":36.930023,"lng":136.993171,"zip":"9350415"},{"town":"泊","koaza":"","lat":36.904096,"lng":137.007281,"zip":"9350423"},{"town":"中尾","koaza":"","lat":36.850168,"lng":136.947726,"zip":"9350064"},{"town":"長坂","koaza":"","lat":36.946793,"lng":136.989963,"zip":"9350417"},{"town":"中島","koaza":"","lat":36.83106,"lng":136.978532,"zip":"9350102"},{"town":"中田","koaza":"","lat":36.948376,"lng":137.01273,"zip":"9350403"},{"town":"中波","koaza":"","lat":36.953333,"lng":137.029298,"zip":"9350402"},{"town":"中村","koaza":"","lat":36.86665,"lng":136.931183,"zip":"9350252"},{"town":"中谷内","koaza":"","lat":36.835313,"lng":136.944791,"zip":"9350055"},{"town":"西朴木","koaza":"","lat":36.842129,"lng":136.95121,"zip":"9350057"},{"town":"早借","koaza":"","lat":36.840184,"lng":136.918639,"zip":"9350255"},{"town":"針木","koaza":"","lat":36.913634,"lng":136.94471,"zip":"9350334"},{"town":"日詰","koaza":"","lat":36.842808,"lng":136.905004,"zip":"9350264"},{"town":"一刎","koaza":"","lat":36.91073,"lng":136.928881,"zip":"9350341"},{"town":"日名田","koaza":"","lat":36.859138,"lng":136.890881,"zip":"9350262"},{"town":"比美町","koaza":"","lat":36.857364,"lng":136.989571,"zip":"9350012"},{"town":"平沢","koaza":"","lat":36.954788,"lng":136.995972,"zip":"9350404"},{"town":"深原","koaza":"","lat":36.818509,"lng":136.955847,"zip":"9350117"},{"town":"布施","koaza":"","lat":36.819265,"lng":136.963785,"zip":"9350111"},{"town":"仏生寺","koaza":"","lat":36.78534,"lng":136.922643,"zip":"9350114"},{"town":"触坂","koaza":"","lat":36.826964,"lng":136.894207,"zip":"9350266"},{"town":"堀田","koaza":"","lat":36.804328,"lng":136.979999,"zip":"9350104"},{"town":"本町","koaza":"","lat":36.852806,"lng":136.987285,"zip":"9350016"},{"town":"間島","koaza":"","lat":36.875131,"lng":136.982528,"zip":"9350003"},{"town":"丸の内","koaza":"","lat":36.857107,"lng":136.985483,"zip":"9350017"},{"town":"見内","koaza":"","lat":36.833814,"lng":136.882919,"zip":"9350267"},{"town":"三尾","koaza":"","lat":36.860901,"lng":136.874922,"zip":"9350261"},{"town":"南大町","koaza":"","lat":36.853366,"lng":136.989782,"zip":"9350013"},{"town":"宮田","koaza":"","lat":36.819739,"lng":137.001169,"zip":"9350033"},{"town":"万尾","koaza":"","lat":36.834804,"lng":136.95803,"zip":"9350053"},{"town":"森寺","koaza":"","lat":36.905047,"lng":136.964154,"zip":"9350332"},{"town":"矢田部","koaza":"","lat":36.815743,"lng":136.939428,"zip":"9350116"},{"town":"柳田","koaza":"","lat":36.831187,"lng":136.998439,"zip":"9350031"},{"town":"矢方","koaza":"","lat":36.816724,"lng":136.969569,"zip":"9350107"},{"town":"薮田","koaza":"","lat":36.900764,"lng":136.994287,"zip":"9350425"},{"town":"余川","koaza":"","lat":36.889319,"lng":136.945233,"zip":"9350061"},{"town":"吉池","koaza":"","lat":36.783138,"lng":136.894709,"zip":"9350000"},{"town":"吉岡","koaza":"","lat":36.95761,"lng":137.003161,"zip":"9350405"},{"town":"吉懸","koaza":"","lat":36.909394,"lng":136.912891,"zip":"9350342"},{"town":"吉滝","koaza":"","lat":36.903046,"lng":136.951765,"zip":"9350333"},{"town":"論田","koaza":"","lat":36.875715,"lng":136.88891,"zip":"9350258"},{"town":"脇","koaza":"","lat":36.960915,"lng":137.040154,"zip":"9350401"},{"town":"脇方","koaza":"","lat":36.917482,"lng":137.01528,"zip":"9350421"}]