[{"town":"秋元","koaza":"","lat":36.651684,"lng":136.990806,"zip":"9391304"},{"town":"浅谷","koaza":"","lat":36.619876,"lng":137.032921,"zip":"9391422"},{"town":"東","koaza":"","lat":36.659135,"lng":137.02892,"zip":"9391302"},{"town":"荒高屋","koaza":"","lat":36.601259,"lng":136.960532,"zip":"9391324"},{"town":"新又","koaza":"","lat":36.647596,"lng":136.96331,"zip":"9391372"},{"town":"井栗谷","koaza":"","lat":36.594455,"lng":137.03687,"zip":"9391425"},{"town":"井栗谷新","koaza":"","lat":36.600591,"lng":137.034531,"zip":"9391300"},{"town":"池原","koaza":"","lat":36.640627,"lng":137.038072,"zip":"9391415"},{"town":"石丸","koaza":"","lat":36.663946,"lng":136.976604,"zip":"9391301"},{"town":"市谷","koaza":"","lat":36.624581,"lng":137.05188,"zip":"9391413"},{"town":"一番町","koaza":"","lat":36.639395,"lng":136.957635,"zip":"9391373"},{"town":"大門","koaza":"","lat":36.626028,"lng":136.970294,"zip":"9391316"},{"town":"大窪","koaza":"","lat":36.659266,"lng":136.985613,"zip":"9391303"},{"town":"太田","koaza":"","lat":36.621005,"lng":136.99182,"zip":"9391315"},{"town":"大辻","koaza":"","lat":36.627665,"lng":136.95104,"zip":"9391328"},{"town":"小島","koaza":"","lat":36.659455,"lng":136.941451,"zip":"9391342"},{"town":"表町","koaza":"","lat":36.636194,"lng":136.95157,"zip":"9391366"},{"town":"鹿島","koaza":"","lat":36.613206,"lng":136.953637,"zip":"9391326"},{"town":"神島","koaza":"","lat":36.643423,"lng":136.930752,"zip":"9391337"},{"town":"上中野","koaza":"","lat":36.59105,"lng":136.986388,"zip":"9391323"},{"town":"上和田","koaza":"","lat":36.646388,"lng":137.035182,"zip":"9391411"},{"town":"狐島","koaza":"","lat":36.653361,"lng":136.92646,"zip":"9391346"},{"town":"木下","koaza":"","lat":36.657393,"lng":136.960124,"zip":"9391358"},{"town":"川内","koaza":"","lat":36.57397,"lng":137.031556,"zip":"9391426"},{"town":"小杉","koaza":"","lat":36.657338,"lng":136.950185,"zip":"9391357"},{"town":"五谷","koaza":"","lat":36.591093,"lng":137.020153,"zip":"9391428"},{"town":"寿町","koaza":"","lat":36.643719,"lng":136.95664,"zip":"9391377"},{"town":"五郎丸","koaza":"","lat":36.615088,"lng":136.964266,"zip":"9391327"},{"town":"権正寺","koaza":"","lat":36.648005,"lng":137.011487,"zip":"9391407"},{"town":"幸町","koaza":"","lat":36.6366,"lng":136.958818,"zip":"9391386"},{"town":"栄町","koaza":"","lat":36.64752,"lng":136.960229,"zip":"9391371"},{"town":"三郎丸","koaza":"","lat":36.653648,"lng":136.972089,"zip":"9391308"},{"town":"山王町","koaza":"","lat":36.63633,"lng":136.955288,"zip":"9391374"},{"town":"塩浅","koaza":"","lat":36.619553,"lng":137.02955,"zip":"9391300"},{"town":"下中","koaza":"","lat":36.663968,"lng":136.917187,"zip":"9391347"},{"town":"下中条","koaza":"","lat":36.656979,"lng":137.00226,"zip":"9391311"},{"town":"十年明","koaza":"","lat":36.652436,"lng":136.962092,"zip":"9391353"},{"town":"庄川町青島","koaza":"","lat":36.58187,"lng":136.9818,"zip":"9320314"},{"town":"庄川町筏","koaza":"","lat":36.597289,"lng":136.972201,"zip":"9320317"},{"town":"庄川町落シ","koaza":"","lat":36.565083,"lng":137.029211,"zip":"9320303"},{"town":"庄川町隠尾","koaza":"","lat":36.578604,"lng":137.01229,"zip":"9320303"},{"town":"庄川町金屋","koaza":"","lat":36.569955,"lng":136.986479,"zip":"9320305"},{"town":"庄川町五ケ","koaza":"","lat":36.590412,"lng":136.978585,"zip":"9320313"},{"town":"庄川町小牧","koaza":"","lat":36.556644,"lng":137.003707,"zip":"9320304"},{"town":"庄川町示野","koaza":"","lat":36.577586,"lng":136.975471,"zip":"9320315"},{"town":"庄川町庄","koaza":"","lat":36.586726,"lng":137.002449,"zip":"9320302"},{"town":"庄川町高儀新","koaza":"","lat":36.59564,"lng":136.978678,"zip":"9320312"},{"town":"庄川町天正","koaza":"","lat":36.590893,"lng":136.968421,"zip":"9320316"},{"town":"庄川町二ツ屋","koaza":"","lat":36.546417,"lng":137.015181,"zip":"9391300"},{"town":"庄川町古上野","koaza":"","lat":36.602168,"lng":136.972346,"zip":"9320311"},{"town":"庄川町前山","koaza":"","lat":36.55656,"lng":136.994008,"zip":"9320304"},{"town":"庄川町三谷","koaza":"","lat":36.610639,"lng":137.010264,"zip":"9320301"},{"town":"庄川町名ケ原","koaza":"","lat":36.574103,"lng":137.006746,"zip":"9320303"},{"town":"庄川町湯谷","koaza":"","lat":36.551865,"lng":137.027622,"zip":"9320303"},{"town":"庄川町湯山","koaza":"","lat":36.563483,"lng":137.0092,"zip":"9320303"},{"town":"庄川町横住","koaza":"","lat":36.562944,"lng":137.023257,"zip":"9320303"},{"town":"正権寺","koaza":"","lat":36.63984,"lng":137.056132,"zip":"9391412"},{"town":"庄中","koaza":"","lat":36.647679,"lng":137.003155,"zip":"9391300"},{"town":"新栄町","koaza":"","lat":36.649997,"lng":136.957685,"zip":"9391354"},{"town":"新明","koaza":"","lat":36.620093,"lng":136.977151,"zip":"9391321"},{"town":"杉木","koaza":"","lat":36.650679,"lng":136.954766,"zip":"9391355"},{"town":"杉木一丁目","koaza":"","lat":36.643693,"lng":136.951715,"zip":"9391355"},{"town":"杉木二丁目","koaza":"","lat":36.646716,"lng":136.951878,"zip":"9391355"},{"town":"杉木三丁目","koaza":"","lat":36.647203,"lng":136.954863,"zip":"9391355"},{"town":"杉木四丁目","koaza":"","lat":36.645073,"lng":136.955156,"zip":"9391355"},{"town":"杉木五丁目","koaza":"","lat":36.647124,"lng":136.956722,"zip":"9391355"},{"town":"芹谷","koaza":"","lat":36.634971,"lng":137.033081,"zip":"9391416"},{"town":"千代","koaza":"","lat":36.661364,"lng":136.969155,"zip":"9391351"},{"town":"千保","koaza":"","lat":36.647911,"lng":136.981042,"zip":"9391305"},{"town":"祖泉","koaza":"","lat":36.635941,"lng":136.985812,"zip":"9391318"},{"town":"高波","koaza":"","lat":36.6705,"lng":136.944496,"zip":"9391341"},{"town":"鷹栖","koaza":"","lat":36.626753,"lng":136.923353,"zip":"9391335"},{"town":"高道","koaza":"","lat":36.638223,"lng":136.966878,"zip":"9391383"},{"town":"谷寺","koaza":"","lat":36.602729,"lng":137.01826,"zip":"9391300"},{"town":"太郎丸","koaza":"","lat":36.625502,"lng":136.959773,"zip":"9391363"},{"town":"太郎丸一丁目","koaza":"","lat":36.632921,"lng":136.95898,"zip":"9391363"},{"town":"太郎丸二丁目","koaza":"","lat":36.630251,"lng":136.961692,"zip":"9391363"},{"town":"太郎丸三丁目","koaza":"","lat":36.628605,"lng":136.958677,"zip":"9391363"},{"town":"茶ノ木","koaza":"","lat":36.622144,"lng":137.013991,"zip":"9391437"},{"town":"中央町","koaza":"","lat":36.639257,"lng":136.953911,"zip":"9391375"},{"town":"坪野","koaza":"","lat":36.63317,"lng":137.049654,"zip":"9391414"},{"town":"坪内","koaza":"","lat":36.634152,"lng":136.968138,"zip":"9391384"},{"town":"出町中央","koaza":"","lat":36.641125,"lng":136.955248,"zip":"9391379"},{"town":"寺尾","koaza":"","lat":36.599216,"lng":137.023006,"zip":"9391429"},{"town":"徳万","koaza":"","lat":36.636508,"lng":137.018219,"zip":"9391432"},{"town":"徳万新","koaza":"","lat":36.636369,"lng":137.022024,"zip":"9391433"},{"town":"栃上","koaza":"","lat":36.607696,"lng":137.039898,"zip":"9391424"},{"town":"栃上新","koaza":"","lat":36.605006,"lng":137.044549,"zip":"9391300"},{"town":"となみ町","koaza":"","lat":36.638283,"lng":136.959835,"zip":"9391387"},{"town":"中野","koaza":"","lat":36.608232,"lng":136.982404,"zip":"9391322"},{"town":"中村","koaza":"","lat":36.644746,"lng":136.96489,"zip":"9391381"},{"town":"鍋島","koaza":"","lat":36.634016,"lng":136.962896,"zip":"9391362"},{"town":"西中","koaza":"","lat":36.647483,"lng":136.919026,"zip":"9391336"},{"town":"苗加","koaza":"","lat":36.619765,"lng":136.943183,"zip":"9391333"},{"town":"野村島","koaza":"","lat":36.608959,"lng":136.944125,"zip":"9391334"},{"town":"八十歩","koaza":"","lat":36.654738,"lng":137.014235,"zip":"9391408"},{"town":"花島","koaza":"","lat":36.600061,"lng":136.955031,"zip":"9391325"},{"town":"花園町","koaza":"","lat":36.639908,"lng":136.96174,"zip":"9391382"},{"town":"春日町","koaza":"","lat":36.64266,"lng":136.957615,"zip":"9391378"},{"town":"東石丸","koaza":"","lat":36.662758,"lng":136.983029,"zip":"9391302"},{"town":"東開発","koaza":"","lat":36.650615,"lng":137.00202,"zip":"9391312"},{"town":"東幸町","koaza":"","lat":36.635837,"lng":136.961578,"zip":"9391385"},{"town":"東中","koaza":"","lat":36.664772,"lng":136.929182,"zip":"9391348"},{"town":"東別所","koaza":"","lat":36.617357,"lng":137.048277,"zip":"9391423"},{"town":"東別所新","koaza":"","lat":36.620718,"lng":137.038585,"zip":"9391421"},{"town":"東保","koaza":"","lat":36.663466,"lng":137.021138,"zip":"9391401"},{"town":"久泉","koaza":"","lat":36.635673,"lng":136.99153,"zip":"9391314"},{"town":"広上町","koaza":"","lat":36.634054,"lng":136.94641,"zip":"9391367"},{"town":"深江","koaza":"","lat":36.635833,"lng":136.942136,"zip":"9391331"},{"town":"深江一丁目","koaza":"","lat":36.631592,"lng":136.950567,"zip":"9391331"},{"town":"福岡","koaza":"","lat":36.643796,"lng":137.027741,"zip":"9391405"},{"town":"福山","koaza":"","lat":36.623875,"lng":137.020413,"zip":"9391436"},{"town":"伏木谷","koaza":"","lat":36.579564,"lng":137.022858,"zip":"9391427"},{"town":"平成町","koaza":"","lat":36.634441,"lng":136.959879,"zip":"9391361"},{"town":"平和町","koaza":"","lat":36.642352,"lng":136.952965,"zip":"9391376"},{"town":"堀内","koaza":"","lat":36.649218,"lng":136.97013,"zip":"9391307"},{"town":"本町","koaza":"","lat":36.637682,"lng":136.950068,"zip":"9391368"},{"town":"増山","koaza":"","lat":36.654193,"lng":137.039436,"zip":"9391402"},{"town":"三合","koaza":"","lat":36.631098,"lng":137.019389,"zip":"9391434"},{"town":"三合新","koaza":"","lat":36.63187,"lng":137.023516,"zip":"9391435"},{"town":"三島町","koaza":"","lat":36.633646,"lng":136.954046,"zip":"9391365"},{"town":"三谷","koaza":"","lat":36.600917,"lng":137.028647,"zip":"9391300"},{"town":"宮沢町","koaza":"","lat":36.642269,"lng":136.960079,"zip":"9391388"},{"town":"宮新","koaza":"","lat":36.650027,"lng":137.027743,"zip":"9391403"},{"town":"宮丸","koaza":"","lat":36.656359,"lng":136.96668,"zip":"9391352"},{"town":"宮村","koaza":"","lat":36.644956,"lng":136.97331,"zip":"9391306"},{"town":"宮森","koaza":"","lat":36.651296,"lng":137.020992,"zip":"9391406"},{"town":"宮森新","koaza":"","lat":36.648599,"lng":137.024515,"zip":"9391404"},{"town":"本小林","koaza":"","lat":36.665213,"lng":137.010012,"zip":"9391401"},{"town":"矢木","koaza":"","lat":36.635281,"lng":136.97644,"zip":"9391317"},{"town":"安川","koaza":"","lat":36.616144,"lng":137.013261,"zip":"9391438"},{"town":"八十島新","koaza":"","lat":36.652968,"lng":137.009453,"zip":"9391300"},{"town":"柳瀬","koaza":"","lat":36.641491,"lng":136.99601,"zip":"9391313"},{"town":"豊町一丁目","koaza":"","lat":36.631483,"lng":136.953312,"zip":"9391364"},{"town":"豊町二丁目","koaza":"","lat":36.628066,"lng":136.95565,"zip":"9391364"},{"town":"頼成","koaza":"","lat":36.637824,"lng":137.011041,"zip":"9391431"},{"town":"頼成新","koaza":"","lat":36.638703,"lng":137.026279,"zip":"9391417"},{"town":"鷹栖出","koaza":"","lat":36.648502,"lng":136.936254,"zip":"9391338"},{"town":"中神","koaza":"","lat":36.638591,"lng":136.943937,"zip":"9391344"},{"town":"永福町","koaza":"","lat":36.637926,"lng":136.946,"zip":"9391332"},{"town":"中神四丁目","koaza":"","lat":36.640352,"lng":136.945152,"zip":"9391344"},{"town":"中神五丁目","koaza":"","lat":36.642102,"lng":136.942512,"zip":"9391344"},{"town":"新富町","koaza":"","lat":36.640004,"lng":136.949266,"zip":"9391343"},{"town":"中神一丁目","koaza":"","lat":36.641636,"lng":136.94766,"zip":"9391344"},{"town":"林","koaza":"","lat":36.651738,"lng":136.941903,"zip":"9391345"},{"town":"若草町","koaza":"","lat":36.644306,"lng":136.948757,"zip":"9391356"},{"town":"中神三丁目","koaza":"","lat":36.644003,"lng":136.945769,"zip":"9391344"},{"town":"中神二丁目","koaza":"","lat":36.643093,"lng":136.946457,"zip":"9391344"}]