[{"town":"赤祖父","koaza":"","lat":36.731428,"lng":137.021349,"zip":"9330806"},{"town":"明園町","koaza":"","lat":36.741597,"lng":137.028558,"zip":"9330015"},{"town":"明野町","koaza":"","lat":36.756609,"lng":137.016907,"zip":"9330905"},{"town":"葦附","koaza":"","lat":36.686438,"lng":137.009927,"zip":"9391273"},{"town":"麻生谷","koaza":"","lat":36.744225,"lng":136.945036,"zip":"9330353"},{"town":"荒見崎","koaza":"","lat":36.712375,"lng":136.979568,"zip":"9330833"},{"town":"荒屋敷","koaza":"","lat":36.743204,"lng":136.964213,"zip":"9330319"},{"town":"あわら町","koaza":"","lat":36.755942,"lng":137.021601,"zip":"9330911"},{"town":"五十辺","koaza":"","lat":36.757731,"lng":136.948183,"zip":"9330306"},{"town":"五十里","koaza":"","lat":36.780667,"lng":136.974947,"zip":"9330973"},{"town":"五十里西町","koaza":"","lat":36.777463,"lng":136.990581,"zip":"9330971"},{"town":"五十里東町","koaza":"","lat":36.772861,"lng":136.992224,"zip":"9330972"},{"town":"井口本江","koaza":"","lat":36.73556,"lng":137.028785,"zip":"9330807"},{"town":"池田","koaza":"","lat":36.737261,"lng":136.961147,"zip":"9330318"},{"town":"石瀬","koaza":"","lat":36.75421,"lng":137.046179,"zip":"9330011"},{"town":"石塚","koaza":"","lat":36.731933,"lng":136.978001,"zip":"9330836"},{"town":"石堤","koaza":"","lat":36.746464,"lng":136.934819,"zip":"9330355"},{"town":"石丸","koaza":"","lat":36.766646,"lng":137.09631,"zip":"9340095"},{"town":"泉が丘","koaza":"","lat":36.728542,"lng":136.990185,"zip":"9330827"},{"town":"泉町","koaza":"","lat":36.735356,"lng":137.004765,"zip":"9330858"},{"town":"一番町","koaza":"","lat":36.745847,"lng":137.010184,"zip":"9330923"},{"town":"今泉","koaza":"","lat":36.670373,"lng":137.026796,"zip":"9391267"},{"town":"今泉新","koaza":"","lat":36.671153,"lng":137.031479,"zip":"9391266"},{"town":"今市","koaza":"","lat":36.706507,"lng":136.963917,"zip":"9330335"},{"town":"岩坪","koaza":"","lat":36.761446,"lng":136.976239,"zip":"9330974"},{"town":"内島","koaza":"","lat":36.73497,"lng":136.965905,"zip":"9330328"},{"town":"永楽町","koaza":"","lat":36.743824,"lng":136.997378,"zip":"9330843"},{"town":"駅南一丁目","koaza":"","lat":36.739725,"lng":137.017661,"zip":"9330871"},{"town":"駅南二丁目","koaza":"","lat":36.738825,"lng":137.02104,"zip":"9330871"},{"town":"駅南三丁目","koaza":"","lat":36.737289,"lng":137.017788,"zip":"9330871"},{"town":"駅南四丁目","koaza":"","lat":36.737124,"lng":137.014238,"zip":"9330871"},{"town":"駅南五丁目","koaza":"","lat":36.739698,"lng":137.013567,"zip":"9330871"},{"town":"江尻","koaza":"","lat":36.761396,"lng":137.030748,"zip":"9330062"},{"town":"江尻白山町","koaza":"","lat":36.764154,"lng":137.026895,"zip":"9330065"},{"town":"江道","koaza":"","lat":36.758168,"lng":136.943153,"zip":"9330305"},{"town":"扇町一丁目","koaza":"","lat":36.744711,"lng":136.993686,"zip":"9330846"},{"town":"扇町二丁目","koaza":"","lat":36.745414,"lng":136.991912,"zip":"9330846"},{"town":"大坪町一丁目","koaza":"","lat":36.75361,"lng":137.016977,"zip":"9330918"},{"town":"大坪町二丁目","koaza":"","lat":36.755965,"lng":137.018461,"zip":"9330918"},{"town":"大坪町三丁目","koaza":"","lat":36.758749,"lng":137.019491,"zip":"9330918"},{"town":"大坪町四丁目","koaza":"","lat":36.758152,"lng":137.022552,"zip":"9330918"},{"town":"大手町","koaza":"","lat":36.746203,"lng":137.018326,"zip":"9330039"},{"town":"大野","koaza":"","lat":36.738619,"lng":137.025288,"zip":"9330016"},{"town":"大鋸屋町","koaza":"","lat":36.740041,"lng":137.009401,"zip":"9330867"},{"town":"荻布","koaza":"","lat":36.76906,"lng":137.032568,"zip":"9330073"},{"town":"荻布新町","koaza":"","lat":36.766436,"lng":137.032926,"zip":"9330074"},{"town":"荻布四つ葉町","koaza":"","lat":36.766008,"lng":137.036059,"zip":"9330078"},{"town":"小竹","koaza":"","lat":36.711659,"lng":136.965862,"zip":"9330332"},{"town":"御旅屋町","koaza":"","lat":36.744822,"lng":137.015288,"zip":"9330029"},{"town":"オフィスパーク","koaza":"","lat":36.670088,"lng":136.998867,"zip":"9391119"},{"town":"御馬出町","koaza":"","lat":36.745502,"lng":137.008948,"zip":"9330926"},{"town":"開発町","koaza":"","lat":36.767008,"lng":137.027521,"zip":"9330000"},{"town":"片原中島町","koaza":"","lat":36.747569,"lng":137.014315,"zip":"9330027"},{"town":"片原町","koaza":"","lat":36.74645,"lng":137.013002,"zip":"9330026"},{"town":"片原横町","koaza":"","lat":36.7458,"lng":137.011314,"zip":"9330025"},{"town":"金屋本町","koaza":"","lat":36.751602,"lng":137.007073,"zip":"9330945"},{"town":"金屋町","koaza":"","lat":36.750163,"lng":137.005255,"zip":"9330841"},{"town":"鐘紡町","koaza":"","lat":36.732635,"lng":137.005431,"zip":"9330856"},{"town":"上麻生","koaza":"","lat":36.679752,"lng":137.009002,"zip":"9391274"},{"town":"上開発","koaza":"","lat":36.7054,"lng":136.956705,"zip":"9330336"},{"town":"上北島","koaza":"","lat":36.73828,"lng":136.98114,"zip":"9330837"},{"town":"上黒田","koaza":"","lat":36.722022,"lng":137.007272,"zip":"9330853"},{"town":"上関","koaza":"","lat":36.731562,"lng":137.009721,"zip":"9330851"},{"town":"上関町","koaza":"","lat":36.735336,"lng":137.00803,"zip":"9330851"},{"town":"上八ケ新","koaza":"","lat":36.75322,"lng":136.968964,"zip":"9330963"},{"town":"上伏間江","koaza":"","lat":36.715818,"lng":137.022038,"zip":"9330814"},{"town":"上牧野","koaza":"","lat":36.772881,"lng":137.064361,"zip":"9340098"},{"town":"上四屋","koaza":"","lat":36.758515,"lng":137.004403,"zip":"9330948"},{"town":"上渡","koaza":"","lat":36.73028,"lng":136.956809,"zip":"9330341"},{"town":"鴨島町","koaza":"","lat":36.744193,"lng":137.007441,"zip":"9330932"},{"town":"川原本町","koaza":"","lat":36.748294,"lng":137.008062,"zip":"9330943"},{"town":"川原町","koaza":"","lat":36.749953,"lng":137.009517,"zip":"9330942"},{"town":"神田新町","koaza":"","lat":36.731812,"lng":137.011292,"zip":"9330875"},{"town":"神主町","koaza":"","lat":36.73252,"lng":137.012488,"zip":"9330876"},{"town":"北蔵新","koaza":"","lat":36.71113,"lng":136.99073,"zip":"9330823"},{"town":"北島","koaza":"","lat":36.7444,"lng":136.981855,"zip":"9330838"},{"town":"木津","koaza":"","lat":36.735983,"lng":136.995526,"zip":"9330857"},{"town":"木津新","koaza":"","lat":36.730712,"lng":136.996978,"zip":"9330000"},{"town":"木舟町","koaza":"","lat":36.747346,"lng":137.010821,"zip":"9330929"},{"town":"木町","koaza":"","lat":36.762658,"lng":137.011891,"zip":"9330908"},{"town":"京町","koaza":"","lat":36.754305,"lng":137.013736,"zip":"9330917"},{"town":"国吉","koaza":"","lat":36.75866,"lng":136.939266,"zip":"9330968"},{"town":"熊野町","koaza":"","lat":36.762462,"lng":137.017468,"zip":"9330903"},{"town":"蔵野町","koaza":"","lat":36.716747,"lng":136.975,"zip":"9330834"},{"town":"グリーンパーク","koaza":"","lat":36.665374,"lng":137.002895,"zip":"9391120"},{"town":"源平町","koaza":"","lat":36.747532,"lng":137.013027,"zip":"9330921"},{"town":"小泉新","koaza":"","lat":36.675771,"lng":137.03559,"zip":"9391261"},{"town":"高陵町","koaza":"","lat":36.741984,"lng":137.024841,"zip":"9330018"},{"town":"古城","koaza":"","lat":36.748637,"lng":137.021545,"zip":"9330044"},{"town":"五福町","koaza":"","lat":36.758125,"lng":137.014539,"zip":"9330906"},{"town":"御坊山","koaza":"","lat":36.666085,"lng":137.041833,"zip":"9391263"},{"town":"駒方","koaza":"","lat":36.714013,"lng":136.959655,"zip":"9330338"},{"town":"小馬出町","koaza":"","lat":36.74846,"lng":137.013038,"zip":"9330914"},{"town":"西田","koaza":"","lat":36.80879,"lng":137.004859,"zip":"9330137"},{"town":"材木町","koaza":"","lat":36.777285,"lng":137.046888,"zip":"9330008"},{"town":"境","koaza":"","lat":36.765044,"lng":136.937693,"zip":"9330304"},{"town":"坂下町","koaza":"","lat":36.747687,"lng":137.014929,"zip":"9330038"},{"town":"佐加野","koaza":"","lat":36.753934,"lng":136.974486,"zip":"9330961"},{"town":"佐加野東","koaza":"","lat":36.752488,"lng":136.976732,"zip":"9330962"},{"town":"笹八口","koaza":"","lat":36.755734,"lng":136.953305,"zip":"9330307"},{"town":"佐野","koaza":"","lat":36.72391,"lng":136.99246,"zip":"9330826"},{"town":"山下","koaza":"","lat":36.674515,"lng":137.039055,"zip":"9391262"},{"town":"三ケ","koaza":"","lat":36.702333,"lng":136.9642,"zip":"9330334"},{"town":"三番町","koaza":"","lat":36.746593,"lng":137.011611,"zip":"9330922"},{"town":"三女子","koaza":"","lat":36.742393,"lng":137.042801,"zip":"9330013"},{"town":"柴野","koaza":"","lat":36.74953,"lng":136.947025,"zip":"9330357"},{"town":"柴野内島","koaza":"","lat":36.731191,"lng":136.968664,"zip":"9330327"},{"town":"島崎","koaza":"","lat":36.757001,"lng":136.973249,"zip":"9330976"},{"town":"島新","koaza":"","lat":36.671098,"lng":137.037232,"zip":"9391263"},{"town":"清水町一丁目","koaza":"","lat":36.74069,"lng":137.003071,"zip":"9330866"},{"town":"清水町二丁目","koaza":"","lat":36.740313,"lng":137.006559,"zip":"9330866"},{"town":"清水町三丁目","koaza":"","lat":36.738027,"lng":137.004575,"zip":"9330866"},{"town":"下麻生","koaza":"","lat":36.690373,"lng":137.01523,"zip":"9391272"},{"town":"下麻生伸町","koaza":"","lat":36.695973,"lng":137.017056,"zip":"9391271"},{"town":"下開発","koaza":"","lat":36.712643,"lng":136.956767,"zip":"9330000"},{"town":"下島町","koaza":"","lat":36.718041,"lng":137.000387,"zip":"9330821"},{"town":"下関町","koaza":"","lat":36.741599,"lng":137.015566,"zip":"9330021"},{"town":"下八ケ","koaza":"","lat":36.776247,"lng":137.030571,"zip":"9330000"},{"town":"下牧野","koaza":"","lat":36.778673,"lng":137.0671,"zip":"9340091"},{"town":"下山田","koaza":"","lat":36.662468,"lng":137.038008,"zip":"9391264"},{"town":"十二町島","koaza":"","lat":36.707105,"lng":136.98997,"zip":"9330822"},{"town":"守護町一丁目","koaza":"","lat":36.767533,"lng":137.009054,"zip":"9330983"},{"town":"守護町二丁目","koaza":"","lat":36.768301,"lng":137.013565,"zip":"9330983"},{"town":"守護町新","koaza":"","lat":36.769232,"lng":137.01754,"zip":"9330983"},{"town":"城光寺","koaza":"","lat":36.790257,"lng":137.022942,"zip":"9330126"},{"town":"定塚","koaza":"","lat":36.755067,"lng":137.03078,"zip":"9330037"},{"town":"定塚町","koaza":"","lat":36.742936,"lng":137.021288,"zip":"9330032"},{"town":"城東一丁目","koaza":"","lat":36.746598,"lng":137.031045,"zip":"9330041"},{"town":"城東二丁目","koaza":"","lat":36.744004,"lng":137.029905,"zip":"9330041"},{"town":"昭和町一丁目","koaza":"","lat":36.753991,"lng":137.003138,"zip":"9330946"},{"town":"昭和町二丁目","koaza":"","lat":36.755036,"lng":137.000648,"zip":"9330946"},{"town":"昭和町三丁目","koaza":"","lat":36.75277,"lng":137.001969,"zip":"9330946"},{"town":"白銀町","koaza":"","lat":36.744133,"lng":137.008897,"zip":"9330925"},{"town":"白金町","koaza":"","lat":36.742986,"lng":137.008751,"zip":"9330022"},{"town":"新寺町","koaza":"","lat":36.733521,"lng":137.010964,"zip":"9330862"},{"town":"新横町","koaza":"","lat":36.744566,"lng":137.01689,"zip":"9330035"},{"town":"末広町","koaza":"","lat":36.743829,"lng":137.012652,"zip":"9330023"},{"town":"須田","koaza":"","lat":36.775478,"lng":136.99384,"zip":"9330985"},{"town":"関","koaza":"","lat":36.736977,"lng":137.022642,"zip":"9330869"},{"town":"関大町","koaza":"","lat":36.740114,"lng":137.010947,"zip":"9330869"},{"town":"関本町","koaza":"","lat":36.736488,"lng":137.011551,"zip":"9330863"},{"town":"関町","koaza":"","lat":36.738341,"lng":137.009929,"zip":"9330864"},{"town":"千木屋町","koaza":"","lat":36.748971,"lng":137.012438,"zip":"9330915"},{"town":"千石町","koaza":"","lat":36.746763,"lng":136.996001,"zip":"9330847"},{"town":"大工中町","koaza":"","lat":36.741178,"lng":137.009672,"zip":"9330868"},{"town":"大源寺","koaza":"","lat":36.744913,"lng":136.972078,"zip":"9330311"},{"town":"醍醐","koaza":"","lat":36.68944,"lng":136.955863,"zip":"9391131"},{"town":"高辻","koaza":"","lat":36.753001,"lng":136.959011,"zip":"9330965"},{"town":"高美町","koaza":"","lat":36.782848,"lng":137.037972,"zip":"9330124"},{"town":"宝町","koaza":"","lat":36.756428,"lng":137.026823,"zip":"9330064"},{"town":"滝","koaza":"","lat":36.680469,"lng":137.03026,"zip":"9391255"},{"town":"滝新","koaza":"","lat":36.676975,"lng":137.032404,"zip":"9391254"},{"town":"立野","koaza":"","lat":36.723744,"lng":136.963589,"zip":"9330325"},{"town":"立野美鳥町一丁目","koaza":"","lat":36.725126,"lng":136.961965,"zip":"9330326"},{"town":"立野美鳥町二丁目","koaza":"","lat":36.724583,"lng":136.959311,"zip":"9330326"},{"town":"立野美鳥町三丁目","koaza":"","lat":36.723209,"lng":136.956696,"zip":"9330326"},{"town":"手洗野","koaza":"","lat":36.76142,"lng":136.959326,"zip":"9330967"},{"town":"中央町","koaza":"","lat":36.746579,"lng":137.015368,"zip":"9330030"},{"town":"長慶寺","koaza":"","lat":36.76776,"lng":136.99707,"zip":"9330951"},{"town":"頭川","koaza":"","lat":36.773224,"lng":136.949586,"zip":"9330978"},{"town":"月野谷","koaza":"","lat":36.758854,"lng":136.956442,"zip":"9330966"},{"town":"辻","koaza":"","lat":36.724687,"lng":136.977186,"zip":"9330835"},{"town":"常国","koaza":"","lat":36.686749,"lng":137.030754,"zip":"9391251"},{"town":"角","koaza":"","lat":36.766021,"lng":137.040449,"zip":"9330007"},{"town":"角三島","koaza":"","lat":36.763823,"lng":137.039163,"zip":"9330006"},{"town":"出来田","koaza":"","lat":36.72988,"lng":137.033762,"zip":"9330803"},{"town":"寺町","koaza":"","lat":36.73531,"lng":137.012329,"zip":"9330861"},{"town":"戸出","koaza":"","lat":36.689177,"lng":136.982948,"zip":"9391121"},{"town":"戸出伊勢領","koaza":"","lat":36.693539,"lng":136.97389,"zip":"9391105"},{"town":"戸出狼","koaza":"","lat":36.690131,"lng":136.979568,"zip":"9391102"},{"town":"戸出大清水","koaza":"","lat":36.684717,"lng":136.991061,"zip":"9391117"},{"town":"戸出岡御所","koaza":"","lat":36.668212,"lng":136.96712,"zip":"9391125"},{"town":"戸出春日","koaza":"","lat":36.692163,"lng":136.996754,"zip":"9391112"},{"town":"戸出光明寺","koaza":"","lat":36.675679,"lng":136.969854,"zip":"9391121"},{"town":"戸出石代","koaza":"","lat":36.67454,"lng":137.002418,"zip":"9391113"},{"town":"戸出栄町","koaza":"","lat":36.691961,"lng":136.990076,"zip":"9391118"},{"town":"戸出竹","koaza":"","lat":36.674496,"lng":136.959879,"zip":"9391132"},{"town":"戸出竹北","koaza":"","lat":36.674662,"lng":136.955163,"zip":"9391135"},{"town":"戸出徳市","koaza":"","lat":36.694453,"lng":137.005384,"zip":"9391111"},{"town":"戸出中之宮","koaza":"","lat":36.692262,"lng":136.965829,"zip":"9330000"},{"town":"戸出西部金屋","koaza":"","lat":36.663888,"lng":136.998569,"zip":"9391114"},{"town":"戸出延島","koaza":"","lat":36.677774,"lng":136.952716,"zip":"9391136"},{"town":"戸出古戸出","koaza":"","lat":36.679193,"lng":136.965353,"zip":"9391122"},{"town":"戸出放寺","koaza":"","lat":36.667945,"lng":136.961126,"zip":"9391133"},{"town":"戸出放寺新","koaza":"","lat":36.671882,"lng":136.955072,"zip":"9391134"},{"town":"戸出町一丁目","koaza":"","lat":36.682473,"lng":136.984968,"zip":"9391104"},{"town":"戸出町二丁目","koaza":"","lat":36.682527,"lng":136.981672,"zip":"9391104"},{"town":"戸出町三丁目","koaza":"","lat":36.681838,"lng":136.978136,"zip":"9391104"},{"town":"戸出町七丁目","koaza":"","lat":36.693132,"lng":136.968808,"zip":"9391104"},{"town":"戸出行兼","koaza":"","lat":36.667702,"lng":136.97194,"zip":"9391123"},{"town":"戸出吉住","koaza":"","lat":36.676858,"lng":136.99237,"zip":"9391116"},{"town":"戸出吉住新","koaza":"","lat":36.671882,"lng":136.987847,"zip":"9391115"},{"town":"戸出六十歩","koaza":"","lat":36.66225,"lng":136.96125,"zip":"9391124"},{"town":"答野島","koaza":"","lat":36.755596,"lng":136.96963,"zip":"9330964"},{"town":"答野出","koaza":"","lat":36.757787,"lng":136.976551,"zip":"9330975"},{"town":"通町","koaza":"","lat":36.745683,"lng":137.007029,"zip":"9330937"},{"town":"利屋町","koaza":"","lat":36.747045,"lng":137.009022,"zip":"9330927"},{"town":"百橋","koaza":"","lat":36.768017,"lng":136.982849,"zip":"9330000"},{"town":"富岡町","koaza":"","lat":36.783179,"lng":137.061371,"zip":"9330001"},{"town":"問屋町","koaza":"","lat":36.729674,"lng":137.026946,"zip":"9330804"},{"town":"内免","koaza":"","lat":36.761006,"lng":137.010545,"zip":"9330941"},{"town":"内免一丁目","koaza":"","lat":36.752936,"lng":137.006503,"zip":"9330941"},{"town":"内免二丁目","koaza":"","lat":36.754773,"lng":137.009129,"zip":"9330941"},{"town":"内免三丁目","koaza":"","lat":36.758679,"lng":137.009582,"zip":"9330941"},{"town":"内免四丁目","koaza":"","lat":36.756192,"lng":137.006184,"zip":"9330941"},{"town":"内免五丁目","koaza":"","lat":36.755345,"lng":137.004224,"zip":"9330941"},{"town":"長江","koaza":"","lat":36.760548,"lng":136.983457,"zip":"9330959"},{"town":"中川一丁目","koaza":"","lat":36.751973,"lng":137.026031,"zip":"9330056"},{"town":"中川上町","koaza":"","lat":36.745167,"lng":137.02328,"zip":"9330043"},{"town":"中川栄町","koaza":"","lat":36.744639,"lng":137.026711,"zip":"9330042"},{"town":"中川園町","koaza":"","lat":36.750914,"lng":137.029687,"zip":"9330055"},{"town":"中川本町","koaza":"","lat":36.747676,"lng":137.025369,"zip":"9330046"},{"town":"中川町","koaza":"","lat":36.743901,"lng":137.02197,"zip":"9330031"},{"town":"中島町","koaza":"","lat":36.747923,"lng":137.004925,"zip":"9330944"},{"town":"中曽根","koaza":"","lat":36.768204,"lng":137.075692,"zip":"9340092"},{"town":"中田","koaza":"","lat":36.676558,"lng":137.019081,"zip":"9391275"},{"town":"中保","koaza":"","lat":36.721658,"lng":136.966888,"zip":"9330331"},{"town":"西海老坂","koaza":"","lat":36.780474,"lng":136.995216,"zip":"9330986"},{"town":"西藤平蔵","koaza":"","lat":36.708932,"lng":136.985233,"zip":"9330824"},{"town":"西広上","koaza":"","lat":36.710396,"lng":137.017669,"zip":"9330815"},{"town":"西広谷","koaza":"","lat":36.765152,"lng":136.914626,"zip":"9330302"},{"town":"西町","koaza":"","lat":36.749745,"lng":136.998085,"zip":"9330848"},{"town":"二番町","koaza":"","lat":36.744979,"lng":137.008287,"zip":"9330931"},{"town":"能町","koaza":"","lat":36.770324,"lng":137.045689,"zip":"9330003"},{"town":"能町駅南","koaza":"","lat":36.765609,"lng":137.038522,"zip":"9330077"},{"town":"能町東","koaza":"","lat":36.764529,"lng":137.046525,"zip":"9330004"},{"town":"能町南一丁目","koaza":"","lat":36.762349,"lng":137.040151,"zip":"9330005"},{"town":"能町南二丁目","koaza":"","lat":36.765004,"lng":137.043441,"zip":"9330005"},{"town":"能町南三丁目","koaza":"","lat":36.766792,"lng":137.044032,"zip":"9330005"},{"town":"勝木原","koaza":"","lat":36.772346,"lng":136.897116,"zip":"9330301"},{"town":"野村","koaza":"","lat":36.750506,"lng":137.037567,"zip":"9330014"},{"town":"波岡","koaza":"","lat":36.75765,"lng":136.990048,"zip":"9330958"},{"town":"博労本町","koaza":"","lat":36.744334,"lng":137.002179,"zip":"9330935"},{"town":"博労町","koaza":"","lat":36.744796,"lng":137.005129,"zip":"9330934"},{"town":"蓮美町","koaza":"","lat":36.737834,"lng":137.007792,"zip":"9330865"},{"town":"旅籠町","koaza":"","lat":36.745953,"lng":137.0057,"zip":"9330000"},{"town":"蜂ケ島","koaza":"","lat":36.7377,"lng":136.968561,"zip":"9330317"},{"town":"八ケ","koaza":"","lat":36.771917,"lng":137.023055,"zip":"9330982"},{"town":"羽広","koaza":"","lat":36.739903,"lng":136.991692,"zip":"9330844"},{"town":"羽広一丁目","koaza":"","lat":36.740458,"lng":136.989406,"zip":"9330844"},{"town":"羽広二丁目","koaza":"","lat":36.74302,"lng":136.992554,"zip":"9330844"},{"town":"早川","koaza":"","lat":36.749869,"lng":136.987219,"zip":"9330957"},{"town":"林新","koaza":"","lat":36.717756,"lng":137.0052,"zip":"9330818"},{"town":"東石堤","koaza":"","lat":36.73261,"lng":136.958866,"zip":"9330342"},{"town":"東海老坂","koaza":"","lat":36.786546,"lng":136.998395,"zip":"9330987"},{"town":"東上関","koaza":"","lat":36.73406,"lng":137.016224,"zip":"9330878"},{"town":"東下関","koaza":"","lat":36.742629,"lng":137.019358,"zip":"9330033"},{"town":"東藤平蔵","koaza":"","lat":36.70759,"lng":136.997359,"zip":"9330817"},{"town":"東中川町","koaza":"","lat":36.747224,"lng":137.028405,"zip":"9330047"},{"town":"東保新","koaza":"","lat":36.664568,"lng":137.033355,"zip":"9391265"},{"town":"樋詰","koaza":"","lat":36.728578,"lng":136.970752,"zip":"9330322"},{"town":"姫野","koaza":"","lat":36.771163,"lng":137.087483,"zip":"9340093"},{"town":"広川新","koaza":"","lat":36.748792,"lng":136.974631,"zip":"9330000"},{"town":"広小路","koaza":"","lat":36.753138,"lng":137.023126,"zip":"9330057"},{"town":"深沢","koaza":"","lat":36.725256,"lng":137.031128,"zip":"9330811"},{"town":"福岡町赤丸","koaza":"","lat":36.741043,"lng":136.933732,"zip":"9390101"},{"town":"福岡町荒屋敷","koaza":"","lat":36.706775,"lng":136.917543,"zip":"9390131"},{"town":"福岡町一歩二歩","koaza":"","lat":36.703663,"lng":136.946794,"zip":"9390122"},{"town":"福岡町上野","koaza":"","lat":36.706528,"lng":136.891889,"zip":"9390145"},{"town":"福岡町江尻","koaza":"","lat":36.698803,"lng":136.938781,"zip":"9390128"},{"town":"福岡町大滝","koaza":"","lat":36.698511,"lng":136.921113,"zip":"9390132"},{"town":"福岡町大野","koaza":"","lat":36.717951,"lng":136.937883,"zip":"9390118"},{"town":"福岡町開ほつ","koaza":"","lat":36.689129,"lng":136.925028,"zip":"9390133"},{"town":"福岡町上蓑","koaza":"","lat":36.703115,"lng":136.932442,"zip":"9390127"},{"town":"福岡町上向田","koaza":"","lat":36.707929,"lng":136.902914,"zip":"9390144"},{"town":"福岡町加茂","koaza":"","lat":36.728899,"lng":136.918221,"zip":"9390104"},{"town":"福岡町木舟","koaza":"","lat":36.691887,"lng":136.91365,"zip":"9390134"},{"town":"福岡町五位","koaza":"","lat":36.755504,"lng":136.872819,"zip":"9390152"},{"town":"福岡町小伊勢領","koaza":"","lat":36.691744,"lng":136.944295,"zip":"9390124"},{"town":"福岡町小野","koaza":"","lat":36.73612,"lng":136.862617,"zip":"9390156"},{"town":"福岡町西明寺","koaza":"","lat":36.72054,"lng":136.900624,"zip":"9390155"},{"town":"福岡町下老子","koaza":"","lat":36.71242,"lng":136.943561,"zip":"9390121"},{"town":"福岡町下蓑","koaza":"","lat":36.70844,"lng":136.932843,"zip":"9390116"},{"town":"福岡町下蓑新","koaza":"","lat":36.707849,"lng":136.93607,"zip":"9390115"},{"town":"福岡町下向田","koaza":"","lat":36.715842,"lng":136.909323,"zip":"9390143"},{"town":"福岡町沢川","koaza":"","lat":36.763517,"lng":136.861356,"zip":"9390151"},{"town":"福岡町土屋","koaza":"","lat":36.717916,"lng":136.917609,"zip":"9390142"},{"town":"福岡町栃丘","koaza":"","lat":36.732053,"lng":136.892941,"zip":"9390154"},{"town":"福岡町鳥倉","koaza":"","lat":36.72748,"lng":136.910709,"zip":"9390141"},{"town":"福岡町西","koaza":"","lat":36.725271,"lng":136.9261,"zip":"9390155"},{"town":"福岡町西川原島","koaza":"","lat":36.692735,"lng":136.951906,"zip":"9390123"},{"town":"福岡町花尾","koaza":"","lat":36.744859,"lng":136.902172,"zip":"9390153"},{"town":"福岡町馬場","koaza":"","lat":36.732585,"lng":136.925023,"zip":"9390105"},{"town":"福岡町福岡","koaza":"","lat":36.710213,"lng":136.929924,"zip":"9390111"},{"town":"福岡町福岡新","koaza":"","lat":36.713475,"lng":136.936857,"zip":"9390117"},{"town":"福岡町本領","koaza":"","lat":36.698545,"lng":136.912501,"zip":"9390135"},{"town":"福岡町舞谷","koaza":"","lat":36.74036,"lng":136.923491,"zip":"9390106"},{"town":"福岡町三日市","koaza":"","lat":36.723762,"lng":136.934008,"zip":"9390102"},{"town":"福岡町蓑島","koaza":"","lat":36.6985,"lng":136.929492,"zip":"9390126"},{"town":"福岡町矢部","koaza":"","lat":36.689536,"lng":136.935411,"zip":"9390125"},{"town":"福田","koaza":"","lat":36.735034,"lng":136.9826,"zip":"9330829"},{"town":"福田六家","koaza":"","lat":36.740599,"lng":136.97482,"zip":"9330313"},{"town":"伏木一丁目","koaza":"","lat":36.783339,"lng":137.049214,"zip":"9330113"},{"town":"伏木二丁目","koaza":"","lat":36.788108,"lng":137.055063,"zip":"9330113"},{"town":"伏木磯町","koaza":"","lat":36.7992,"lng":137.060871,"zip":"9330102"},{"town":"伏木一宮","koaza":"","lat":36.798466,"lng":137.038645,"zip":"9330116"},{"town":"伏木一宮一丁目","koaza":"","lat":36.796872,"lng":137.048064,"zip":"9330116"},{"town":"伏木一宮二丁目","koaza":"","lat":36.800645,"lng":137.049508,"zip":"9330116"},{"town":"伏木国分","koaza":"","lat":36.804875,"lng":137.042783,"zip":"9330101"},{"town":"伏木国分一丁目","koaza":"","lat":36.801738,"lng":137.054281,"zip":"9330101"},{"town":"伏木国分二丁目","koaza":"","lat":36.80466,"lng":137.050046,"zip":"9330101"},{"town":"伏木古府","koaza":"","lat":36.79322,"lng":137.041365,"zip":"9330114"},{"town":"伏木古府一丁目","koaza":"","lat":36.788022,"lng":137.050705,"zip":"9330114"},{"town":"伏木古府二丁目","koaza":"","lat":36.791659,"lng":137.051052,"zip":"9330114"},{"town":"伏木古府三丁目","koaza":"","lat":36.792649,"lng":137.047099,"zip":"9330114"},{"town":"伏木古府元町","koaza":"","lat":36.790706,"lng":137.044663,"zip":"9330115"},{"town":"伏木中央町","koaza":"","lat":36.797276,"lng":137.060265,"zip":"9330103"},{"town":"伏木錦町","koaza":"","lat":36.793583,"lng":137.060278,"zip":"9330105"},{"town":"伏木東一宮","koaza":"","lat":36.797012,"lng":137.053162,"zip":"9330111"},{"town":"伏木古国府","koaza":"","lat":36.791999,"lng":137.05591,"zip":"9330112"},{"town":"伏木本町","koaza":"","lat":36.797822,"lng":137.05658,"zip":"9330106"},{"town":"伏木万葉ふ頭","koaza":"","lat":36.800383,"lng":137.064825,"zip":"9330000"},{"town":"伏木湊町","koaza":"","lat":36.794823,"lng":137.063333,"zip":"9330104"},{"town":"伏木矢田","koaza":"","lat":36.782753,"lng":137.043557,"zip":"9330123"},{"town":"伏木矢田上町","koaza":"","lat":36.786377,"lng":137.047407,"zip":"9330122"},{"town":"伏木矢田新町","koaza":"","lat":36.789286,"lng":137.041761,"zip":"9330121"},{"town":"二上","koaza":"","lat":36.78301,"lng":137.016169,"zip":"9330981"},{"town":"二上新","koaza":"","lat":36.770499,"lng":137.021786,"zip":"9330981"},{"town":"二上町","koaza":"","lat":36.773786,"lng":137.010425,"zip":"9330981"},{"town":"古定塚","koaza":"","lat":36.752429,"lng":137.032732,"zip":"9330054"},{"town":"風呂屋町","koaza":"","lat":36.746445,"lng":137.006599,"zip":"9330938"},{"town":"平成町","koaza":"","lat":36.722587,"lng":136.954656,"zip":"9330345"},{"town":"放生津","koaza":"","lat":36.770118,"lng":137.082633,"zip":"9340093"},{"town":"細池","koaza":"","lat":36.758322,"lng":136.97356,"zip":"9330977"},{"town":"堀岡又新","koaza":"","lat":36.773108,"lng":137.095244,"zip":"9340094"},{"town":"堀上町","koaza":"","lat":36.745152,"lng":137.010141,"zip":"9330924"},{"town":"本郷一丁目","koaza":"","lat":36.757689,"lng":137.00219,"zip":"9330947"},{"town":"本郷二丁目","koaza":"","lat":36.758056,"lng":136.998221,"zip":"9330947"},{"town":"本保","koaza":"","lat":36.708424,"lng":136.97349,"zip":"9330333"},{"town":"本丸町","koaza":"","lat":36.750442,"lng":137.019417,"zip":"9330045"},{"town":"丸の内","koaza":"","lat":36.752512,"lng":137.018848,"zip":"9330912"},{"town":"瑞穂町","koaza":"","lat":36.751815,"lng":136.995072,"zip":"9330955"},{"town":"南幸町","koaza":"","lat":36.742874,"lng":137.005742,"zip":"9330933"},{"town":"宮田町","koaza":"","lat":36.748318,"lng":136.993375,"zip":"9330956"},{"town":"宮脇町","koaza":"","lat":36.745038,"lng":137.013595,"zip":"9330024"},{"town":"美幸町一丁目","koaza":"","lat":36.755964,"lng":136.996962,"zip":"9330954"},{"town":"美幸町二丁目","koaza":"","lat":36.754461,"lng":136.995782,"zip":"9330954"},{"town":"向野本町","koaza":"","lat":36.764783,"lng":137.021368,"zip":"9330901"},{"town":"向野町","koaza":"","lat":36.761218,"lng":137.025611,"zip":"9330902"},{"town":"向野町一丁目","koaza":"","lat":36.757111,"lng":137.023929,"zip":"9330902"},{"town":"向野町三丁目","koaza":"","lat":36.758434,"lng":137.025859,"zip":"9330902"},{"town":"向野町四丁目","koaza":"","lat":36.758338,"lng":137.024113,"zip":"9330902"},{"town":"向野町五丁目","koaza":"","lat":36.759867,"lng":137.023078,"zip":"9330902"},{"town":"向野町六丁目","koaza":"","lat":36.761341,"lng":137.023619,"zip":"9330902"},{"town":"向野町七丁目","koaza":"","lat":36.762686,"lng":137.024411,"zip":"9330902"},{"town":"守山","koaza":"","lat":36.776076,"lng":136.999397,"zip":"9330984"},{"town":"守山町","koaza":"","lat":36.746545,"lng":137.009768,"zip":"9330928"},{"town":"八口","koaza":"","lat":36.750494,"lng":136.956892,"zip":"9330308"},{"town":"山川","koaza":"","lat":36.766984,"lng":136.926444,"zip":"9330303"},{"town":"横田","koaza":"","lat":36.76091,"lng":136.997433,"zip":"9330953"},{"town":"横田本町","koaza":"","lat":36.751868,"lng":136.999522,"zip":"9330849"},{"town":"横田町一丁目","koaza":"","lat":36.748047,"lng":137.002736,"zip":"9330842"},{"town":"横田町二丁目","koaza":"","lat":36.747166,"lng":136.999603,"zip":"9330842"},{"town":"横田町三丁目","koaza":"","lat":36.750682,"lng":137.002196,"zip":"9330842"},{"town":"芳野","koaza":"","lat":36.735545,"lng":137.021256,"zip":"9330872"},{"town":"吉久一丁目","koaza":"","lat":36.78159,"lng":137.053704,"zip":"9330002"},{"town":"吉久二丁目","koaza":"","lat":36.777621,"lng":137.05636,"zip":"9330002"},{"town":"吉久三丁目","koaza":"","lat":36.780433,"lng":137.059444,"zip":"9330002"},{"town":"四日市","koaza":"","lat":36.746427,"lng":136.957334,"zip":"9330351"},{"town":"四屋","koaza":"","lat":36.763431,"lng":137.004811,"zip":"9330949"},{"town":"米島","koaza":"","lat":36.775301,"lng":137.037575,"zip":"9330076"},{"town":"蓮花寺","koaza":"","lat":36.73887,"lng":137.03571,"zip":"9330802"},{"town":"六家","koaza":"","lat":36.735211,"lng":136.972272,"zip":"9330321"},{"town":"若杉","koaza":"","lat":36.683249,"lng":137.035823,"zip":"9391253"},{"town":"鷲北新","koaza":"","lat":36.769114,"lng":137.038835,"zip":"9330071"},{"town":"和田","koaza":"","lat":36.732874,"lng":136.984394,"zip":"9330832"},{"town":"大町","koaza":"","lat":36.751664,"lng":137.011938,"zip":"9330916"},{"town":"袋町","koaza":"","lat":36.750995,"lng":137.013826,"zip":"9330910"},{"town":"本町","koaza":"","lat":36.74971,"lng":137.016217,"zip":"9330913"},{"town":"平米町","koaza":"","lat":36.75133,"lng":137.015159,"zip":"9330919"},{"town":"京田","koaza":"","lat":36.729936,"lng":137.014285,"zip":"9330874"},{"town":"二塚","koaza":"","lat":36.71138,"lng":137.009027,"zip":"9330816"},{"town":"下伏間江","koaza":"","lat":36.722867,"lng":137.023906,"zip":"9330813"},{"town":"下黒田","koaza":"","lat":36.726322,"lng":137.007537,"zip":"9330852"},{"town":"戸出町四丁目","koaza":"","lat":36.680809,"lng":136.97467,"zip":"9391104"},{"town":"金屋","koaza":"","lat":36.766098,"lng":137.087383,"zip":"9340096"},{"town":"宝来町","koaza":"","lat":36.724752,"lng":136.948784,"zip":"9330343"},{"town":"千鳥丘町","koaza":"","lat":36.715744,"lng":136.954699,"zip":"9330337"},{"town":"戸出市野瀬","koaza":"","lat":36.69721,"lng":136.983207,"zip":"9391101"},{"town":"太田","koaza":"","lat":36.81346,"lng":137.026326,"zip":"9330133"},{"town":"渋谷","koaza":"","lat":36.81168,"lng":137.041442,"zip":"9330136"},{"town":"笹川","koaza":"","lat":36.712539,"lng":136.949461,"zip":"9330344"},{"town":"高田島","koaza":"","lat":36.718681,"lng":136.951584,"zip":"9330000"},{"town":"新成町","koaza":"","lat":36.760058,"lng":137.016409,"zip":"9330904"},{"town":"開発本町","koaza":"","lat":36.763363,"lng":137.015061,"zip":"9330909"},{"town":"地子木町","koaza":"","lat":36.760374,"lng":137.014035,"zip":"9330907"},{"town":"戸出町六丁目","koaza":"","lat":36.688407,"lng":136.969321,"zip":"9391104"},{"town":"戸出町五丁目","koaza":"","lat":36.682372,"lng":136.968958,"zip":"9391104"},{"town":"太田","koaza":"谷内","lat":36.808246,"lng":137.01132,"zip":"9330133"},{"town":"太田","koaza":"伊勢領","lat":36.824408,"lng":137.017325,"zip":"9330133"},{"town":"太田","koaza":"山岸","lat":36.816418,"lng":137.019104,"zip":"9330133"},{"town":"太田","koaza":"中村","lat":36.821185,"lng":137.021594,"zip":"9330133"},{"town":"太田","koaza":"旦保","lat":36.815352,"lng":137.030358,"zip":"9330133"},{"town":"江尻","koaza":"村中","lat":36.759503,"lng":137.02705,"zip":"9330062"},{"town":"太田","koaza":"辰ノ口","lat":36.818254,"lng":137.033301,"zip":"9330133"},{"town":"太田","koaza":"雨晴","lat":36.814854,"lng":137.037041,"zip":"9330133"},{"town":"伏木矢田","koaza":"万葉台","lat":36.785356,"lng":137.037265,"zip":"9330123"},{"town":"姫野","koaza":"小円坊","lat":36.769721,"lng":137.087184,"zip":"9340093"},{"town":"立野","koaza":"高池町","lat":36.724878,"lng":136.964393,"zip":"9330325"},{"town":"戸出","koaza":"池田町","lat":36.69102,"lng":136.980523,"zip":"9391121"},{"town":"北島","koaza":"若富町","lat":36.741775,"lng":136.984424,"zip":"9330838"},{"town":"十二町島","koaza":"後川原","lat":36.704791,"lng":136.986403,"zip":"9330822"},{"town":"木津","koaza":"南星町","lat":36.733897,"lng":136.997433,"zip":"9330857"},{"town":"西海老坂","koaza":"大坪","lat":36.777653,"lng":136.999267,"zip":"9330986"},{"town":"金屋","koaza":"牧野金屋","lat":36.765323,"lng":137.087607,"zip":"9340096"}]