[{"town":"相木","koaza":"","lat":36.821946,"lng":137.419049,"zip":"9370045"},{"town":"相木新","koaza":"","lat":36.822855,"lng":137.420957,"zip":"9370047"},{"town":"青島","koaza":"","lat":36.836517,"lng":137.407877,"zip":"9370063"},{"town":"青柳","koaza":"","lat":36.822509,"lng":137.445625,"zip":"9370014"},{"town":"山女","koaza":"","lat":36.778701,"lng":137.499829,"zip":"9370036"},{"town":"浅生","koaza":"","lat":36.774745,"lng":137.404932,"zip":"9370847"},{"town":"有山","koaza":"","lat":36.770328,"lng":137.40825,"zip":"9370846"},{"town":"池谷","koaza":"","lat":36.76932,"lng":137.443603,"zip":"9370828"},{"town":"石垣","koaza":"","lat":36.793373,"lng":137.463766,"zip":"9370814"},{"town":"石垣新","koaza":"","lat":36.810911,"lng":137.436236,"zip":"9370813"},{"town":"出","koaza":"","lat":36.795707,"lng":137.410072,"zip":"9370821"},{"town":"印田","koaza":"","lat":36.816197,"lng":137.428271,"zip":"9370812"},{"town":"上野","koaza":"","lat":36.781241,"lng":137.412215,"zip":"9370843"},{"town":"駅前新町","koaza":"","lat":36.823316,"lng":137.405312,"zip":"9370051"},{"town":"江口","koaza":"","lat":36.835908,"lng":137.420739,"zip":"9370017"},{"town":"大字石垣新村","koaza":"","lat":36.795499,"lng":137.46063,"zip":"9370000"},{"town":"大字大谷村","koaza":"","lat":36.795104,"lng":137.451465,"zip":"9370000"},{"town":"大字下村木町","koaza":"","lat":36.819536,"lng":137.408365,"zip":"9370000"},{"town":"大字田地方町","koaza":"","lat":36.810422,"lng":137.398704,"zip":"9370000"},{"town":"大字六郎丸村","koaza":"","lat":36.79712,"lng":137.448589,"zip":"9370000"},{"town":"大熊","koaza":"","lat":36.742611,"lng":137.440702,"zip":"9370835"},{"town":"大沢","koaza":"","lat":36.812839,"lng":137.501127,"zip":"9370026"},{"town":"大菅沼","koaza":"","lat":36.777472,"lng":137.468316,"zip":"9370039"},{"town":"岡経田","koaza":"","lat":36.843471,"lng":137.414709,"zip":"9370004"},{"town":"小川寺","koaza":"","lat":36.821405,"lng":137.471811,"zip":"9370022"},{"town":"貝田新","koaza":"","lat":36.803499,"lng":137.462871,"zip":"9370032"},{"town":"鹿熊","koaza":"","lat":36.754785,"lng":137.441402,"zip":"9370834"},{"town":"金浦町","koaza":"","lat":36.819063,"lng":137.399672,"zip":"9370054"},{"town":"金山谷","koaza":"","lat":36.772412,"lng":137.430885,"zip":"9370832"},{"town":"上口一丁目","koaza":"","lat":36.807315,"lng":137.393863,"zip":"9370865"},{"town":"上口二丁目","koaza":"","lat":36.809569,"lng":137.395145,"zip":"9370865"},{"town":"上村木","koaza":"","lat":36.82234,"lng":137.413841,"zip":"9370046"},{"town":"上村木一丁目","koaza":"","lat":36.823855,"lng":137.408673,"zip":"9370046"},{"town":"上村木二丁目","koaza":"","lat":36.822913,"lng":137.4118,"zip":"9370046"},{"town":"鴨川町","koaza":"","lat":36.817778,"lng":137.401081,"zip":"9370861"},{"town":"川原","koaza":"","lat":36.791222,"lng":137.404205,"zip":"9370855"},{"town":"川縁","koaza":"","lat":36.794043,"lng":137.398853,"zip":"9370856"},{"town":"川原波","koaza":"","lat":36.72892,"lng":137.463171,"zip":"9370000"},{"town":"観音堂","koaza":"","lat":36.783857,"lng":137.420867,"zip":"9370831"},{"town":"北鬼江","koaza":"","lat":36.832037,"lng":137.40365,"zip":"9370066"},{"town":"北鬼江一丁目","koaza":"","lat":36.829019,"lng":137.408168,"zip":"9370066"},{"town":"北鬼江二丁目","koaza":"","lat":36.82951,"lng":137.404721,"zip":"9370066"},{"town":"北中","koaza":"","lat":36.83458,"lng":137.404872,"zip":"9370065"},{"town":"北山","koaza":"","lat":36.772921,"lng":137.446946,"zip":"9370826"},{"town":"吉島","koaza":"","lat":36.828592,"lng":137.418953,"zip":"9370041"},{"town":"吉島一丁目","koaza":"","lat":36.82694,"lng":137.411041,"zip":"9370041"},{"town":"吉島二丁目","koaza":"","lat":36.826361,"lng":137.413593,"zip":"9370041"},{"town":"木下新","koaza":"","lat":36.847751,"lng":137.431985,"zip":"9370011"},{"town":"黒沢","koaza":"","lat":36.821359,"lng":137.491279,"zip":"9370025"},{"town":"黒谷","koaza":"","lat":36.782644,"lng":137.491354,"zip":"9370035"},{"town":"慶野","koaza":"","lat":36.800807,"lng":137.404546,"zip":"9370852"},{"town":"小菅沼","koaza":"","lat":36.766623,"lng":137.439771,"zip":"9370833"},{"town":"寿町","koaza":"","lat":36.857882,"lng":137.412999,"zip":"9370009"},{"town":"佐伯","koaza":"","lat":36.794473,"lng":137.40556,"zip":"9370841"},{"town":"三ケ","koaza":"","lat":36.718475,"lng":137.555405,"zip":"9370857"},{"town":"三田","koaza":"","lat":36.818475,"lng":137.42185,"zip":"9370811"},{"town":"持光寺","koaza":"","lat":36.844894,"lng":137.422773,"zip":"9370003"},{"town":"島尻","koaza":"","lat":36.785629,"lng":137.474239,"zip":"9370033"},{"town":"下椿","koaza":"","lat":36.771874,"lng":137.415976,"zip":"9370844"},{"town":"釈迦堂","koaza":"","lat":36.82233,"lng":137.394734,"zip":"9370067"},{"town":"釈迦堂一丁目","koaza":"","lat":36.826662,"lng":137.407242,"zip":"9370067"},{"town":"新角川一丁目","koaza":"","lat":36.811557,"lng":137.394748,"zip":"9370864"},{"town":"新角川二丁目","koaza":"","lat":36.811113,"lng":137.397377,"zip":"9370864"},{"town":"新金屋一丁目","koaza":"","lat":36.820536,"lng":137.404832,"zip":"9370801"},{"town":"新金屋二丁目","koaza":"","lat":36.821393,"lng":137.407967,"zip":"9370801"},{"town":"新経田","koaza":"","lat":36.848385,"lng":137.419035,"zip":"9370010"},{"town":"新宿","koaza":"","lat":36.813971,"lng":137.398554,"zip":"9370863"},{"town":"真成寺町","koaza":"","lat":36.816285,"lng":137.397644,"zip":"9370867"},{"town":"末広町","koaza":"","lat":36.820659,"lng":137.399321,"zip":"9370059"},{"town":"住吉","koaza":"","lat":36.803537,"lng":137.399579,"zip":"9370851"},{"town":"諏訪町","koaza":"","lat":36.817976,"lng":137.394498,"zip":"9370056"},{"town":"大海寺新","koaza":"","lat":36.795378,"lng":137.444008,"zip":"9370815"},{"town":"大海寺野","koaza":"","lat":36.809201,"lng":137.423412,"zip":"9370816"},{"town":"大光寺","koaza":"","lat":36.809003,"lng":137.407482,"zip":"9370807"},{"town":"高畠","koaza":"","lat":36.83301,"lng":137.411503,"zip":"9370064"},{"town":"立石","koaza":"","lat":36.83045,"lng":137.429458,"zip":"9370016"},{"town":"中央通り一丁目","koaza":"","lat":36.818048,"lng":137.397758,"zip":"9370055"},{"town":"中央通り二丁目","koaza":"","lat":36.818591,"lng":137.400653,"zip":"9370055"},{"town":"坪野","koaza":"","lat":36.771355,"lng":137.456387,"zip":"9370827"},{"town":"天神野新","koaza":"","lat":36.832338,"lng":137.441817,"zip":"9370013"},{"town":"天王","koaza":"","lat":36.846206,"lng":137.416045,"zip":"9370005"},{"town":"道坂","koaza":"","lat":36.807917,"lng":137.455274,"zip":"9370031"},{"town":"東城","koaza":"","lat":36.795154,"lng":137.488771,"zip":"9370034"},{"town":"東蔵","koaza":"","lat":36.768676,"lng":137.49577,"zip":"9370037"},{"town":"友道","koaza":"","lat":36.813106,"lng":137.408218,"zip":"9370806"},{"town":"虎谷","koaza":"","lat":36.715206,"lng":137.461691,"zip":"9370837"},{"town":"長引野","koaza":"","lat":36.828661,"lng":137.475281,"zip":"9370023"},{"town":"並木町","koaza":"","lat":36.818477,"lng":137.402906,"zip":"9370804"},{"town":"二ケ","koaza":"","lat":36.76276,"lng":137.533704,"zip":"9370000"},{"town":"西尾崎","koaza":"","lat":36.839733,"lng":137.42582,"zip":"9370018"},{"town":"鉢","koaza":"","lat":36.731611,"lng":137.442253,"zip":"9370836"},{"town":"浜経田","koaza":"","lat":36.85104,"lng":137.417847,"zip":"9370001"},{"town":"稗畠","koaza":"","lat":36.785219,"lng":137.438379,"zip":"9370825"},{"town":"東尾崎","koaza":"","lat":36.836687,"lng":137.431778,"zip":"9370012"},{"town":"東山","koaza":"","lat":36.811518,"lng":137.460694,"zip":"9370015"},{"town":"火の宮町","koaza":"","lat":36.820255,"lng":137.396997,"zip":"9370058"},{"town":"平沢","koaza":"","lat":36.755113,"lng":137.490891,"zip":"9370038"},{"town":"袋","koaza":"","lat":36.815088,"lng":137.438573,"zip":"9370043"},{"town":"布施爪","koaza":"","lat":36.832495,"lng":137.475278,"zip":"9370024"},{"town":"双葉町","koaza":"","lat":36.816419,"lng":137.398232,"zip":"9370868"},{"town":"仏田","koaza":"","lat":36.840863,"lng":137.410005,"zip":"9370061"},{"town":"仏又","koaza":"","lat":36.837256,"lng":137.411926,"zip":"9370062"},{"town":"古鹿熊","koaza":"","lat":36.747766,"lng":137.460702,"zip":"9370000"},{"town":"文化町","koaza":"","lat":36.816263,"lng":137.399871,"zip":"9370862"},{"town":"平伝寺","koaza":"","lat":36.84934,"lng":137.421877,"zip":"9370002"},{"town":"蛇田","koaza":"","lat":36.837084,"lng":137.447639,"zip":"9370021"},{"town":"本江","koaza":"","lat":36.816901,"lng":137.41399,"zip":"9370805"},{"town":"本江一丁目","koaza":"","lat":36.816691,"lng":137.407656,"zip":"9370805"},{"town":"本江新町","koaza":"","lat":36.81909,"lng":137.405593,"zip":"9370803"},{"town":"本町一丁目","koaza":"","lat":36.813628,"lng":137.395911,"zip":"9370866"},{"town":"本町二丁目","koaza":"","lat":36.816108,"lng":137.395248,"zip":"9370866"},{"town":"舛方","koaza":"","lat":36.760602,"lng":137.416894,"zip":"9370845"},{"town":"舛田","koaza":"","lat":36.785345,"lng":137.415103,"zip":"9370822"},{"town":"松倉","koaza":"","lat":36.731043,"lng":137.482793,"zip":"9370000"},{"town":"緑町","koaza":"","lat":36.823142,"lng":137.402628,"zip":"9370052"},{"town":"港町","koaza":"","lat":36.820699,"lng":137.394253,"zip":"9370057"},{"town":"宮津","koaza":"","lat":36.798893,"lng":137.421552,"zip":"9370853"},{"town":"村木","koaza":"","lat":36.822613,"lng":137.39659,"zip":"9370053"},{"town":"村木町","koaza":"","lat":36.820759,"lng":137.401574,"zip":"9370053"},{"town":"室田","koaza":"","lat":36.787594,"lng":137.427234,"zip":"9370824"},{"town":"本新","koaza":"","lat":36.826562,"lng":137.398321,"zip":"9370068"},{"town":"本新町","koaza":"","lat":36.825583,"lng":137.402779,"zip":"9370068"},{"town":"弥源寺","koaza":"","lat":36.796428,"lng":137.402373,"zip":"9370854"},{"town":"湯上","koaza":"","lat":36.79207,"lng":137.420907,"zip":"9370823"},{"town":"横枕","koaza":"","lat":36.813537,"lng":137.447209,"zip":"9370044"},{"town":"吉野","koaza":"","lat":36.785407,"lng":137.404418,"zip":"9370842"},{"town":"六郎丸","koaza":"","lat":36.821732,"lng":137.432588,"zip":"9370042"},{"town":"東町","koaza":"","lat":36.853865,"lng":137.415201,"zip":"9370008"},{"town":"経田中町","koaza":"","lat":36.85006,"lng":137.415713,"zip":"9370007"},{"town":"経田西町","koaza":"","lat":36.847164,"lng":137.413075,"zip":"9370006"},{"town":"吉島","koaza":"四十田","lat":36.83262,"lng":137.416241,"zip":"9370041"}]