[{"town":"阿古屋野","koaza":"","lat":36.846294,"lng":137.453526,"zip":"9380048"},{"town":"吾妻野","koaza":"","lat":36.845294,"lng":137.464752,"zip":"9380000"},{"town":"天池","koaza":"","lat":36.867015,"lng":137.452188,"zip":"9380032"},{"town":"阿弥陀堂","koaza":"","lat":36.837344,"lng":137.479783,"zip":"9380824"},{"town":"荒俣","koaza":"","lat":36.913377,"lng":137.424167,"zip":"9380001"},{"town":"荒町","koaza":"","lat":36.855369,"lng":137.434475,"zip":"9380044"},{"town":"生地","koaza":"","lat":36.886631,"lng":137.417947,"zip":"9380066"},{"town":"生地芦区","koaza":"","lat":36.89927,"lng":137.416448,"zip":"9380082"},{"town":"生地芦崎","koaza":"","lat":36.897977,"lng":137.413059,"zip":"9380084"},{"town":"生地飯沢","koaza":"","lat":36.89628,"lng":137.418438,"zip":"9380000"},{"town":"生地経新","koaza":"","lat":36.895916,"lng":137.413019,"zip":"9380081"},{"town":"生地神区","koaza":"","lat":36.884957,"lng":137.422321,"zip":"9380061"},{"town":"生地中区","koaza":"","lat":36.890716,"lng":137.419674,"zip":"9380072"},{"town":"生地山新","koaza":"","lat":36.894805,"lng":137.414824,"zip":"9380071"},{"town":"生地吉田","koaza":"","lat":36.897372,"lng":137.411044,"zip":"9380085"},{"town":"生地吉田新","koaza":"","lat":36.898507,"lng":137.414337,"zip":"9380086"},{"town":"生地四ツ屋新","koaza":"","lat":36.880782,"lng":137.421208,"zip":"9380063"},{"town":"池尻","koaza":"","lat":36.815265,"lng":137.51646,"zip":"9380816"},{"town":"石田","koaza":"","lat":36.860334,"lng":137.415308,"zip":"9380059"},{"town":"石田新","koaza":"","lat":36.864736,"lng":137.421063,"zip":"9380057"},{"town":"石田野","koaza":"","lat":36.850326,"lng":137.478039,"zip":"9380835"},{"town":"板屋","koaza":"","lat":36.906135,"lng":137.443748,"zip":"9380000"},{"town":"犬山","koaza":"","lat":36.8562,"lng":137.426684,"zip":"9380043"},{"town":"植木","koaza":"","lat":36.882717,"lng":137.450713,"zip":"9380014"},{"town":"内生谷","koaza":"","lat":36.835078,"lng":137.497292,"zip":"9380811"},{"town":"宇奈月町愛本新","koaza":"","lat":36.881621,"lng":137.54675,"zip":"9380177"},{"town":"宇奈月町内山","koaza":"","lat":36.832348,"lng":137.556684,"zip":"9380281"},{"town":"宇奈月町栗虫","koaza":"","lat":36.869905,"lng":137.554036,"zip":"9380178"},{"town":"宇奈月町土山","koaza":"","lat":36.870943,"lng":137.56611,"zip":"9380172"},{"town":"大開","koaza":"","lat":36.908303,"lng":137.422839,"zip":"9380006"},{"town":"岡","koaza":"","lat":36.86511,"lng":137.426016,"zip":"9380054"},{"town":"荻生","koaza":"","lat":36.88509,"lng":137.475592,"zip":"9380801"},{"town":"荻生新","koaza":"","lat":36.873594,"lng":137.465954,"zip":"9380000"},{"town":"尾山","koaza":"","lat":36.839171,"lng":137.475515,"zip":"9380825"},{"town":"鏡野","koaza":"","lat":36.851991,"lng":137.465757,"zip":"9380836"},{"town":"笠破","koaza":"","lat":36.815971,"lng":137.53212,"zip":"9380812"},{"town":"金屋","koaza":"","lat":36.886579,"lng":137.441555,"zip":"9380022"},{"town":"嘉例沢","koaza":"","lat":36.817436,"lng":137.544799,"zip":"9380814"},{"town":"北新","koaza":"","lat":36.875038,"lng":137.442915,"zip":"9380036"},{"town":"北野","koaza":"","lat":36.89055,"lng":137.450571,"zip":"9380015"},{"town":"吉城寺","koaza":"","lat":36.863102,"lng":137.47282,"zip":"9380805"},{"town":"経立野","koaza":"","lat":36.875838,"lng":137.419642,"zip":"9380052"},{"town":"沓掛","koaza":"","lat":36.893536,"lng":137.462288,"zip":"9380013"},{"town":"窪野","koaza":"","lat":36.849736,"lng":137.449149,"zip":"9380047"},{"town":"黒部峡谷口","koaza":"","lat":36.814789,"lng":137.586112,"zip":"9380283"},{"town":"黒部新","koaza":"","lat":36.900838,"lng":137.450457,"zip":"9380011"},{"town":"五郎八","koaza":"","lat":36.891973,"lng":137.483126,"zip":"9380000"},{"town":"神谷","koaza":"","lat":36.851587,"lng":137.444827,"zip":"9380046"},{"town":"四ケ開","koaza":"","lat":36.89369,"lng":137.441504,"zip":"9380000"},{"town":"舌山","koaza":"","lat":36.871087,"lng":137.482015,"zip":"9380000"},{"town":"釈迦堂","koaza":"","lat":36.835353,"lng":137.486726,"zip":"9380823"},{"town":"正光寺新","koaza":"","lat":36.869063,"lng":137.419278,"zip":"9380058"},{"town":"新天","koaza":"","lat":36.87012,"lng":137.460261,"zip":"9380038"},{"town":"新堂","koaza":"","lat":36.878096,"lng":137.459562,"zip":"9380808"},{"town":"新牧野","koaza":"","lat":36.86789,"lng":137.446464,"zip":"9380037"},{"town":"新町","koaza":"","lat":36.865956,"lng":137.417893,"zip":"9380056"},{"town":"田家新","koaza":"","lat":36.853984,"lng":137.438208,"zip":"9380045"},{"town":"田家野","koaza":"","lat":36.854189,"lng":137.454619,"zip":"9380837"},{"town":"田家角内","koaza":"","lat":36.881493,"lng":137.43672,"zip":"9380026"},{"town":"高橋","koaza":"","lat":36.879973,"lng":137.44021,"zip":"9380024"},{"town":"立野","koaza":"","lat":36.877505,"lng":137.425335,"zip":"9380051"},{"town":"田籾","koaza":"","lat":36.82649,"lng":137.514618,"zip":"9380813"},{"town":"出島","koaza":"","lat":36.897613,"lng":137.450354,"zip":"9380012"},{"town":"堂田","koaza":"","lat":36.864353,"lng":137.445318,"zip":"9380039"},{"town":"栃沢","koaza":"","lat":36.889809,"lng":137.432568,"zip":"9380028"},{"town":"轟下","koaza":"","lat":36.884743,"lng":137.425679,"zip":"9380000"},{"town":"中新","koaza":"","lat":36.884196,"lng":137.435374,"zip":"9380027"},{"town":"中陣","koaza":"","lat":36.839763,"lng":137.459772,"zip":"9380827"},{"town":"長屋","koaza":"","lat":36.873275,"lng":137.472145,"zip":"9380000"},{"town":"浜石田","koaza":"","lat":36.8637,"lng":137.416628,"zip":"9380055"},{"town":"飛騨","koaza":"","lat":36.908442,"lng":137.433758,"zip":"9380002"},{"town":"福平","koaza":"","lat":36.791272,"lng":137.530188,"zip":"9380815"},{"town":"別所","koaza":"","lat":36.844955,"lng":137.48097,"zip":"9380822"},{"town":"朴谷","koaza":"","lat":36.839585,"lng":137.46893,"zip":"9380826"},{"town":"堀切","koaza":"","lat":36.875309,"lng":137.434336,"zip":"9380041"},{"town":"堀切新","koaza":"","lat":36.876993,"lng":137.439013,"zip":"9380025"},{"town":"堀高","koaza":"","lat":36.880255,"lng":137.438462,"zip":"9380023"},{"town":"前沢","koaza":"","lat":36.862761,"lng":137.448563,"zip":"9380806"},{"town":"枕野","koaza":"","lat":36.856041,"lng":137.473423,"zip":"9380832"},{"town":"三日市","koaza":"","lat":36.874413,"lng":137.44867,"zip":"9380031"},{"town":"宮沢","koaza":"","lat":36.857663,"lng":137.464729,"zip":"9380831"},{"town":"宮野","koaza":"","lat":36.866306,"lng":137.478692,"zip":"9380804"},{"town":"本野","koaza":"","lat":36.85295,"lng":137.483712,"zip":"9380833"},{"town":"柳沢","koaza":"","lat":36.844147,"lng":137.472592,"zip":"9380821"},{"town":"山田","koaza":"","lat":36.846655,"lng":137.441451,"zip":"9380049"},{"town":"山田新","koaza":"","lat":36.867742,"lng":137.465813,"zip":"9380807"},{"town":"山立野","koaza":"","lat":36.873706,"lng":137.419489,"zip":"9380053"},{"town":"吉田","koaza":"","lat":36.902013,"lng":137.427275,"zip":"9380005"},{"town":"六天","koaza":"","lat":36.897971,"lng":137.438764,"zip":"9380003"},{"town":"若栗","koaza":"","lat":36.877555,"lng":137.496348,"zip":"9380802"},{"town":"古御堂","koaza":"","lat":36.892406,"lng":137.438244,"zip":"9380021"},{"town":"窪田","koaza":"","lat":36.892859,"lng":137.430381,"zip":"9380000"},{"town":"飯沢","koaza":"","lat":36.895428,"lng":137.424913,"zip":"9380004"},{"town":"中野","koaza":"","lat":36.864704,"lng":137.441306,"zip":"9380034"},{"town":"宇奈月町明日","koaza":"","lat":36.862509,"lng":137.561521,"zip":"9380171"},{"town":"宇奈月町中谷","koaza":"","lat":36.86517,"lng":137.556288,"zip":"9380173"},{"town":"宇奈月町中ノ口","koaza":"","lat":36.866276,"lng":137.55029,"zip":"9380176"},{"town":"宇奈月町舟見","koaza":"","lat":36.866695,"lng":137.55421,"zip":"9380179"},{"town":"尾中","koaza":"","lat":36.843106,"lng":137.495444,"zip":"9380000"},{"town":"宇奈月町黒部","koaza":"","lat":36.731117,"lng":137.62501,"zip":"9380000"},{"town":"宇奈月温泉","koaza":"","lat":36.81613,"lng":137.582814,"zip":"9380282"},{"town":"宇奈月町音澤","koaza":"","lat":36.838471,"lng":137.565024,"zip":"9380274"},{"town":"宇奈月町舟見明日音澤","koaza":"","lat":36.820718,"lng":137.588898,"zip":"9380000"},{"town":"天神新","koaza":"","lat":36.867533,"lng":137.432587,"zip":"9380042"},{"town":"中野道","koaza":"","lat":36.867113,"lng":137.435351,"zip":"9380033"},{"town":"牧野","koaza":"","lat":36.867401,"lng":137.439647,"zip":"9380035"},{"town":"大越野","koaza":"","lat":36.862793,"lng":137.494955,"zip":"9380000"},{"town":"宇奈月町長坂野","koaza":"","lat":36.859195,"lng":137.508179,"zip":"9380000"},{"town":"宇奈月町栃屋","koaza":"","lat":36.858368,"lng":137.503899,"zip":"9380864"},{"town":"栗寺","koaza":"","lat":36.85949,"lng":137.485729,"zip":"9380803"},{"town":"宇奈月町大谷","koaza":"","lat":36.846709,"lng":137.507692,"zip":"9380000"},{"town":"中山","koaza":"","lat":36.852282,"lng":137.492131,"zip":"9380834"},{"town":"阿朴","koaza":"","lat":36.847363,"lng":137.497974,"zip":"9380000"},{"town":"宇奈月町熊野","koaza":"","lat":36.867755,"lng":137.514486,"zip":"9380863"},{"town":"三ケ山","koaza":"","lat":36.837929,"lng":137.516738,"zip":"9380000"},{"town":"宇奈月町下立","koaza":"","lat":36.853168,"lng":137.538429,"zip":"9380861"},{"town":"宇奈月町けい山","koaza":"","lat":36.858221,"lng":137.511946,"zip":"9380000"},{"town":"宇奈月町小寺沢","koaza":"","lat":36.859802,"lng":137.522882,"zip":"9380000"},{"town":"宇奈月町浦山","koaza":"","lat":36.861801,"lng":137.521228,"zip":"9380862"},{"town":"三日市","koaza":"茅堂","lat":36.878381,"lng":137.447425,"zip":"9380031"},{"town":"荻生","koaza":"西小路","lat":36.884457,"lng":137.462164,"zip":"9380801"}]