[{"town":"小川","koaza":"","lat":35.786543,"lng":137.263576,"zip":"5092203"},{"town":"小坂町赤沼田","koaza":"","lat":35.919554,"lng":137.285252,"zip":"5093114"},{"town":"小坂町岩崎","koaza":"","lat":35.992196,"lng":137.250142,"zip":"5093101"},{"town":"小坂町大垣内","koaza":"","lat":35.96005,"lng":137.266279,"zip":"5093103"},{"town":"小坂町大島","koaza":"","lat":35.955351,"lng":137.243979,"zip":"5093106"},{"town":"小坂町大洞","koaza":"","lat":35.866152,"lng":137.308291,"zip":"5093112"},{"town":"小坂町小坂町","koaza":"","lat":35.952042,"lng":137.264392,"zip":"5093104"},{"town":"小坂町落合","koaza":"","lat":35.933313,"lng":137.381942,"zip":"5093111"},{"town":"小坂町門坂","koaza":"","lat":35.977412,"lng":137.295518,"zip":"5093102"},{"town":"小坂町坂下","koaza":"","lat":35.930796,"lng":137.262513,"zip":"5093105"},{"town":"小坂町長瀬","koaza":"","lat":35.940199,"lng":137.277647,"zip":"5093115"},{"town":"小坂町無数原","koaza":"","lat":35.979383,"lng":137.24339,"zip":"5093107"},{"town":"小坂町湯屋","koaza":"","lat":35.915093,"lng":137.306153,"zip":"5093113"},{"town":"門原","koaza":"","lat":35.766736,"lng":137.205168,"zip":"5092138"},{"town":"門和佐","koaza":"","lat":35.708563,"lng":137.288203,"zip":"5092424"},{"town":"金山町岩瀬","koaza":"","lat":35.735942,"lng":137.153952,"zip":"5091603"},{"town":"金山町卯野原","koaza":"","lat":35.778045,"lng":137.150412,"zip":"5091602"},{"town":"金山町大船渡","koaza":"","lat":35.662537,"lng":137.169304,"zip":"5091614"},{"town":"金山町乙原","koaza":"","lat":35.749319,"lng":137.142314,"zip":"5091607"},{"town":"金山町金山","koaza":"","lat":35.668673,"lng":137.135917,"zip":"5091622"},{"town":"金山町下原町","koaza":"","lat":35.666205,"lng":137.160612,"zip":"5091616"},{"town":"金山町菅田桐洞","koaza":"","lat":35.647793,"lng":137.127918,"zip":"5091623"},{"town":"金山町菅田笹洞","koaza":"","lat":35.650622,"lng":137.099137,"zip":"5091624"},{"town":"金山町祖師野","koaza":"","lat":35.721149,"lng":137.125936,"zip":"5091606"},{"town":"金山町田島","koaza":"","lat":35.657395,"lng":137.183919,"zip":"5091615"},{"town":"金山町戸部","koaza":"","lat":35.700228,"lng":137.09522,"zip":"5091605"},{"town":"金山町中切","koaza":"","lat":35.707872,"lng":137.16801,"zip":"5091611"},{"town":"金山町中津原","koaza":"","lat":35.672233,"lng":137.177962,"zip":"5091613"},{"town":"金山町東沓部","koaza":"","lat":35.693721,"lng":137.14836,"zip":"5091604"},{"town":"金山町福来","koaza":"","lat":35.688435,"lng":137.190047,"zip":"5091612"},{"town":"金山町弓掛","koaza":"","lat":35.817619,"lng":137.152559,"zip":"5091601"},{"town":"金山町渡","koaza":"","lat":35.673629,"lng":137.154697,"zip":"5091621"},{"town":"久野川","koaza":"","lat":35.732958,"lng":137.245472,"zip":"5092131"},{"town":"幸田","koaza":"","lat":35.801702,"lng":137.224846,"zip":"5092206"},{"town":"三原","koaza":"","lat":35.780814,"lng":137.243649,"zip":"5092204"},{"town":"少ケ野","koaza":"","lat":35.792286,"lng":137.235571,"zip":"5092205"},{"town":"瀬戸","koaza":"","lat":35.733139,"lng":137.191967,"zip":"5092136"},{"town":"田口","koaza":"","lat":35.730039,"lng":137.289668,"zip":"5092422"},{"town":"夏焼","koaza":"","lat":35.747328,"lng":137.274258,"zip":"5092421"},{"town":"野尻","koaza":"","lat":35.761621,"lng":137.305759,"zip":"5092313"},{"town":"乗政","koaza":"","lat":35.798949,"lng":137.30311,"zip":"5092311"},{"town":"萩原町跡津","koaza":"","lat":35.85065,"lng":137.210585,"zip":"5092504"},{"town":"萩原町上村","koaza":"","lat":35.873143,"lng":137.240508,"zip":"5092516"},{"town":"萩原町大ヶ洞","koaza":"","lat":35.91342,"lng":137.234644,"zip":"5092512"},{"town":"萩原町奥田洞","koaza":"","lat":35.909271,"lng":137.22571,"zip":"5092519"},{"town":"萩原町尾崎","koaza":"","lat":35.944382,"lng":137.181047,"zip":"5092508"},{"town":"萩原町桜洞","koaza":"","lat":35.884028,"lng":137.239015,"zip":"5092513"},{"town":"萩原町四美","koaza":"","lat":35.944225,"lng":137.211956,"zip":"5092502"},{"town":"萩原町上呂","koaza":"","lat":35.906641,"lng":137.212457,"zip":"5092518"},{"town":"萩原町中呂","koaza":"","lat":35.852582,"lng":137.236469,"zip":"5092514"},{"town":"萩原町西上田","koaza":"","lat":35.827203,"lng":137.222491,"zip":"5092503"},{"town":"萩原町野上","koaza":"","lat":35.908174,"lng":137.191141,"zip":"5092507"},{"town":"萩原町萩原","koaza":"","lat":35.876125,"lng":137.209409,"zip":"5092517"},{"town":"萩原町花池","koaza":"","lat":35.864519,"lng":137.239171,"zip":"5092515"},{"town":"萩原町羽根","koaza":"","lat":35.889049,"lng":137.197187,"zip":"5092506"},{"town":"萩原町古関","koaza":"","lat":35.869919,"lng":137.200451,"zip":"5092505"},{"town":"萩原町宮田","koaza":"","lat":35.915895,"lng":137.250384,"zip":"5092511"},{"town":"萩原町山之口","koaza":"","lat":36.000332,"lng":137.191341,"zip":"5092501"},{"town":"火打","koaza":"","lat":35.698598,"lng":137.233029,"zip":"5092132"},{"town":"東上田","koaza":"","lat":35.835693,"lng":137.246283,"zip":"5092201"},{"town":"蛇之尾","koaza":"","lat":35.732612,"lng":137.313215,"zip":"5092423"},{"town":"保井戸","koaza":"","lat":35.747775,"lng":137.195754,"zip":"5092137"},{"town":"馬瀬井谷","koaza":"","lat":35.857612,"lng":137.181381,"zip":"5092613"},{"town":"馬瀬川上","koaza":"","lat":35.967494,"lng":137.137466,"zip":"5092601"},{"town":"馬瀬黒石","koaza":"","lat":35.928329,"lng":137.137786,"zip":"5092602"},{"town":"馬瀬下山","koaza":"","lat":35.788396,"lng":137.189525,"zip":"5092200"},{"town":"馬瀬数河","koaza":"","lat":35.905315,"lng":137.147531,"zip":"5092603"},{"town":"馬瀬惣島","koaza":"","lat":35.839812,"lng":137.186602,"zip":"5092614"},{"town":"馬瀬中切","koaza":"","lat":35.897311,"lng":137.160239,"zip":"5092604"},{"town":"馬瀬名丸","koaza":"","lat":35.875038,"lng":137.17432,"zip":"5092612"},{"town":"馬瀬西村","koaza":"","lat":35.816927,"lng":137.195618,"zip":"5092615"},{"town":"馬瀬堀之内","koaza":"","lat":35.889725,"lng":137.170671,"zip":"5092611"},{"town":"三ツ渕","koaza":"","lat":35.724174,"lng":137.185862,"zip":"5092135"},{"town":"御厩野","koaza":"","lat":35.777694,"lng":137.329843,"zip":"5092312"},{"town":"宮地","koaza":"","lat":35.769239,"lng":137.279817,"zip":"5092314"},{"town":"森","koaza":"","lat":35.819237,"lng":137.261836,"zip":"5092202"},{"town":"焼石","koaza":"","lat":35.720342,"lng":137.199426,"zip":"5092134"},{"town":"湯之島","koaza":"","lat":35.818184,"lng":137.248458,"zip":"5092207"},{"town":"和佐","koaza":"","lat":35.711362,"lng":137.214099,"zip":"5092133"},{"town":"東上田","koaza":"水添","lat":35.830705,"lng":137.235018,"zip":"5092201"}]