[{"town":"綾戸","koaza":"","lat":35.371169,"lng":136.549494,"zip":"5032112"},{"town":"新井","koaza":"","lat":35.386707,"lng":136.516162,"zip":"5032105"},{"town":"市之尾","koaza":"","lat":35.390101,"lng":136.531922,"zip":"5032104"},{"town":"伊吹","koaza":"","lat":35.375218,"lng":136.492017,"zip":"5032106"},{"town":"岩手","koaza":"","lat":35.395245,"lng":136.48275,"zip":"5032107"},{"town":"梅谷","koaza":"","lat":35.406369,"lng":136.536896,"zip":"5032103"},{"town":"大石","koaza":"","lat":35.40341,"lng":136.503351,"zip":"5032108"},{"town":"大滝","koaza":"","lat":35.415673,"lng":136.514499,"zip":"5032101"},{"town":"表佐","koaza":"","lat":35.35636,"lng":136.548686,"zip":"5032122"},{"town":"楠田","koaza":"","lat":35.37403,"lng":136.529323,"zip":"5032100"},{"town":"栗原","koaza":"","lat":35.339932,"lng":136.540761,"zip":"5032123"},{"town":"敷原","koaza":"","lat":35.402023,"lng":136.521692,"zip":"5032102"},{"town":"地蔵一丁目","koaza":"","lat":35.376889,"lng":136.536005,"zip":"5032100"},{"town":"地蔵二丁目","koaza":"","lat":35.377194,"lng":136.537097,"zip":"5032100"},{"town":"清水一丁目","koaza":"","lat":35.374794,"lng":136.526774,"zip":"5032113"},{"town":"清水二丁目","koaza":"","lat":35.376744,"lng":136.527034,"zip":"5032113"},{"town":"清水三丁目","koaza":"","lat":35.376185,"lng":136.528968,"zip":"5032113"},{"town":"東神田一丁目","koaza":"","lat":35.369175,"lng":136.533222,"zip":"5032125"},{"town":"東神田二丁目","koaza":"","lat":35.368025,"lng":136.533783,"zip":"5032125"},{"town":"東神田三丁目","koaza":"","lat":35.366466,"lng":136.533455,"zip":"5032125"},{"town":"平尾","koaza":"","lat":35.390864,"lng":136.540611,"zip":"5032111"},{"town":"府中","koaza":"","lat":35.385133,"lng":136.526146,"zip":"5032114"},{"town":"南新井一丁目","koaza":"","lat":35.385772,"lng":136.520037,"zip":"5032109"},{"town":"南新井二丁目","koaza":"","lat":35.38665,"lng":136.51873,"zip":"5032109"},{"town":"宮代","koaza":"","lat":35.355302,"lng":136.522526,"zip":"5032124"},{"town":"（大字なし）","koaza":"","lat":35.379153,"lng":136.539183,"zip":"5032100"},{"town":"表佐","koaza":"西小柳","lat":35.36666,"lng":136.55787,"zip":"5032122"},{"town":"宮代","koaza":"大持野","lat":35.366069,"lng":136.537304,"zip":"5032124"},{"town":"（大字なし）","koaza":"垂井","lat":35.370021,"lng":136.524196,"zip":"5032100"}]