[{"town":"阿木","koaza":"","lat":35.401929,"lng":137.516414,"zip":"5080002"},{"town":"飯沼","koaza":"","lat":35.42266,"lng":137.472622,"zip":"5097322"},{"town":"上野","koaza":"","lat":35.600572,"lng":137.48267,"zip":"5099231"},{"town":"えびす町","koaza":"","lat":35.495787,"lng":137.505988,"zip":"5080037"},{"town":"太田町一丁目","koaza":"","lat":35.500783,"lng":137.506323,"zip":"5080033"},{"town":"太田町二丁目","koaza":"","lat":35.499761,"lng":137.503849,"zip":"5080033"},{"town":"太田町三丁目","koaza":"","lat":35.497792,"lng":137.502796,"zip":"5080033"},{"town":"小川町","koaza":"","lat":35.500961,"lng":137.501102,"zip":"5080023"},{"town":"落合","koaza":"","lat":35.497236,"lng":137.550542,"zip":"5080006"},{"town":"加子母","koaza":"","lat":35.733716,"lng":137.401406,"zip":"5080421"},{"town":"かやの木町","koaza":"","lat":35.486456,"lng":137.500888,"zip":"5080045"},{"town":"川上","koaza":"","lat":35.636974,"lng":137.508192,"zip":"5099201"},{"town":"北野町","koaza":"","lat":35.504147,"lng":137.501243,"zip":"5080022"},{"town":"駒場","koaza":"","lat":35.494965,"lng":137.478459,"zip":"5080011"},{"town":"駒場町","koaza":"","lat":35.491468,"lng":137.496712,"zip":"5080014"},{"town":"栄町","koaza":"","lat":35.502482,"lng":137.504549,"zip":"5080032"},{"town":"坂下","koaza":"","lat":35.574018,"lng":137.512804,"zip":"5099232"},{"town":"下野","koaza":"","lat":35.586539,"lng":137.467015,"zip":"5080202"},{"town":"昭和町","koaza":"","lat":35.492111,"lng":137.504849,"zip":"5080044"},{"town":"新町","koaza":"","lat":35.497194,"lng":137.505093,"zip":"5080038"},{"town":"瀬戸","koaza":"","lat":35.527499,"lng":137.520558,"zip":"5080111"},{"town":"千旦林","koaza":"","lat":35.476103,"lng":137.46798,"zip":"5099131"},{"town":"高山","koaza":"","lat":35.534692,"lng":137.431558,"zip":"5080204"},{"town":"田瀬","koaza":"","lat":35.629438,"lng":137.473364,"zip":"5080201"},{"town":"付知町","koaza":"","lat":35.664541,"lng":137.439574,"zip":"5080351"},{"town":"津島町","koaza":"","lat":35.493449,"lng":137.494278,"zip":"5080012"},{"town":"手賀野","koaza":"","lat":35.463705,"lng":137.501971,"zip":"5080015"},{"town":"苗木","koaza":"","lat":35.531772,"lng":137.472815,"zip":"5080101"},{"town":"中一色町","koaza":"","lat":35.491373,"lng":137.510108,"zip":"5080003"},{"town":"中川町","koaza":"","lat":35.505808,"lng":137.504065,"zip":"5080021"},{"town":"中津川","koaza":"","lat":35.455883,"lng":137.544713,"zip":"5080001"},{"town":"茄子川","koaza":"","lat":35.465086,"lng":137.456551,"zip":"5099132"},{"town":"西宮町","koaza":"","lat":35.493472,"lng":137.503109,"zip":"5080042"},{"town":"八幡町","koaza":"","lat":35.490441,"lng":137.502528,"zip":"5080043"},{"town":"花戸町","koaza":"","lat":35.494246,"lng":137.5071,"zip":"5080004"},{"town":"東町","koaza":"","lat":35.498421,"lng":137.509427,"zip":"5080035"},{"town":"東宮町","koaza":"","lat":35.496164,"lng":137.509702,"zip":"5080036"},{"town":"日の出町","koaza":"","lat":35.492951,"lng":137.511342,"zip":"5080005"},{"town":"蛭川","koaza":"","lat":35.523642,"lng":137.38301,"zip":"5098301"},{"town":"福岡","koaza":"","lat":35.578346,"lng":137.427377,"zip":"5080203"},{"town":"本町一丁目","koaza":"","lat":35.496632,"lng":137.501905,"zip":"5080041"},{"town":"本町二丁目","koaza":"","lat":35.494919,"lng":137.502542,"zip":"5080041"},{"town":"本町三丁目","koaza":"","lat":35.495221,"lng":137.499876,"zip":"5080041"},{"town":"本町四丁目","koaza":"","lat":35.492306,"lng":137.50037,"zip":"5080041"},{"town":"馬籠","koaza":"","lat":35.528394,"lng":137.56527,"zip":"5080502"},{"town":"神坂","koaza":"","lat":35.489982,"lng":137.596985,"zip":"5080007"},{"town":"宮前町","koaza":"","lat":35.505091,"lng":137.506531,"zip":"5080031"},{"town":"桃山町","koaza":"","lat":35.498738,"lng":137.499577,"zip":"5080024"},{"town":"柳町","koaza":"","lat":35.493845,"lng":137.497382,"zip":"5080013"},{"town":"山口","koaza":"","lat":35.56018,"lng":137.552868,"zip":"5080501"},{"town":"淀川町","koaza":"","lat":35.498236,"lng":137.507512,"zip":"5080034"},{"town":"茄子川","koaza":"堤下","lat":35.460865,"lng":137.4454,"zip":"5099132"},{"town":"茄子川","koaza":"青木","lat":35.461575,"lng":137.452366,"zip":"5099132"},{"town":"茄子川","koaza":"中垣外","lat":35.464294,"lng":137.458223,"zip":"5099132"},{"town":"苗木","koaza":"柳ノ木","lat":35.520267,"lng":137.476388,"zip":"5080101"},{"town":"苗木","koaza":"那木","lat":35.513985,"lng":137.478694,"zip":"5080101"},{"town":"駒場","koaza":"後洞","lat":35.481331,"lng":137.486329,"zip":"5080011"},{"town":"手賀野","koaza":"上巾","lat":35.482389,"lng":137.499012,"zip":"5080015"},{"town":"中津川","koaza":"新田","lat":35.496047,"lng":137.5133,"zip":"5080001"},{"town":"駒場","koaza":"大岩","lat":35.503567,"lng":137.494035,"zip":"5080011"}]