[{"town":"赤河","koaza":"","lat":35.554193,"lng":137.257586,"zip":"5091112"},{"town":"和泉","koaza":"","lat":35.596879,"lng":137.191381,"zip":"5091104"},{"town":"河東","koaza":"","lat":35.612992,"lng":137.184717,"zip":"5091107"},{"town":"上佐見","koaza":"","lat":35.676946,"lng":137.287078,"zip":"5091221"},{"town":"河岐","koaza":"","lat":35.578254,"lng":137.1944,"zip":"5091105"},{"town":"切井","koaza":"","lat":35.550886,"lng":137.313523,"zip":"5091111"},{"town":"黒川","koaza":"","lat":35.592262,"lng":137.322904,"zip":"5091431"},{"town":"坂ノ東","koaza":"","lat":35.603797,"lng":137.161728,"zip":"5091106"},{"town":"下佐見","koaza":"","lat":35.657054,"lng":137.237075,"zip":"5091222"},{"town":"白山","koaza":"","lat":35.638226,"lng":137.198191,"zip":"5091101"},{"town":"中川","koaza":"","lat":35.612142,"lng":137.248212,"zip":"5091102"},{"town":"広野","koaza":"","lat":35.608442,"lng":137.209407,"zip":"5091108"},{"town":"三川","koaza":"","lat":35.567754,"lng":137.220877,"zip":"5091113"},{"town":"水戸野","koaza":"","lat":35.605126,"lng":137.227978,"zip":"5091103"}]