[{"town":"井尻","koaza":"","lat":35.431366,"lng":137.153978,"zip":"5050115"},{"town":"謡坂","koaza":"","lat":35.431248,"lng":137.176593,"zip":"5050104"},{"town":"大久後","koaza":"","lat":35.463136,"lng":137.193055,"zip":"5050101"},{"town":"小原","koaza":"","lat":35.439885,"lng":137.174289,"zip":"5050106"},{"town":"上恵土","koaza":"","lat":35.438972,"lng":137.07683,"zip":"5050126"},{"town":"上之郷","koaza":"","lat":35.44632,"lng":137.168934,"zip":"5050107"},{"town":"顔戸","koaza":"","lat":35.442345,"lng":137.110831,"zip":"5050122"},{"town":"小和沢","koaza":"","lat":35.462052,"lng":137.175646,"zip":"5050108"},{"town":"西洞","koaza":"","lat":35.431076,"lng":137.165824,"zip":"5050105"},{"town":"次月","koaza":"","lat":35.407945,"lng":137.187698,"zip":"5050111"},{"town":"宿","koaza":"","lat":35.412248,"lng":137.163658,"zip":"5050113"},{"town":"津橋","koaza":"","lat":35.427066,"lng":137.193626,"zip":"5050103"},{"town":"中","koaza":"","lat":35.433642,"lng":137.120198,"zip":"5050121"},{"town":"中切","koaza":"","lat":35.416892,"lng":137.157624,"zip":"5050114"},{"town":"比衣","koaza":"","lat":35.447875,"lng":137.104933,"zip":"5050124"},{"town":"伏見","koaza":"","lat":35.441895,"lng":137.090308,"zip":"5050125"},{"town":"古屋敷","koaza":"","lat":35.42404,"lng":137.111902,"zip":"5050123"},{"town":"前沢","koaza":"","lat":35.44383,"lng":137.194353,"zip":"5050102"},{"town":"美佐野","koaza":"","lat":35.41014,"lng":137.172473,"zip":"5050112"},{"town":"御嵩","koaza":"","lat":35.430141,"lng":137.137804,"zip":"5050116"},{"town":"上恵土","koaza":"西畑","lat":35.433804,"lng":137.071025,"zip":"5050126"},{"town":"御嵩","koaza":"萩田","lat":35.432545,"lng":137.135715,"zip":"5050116"}]