[{"town":"鵜沼","koaza":"","lat":35.422189,"lng":136.943092,"zip":"5090111"},{"town":"鵜沼朝日町一丁目","koaza":"","lat":35.391102,"lng":136.893193,"zip":"5090145"},{"town":"鵜沼朝日町二丁目","koaza":"","lat":35.391392,"lng":136.90025,"zip":"5090145"},{"town":"鵜沼朝日町三丁目","koaza":"","lat":35.387532,"lng":136.900571,"zip":"5090145"},{"town":"鵜沼朝日町四丁目","koaza":"","lat":35.392816,"lng":136.906734,"zip":"5090145"},{"town":"鵜沼朝日町五丁目","koaza":"","lat":35.389691,"lng":136.907182,"zip":"5090145"},{"town":"鵜沼大伊木町一丁目","koaza":"","lat":35.391086,"lng":136.912488,"zip":"5090144"},{"town":"鵜沼大伊木町二丁目","koaza":"","lat":35.387165,"lng":136.90783,"zip":"5090144"},{"town":"鵜沼大伊木町三丁目","koaza":"","lat":35.384079,"lng":136.901326,"zip":"5090144"},{"town":"鵜沼大伊木町四丁目","koaza":"","lat":35.382162,"lng":136.905046,"zip":"5090144"},{"town":"鵜沼大伊木町五丁目","koaza":"","lat":35.384733,"lng":136.910845,"zip":"5090144"},{"town":"鵜沼大伊木町六丁目","koaza":"","lat":35.382697,"lng":136.912929,"zip":"5090144"},{"town":"鵜沼各務原町一丁目","koaza":"","lat":35.402673,"lng":136.89851,"zip":"5090141"},{"town":"鵜沼各務原町二丁目","koaza":"","lat":35.399986,"lng":136.898447,"zip":"5090141"},{"town":"鵜沼各務原町三丁目","koaza":"","lat":35.401144,"lng":136.902828,"zip":"5090141"},{"town":"鵜沼各務原町四丁目","koaza":"","lat":35.402238,"lng":136.907147,"zip":"5090141"},{"town":"鵜沼各務原町五丁目","koaza":"","lat":35.402525,"lng":136.912026,"zip":"5090141"},{"town":"鵜沼各務原町六丁目","koaza":"","lat":35.398656,"lng":136.909785,"zip":"5090141"},{"town":"鵜沼各務原町七丁目","koaza":"","lat":35.395742,"lng":136.900763,"zip":"5090141"},{"town":"鵜沼各務原町八丁目","koaza":"","lat":35.396297,"lng":136.905627,"zip":"5090141"},{"town":"鵜沼各務原町九丁目","koaza":"","lat":35.395886,"lng":136.911805,"zip":"5090141"},{"town":"鵜沼川崎町一丁目","koaza":"","lat":35.404863,"lng":136.879504,"zip":"5090147"},{"town":"鵜沼川崎町二丁目","koaza":"","lat":35.402324,"lng":136.879171,"zip":"5090147"},{"town":"鵜沼川崎町三丁目","koaza":"","lat":35.401283,"lng":136.879967,"zip":"5090147"},{"town":"鵜沼小伊木町一丁目","koaza":"","lat":35.391922,"lng":136.930126,"zip":"5090143"},{"town":"鵜沼小伊木町二丁目","koaza":"","lat":35.38998,"lng":136.933077,"zip":"5090143"},{"town":"鵜沼小伊木町三丁目","koaza":"","lat":35.390453,"lng":136.924095,"zip":"5090143"},{"town":"鵜沼小伊木町四丁目","koaza":"","lat":35.387073,"lng":136.929177,"zip":"5090143"},{"town":"鵜沼台一丁目","koaza":"","lat":35.407678,"lng":136.946837,"zip":"5090121"},{"town":"鵜沼台二丁目","koaza":"","lat":35.406865,"lng":136.94474,"zip":"5090121"},{"town":"鵜沼台三丁目","koaza":"","lat":35.405966,"lng":136.945694,"zip":"5090121"},{"town":"鵜沼台四丁目","koaza":"","lat":35.404514,"lng":136.945455,"zip":"5090121"},{"town":"鵜沼台五丁目","koaza":"","lat":35.405249,"lng":136.947031,"zip":"5090121"},{"town":"鵜沼台六丁目","koaza":"","lat":35.406696,"lng":136.947909,"zip":"5090121"},{"town":"鵜沼台七丁目","koaza":"","lat":35.404132,"lng":136.948088,"zip":"5090121"},{"town":"鵜沼台八丁目","koaza":"","lat":35.40635,"lng":136.9432,"zip":"5090121"},{"town":"鵜沼大安寺町一丁目","koaza":"","lat":35.419571,"lng":136.933264,"zip":"5090117"},{"town":"鵜沼大安寺町二丁目","koaza":"","lat":35.413805,"lng":136.939138,"zip":"5090117"},{"town":"鵜沼西町一丁目","koaza":"","lat":35.404904,"lng":136.933618,"zip":"5090132"},{"town":"鵜沼西町二丁目","koaza":"","lat":35.408097,"lng":136.938137,"zip":"5090132"},{"town":"鵜沼西町三丁目","koaza":"","lat":35.401228,"lng":136.933228,"zip":"5090132"},{"town":"鵜沼西町四丁目","koaza":"","lat":35.3988,"lng":136.932978,"zip":"5090132"},{"town":"鵜沼羽場町一丁目","koaza":"","lat":35.4059,"lng":136.918641,"zip":"5090135"},{"town":"鵜沼羽場町二丁目","koaza":"","lat":35.406017,"lng":136.923888,"zip":"5090135"},{"town":"鵜沼羽場町三丁目","koaza":"","lat":35.402807,"lng":136.918282,"zip":"5090135"},{"town":"鵜沼羽場町四丁目","koaza":"","lat":35.402467,"lng":136.92369,"zip":"5090135"},{"town":"鵜沼羽場町五丁目","koaza":"","lat":35.402666,"lng":136.927422,"zip":"5090135"},{"town":"鵜沼羽場町六丁目","koaza":"","lat":35.400793,"lng":136.9189,"zip":"5090135"},{"town":"鵜沼羽場町七丁目","koaza":"","lat":35.396616,"lng":136.916201,"zip":"5090135"},{"town":"鵜沼羽場町八丁目","koaza":"","lat":35.395452,"lng":136.920793,"zip":"5090135"},{"town":"鵜沼東町一丁目","koaza":"","lat":35.404948,"lng":136.93949,"zip":"5090126"},{"town":"鵜沼東町二丁目","koaza":"","lat":35.404697,"lng":136.94195,"zip":"5090126"},{"town":"鵜沼東町三丁目","koaza":"","lat":35.402541,"lng":136.944209,"zip":"5090126"},{"town":"鵜沼東町四丁目","koaza":"","lat":35.400875,"lng":136.938351,"zip":"5090126"},{"town":"鵜沼東町五丁目","koaza":"","lat":35.40135,"lng":136.941138,"zip":"5090126"},{"town":"鵜沼東町六丁目","koaza":"","lat":35.401057,"lng":136.943672,"zip":"5090126"},{"town":"鵜沼東町七丁目","koaza":"","lat":35.401389,"lng":136.94762,"zip":"5090126"},{"town":"鵜沼東町八丁目","koaza":"","lat":35.402924,"lng":136.946139,"zip":"5090126"},{"town":"鵜沼古市場町一丁目","koaza":"","lat":35.395509,"lng":136.930729,"zip":"5090133"},{"town":"鵜沼古市場町二丁目","koaza":"","lat":35.395433,"lng":136.934863,"zip":"5090133"},{"town":"鵜沼古市場町三丁目","koaza":"","lat":35.392007,"lng":136.933407,"zip":"5090133"},{"town":"鵜沼古市場町四丁目","koaza":"","lat":35.393283,"lng":136.936442,"zip":"5090133"},{"town":"鵜沼宝積寺町一丁目","koaza":"","lat":35.401203,"lng":136.956231,"zip":"5090123"},{"town":"鵜沼宝積寺町二丁目","koaza":"","lat":35.402173,"lng":136.960425,"zip":"5090123"},{"town":"鵜沼宝積寺町三丁目","koaza":"","lat":35.406563,"lng":136.961826,"zip":"5090123"},{"town":"鵜沼宝積寺町四丁目","koaza":"","lat":35.404137,"lng":136.959326,"zip":"5090123"},{"town":"鵜沼宝積寺町五丁目","koaza":"","lat":35.406637,"lng":136.959696,"zip":"5090123"},{"town":"鵜沼宝積寺町六丁目","koaza":"","lat":35.409158,"lng":136.959802,"zip":"5090123"},{"town":"鵜沼真名越町一丁目","koaza":"","lat":35.399653,"lng":136.926122,"zip":"5090134"},{"town":"鵜沼真名越町二丁目","koaza":"","lat":35.396935,"lng":136.925622,"zip":"5090134"},{"town":"鵜沼真名越町三丁目","koaza":"","lat":35.39404,"lng":136.9248,"zip":"5090134"},{"town":"鵜沼丸子町一丁目","koaza":"","lat":35.391533,"lng":136.917699,"zip":"5090142"},{"town":"鵜沼丸子町二丁目","koaza":"","lat":35.388246,"lng":136.919598,"zip":"5090142"},{"town":"鵜沼丸子町三丁目","koaza":"","lat":35.388297,"lng":136.916431,"zip":"5090142"},{"town":"鵜沼三ツ池町一丁目","koaza":"","lat":35.404677,"lng":136.883092,"zip":"5090146"},{"town":"鵜沼三ツ池町二丁目","koaza":"","lat":35.401935,"lng":136.8853,"zip":"5090146"},{"town":"鵜沼三ツ池町三丁目","koaza":"","lat":35.401644,"lng":136.892102,"zip":"5090146"},{"town":"鵜沼三ツ池町四丁目","koaza":"","lat":35.39829,"lng":136.889301,"zip":"5090146"},{"town":"鵜沼三ツ池町五丁目","koaza":"","lat":35.399034,"lng":136.89541,"zip":"5090146"},{"town":"鵜沼三ツ池町六丁目","koaza":"","lat":35.394728,"lng":136.893745,"zip":"5090146"},{"town":"鵜沼南町一丁目","koaza":"","lat":35.397772,"lng":136.93826,"zip":"5090125"},{"town":"鵜沼南町二丁目","koaza":"","lat":35.397426,"lng":136.940676,"zip":"5090125"},{"town":"鵜沼南町三丁目","koaza":"","lat":35.395357,"lng":136.939543,"zip":"5090125"},{"town":"鵜沼南町四丁目","koaza":"","lat":35.392337,"lng":136.939773,"zip":"5090125"},{"town":"鵜沼南町五丁目","koaza":"","lat":35.396411,"lng":136.943041,"zip":"5090125"},{"town":"鵜沼南町六丁目","koaza":"","lat":35.393833,"lng":136.943333,"zip":"5090125"},{"town":"鵜沼南町七丁目","koaza":"","lat":35.395416,"lng":136.945462,"zip":"5090125"},{"town":"鵜沼山崎町一丁目","koaza":"","lat":35.399372,"lng":136.941019,"zip":"5090124"},{"town":"鵜沼山崎町二丁目","koaza":"","lat":35.398976,"lng":136.942899,"zip":"5090124"},{"town":"鵜沼山崎町三丁目","koaza":"","lat":35.398806,"lng":136.944928,"zip":"5090124"},{"town":"鵜沼山崎町四丁目","koaza":"","lat":35.398279,"lng":136.947241,"zip":"5090124"},{"town":"鵜沼山崎町五丁目","koaza":"","lat":35.398531,"lng":136.948816,"zip":"5090124"},{"town":"鵜沼山崎町六丁目","koaza":"","lat":35.400475,"lng":136.948797,"zip":"5090124"},{"town":"鵜沼山崎町七丁目","koaza":"","lat":35.399338,"lng":136.950995,"zip":"5090124"},{"town":"鵜沼山崎町八丁目","koaza":"","lat":35.39639,"lng":136.951068,"zip":"5090124"},{"town":"鵜沼山崎町九丁目","koaza":"","lat":35.396438,"lng":136.94782,"zip":"5090124"},{"town":"大佐野町","koaza":"","lat":35.376416,"lng":136.841871,"zip":"5040931"},{"town":"大佐野町一丁目","koaza":"","lat":35.383104,"lng":136.837448,"zip":"5040931"},{"town":"大佐野町二丁目","koaza":"","lat":35.384216,"lng":136.841238,"zip":"5040931"},{"town":"大佐野町三丁目","koaza":"","lat":35.380614,"lng":136.84174,"zip":"5040931"},{"town":"大野町一丁目","koaza":"","lat":35.389773,"lng":136.816904,"zip":"5040934"},{"town":"大野町二丁目","koaza":"","lat":35.38948,"lng":136.818906,"zip":"5040934"},{"town":"大野町三丁目","koaza":"","lat":35.388881,"lng":136.821715,"zip":"5040934"},{"town":"大野町四丁目","koaza":"","lat":35.388187,"lng":136.824556,"zip":"5040934"},{"town":"大野町五丁目","koaza":"","lat":35.387683,"lng":136.826883,"zip":"5040934"},{"town":"大野町六丁目","koaza":"","lat":35.386303,"lng":136.818168,"zip":"5040934"},{"town":"大野町七丁目","koaza":"","lat":35.385926,"lng":136.820841,"zip":"5040934"},{"town":"尾崎北町一丁目","koaza":"","lat":35.426218,"lng":136.830627,"zip":"5040002"},{"town":"尾崎北町二丁目","koaza":"","lat":35.426214,"lng":136.832723,"zip":"5040002"},{"town":"尾崎北町三丁目","koaza":"","lat":35.426226,"lng":136.834745,"zip":"5040002"},{"town":"尾崎北町四丁目","koaza":"","lat":35.426511,"lng":136.83773,"zip":"5040002"},{"town":"尾崎北町五丁目","koaza":"","lat":35.425847,"lng":136.837613,"zip":"5040002"},{"town":"尾崎北町六丁目","koaza":"","lat":35.424763,"lng":136.8352,"zip":"5040002"},{"town":"尾崎北町七丁目","koaza":"","lat":35.424917,"lng":136.838066,"zip":"5040002"},{"town":"尾崎西町一丁目","koaza":"","lat":35.425327,"lng":136.82623,"zip":"5040004"},{"town":"尾崎西町二丁目","koaza":"","lat":35.423088,"lng":136.823429,"zip":"5040004"},{"town":"尾崎西町三丁目","koaza":"","lat":35.423742,"lng":136.826487,"zip":"5040004"},{"town":"尾崎西町四丁目","koaza":"","lat":35.421488,"lng":136.826499,"zip":"5040004"},{"town":"尾崎西町五丁目","koaza":"","lat":35.424033,"lng":136.82813,"zip":"5040004"},{"town":"尾崎南町一丁目","koaza":"","lat":35.422102,"lng":136.828286,"zip":"5040003"},{"town":"尾崎南町二丁目","koaza":"","lat":35.421965,"lng":136.831445,"zip":"5040003"},{"town":"尾崎南町三丁目","koaza":"","lat":35.423796,"lng":136.83037,"zip":"5040003"},{"town":"尾崎南町四丁目","koaza":"","lat":35.423797,"lng":136.83298,"zip":"5040003"},{"town":"尾崎南町五丁目","koaza":"","lat":35.423508,"lng":136.834503,"zip":"5040003"},{"town":"尾崎南町六丁目","koaza":"","lat":35.423155,"lng":136.836785,"zip":"5040003"},{"town":"各務","koaza":"","lat":35.425504,"lng":136.926423,"zip":"5090104"},{"town":"各務おがせ町一丁目","koaza":"","lat":35.424285,"lng":136.902842,"zip":"5090104"},{"town":"各務おがせ町二丁目","koaza":"","lat":35.42007,"lng":136.900528,"zip":"5090104"},{"town":"各務おがせ町三丁目","koaza":"","lat":35.419406,"lng":136.905544,"zip":"5090104"},{"town":"各務おがせ町四丁目","koaza":"","lat":35.416385,"lng":136.901645,"zip":"5090104"},{"town":"各務おがせ町五丁目","koaza":"","lat":35.416187,"lng":136.907295,"zip":"5090104"},{"town":"各務おがせ町六丁目","koaza":"","lat":35.412424,"lng":136.905016,"zip":"5090104"},{"town":"各務おがせ町七丁目","koaza":"","lat":35.411371,"lng":136.908678,"zip":"5090104"},{"town":"各務おがせ町八丁目","koaza":"","lat":35.411435,"lng":136.914796,"zip":"5090104"},{"town":"各務おがせ町九丁目","koaza":"","lat":35.407384,"lng":136.912772,"zip":"5090104"},{"town":"各務西町一丁目","koaza":"","lat":35.414665,"lng":136.885588,"zip":"5090106"},{"town":"各務西町二丁目","koaza":"","lat":35.416366,"lng":136.892274,"zip":"5090106"},{"town":"各務西町三丁目","koaza":"","lat":35.417432,"lng":136.897192,"zip":"5090106"},{"town":"各務西町四丁目","koaza":"","lat":35.410074,"lng":136.885822,"zip":"5090106"},{"town":"各務西町五丁目","koaza":"","lat":35.411405,"lng":136.892469,"zip":"5090106"},{"town":"各務西町六丁目","koaza":"","lat":35.412462,"lng":136.89831,"zip":"5090106"},{"town":"各務東町一丁目","koaza":"","lat":35.424951,"lng":136.912725,"zip":"5090103"},{"town":"各務東町二丁目","koaza":"","lat":35.423002,"lng":136.907711,"zip":"5090103"},{"town":"各務東町三丁目","koaza":"","lat":35.42022,"lng":136.911357,"zip":"5090103"},{"town":"各務東町四丁目","koaza":"","lat":35.418279,"lng":136.9096,"zip":"5090103"},{"town":"各務東町五丁目","koaza":"","lat":35.423187,"lng":136.918952,"zip":"5090103"},{"town":"各務東町六丁目","koaza":"","lat":35.41981,"lng":136.914565,"zip":"5090103"},{"town":"各務東町七丁目","koaza":"","lat":35.415592,"lng":136.916058,"zip":"5090103"},{"town":"各務船山町一丁目","koaza":"","lat":35.419008,"lng":136.885819,"zip":"5090107"},{"town":"各務船山町二丁目","koaza":"","lat":35.418022,"lng":136.888793,"zip":"5090107"},{"town":"各務山の前町一丁目","koaza":"","lat":35.406196,"lng":136.888562,"zip":"5090105"},{"town":"各務山の前町二丁目","koaza":"","lat":35.406504,"lng":136.895418,"zip":"5090105"},{"town":"各務山の前町三丁目","koaza":"","lat":35.406692,"lng":136.900958,"zip":"5090105"},{"town":"各務山の前町四丁目","koaza":"","lat":35.40713,"lng":136.906337,"zip":"5090105"},{"town":"神置町","koaza":"","lat":35.377735,"lng":136.827175,"zip":"5040933"},{"town":"神置町一丁目","koaza":"","lat":35.380936,"lng":136.819997,"zip":"5040933"},{"town":"神置町二丁目","koaza":"","lat":35.380704,"lng":136.822362,"zip":"5040933"},{"town":"神置町三丁目","koaza":"","lat":35.380667,"lng":136.825688,"zip":"5040933"},{"town":"神置町四丁目","koaza":"","lat":35.380459,"lng":136.829144,"zip":"5040933"},{"town":"上中屋町","koaza":"","lat":35.375183,"lng":136.849664,"zip":"5040926"},{"town":"上中屋町一丁目","koaza":"","lat":35.378974,"lng":136.845546,"zip":"5040926"},{"town":"上中屋町二丁目","koaza":"","lat":35.378512,"lng":136.849611,"zip":"5040926"},{"town":"上中屋町三丁目","koaza":"","lat":35.378703,"lng":136.852705,"zip":"5040926"},{"town":"上中屋町四丁目","koaza":"","lat":35.380296,"lng":136.855762,"zip":"5040926"},{"town":"上中屋町五丁目","koaza":"","lat":35.377919,"lng":136.855731,"zip":"5040926"},{"town":"川崎町","koaza":"","lat":35.401871,"lng":136.873856,"zip":"5040971"},{"town":"川島笠田町","koaza":"","lat":35.371498,"lng":136.821441,"zip":"5016021"},{"town":"川島笠田町一丁目","koaza":"","lat":35.372387,"lng":136.82022,"zip":"5016021"},{"town":"川島笠田町二丁目","koaza":"","lat":35.372394,"lng":136.81717,"zip":"5016021"},{"town":"川島笠田町三丁目","koaza":"","lat":35.371818,"lng":136.813989,"zip":"5016021"},{"town":"川島笠田町四丁目","koaza":"","lat":35.370358,"lng":136.816593,"zip":"5016021"},{"town":"川島笠田町五丁目","koaza":"","lat":35.370116,"lng":136.814724,"zip":"5016021"},{"town":"川島笠田町六丁目","koaza":"","lat":35.369855,"lng":136.812295,"zip":"5016021"},{"town":"川島北山町","koaza":"","lat":35.366357,"lng":136.804461,"zip":"5016029"},{"town":"川島小網町","koaza":"","lat":35.367087,"lng":136.85159,"zip":"5016023"},{"town":"川島河田町","koaza":"","lat":35.363248,"lng":136.831441,"zip":"5016025"},{"town":"川島河田町一丁目","koaza":"","lat":35.362456,"lng":136.834997,"zip":"5016025"},{"town":"川島河田町二丁目","koaza":"","lat":35.363294,"lng":136.835768,"zip":"5016025"},{"town":"川島河田町三丁目","koaza":"","lat":35.362267,"lng":136.835912,"zip":"5016025"},{"town":"川島竹早町","koaza":"","lat":35.363382,"lng":136.840343,"zip":"5016024"},{"town":"川島松倉町","koaza":"","lat":35.368039,"lng":136.834299,"zip":"5016022"},{"town":"川島松原町","koaza":"","lat":35.362719,"lng":136.824952,"zip":"5016026"},{"town":"川島緑町一丁目","koaza":"","lat":35.364759,"lng":136.820361,"zip":"5016027"},{"town":"川島緑町二丁目","koaza":"","lat":35.364186,"lng":136.815998,"zip":"5016027"},{"town":"川島緑町三丁目","koaza":"","lat":35.363656,"lng":136.822395,"zip":"5016027"},{"town":"川島緑町四丁目","koaza":"","lat":35.363225,"lng":136.81889,"zip":"5016027"},{"town":"川島緑町五丁目","koaza":"","lat":35.362624,"lng":136.816812,"zip":"5016027"},{"town":"川島渡町","koaza":"","lat":35.363391,"lng":136.797891,"zip":"5016028"},{"town":"金属団地","koaza":"","lat":35.393484,"lng":136.829143,"zip":"5040957"},{"town":"小佐野町一丁目","koaza":"","lat":35.390511,"lng":136.829333,"zip":"5040942"},{"town":"小佐野町二丁目","koaza":"","lat":35.389108,"lng":136.828701,"zip":"5040942"},{"town":"小佐野町三丁目","koaza":"","lat":35.389018,"lng":136.83226,"zip":"5040942"},{"town":"小佐野町四丁目","koaza":"","lat":35.388076,"lng":136.834465,"zip":"5040942"},{"town":"小佐野町五丁目","koaza":"","lat":35.386893,"lng":136.837357,"zip":"5040942"},{"town":"小佐野町六丁目","koaza":"","lat":35.385469,"lng":136.834184,"zip":"5040942"},{"town":"小佐野町七丁目","koaza":"","lat":35.386641,"lng":136.830777,"zip":"5040942"},{"town":"桜木町一丁目","koaza":"","lat":35.397011,"lng":136.953741,"zip":"5090127"},{"town":"桜木町二丁目","koaza":"","lat":35.398579,"lng":136.955096,"zip":"5090127"},{"town":"桜木町三丁目","koaza":"","lat":35.397736,"lng":136.95684,"zip":"5090127"},{"town":"桜木町四丁目","koaza":"","lat":35.39955,"lng":136.956561,"zip":"5090127"},{"town":"桜木町五丁目","koaza":"","lat":35.399724,"lng":136.95871,"zip":"5090127"},{"town":"下切町","koaza":"","lat":35.376756,"lng":136.867841,"zip":"5040924"},{"town":"下切町一丁目","koaza":"","lat":35.385094,"lng":136.868142,"zip":"5040924"},{"town":"下切町二丁目","koaza":"","lat":35.385568,"lng":136.86493,"zip":"5040924"},{"town":"下切町三丁目","koaza":"","lat":35.387233,"lng":136.863586,"zip":"5040924"},{"town":"下切町四丁目","koaza":"","lat":35.388109,"lng":136.862097,"zip":"5040924"},{"town":"下切町五丁目","koaza":"","lat":35.386922,"lng":136.861195,"zip":"5040924"},{"town":"下切町六丁目","koaza":"","lat":35.385732,"lng":136.861811,"zip":"5040924"},{"town":"下切町七丁目","koaza":"","lat":35.384255,"lng":136.863603,"zip":"5040924"},{"town":"下切町八丁目","koaza":"","lat":35.383798,"lng":136.865508,"zip":"5040924"},{"town":"下切町九丁目","koaza":"","lat":35.382047,"lng":136.865422,"zip":"5040924"},{"town":"下中屋町","koaza":"","lat":35.375145,"lng":136.832086,"zip":"5040932"},{"town":"下中屋町一丁目","koaza":"","lat":35.382697,"lng":136.834294,"zip":"5040932"},{"town":"下中屋町二丁目","koaza":"","lat":35.380129,"lng":136.833271,"zip":"5040932"},{"town":"下中屋町三丁目","koaza":"","lat":35.380064,"lng":136.838033,"zip":"5040932"},{"town":"上戸町一丁目","koaza":"","lat":35.384711,"lng":136.847835,"zip":"5040927"},{"town":"上戸町二丁目","koaza":"","lat":35.383891,"lng":136.845392,"zip":"5040927"},{"town":"上戸町三丁目","koaza":"","lat":35.381123,"lng":136.845647,"zip":"5040927"},{"town":"上戸町四丁目","koaza":"","lat":35.382741,"lng":136.84843,"zip":"5040927"},{"town":"上戸町五丁目","koaza":"","lat":35.381056,"lng":136.850298,"zip":"5040927"},{"town":"上戸町六丁目","koaza":"","lat":35.383101,"lng":136.850903,"zip":"5040927"},{"town":"上戸町七丁目","koaza":"","lat":35.385105,"lng":136.851136,"zip":"5040927"},{"town":"新鵜沼台一丁目","koaza":"","lat":35.405838,"lng":136.950552,"zip":"5090122"},{"town":"新鵜沼台二丁目","koaza":"","lat":35.406987,"lng":136.953648,"zip":"5090122"},{"town":"新鵜沼台三丁目","koaza":"","lat":35.407209,"lng":136.956161,"zip":"5090122"},{"town":"新鵜沼台四丁目","koaza":"","lat":35.403211,"lng":136.950216,"zip":"5090122"},{"town":"新鵜沼台五丁目","koaza":"","lat":35.40491,"lng":136.952093,"zip":"5090122"},{"town":"新鵜沼台六丁目","koaza":"","lat":35.405384,"lng":136.954739,"zip":"5090122"},{"town":"新鵜沼台七丁目","koaza":"","lat":35.402219,"lng":136.951407,"zip":"5090122"},{"town":"新鵜沼台八丁目","koaza":"","lat":35.403629,"lng":136.953107,"zip":"5090122"},{"town":"須衛","koaza":"","lat":35.438008,"lng":136.908339,"zip":"5090101"},{"town":"須衛稲田","koaza":"","lat":35.43587,"lng":136.901213,"zip":"5040000"},{"town":"須衛町三丁目","koaza":"","lat":35.436389,"lng":136.890481,"zip":"5090108"},{"town":"須衛町五丁目","koaza":"","lat":35.431476,"lng":136.895271,"zip":"5090108"},{"town":"須衛町七丁目","koaza":"","lat":35.428926,"lng":136.901469,"zip":"5090108"},{"town":"須衛町八丁目","koaza":"","lat":35.426628,"lng":136.908172,"zip":"5090108"},{"town":"蘇原赤羽根町一丁目","koaza":"","lat":35.422479,"lng":136.854814,"zip":"5040841"},{"town":"蘇原赤羽根町二丁目","koaza":"","lat":35.422626,"lng":136.856736,"zip":"5040841"},{"town":"蘇原赤羽根町三丁目","koaza":"","lat":35.419814,"lng":136.854544,"zip":"5040841"},{"town":"蘇原赤羽根町四丁目","koaza":"","lat":35.4197,"lng":136.856461,"zip":"5040841"},{"town":"蘇原赤羽根町五丁目","koaza":"","lat":35.419412,"lng":136.858875,"zip":"5040841"},{"town":"蘇原旭町一丁目","koaza":"","lat":35.403489,"lng":136.865496,"zip":"5040824"},{"town":"蘇原旭町二丁目","koaza":"","lat":35.404612,"lng":136.865209,"zip":"5040824"},{"town":"蘇原旭町三丁目","koaza":"","lat":35.405917,"lng":136.865146,"zip":"5040824"},{"town":"蘇原旭町四丁目","koaza":"","lat":35.407162,"lng":136.865127,"zip":"5040824"},{"town":"蘇原飛鳥町一丁目","koaza":"","lat":35.425466,"lng":136.868873,"zip":"5040808"},{"town":"蘇原飛鳥町二丁目","koaza":"","lat":35.427134,"lng":136.870344,"zip":"5040808"},{"town":"蘇原飛鳥町三丁目","koaza":"","lat":35.425586,"lng":136.871803,"zip":"5040808"},{"town":"蘇原伊吹町一丁目","koaza":"","lat":35.422553,"lng":136.859262,"zip":"5040851"},{"town":"蘇原伊吹町二丁目","koaza":"","lat":35.42222,"lng":136.86141,"zip":"5040851"},{"town":"蘇原伊吹町三丁目","koaza":"","lat":35.421971,"lng":136.863546,"zip":"5040851"},{"town":"蘇原大島町一丁目","koaza":"","lat":35.416229,"lng":136.845332,"zip":"5040847"},{"town":"蘇原大島町二丁目","koaza":"","lat":35.416362,"lng":136.848378,"zip":"5040847"},{"town":"蘇原大島町三丁目","koaza":"","lat":35.416541,"lng":136.851296,"zip":"5040847"},{"town":"蘇原大島町四丁目","koaza":"","lat":35.418321,"lng":136.845909,"zip":"5040847"},{"town":"蘇原大島町五丁目","koaza":"","lat":35.419097,"lng":136.848228,"zip":"5040847"},{"town":"蘇原大島町六丁目","koaza":"","lat":35.419594,"lng":136.850514,"zip":"5040847"},{"town":"蘇原大島町七丁目","koaza":"","lat":35.420129,"lng":136.85266,"zip":"5040847"},{"town":"蘇原柿沢町一丁目","koaza":"","lat":35.404461,"lng":136.862965,"zip":"5040825"},{"town":"蘇原柿沢町二丁目","koaza":"","lat":35.405948,"lng":136.862899,"zip":"5040825"},{"town":"蘇原柿沢町三丁目","koaza":"","lat":35.407149,"lng":136.862953,"zip":"5040825"},{"town":"蘇原菊園町一丁目","koaza":"","lat":35.403603,"lng":136.867269,"zip":"5040823"},{"town":"蘇原菊園町二丁目","koaza":"","lat":35.404814,"lng":136.867099,"zip":"5040823"},{"town":"蘇原菊園町三丁目","koaza":"","lat":35.406073,"lng":136.867048,"zip":"5040823"},{"town":"蘇原菊園町四丁目","koaza":"","lat":35.40727,"lng":136.866732,"zip":"5040823"},{"town":"蘇原北山町一丁目","koaza":"","lat":35.430652,"lng":136.863166,"zip":"5040801"},{"town":"蘇原北山町二丁目","koaza":"","lat":35.431463,"lng":136.870111,"zip":"5040801"},{"town":"蘇原北山町三丁目","koaza":"","lat":35.428683,"lng":136.874924,"zip":"5040801"},{"town":"蘇原吉新町一丁目","koaza":"","lat":35.408237,"lng":136.856439,"zip":"5040844"},{"town":"蘇原吉新町二丁目","koaza":"","lat":35.408975,"lng":136.857951,"zip":"5040844"},{"town":"蘇原吉新町三丁目","koaza":"","lat":35.408358,"lng":136.85938,"zip":"5040844"},{"town":"蘇原希望町一丁目","koaza":"","lat":35.402962,"lng":136.854965,"zip":"5040829"},{"town":"蘇原希望町二丁目","koaza":"","lat":35.405041,"lng":136.855923,"zip":"5040829"},{"town":"蘇原希望町三丁目","koaza":"","lat":35.406037,"lng":136.85637,"zip":"5040829"},{"town":"蘇原希望町四丁目","koaza":"","lat":35.407123,"lng":136.856141,"zip":"5040829"},{"town":"蘇原清住町一丁目","koaza":"","lat":35.425777,"lng":136.874968,"zip":"5040807"},{"town":"蘇原清住町二丁目","koaza":"","lat":35.426547,"lng":136.87679,"zip":"5040807"},{"town":"蘇原清住町三丁目","koaza":"","lat":35.426829,"lng":136.878806,"zip":"5040807"},{"town":"蘇原清住町四丁目","koaza":"","lat":35.427481,"lng":136.879831,"zip":"5040807"},{"town":"蘇原清住町五丁目","koaza":"","lat":35.425522,"lng":136.877616,"zip":"5040807"},{"town":"蘇原清住町六丁目","koaza":"","lat":35.424682,"lng":136.876619,"zip":"5040807"},{"town":"蘇原熊田町一丁目","koaza":"","lat":35.415408,"lng":136.868329,"zip":"5040853"},{"town":"蘇原熊田町二丁目","koaza":"","lat":35.414525,"lng":136.869947,"zip":"5040853"},{"town":"蘇原熊田町三丁目","koaza":"","lat":35.417438,"lng":136.869437,"zip":"5040853"},{"town":"蘇原興亜町一丁目","koaza":"","lat":35.404205,"lng":136.871912,"zip":"5040814"},{"town":"蘇原興亜町二丁目","koaza":"","lat":35.406024,"lng":136.871721,"zip":"5040814"},{"town":"蘇原興亜町三丁目","koaza":"","lat":35.407315,"lng":136.872402,"zip":"5040814"},{"town":"蘇原興亜町四丁目","koaza":"","lat":35.405668,"lng":136.874968,"zip":"5040814"},{"town":"蘇原興亜町五丁目","koaza":"","lat":35.406193,"lng":136.87907,"zip":"5040814"},{"town":"蘇原坂井町一丁目","koaza":"","lat":35.415669,"lng":136.880604,"zip":"5040812"},{"town":"蘇原坂井町二丁目","koaza":"","lat":35.413512,"lng":136.879145,"zip":"5040812"},{"town":"蘇原坂井町三丁目","koaza":"","lat":35.413171,"lng":136.881424,"zip":"5040812"},{"town":"蘇原栄町一丁目","koaza":"","lat":35.403757,"lng":136.868758,"zip":"5040822"},{"town":"蘇原栄町二丁目","koaza":"","lat":35.404939,"lng":136.868629,"zip":"5040822"},{"town":"蘇原栄町三丁目","koaza":"","lat":35.406181,"lng":136.868358,"zip":"5040822"},{"town":"蘇原栄町四丁目","koaza":"","lat":35.407254,"lng":136.86836,"zip":"5040822"},{"town":"蘇原早苗町","koaza":"","lat":35.403437,"lng":136.863501,"zip":"5040826"},{"town":"蘇原申子町一丁目","koaza":"","lat":35.410946,"lng":136.854187,"zip":"5040845"},{"town":"蘇原申子町二丁目","koaza":"","lat":35.410955,"lng":136.856875,"zip":"5040845"},{"town":"蘇原申子町三丁目","koaza":"","lat":35.408388,"lng":136.854892,"zip":"5040845"},{"town":"蘇原沢上町一丁目","koaza":"","lat":35.403359,"lng":136.860206,"zip":"5040827"},{"town":"蘇原沢上町二丁目","koaza":"","lat":35.404568,"lng":136.860661,"zip":"5040827"},{"town":"蘇原沢上町三丁目","koaza":"","lat":35.405969,"lng":136.860666,"zip":"5040827"},{"town":"蘇原沢上町四丁目","koaza":"","lat":35.407086,"lng":136.860677,"zip":"5040827"},{"town":"蘇原島崎町一丁目","koaza":"","lat":35.416275,"lng":136.860137,"zip":"5040856"},{"town":"蘇原島崎町二丁目","koaza":"","lat":35.417298,"lng":136.861965,"zip":"5040856"},{"town":"蘇原島崎町三丁目","koaza":"","lat":35.419259,"lng":136.861245,"zip":"5040856"},{"town":"蘇原島崎町四丁目","koaza":"","lat":35.418763,"lng":136.863199,"zip":"5040856"},{"town":"蘇原昭栄町一丁目","koaza":"","lat":35.418741,"lng":136.869949,"zip":"5040805"},{"town":"蘇原昭栄町二丁目","koaza":"","lat":35.418609,"lng":136.872297,"zip":"5040805"},{"town":"蘇原昭栄町三丁目","koaza":"","lat":35.418633,"lng":136.874714,"zip":"5040805"},{"town":"蘇原昭栄町四丁目","koaza":"","lat":35.418576,"lng":136.877079,"zip":"5040805"},{"town":"蘇原昭栄町五丁目","koaza":"","lat":35.418528,"lng":136.879496,"zip":"5040805"},{"town":"蘇原新栄町一丁目","koaza":"","lat":35.410106,"lng":136.864494,"zip":"5040855"},{"town":"蘇原新栄町二丁目","koaza":"","lat":35.409973,"lng":136.866655,"zip":"5040855"},{"town":"蘇原新栄町三丁目","koaza":"","lat":35.408726,"lng":136.869125,"zip":"5040855"},{"town":"蘇原新生町一丁目","koaza":"","lat":35.421147,"lng":136.882649,"zip":"5040804"},{"town":"蘇原新生町二丁目","koaza":"","lat":35.418426,"lng":136.882558,"zip":"5040804"},{"town":"蘇原新生町三丁目","koaza":"","lat":35.416612,"lng":136.882678,"zip":"5040804"},{"town":"蘇原瑞雲町一丁目","koaza":"","lat":35.403847,"lng":136.870365,"zip":"5040821"},{"town":"蘇原瑞雲町二丁目","koaza":"","lat":35.40509,"lng":136.870158,"zip":"5040821"},{"town":"蘇原瑞雲町三丁目","koaza":"","lat":35.406286,"lng":136.870078,"zip":"5040821"},{"town":"蘇原瑞雲町四丁目","koaza":"","lat":35.407332,"lng":136.870014,"zip":"5040821"},{"town":"蘇原青雲町一丁目","koaza":"","lat":35.41188,"lng":136.859261,"zip":"5040843"},{"town":"蘇原青雲町二丁目","koaza":"","lat":35.411863,"lng":136.861135,"zip":"5040843"},{"town":"蘇原青雲町三丁目","koaza":"","lat":35.411796,"lng":136.862888,"zip":"5040843"},{"town":"蘇原青雲町四丁目","koaza":"","lat":35.40972,"lng":136.860979,"zip":"5040843"},{"town":"蘇原青雲町五丁目","koaza":"","lat":35.408594,"lng":136.861619,"zip":"5040843"},{"town":"蘇原中央町一丁目","koaza":"","lat":35.41141,"lng":136.880581,"zip":"5040813"},{"town":"蘇原中央町二丁目","koaza":"","lat":35.410194,"lng":136.880195,"zip":"5040813"},{"town":"蘇原中央町三丁目","koaza":"","lat":35.408219,"lng":136.880319,"zip":"5040813"},{"town":"蘇原中央町四丁目","koaza":"","lat":35.406932,"lng":136.880333,"zip":"5040813"},{"town":"蘇原月丘町一丁目","koaza":"","lat":35.402416,"lng":136.867598,"zip":"5040903"},{"town":"蘇原月丘町二丁目","koaza":"","lat":35.402251,"lng":136.865729,"zip":"5040903"},{"town":"蘇原月丘町三丁目","koaza":"","lat":35.402356,"lng":136.863491,"zip":"5040903"},{"town":"蘇原月丘町四丁目","koaza":"","lat":35.402159,"lng":136.861264,"zip":"5040903"},{"town":"蘇原寺島町一丁目","koaza":"","lat":35.415279,"lng":136.861863,"zip":"5040842"},{"town":"蘇原寺島町二丁目","koaza":"","lat":35.415285,"lng":136.863481,"zip":"5040842"},{"town":"蘇原東栄町一丁目","koaza":"","lat":35.410538,"lng":136.873625,"zip":"5040815"},{"town":"蘇原東栄町二丁目","koaza":"","lat":35.40879,"lng":136.874506,"zip":"5040815"},{"town":"蘇原東門町一丁目","koaza":"","lat":35.421657,"lng":136.876997,"zip":"5040803"},{"town":"蘇原東門町二丁目","koaza":"","lat":35.422057,"lng":136.879632,"zip":"5040803"},{"town":"蘇原東門町三丁目","koaza":"","lat":35.422969,"lng":136.882466,"zip":"5040803"},{"town":"蘇原外山町一丁目","koaza":"","lat":35.422212,"lng":136.869527,"zip":"5040806"},{"town":"蘇原外山町二丁目","koaza":"","lat":35.422073,"lng":136.872366,"zip":"5040806"},{"town":"蘇原外山町三丁目","koaza":"","lat":35.421618,"lng":136.874749,"zip":"5040806"},{"town":"蘇原野口町一丁目","koaza":"","lat":35.414252,"lng":136.865006,"zip":"5040854"},{"town":"蘇原野口町二丁目","koaza":"","lat":35.414512,"lng":136.866684,"zip":"5040854"},{"town":"蘇原野口町三丁目","koaza":"","lat":35.412993,"lng":136.868976,"zip":"5040854"},{"town":"蘇原野口町四丁目","koaza":"","lat":35.410851,"lng":136.869035,"zip":"5040854"},{"town":"蘇原野口町五丁目","koaza":"","lat":35.410456,"lng":136.871147,"zip":"5040854"},{"town":"蘇原野口町六丁目","koaza":"","lat":35.416782,"lng":136.86782,"zip":"5040854"},{"town":"蘇原花園町一丁目","koaza":"","lat":35.411262,"lng":136.845667,"zip":"5040832"},{"town":"蘇原花園町二丁目","koaza":"","lat":35.410342,"lng":136.848635,"zip":"5040832"},{"town":"蘇原花園町三丁目","koaza":"","lat":35.410456,"lng":136.850607,"zip":"5040832"},{"town":"蘇原花園町四丁目","koaza":"","lat":35.410157,"lng":136.852659,"zip":"5040832"},{"town":"蘇原東島町一丁目","koaza":"","lat":35.414593,"lng":136.871672,"zip":"5040816"},{"town":"蘇原東島町二丁目","koaza":"","lat":35.413636,"lng":136.873888,"zip":"5040816"},{"town":"蘇原東島町三丁目","koaza":"","lat":35.413784,"lng":136.876763,"zip":"5040816"},{"town":"蘇原東島町四丁目","koaza":"","lat":35.409211,"lng":136.877497,"zip":"5040816"},{"town":"蘇原古市場町一丁目","koaza":"","lat":35.416663,"lng":136.865152,"zip":"5040852"},{"town":"蘇原古市場町二丁目","koaza":"","lat":35.418787,"lng":136.865176,"zip":"5040852"},{"town":"蘇原古市場町三丁目","koaza":"","lat":35.418616,"lng":136.866621,"zip":"5040852"},{"town":"蘇原古市場町四丁目","koaza":"","lat":35.41853,"lng":136.867899,"zip":"5040852"},{"town":"蘇原古市場町五丁目","koaza":"","lat":35.422129,"lng":136.866507,"zip":"5040852"},{"town":"蘇原北陽町一丁目","koaza":"","lat":35.425469,"lng":136.859839,"zip":"5040809"},{"town":"蘇原北陽町二丁目","koaza":"","lat":35.425448,"lng":136.861756,"zip":"5040809"},{"town":"蘇原北陽町三丁目","koaza":"","lat":35.42567,"lng":136.863647,"zip":"5040809"},{"town":"蘇原北陽町四丁目","koaza":"","lat":35.425756,"lng":136.865469,"zip":"5040809"},{"town":"蘇原北陽町五丁目","koaza":"","lat":35.42526,"lng":136.866973,"zip":"5040809"},{"town":"蘇原三柿野町","koaza":"","lat":35.399038,"lng":136.88011,"zip":"5040904"},{"town":"蘇原三柿野町一丁目","koaza":"","lat":35.399825,"lng":136.872653,"zip":"5040904"},{"town":"蘇原三柿野町二丁目","koaza":"","lat":35.400029,"lng":136.869846,"zip":"5040904"},{"town":"蘇原三柿野町三丁目","koaza":"","lat":35.401753,"lng":136.86969,"zip":"5040904"},{"town":"蘇原瑞穂町一丁目","koaza":"","lat":35.413583,"lng":136.844536,"zip":"5040831"},{"town":"蘇原瑞穂町二丁目","koaza":"","lat":35.41375,"lng":136.846238,"zip":"5040831"},{"town":"蘇原瑞穂町三丁目","koaza":"","lat":35.413925,"lng":136.848151,"zip":"5040831"},{"town":"蘇原瑞穂町四丁目","koaza":"","lat":35.414076,"lng":136.850122,"zip":"5040831"},{"town":"蘇原瑞穂町五丁目","koaza":"","lat":35.414259,"lng":136.852095,"zip":"5040831"},{"town":"蘇原緑町一丁目","koaza":"","lat":35.401263,"lng":136.867705,"zip":"5040902"},{"town":"蘇原緑町二丁目","koaza":"","lat":35.401342,"lng":136.865804,"zip":"5040902"},{"town":"蘇原緑町三丁目","koaza":"","lat":35.401546,"lng":136.863503,"zip":"5040902"},{"town":"蘇原緑町四丁目","koaza":"","lat":35.401695,"lng":136.859861,"zip":"5040902"},{"town":"蘇原宮代町一丁目","koaza":"","lat":35.424228,"lng":136.846645,"zip":"5040012"},{"town":"蘇原宮代町二丁目","koaza":"","lat":35.422585,"lng":136.846596,"zip":"5040012"},{"town":"蘇原宮代町三丁目","koaza":"","lat":35.419246,"lng":136.845293,"zip":"5040012"},{"town":"蘇原宮塚町一丁目","koaza":"","lat":35.422661,"lng":136.850247,"zip":"5040013"},{"town":"蘇原宮塚町二丁目","koaza":"","lat":35.423533,"lng":136.853422,"zip":"5040013"},{"town":"蘇原宮塚町三丁目","koaza":"","lat":35.424529,"lng":136.857203,"zip":"5040013"},{"town":"蘇原村雨町一丁目","koaza":"","lat":35.403195,"lng":136.857396,"zip":"5040828"},{"town":"蘇原村雨町二丁目","koaza":"","lat":35.404544,"lng":136.858104,"zip":"5040828"},{"town":"蘇原村雨町三丁目","koaza":"","lat":35.40607,"lng":136.85861,"zip":"5040828"},{"town":"蘇原村雨町四丁目","koaza":"","lat":35.407214,"lng":136.858523,"zip":"5040828"},{"town":"蘇原持田町一丁目","koaza":"","lat":35.431711,"lng":136.876237,"zip":"5040802"},{"town":"蘇原持田町五丁目","koaza":"","lat":35.427217,"lng":136.88145,"zip":"5040802"},{"town":"蘇原吉野町一丁目","koaza":"","lat":35.415093,"lng":136.853957,"zip":"5040846"},{"town":"蘇原吉野町二丁目","koaza":"","lat":35.415272,"lng":136.855903,"zip":"5040846"},{"town":"蘇原吉野町三丁目","koaza":"","lat":35.415421,"lng":136.858333,"zip":"5040846"},{"town":"蘇原吉野町四丁目","koaza":"","lat":35.417892,"lng":136.857249,"zip":"5040846"},{"town":"蘇原吉野町五丁目","koaza":"","lat":35.417861,"lng":136.854091,"zip":"5040846"},{"town":"蘇原六軒町一丁目","koaza":"","lat":35.400222,"lng":136.867704,"zip":"5040905"},{"town":"蘇原六軒町二丁目","koaza":"","lat":35.400481,"lng":136.865777,"zip":"5040905"},{"town":"蘇原六軒町三丁目","koaza":"","lat":35.400503,"lng":136.863465,"zip":"5040905"},{"town":"蘇原六軒町四丁目","koaza":"","lat":35.400091,"lng":136.859753,"zip":"5040905"},{"town":"蘇原和合町一丁目","koaza":"","lat":35.416255,"lng":136.873432,"zip":"5040811"},{"town":"蘇原和合町二丁目","koaza":"","lat":35.416596,"lng":136.877715,"zip":"5040811"},{"town":"つつじが丘一丁目","koaza":"","lat":35.41164,"lng":136.929088,"zip":"5090131"},{"town":"つつじが丘二丁目","koaza":"","lat":35.411444,"lng":136.931437,"zip":"5090131"},{"town":"つつじが丘三丁目","koaza":"","lat":35.41137,"lng":136.934075,"zip":"5090131"},{"town":"つつじが丘四丁目","koaza":"","lat":35.409575,"lng":136.930509,"zip":"5090131"},{"town":"つつじが丘五丁目","koaza":"","lat":35.409288,"lng":136.934246,"zip":"5090131"},{"town":"つつじが丘六丁目","koaza":"","lat":35.407916,"lng":136.930296,"zip":"5090131"},{"town":"つつじが丘七丁目","koaza":"","lat":35.407487,"lng":136.932553,"zip":"5090131"},{"town":"つつじが丘八丁目","koaza":"","lat":35.407524,"lng":136.935465,"zip":"5090131"},{"town":"那加吾妻町","koaza":"","lat":35.400232,"lng":136.838303,"zip":"5040962"},{"town":"那加荒田町","koaza":"","lat":35.400995,"lng":136.819985,"zip":"5040036"},{"town":"那加芦原町一丁目","koaza":"","lat":35.417952,"lng":136.81747,"zip":"5040007"},{"town":"那加芦原町二丁目","koaza":"","lat":35.41583,"lng":136.816398,"zip":"5040007"},{"town":"那加石山町一丁目","koaza":"","lat":35.407782,"lng":136.827246,"zip":"5040044"},{"town":"那加石山町二丁目","koaza":"","lat":35.406308,"lng":136.827703,"zip":"5040044"},{"town":"那加岩地町一丁目","koaza":"","lat":35.411671,"lng":136.816826,"zip":"5040047"},{"town":"那加岩地町二丁目","koaza":"","lat":35.408725,"lng":136.817321,"zip":"5040047"},{"town":"那加岩地町三丁目","koaza":"","lat":35.40547,"lng":136.816567,"zip":"5040047"},{"town":"那加甥田町","koaza":"","lat":35.404452,"lng":136.844022,"zip":"5040837"},{"town":"那加扇平","koaza":"","lat":35.421401,"lng":136.834792,"zip":"5040009"},{"town":"那加大谷町","koaza":"","lat":35.401825,"lng":136.822896,"zip":"5040033"},{"town":"那加大洞","koaza":"","lat":35.427862,"lng":136.832271,"zip":"5040001"},{"town":"那加織田町一丁目","koaza":"","lat":35.399684,"lng":136.850221,"zip":"5040908"},{"town":"那加織田町二丁目","koaza":"","lat":35.399692,"lng":136.851834,"zip":"5040908"},{"town":"那加御屋敷町","koaza":"","lat":35.413909,"lng":136.836759,"zip":"5040016"},{"town":"那加兼橋町","koaza":"","lat":35.404118,"lng":136.817803,"zip":"5040031"},{"town":"那加萱場町一丁目","koaza":"","lat":35.393445,"lng":136.823823,"zip":"5040943"},{"town":"那加萱場町二丁目","koaza":"","lat":35.392573,"lng":136.824105,"zip":"5040943"},{"town":"那加萱場町三丁目","koaza":"","lat":35.391668,"lng":136.824396,"zip":"5040943"},{"town":"那加萱場町四丁目","koaza":"","lat":35.390702,"lng":136.824702,"zip":"5040943"},{"town":"那加萱場町五丁目","koaza":"","lat":35.389956,"lng":136.824517,"zip":"5040943"},{"town":"那加柄山町","koaza":"","lat":35.419911,"lng":136.823626,"zip":"5040005"},{"town":"那加官有地無番地","koaza":"","lat":35.392002,"lng":136.867496,"zip":"5040000"},{"town":"那加北栄町","koaza":"","lat":35.399027,"lng":136.839306,"zip":"5040963"},{"town":"那加北洞町一丁目","koaza":"","lat":35.427706,"lng":136.842325,"zip":"5040011"},{"town":"那加北洞町二丁目","koaza":"","lat":35.420861,"lng":136.841613,"zip":"5040011"},{"town":"那加桐野町一丁目","koaza":"","lat":35.425927,"lng":136.816867,"zip":"5040008"},{"town":"那加桐野町二丁目","koaza":"","lat":35.42356,"lng":136.816099,"zip":"5040008"},{"town":"那加桐野町三丁目","koaza":"","lat":35.421613,"lng":136.815994,"zip":"5040008"},{"town":"那加桐野町四丁目","koaza":"","lat":35.420051,"lng":136.817288,"zip":"5040008"},{"town":"那加桐野町五丁目","koaza":"","lat":35.424961,"lng":136.820217,"zip":"5040008"},{"town":"那加桐野町六丁目","koaza":"","lat":35.4215,"lng":136.818635,"zip":"5040008"},{"town":"那加桐野町七丁目","koaza":"","lat":35.418142,"lng":136.819055,"zip":"5040008"},{"town":"那加桐野町八丁目","koaza":"","lat":35.421529,"lng":136.821349,"zip":"5040008"},{"town":"那加桐野町九丁目","koaza":"","lat":35.418871,"lng":136.821265,"zip":"5040008"},{"town":"那加桐野外二ケ所大字入会地","koaza":"","lat":35.398185,"lng":136.859121,"zip":"5040906"},{"town":"那加楠町","koaza":"","lat":35.396417,"lng":136.843301,"zip":"5040916"},{"town":"那加五反田町","koaza":"","lat":35.401347,"lng":136.816487,"zip":"5040037"},{"town":"那加琴が丘町一丁目","koaza":"","lat":35.41635,"lng":136.818975,"zip":"5040006"},{"town":"那加琴が丘町二丁目","koaza":"","lat":35.41644,"lng":136.820744,"zip":"5040006"},{"town":"那加琴が丘町三丁目","koaza":"","lat":35.416551,"lng":136.822342,"zip":"5040006"},{"town":"那加幸町","koaza":"","lat":35.403968,"lng":136.832441,"zip":"5040024"},{"town":"那加栄町","koaza":"","lat":35.397844,"lng":136.839046,"zip":"5040954"},{"town":"那加桜町一丁目","koaza":"","lat":35.398802,"lng":136.847805,"zip":"5040912"},{"town":"那加桜町二丁目","koaza":"","lat":35.400695,"lng":136.84781,"zip":"5040912"},{"town":"那加桜町三丁目","koaza":"","lat":35.403645,"lng":136.846111,"zip":"5040912"},{"town":"那加昭南町","koaza":"","lat":35.404199,"lng":136.853259,"zip":"5040834"},{"town":"那加新加納町","koaza":"","lat":35.397306,"lng":136.82622,"zip":"5040958"},{"town":"那加新加納外六ケ所大字入会地","koaza":"","lat":35.397088,"lng":136.851671,"zip":"5040000"},{"town":"那加神田町","koaza":"","lat":35.403741,"lng":136.820995,"zip":"5040032"},{"town":"那加新田町一丁目","koaza":"","lat":35.404345,"lng":136.824929,"zip":"5040045"},{"town":"那加新田町二丁目","koaza":"","lat":35.403648,"lng":136.828817,"zip":"5040045"},{"town":"那加新那加町","koaza":"","lat":35.400068,"lng":136.833919,"zip":"5040961"},{"town":"那加住吉町一丁目","koaza":"","lat":35.39766,"lng":136.848765,"zip":"5040907"},{"town":"那加住吉町二丁目","koaza":"","lat":35.397781,"lng":136.850431,"zip":"5040907"},{"town":"那加住吉町三丁目","koaza":"","lat":35.397896,"lng":136.852005,"zip":"5040907"},{"town":"那加住吉町四丁目","koaza":"","lat":35.398031,"lng":136.853627,"zip":"5040907"},{"town":"那加住吉町五丁目","koaza":"","lat":35.398146,"lng":136.855216,"zip":"5040907"},{"town":"那加大東町","koaza":"","lat":35.396271,"lng":136.846086,"zip":"5040913"},{"town":"那加太平町一丁目","koaza":"","lat":35.401717,"lng":136.831453,"zip":"5040023"},{"town":"那加太平町二丁目","koaza":"","lat":35.402013,"lng":136.833489,"zip":"5040023"},{"town":"那加大門町一丁目","koaza":"","lat":35.399029,"lng":136.816176,"zip":"5040038"},{"town":"那加大門町二丁目","koaza":"","lat":35.399029,"lng":136.819921,"zip":"5040038"},{"town":"那加手力町","koaza":"","lat":35.408764,"lng":136.824905,"zip":"5040043"},{"town":"那加東亜町","koaza":"","lat":35.40239,"lng":136.837667,"zip":"5040022"},{"town":"那加東新町一丁目","koaza":"","lat":35.401394,"lng":136.852261,"zip":"5040901"},{"town":"那加東新町二丁目","koaza":"","lat":35.401734,"lng":136.855708,"zip":"5040901"},{"town":"那加土山町一丁目","koaza":"","lat":35.416011,"lng":136.817671,"zip":"5040041"},{"town":"那加土山町二丁目","koaza":"","lat":35.413266,"lng":136.818115,"zip":"5040041"},{"town":"那加長塚町一丁目","koaza":"","lat":35.407056,"lng":136.820215,"zip":"5040046"},{"town":"那加長塚町二丁目","koaza":"","lat":35.406496,"lng":136.822523,"zip":"5040046"},{"town":"那加長塚町三丁目","koaza":"","lat":35.406761,"lng":136.824866,"zip":"5040046"},{"town":"那加西市場町一丁目","koaza":"","lat":35.414335,"lng":136.821319,"zip":"5040018"},{"town":"那加西市場町二丁目","koaza":"","lat":35.413281,"lng":136.824207,"zip":"5040018"},{"town":"那加西市場町三丁目","koaza":"","lat":35.41352,"lng":136.826067,"zip":"5040018"},{"town":"那加西市場町四丁目","koaza":"","lat":35.418341,"lng":136.826341,"zip":"5040018"},{"town":"那加西市場町五丁目","koaza":"","lat":35.413618,"lng":136.828732,"zip":"5040018"},{"town":"那加西市場町六丁目","koaza":"","lat":35.410149,"lng":136.828441,"zip":"5040018"},{"town":"那加西市場町七丁目","koaza":"","lat":35.417739,"lng":136.832848,"zip":"5040018"},{"town":"那加西浦町一丁目","koaza":"","lat":35.395448,"lng":136.816102,"zip":"5040959"},{"town":"那加西浦町二丁目","koaza":"","lat":35.396599,"lng":136.817663,"zip":"5040959"},{"town":"那加西浦町三丁目","koaza":"","lat":35.396649,"lng":136.818992,"zip":"5040959"},{"town":"那加西那加町","koaza":"","lat":35.397196,"lng":136.834703,"zip":"5040952"},{"town":"那加西野町","koaza":"","lat":35.398849,"lng":136.83266,"zip":"5040968"},{"town":"那加日新町一丁目","koaza":"","lat":35.394211,"lng":136.81508,"zip":"5040945"},{"town":"那加日新町二丁目","koaza":"","lat":35.394508,"lng":136.817402,"zip":"5040945"},{"town":"那加日新町三丁目","koaza":"","lat":35.395463,"lng":136.822277,"zip":"5040945"},{"town":"那加日新町四丁目","koaza":"","lat":35.393086,"lng":136.815464,"zip":"5040945"},{"town":"那加日新町五丁目","koaza":"","lat":35.393494,"lng":136.81784,"zip":"5040945"},{"town":"那加日新町六丁目","koaza":"","lat":35.394034,"lng":136.820252,"zip":"5040945"},{"town":"那加日新町七丁目","koaza":"","lat":35.394612,"lng":136.823078,"zip":"5040945"},{"town":"那加日新町八丁目","koaza":"","lat":35.394994,"lng":136.826465,"zip":"5040945"},{"town":"那加野畑町一丁目","koaza":"","lat":35.407737,"lng":136.830941,"zip":"5040025"},{"town":"那加野畑町二丁目","koaza":"","lat":35.405974,"lng":136.831117,"zip":"5040025"},{"town":"那加信長町一丁目","koaza":"","lat":35.399756,"lng":136.853451,"zip":"5040909"},{"town":"那加信長町二丁目","koaza":"","lat":35.399782,"lng":136.855014,"zip":"5040909"},{"town":"那加信長町三丁目","koaza":"","lat":35.399885,"lng":136.856549,"zip":"5040909"},{"town":"那加巾下町","koaza":"","lat":35.409418,"lng":136.845839,"zip":"5040839"},{"town":"那加浜見町一丁目","koaza":"","lat":35.401394,"lng":136.824654,"zip":"5040034"},{"town":"那加浜見町二丁目","koaza":"","lat":35.401743,"lng":136.827083,"zip":"5040034"},{"town":"那加東那加町","koaza":"","lat":35.397265,"lng":136.837162,"zip":"5040953"},{"town":"那加東野町一丁目","koaza":"","lat":35.413811,"lng":136.839602,"zip":"5040015"},{"town":"那加東野町二丁目","koaza":"","lat":35.414401,"lng":136.842288,"zip":"5040015"},{"town":"那加日之出町","koaza":"","lat":35.398827,"lng":136.836933,"zip":"5040965"},{"town":"那加雲雀町","koaza":"","lat":35.402308,"lng":136.844459,"zip":"5040836"},{"town":"那加日吉町一丁目","koaza":"","lat":35.398653,"lng":136.828516,"zip":"5040951"},{"town":"那加日吉町二丁目","koaza":"","lat":35.39873,"lng":136.829932,"zip":"5040951"},{"town":"那加不動丘一丁目","koaza":"","lat":35.406649,"lng":136.84554,"zip":"5040838"},{"town":"那加不動丘二丁目","koaza":"","lat":35.40662,"lng":136.848848,"zip":"5040838"},{"town":"那加本町","koaza":"","lat":35.399212,"lng":136.835904,"zip":"5040966"},{"town":"那加前野町一丁目","koaza":"","lat":35.410502,"lng":136.833085,"zip":"5040026"},{"town":"那加前野町二丁目","koaza":"","lat":35.410218,"lng":136.836938,"zip":"5040026"},{"town":"那加前野町三丁目","koaza":"","lat":35.407678,"lng":136.833903,"zip":"5040026"},{"town":"那加前野町四丁目","koaza":"","lat":35.407365,"lng":136.836423,"zip":"5040026"},{"town":"那加前洞新町一丁目","koaza":"","lat":35.404841,"lng":136.83532,"zip":"5040021"},{"town":"那加前洞新町二丁目","koaza":"","lat":35.403809,"lng":136.839984,"zip":"5040021"},{"town":"那加前洞新町三丁目","koaza":"","lat":35.405508,"lng":136.84024,"zip":"5040021"},{"town":"那加前洞新町四丁目","koaza":"","lat":35.408127,"lng":136.841101,"zip":"5040021"},{"town":"那加前洞新町五丁目","koaza":"","lat":35.410583,"lng":136.84114,"zip":"5040021"},{"town":"那加緑町一丁目","koaza":"","lat":35.392205,"lng":136.817784,"zip":"5040944"},{"town":"那加緑町二丁目","koaza":"","lat":35.391503,"lng":136.818534,"zip":"5040944"},{"town":"那加緑町三丁目","koaza":"","lat":35.392858,"lng":136.82098,"zip":"5040944"},{"town":"那加緑町四丁目","koaza":"","lat":35.391644,"lng":136.821382,"zip":"5040944"},{"town":"那加緑町五丁目","koaza":"","lat":35.390721,"lng":136.822437,"zip":"5040944"},{"town":"那加南栄町","koaza":"","lat":35.396594,"lng":136.838877,"zip":"5040955"},{"town":"那加宮浦町","koaza":"","lat":35.401047,"lng":136.829153,"zip":"5040035"},{"town":"那加元町","koaza":"","lat":35.398951,"lng":136.838103,"zip":"5040964"},{"town":"那加門前町一丁目","koaza":"","lat":35.398315,"lng":136.840533,"zip":"5040911"},{"town":"那加門前町二丁目","koaza":"","lat":35.398014,"lng":136.843603,"zip":"5040911"},{"town":"那加門前町三丁目","koaza":"","lat":35.399363,"lng":136.843506,"zip":"5040911"},{"town":"那加門前町四丁目","koaza":"","lat":35.400842,"lng":136.843345,"zip":"5040911"},{"town":"那加山後町一丁目","koaza":"","lat":35.410129,"lng":136.819861,"zip":"5040042"},{"town":"那加山後町二丁目","koaza":"","lat":35.411813,"lng":136.821813,"zip":"5040042"},{"town":"那加山後町三丁目","koaza":"","lat":35.40994,"lng":136.82457,"zip":"5040042"},{"town":"那加山崎町","koaza":"","lat":35.418327,"lng":136.840335,"zip":"5040014"},{"town":"那加山下町一丁目","koaza":"","lat":35.413622,"lng":136.831658,"zip":"5040017"},{"town":"那加山下町二丁目","koaza":"","lat":35.413703,"lng":136.833994,"zip":"5040017"},{"town":"那加雄飛ケ丘町","koaza":"","lat":35.403548,"lng":136.850505,"zip":"5040835"},{"town":"那加楽天地町","koaza":"","lat":35.398719,"lng":136.835164,"zip":"5040967"},{"town":"成清町一丁目","koaza":"","lat":35.385234,"lng":136.823676,"zip":"5040935"},{"town":"成清町二丁目","koaza":"","lat":35.38534,"lng":136.826547,"zip":"5040935"},{"town":"成清町三丁目","koaza":"","lat":35.38516,"lng":136.829441,"zip":"5040935"},{"town":"成清町四丁目","koaza":"","lat":35.384372,"lng":136.830906,"zip":"5040935"},{"town":"成清町五丁目","koaza":"","lat":35.383375,"lng":136.823131,"zip":"5040935"},{"town":"成清町六丁目","koaza":"","lat":35.382933,"lng":136.826243,"zip":"5040935"},{"town":"成清町七丁目","koaza":"","lat":35.382553,"lng":136.829652,"zip":"5040935"},{"town":"入会町一丁目","koaza":"","lat":35.407834,"lng":136.851686,"zip":"5040833"},{"town":"入会町二丁目","koaza":"","lat":35.406646,"lng":136.851844,"zip":"5040833"},{"town":"入会町三丁目","koaza":"","lat":35.405492,"lng":136.852097,"zip":"5040833"},{"town":"入会町四丁目","koaza":"","lat":35.406333,"lng":136.853778,"zip":"5040833"},{"town":"前渡北町一丁目","koaza":"","lat":35.3884,"lng":136.873588,"zip":"5040921"},{"town":"前渡北町二丁目","koaza":"","lat":35.387927,"lng":136.875988,"zip":"5040921"},{"town":"前渡北町三丁目","koaza":"","lat":35.388154,"lng":136.878346,"zip":"5040921"},{"town":"前渡北町四丁目","koaza":"","lat":35.387832,"lng":136.88061,"zip":"5040921"},{"town":"前渡西町","koaza":"","lat":35.379708,"lng":136.873256,"zip":"5040923"},{"town":"前渡西町十丁目","koaza":"","lat":35.388268,"lng":136.865108,"zip":"5040923"},{"town":"前渡西町十一丁目","koaza":"","lat":35.388114,"lng":136.867883,"zip":"5040923"},{"town":"前渡西町十二丁目","koaza":"","lat":35.3878,"lng":136.871534,"zip":"5040923"},{"town":"前渡西町一丁目","koaza":"","lat":35.384705,"lng":136.870397,"zip":"5040923"},{"town":"前渡西町二丁目","koaza":"","lat":35.384487,"lng":136.871777,"zip":"5040923"},{"town":"前渡西町三丁目","koaza":"","lat":35.384438,"lng":136.87326,"zip":"5040923"},{"town":"前渡西町四丁目","koaza":"","lat":35.384353,"lng":136.874812,"zip":"5040923"},{"town":"前渡西町五丁目","koaza":"","lat":35.384205,"lng":136.876126,"zip":"5040923"},{"town":"前渡西町六丁目","koaza":"","lat":35.386191,"lng":136.878067,"zip":"5040923"},{"town":"前渡西町七丁目","koaza":"","lat":35.386045,"lng":136.875151,"zip":"5040923"},{"town":"前渡西町八丁目","koaza":"","lat":35.385878,"lng":136.871574,"zip":"5040923"},{"town":"前渡西町九丁目","koaza":"","lat":35.386213,"lng":136.867757,"zip":"5040923"},{"town":"前渡東町","koaza":"","lat":35.381101,"lng":136.880306,"zip":"5040922"},{"town":"前渡東町一丁目","koaza":"","lat":35.387864,"lng":136.883589,"zip":"5040922"},{"town":"前渡東町二丁目","koaza":"","lat":35.387743,"lng":136.887003,"zip":"5040922"},{"town":"前渡東町三丁目","koaza":"","lat":35.384701,"lng":136.884872,"zip":"5040922"},{"town":"前渡東町四丁目","koaza":"","lat":35.380967,"lng":136.88431,"zip":"5040922"},{"town":"前渡東町五丁目","koaza":"","lat":35.388031,"lng":136.890986,"zip":"5040922"},{"town":"前渡東町六丁目","koaza":"","lat":35.387087,"lng":136.895275,"zip":"5040922"},{"town":"前渡東町七丁目","koaza":"","lat":35.381902,"lng":136.888047,"zip":"5040922"},{"town":"前渡東町八丁目","koaza":"","lat":35.381968,"lng":136.892099,"zip":"5040922"},{"town":"前渡東町九丁目","koaza":"","lat":35.381445,"lng":136.897493,"zip":"5040922"},{"town":"松が丘","koaza":"","lat":35.411223,"lng":136.92268,"zip":"5090136"},{"town":"松が丘一丁目","koaza":"","lat":35.408301,"lng":136.917957,"zip":"5090136"},{"town":"松が丘二丁目","koaza":"","lat":35.409033,"lng":136.92176,"zip":"5090136"},{"town":"松が丘三丁目","koaza":"","lat":35.41005,"lng":136.924751,"zip":"5090136"},{"town":"松が丘四丁目","koaza":"","lat":35.409001,"lng":136.926144,"zip":"5090136"},{"town":"松が丘五丁目","koaza":"","lat":35.408975,"lng":136.928212,"zip":"5090136"},{"town":"松が丘六丁目","koaza":"","lat":35.407339,"lng":136.925953,"zip":"5090136"},{"town":"松が丘七丁目","koaza":"","lat":35.407142,"lng":136.927965,"zip":"5090136"},{"town":"松本町","koaza":"","lat":35.37545,"lng":136.860732,"zip":"5040925"},{"town":"松本町一丁目","koaza":"","lat":35.378423,"lng":136.859223,"zip":"5040925"},{"town":"松本町二丁目","koaza":"","lat":35.379624,"lng":136.862589,"zip":"5040925"},{"town":"三井北町一丁目","koaza":"","lat":35.396091,"lng":136.835546,"zip":"5040956"},{"town":"三井北町二丁目","koaza":"","lat":35.394804,"lng":136.838258,"zip":"5040956"},{"town":"三井北町三丁目","koaza":"","lat":35.39479,"lng":136.840403,"zip":"5040956"},{"town":"三井町一丁目","koaza":"","lat":35.394882,"lng":136.834701,"zip":"5040941"},{"town":"三井町二丁目","koaza":"","lat":35.392711,"lng":136.835641,"zip":"5040941"},{"town":"三井町三丁目","koaza":"","lat":35.390361,"lng":136.836111,"zip":"5040941"},{"town":"三井町四丁目","koaza":"","lat":35.391604,"lng":136.840107,"zip":"5040941"},{"town":"三井町五丁目","koaza":"","lat":35.389129,"lng":136.840253,"zip":"5040941"},{"town":"三井町六丁目","koaza":"","lat":35.386769,"lng":136.841483,"zip":"5040941"},{"town":"三井東町一丁目","koaza":"","lat":35.394134,"lng":136.843367,"zip":"5040914"},{"town":"三井東町二丁目","koaza":"","lat":35.394875,"lng":136.846803,"zip":"5040914"},{"town":"三井東町三丁目","koaza":"","lat":35.391381,"lng":136.845495,"zip":"5040914"},{"town":"三井東町四丁目","koaza":"","lat":35.389411,"lng":136.844947,"zip":"5040914"},{"town":"三井山町一丁目","koaza":"","lat":35.388091,"lng":136.845559,"zip":"5040915"},{"town":"三井山町二丁目","koaza":"","lat":35.386639,"lng":136.845817,"zip":"5040915"},{"town":"八木山","koaza":"","lat":35.413923,"lng":136.931102,"zip":"5040000"},{"town":"山脇町","koaza":"","lat":35.383754,"lng":136.854206,"zip":"5040928"},{"town":"山脇町一丁目","koaza":"","lat":35.384606,"lng":136.861026,"zip":"5040928"},{"town":"山脇町二丁目","koaza":"","lat":35.383164,"lng":136.862175,"zip":"5040928"},{"town":"山脇町三丁目","koaza":"","lat":35.383307,"lng":136.859825,"zip":"5040928"},{"town":"山脇町四丁目","koaza":"","lat":35.381962,"lng":136.861268,"zip":"5040928"},{"town":"山脇町五丁目","koaza":"","lat":35.381118,"lng":136.858635,"zip":"5040928"},{"town":"山脇町六丁目","koaza":"","lat":35.381803,"lng":136.854752,"zip":"5040928"},{"town":"山脇町七丁目","koaza":"","lat":35.383583,"lng":136.856451,"zip":"5040928"},{"town":"緑苑北一丁目","koaza":"","lat":35.416745,"lng":136.946533,"zip":"5090112"},{"town":"緑苑北二丁目","koaza":"","lat":35.415667,"lng":136.948516,"zip":"5090112"},{"town":"緑苑北三丁目","koaza":"","lat":35.417248,"lng":136.949867,"zip":"5090112"},{"town":"緑苑中一丁目","koaza":"","lat":35.412246,"lng":136.945754,"zip":"5090114"},{"town":"緑苑中二丁目","koaza":"","lat":35.413059,"lng":136.94799,"zip":"5090114"},{"town":"緑苑中三丁目","koaza":"","lat":35.41034,"lng":136.946208,"zip":"5090114"},{"town":"緑苑西一丁目","koaza":"","lat":35.414577,"lng":136.94321,"zip":"5090116"},{"town":"緑苑西二丁目","koaza":"","lat":35.414206,"lng":136.945133,"zip":"5090116"},{"town":"緑苑西三丁目","koaza":"","lat":35.411933,"lng":136.942529,"zip":"5090116"},{"town":"緑苑西四丁目","koaza":"","lat":35.411629,"lng":136.944066,"zip":"5090116"},{"town":"緑苑東一丁目","koaza":"","lat":35.414754,"lng":136.951017,"zip":"5090113"},{"town":"緑苑東二丁目","koaza":"","lat":35.412694,"lng":136.951248,"zip":"5090113"},{"town":"緑苑東三丁目","koaza":"","lat":35.412675,"lng":136.94942,"zip":"5090113"},{"town":"緑苑東四丁目","koaza":"","lat":35.410753,"lng":136.949321,"zip":"5090113"},{"town":"緑苑南一丁目","koaza":"","lat":35.409495,"lng":136.944128,"zip":"5090115"},{"town":"緑苑南二丁目","koaza":"","lat":35.408323,"lng":136.941173,"zip":"5090115"},{"town":"緑苑南三丁目","koaza":"","lat":35.40818,"lng":136.943086,"zip":"5090115"},{"town":"緑苑南四丁目","koaza":"","lat":35.409588,"lng":136.940056,"zip":"5090115"},{"town":"蘇原北山町四丁目","koaza":"","lat":35.43479,"lng":136.877,"zip":"5040801"},{"town":"東山三丁目","koaza":"","lat":35.433549,"lng":136.881375,"zip":"5040861"},{"town":"須衛町一丁目","koaza":"","lat":35.440703,"lng":136.877312,"zip":"5090108"},{"town":"東山五丁目","koaza":"","lat":35.434042,"lng":136.88292,"zip":"5040861"},{"town":"東山一丁目","koaza":"","lat":35.432365,"lng":136.880897,"zip":"5040861"},{"town":"蘇原持田町二丁目","koaza":"","lat":35.431638,"lng":136.879361,"zip":"5040802"},{"town":"テクノプラザ一丁目","koaza":"","lat":35.426487,"lng":136.89037,"zip":"5090109"},{"town":"須衛町六丁目","koaza":"","lat":35.423351,"lng":136.897764,"zip":"5090108"},{"town":"テクノプラザ三丁目","koaza":"","lat":35.423618,"lng":136.894337,"zip":"5090109"},{"town":"テクノプラザ二丁目","koaza":"","lat":35.422061,"lng":136.889215,"zip":"5090109"},{"town":"各務船山町三丁目","koaza":"","lat":35.418969,"lng":136.892732,"zip":"5090107"},{"town":"蘇原持田町三丁目","koaza":"","lat":35.429962,"lng":136.881572,"zip":"5040802"},{"town":"蘇原持田町四丁目","koaza":"","lat":35.428615,"lng":136.882752,"zip":"5040802"},{"town":"須衛町四丁目","koaza":"","lat":35.42947,"lng":136.890082,"zip":"5090108"},{"town":"東山四丁目","koaza":"","lat":35.432243,"lng":136.88388,"zip":"5040861"},{"town":"東山二丁目","koaza":"","lat":35.431316,"lng":136.882728,"zip":"5040861"},{"town":"テクノプラザ四丁目","koaza":"","lat":35.429502,"lng":136.885325,"zip":"5090109"},{"town":"須衛町二丁目","koaza":"","lat":35.430477,"lng":136.886843,"zip":"5090108"},{"town":"蘇原三柿野町","koaza":"往来添","lat":35.399651,"lng":136.865377,"zip":"5040904"}]