[{"town":"泉池ノ上町一丁目","koaza":"","lat":35.356349,"lng":137.175795,"zip":"5095144"},{"town":"泉池ノ上町二丁目","koaza":"","lat":35.357083,"lng":137.175259,"zip":"5095144"},{"town":"泉岩畑町一丁目","koaza":"","lat":35.361762,"lng":137.182176,"zip":"5095141"},{"town":"泉岩畑町二丁目","koaza":"","lat":35.36135,"lng":137.183951,"zip":"5095141"},{"town":"泉岩畑町三丁目","koaza":"","lat":35.362146,"lng":137.183392,"zip":"5095141"},{"town":"泉岩畑町四丁目","koaza":"","lat":35.362871,"lng":137.182718,"zip":"5095141"},{"town":"泉梅ノ木町一丁目","koaza":"","lat":35.364826,"lng":137.183605,"zip":"5095107"},{"town":"泉梅ノ木町二丁目","koaza":"","lat":35.365492,"lng":137.184959,"zip":"5095107"},{"town":"泉大島町一丁目","koaza":"","lat":35.364942,"lng":137.19015,"zip":"5095136"},{"town":"泉大島町二丁目","koaza":"","lat":35.365353,"lng":137.1916,"zip":"5095136"},{"town":"泉大島町三丁目","koaza":"","lat":35.366001,"lng":137.190093,"zip":"5095136"},{"town":"泉大島町四丁目","koaza":"","lat":35.366203,"lng":137.191176,"zip":"5095136"},{"town":"泉大島町五丁目","koaza":"","lat":35.367034,"lng":137.190581,"zip":"5095136"},{"town":"泉大坪町一丁目","koaza":"","lat":35.363299,"lng":137.181969,"zip":"5095151"},{"town":"泉大坪町二丁目","koaza":"","lat":35.363394,"lng":137.180987,"zip":"5095151"},{"town":"泉大坪町三丁目","koaza":"","lat":35.364534,"lng":137.182218,"zip":"5095151"},{"town":"泉大沼町一丁目","koaza":"","lat":35.357356,"lng":137.177416,"zip":"5095145"},{"town":"泉大沼町二丁目","koaza":"","lat":35.357981,"lng":137.177492,"zip":"5095145"},{"town":"泉大沼町三丁目","koaza":"","lat":35.358205,"lng":137.176796,"zip":"5095145"},{"town":"泉大沼町四丁目","koaza":"","lat":35.358455,"lng":137.176339,"zip":"5095145"},{"town":"泉が丘町一丁目","koaza":"","lat":35.370902,"lng":137.173427,"zip":"5095161"},{"town":"泉が丘町二丁目","koaza":"","lat":35.373954,"lng":137.174009,"zip":"5095161"},{"town":"泉が丘町三丁目","koaza":"","lat":35.376254,"lng":137.172955,"zip":"5095161"},{"town":"泉が丘町四丁目","koaza":"","lat":35.37452,"lng":137.171629,"zip":"5095161"},{"town":"泉が丘町五丁目","koaza":"","lat":35.373952,"lng":137.16966,"zip":"5095161"},{"town":"泉が丘町六丁目","koaza":"","lat":35.371383,"lng":137.169697,"zip":"5095161"},{"town":"泉北山町十丁目","koaza":"","lat":35.389763,"lng":137.186009,"zip":"5095171"},{"town":"泉北山町一丁目","koaza":"","lat":35.394333,"lng":137.184351,"zip":"5095171"},{"town":"泉北山町二丁目","koaza":"","lat":35.39232,"lng":137.187288,"zip":"5095171"},{"town":"泉北山町三丁目","koaza":"","lat":35.393643,"lng":137.186033,"zip":"5095171"},{"town":"泉北山町四丁目","koaza":"","lat":35.393393,"lng":137.184854,"zip":"5095171"},{"town":"泉北山町五丁目","koaza":"","lat":35.393135,"lng":137.183328,"zip":"5095171"},{"town":"泉北山町六丁目","koaza":"","lat":35.391766,"lng":137.186299,"zip":"5095171"},{"town":"泉北山町七丁目","koaza":"","lat":35.391728,"lng":137.184961,"zip":"5095171"},{"town":"泉北山町八丁目","koaza":"","lat":35.391735,"lng":137.183818,"zip":"5095171"},{"town":"泉北山町九丁目","koaza":"","lat":35.391885,"lng":137.182557,"zip":"5095171"},{"town":"泉郷町一丁目","koaza":"","lat":35.360064,"lng":137.181223,"zip":"5095147"},{"town":"泉郷町二丁目","koaza":"","lat":35.360077,"lng":137.180033,"zip":"5095147"},{"town":"泉郷町三丁目","koaza":"","lat":35.361186,"lng":137.179653,"zip":"5095147"},{"town":"泉郷町四丁目","koaza":"","lat":35.361511,"lng":137.181086,"zip":"5095147"},{"town":"泉島田町一丁目","koaza":"","lat":35.36346,"lng":137.186911,"zip":"5095134"},{"town":"泉島田町二丁目","koaza":"","lat":35.364128,"lng":137.187691,"zip":"5095134"},{"town":"泉島田町三丁目","koaza":"","lat":35.36528,"lng":137.187038,"zip":"5095134"},{"town":"泉神栄町一丁目","koaza":"","lat":35.363012,"lng":137.185202,"zip":"5095133"},{"town":"泉神栄町二丁目","koaza":"","lat":35.363544,"lng":137.184303,"zip":"5095133"},{"town":"泉神栄町三丁目","koaza":"","lat":35.364433,"lng":137.185338,"zip":"5095133"},{"town":"泉神栄町四丁目","koaza":"","lat":35.362894,"lng":137.185972,"zip":"5095133"},{"town":"泉町大富","koaza":"","lat":35.380174,"lng":137.183526,"zip":"5095132"},{"town":"泉町河合","koaza":"","lat":35.38086,"lng":137.21154,"zip":"5095101"},{"town":"泉町久尻","koaza":"","lat":35.374733,"lng":137.157396,"zip":"5095142"},{"town":"泉町定林寺","koaza":"","lat":35.384541,"lng":137.195849,"zip":"5095102"},{"town":"泉寺下町一丁目","koaza":"","lat":35.361589,"lng":137.17814,"zip":"5095152"},{"town":"泉寺下町二丁目","koaza":"","lat":35.362056,"lng":137.179645,"zip":"5095152"},{"town":"泉寺下町三丁目","koaza":"","lat":35.362998,"lng":137.179814,"zip":"5095152"},{"town":"泉寺田町一丁目","koaza":"","lat":35.365887,"lng":137.193322,"zip":"5095131"},{"town":"泉寺田町二丁目","koaza":"","lat":35.366943,"lng":137.192731,"zip":"5095131"},{"town":"泉寺田町三丁目","koaza":"","lat":35.366839,"lng":137.194603,"zip":"5095131"},{"town":"泉中窯町一丁目","koaza":"","lat":35.368274,"lng":137.189224,"zip":"5095104"},{"town":"泉中窯町二丁目","koaza":"","lat":35.370017,"lng":137.188667,"zip":"5095104"},{"town":"泉中窯町三丁目","koaza":"","lat":35.37139,"lng":137.188727,"zip":"5095104"},{"town":"泉中窯町四丁目","koaza":"","lat":35.372481,"lng":137.188833,"zip":"5095104"},{"town":"泉仲森町一丁目","koaza":"","lat":35.366246,"lng":137.187341,"zip":"5095106"},{"town":"泉仲森町二丁目","koaza":"","lat":35.366669,"lng":137.186568,"zip":"5095106"},{"town":"泉西窯町一丁目","koaza":"","lat":35.368139,"lng":137.185436,"zip":"5095105"},{"town":"泉西窯町二丁目","koaza":"","lat":35.369613,"lng":137.18423,"zip":"5095105"},{"town":"泉西窯町三丁目","koaza":"","lat":35.369933,"lng":137.185457,"zip":"5095105"},{"town":"泉西窯町四丁目","koaza":"","lat":35.368662,"lng":137.186784,"zip":"5095105"},{"town":"泉西窯町五丁目","koaza":"","lat":35.37122,"lng":137.186771,"zip":"5095105"},{"town":"泉西原町一丁目","koaza":"","lat":35.360335,"lng":137.177078,"zip":"5095153"},{"town":"泉西原町二丁目","koaza":"","lat":35.360894,"lng":137.17667,"zip":"5095153"},{"town":"泉西山町一丁目","koaza":"","lat":35.358523,"lng":137.175673,"zip":"5095154"},{"town":"泉西山町二丁目","koaza":"","lat":35.359125,"lng":137.175499,"zip":"5095154"},{"town":"泉西山町三丁目","koaza":"","lat":35.359435,"lng":137.175151,"zip":"5095154"},{"town":"泉東窯町一丁目","koaza":"","lat":35.368285,"lng":137.191732,"zip":"5095103"},{"town":"泉東窯町二丁目","koaza":"","lat":35.36941,"lng":137.192478,"zip":"5095103"},{"town":"泉東窯町三丁目","koaza":"","lat":35.369213,"lng":137.19119,"zip":"5095103"},{"town":"泉東窯町四丁目","koaza":"","lat":35.370649,"lng":137.190699,"zip":"5095103"},{"town":"泉東窯町五丁目","koaza":"","lat":35.371832,"lng":137.190682,"zip":"5095103"},{"town":"泉日之出町一丁目","koaza":"","lat":35.354899,"lng":137.174608,"zip":"5095143"},{"town":"泉日之出町二丁目","koaza":"","lat":35.355371,"lng":137.175471,"zip":"5095143"},{"town":"泉明治町一丁目","koaza":"","lat":35.358441,"lng":137.17914,"zip":"5095146"},{"town":"泉明治町二丁目","koaza":"","lat":35.359523,"lng":137.179217,"zip":"5095146"},{"town":"泉明治町三丁目","koaza":"","lat":35.358969,"lng":137.178471,"zip":"5095146"},{"town":"泉明治町四丁目","koaza":"","lat":35.359542,"lng":137.177783,"zip":"5095146"},{"town":"泉明治町五丁目","koaza":"","lat":35.360572,"lng":137.178394,"zip":"5095146"},{"town":"泉森下町一丁目","koaza":"","lat":35.364551,"lng":137.188913,"zip":"5095135"},{"town":"泉森下町二丁目","koaza":"","lat":35.365834,"lng":137.18877,"zip":"5095135"},{"town":"下石阿庄町四丁目","koaza":"","lat":35.320331,"lng":137.187207,"zip":"5095201"},{"town":"下石町","koaza":"","lat":35.321951,"lng":137.186303,"zip":"5095202"},{"town":"下石陶史台一丁目","koaza":"","lat":35.328275,"lng":137.20913,"zip":"5095203"},{"town":"下石陶史台二丁目","koaza":"","lat":35.327575,"lng":137.209666,"zip":"5095203"},{"town":"下石陶史台三丁目","koaza":"","lat":35.326116,"lng":137.209344,"zip":"5095203"},{"town":"下石陶史台四丁目","koaza":"","lat":35.325037,"lng":137.209372,"zip":"5095203"},{"town":"下石陶史台五丁目","koaza":"","lat":35.327581,"lng":137.206703,"zip":"5095203"},{"town":"下石陶史台六丁目","koaza":"","lat":35.325664,"lng":137.206976,"zip":"5095203"},{"town":"曽木町","koaza":"","lat":35.307479,"lng":137.258097,"zip":"5095402"},{"town":"駄知町","koaza":"","lat":35.324432,"lng":137.233812,"zip":"5095401"},{"town":"妻木町","koaza":"","lat":35.298229,"lng":137.201798,"zip":"5095301"},{"town":"妻木平成町一丁目","koaza":"","lat":35.319025,"lng":137.189671,"zip":"5095302"},{"town":"妻木平成町二丁目","koaza":"","lat":35.318621,"lng":137.188729,"zip":"5095302"},{"town":"妻木平成町三丁目","koaza":"","lat":35.316044,"lng":137.190441,"zip":"5095302"},{"town":"妻木平成町四丁目","koaza":"","lat":35.316517,"lng":137.188903,"zip":"5095302"},{"town":"妻木平成町五丁目","koaza":"","lat":35.314977,"lng":137.190351,"zip":"5095302"},{"town":"妻木平成町六丁目","koaza":"","lat":35.31389,"lng":137.189611,"zip":"5095302"},{"town":"鶴里町柿野","koaza":"","lat":35.27614,"lng":137.215108,"zip":"5095312"},{"town":"鶴里町細野","koaza":"","lat":35.282156,"lng":137.245097,"zip":"5095311"},{"town":"土岐ヶ丘一丁目","koaza":"","lat":35.341779,"lng":137.165355,"zip":"5095127"},{"town":"土岐ヶ丘二丁目","koaza":"","lat":35.342282,"lng":137.169439,"zip":"5095127"},{"town":"土岐ヶ丘三丁目","koaza":"","lat":35.341444,"lng":137.173348,"zip":"5095127"},{"town":"土岐ヶ丘四丁目","koaza":"","lat":35.334445,"lng":137.169788,"zip":"5095127"},{"town":"土岐口北町一丁目","koaza":"","lat":35.350687,"lng":137.176051,"zip":"5095126"},{"town":"土岐口北町二丁目","koaza":"","lat":35.349374,"lng":137.176152,"zip":"5095126"},{"town":"土岐口北町三丁目","koaza":"","lat":35.349362,"lng":137.174937,"zip":"5095126"},{"town":"土岐口中町一丁目","koaza":"","lat":35.347734,"lng":137.175467,"zip":"5095124"},{"town":"土岐口中町二丁目","koaza":"","lat":35.346097,"lng":137.176443,"zip":"5095124"},{"town":"土岐口中町三丁目","koaza":"","lat":35.346198,"lng":137.174801,"zip":"5095124"},{"town":"土岐口中町四丁目","koaza":"","lat":35.34464,"lng":137.175653,"zip":"5095124"},{"town":"土岐口中町五丁目","koaza":"","lat":35.34325,"lng":137.177872,"zip":"5095124"},{"town":"土岐口中町六丁目","koaza":"","lat":35.343619,"lng":137.175757,"zip":"5095124"},{"town":"土岐口南町一丁目","koaza":"","lat":35.341005,"lng":137.178581,"zip":"5095123"},{"town":"土岐口南町二丁目","koaza":"","lat":35.339662,"lng":137.180173,"zip":"5095123"},{"town":"土岐口南町三丁目","koaza":"","lat":35.33856,"lng":137.180896,"zip":"5095123"},{"town":"土岐口南町四丁目","koaza":"","lat":35.337651,"lng":137.182012,"zip":"5095123"},{"town":"土岐口南町五丁目","koaza":"","lat":35.336804,"lng":137.182921,"zip":"5095123"},{"town":"土岐津町高山","koaza":"","lat":35.353013,"lng":137.192495,"zip":"5095121"},{"town":"土岐津町土岐口","koaza":"","lat":35.341139,"lng":137.192739,"zip":"5095122"},{"town":"肥田浅野朝日町一丁目","koaza":"","lat":35.359949,"lng":137.197131,"zip":"5095117"},{"town":"肥田浅野朝日町二丁目","koaza":"","lat":35.360521,"lng":137.196553,"zip":"5095117"},{"town":"肥田浅野朝日町三丁目","koaza":"","lat":35.361284,"lng":137.195805,"zip":"5095117"},{"town":"肥田浅野梅ノ木町一丁目","koaza":"","lat":35.359112,"lng":137.199803,"zip":"5095118"},{"town":"肥田浅野梅ノ木町二丁目","koaza":"","lat":35.358954,"lng":137.197752,"zip":"5095118"},{"town":"肥田浅野笠神町一丁目","koaza":"","lat":35.360998,"lng":137.199197,"zip":"5095112"},{"town":"肥田浅野笠神町二丁目","koaza":"","lat":35.362203,"lng":137.19874,"zip":"5095112"},{"town":"肥田浅野笠神町三丁目","koaza":"","lat":35.363648,"lng":137.197931,"zip":"5095112"},{"town":"肥田浅野双葉町一丁目","koaza":"","lat":35.361869,"lng":137.193776,"zip":"5095111"},{"town":"肥田浅野双葉町二丁目","koaza":"","lat":35.363318,"lng":137.19488,"zip":"5095111"},{"town":"肥田浅野元町一丁目","koaza":"","lat":35.360456,"lng":137.201139,"zip":"5095113"},{"town":"肥田浅野元町二丁目","koaza":"","lat":35.362373,"lng":137.201192,"zip":"5095113"},{"town":"肥田浅野矢落町一丁目","koaza":"","lat":35.359215,"lng":137.194311,"zip":"5095116"},{"town":"肥田浅野矢落町二丁目","koaza":"","lat":35.360322,"lng":137.193635,"zip":"5095116"},{"town":"肥田町浅野","koaza":"","lat":35.352297,"lng":137.202032,"zip":"5095114"},{"town":"肥田町肥田","koaza":"","lat":35.345927,"lng":137.21853,"zip":"5095403"},{"town":"御幸町一丁目","koaza":"","lat":35.349608,"lng":137.173621,"zip":"5095125"},{"town":"御幸町二丁目","koaza":"","lat":35.347023,"lng":137.172951,"zip":"5095125"},{"town":"御幸町三丁目","koaza":"","lat":35.348545,"lng":137.171604,"zip":"5095125"}]