[{"town":"青木町","koaza":"","lat":35.395512,"lng":136.597244,"zip":"5032202"},{"town":"青野町","koaza":"","lat":35.38697,"lng":136.553138,"zip":"5032227"},{"town":"青墓町","koaza":"","lat":35.402326,"lng":136.557126,"zip":"5032221"},{"town":"青墓町一丁目","koaza":"","lat":35.386547,"lng":136.563592,"zip":"5032221"},{"town":"青墓町二丁目","koaza":"","lat":35.386777,"lng":136.559455,"zip":"5032221"},{"town":"青墓町三丁目","koaza":"","lat":35.391623,"lng":136.563254,"zip":"5032221"},{"town":"青墓町四丁目","koaza":"","lat":35.391647,"lng":136.557879,"zip":"5032221"},{"town":"青墓町五丁目","koaza":"","lat":35.397233,"lng":136.557024,"zip":"5032221"},{"town":"青柳町","koaza":"","lat":35.344773,"lng":136.596968,"zip":"5030961"},{"town":"青柳町一丁目","koaza":"","lat":35.347213,"lng":136.600732,"zip":"5030961"},{"town":"青柳町二丁目","koaza":"","lat":35.345918,"lng":136.601149,"zip":"5030961"},{"town":"青柳町三丁目","koaza":"","lat":35.343955,"lng":136.601365,"zip":"5030961"},{"town":"青柳町四丁目","koaza":"","lat":35.346427,"lng":136.604756,"zip":"5030961"},{"town":"赤坂新田一丁目","koaza":"","lat":35.384304,"lng":136.586253,"zip":"5032214"},{"town":"赤坂新田二丁目","koaza":"","lat":35.384778,"lng":136.589851,"zip":"5032214"},{"town":"赤坂新田三丁目","koaza":"","lat":35.381698,"lng":136.591722,"zip":"5032214"},{"town":"赤坂新町一丁目","koaza":"","lat":35.392708,"lng":136.588499,"zip":"5032206"},{"town":"赤坂新町二丁目","koaza":"","lat":35.392851,"lng":136.590627,"zip":"5032206"},{"town":"赤坂新町三丁目","koaza":"","lat":35.391718,"lng":136.590526,"zip":"5032206"},{"town":"赤坂新町四丁目","koaza":"","lat":35.390599,"lng":136.589605,"zip":"5032206"},{"town":"赤坂大門一丁目","koaza":"","lat":35.384156,"lng":136.583828,"zip":"5032215"},{"town":"赤坂大門二丁目","koaza":"","lat":35.382141,"lng":136.583884,"zip":"5032215"},{"town":"赤坂大門三丁目","koaza":"","lat":35.38083,"lng":136.583742,"zip":"5032215"},{"town":"赤坂町","koaza":"","lat":35.393792,"lng":136.580546,"zip":"5032213"},{"town":"赤坂東町","koaza":"","lat":35.390103,"lng":136.586847,"zip":"5032212"},{"town":"赤花町一丁目","koaza":"","lat":35.387731,"lng":136.623278,"zip":"5030013"},{"town":"赤花町二丁目","koaza":"","lat":35.391175,"lng":136.622746,"zip":"5030013"},{"town":"浅草一丁目","koaza":"","lat":35.311809,"lng":136.620095,"zip":"5030947"},{"town":"浅草二丁目","koaza":"","lat":35.313323,"lng":136.615596,"zip":"5030947"},{"town":"浅草三丁目","koaza":"","lat":35.310305,"lng":136.614313,"zip":"5030947"},{"town":"浅草四丁目","koaza":"","lat":35.306633,"lng":136.615453,"zip":"5030947"},{"town":"浅中一丁目","koaza":"","lat":35.312071,"lng":136.608934,"zip":"5030946"},{"town":"浅中二丁目","koaza":"","lat":35.313354,"lng":136.605538,"zip":"5030946"},{"town":"浅中三丁目","koaza":"","lat":35.310347,"lng":136.610908,"zip":"5030946"},{"town":"浅西一丁目","koaza":"","lat":35.304094,"lng":136.6027,"zip":"5030945"},{"town":"浅西二丁目","koaza":"","lat":35.308878,"lng":136.604089,"zip":"5030945"},{"town":"浅西三丁目","koaza":"","lat":35.30612,"lng":136.608184,"zip":"5030945"},{"town":"浅西四丁目","koaza":"","lat":35.304808,"lng":136.611996,"zip":"5030945"},{"town":"旭町一丁目","koaza":"","lat":35.359342,"lng":136.624723,"zip":"5030824"},{"town":"旭町二丁目","koaza":"","lat":35.359486,"lng":136.62585,"zip":"5030824"},{"town":"旭町三丁目","koaza":"","lat":35.359476,"lng":136.627189,"zip":"5030824"},{"town":"旭町四丁目","koaza":"","lat":35.35954,"lng":136.628569,"zip":"5030824"},{"town":"旭町五丁目","koaza":"","lat":35.359572,"lng":136.629712,"zip":"5030824"},{"town":"旭町六丁目","koaza":"","lat":35.359622,"lng":136.630964,"zip":"5030824"},{"town":"旭町七丁目","koaza":"","lat":35.359673,"lng":136.632349,"zip":"5030824"},{"town":"旭町八丁目","koaza":"","lat":35.359768,"lng":136.633769,"zip":"5030824"},{"town":"東町","koaza":"","lat":35.371802,"lng":136.65552,"zip":"5030802"},{"town":"東町一丁目","koaza":"","lat":35.371153,"lng":136.651659,"zip":"5030802"},{"town":"東町二丁目","koaza":"","lat":35.367797,"lng":136.653383,"zip":"5030802"},{"town":"東町三丁目","koaza":"","lat":35.367969,"lng":136.647902,"zip":"5030802"},{"town":"東町四丁目","koaza":"","lat":35.37059,"lng":136.648591,"zip":"5030802"},{"town":"綾野一丁目","koaza":"","lat":35.34621,"lng":136.590512,"zip":"5030984"},{"town":"綾野二丁目","koaza":"","lat":35.350844,"lng":136.587822,"zip":"5030984"},{"town":"綾野三丁目","koaza":"","lat":35.350988,"lng":136.580831,"zip":"5030984"},{"town":"綾野四丁目","koaza":"","lat":35.346296,"lng":136.582477,"zip":"5030984"},{"town":"綾野五丁目","koaza":"","lat":35.341138,"lng":136.585886,"zip":"5030984"},{"town":"綾野六丁目","koaza":"","lat":35.340761,"lng":136.591588,"zip":"5030984"},{"town":"綾野町","koaza":"","lat":35.344922,"lng":136.577156,"zip":"5030994"},{"town":"荒尾玉池一丁目","koaza":"","lat":35.377576,"lng":136.574854,"zip":"5030035"},{"town":"荒尾玉池二丁目","koaza":"","lat":35.375393,"lng":136.575433,"zip":"5030035"},{"town":"荒尾町","koaza":"","lat":35.37383,"lng":136.577659,"zip":"5030034"},{"town":"荒川町","koaza":"","lat":35.359798,"lng":136.574032,"zip":"5030993"},{"town":"池尻町","koaza":"","lat":35.38597,"lng":136.597047,"zip":"5032204"},{"town":"稲葉北一丁目","koaza":"","lat":35.376455,"lng":136.554674,"zip":"5032226"},{"town":"稲葉北二丁目","koaza":"","lat":35.37677,"lng":136.552017,"zip":"5032226"},{"town":"稲葉北三丁目","koaza":"","lat":35.377489,"lng":136.551735,"zip":"5032226"},{"town":"稲葉西一丁目","koaza":"","lat":35.374835,"lng":136.551124,"zip":"5032225"},{"town":"稲葉西二丁目","koaza":"","lat":35.375793,"lng":136.551271,"zip":"5032225"},{"town":"稲葉東一丁目","koaza":"","lat":35.373759,"lng":136.554692,"zip":"5032224"},{"town":"稲葉東二丁目","koaza":"","lat":35.374728,"lng":136.554303,"zip":"5032224"},{"town":"稲葉東三丁目","koaza":"","lat":35.375663,"lng":136.554509,"zip":"5032224"},{"town":"犬ヶ渕町","koaza":"","lat":35.351738,"lng":136.636613,"zip":"5030000"},{"town":"今岡町一丁目","koaza":"","lat":35.35799,"lng":136.619829,"zip":"5030874"},{"town":"今岡町二丁目","koaza":"","lat":35.358037,"lng":136.619339,"zip":"5030874"},{"town":"今宿一丁目","koaza":"","lat":35.369238,"lng":136.635367,"zip":"5030807"},{"town":"今宿二丁目","koaza":"","lat":35.367922,"lng":136.635051,"zip":"5030807"},{"town":"今宿三丁目","koaza":"","lat":35.365583,"lng":136.635685,"zip":"5030807"},{"town":"今宿四丁目","koaza":"","lat":35.363846,"lng":136.635843,"zip":"5030807"},{"town":"今宿五丁目","koaza":"","lat":35.365665,"lng":136.637815,"zip":"5030807"},{"town":"今宿六丁目","koaza":"","lat":35.367391,"lng":136.637158,"zip":"5030807"},{"town":"今福町","koaza":"","lat":35.310087,"lng":136.630038,"zip":"5030843"},{"town":"今町一丁目","koaza":"","lat":35.353568,"lng":136.610892,"zip":"5030924"},{"town":"今町二丁目","koaza":"","lat":35.351611,"lng":136.611686,"zip":"5030924"},{"town":"入方一丁目","koaza":"","lat":35.332586,"lng":136.600165,"zip":"5030962"},{"town":"入方二丁目","koaza":"","lat":35.328473,"lng":136.599351,"zip":"5030962"},{"town":"入方三丁目","koaza":"","lat":35.324614,"lng":136.597995,"zip":"5030962"},{"town":"魚屋町","koaza":"","lat":35.360263,"lng":136.619702,"zip":"5030871"},{"town":"内原一丁目","koaza":"","lat":35.318821,"lng":136.615129,"zip":"5030936"},{"town":"内原二丁目","koaza":"","lat":35.316978,"lng":136.620748,"zip":"5030936"},{"town":"内原三丁目","koaza":"","lat":35.315249,"lng":136.613431,"zip":"5030936"},{"town":"馬の瀬町","koaza":"","lat":35.33107,"lng":136.636679,"zip":"5030842"},{"town":"江崎町","koaza":"","lat":35.355893,"lng":136.633253,"zip":"5030838"},{"town":"枝郷一丁目","koaza":"","lat":35.393254,"lng":136.592937,"zip":"5032207"},{"town":"枝郷二丁目","koaza":"","lat":35.391846,"lng":136.592264,"zip":"5032207"},{"town":"枝郷三丁目","koaza":"","lat":35.391778,"lng":136.593505,"zip":"5032207"},{"town":"枝郷四丁目","koaza":"","lat":35.391643,"lng":136.594856,"zip":"5032207"},{"town":"枝郷五丁目","koaza":"","lat":35.391688,"lng":136.596305,"zip":"5032207"},{"town":"恵比寿町一丁目","koaza":"","lat":35.358346,"lng":136.624615,"zip":"5030828"},{"town":"恵比寿町二丁目","koaza":"","lat":35.358338,"lng":136.625702,"zip":"5030828"},{"town":"恵比寿町三丁目","koaza":"","lat":35.358312,"lng":136.627119,"zip":"5030828"},{"town":"恵比寿町北四丁目","koaza":"","lat":35.358481,"lng":136.628587,"zip":"5030826"},{"town":"恵比寿町北五丁目","koaza":"","lat":35.358475,"lng":136.629736,"zip":"5030826"},{"town":"恵比寿町北六丁目","koaza":"","lat":35.358549,"lng":136.631026,"zip":"5030826"},{"town":"恵比寿町北七丁目","koaza":"","lat":35.358562,"lng":136.632552,"zip":"5030826"},{"town":"恵比寿町北八丁目","koaza":"","lat":35.358657,"lng":136.63373,"zip":"5030826"},{"town":"恵比寿町南四丁目","koaza":"","lat":35.35801,"lng":136.628473,"zip":"5030827"},{"town":"恵比寿町南五丁目","koaza":"","lat":35.358073,"lng":136.629747,"zip":"5030827"},{"town":"恵比寿町南六丁目","koaza":"","lat":35.358089,"lng":136.631055,"zip":"5030827"},{"town":"恵比寿町南七丁目","koaza":"","lat":35.358164,"lng":136.63248,"zip":"5030827"},{"town":"恵比寿町南八丁目","koaza":"","lat":35.358213,"lng":136.63389,"zip":"5030827"},{"town":"大井一丁目","koaza":"","lat":35.349327,"lng":136.630181,"zip":"5030836"},{"town":"大井二丁目","koaza":"","lat":35.348301,"lng":136.630232,"zip":"5030836"},{"town":"大井三丁目","koaza":"","lat":35.346711,"lng":136.630559,"zip":"5030836"},{"town":"大井四丁目","koaza":"","lat":35.342473,"lng":136.629225,"zip":"5030836"},{"town":"大池町","koaza":"","lat":35.356221,"lng":136.625678,"zip":"5030863"},{"town":"大島町一丁目","koaza":"","lat":35.38744,"lng":136.632423,"zip":"5030001"},{"town":"大島町二丁目","koaza":"","lat":35.384149,"lng":136.633465,"zip":"5030001"},{"town":"大島町三丁目","koaza":"","lat":35.380021,"lng":136.634368,"zip":"5030001"},{"town":"大外羽一丁目","koaza":"","lat":35.322012,"lng":136.601398,"zip":"5030956"},{"town":"大外羽二丁目","koaza":"","lat":35.319875,"lng":136.602241,"zip":"5030956"},{"town":"大外羽三丁目","koaza":"","lat":35.320181,"lng":136.606185,"zip":"5030956"},{"town":"大外羽四丁目","koaza":"","lat":35.316369,"lng":136.602809,"zip":"5030956"},{"town":"大村一丁目","koaza":"","lat":35.352058,"lng":136.655225,"zip":"5030814"},{"town":"大村二丁目","koaza":"","lat":35.353531,"lng":136.651037,"zip":"5030814"},{"town":"歩行町一丁目","koaza":"","lat":35.364719,"lng":136.62119,"zip":"5030898"},{"town":"歩行町二丁目","koaza":"","lat":35.364775,"lng":136.622331,"zip":"5030898"},{"town":"貝曽根町","koaza":"","lat":35.375939,"lng":136.630095,"zip":"5030007"},{"town":"開発町一丁目","koaza":"","lat":35.385951,"lng":136.637732,"zip":"5030002"},{"town":"開発町二丁目","koaza":"","lat":35.383087,"lng":136.637213,"zip":"5030002"},{"town":"開発町三丁目","koaza":"","lat":35.382834,"lng":136.639913,"zip":"5030002"},{"town":"開発町四丁目","koaza":"","lat":35.378524,"lng":136.63851,"zip":"5030002"},{"town":"開発町五丁目","koaza":"","lat":35.380203,"lng":136.642357,"zip":"5030002"},{"town":"加賀野一丁目","koaza":"","lat":35.372609,"lng":136.636348,"zip":"5030006"},{"town":"加賀野二丁目","koaza":"","lat":35.377068,"lng":136.635434,"zip":"5030006"},{"town":"加賀野三丁目","koaza":"","lat":35.369848,"lng":136.637777,"zip":"5030006"},{"town":"加賀野四丁目","koaza":"","lat":35.366616,"lng":136.640284,"zip":"5030006"},{"town":"加賀野五丁目","koaza":"","lat":35.364014,"lng":136.639611,"zip":"5030006"},{"town":"楽田町一丁目","koaza":"","lat":35.380347,"lng":136.623464,"zip":"5030008"},{"town":"楽田町二丁目","koaza":"","lat":35.380269,"lng":136.62582,"zip":"5030008"},{"town":"楽田町三丁目","koaza":"","lat":35.380311,"lng":136.627912,"zip":"5030008"},{"town":"楽田町四丁目","koaza":"","lat":35.378874,"lng":136.630774,"zip":"5030008"},{"town":"楽田町五丁目","koaza":"","lat":35.381287,"lng":136.630599,"zip":"5030008"},{"town":"楽田町六丁目","koaza":"","lat":35.383893,"lng":136.628956,"zip":"5030008"},{"town":"楽田町七丁目","koaza":"","lat":35.384377,"lng":136.62534,"zip":"5030008"},{"town":"楽田町八丁目","koaza":"","lat":35.384351,"lng":136.623174,"zip":"5030008"},{"town":"笠木町","koaza":"","lat":35.377502,"lng":136.598146,"zip":"5030023"},{"town":"笠縫町","koaza":"","lat":35.375808,"lng":136.604886,"zip":"5030027"},{"town":"鹿島町一丁目","koaza":"","lat":35.360094,"lng":136.628346,"zip":"5030823"},{"town":"鹿島町二丁目","koaza":"","lat":35.360146,"lng":136.629697,"zip":"5030823"},{"town":"鹿島町三丁目","koaza":"","lat":35.360158,"lng":136.630935,"zip":"5030823"},{"town":"鹿島町四丁目","koaza":"","lat":35.360262,"lng":136.63242,"zip":"5030823"},{"town":"鹿島町五丁目","koaza":"","lat":35.360272,"lng":136.633728,"zip":"5030823"},{"town":"河間町一丁目","koaza":"","lat":35.381116,"lng":136.605454,"zip":"5030021"},{"town":"河間町二丁目","koaza":"","lat":35.38111,"lng":136.603848,"zip":"5030021"},{"town":"河間町三丁目","koaza":"","lat":35.384568,"lng":136.603871,"zip":"5030021"},{"town":"河間町四丁目","koaza":"","lat":35.38068,"lng":136.601839,"zip":"5030021"},{"town":"河間町五丁目","koaza":"","lat":35.382404,"lng":136.600609,"zip":"5030021"},{"town":"釜笛一丁目","koaza":"","lat":35.324295,"lng":136.610195,"zip":"5030937"},{"town":"釜笛二丁目","koaza":"","lat":35.322438,"lng":136.614473,"zip":"5030937"},{"town":"釜笛三丁目","koaza":"","lat":35.320891,"lng":136.610237,"zip":"5030937"},{"town":"釜笛四丁目","koaza":"","lat":35.318144,"lng":136.608908,"zip":"5030937"},{"town":"釜笛五丁目","koaza":"","lat":35.324895,"lng":136.606571,"zip":"5030937"},{"town":"上石津町一之瀬","koaza":"","lat":35.305252,"lng":136.493683,"zip":"5031614"},{"town":"上石津町打上","koaza":"","lat":35.239415,"lng":136.468986,"zip":"5031633"},{"town":"上石津町上原","koaza":"","lat":35.278336,"lng":136.499258,"zip":"5031622"},{"town":"上石津町奥","koaza":"","lat":35.297366,"lng":136.443949,"zip":"5031611"},{"town":"上石津町乙坂","koaza":"","lat":35.336946,"lng":136.52467,"zip":"5031601"},{"town":"上石津町上","koaza":"","lat":35.246264,"lng":136.441328,"zip":"5031622"},{"town":"上石津町上鍛治屋","koaza":"","lat":35.303741,"lng":136.462999,"zip":"5031613"},{"town":"上石津町上多良","koaza":"","lat":35.268443,"lng":136.463689,"zip":"5031623"},{"town":"上石津町下多良","koaza":"","lat":35.29696,"lng":136.479091,"zip":"5031621"},{"town":"上石津町下山","koaza":"","lat":35.248245,"lng":136.493961,"zip":"5031632"},{"town":"上石津町谷畑","koaza":"","lat":35.303769,"lng":136.455874,"zip":"5031612"},{"town":"上石津町堂之上","koaza":"","lat":35.252595,"lng":136.448292,"zip":"5031637"},{"town":"上石津町時山","koaza":"","lat":35.259291,"lng":136.411368,"zip":"5031635"},{"town":"上石津町西山","koaza":"","lat":35.263754,"lng":136.443374,"zip":"5031636"},{"town":"上石津町祢宜上","koaza":"","lat":35.285656,"lng":136.448114,"zip":"5031626"},{"town":"上石津町細野","koaza":"","lat":35.230709,"lng":136.440831,"zip":"5031634"},{"town":"上石津町前ケ瀬","koaza":"","lat":35.266306,"lng":136.484913,"zip":"5031631"},{"town":"上石津町牧田","koaza":"","lat":35.332916,"lng":136.487191,"zip":"5031602"},{"town":"上石津町三ツ里","koaza":"","lat":35.276962,"lng":136.445792,"zip":"5031624"},{"town":"上石津町宮","koaza":"","lat":35.284141,"lng":136.461787,"zip":"5031625"},{"town":"上笠一丁目","koaza":"","lat":35.323616,"lng":136.588492,"zip":"5030964"},{"town":"上笠二丁目","koaza":"","lat":35.323436,"lng":136.59137,"zip":"5030964"},{"town":"上笠三丁目","koaza":"","lat":35.322866,"lng":136.592931,"zip":"5030964"},{"town":"上屋一丁目","koaza":"","lat":35.311502,"lng":136.596398,"zip":"5030957"},{"town":"上屋二丁目","koaza":"","lat":35.312358,"lng":136.600493,"zip":"5030957"},{"town":"川口一丁目","koaza":"","lat":35.30945,"lng":136.623936,"zip":"5030941"},{"town":"川口二丁目","koaza":"","lat":35.313815,"lng":136.624567,"zip":"5030941"},{"town":"川口三丁目","koaza":"","lat":35.31803,"lng":136.625522,"zip":"5030941"},{"town":"川口四丁目","koaza":"","lat":35.323537,"lng":136.625828,"zip":"5030941"},{"town":"神田町一丁目","koaza":"","lat":35.360396,"lng":136.610643,"zip":"5030917"},{"town":"神田町二丁目","koaza":"","lat":35.360843,"lng":136.605788,"zip":"5030917"},{"town":"北方町一丁目","koaza":"","lat":35.395831,"lng":136.613803,"zip":"5030019"},{"town":"北方町二丁目","koaza":"","lat":35.394783,"lng":136.609907,"zip":"5030019"},{"town":"北方町三丁目","koaza":"","lat":35.399088,"lng":136.611996,"zip":"5030019"},{"town":"北方町四丁目","koaza":"","lat":35.396417,"lng":136.616491,"zip":"5030019"},{"town":"北方町五丁目","koaza":"","lat":35.395445,"lng":136.619924,"zip":"5030019"},{"town":"北切石町一丁目","koaza":"","lat":35.359029,"lng":136.609419,"zip":"5030915"},{"town":"北切石町二丁目","koaza":"","lat":35.359056,"lng":136.607586,"zip":"5030915"},{"town":"北切石町三丁目","koaza":"","lat":35.35924,"lng":136.605896,"zip":"5030915"},{"town":"木戸町","koaza":"","lat":35.363725,"lng":136.59928,"zip":"5030973"},{"town":"木戸町二丁目","koaza":"","lat":35.365998,"lng":136.60614,"zip":"5030973"},{"town":"岐阜町","koaza":"","lat":35.364539,"lng":136.620311,"zip":"5030881"},{"town":"久徳町","koaza":"","lat":35.361828,"lng":136.589758,"zip":"5030982"},{"town":"切石町一丁目","koaza":"","lat":35.356944,"lng":136.608236,"zip":"5030926"},{"town":"切石町二丁目","koaza":"","lat":35.357143,"lng":136.607004,"zip":"5030926"},{"town":"桐ヶ崎町","koaza":"","lat":35.364594,"lng":136.614943,"zip":"5030000"},{"town":"木呂町","koaza":"","lat":35.369763,"lng":136.576101,"zip":"5030991"},{"town":"久瀬川町一丁目","koaza":"","lat":35.356007,"lng":136.60697,"zip":"5030974"},{"town":"久瀬川町二丁目","koaza":"","lat":35.356358,"lng":136.604121,"zip":"5030974"},{"town":"久瀬川町三丁目","koaza":"","lat":35.356816,"lng":136.602308,"zip":"5030974"},{"town":"久瀬川町四丁目","koaza":"","lat":35.357374,"lng":136.600326,"zip":"5030974"},{"town":"久瀬川町五丁目","koaza":"","lat":35.357344,"lng":136.598377,"zip":"5030974"},{"town":"久瀬川町六丁目","koaza":"","lat":35.35788,"lng":136.601448,"zip":"5030974"},{"town":"久瀬川町七丁目","koaza":"","lat":35.360158,"lng":136.601186,"zip":"5030974"},{"town":"熊野町","koaza":"","lat":35.375368,"lng":136.584844,"zip":"5030032"},{"town":"熊野町一丁目","koaza":"","lat":35.373997,"lng":136.585657,"zip":"5030032"},{"town":"熊野町二丁目","koaza":"","lat":35.37406,"lng":136.586943,"zip":"5030032"},{"town":"熊野町三丁目","koaza":"","lat":35.375818,"lng":136.585608,"zip":"5030032"},{"town":"熊野町四丁目","koaza":"","lat":35.376594,"lng":136.586895,"zip":"5030032"},{"town":"熊野町五丁目","koaza":"","lat":35.378663,"lng":136.586272,"zip":"5030032"},{"town":"栗屋町","koaza":"","lat":35.364057,"lng":136.618561,"zip":"5030902"},{"town":"郭町一丁目","koaza":"","lat":35.36228,"lng":136.616297,"zip":"5030887"},{"town":"郭町二丁目","koaza":"","lat":35.36106,"lng":136.616149,"zip":"5030887"},{"town":"郭町三丁目","koaza":"","lat":35.359295,"lng":136.617285,"zip":"5030887"},{"town":"郭町四丁目","koaza":"","lat":35.35845,"lng":136.614857,"zip":"5030887"},{"town":"郭町東一丁目","koaza":"","lat":35.362395,"lng":136.618205,"zip":"5030886"},{"town":"郭町東二丁目","koaza":"","lat":35.360768,"lng":136.618148,"zip":"5030886"},{"town":"小泉町","koaza":"","lat":35.35194,"lng":136.646224,"zip":"5030816"},{"town":"興福地町一丁目","koaza":"","lat":35.391937,"lng":136.603396,"zip":"5032203"},{"town":"興福地町二丁目","koaza":"","lat":35.389595,"lng":136.603155,"zip":"5032203"},{"town":"興福地町三丁目","koaza":"","lat":35.387111,"lng":136.603513,"zip":"5032203"},{"town":"興福地町四丁目","koaza":"","lat":35.389379,"lng":136.600303,"zip":"5032203"},{"town":"古知丸一丁目","koaza":"","lat":35.377799,"lng":136.5729,"zip":"5030036"},{"town":"古知丸二丁目","koaza":"","lat":35.37697,"lng":136.573008,"zip":"5030036"},{"town":"古知丸三丁目","koaza":"","lat":35.375904,"lng":136.573159,"zip":"5030036"},{"town":"古知丸四丁目","koaza":"","lat":35.374832,"lng":136.573507,"zip":"5030036"},{"town":"御殿町一丁目","koaza":"","lat":35.359869,"lng":136.615509,"zip":"5030877"},{"town":"御殿町二丁目","koaza":"","lat":35.359299,"lng":136.615162,"zip":"5030877"},{"town":"寿町","koaza":"","lat":35.355908,"lng":136.635517,"zip":"5030832"},{"town":"小野一丁目","koaza":"","lat":35.370387,"lng":136.645893,"zip":"5030803"},{"town":"小野二丁目","koaza":"","lat":35.367999,"lng":136.645192,"zip":"5030803"},{"town":"小野三丁目","koaza":"","lat":35.369059,"lng":136.642939,"zip":"5030803"},{"town":"小野四丁目","koaza":"","lat":35.368985,"lng":136.641291,"zip":"5030803"},{"town":"米野町","koaza":"","lat":35.332873,"lng":136.628909,"zip":"5030847"},{"town":"米野町一丁目","koaza":"","lat":35.336865,"lng":136.626725,"zip":"5030847"},{"town":"米野町二丁目","koaza":"","lat":35.334177,"lng":136.625842,"zip":"5030847"},{"town":"米野町三丁目","koaza":"","lat":35.331368,"lng":136.625074,"zip":"5030847"},{"town":"坂下町","koaza":"","lat":35.386475,"lng":136.626618,"zip":"5030009"},{"town":"早苗町一丁目","koaza":"","lat":35.361119,"lng":136.628301,"zip":"5030821"},{"town":"早苗町二丁目","koaza":"","lat":35.361112,"lng":136.629655,"zip":"5030821"},{"town":"早苗町三丁目","koaza":"","lat":35.360859,"lng":136.630984,"zip":"5030821"},{"town":"早苗町四丁目","koaza":"","lat":35.360913,"lng":136.63236,"zip":"5030821"},{"town":"早苗町五丁目","koaza":"","lat":35.361041,"lng":136.633623,"zip":"5030821"},{"town":"三本木一丁目","koaza":"","lat":35.356613,"lng":136.655052,"zip":"5030813"},{"town":"三本木二丁目","koaza":"","lat":35.359594,"lng":136.654921,"zip":"5030813"},{"town":"三本木三丁目","koaza":"","lat":35.357918,"lng":136.65123,"zip":"5030813"},{"town":"三本木四丁目","koaza":"","lat":35.357861,"lng":136.649544,"zip":"5030813"},{"town":"静里町","koaza":"","lat":35.356826,"lng":136.591279,"zip":"5030983"},{"town":"寺内町一丁目","koaza":"","lat":35.355339,"lng":136.6182,"zip":"5030865"},{"town":"寺内町二丁目","koaza":"","lat":35.355367,"lng":136.617023,"zip":"5030865"},{"town":"寺内町三丁目","koaza":"","lat":35.35558,"lng":136.615713,"zip":"5030865"},{"town":"寺内町四丁目","koaza":"","lat":35.355752,"lng":136.61441,"zip":"5030865"},{"town":"寺内町五丁目","koaza":"","lat":35.355676,"lng":136.613384,"zip":"5030865"},{"town":"島里一丁目","koaza":"","lat":35.321613,"lng":136.618313,"zip":"5030935"},{"town":"島里二丁目","koaza":"","lat":35.324697,"lng":136.618613,"zip":"5030935"},{"town":"島里三丁目","koaza":"","lat":35.322584,"lng":136.622786,"zip":"5030935"},{"town":"島町","koaza":"","lat":35.354349,"lng":136.563232,"zip":"5030996"},{"town":"清水町","koaza":"","lat":35.361335,"lng":136.620722,"zip":"5030883"},{"town":"十六町","koaza":"","lat":35.347431,"lng":136.568533,"zip":"5030995"},{"town":"宿地町","koaza":"","lat":35.375062,"lng":136.60833,"zip":"5030024"},{"town":"上面一丁目","koaza":"","lat":35.361646,"lng":136.646314,"zip":"5030817"},{"town":"上面二丁目","koaza":"","lat":35.362066,"lng":136.643838,"zip":"5030817"},{"town":"上面三丁目","koaza":"","lat":35.357972,"lng":136.647181,"zip":"5030817"},{"town":"上面四丁目","koaza":"","lat":35.358417,"lng":136.644736,"zip":"5030817"},{"town":"昭和一丁目","koaza":"","lat":35.304957,"lng":136.619905,"zip":"5030942"},{"town":"新開町","koaza":"","lat":35.377505,"lng":136.652614,"zip":"5030004"},{"town":"新地町","koaza":"","lat":35.360488,"lng":136.622927,"zip":"5030894"},{"town":"新田町一丁目","koaza":"","lat":35.344325,"lng":136.627179,"zip":"5030856"},{"town":"新田町二丁目","koaza":"","lat":35.344298,"lng":136.624023,"zip":"5030856"},{"town":"新田町三丁目","koaza":"","lat":35.344853,"lng":136.621508,"zip":"5030856"},{"town":"新田町四丁目","koaza":"","lat":35.345095,"lng":136.619474,"zip":"5030856"},{"town":"新田町五丁目","koaza":"","lat":35.345411,"lng":136.617583,"zip":"5030856"},{"town":"新長沢町一丁目","koaza":"","lat":35.359363,"lng":136.636018,"zip":"5030831"},{"town":"新長沢町二丁目","koaza":"","lat":35.358783,"lng":136.636202,"zip":"5030831"},{"town":"新長沢町三丁目","koaza":"","lat":35.358311,"lng":136.636189,"zip":"5030831"},{"town":"新長沢町四丁目","koaza":"","lat":35.357816,"lng":136.636241,"zip":"5030831"},{"town":"新長沢町五丁目","koaza":"","lat":35.357117,"lng":136.636291,"zip":"5030831"},{"town":"新長松一丁目","koaza":"","lat":35.370135,"lng":136.569181,"zip":"5030992"},{"town":"新長松二丁目","koaza":"","lat":35.368843,"lng":136.56986,"zip":"5030992"},{"town":"新長松三丁目","koaza":"","lat":35.366828,"lng":136.57092,"zip":"5030992"},{"town":"新馬場町","koaza":"","lat":35.356895,"lng":136.609317,"zip":"5030921"},{"town":"新町一丁目","koaza":"","lat":35.35923,"lng":136.621308,"zip":"5030872"},{"town":"新町二丁目","koaza":"","lat":35.35838,"lng":136.620365,"zip":"5030872"},{"town":"神明一丁目","koaza":"","lat":35.389312,"lng":136.590176,"zip":"5032205"},{"town":"神明二丁目","koaza":"","lat":35.386764,"lng":136.591038,"zip":"5032205"},{"town":"神明三丁目","koaza":"","lat":35.38986,"lng":136.592717,"zip":"5032205"},{"town":"神明四丁目","koaza":"","lat":35.387969,"lng":136.592817,"zip":"5032205"},{"town":"神明五丁目","koaza":"","lat":35.385858,"lng":136.592779,"zip":"5032205"},{"town":"神明六丁目","koaza":"","lat":35.383479,"lng":136.593071,"zip":"5032205"},{"town":"菅野一丁目","koaza":"","lat":35.392828,"lng":136.59951,"zip":"5032208"},{"town":"菅野二丁目","koaza":"","lat":35.392896,"lng":136.598041,"zip":"5032208"},{"town":"菅野三丁目","koaza":"","lat":35.391702,"lng":136.598018,"zip":"5032208"},{"town":"菅野四丁目","koaza":"","lat":35.390573,"lng":136.597507,"zip":"5032208"},{"town":"直江町","koaza":"","lat":35.348089,"lng":136.651667,"zip":"5030815"},{"town":"墨俣町上宿","koaza":"","lat":35.356896,"lng":136.681004,"zip":"5030103"},{"town":"墨俣町さい川","koaza":"","lat":35.368759,"lng":136.679418,"zip":"5030106"},{"town":"墨俣町下宿","koaza":"","lat":35.349177,"lng":136.680716,"zip":"5030104"},{"town":"墨俣町墨俣","koaza":"","lat":35.364117,"lng":136.683443,"zip":"5030102"},{"town":"墨俣町先入方","koaza":"","lat":35.366185,"lng":136.675338,"zip":"5030101"},{"town":"墨俣町二ツ木","koaza":"","lat":35.361437,"lng":136.677183,"zip":"5030105"},{"town":"住吉町一丁目","koaza":"","lat":35.360575,"lng":136.628385,"zip":"5030822"},{"town":"住吉町二丁目","koaza":"","lat":35.360567,"lng":136.629669,"zip":"5030822"},{"town":"住吉町三丁目","koaza":"","lat":35.360586,"lng":136.630913,"zip":"5030822"},{"town":"住吉町四丁目","koaza":"","lat":35.360609,"lng":136.632269,"zip":"5030822"},{"town":"住吉町五丁目","koaza":"","lat":35.360685,"lng":136.633567,"zip":"5030822"},{"town":"草道島町","koaza":"","lat":35.39926,"lng":136.590105,"zip":"5032201"},{"town":"外野一丁目","koaza":"","lat":35.336612,"lng":136.606878,"zip":"5030933"},{"town":"外野二丁目","koaza":"","lat":35.337385,"lng":136.613263,"zip":"5030933"},{"town":"外野三丁目","koaza":"","lat":35.334934,"lng":136.612,"zip":"5030933"},{"town":"外野四丁目","koaza":"","lat":35.332938,"lng":136.611189,"zip":"5030933"},{"town":"外野町","koaza":"","lat":35.338348,"lng":136.614351,"zip":"5030951"},{"town":"曽根町","koaza":"","lat":35.399791,"lng":136.621316,"zip":"5030011"},{"town":"曽根町一丁目","koaza":"","lat":35.402568,"lng":136.618079,"zip":"5030011"},{"town":"曽根町二丁目","koaza":"","lat":35.403092,"lng":136.612521,"zip":"5030011"},{"town":"曽根町三丁目","koaza":"","lat":35.399355,"lng":136.618513,"zip":"5030011"},{"town":"曽根町四丁目","koaza":"","lat":35.402541,"lng":136.622718,"zip":"5030011"},{"town":"外渕一丁目","koaza":"","lat":35.325355,"lng":136.613115,"zip":"5030934"},{"town":"外渕二丁目","koaza":"","lat":35.328364,"lng":136.615114,"zip":"5030934"},{"town":"外渕三丁目","koaza":"","lat":35.334314,"lng":136.61553,"zip":"5030934"},{"town":"外渕四丁目","koaza":"","lat":35.327564,"lng":136.622179,"zip":"5030934"},{"town":"代官町","koaza":"","lat":35.361362,"lng":136.62283,"zip":"5030895"},{"town":"高砂町一丁目","koaza":"","lat":35.363667,"lng":136.615824,"zip":"5030889"},{"town":"高砂町二丁目","koaza":"","lat":35.363,"lng":136.615872,"zip":"5030889"},{"town":"鷹匠町","koaza":"","lat":35.359691,"lng":136.61139,"zip":"5030913"},{"town":"高橋町一丁目","koaza":"","lat":35.362623,"lng":136.623583,"zip":"5030896"},{"town":"高橋町二丁目","koaza":"","lat":35.362637,"lng":136.623206,"zip":"5030896"},{"town":"高橋町三丁目","koaza":"","lat":35.362612,"lng":136.62285,"zip":"5030896"},{"town":"高橋町四丁目","koaza":"","lat":35.362639,"lng":136.62249,"zip":"5030896"},{"town":"高橋町五丁目","koaza":"","lat":35.362504,"lng":136.622097,"zip":"5030896"},{"town":"高渕一丁目","koaza":"","lat":35.307929,"lng":136.598115,"zip":"5030958"},{"town":"高渕二丁目","koaza":"","lat":35.304767,"lng":136.597307,"zip":"5030958"},{"town":"高渕三丁目","koaza":"","lat":35.309693,"lng":136.600986,"zip":"5030958"},{"town":"高渕四丁目","koaza":"","lat":35.303687,"lng":136.599,"zip":"5030958"},{"town":"高渕町","koaza":"","lat":35.307854,"lng":136.597071,"zip":"5030959"},{"town":"高屋町一丁目","koaza":"","lat":35.366089,"lng":136.617085,"zip":"5030901"},{"town":"高屋町二丁目","koaza":"","lat":35.366697,"lng":136.619118,"zip":"5030901"},{"town":"高屋町三丁目","koaza":"","lat":35.36528,"lng":136.618986,"zip":"5030901"},{"town":"高屋町四丁目","koaza":"","lat":35.364631,"lng":136.618984,"zip":"5030901"},{"town":"多芸島一丁目","koaza":"","lat":35.333993,"lng":136.598636,"zip":"5030965"},{"town":"多芸島二丁目","koaza":"","lat":35.33016,"lng":136.593607,"zip":"5030965"},{"town":"多芸島三丁目","koaza":"","lat":35.327154,"lng":136.593422,"zip":"5030965"},{"town":"多芸島四丁目","koaza":"","lat":35.324778,"lng":136.594718,"zip":"5030965"},{"town":"田口町","koaza":"","lat":35.346759,"lng":136.62495,"zip":"5030853"},{"town":"竹島町","koaza":"","lat":35.358357,"lng":136.617775,"zip":"5030878"},{"town":"橘町一丁目","koaza":"","lat":35.36313,"lng":136.626846,"zip":"5030892"},{"town":"橘町二丁目","koaza":"","lat":35.362285,"lng":136.626867,"zip":"5030892"},{"town":"橘町三丁目","koaza":"","lat":35.361541,"lng":136.626728,"zip":"5030892"},{"town":"橘町四丁目","koaza":"","lat":35.360468,"lng":136.626537,"zip":"5030892"},{"town":"田町一丁目","koaza":"","lat":35.357435,"lng":136.618811,"zip":"5030875"},{"town":"田町二丁目","koaza":"","lat":35.357156,"lng":136.618099,"zip":"5030875"},{"town":"田町三丁目","koaza":"","lat":35.356914,"lng":136.6181,"zip":"5030875"},{"town":"田町四丁目","koaza":"","lat":35.356459,"lng":136.618915,"zip":"5030875"},{"town":"俵町","koaza":"","lat":35.357859,"lng":136.614638,"zip":"5030876"},{"town":"千鳥町一丁目","koaza":"","lat":35.363064,"lng":136.627609,"zip":"5030891"},{"town":"千鳥町二丁目","koaza":"","lat":35.362252,"lng":136.627585,"zip":"5030891"},{"town":"千鳥町三丁目","koaza":"","lat":35.361474,"lng":136.627418,"zip":"5030891"},{"town":"千鳥町四丁目","koaza":"","lat":35.360592,"lng":136.627382,"zip":"5030891"},{"town":"築捨町一丁目","koaza":"","lat":35.340633,"lng":136.625835,"zip":"5030854"},{"town":"築捨町二丁目","koaza":"","lat":35.340326,"lng":136.62266,"zip":"5030854"},{"town":"築捨町三丁目","koaza":"","lat":35.34099,"lng":136.620093,"zip":"5030854"},{"town":"築捨町四丁目","koaza":"","lat":35.333478,"lng":136.62235,"zip":"5030854"},{"town":"築捨町五丁目","koaza":"","lat":35.334918,"lng":136.619183,"zip":"5030854"},{"town":"津村町一丁目","koaza":"","lat":35.384219,"lng":136.642583,"zip":"5030003"},{"town":"津村町二丁目","koaza":"","lat":35.382001,"lng":136.645417,"zip":"5030003"},{"town":"津村町三丁目","koaza":"","lat":35.380801,"lng":136.648195,"zip":"5030003"},{"town":"津村町四丁目","koaza":"","lat":35.380272,"lng":136.651712,"zip":"5030003"},{"town":"津村町五丁目","koaza":"","lat":35.378099,"lng":136.64672,"zip":"5030003"},{"town":"鶴見町","koaza":"","lat":35.360946,"lng":136.638651,"zip":"5030805"},{"town":"伝馬町","koaza":"","lat":35.363548,"lng":136.622374,"zip":"5030897"},{"town":"問屋町","koaza":"","lat":35.331013,"lng":136.618906,"zip":"5030855"},{"town":"外花一丁目","koaza":"","lat":35.335759,"lng":136.602778,"zip":"5030954"},{"town":"外花二丁目","koaza":"","lat":35.332371,"lng":136.602474,"zip":"5030954"},{"town":"外花三丁目","koaza":"","lat":35.333347,"lng":136.606787,"zip":"5030954"},{"town":"外花四丁目","koaza":"","lat":35.330574,"lng":136.605876,"zip":"5030954"},{"town":"外花五丁目","koaza":"","lat":35.328208,"lng":136.605945,"zip":"5030954"},{"town":"外花六丁目","koaza":"","lat":35.329096,"lng":136.609334,"zip":"5030954"},{"town":"友江一丁目","koaza":"","lat":35.327172,"lng":136.602771,"zip":"5030955"},{"town":"友江二丁目","koaza":"","lat":35.324975,"lng":136.602573,"zip":"5030955"},{"town":"長井町","koaza":"","lat":35.356652,"lng":136.633397,"zip":"5030839"},{"town":"中川町一丁目","koaza":"","lat":35.379861,"lng":136.615568,"zip":"5030017"},{"town":"中川町二丁目","koaza":"","lat":35.383359,"lng":136.614722,"zip":"5030017"},{"town":"中川町三丁目","koaza":"","lat":35.379677,"lng":136.620195,"zip":"5030017"},{"town":"中川町四丁目","koaza":"","lat":35.38293,"lng":136.619787,"zip":"5030017"},{"town":"長沢町十丁目","koaza":"","lat":35.349432,"lng":136.64104,"zip":"5030833"},{"town":"長沢町一丁目","koaza":"","lat":35.357521,"lng":136.639578,"zip":"5030833"},{"town":"長沢町二丁目","koaza":"","lat":35.35576,"lng":136.637992,"zip":"5030833"},{"town":"長沢町三丁目","koaza":"","lat":35.356414,"lng":136.640792,"zip":"5030833"},{"town":"長沢町四丁目","koaza":"","lat":35.356482,"lng":136.642809,"zip":"5030833"},{"town":"長沢町五丁目","koaza":"","lat":35.353832,"lng":136.642673,"zip":"5030833"},{"town":"長沢町六丁目","koaza":"","lat":35.353654,"lng":136.638753,"zip":"5030833"},{"town":"長沢町七丁目","koaza":"","lat":35.353635,"lng":136.640934,"zip":"5030833"},{"town":"長沢町八丁目","koaza":"","lat":35.351672,"lng":136.639416,"zip":"5030833"},{"town":"長沢町九丁目","koaza":"","lat":35.351746,"lng":136.641538,"zip":"5030833"},{"town":"中曽根町","koaza":"","lat":35.35675,"lng":136.579918,"zip":"5030986"},{"town":"中ノ江一丁目","koaza":"","lat":35.365692,"lng":136.644804,"zip":"5030804"},{"town":"中ノ江二丁目","koaza":"","lat":35.365991,"lng":136.643266,"zip":"5030804"},{"town":"中ノ江三丁目","koaza":"","lat":35.364295,"lng":136.643434,"zip":"5030804"},{"town":"中野町一丁目","koaza":"","lat":35.377484,"lng":136.609585,"zip":"5030022"},{"town":"中野町二丁目","koaza":"","lat":35.380339,"lng":136.60708,"zip":"5030022"},{"town":"中野町三丁目","koaza":"","lat":35.384022,"lng":136.606956,"zip":"5030022"},{"town":"中野町四丁目","koaza":"","lat":35.384094,"lng":136.609297,"zip":"5030022"},{"town":"中野町五丁目","koaza":"","lat":35.380532,"lng":136.610401,"zip":"5030022"},{"town":"中町","koaza":"","lat":35.36181,"lng":136.619934,"zip":"5030884"},{"town":"長松町","koaza":"","lat":35.367962,"lng":136.565247,"zip":"5030997"},{"town":"難波野町","koaza":"","lat":35.317908,"lng":136.635349,"zip":"5030844"},{"town":"西大外羽一丁目","koaza":"","lat":35.320307,"lng":136.595505,"zip":"5030963"},{"town":"西大外羽二丁目","koaza":"","lat":35.319374,"lng":136.598124,"zip":"5030963"},{"town":"西大外羽三丁目","koaza":"","lat":35.315235,"lng":136.596184,"zip":"5030963"},{"town":"西大外羽四丁目","koaza":"","lat":35.315356,"lng":136.600616,"zip":"5030963"},{"town":"錦町","koaza":"","lat":35.366413,"lng":136.621091,"zip":"5030899"},{"town":"西崎町一丁目","koaza":"","lat":35.362568,"lng":136.608201,"zip":"5030918"},{"town":"西崎町二丁目","koaza":"","lat":35.361354,"lng":136.608522,"zip":"5030918"},{"town":"西崎町三丁目","koaza":"","lat":35.36405,"lng":136.605335,"zip":"5030918"},{"town":"西崎町四丁目","koaza":"","lat":35.362352,"lng":136.605791,"zip":"5030918"},{"town":"西外側町一丁目","koaza":"","lat":35.362715,"lng":136.611927,"zip":"5030908"},{"town":"西外側町二丁目","koaza":"","lat":35.358993,"lng":136.611367,"zip":"5030908"},{"town":"西長町","koaza":"","lat":35.359353,"lng":136.610546,"zip":"5030914"},{"town":"西之川町一丁目","koaza":"","lat":35.388162,"lng":136.610547,"zip":"5030018"},{"town":"西之川町二丁目","koaza":"","lat":35.388671,"lng":136.60682,"zip":"5030018"},{"town":"禾森一丁目","koaza":"","lat":35.351898,"lng":136.626931,"zip":"5030851"},{"town":"禾森町二丁目","koaza":"","lat":35.348618,"lng":136.624775,"zip":"5030852"},{"town":"禾森町三丁目","koaza":"","lat":35.351781,"lng":136.624739,"zip":"5030852"},{"town":"禾森町四丁目","koaza":"","lat":35.352692,"lng":136.62182,"zip":"5030852"},{"town":"禾森町五丁目","koaza":"","lat":35.350201,"lng":136.621153,"zip":"5030852"},{"town":"禾森町六丁目","koaza":"","lat":35.347733,"lng":136.620385,"zip":"5030852"},{"town":"野口一丁目","koaza":"","lat":35.334452,"lng":136.591842,"zip":"5030985"},{"town":"野口二丁目","koaza":"","lat":35.337181,"lng":136.590948,"zip":"5030985"},{"town":"野口三丁目","koaza":"","lat":35.33537,"lng":136.585065,"zip":"5030985"},{"town":"野口町","koaza":"","lat":35.334081,"lng":136.596598,"zip":"5030000"},{"town":"羽衣町一丁目","koaza":"","lat":35.357675,"lng":136.624549,"zip":"5030861"},{"town":"羽衣町二丁目","koaza":"","lat":35.357694,"lng":136.625619,"zip":"5030861"},{"town":"羽衣町三丁目","koaza":"","lat":35.357677,"lng":136.627081,"zip":"5030861"},{"town":"羽衣町四丁目","koaza":"","lat":35.357594,"lng":136.628604,"zip":"5030861"},{"town":"羽衣町五丁目","koaza":"","lat":35.357593,"lng":136.629762,"zip":"5030861"},{"town":"羽衣町六丁目","koaza":"","lat":35.357622,"lng":136.631084,"zip":"5030861"},{"town":"羽衣町七丁目","koaza":"","lat":35.357655,"lng":136.632525,"zip":"5030861"},{"town":"羽衣町八丁目","koaza":"","lat":35.357745,"lng":136.633803,"zip":"5030861"},{"town":"波須一丁目","koaza":"","lat":35.364999,"lng":136.6544,"zip":"5030811"},{"town":"波須二丁目","koaza":"","lat":35.365242,"lng":136.649535,"zip":"5030811"},{"town":"波須三丁目","koaza":"","lat":35.365106,"lng":136.646448,"zip":"5030811"},{"town":"鳩部屋町","koaza":"","lat":35.363062,"lng":136.610053,"zip":"5030912"},{"town":"花園町一丁目","koaza":"","lat":35.358828,"lng":136.624674,"zip":"5030825"},{"town":"花園町二丁目","koaza":"","lat":35.358904,"lng":136.625663,"zip":"5030825"},{"town":"花園町三丁目","koaza":"","lat":35.358929,"lng":136.626978,"zip":"5030825"},{"town":"花園町四丁目","koaza":"","lat":35.358974,"lng":136.628576,"zip":"5030825"},{"town":"花園町五丁目","koaza":"","lat":35.358999,"lng":136.629723,"zip":"5030825"},{"town":"花園町六丁目","koaza":"","lat":35.359049,"lng":136.630996,"zip":"5030825"},{"town":"花園町七丁目","koaza":"","lat":35.359122,"lng":136.632393,"zip":"5030825"},{"town":"花園町八丁目","koaza":"","lat":35.359192,"lng":136.633685,"zip":"5030825"},{"town":"馬場町","koaza":"","lat":35.357178,"lng":136.610668,"zip":"5030922"},{"town":"林町十丁目","koaza":"","lat":35.376803,"lng":136.618379,"zip":"5030015"},{"town":"林町一丁目","koaza":"","lat":35.368161,"lng":136.62414,"zip":"5030015"},{"town":"林町二丁目","koaza":"","lat":35.368318,"lng":136.621129,"zip":"5030015"},{"town":"林町三丁目","koaza":"","lat":35.370105,"lng":136.623741,"zip":"5030015"},{"town":"林町四丁目","koaza":"","lat":35.369328,"lng":136.620241,"zip":"5030015"},{"town":"林町五丁目","koaza":"","lat":35.369536,"lng":136.619165,"zip":"5030015"},{"town":"林町六丁目","koaza":"","lat":35.371139,"lng":136.616446,"zip":"5030015"},{"town":"林町七丁目","koaza":"","lat":35.374181,"lng":136.624748,"zip":"5030015"},{"town":"林町八丁目","koaza":"","lat":35.373233,"lng":136.620215,"zip":"5030015"},{"town":"林町九丁目","koaza":"","lat":35.376797,"lng":136.621105,"zip":"5030015"},{"town":"番組町一丁目","koaza":"","lat":35.363107,"lng":136.610826,"zip":"5030907"},{"town":"番組町二丁目","koaza":"","lat":35.361566,"lng":136.610644,"zip":"5030907"},{"town":"東外側町一丁目","koaza":"","lat":35.363491,"lng":136.618477,"zip":"5030903"},{"town":"東外側町二丁目","koaza":"","lat":35.363992,"lng":136.614598,"zip":"5030903"},{"town":"東長町","koaza":"","lat":35.36164,"lng":136.621536,"zip":"5030882"},{"town":"東前一丁目","koaza":"","lat":35.351853,"lng":136.629101,"zip":"5030835"},{"town":"東前二丁目","koaza":"","lat":35.351718,"lng":136.632513,"zip":"5030835"},{"town":"東前三丁目","koaza":"","lat":35.348721,"lng":136.635377,"zip":"5030835"},{"town":"東前四丁目","koaza":"","lat":35.346093,"lng":136.635651,"zip":"5030835"},{"town":"東前五丁目","koaza":"","lat":35.344508,"lng":136.635267,"zip":"5030835"},{"town":"東前町","koaza":"","lat":35.34652,"lng":136.639121,"zip":"5030849"},{"town":"桧町","koaza":"","lat":35.365526,"lng":136.586525,"zip":"5030981"},{"town":"日の出町一丁目","koaza":"","lat":35.359213,"lng":136.604289,"zip":"5030916"},{"town":"日の出町二丁目","koaza":"","lat":35.357362,"lng":136.605066,"zip":"5030916"},{"town":"平町","koaza":"","lat":35.343082,"lng":136.647473,"zip":"5030141"},{"town":"昼飯町","koaza":"","lat":35.388822,"lng":136.569952,"zip":"5032216"},{"town":"深池町","koaza":"","lat":35.327417,"lng":136.631458,"zip":"5030846"},{"town":"福田町","koaza":"","lat":35.376315,"lng":136.591577,"zip":"5030033"},{"town":"藤江町一丁目","koaza":"","lat":35.365831,"lng":136.62649,"zip":"5030893"},{"town":"藤江町二丁目","koaza":"","lat":35.365615,"lng":136.624122,"zip":"5030893"},{"town":"藤江町三丁目","koaza":"","lat":35.363502,"lng":136.625755,"zip":"5030893"},{"town":"藤江町四丁目","koaza":"","lat":35.360338,"lng":136.625971,"zip":"5030893"},{"town":"藤江町五丁目","koaza":"","lat":35.361656,"lng":136.625851,"zip":"5030893"},{"town":"藤江町六丁目","koaza":"","lat":35.362515,"lng":136.624524,"zip":"5030893"},{"town":"藤江町七丁目","koaza":"","lat":35.360302,"lng":136.624824,"zip":"5030893"},{"town":"二葉町一丁目","koaza":"","lat":35.35712,"lng":136.624355,"zip":"5030862"},{"town":"二葉町二丁目","koaza":"","lat":35.357105,"lng":136.625543,"zip":"5030862"},{"town":"二葉町三丁目","koaza":"","lat":35.35712,"lng":136.627049,"zip":"5030862"},{"town":"二葉町四丁目","koaza":"","lat":35.357072,"lng":136.628617,"zip":"5030862"},{"town":"二葉町五丁目","koaza":"","lat":35.357098,"lng":136.629832,"zip":"5030862"},{"town":"二葉町六丁目","koaza":"","lat":35.357026,"lng":136.631126,"zip":"5030862"},{"town":"二葉町七丁目","koaza":"","lat":35.357155,"lng":136.632569,"zip":"5030862"},{"town":"二葉町八丁目","koaza":"","lat":35.357212,"lng":136.633846,"zip":"5030862"},{"town":"船町一丁目","koaza":"","lat":35.356187,"lng":136.612905,"zip":"5030923"},{"town":"船町二丁目","koaza":"","lat":35.35661,"lng":136.612072,"zip":"5030923"},{"town":"船町三丁目","koaza":"","lat":35.354484,"lng":136.612214,"zip":"5030923"},{"town":"船町四丁目","koaza":"","lat":35.355623,"lng":136.611455,"zip":"5030923"},{"town":"船町五丁目","koaza":"","lat":35.355339,"lng":136.609404,"zip":"5030923"},{"town":"船町六丁目","koaza":"","lat":35.355385,"lng":136.607818,"zip":"5030923"},{"town":"船町七丁目","koaza":"","lat":35.355711,"lng":136.606334,"zip":"5030923"},{"town":"古宮町","koaza":"","lat":35.338267,"lng":136.632945,"zip":"5030848"},{"town":"宝和町","koaza":"","lat":35.369463,"lng":136.598368,"zip":"5030972"},{"town":"本町一丁目","koaza":"","lat":35.362087,"lng":136.619165,"zip":"5030885"},{"town":"本町二丁目","koaza":"","lat":35.359823,"lng":136.619191,"zip":"5030885"},{"town":"牧新田町","koaza":"","lat":35.320973,"lng":136.630597,"zip":"5030845"},{"town":"牧野町一丁目","koaza":"","lat":35.382267,"lng":136.579699,"zip":"5030031"},{"town":"牧野町二丁目","koaza":"","lat":35.382998,"lng":136.57802,"zip":"5030031"},{"town":"牧野町三丁目","koaza":"","lat":35.384258,"lng":136.576398,"zip":"5030031"},{"town":"牧野町四丁目","koaza":"","lat":35.381534,"lng":136.576372,"zip":"5030031"},{"town":"丸の内一丁目","koaza":"","lat":35.362844,"lng":136.613784,"zip":"5030888"},{"town":"丸の内二丁目","koaza":"","lat":35.360439,"lng":136.613327,"zip":"5030888"},{"town":"万石一丁目","koaza":"","lat":35.362313,"lng":136.6547,"zip":"5030812"},{"town":"万石二丁目","koaza":"","lat":35.361992,"lng":136.650797,"zip":"5030812"},{"town":"万石三丁目","koaza":"","lat":35.361781,"lng":136.64878,"zip":"5030812"},{"town":"三塚町","koaza":"","lat":35.367384,"lng":136.630468,"zip":"5030808"},{"town":"三津屋町一丁目","koaza":"","lat":35.390171,"lng":136.613256,"zip":"5030012"},{"town":"三津屋町二丁目","koaza":"","lat":35.390486,"lng":136.617896,"zip":"5030012"},{"town":"三津屋町三丁目","koaza":"","lat":35.391454,"lng":136.61487,"zip":"5030012"},{"town":"三津屋町四丁目","koaza":"","lat":35.392239,"lng":136.612667,"zip":"5030012"},{"town":"三津屋町五丁目","koaza":"","lat":35.392313,"lng":136.619196,"zip":"5030012"},{"town":"緑園","koaza":"","lat":35.36133,"lng":136.632298,"zip":"5030806"},{"town":"見取町一丁目","koaza":"","lat":35.371774,"lng":136.613281,"zip":"5030025"},{"town":"見取町二丁目","koaza":"","lat":35.368949,"lng":136.613117,"zip":"5030025"},{"town":"見取町三丁目","koaza":"","lat":35.366659,"lng":136.613001,"zip":"5030025"},{"town":"見取町四丁目","koaza":"","lat":35.366622,"lng":136.614863,"zip":"5030025"},{"town":"南市橋町","koaza":"","lat":35.402714,"lng":136.583802,"zip":"5032211"},{"town":"南一色町","koaza":"","lat":35.371168,"lng":136.603169,"zip":"5030971"},{"town":"南切石町一丁目","koaza":"","lat":35.354524,"lng":136.610896,"zip":"5030925"},{"town":"南切石町二丁目","koaza":"","lat":35.354883,"lng":136.608015,"zip":"5030925"},{"town":"南高橋町一丁目","koaza":"","lat":35.359951,"lng":136.62275,"zip":"5030873"},{"town":"南高橋町二丁目","koaza":"","lat":35.359028,"lng":136.622954,"zip":"5030873"},{"town":"南高橋町三丁目","koaza":"","lat":35.358002,"lng":136.622828,"zip":"5030873"},{"town":"南頬町一丁目","koaza":"","lat":35.355922,"lng":136.623574,"zip":"5030864"},{"town":"南頬町二丁目","koaza":"","lat":35.355884,"lng":136.622251,"zip":"5030864"},{"town":"南頬町三丁目","koaza":"","lat":35.355926,"lng":136.620206,"zip":"5030864"},{"town":"南頬町四丁目","koaza":"","lat":35.354879,"lng":136.620914,"zip":"5030864"},{"town":"南頬町五丁目","koaza":"","lat":35.355194,"lng":136.626933,"zip":"5030864"},{"town":"南若森四丁目","koaza":"","lat":35.34962,"lng":136.599099,"zip":"5030977"},{"town":"南若森五丁目","koaza":"","lat":35.349454,"lng":136.602539,"zip":"5030977"},{"town":"南若森六丁目","koaza":"","lat":35.349419,"lng":136.604059,"zip":"5030977"},{"town":"南若森町","koaza":"","lat":35.352418,"lng":136.602593,"zip":"5030976"},{"town":"南若森町一丁目","koaza":"","lat":35.353793,"lng":136.59825,"zip":"5030976"},{"town":"南若森町二丁目","koaza":"","lat":35.354802,"lng":136.600407,"zip":"5030976"},{"town":"南若森町三丁目","koaza":"","lat":35.354647,"lng":136.601696,"zip":"5030976"},{"town":"宮町一丁目","koaza":"","lat":35.365573,"lng":136.61493,"zip":"5030905"},{"town":"宮町二丁目","koaza":"","lat":35.365467,"lng":136.612152,"zip":"5030905"},{"town":"美和町","koaza":"","lat":35.350964,"lng":136.617235,"zip":"5030857"},{"town":"室本町一丁目","koaza":"","lat":35.366687,"lng":136.610808,"zip":"5030911"},{"town":"室本町二丁目","koaza":"","lat":35.365877,"lng":136.610605,"zip":"5030911"},{"town":"室本町三丁目","koaza":"","lat":35.364428,"lng":136.609773,"zip":"5030911"},{"town":"室本町四丁目","koaza":"","lat":35.366438,"lng":136.608231,"zip":"5030911"},{"town":"室本町五丁目","koaza":"","lat":35.364524,"lng":136.607936,"zip":"5030911"},{"town":"室町一丁目","koaza":"","lat":35.364131,"lng":136.612042,"zip":"5030906"},{"town":"室町二丁目","koaza":"","lat":35.364142,"lng":136.611119,"zip":"5030906"},{"town":"室村町一丁目","koaza":"","lat":35.374355,"lng":136.610886,"zip":"5030026"},{"town":"室村町二丁目","koaza":"","lat":35.372128,"lng":136.610932,"zip":"5030026"},{"town":"室村町三丁目","koaza":"","lat":35.369878,"lng":136.610241,"zip":"5030026"},{"town":"室村町四丁目","koaza":"","lat":35.368615,"lng":136.608446,"zip":"5030026"},{"town":"本今一丁目","koaza":"","lat":35.351993,"lng":136.60758,"zip":"5030931"},{"town":"本今二丁目","koaza":"","lat":35.352222,"lng":136.608777,"zip":"5030931"},{"town":"本今三丁目","koaza":"","lat":35.34899,"lng":136.607823,"zip":"5030931"},{"town":"本今四丁目","koaza":"","lat":35.345225,"lng":136.608743,"zip":"5030931"},{"town":"本今五丁目","koaza":"","lat":35.345042,"lng":136.612648,"zip":"5030931"},{"town":"本今六丁目","koaza":"","lat":35.341814,"lng":136.611041,"zip":"5030931"},{"town":"本今町","koaza":"","lat":35.345387,"lng":136.616025,"zip":"5030932"},{"town":"八島町","koaza":"","lat":35.375403,"lng":136.614898,"zip":"5030016"},{"town":"安井町一丁目","koaza":"","lat":35.355305,"lng":136.628081,"zip":"5030837"},{"town":"安井町二丁目","koaza":"","lat":35.355184,"lng":136.629275,"zip":"5030837"},{"town":"安井町三丁目","koaza":"","lat":35.355011,"lng":136.630349,"zip":"5030837"},{"town":"安井町四丁目","koaza":"","lat":35.354856,"lng":136.631215,"zip":"5030837"},{"town":"安井町五丁目","koaza":"","lat":35.355001,"lng":136.63209,"zip":"5030837"},{"town":"安井町六丁目","koaza":"","lat":35.353784,"lng":136.633272,"zip":"5030837"},{"town":"安井町七丁目","koaza":"","lat":35.353625,"lng":136.634212,"zip":"5030837"},{"town":"矢道町一丁目","koaza":"","lat":35.371932,"lng":136.561379,"zip":"5032223"},{"town":"矢道町二丁目","koaza":"","lat":35.374463,"lng":136.560693,"zip":"5032223"},{"town":"矢道町三丁目","koaza":"","lat":35.376335,"lng":136.560598,"zip":"5032223"},{"town":"横曽根一丁目","koaza":"","lat":35.301064,"lng":136.605734,"zip":"5030944"},{"town":"横曽根二丁目","koaza":"","lat":35.29976,"lng":136.608846,"zip":"5030944"},{"town":"横曽根三丁目","koaza":"","lat":35.299494,"lng":136.612651,"zip":"5030944"},{"town":"横曽根四丁目","koaza":"","lat":35.299498,"lng":136.6162,"zip":"5030944"},{"town":"横曽根五丁目","koaza":"","lat":35.30564,"lng":136.6184,"zip":"5030944"},{"town":"横曽根町","koaza":"","lat":35.295211,"lng":136.613271,"zip":"5030943"},{"town":"榎戸町一丁目","koaza":"","lat":35.37804,"lng":136.561695,"zip":"5032222"},{"town":"榎戸町二丁目","koaza":"","lat":35.381011,"lng":136.56084,"zip":"5032222"},{"town":"榎戸町三丁目","koaza":"","lat":35.381038,"lng":136.564197,"zip":"5032222"},{"town":"世安町一丁目","koaza":"","lat":35.353382,"lng":136.613545,"zip":"5030858"},{"town":"世安町二丁目","koaza":"","lat":35.350485,"lng":136.613565,"zip":"5030858"},{"town":"世安町三丁目","koaza":"","lat":35.346987,"lng":136.615059,"zip":"5030858"},{"town":"世安町四丁目","koaza":"","lat":35.347357,"lng":136.616968,"zip":"5030858"},{"town":"領家町一丁目","koaza":"","lat":35.38722,"lng":136.615127,"zip":"5030014"},{"town":"領家町二丁目","koaza":"","lat":35.387405,"lng":136.618137,"zip":"5030014"},{"town":"領家町三丁目","koaza":"","lat":35.3873,"lng":136.620655,"zip":"5030014"},{"town":"若森町一丁目","koaza":"","lat":35.355573,"lng":136.604714,"zip":"5030975"},{"town":"若森町二丁目","koaza":"","lat":35.356118,"lng":136.602362,"zip":"5030975"},{"town":"若森町三丁目","koaza":"","lat":35.356687,"lng":136.600066,"zip":"5030975"},{"town":"若森町四丁目","koaza":"","lat":35.356288,"lng":136.597698,"zip":"5030975"},{"town":"和合新町","koaza":"","lat":35.374838,"lng":136.655266,"zip":"5030801"},{"town":"和合新町一丁目","koaza":"","lat":35.374511,"lng":136.652182,"zip":"5030801"},{"town":"和合新町二丁目","koaza":"","lat":35.374045,"lng":136.648912,"zip":"5030801"},{"town":"和合本町一丁目","koaza":"","lat":35.37503,"lng":136.642218,"zip":"5030005"},{"town":"和合本町二丁目","koaza":"","lat":35.373156,"lng":136.645247,"zip":"5030005"},{"town":"割田一丁目","koaza":"","lat":35.339402,"lng":136.601575,"zip":"5030953"},{"town":"割田二丁目","koaza":"","lat":35.339835,"lng":136.60564,"zip":"5030953"},{"town":"割田三丁目","koaza":"","lat":35.340547,"lng":136.608713,"zip":"5030953"},{"town":"割田町","koaza":"","lat":35.343168,"lng":136.607013,"zip":"5030952"},{"town":"長松町","koaza":"鼠原","lat":35.366676,"lng":136.563776,"zip":"5030997"},{"town":"長松町","koaza":"石田","lat":35.368416,"lng":136.565588,"zip":"5030997"},{"town":"長松町","koaza":"高西","lat":35.36519,"lng":136.565365,"zip":"5030997"},{"town":"長松町","koaza":"小柳","lat":35.363111,"lng":136.568087,"zip":"5030997"},{"town":"中曽根町","koaza":"大畔","lat":35.355796,"lng":136.576194,"zip":"5030986"},{"town":"福田町","koaza":"丸内","lat":35.379204,"lng":136.588328,"zip":"5030033"},{"town":"本今町","koaza":"西ノ側","lat":35.339598,"lng":136.612973,"zip":"5030932"},{"town":"三塚町","koaza":"丹瀬","lat":35.365884,"lng":136.629564,"zip":"5030808"},{"town":"犬ヶ渕町","koaza":"宮岸","lat":35.354071,"lng":136.635442,"zip":"5030000"},{"town":"鶴見町","koaza":"上渡瀬","lat":35.359067,"lng":136.641972,"zip":"5030805"}]