[{"town":"大字芦倉","koaza":"","lat":36.341283,"lng":136.919633,"zip":"5015600"},{"town":"大字飯島","koaza":"","lat":36.277647,"lng":136.877383,"zip":"5015600"},{"town":"大字有家ケ原","koaza":"","lat":36.320229,"lng":136.928069,"zip":"5015600"},{"town":"大字牛首","koaza":"","lat":36.299602,"lng":136.953701,"zip":"5015600"},{"town":"大字内ケ戸","koaza":"","lat":36.298586,"lng":136.915419,"zip":"5015600"},{"town":"大字大窪","koaza":"","lat":36.247012,"lng":136.872176,"zip":"5015600"},{"town":"大字大牧","koaza":"","lat":36.238385,"lng":136.885761,"zip":"5015600"},{"town":"大字尾神","koaza":"","lat":36.110899,"lng":136.916952,"zip":"5015600"},{"town":"大字荻町","koaza":"","lat":36.252389,"lng":136.926082,"zip":"5015600"},{"town":"大字加須良","koaza":"","lat":36.30837,"lng":136.847189,"zip":"5015600"},{"town":"大字木谷","koaza":"","lat":36.20248,"lng":136.923301,"zip":"5015600"},{"town":"大字小白川","koaza":"","lat":36.349496,"lng":136.866603,"zip":"5015600"},{"town":"大字島","koaza":"","lat":36.282415,"lng":136.910441,"zip":"5015600"},{"town":"大字椿原","koaza":"","lat":36.310685,"lng":136.880035,"zip":"5015600"},{"town":"大字長瀬","koaza":"","lat":36.14858,"lng":136.924035,"zip":"5015600"},{"town":"大字野谷","koaza":"","lat":36.212636,"lng":136.844316,"zip":"5015600"},{"town":"大字鳩谷","koaza":"","lat":36.264596,"lng":136.895018,"zip":"5015600"},{"town":"大字平瀬","koaza":"","lat":36.14649,"lng":136.834165,"zip":"5015600"},{"town":"大字福島","koaza":"","lat":36.119378,"lng":136.88959,"zip":"5015600"},{"town":"大字保木脇","koaza":"","lat":36.202267,"lng":136.879482,"zip":"5015600"},{"town":"大字馬狩","koaza":"","lat":36.256811,"lng":136.862837,"zip":"5015600"},{"town":"大字牧","koaza":"","lat":36.141558,"lng":136.897464,"zip":"5015600"},{"town":"大字御母衣","koaza":"","lat":36.157818,"lng":136.900305,"zip":"5015600"}]