[{"town":"大藪","koaza":"","lat":35.293989,"lng":136.6606,"zip":"5030202"},{"town":"大吉新田","koaza":"","lat":35.269627,"lng":136.615877,"zip":"5030216"},{"town":"里","koaza":"","lat":35.301137,"lng":136.636511,"zip":"5030234"},{"town":"塩喰","koaza":"","lat":35.282799,"lng":136.617498,"zip":"5030236"},{"town":"下大榑","koaza":"","lat":35.273789,"lng":136.650513,"zip":"5030205"},{"town":"下大榑新田","koaza":"","lat":35.27422,"lng":136.638448,"zip":"5030206"},{"town":"中郷","koaza":"","lat":35.298877,"lng":136.643324,"zip":"5030233"},{"town":"中郷新田","koaza":"","lat":35.289589,"lng":136.636319,"zip":"5030212"},{"town":"南波","koaza":"","lat":35.307334,"lng":136.634698,"zip":"5030231"},{"town":"楡俣","koaza":"","lat":35.303799,"lng":136.656653,"zip":"5030201"},{"town":"楡俣新田","koaza":"","lat":35.299119,"lng":136.650242,"zip":"5030203"},{"town":"福束","koaza":"","lat":35.29642,"lng":136.623502,"zip":"5030235"},{"town":"福束新田","koaza":"","lat":35.287346,"lng":136.624363,"zip":"5030211"},{"town":"本戸","koaza":"","lat":35.30755,"lng":136.64549,"zip":"5030232"},{"town":"松内","koaza":"","lat":35.261805,"lng":136.621001,"zip":"5030215"},{"town":"海松新田","koaza":"","lat":35.271504,"lng":136.625647,"zip":"5030214"},{"town":"藻池新田","koaza":"","lat":35.280372,"lng":136.623085,"zip":"5030213"},{"town":"四郷","koaza":"","lat":35.287288,"lng":136.645303,"zip":"5030204"},{"town":"四郷","koaza":"新開","lat":35.293219,"lng":136.649063,"zip":"5030204"}]