[{"town":"大字和泉","koaza":"","lat":35.401219,"lng":136.59756,"zip":"5032300"},{"town":"大字落合","koaza":"","lat":35.406631,"lng":136.633307,"zip":"5032300"},{"town":"大字加納","koaza":"","lat":35.400626,"lng":136.605573,"zip":"5032300"},{"town":"大字川西","koaza":"","lat":35.413519,"lng":136.605457,"zip":"5032300"},{"town":"大字北一色","koaza":"","lat":35.431948,"lng":136.591261,"zip":"5032300"},{"town":"大字神戸","koaza":"","lat":35.419571,"lng":136.611026,"zip":"5032300"},{"town":"大字斉田","koaza":"","lat":35.396401,"lng":136.638796,"zip":"5032300"},{"town":"大字更屋敷","koaza":"","lat":35.41541,"lng":136.588685,"zip":"5032300"},{"town":"大字下宮","koaza":"","lat":35.412016,"lng":136.614356,"zip":"5032300"},{"town":"大字丈六道","koaza":"","lat":35.428152,"lng":136.611172,"zip":"5032300"},{"town":"大字新屋敷","koaza":"","lat":35.414584,"lng":136.623636,"zip":"5032300"},{"town":"大字末守","koaza":"","lat":35.421784,"lng":136.593349,"zip":"5032300"},{"town":"大字瀬古","koaza":"","lat":35.405535,"lng":136.620404,"zip":"5032300"},{"town":"大字田","koaza":"","lat":35.433884,"lng":136.600367,"zip":"5032300"},{"town":"大字付寄","koaza":"","lat":35.401579,"lng":136.632276,"zip":"5032300"},{"town":"大字中沢","koaza":"","lat":35.395538,"lng":136.603838,"zip":"5032300"},{"town":"大字西座倉","koaza":"","lat":35.422633,"lng":136.62531,"zip":"5032300"},{"town":"大字西保","koaza":"","lat":35.413392,"lng":136.595521,"zip":"5032300"},{"town":"大字八条","koaza":"","lat":35.407002,"lng":136.601874,"zip":"5032300"},{"town":"大字前田","koaza":"","lat":35.406947,"lng":136.608912,"zip":"5032300"},{"town":"大字南方","koaza":"","lat":35.405443,"lng":136.593213,"zip":"5032300"},{"town":"大字安次","koaza":"","lat":35.432087,"lng":136.606663,"zip":"5032300"},{"town":"大字柳瀬","koaza":"","lat":35.394561,"lng":136.629011,"zip":"5032300"},{"town":"大字横井","koaza":"","lat":35.442579,"lng":136.598417,"zip":"5032300"}]