[{"town":"大野","koaza":"","lat":35.325597,"lng":136.658055,"zip":"5030128"},{"town":"大森","koaza":"","lat":35.32675,"lng":136.67514,"zip":"5030116"},{"town":"北今ケ渕","koaza":"","lat":35.344089,"lng":136.668812,"zip":"5030113"},{"town":"氷取","koaza":"","lat":35.331871,"lng":136.665715,"zip":"5030121"},{"town":"城一丁目","koaza":"","lat":35.332625,"lng":136.658984,"zip":"5030127"},{"town":"城二丁目","koaza":"","lat":35.331843,"lng":136.658324,"zip":"5030127"},{"town":"城三丁目","koaza":"","lat":35.330271,"lng":136.658399,"zip":"5030127"},{"town":"城四丁目","koaza":"","lat":35.333081,"lng":136.657895,"zip":"5030127"},{"town":"善光","koaza":"","lat":35.32515,"lng":136.666418,"zip":"5030122"},{"town":"外善光","koaza":"","lat":35.324547,"lng":136.652145,"zip":"5030129"},{"town":"大明神","koaza":"","lat":35.336656,"lng":136.660453,"zip":"5030117"},{"town":"中","koaza":"","lat":35.314396,"lng":136.655054,"zip":"5030124"},{"town":"中須","koaza":"","lat":35.333244,"lng":136.65426,"zip":"5030126"},{"town":"西結","koaza":"","lat":35.362782,"lng":136.660773,"zip":"5030111"},{"town":"東結","koaza":"","lat":35.360834,"lng":136.668692,"zip":"5030112"},{"town":"宝江","koaza":"","lat":35.368982,"lng":136.668096,"zip":"5030118"},{"town":"牧","koaza":"","lat":35.324661,"lng":136.644456,"zip":"5030125"},{"town":"南今ケ渕","koaza":"","lat":35.339497,"lng":136.669113,"zip":"5030115"},{"town":"南條","koaza":"","lat":35.318925,"lng":136.661969,"zip":"5030123"},{"town":"森部","koaza":"","lat":35.335931,"lng":136.681203,"zip":"5030114"}]