[{"town":"相戸","koaza":"","lat":35.612147,"lng":136.78258,"zip":"5012252"},{"town":"青波","koaza":"","lat":35.57268,"lng":136.765804,"zip":"5012256"},{"town":"赤尾","koaza":"","lat":35.523756,"lng":136.773447,"zip":"5012111"},{"town":"伊佐美","koaza":"","lat":35.532438,"lng":136.781913,"zip":"5012102"},{"town":"岩佐","koaza":"","lat":35.545597,"lng":136.794728,"zip":"5012259"},{"town":"梅原","koaza":"","lat":35.516627,"lng":136.755161,"zip":"5012115"},{"town":"円原","koaza":"","lat":35.658809,"lng":136.744665,"zip":"5012302"},{"town":"大桑","koaza":"","lat":35.545287,"lng":136.759962,"zip":"5012101"},{"town":"大森","koaza":"","lat":35.523411,"lng":136.734078,"zip":"5012123"},{"town":"柿野","koaza":"","lat":35.632443,"lng":136.788077,"zip":"5012251"},{"town":"掛","koaza":"","lat":35.551999,"lng":136.723741,"zip":"5012132"},{"town":"片原","koaza":"","lat":35.626613,"lng":136.737879,"zip":"5012303"},{"town":"神崎","koaza":"","lat":35.669321,"lng":136.710746,"zip":"5012301"},{"town":"葛原","koaza":"","lat":35.602413,"lng":136.696362,"zip":"5012331"},{"town":"小倉","koaza":"","lat":35.52201,"lng":136.72377,"zip":"5012124"},{"town":"佐賀","koaza":"","lat":35.494032,"lng":136.777321,"zip":"5012114"},{"town":"笹賀","koaza":"","lat":35.591886,"lng":136.754896,"zip":"5012314"},{"town":"佐野","koaza":"","lat":35.5764,"lng":136.781882,"zip":"5012312"},{"town":"椎倉","koaza":"","lat":35.531314,"lng":136.800501,"zip":"5012103"},{"town":"上願","koaza":"","lat":35.545958,"lng":136.730274,"zip":"5012133"},{"town":"大門","koaza":"","lat":35.537161,"lng":136.733303,"zip":"5012121"},{"town":"高木","koaza":"","lat":35.503628,"lng":136.775262,"zip":"5012113"},{"town":"高富","koaza":"","lat":35.496399,"lng":136.793672,"zip":"5012105"},{"town":"田栗","koaza":"","lat":35.59887,"lng":136.749547,"zip":"5012315"},{"town":"谷合","koaza":"","lat":35.585583,"lng":136.747042,"zip":"5012321"},{"town":"椿","koaza":"","lat":35.61823,"lng":136.757526,"zip":"5012311"},{"town":"出戸","koaza":"","lat":35.594211,"lng":136.780163,"zip":"5012254"},{"town":"徳永","koaza":"","lat":35.589481,"lng":136.767184,"zip":"5012313"},{"town":"富永","koaza":"","lat":35.564177,"lng":136.785673,"zip":"5012257"},{"town":"長滝","koaza":"","lat":35.566094,"lng":136.698627,"zip":"5012135"},{"town":"中洞","koaza":"","lat":35.560297,"lng":136.808753,"zip":"5012258"},{"town":"西深瀬","koaza":"","lat":35.511919,"lng":136.77766,"zip":"5012112"},{"town":"東深瀬","koaza":"","lat":35.515181,"lng":136.800466,"zip":"5012104"},{"town":"日永","koaza":"","lat":35.608362,"lng":136.768785,"zip":"5012253"},{"town":"平井","koaza":"","lat":35.561461,"lng":136.722521,"zip":"5012131"},{"town":"藤倉","koaza":"","lat":35.530242,"lng":136.737626,"zip":"5012122"},{"town":"船越","koaza":"","lat":35.582275,"lng":136.785163,"zip":"5012255"},{"town":"洞田","koaza":"","lat":35.532425,"lng":136.71763,"zip":"5012125"},{"town":"松尾","koaza":"","lat":35.542636,"lng":136.711243,"zip":"5012134"},{"town":"高富","koaza":"宮前","lat":35.499926,"lng":136.788971,"zip":"5012105"},{"town":"西深瀬","koaza":"八京","lat":35.507966,"lng":136.77341,"zip":"5012112"}]