[{"town":"明智町","koaza":"","lat":35.298233,"lng":137.395775,"zip":"5097731"},{"town":"明智町阿妻","koaza":"","lat":35.276662,"lng":137.343942,"zip":"5097725"},{"town":"明智町大泉","koaza":"","lat":35.315553,"lng":137.370852,"zip":"5097721"},{"town":"明智町大田","koaza":"","lat":35.29562,"lng":137.361482,"zip":"5097723"},{"town":"明智町吉良見","koaza":"","lat":35.306072,"lng":137.343298,"zip":"5097726"},{"town":"明智町杉野","koaza":"","lat":35.320406,"lng":137.413602,"zip":"5097702"},{"town":"明智町野志","koaza":"","lat":35.324441,"lng":137.38527,"zip":"5097701"},{"town":"明智町東方","koaza":"","lat":35.305539,"lng":137.433447,"zip":"5097711"},{"town":"明智町横通","koaza":"","lat":35.273996,"lng":137.373826,"zip":"5097724"},{"town":"飯地町","koaza":"","lat":35.47727,"lng":137.282924,"zip":"5098232"},{"town":"岩村町","koaza":"","lat":35.360178,"lng":137.439259,"zip":"5097403"},{"town":"岩村町飯羽間","koaza":"","lat":35.391759,"lng":137.422479,"zip":"5097401"},{"town":"岩村町富田","koaza":"","lat":35.370624,"lng":137.45694,"zip":"5097402"},{"town":"大井町","koaza":"","lat":35.465488,"lng":137.412522,"zip":"5097201"},{"town":"長島町久須見","koaza":"","lat":35.461638,"lng":137.364627,"zip":"5097206"},{"town":"長島町正家","koaza":"","lat":35.432949,"lng":137.415627,"zip":"5097203"},{"town":"長島町正家一丁目","koaza":"","lat":35.449613,"lng":137.413612,"zip":"5097203"},{"town":"長島町正家二丁目","koaza":"","lat":35.448295,"lng":137.41494,"zip":"5097203"},{"town":"長島町正家三丁目","koaza":"","lat":35.447428,"lng":137.415572,"zip":"5097203"},{"town":"長島町永田","koaza":"","lat":35.432338,"lng":137.400234,"zip":"5097204"},{"town":"長島町中野","koaza":"","lat":35.448337,"lng":137.387154,"zip":"5097205"},{"town":"長島町中野一丁目","koaza":"","lat":35.450199,"lng":137.409065,"zip":"5097205"},{"town":"長島町中野二丁目","koaza":"","lat":35.448422,"lng":137.41025,"zip":"5097205"},{"town":"長島町中野三丁目","koaza":"","lat":35.446857,"lng":137.410503,"zip":"5097205"},{"town":"長島町鍋山","koaza":"","lat":35.419874,"lng":137.411275,"zip":"5097211"},{"town":"笠置町河合","koaza":"","lat":35.485141,"lng":137.325874,"zip":"5097207"},{"town":"笠置町毛呂窪","koaza":"","lat":35.49241,"lng":137.37555,"zip":"5097209"},{"town":"笠置町姫栗","koaza":"","lat":35.491962,"lng":137.350587,"zip":"5097208"},{"town":"上矢作町","koaza":"","lat":35.338911,"lng":137.534019,"zip":"5097521"},{"town":"上矢作町漆原","koaza":"","lat":35.297059,"lng":137.470696,"zip":"5097511"},{"town":"上矢作町小田子","koaza":"","lat":35.272271,"lng":137.507365,"zip":"5097513"},{"town":"上矢作町下","koaza":"","lat":35.270958,"lng":137.478992,"zip":"5097512"},{"town":"串原","koaza":"","lat":35.261422,"lng":137.422895,"zip":"5097831"},{"town":"武並町新竹折","koaza":"","lat":35.425414,"lng":137.344585,"zip":"5097126"},{"town":"武並町竹折","koaza":"","lat":35.433353,"lng":137.361421,"zip":"5097122"},{"town":"武並町藤","koaza":"","lat":35.457887,"lng":137.319757,"zip":"5097121"},{"town":"中野方町","koaza":"","lat":35.520461,"lng":137.313362,"zip":"5098231"},{"town":"東野","koaza":"","lat":35.438343,"lng":137.462145,"zip":"5097202"},{"town":"三郷町佐々良木","koaza":"","lat":35.402753,"lng":137.35691,"zip":"5097124"},{"town":"三郷町野井","koaza":"","lat":35.41487,"lng":137.385604,"zip":"5097123"},{"town":"三郷町椋実","koaza":"","lat":35.3812,"lng":137.352993,"zip":"5097125"},{"town":"山岡町釜屋","koaza":"","lat":35.33737,"lng":137.374719,"zip":"5097604"},{"town":"山岡町上手向","koaza":"","lat":35.356125,"lng":137.383864,"zip":"5097603"},{"town":"山岡町久保原","koaza":"","lat":35.378518,"lng":137.385697,"zip":"5097601"},{"town":"山岡町下手向","koaza":"","lat":35.353425,"lng":137.356003,"zip":"5097607"},{"town":"山岡町田沢","koaza":"","lat":35.339989,"lng":137.403617,"zip":"5097608"},{"town":"山岡町田代","koaza":"","lat":35.347293,"lng":137.324772,"zip":"5097606"},{"town":"山岡町馬場山田","koaza":"","lat":35.34734,"lng":137.415602,"zip":"5097602"},{"town":"山岡町原","koaza":"","lat":35.328123,"lng":137.35508,"zip":"5097605"},{"town":"大井町","koaza":"学頭","lat":35.455624,"lng":137.418535,"zip":"5097201"},{"town":"大井町","koaza":"舟山","lat":35.453325,"lng":137.421995,"zip":"5097201"},{"town":"大井町","koaza":"雀子ケ根","lat":35.456289,"lng":137.430846,"zip":"5097201"}]