[{"town":"市場","koaza":"","lat":35.477785,"lng":136.527038,"zip":"5010627"},{"town":"上野","koaza":"","lat":35.49918,"lng":136.522399,"zip":"5010634"},{"town":"岡","koaza":"","lat":35.475984,"lng":136.555296,"zip":"5010624"},{"town":"小津","koaza":"","lat":35.594472,"lng":136.529337,"zip":"5010701"},{"town":"乙原","koaza":"","lat":35.542827,"lng":136.528337,"zip":"5010703"},{"town":"小野","koaza":"","lat":35.491676,"lng":136.590446,"zip":"5010612"},{"town":"開田","koaza":"","lat":35.675746,"lng":136.457171,"zip":"5010815"},{"town":"樫原","koaza":"","lat":35.581378,"lng":136.4878,"zip":"5010708"},{"town":"春日川合","koaza":"","lat":35.436424,"lng":136.448393,"zip":"5032503"},{"town":"春日香六","koaza":"","lat":35.467658,"lng":136.469748,"zip":"5032506"},{"town":"春日小宮神","koaza":"","lat":35.465124,"lng":136.463246,"zip":"5032505"},{"town":"春日中山","koaza":"","lat":35.458478,"lng":136.436236,"zip":"5032504"},{"town":"春日美束","koaza":"","lat":35.496916,"lng":136.429507,"zip":"5032501"},{"town":"春日六合","koaza":"","lat":35.477187,"lng":136.499051,"zip":"5032502"},{"town":"桂","koaza":"","lat":35.501278,"lng":136.566203,"zip":"5010607"},{"town":"門入","koaza":"","lat":35.680426,"lng":136.354488,"zip":"5010817"},{"town":"上岡島","koaza":"","lat":35.481168,"lng":136.56686,"zip":"5010631"},{"town":"上ミ野","koaza":"","lat":35.477162,"lng":136.581281,"zip":"5010618"},{"town":"上東野","koaza":"","lat":35.481705,"lng":136.561556,"zip":"5010632"},{"town":"上南方","koaza":"","lat":35.502325,"lng":136.584098,"zip":"5010603"},{"town":"北方","koaza":"","lat":35.515105,"lng":136.547396,"zip":"5010601"},{"town":"清水","koaza":"","lat":35.468893,"lng":136.599059,"zip":"5010615"},{"town":"黒田","koaza":"","lat":35.472749,"lng":136.549673,"zip":"5010625"},{"town":"極楽寺","koaza":"","lat":35.491518,"lng":136.569507,"zip":"5010605"},{"town":"小島","koaza":"","lat":35.482394,"lng":136.551511,"zip":"5010633"},{"town":"小谷","koaza":"","lat":35.495343,"lng":136.584188,"zip":"5010611"},{"town":"坂内川上","koaza":"","lat":35.609995,"lng":136.348134,"zip":"5010901"},{"town":"坂内坂本","koaza":"","lat":35.56566,"lng":136.40623,"zip":"5010903"},{"town":"坂内広瀬","koaza":"","lat":35.594956,"lng":136.382297,"zip":"5010902"},{"town":"志津山","koaza":"","lat":35.483867,"lng":136.58963,"zip":"5010613"},{"town":"島","koaza":"","lat":35.46628,"lng":136.591686,"zip":"5010617"},{"town":"下岡島","koaza":"","lat":35.479365,"lng":136.571647,"zip":"5010621"},{"town":"白樫","koaza":"","lat":35.479948,"lng":136.534639,"zip":"5010635"},{"town":"新宮","koaza":"","lat":35.477436,"lng":136.548918,"zip":"5010628"},{"town":"瑞岩寺","koaza":"","lat":35.457568,"lng":136.514836,"zip":"5010626"},{"town":"大光寺","koaza":"","lat":35.49734,"lng":136.576922,"zip":"5010604"},{"town":"谷汲有鳥","koaza":"","lat":35.524331,"lng":136.560927,"zip":"5011315"},{"town":"谷汲大洞","koaza":"","lat":35.506306,"lng":136.615467,"zip":"5011312"},{"town":"谷汲神原","koaza":"","lat":35.559541,"lng":136.555312,"zip":"5011317"},{"town":"谷汲木曽屋","koaza":"","lat":35.541997,"lng":136.567523,"zip":"5011316"},{"town":"谷汲岐礼","koaza":"","lat":35.557926,"lng":136.598509,"zip":"5011302"},{"town":"谷汲高科","koaza":"","lat":35.565987,"lng":136.615849,"zip":"5011301"},{"town":"谷汲徳積","koaza":"","lat":35.526877,"lng":136.620282,"zip":"5011311"},{"town":"谷汲長瀬","koaza":"","lat":35.521257,"lng":136.632766,"zip":"5011303"},{"town":"谷汲名礼","koaza":"","lat":35.523766,"lng":136.59173,"zip":"5011314"},{"town":"谷汲深坂","koaza":"","lat":35.505137,"lng":136.601895,"zip":"5011313"},{"town":"塚","koaza":"","lat":35.754431,"lng":136.375909,"zip":"5010811"},{"town":"鶴見","koaza":"","lat":35.640071,"lng":136.461371,"zip":"5010802"},{"town":"徳山","koaza":"","lat":35.714786,"lng":136.492891,"zip":"5010814"},{"town":"外津汲","koaza":"","lat":35.524741,"lng":136.491802,"zip":"5010705"},{"town":"長良","koaza":"","lat":35.475487,"lng":136.590413,"zip":"5010614"},{"town":"西津汲","koaza":"","lat":35.549523,"lng":136.492158,"zip":"5010706"},{"town":"西横山","koaza":"","lat":35.590407,"lng":136.449156,"zip":"5010805"},{"town":"脛永","koaza":"","lat":35.469889,"lng":136.577682,"zip":"5010622"},{"town":"櫨原","koaza":"","lat":35.746076,"lng":136.461368,"zip":"5010812"},{"town":"東杉原","koaza":"","lat":35.643837,"lng":136.520602,"zip":"5010803"},{"town":"東津汲","koaza":"","lat":35.551185,"lng":136.518336,"zip":"5010702"},{"town":"東横山","koaza":"","lat":35.598361,"lng":136.480062,"zip":"5010804"},{"town":"日坂","koaza":"","lat":35.542737,"lng":136.448495,"zip":"5010707"},{"town":"福島","koaza":"","lat":35.463479,"lng":136.60097,"zip":"5010616"},{"town":"房島","koaza":"","lat":35.49095,"lng":136.552099,"zip":"5010606"},{"town":"三倉","koaza":"","lat":35.51911,"lng":136.51248,"zip":"5010704"},{"town":"三輪","koaza":"","lat":35.487736,"lng":136.576514,"zip":"5010619"},{"town":"山手","koaza":"","lat":35.713394,"lng":136.421106,"zip":"5010813"},{"town":"若松","koaza":"","lat":35.511369,"lng":136.5654,"zip":"5010602"},{"town":"和田","koaza":"","lat":35.475776,"lng":136.564331,"zip":"5010623"},{"town":"極楽寺","koaza":"村前","lat":35.489171,"lng":136.56892,"zip":"5010605"},{"town":"三輪","koaza":"白石","lat":35.480927,"lng":136.583859,"zip":"5010619"}]