[{"town":"青柳","koaza":"","lat":35.438732,"lng":136.569528,"zip":"5032423"},{"town":"池野","koaza":"","lat":35.437845,"lng":136.577256,"zip":"5032424"},{"town":"市橋","koaza":"","lat":35.409456,"lng":136.575734,"zip":"5032427"},{"town":"上田","koaza":"","lat":35.453722,"lng":136.58307,"zip":"5032415"},{"town":"粕ケ原","koaza":"","lat":35.462988,"lng":136.566054,"zip":"5032402"},{"town":"片山","koaza":"","lat":35.423674,"lng":136.546202,"zip":"5032428"},{"town":"願成寺","koaza":"","lat":35.448155,"lng":136.546195,"zip":"5032405"},{"town":"草深","koaza":"","lat":35.444231,"lng":136.561289,"zip":"5032418"},{"town":"沓井","koaza":"","lat":35.468642,"lng":136.559246,"zip":"5032401"},{"town":"小牛","koaza":"","lat":35.452674,"lng":136.559602,"zip":"5032404"},{"town":"小寺","koaza":"","lat":35.439061,"lng":136.541425,"zip":"5032419"},{"town":"下東野","koaza":"","lat":35.442852,"lng":136.582876,"zip":"5032414"},{"town":"白鳥","koaza":"","lat":35.448343,"lng":136.593556,"zip":"5032413"},{"town":"杉野","koaza":"","lat":35.455649,"lng":136.591656,"zip":"5032411"},{"town":"砂畑","koaza":"","lat":35.452181,"lng":136.589007,"zip":"5032412"},{"town":"田中","koaza":"","lat":35.458946,"lng":136.563235,"zip":"5032403"},{"town":"田畑","koaza":"","lat":35.432864,"lng":136.565848,"zip":"5032422"},{"town":"段","koaza":"","lat":35.461607,"lng":136.539796,"zip":"5032408"},{"town":"萩原","koaza":"","lat":35.451771,"lng":136.575112,"zip":"5032416"},{"town":"般若畑","koaza":"","lat":35.449246,"lng":136.528229,"zip":"5032407"},{"town":"藤代","koaza":"","lat":35.430077,"lng":136.549065,"zip":"5032429"},{"town":"舟子","koaza":"","lat":35.464627,"lng":136.534597,"zip":"5032409"},{"town":"本郷","koaza":"","lat":35.450397,"lng":136.565023,"zip":"5032417"},{"town":"宮地","koaza":"","lat":35.457261,"lng":136.555131,"zip":"5032406"},{"town":"山洞","koaza":"","lat":35.437682,"lng":136.559367,"zip":"5032421"},{"town":"八幡","koaza":"","lat":35.426258,"lng":136.577926,"zip":"5032426"},{"town":"六之井","koaza":"","lat":35.437465,"lng":136.584213,"zip":"5032425"},{"town":"粕ケ原","koaza":"日吉西","lat":35.461933,"lng":136.571397,"zip":"5032402"},{"town":"八幡","koaza":"東光田","lat":35.423163,"lng":136.579138,"zip":"5032426"},{"town":"上田","koaza":"学園","lat":35.446653,"lng":136.584455,"zip":"5032415"}]