[{"town":"浅木","koaza":"","lat":35.441528,"lng":136.638497,"zip":"5010475"},{"town":"有里","koaza":"","lat":35.465634,"lng":136.661181,"zip":"5010415"},{"town":"石神","koaza":"","lat":35.489272,"lng":136.660859,"zip":"5010410"},{"town":"石原","koaza":"","lat":35.453056,"lng":136.687954,"zip":"5010405"},{"town":"海老","koaza":"","lat":35.447846,"lng":136.640026,"zip":"5010476"},{"town":"数屋","koaza":"","lat":35.466716,"lng":136.652894,"zip":"5010414"},{"town":"上高屋","koaza":"","lat":35.474205,"lng":136.657494,"zip":"5010411"},{"town":"上保","koaza":"","lat":35.466936,"lng":136.68206,"zip":"5010401"},{"town":"上真桑","koaza":"","lat":35.441836,"lng":136.671705,"zip":"5010461"},{"town":"軽海","koaza":"","lat":35.430063,"lng":136.658754,"zip":"5010465"},{"town":"北野","koaza":"","lat":35.459783,"lng":136.695408,"zip":"5010403"},{"town":"金原","koaza":"","lat":35.579594,"lng":136.650358,"zip":"5011232"},{"town":"郡府","koaza":"","lat":35.461868,"lng":136.688088,"zip":"5010402"},{"town":"神海","koaza":"","lat":35.538361,"lng":136.653132,"zip":"5011235"},{"town":"小柿","koaza":"","lat":35.424619,"lng":136.677226,"zip":"5010463"},{"town":"国領","koaza":"","lat":35.436637,"lng":136.639694,"zip":"5010474"},{"town":"木知原","koaza":"","lat":35.525674,"lng":136.671471,"zip":"5011234"},{"town":"佐原","koaza":"","lat":35.561853,"lng":136.642797,"zip":"5011236"},{"town":"七五三","koaza":"","lat":35.451425,"lng":136.654911,"zip":"5010418"},{"town":"下福島","koaza":"","lat":35.424349,"lng":136.64899,"zip":"5010472"},{"town":"下真桑","koaza":"","lat":35.438098,"lng":136.659721,"zip":"5010466"},{"town":"十四条","koaza":"","lat":35.423991,"lng":136.66261,"zip":"5010464"},{"town":"随原","koaza":"","lat":35.460143,"lng":136.660221,"zip":"5010416"},{"town":"曽井中島","koaza":"","lat":35.486775,"lng":136.667781,"zip":"5011205"},{"town":"宗慶","koaza":"","lat":35.429892,"lng":136.672712,"zip":"5010462"},{"town":"外山","koaza":"","lat":35.560827,"lng":136.670239,"zip":"5011233"},{"town":"長屋","koaza":"","lat":35.475226,"lng":136.669007,"zip":"5010412"},{"town":"温井","koaza":"","lat":35.432838,"lng":136.636212,"zip":"5010473"},{"town":"根尾板所","koaza":"","lat":35.620737,"lng":136.628911,"zip":"5011524"},{"town":"根尾市場","koaza":"","lat":35.639325,"lng":136.610975,"zip":"5011521"},{"town":"根尾宇津志","koaza":"","lat":35.578691,"lng":136.623372,"zip":"5011527"},{"town":"根尾大井","koaza":"","lat":35.656898,"lng":136.556477,"zip":"5011535"},{"town":"根尾大河原","koaza":"","lat":35.759241,"lng":136.554524,"zip":"5011507"},{"town":"根尾奥谷","koaza":"","lat":35.619108,"lng":136.653476,"zip":"5011514"},{"town":"根尾小鹿","koaza":"","lat":35.653561,"lng":136.638601,"zip":"5011518"},{"town":"根尾越卒","koaza":"","lat":35.666874,"lng":136.604874,"zip":"5011532"},{"town":"根尾越波","koaza":"","lat":35.75682,"lng":136.620292,"zip":"5011501"},{"town":"根尾門脇","koaza":"","lat":35.668939,"lng":136.597577,"zip":"5011531"},{"town":"根尾上大須","koaza":"","lat":35.744822,"lng":136.659611,"zip":"5011511"},{"town":"根尾口谷","koaza":"","lat":35.630113,"lng":136.63869,"zip":"5011515"},{"town":"根尾黒津","koaza":"","lat":35.707152,"lng":136.603305,"zip":"5011502"},{"town":"根尾神所","koaza":"","lat":35.636711,"lng":136.59726,"zip":"5011534"},{"town":"根尾下大須","koaza":"","lat":35.701823,"lng":136.665392,"zip":"5011512"},{"town":"根尾高尾","koaza":"","lat":35.592494,"lng":136.609081,"zip":"5011528"},{"town":"根尾樽見","koaza":"","lat":35.638367,"lng":136.618502,"zip":"5011522"},{"town":"根尾天神堂","koaza":"","lat":35.673025,"lng":136.58148,"zip":"5011504"},{"town":"根尾中","koaza":"","lat":35.647119,"lng":136.599978,"zip":"5011533"},{"town":"根尾長島","koaza":"","lat":35.68838,"lng":136.588189,"zip":"5011505"},{"town":"根尾長嶺","koaza":"","lat":35.668355,"lng":136.588346,"zip":"5011503"},{"town":"根尾西板屋","koaza":"","lat":35.65805,"lng":136.612064,"zip":"5011517"},{"town":"根尾能郷","koaza":"","lat":35.707598,"lng":136.552115,"zip":"5011506"},{"town":"根尾東板屋","koaza":"","lat":35.647734,"lng":136.623397,"zip":"5011516"},{"town":"根尾平野","koaza":"","lat":35.600482,"lng":136.634742,"zip":"5011526"},{"town":"根尾松田","koaza":"","lat":35.663223,"lng":136.66745,"zip":"5011513"},{"town":"根尾水鳥","koaza":"","lat":35.606328,"lng":136.58895,"zip":"5011529"},{"town":"早野","koaza":"","lat":35.452634,"lng":136.663974,"zip":"5010419"},{"town":"春近","koaza":"","lat":35.452214,"lng":136.695716,"zip":"5010404"},{"town":"日当","koaza":"","lat":35.592553,"lng":136.644223,"zip":"5011231"},{"town":"仏生寺","koaza":"","lat":35.445788,"lng":136.686546,"zip":"5010407"},{"town":"法林寺","koaza":"","lat":35.505413,"lng":136.684681,"zip":"5011202"},{"town":"政田","koaza":"","lat":35.436504,"lng":136.646887,"zip":"5010471"},{"town":"三橋","koaza":"","lat":35.454029,"lng":136.676811,"zip":"5010406"},{"town":"三橋一丁目","koaza":"","lat":35.451565,"lng":136.674762,"zip":"5010406"},{"town":"三橋二丁目","koaza":"","lat":35.451501,"lng":136.676015,"zip":"5010406"},{"town":"三橋三丁目","koaza":"","lat":35.448035,"lng":136.677155,"zip":"5010406"},{"town":"三橋四丁目","koaza":"","lat":35.44572,"lng":136.677689,"zip":"5010406"},{"town":"三橋五丁目","koaza":"","lat":35.447859,"lng":136.676169,"zip":"5010406"},{"town":"三橋鶴舞","koaza":"","lat":35.448354,"lng":136.674655,"zip":"5010400"},{"town":"見延","koaza":"","lat":35.462992,"lng":136.668509,"zip":"5010413"},{"town":"文殊","koaza":"","lat":35.493334,"lng":136.683018,"zip":"5011203"},{"town":"屋井","koaza":"","lat":35.455178,"lng":136.64823,"zip":"5010417"},{"town":"山口","koaza":"","lat":35.510588,"lng":136.66594,"zip":"5011201"},{"town":"温井","koaza":"東川原","lat":35.429933,"lng":136.640616,"zip":"5010473"},{"town":"政田","koaza":"上市場","lat":35.429115,"lng":136.646488,"zip":"5010471"},{"town":"文殊","koaza":"天辺","lat":35.484231,"lng":136.687432,"zip":"5011203"}]