[{"town":"海津町秋江","koaza":"","lat":35.228767,"lng":136.669667,"zip":"5030611"},{"town":"海津町油島","koaza":"","lat":35.144058,"lng":136.668488,"zip":"5030625"},{"town":"海津町石亀","koaza":"","lat":35.188296,"lng":136.66096,"zip":"5030629"},{"town":"海津町稲山","koaza":"","lat":35.203448,"lng":136.630709,"zip":"5030631"},{"town":"海津町江東","koaza":"","lat":35.190498,"lng":136.650197,"zip":"5030635"},{"town":"海津町大和田","koaza":"","lat":35.220578,"lng":136.671938,"zip":"5030612"},{"town":"海津町金廻","koaza":"","lat":35.157888,"lng":136.665654,"zip":"5030624"},{"town":"海津町鹿野","koaza":"","lat":35.226065,"lng":136.654271,"zip":"5030608"},{"town":"海津町神桐","koaza":"","lat":35.24002,"lng":136.663559,"zip":"5030603"},{"town":"海津町萱野","koaza":"","lat":35.211169,"lng":136.638788,"zip":"5030646"},{"town":"海津町草場","koaza":"","lat":35.218793,"lng":136.65895,"zip":"5030618"},{"town":"海津町五町","koaza":"","lat":35.204707,"lng":136.641811,"zip":"5030645"},{"town":"海津町駒ケ江","koaza":"","lat":35.213237,"lng":136.671748,"zip":"5030613"},{"town":"海津町七右衛門新田","koaza":"","lat":35.165208,"lng":136.651624,"zip":"5030627"},{"town":"海津町瀬古","koaza":"","lat":35.24598,"lng":136.664337,"zip":"5030602"},{"town":"海津町外浜","koaza":"","lat":35.187323,"lng":136.668168,"zip":"5030621"},{"town":"海津町高須","koaza":"","lat":35.217082,"lng":136.622618,"zip":"5030654"},{"town":"海津町高須町","koaza":"","lat":35.220589,"lng":136.629993,"zip":"5030653"},{"town":"海津町立野","koaza":"","lat":35.205894,"lng":136.662544,"zip":"5030617"},{"town":"海津町田中","koaza":"","lat":35.231083,"lng":136.661949,"zip":"5030606"},{"town":"海津町内記","koaza":"","lat":35.213317,"lng":136.647819,"zip":"5030641"},{"town":"海津町長久保","koaza":"","lat":35.197507,"lng":136.663778,"zip":"5030616"},{"town":"海津町長瀬","koaza":"","lat":35.20714,"lng":136.672398,"zip":"5030614"},{"town":"海津町成戸","koaza":"","lat":35.237502,"lng":136.6686,"zip":"5030604"},{"town":"海津町西小島","koaza":"","lat":35.211286,"lng":136.624499,"zip":"5030648"},{"town":"海津町沼新田","koaza":"","lat":35.185195,"lng":136.643233,"zip":"5030634"},{"town":"海津町東小島","koaza":"","lat":35.212246,"lng":136.63151,"zip":"5030647"},{"town":"海津町平原","koaza":"","lat":35.232312,"lng":136.640873,"zip":"5030651"},{"town":"海津町日原","koaza":"","lat":35.199128,"lng":136.67122,"zip":"5030615"},{"town":"海津町深浜","koaza":"","lat":35.194317,"lng":136.653101,"zip":"5030644"},{"town":"海津町福一色","koaza":"","lat":35.233984,"lng":136.663859,"zip":"5030605"},{"town":"海津町福江","koaza":"","lat":35.173885,"lng":136.662114,"zip":"5030628"},{"town":"海津町福岡","koaza":"","lat":35.229679,"lng":136.616815,"zip":"5030655"},{"town":"海津町札野","koaza":"","lat":35.204035,"lng":136.652824,"zip":"5030643"},{"town":"海津町古中島","koaza":"","lat":35.175421,"lng":136.66797,"zip":"5030623"},{"town":"海津町帆引新田","koaza":"","lat":35.173796,"lng":136.645535,"zip":"5030636"},{"town":"海津町本阿弥新田","koaza":"","lat":35.194191,"lng":136.63831,"zip":"5030633"},{"town":"海津町松木","koaza":"","lat":35.245878,"lng":136.658121,"zip":"5030601"},{"town":"海津町馬目","koaza":"","lat":35.221904,"lng":136.643631,"zip":"5030652"},{"town":"海津町万寿新田","koaza":"","lat":35.169445,"lng":136.657319,"zip":"5030626"},{"town":"海津町宮地","koaza":"","lat":35.195093,"lng":136.629591,"zip":"5030632"},{"town":"海津町森下","koaza":"","lat":35.183559,"lng":136.665552,"zip":"5030622"},{"town":"海津町安田","koaza":"","lat":35.183458,"lng":136.632889,"zip":"5030637"},{"town":"海津町安田新田","koaza":"","lat":35.190518,"lng":136.632651,"zip":"5030638"},{"town":"南濃町上野河戸","koaza":"","lat":35.199369,"lng":136.603937,"zip":"5030414"},{"town":"南濃町太田","koaza":"","lat":35.179568,"lng":136.615286,"zip":"5030532"},{"town":"南濃町奥条","koaza":"","lat":35.204993,"lng":136.584241,"zip":"5030412"},{"town":"南濃町駒野","koaza":"","lat":35.222585,"lng":136.605876,"zip":"5030411"},{"town":"南濃町駒野奥条入会地","koaza":"","lat":35.222226,"lng":136.598451,"zip":"5030600"},{"town":"南濃町駒野新田","koaza":"","lat":35.23555,"lng":136.597945,"zip":"5030405"},{"town":"南濃町境","koaza":"","lat":35.152826,"lng":136.640043,"zip":"5030534"},{"town":"南濃町志津","koaza":"","lat":35.238832,"lng":136.570506,"zip":"5030403"},{"town":"南濃町志津新田","koaza":"","lat":35.249509,"lng":136.568145,"zip":"5030402"},{"town":"南濃町田鶴","koaza":"","lat":35.164884,"lng":136.639807,"zip":"5030533"},{"town":"南濃町津屋","koaza":"","lat":35.248093,"lng":136.551504,"zip":"5030401"},{"town":"南濃町徳田","koaza":"","lat":35.23868,"lng":136.581317,"zip":"5030407"},{"town":"南濃町戸田","koaza":"","lat":35.239661,"lng":136.587566,"zip":"5030406"},{"town":"南濃町庭田","koaza":"","lat":35.220503,"lng":136.571655,"zip":"5030408"},{"town":"南濃町羽沢","koaza":"","lat":35.213297,"lng":136.606538,"zip":"5030413"},{"town":"南濃町早瀬","koaza":"","lat":35.236152,"lng":136.592093,"zip":"5030404"},{"town":"南濃町松山","koaza":"","lat":35.15852,"lng":136.623868,"zip":"5030535"},{"town":"南濃町安江","koaza":"","lat":35.18793,"lng":136.619559,"zip":"5030531"},{"town":"南濃町山崎","koaza":"","lat":35.195771,"lng":136.615714,"zip":"5030415"},{"town":"南濃町吉田","koaza":"","lat":35.170022,"lng":136.619078,"zip":"5030536"},{"town":"平田町今尾","koaza":"","lat":35.253961,"lng":136.632192,"zip":"5030321"},{"town":"平田町岡","koaza":"","lat":35.273022,"lng":136.656784,"zip":"5030307"},{"town":"平田町勝賀","koaza":"","lat":35.285762,"lng":136.666288,"zip":"5030302"},{"town":"平田町三郷","koaza":"","lat":35.259848,"lng":136.642155,"zip":"5030312"},{"town":"平田町蛇池","koaza":"","lat":35.255209,"lng":136.648478,"zip":"5030306"},{"town":"平田町者結","koaza":"","lat":35.264111,"lng":136.657227,"zip":"5030305"},{"town":"平田町須賀","koaza":"","lat":35.283627,"lng":136.655629,"zip":"5030301"},{"town":"平田町高田","koaza":"","lat":35.243778,"lng":136.641967,"zip":"5030313"},{"town":"平田町土倉","koaza":"","lat":35.240946,"lng":136.627247,"zip":"5030322"},{"town":"平田町西島","koaza":"","lat":35.242012,"lng":136.652713,"zip":"5030314"},{"town":"平田町野寺","koaza":"","lat":35.276379,"lng":136.66818,"zip":"5030303"},{"town":"平田町幡長","koaza":"","lat":35.26835,"lng":136.663174,"zip":"5030304"},{"town":"平田町仏師川","koaza":"","lat":35.257485,"lng":136.636515,"zip":"5030311"},{"town":"平田町脇野","koaza":"","lat":35.232123,"lng":136.624861,"zip":"5030323"},{"town":"海津町馬目","koaza":"西方","lat":35.223948,"lng":136.635171,"zip":"5030652"}]