[{"town":"居倉","koaza":"","lat":35.419565,"lng":136.642732,"zip":"5010302"},{"town":"稲里","koaza":"","lat":35.386375,"lng":136.686712,"zip":"5010224"},{"town":"牛牧","koaza":"","lat":35.381062,"lng":136.670618,"zip":"5010234"},{"town":"大月","koaza":"","lat":35.399194,"lng":136.64422,"zip":"5010306"},{"town":"唐栗","koaza":"","lat":35.414016,"lng":136.639983,"zip":"5010307"},{"town":"犀川一丁目","koaza":"","lat":35.369886,"lng":136.673325,"zip":"5010237"},{"town":"犀川二丁目","koaza":"","lat":35.36805,"lng":136.672891,"zip":"5010237"},{"town":"犀川三丁目","koaza":"","lat":35.369787,"lng":136.675356,"zip":"5010237"},{"town":"犀川四丁目","koaza":"","lat":35.367851,"lng":136.675252,"zip":"5010237"},{"town":"犀川五丁目","koaza":"","lat":35.369701,"lng":136.67714,"zip":"5010237"},{"town":"犀川六丁目","koaza":"","lat":35.367524,"lng":136.676919,"zip":"5010237"},{"town":"重里","koaza":"","lat":35.417532,"lng":136.663217,"zip":"5010311"},{"town":"十九条","koaza":"","lat":35.393699,"lng":136.664542,"zip":"5010235"},{"town":"十七条","koaza":"","lat":35.405941,"lng":136.661357,"zip":"5010313"},{"town":"十八条","koaza":"","lat":35.400051,"lng":136.662469,"zip":"5010314"},{"town":"祖父江","koaza":"","lat":35.374306,"lng":136.685813,"zip":"5010225"},{"town":"只越","koaza":"","lat":35.399688,"lng":136.682674,"zip":"5010221"},{"town":"田之上","koaza":"","lat":35.409376,"lng":136.64816,"zip":"5010304"},{"town":"中宮","koaza":"","lat":35.388273,"lng":136.650612,"zip":"5010323"},{"town":"七崎","koaza":"","lat":35.423939,"lng":136.636971,"zip":"5010301"},{"town":"生津","koaza":"","lat":35.405911,"lng":136.687904,"zip":"5010211"},{"town":"生津外宮東町一丁目","koaza":"","lat":35.406768,"lng":136.691336,"zip":"5010214"},{"town":"生津外宮東町二丁目","koaza":"","lat":35.40586,"lng":136.691061,"zip":"5010214"},{"town":"生津外宮前町一丁目","koaza":"","lat":35.403193,"lng":136.690627,"zip":"5010217"},{"town":"生津外宮前町二丁目","koaza":"","lat":35.403473,"lng":136.692333,"zip":"5010217"},{"town":"生津滝坪町一丁目","koaza":"","lat":35.41049,"lng":136.683018,"zip":"5010212"},{"town":"生津滝坪町二丁目","koaza":"","lat":35.408196,"lng":136.683751,"zip":"5010212"},{"town":"生津天王東町一丁目","koaza":"","lat":35.406198,"lng":136.69712,"zip":"5010215"},{"town":"生津天王東町二丁目","koaza":"","lat":35.403712,"lng":136.697408,"zip":"5010215"},{"town":"生津天王町一丁目","koaza":"","lat":35.404559,"lng":136.694583,"zip":"5010216"},{"town":"生津天王町二丁目","koaza":"","lat":35.401842,"lng":136.695196,"zip":"5010216"},{"town":"生津内宮町一丁目","koaza":"","lat":35.408932,"lng":136.685528,"zip":"5010213"},{"town":"生津内宮町二丁目","koaza":"","lat":35.406999,"lng":136.688469,"zip":"5010213"},{"town":"野田新田","koaza":"","lat":35.386007,"lng":136.679908,"zip":"5010232"},{"town":"野白新田","koaza":"","lat":35.378954,"lng":136.679498,"zip":"5010231"},{"town":"馬場","koaza":"","lat":35.416531,"lng":136.680413,"zip":"5010201"},{"town":"馬場北町","koaza":"","lat":35.41597,"lng":136.677836,"zip":"5010206"},{"town":"馬場小城町一丁目","koaza":"","lat":35.409037,"lng":136.689919,"zip":"5010205"},{"town":"馬場小城町二丁目","koaza":"","lat":35.409062,"lng":136.692043,"zip":"5010205"},{"town":"馬場上光町一丁目","koaza":"","lat":35.413323,"lng":136.684779,"zip":"5010203"},{"town":"馬場上光町二丁目","koaza":"","lat":35.410555,"lng":136.685431,"zip":"5010203"},{"town":"馬場上光町三丁目","koaza":"","lat":35.409934,"lng":136.687671,"zip":"5010203"},{"town":"馬場春雨町一丁目","koaza":"","lat":35.412439,"lng":136.688079,"zip":"5010204"},{"town":"馬場春雨町二丁目","koaza":"","lat":35.411043,"lng":136.691199,"zip":"5010204"},{"town":"馬場前畑町一丁目","koaza":"","lat":35.414928,"lng":136.67961,"zip":"5010202"},{"town":"馬場前畑町二丁目","koaza":"","lat":35.412924,"lng":136.679443,"zip":"5010202"},{"town":"馬場前畑町三丁目","koaza":"","lat":35.41333,"lng":136.682037,"zip":"5010202"},{"town":"東結","koaza":"","lat":35.370569,"lng":136.666235,"zip":"5010200"},{"town":"古橋","koaza":"","lat":35.392265,"lng":136.65409,"zip":"5010322"},{"town":"別府","koaza":"","lat":35.394517,"lng":136.684624,"zip":"5010222"},{"town":"宝江","koaza":"","lat":35.373417,"lng":136.66638,"zip":"5010233"},{"town":"穂積","koaza":"","lat":35.38213,"lng":136.697341,"zip":"5010223"},{"town":"本田","koaza":"","lat":35.409664,"lng":136.674391,"zip":"5010236"},{"town":"美江寺","koaza":"","lat":35.412043,"lng":136.661499,"zip":"5010312"},{"town":"宮田","koaza":"","lat":35.40501,"lng":136.645136,"zip":"5010305"},{"town":"森","koaza":"","lat":35.419326,"lng":136.651206,"zip":"5010303"},{"town":"横屋","koaza":"","lat":35.382405,"lng":136.661551,"zip":"5010321"},{"town":"呂久","koaza":"","lat":35.393352,"lng":136.64472,"zip":"5010324"}]