[{"town":"伊深町","koaza":"","lat":35.513452,"lng":137.010952,"zip":"5050008"},{"town":"太田町","koaza":"","lat":35.445106,"lng":137.016171,"zip":"5050041"},{"town":"太田本町一丁目","koaza":"","lat":35.438086,"lng":137.018941,"zip":"5050042"},{"town":"太田本町二丁目","koaza":"","lat":35.437987,"lng":137.015828,"zip":"5050042"},{"town":"太田本町三丁目","koaza":"","lat":35.437853,"lng":137.013445,"zip":"5050042"},{"town":"太田本町四丁目","koaza":"","lat":35.43763,"lng":137.011225,"zip":"5050042"},{"town":"太田本町五丁目","koaza":"","lat":35.436894,"lng":137.009158,"zip":"5050042"},{"town":"大手町一丁目","koaza":"","lat":35.446569,"lng":137.01903,"zip":"5050035"},{"town":"大手町二丁目","koaza":"","lat":35.448115,"lng":137.019542,"zip":"5050035"},{"town":"加茂川町一丁目","koaza":"","lat":35.44227,"lng":137.009164,"zip":"5050044"},{"town":"加茂川町二丁目","koaza":"","lat":35.440113,"lng":137.00872,"zip":"5050044"},{"town":"加茂川町三丁目","koaza":"","lat":35.440306,"lng":137.005801,"zip":"5050044"},{"town":"加茂野町市橋","koaza":"","lat":35.470223,"lng":136.964526,"zip":"5050056"},{"town":"加茂野町稲辺","koaza":"","lat":35.452811,"lng":136.96635,"zip":"5050055"},{"town":"加茂野町今泉","koaza":"","lat":35.464948,"lng":136.977793,"zip":"5050052"},{"town":"加茂野町加茂野","koaza":"","lat":35.454089,"lng":136.983446,"zip":"5050054"},{"town":"加茂野町鷹之巣","koaza":"","lat":35.465191,"lng":136.96962,"zip":"5050051"},{"town":"川合町一丁目","koaza":"","lat":35.443453,"lng":137.044373,"zip":"5050022"},{"town":"川合町二丁目","koaza":"","lat":35.448026,"lng":137.046201,"zip":"5050022"},{"town":"川合町三丁目","koaza":"","lat":35.446194,"lng":137.048895,"zip":"5050022"},{"town":"川合町四丁目","koaza":"","lat":35.449316,"lng":137.050473,"zip":"5050022"},{"town":"草笛町一丁目","koaza":"","lat":35.444949,"lng":137.010309,"zip":"5050045"},{"town":"草笛町二丁目","koaza":"","lat":35.444373,"lng":137.006782,"zip":"5050045"},{"town":"草笛町三丁目","koaza":"","lat":35.443076,"lng":137.004143,"zip":"5050045"},{"town":"草笛町四丁目","koaza":"","lat":35.44037,"lng":137.003119,"zip":"5050045"},{"town":"古井町下古井","koaza":"","lat":35.44093,"lng":137.023764,"zip":"5050034"},{"town":"島町一丁目","koaza":"","lat":35.441489,"lng":137.027905,"zip":"5050025"},{"town":"島町二丁目","koaza":"","lat":35.438322,"lng":137.027162,"zip":"5050025"},{"town":"清水町一丁目","koaza":"","lat":35.445259,"lng":137.031902,"zip":"5050026"},{"town":"清水町二丁目","koaza":"","lat":35.442665,"lng":137.031283,"zip":"5050026"},{"town":"下米田町今","koaza":"","lat":35.458207,"lng":137.064021,"zip":"5050015"},{"town":"下米田町小山","koaza":"","lat":35.452459,"lng":137.056008,"zip":"5050017"},{"town":"下米田町為岡","koaza":"","lat":35.473022,"lng":137.071341,"zip":"5050019"},{"town":"下米田町西脇","koaza":"","lat":35.466424,"lng":137.059153,"zip":"5050018"},{"town":"下米田町信友","koaza":"","lat":35.4658,"lng":137.07907,"zip":"5050013"},{"town":"下米田町則光","koaza":"","lat":35.463687,"lng":137.068284,"zip":"5050014"},{"town":"下米田町東栃井","koaza":"","lat":35.475752,"lng":137.066655,"zip":"5050011"},{"town":"下米田町山本","koaza":"","lat":35.473176,"lng":137.078551,"zip":"5050012"},{"town":"新池町一丁目","koaza":"","lat":35.452096,"lng":137.023515,"zip":"5050031"},{"town":"新池町二丁目","koaza":"","lat":35.453396,"lng":137.027205,"zip":"5050031"},{"town":"新池町三丁目","koaza":"","lat":35.453923,"lng":137.030119,"zip":"5050031"},{"town":"田島町一丁目","koaza":"","lat":35.44662,"lng":137.022658,"zip":"5050032"},{"town":"田島町二丁目","koaza":"","lat":35.449184,"lng":137.023078,"zip":"5050032"},{"town":"田島町三丁目","koaza":"","lat":35.449756,"lng":137.026749,"zip":"5050032"},{"town":"田島町四丁目","koaza":"","lat":35.447729,"lng":137.027564,"zip":"5050032"},{"town":"中部台一丁目","koaza":"","lat":35.456233,"lng":137.019389,"zip":"5050038"},{"town":"中部台二丁目","koaza":"","lat":35.459613,"lng":137.019753,"zip":"5050038"},{"town":"中部台三丁目","koaza":"","lat":35.461048,"lng":137.019926,"zip":"5050038"},{"town":"中部台四丁目","koaza":"","lat":35.460636,"lng":137.022404,"zip":"5050038"},{"town":"中部台五丁目","koaza":"","lat":35.462453,"lng":137.019283,"zip":"5050038"},{"town":"中部台六丁目","koaza":"","lat":35.463759,"lng":137.016603,"zip":"5050038"},{"town":"中部台七丁目","koaza":"","lat":35.46454,"lng":137.019665,"zip":"5050038"},{"town":"中部台八丁目","koaza":"","lat":35.463345,"lng":137.022403,"zip":"5050038"},{"town":"中部台九丁目","koaza":"","lat":35.466486,"lng":137.019016,"zip":"5050038"},{"town":"中富町一丁目","koaza":"","lat":35.443442,"lng":137.02528,"zip":"5050033"},{"town":"中富町二丁目","koaza":"","lat":35.445851,"lng":137.02813,"zip":"5050033"},{"town":"中富町三丁目","koaza":"","lat":35.442839,"lng":137.02803,"zip":"5050033"},{"town":"西町一丁目","koaza":"","lat":35.446515,"lng":137.004517,"zip":"5050046"},{"town":"西町二丁目","koaza":"","lat":35.445274,"lng":137.001568,"zip":"5050046"},{"town":"西町三丁目","koaza":"","lat":35.443457,"lng":137.000234,"zip":"5050046"},{"town":"西町四丁目","koaza":"","lat":35.443204,"lng":136.995248,"zip":"5050046"},{"town":"西町五丁目","koaza":"","lat":35.44742,"lng":136.997146,"zip":"5050046"},{"town":"西町六丁目","koaza":"","lat":35.449911,"lng":136.995167,"zip":"5050046"},{"town":"西町七丁目","koaza":"","lat":35.452406,"lng":136.997592,"zip":"5050046"},{"town":"西町八丁目","koaza":"","lat":35.448597,"lng":137.002153,"zip":"5050046"},{"town":"野笹町一丁目","koaza":"","lat":35.443974,"lng":137.034596,"zip":"5050023"},{"town":"野笹町二丁目","koaza":"","lat":35.443671,"lng":137.037906,"zip":"5050023"},{"town":"蜂屋台一丁目","koaza":"","lat":35.468393,"lng":137.016535,"zip":"5050039"},{"town":"蜂屋台二丁目","koaza":"","lat":35.469342,"lng":137.012532,"zip":"5050039"},{"town":"蜂屋町上蜂屋","koaza":"","lat":35.478175,"lng":137.019444,"zip":"5050004"},{"town":"蜂屋町下蜂屋","koaza":"","lat":35.4759,"lng":136.992214,"zip":"5050007"},{"town":"蜂屋町矢田","koaza":"","lat":35.455942,"lng":137.010497,"zip":"5050009"},{"town":"深田町一丁目","koaza":"","lat":35.435305,"lng":137.007425,"zip":"5050043"},{"town":"深田町二丁目","koaza":"","lat":35.432865,"lng":137.005247,"zip":"5050043"},{"town":"深田町三丁目","koaza":"","lat":35.435729,"lng":137.004371,"zip":"5050043"},{"town":"本郷町一丁目","koaza":"","lat":35.44798,"lng":137.038717,"zip":"5050027"},{"town":"本郷町二丁目","koaza":"","lat":35.449057,"lng":137.035853,"zip":"5050027"},{"town":"本郷町三丁目","koaza":"","lat":35.449735,"lng":137.032043,"zip":"5050027"},{"town":"本郷町四丁目","koaza":"","lat":35.455677,"lng":137.031966,"zip":"5050027"},{"town":"本郷町五丁目","koaza":"","lat":35.455802,"lng":137.035013,"zip":"5050027"},{"town":"本郷町六丁目","koaza":"","lat":35.456455,"lng":137.038303,"zip":"5050027"},{"town":"本郷町七丁目","koaza":"","lat":35.458168,"lng":137.041919,"zip":"5050027"},{"town":"本郷町八丁目","koaza":"","lat":35.45357,"lng":137.045841,"zip":"5050027"},{"town":"本郷町九丁目","koaza":"","lat":35.450942,"lng":137.042866,"zip":"5050027"},{"town":"前平町一丁目","koaza":"","lat":35.450989,"lng":137.008411,"zip":"5050037"},{"town":"前平町二丁目","koaza":"","lat":35.450585,"lng":137.00432,"zip":"5050037"},{"town":"牧野","koaza":"","lat":35.447827,"lng":137.066102,"zip":"5050016"},{"town":"御門町一丁目","koaza":"","lat":35.439181,"lng":137.030736,"zip":"5050024"},{"town":"御門町二丁目","koaza":"","lat":35.439793,"lng":137.036783,"zip":"5050024"},{"town":"三和町川浦","koaza":"","lat":35.528043,"lng":137.051121,"zip":"5050002"},{"town":"三和町廿屋","koaza":"","lat":35.534098,"lng":137.026606,"zip":"5050001"},{"town":"森山町一丁目","koaza":"","lat":35.455007,"lng":137.048854,"zip":"5050021"},{"town":"森山町二丁目","koaza":"","lat":35.458147,"lng":137.045971,"zip":"5050021"},{"town":"森山町三丁目","koaza":"","lat":35.460631,"lng":137.050522,"zip":"5050021"},{"town":"森山町四丁目","koaza":"","lat":35.456183,"lng":137.051904,"zip":"5050021"},{"town":"森山町五丁目","koaza":"","lat":35.462273,"lng":137.045763,"zip":"5050021"},{"town":"森山町六丁目","koaza":"","lat":35.464112,"lng":137.048863,"zip":"5050021"},{"town":"山手町一丁目","koaza":"","lat":35.451419,"lng":137.019033,"zip":"5050036"},{"town":"山手町二丁目","koaza":"","lat":35.451484,"lng":137.015193,"zip":"5050036"},{"town":"山手町三丁目","koaza":"","lat":35.451638,"lng":137.011903,"zip":"5050036"},{"town":"山之上町","koaza":"","lat":35.483766,"lng":137.036726,"zip":"5050003"},{"town":"蜂屋町中蜂屋","koaza":"","lat":35.474686,"lng":137.00429,"zip":"5050005"},{"town":"加茂野町木野","koaza":"","lat":35.459291,"lng":136.9903,"zip":"5050053"},{"town":"蜂屋町伊瀬","koaza":"","lat":35.465631,"lng":136.990026,"zip":"5050006"},{"town":"あじさいヶ丘二丁目","koaza":"","lat":35.461623,"lng":137.006589,"zip":"5050029"},{"town":"山崎町","koaza":"","lat":35.462007,"lng":137.003132,"zip":"5050028"},{"town":"前平町三丁目","koaza":"","lat":35.453186,"lng":137.003889,"zip":"5050037"},{"town":"あじさいヶ丘三丁目","koaza":"","lat":35.458631,"lng":137.00686,"zip":"5050029"},{"town":"あじさいヶ丘一丁目","koaza":"","lat":35.459458,"lng":137.005206,"zip":"5050029"},{"town":"太田町","koaza":"飛鹿","lat":35.442099,"lng":137.011972,"zip":"5050041"}]