[{"town":"足近町一丁目","koaza":"","lat":35.352431,"lng":136.727176,"zip":"5016207"},{"town":"足近町二丁目","koaza":"","lat":35.348572,"lng":136.72057,"zip":"5016207"},{"town":"足近町三丁目","koaza":"","lat":35.344458,"lng":136.71686,"zip":"5016207"},{"town":"足近町四丁目","koaza":"","lat":35.338985,"lng":136.715349,"zip":"5016207"},{"town":"足近町五丁目","koaza":"","lat":35.333359,"lng":136.713201,"zip":"5016207"},{"town":"足近町六丁目","koaza":"","lat":35.348724,"lng":136.72701,"zip":"5016207"},{"town":"足近町七丁目","koaza":"","lat":35.339061,"lng":136.721694,"zip":"5016207"},{"town":"足近町市場","koaza":"","lat":35.344185,"lng":136.730186,"zip":"5016202"},{"town":"足近町北宿","koaza":"","lat":35.351376,"lng":136.731374,"zip":"5016201"},{"town":"足近町北宿一丁目","koaza":"","lat":35.355134,"lng":136.731735,"zip":"5016201"},{"town":"足近町北宿二丁目","koaza":"","lat":35.353442,"lng":136.733065,"zip":"5016201"},{"town":"足近町北宿三丁目","koaza":"","lat":35.351158,"lng":136.733406,"zip":"5016201"},{"town":"足近町小荒井","koaza":"","lat":35.335569,"lng":136.719283,"zip":"5016204"},{"town":"足近町小荒井一丁目","koaza":"","lat":35.337721,"lng":136.723563,"zip":"5016204"},{"town":"足近町小荒井二丁目","koaza":"","lat":35.335912,"lng":136.721515,"zip":"5016204"},{"town":"足近町小荒井三丁目","koaza":"","lat":35.333235,"lng":136.718729,"zip":"5016204"},{"town":"足近町坂井","koaza":"","lat":35.351556,"lng":136.715044,"zip":"5016208"},{"town":"足近町直道","koaza":"","lat":35.353108,"lng":136.718394,"zip":"5016209"},{"town":"足近町南宿","koaza":"","lat":35.342677,"lng":136.724959,"zip":"5016203"},{"town":"足近町南之川","koaza":"","lat":35.33025,"lng":136.710403,"zip":"5016205"},{"town":"江吉良町","koaza":"","lat":35.31127,"lng":136.700899,"zip":"5016236"},{"town":"江吉良町江中一丁目","koaza":"","lat":35.312344,"lng":136.692703,"zip":"5016238"},{"town":"江吉良町江中六丁目","koaza":"","lat":35.309674,"lng":136.691403,"zip":"5016238"},{"town":"江吉良町江中七丁目","koaza":"","lat":35.30878,"lng":136.68865,"zip":"5016238"},{"town":"江吉良町江西一丁目","koaza":"","lat":35.315397,"lng":136.692763,"zip":"5016237"},{"town":"江吉良町江西三丁目","koaza":"","lat":35.312973,"lng":136.692607,"zip":"5016237"},{"town":"小熊町一丁目","koaza":"","lat":35.353518,"lng":136.701316,"zip":"5016273"},{"town":"小熊町二丁目","koaza":"","lat":35.350263,"lng":136.69995,"zip":"5016273"},{"town":"小熊町三丁目","koaza":"","lat":35.345568,"lng":136.703631,"zip":"5016273"},{"town":"小熊町四丁目","koaza":"","lat":35.339954,"lng":136.705419,"zip":"5016273"},{"town":"小熊町五丁目","koaza":"","lat":35.335485,"lng":136.703132,"zip":"5016273"},{"town":"小熊町相田","koaza":"","lat":35.350763,"lng":136.712134,"zip":"5016272"},{"town":"小熊町足近新田","koaza":"","lat":35.330834,"lng":136.716183,"zip":"5016200"},{"town":"小熊町内粟野一丁目","koaza":"","lat":35.340033,"lng":136.69137,"zip":"5016262"},{"town":"小熊町内粟野二丁目","koaza":"","lat":35.339909,"lng":136.694346,"zip":"5016262"},{"town":"小熊町内粟野三丁目","koaza":"","lat":35.3398,"lng":136.695503,"zip":"5016262"},{"town":"小熊町内粟野四丁目","koaza":"","lat":35.339677,"lng":136.696667,"zip":"5016262"},{"town":"小熊町江頭","koaza":"","lat":35.338406,"lng":136.706878,"zip":"5016263"},{"town":"小熊町川口","koaza":"","lat":35.33545,"lng":136.701429,"zip":"5016266"},{"town":"小熊町川口一丁目","koaza":"","lat":35.336884,"lng":136.699455,"zip":"5016266"},{"town":"小熊町川口前","koaza":"","lat":35.334955,"lng":136.700617,"zip":"5016265"},{"town":"小熊町島","koaza":"","lat":35.333704,"lng":136.704101,"zip":"5016264"},{"town":"小熊町島一丁目","koaza":"","lat":35.332741,"lng":136.707772,"zip":"5016264"},{"town":"小熊町島二丁目","koaza":"","lat":35.333676,"lng":136.705911,"zip":"5016264"},{"town":"小熊町島三丁目","koaza":"","lat":35.335282,"lng":136.707896,"zip":"5016264"},{"town":"小熊町島四丁目","koaza":"","lat":35.336388,"lng":136.70953,"zip":"5016264"},{"town":"小熊町島五丁目","koaza":"","lat":35.334586,"lng":136.709626,"zip":"5016264"},{"town":"小熊町島新道","koaza":"","lat":35.33175,"lng":136.703379,"zip":"5016253"},{"town":"小熊町島前","koaza":"","lat":35.332325,"lng":136.702609,"zip":"5016252"},{"town":"小熊町外粟野","koaza":"","lat":35.343896,"lng":136.692263,"zip":"5016261"},{"town":"小熊町外粟野一丁目","koaza":"","lat":35.342277,"lng":136.69146,"zip":"5016261"},{"town":"小熊町外粟野二丁目","koaza":"","lat":35.341852,"lng":136.694646,"zip":"5016261"},{"town":"小熊町外粟野三丁目","koaza":"","lat":35.342093,"lng":136.695869,"zip":"5016261"},{"town":"小熊町外粟野四丁目","koaza":"","lat":35.342038,"lng":136.69706,"zip":"5016261"},{"town":"小熊町天王一丁目","koaza":"","lat":35.337461,"lng":136.692539,"zip":"5016267"},{"town":"小熊町天王二丁目","koaza":"","lat":35.337432,"lng":136.693975,"zip":"5016267"},{"town":"小熊町天王三丁目","koaza":"","lat":35.337706,"lng":136.695194,"zip":"5016267"},{"town":"小熊町天王四丁目","koaza":"","lat":35.337898,"lng":136.696427,"zip":"5016267"},{"town":"小熊町西小熊","koaza":"","lat":35.350345,"lng":136.691923,"zip":"5016274"},{"town":"小熊町東小熊","koaza":"","lat":35.352544,"lng":136.705117,"zip":"5016271"},{"town":"上中町一色","koaza":"","lat":35.299808,"lng":136.712707,"zip":"5016312"},{"town":"上中町午北","koaza":"","lat":35.292165,"lng":136.687985,"zip":"5016317"},{"town":"上中町沖","koaza":"","lat":35.295158,"lng":136.696928,"zip":"5016318"},{"town":"上中町千束","koaza":"","lat":35.30191,"lng":136.688662,"zip":"5016200"},{"town":"上中町中","koaza":"","lat":35.30045,"lng":136.701487,"zip":"5016319"},{"town":"上中町長間","koaza":"","lat":35.304908,"lng":136.700822,"zip":"5016311"},{"town":"桑原町午南","koaza":"","lat":35.25834,"lng":136.681079,"zip":"5016323"},{"town":"桑原町大須","koaza":"","lat":35.263672,"lng":136.671233,"zip":"5016325"},{"town":"桑原町大須一丁目","koaza":"","lat":35.268309,"lng":136.676937,"zip":"5016325"},{"town":"桑原町大須二丁目","koaza":"","lat":35.264664,"lng":136.676138,"zip":"5016325"},{"town":"桑原町大須三丁目","koaza":"","lat":35.262631,"lng":136.675114,"zip":"5016325"},{"town":"桑原町大須四丁目","koaza":"","lat":35.260566,"lng":136.674285,"zip":"5016325"},{"town":"桑原町大須五丁目","koaza":"","lat":35.258367,"lng":136.673669,"zip":"5016325"},{"town":"桑原町小藪","koaza":"","lat":35.25041,"lng":136.67431,"zip":"5016200"},{"town":"桑原町西小薮一丁目","koaza":"","lat":35.262081,"lng":136.662654,"zip":"5016327"},{"town":"桑原町西小薮二丁目","koaza":"","lat":35.257433,"lng":136.660496,"zip":"5016327"},{"town":"桑原町西小薮三丁目","koaza":"","lat":35.253632,"lng":136.66108,"zip":"5016327"},{"town":"桑原町東方","koaza":"","lat":35.278907,"lng":136.680868,"zip":"5016326"},{"town":"桑原町平太一丁目","koaza":"","lat":35.267149,"lng":136.679574,"zip":"5016328"},{"town":"桑原町前野","koaza":"","lat":35.256726,"lng":136.687033,"zip":"5016322"},{"town":"桑原町八神","koaza":"","lat":35.271024,"lng":136.692144,"zip":"5016321"},{"town":"下中町石田","koaza":"","lat":35.278876,"lng":136.698375,"zip":"5016315"},{"town":"下中町市之枝","koaza":"","lat":35.287475,"lng":136.68324,"zip":"5016316"},{"town":"下中町市之枝一丁目","koaza":"","lat":35.287215,"lng":136.69958,"zip":"5016316"},{"town":"下中町市之枝二丁目","koaza":"","lat":35.289028,"lng":136.695523,"zip":"5016316"},{"town":"下中町市之枝三丁目","koaza":"","lat":35.286345,"lng":136.694373,"zip":"5016316"},{"town":"下中町市之枝四丁目","koaza":"","lat":35.290256,"lng":136.692291,"zip":"5016316"},{"town":"下中町市之枝五丁目","koaza":"","lat":35.286728,"lng":136.689373,"zip":"5016316"},{"town":"下中町市之枝六丁目","koaza":"","lat":35.286704,"lng":136.686224,"zip":"5016316"},{"town":"下中町加賀野井","koaza":"","lat":35.292614,"lng":136.718184,"zip":"5016313"},{"town":"下中町城屋敷","koaza":"","lat":35.288236,"lng":136.706963,"zip":"5016314"},{"town":"新生町一丁目","koaza":"","lat":35.330008,"lng":136.705921,"zip":"5016206"},{"town":"新生町二丁目","koaza":"","lat":35.329468,"lng":136.707746,"zip":"5016206"},{"town":"新生町三丁目","koaza":"","lat":35.328958,"lng":136.710961,"zip":"5016206"},{"town":"竹鼻町","koaza":"","lat":35.324505,"lng":136.702122,"zip":"5016241"},{"town":"竹鼻町飯柄","koaza":"","lat":35.315842,"lng":136.716897,"zip":"5016233"},{"town":"竹鼻町神楽","koaza":"","lat":35.330537,"lng":136.703939,"zip":"5016231"},{"town":"竹鼻町狐穴","koaza":"","lat":35.319575,"lng":136.70946,"zip":"5016232"},{"town":"竹鼻町駒塚","koaza":"","lat":35.303249,"lng":136.719612,"zip":"5016234"},{"town":"竹鼻町錦町","koaza":"","lat":35.321161,"lng":136.695356,"zip":"5016242"},{"town":"竹鼻町西野町","koaza":"","lat":35.321969,"lng":136.693954,"zip":"5016243"},{"town":"竹鼻町蜂尻","koaza":"","lat":35.308147,"lng":136.7127,"zip":"5016235"},{"town":"竹鼻町丸の内十丁目","koaza":"","lat":35.328366,"lng":136.694545,"zip":"5016244"},{"town":"竹鼻町丸の内十一丁目","koaza":"","lat":35.329847,"lng":136.695061,"zip":"5016244"},{"town":"竹鼻町丸の内一丁目","koaza":"","lat":35.324057,"lng":136.696056,"zip":"5016244"},{"town":"竹鼻町丸の内二丁目","koaza":"","lat":35.324839,"lng":136.698325,"zip":"5016244"},{"town":"竹鼻町丸の内三丁目","koaza":"","lat":35.32626,"lng":136.697863,"zip":"5016244"},{"town":"竹鼻町丸の内四丁目","koaza":"","lat":35.327193,"lng":136.699435,"zip":"5016244"},{"town":"竹鼻町丸の内五丁目","koaza":"","lat":35.328634,"lng":136.700924,"zip":"5016244"},{"town":"竹鼻町丸の内六丁目","koaza":"","lat":35.328681,"lng":136.697296,"zip":"5016244"},{"town":"竹鼻町丸の内七丁目","koaza":"","lat":35.324306,"lng":136.693807,"zip":"5016244"},{"town":"竹鼻町丸の内八丁目","koaza":"","lat":35.32565,"lng":136.694215,"zip":"5016244"},{"town":"竹鼻町丸の内九丁目","koaza":"","lat":35.327132,"lng":136.694337,"zip":"5016244"},{"town":"福寿町浅平","koaza":"","lat":35.322188,"lng":136.690954,"zip":"5016255"},{"town":"福寿町浅平一丁目","koaza":"","lat":35.317521,"lng":136.68752,"zip":"5016255"},{"town":"福寿町浅平二丁目","koaza":"","lat":35.31843,"lng":136.686803,"zip":"5016255"},{"town":"福寿町浅平三丁目","koaza":"","lat":35.320279,"lng":136.692835,"zip":"5016255"},{"town":"福寿町浅平四丁目","koaza":"","lat":35.320521,"lng":136.689856,"zip":"5016255"},{"town":"福寿町浅平五丁目","koaza":"","lat":35.321828,"lng":136.692495,"zip":"5016255"},{"town":"福寿町千代田","koaza":"","lat":35.318899,"lng":136.68383,"zip":"5016256"},{"town":"福寿町千代田一丁目","koaza":"","lat":35.318049,"lng":136.685042,"zip":"5016256"},{"town":"福寿町平方","koaza":"","lat":35.317172,"lng":136.672928,"zip":"5016257"},{"town":"福寿町平方十丁目","koaza":"","lat":35.317308,"lng":136.679322,"zip":"5016257"},{"town":"福寿町平方十一丁目","koaza":"","lat":35.314879,"lng":136.678696,"zip":"5016257"},{"town":"福寿町平方十二丁目","koaza":"","lat":35.313197,"lng":136.68031,"zip":"5016257"},{"town":"福寿町平方十三丁目","koaza":"","lat":35.312332,"lng":136.678294,"zip":"5016257"},{"town":"福寿町平方一丁目","koaza":"","lat":35.314971,"lng":136.684903,"zip":"5016257"},{"town":"福寿町平方二丁目","koaza":"","lat":35.315568,"lng":136.683745,"zip":"5016257"},{"town":"福寿町平方三丁目","koaza":"","lat":35.314541,"lng":136.682799,"zip":"5016257"},{"town":"福寿町平方四丁目","koaza":"","lat":35.316359,"lng":136.683099,"zip":"5016257"},{"town":"福寿町平方五丁目","koaza":"","lat":35.315045,"lng":136.681399,"zip":"5016257"},{"town":"福寿町平方六丁目","koaza":"","lat":35.317218,"lng":136.68222,"zip":"5016257"},{"town":"福寿町平方七丁目","koaza":"","lat":35.315861,"lng":136.680773,"zip":"5016257"},{"town":"福寿町平方八丁目","koaza":"","lat":35.318144,"lng":136.681146,"zip":"5016257"},{"town":"福寿町平方九丁目","koaza":"","lat":35.319182,"lng":136.680003,"zip":"5016257"},{"town":"福寿町本郷","koaza":"","lat":35.326675,"lng":136.68724,"zip":"5016254"},{"town":"福寿町間島","koaza":"","lat":35.334896,"lng":136.690448,"zip":"5016251"},{"town":"福寿町間島一丁目","koaza":"","lat":35.331935,"lng":136.692366,"zip":"5016251"},{"town":"福寿町間島二丁目","koaza":"","lat":35.333795,"lng":136.693223,"zip":"5016251"},{"town":"福寿町間島三丁目","koaza":"","lat":35.336243,"lng":136.696259,"zip":"5016251"},{"town":"福寿町間島四丁目","koaza":"","lat":35.331716,"lng":136.695178,"zip":"5016251"},{"town":"福寿町間島五丁目","koaza":"","lat":35.333945,"lng":136.696033,"zip":"5016251"},{"town":"福寿町間島六丁目","koaza":"","lat":35.335216,"lng":136.698712,"zip":"5016251"},{"town":"福寿町間島七丁目","koaza":"","lat":35.331464,"lng":136.697148,"zip":"5016251"},{"town":"福寿町間島八丁目","koaza":"","lat":35.33363,"lng":136.697678,"zip":"5016251"},{"town":"福寿町間島九丁目","koaza":"","lat":35.331771,"lng":136.699091,"zip":"5016251"},{"town":"舟橋町","koaza":"","lat":35.317979,"lng":136.697473,"zip":"5016302"},{"town":"舟橋町一丁目","koaza":"","lat":35.313613,"lng":136.685531,"zip":"5016302"},{"town":"舟橋町二丁目","koaza":"","lat":35.312694,"lng":136.686419,"zip":"5016302"},{"town":"舟橋町三丁目","koaza":"","lat":35.312235,"lng":136.688652,"zip":"5016302"},{"town":"舟橋町四丁目","koaza":"","lat":35.310233,"lng":136.687446,"zip":"5016302"},{"town":"舟橋町五丁目","koaza":"","lat":35.310379,"lng":136.690544,"zip":"5016302"},{"town":"舟橋町六丁目","koaza":"","lat":35.311577,"lng":136.691771,"zip":"5016302"},{"town":"舟橋町七丁目","koaza":"","lat":35.313062,"lng":136.690538,"zip":"5016302"},{"town":"舟橋町八丁目","koaza":"","lat":35.31458,"lng":136.688298,"zip":"5016302"},{"town":"舟橋町出須賀一丁目","koaza":"","lat":35.312865,"lng":136.682609,"zip":"5016304"},{"town":"舟橋町出須賀二丁目","koaza":"","lat":35.310524,"lng":136.683149,"zip":"5016304"},{"town":"舟橋町出須賀三丁目","koaza":"","lat":35.31176,"lng":136.680558,"zip":"5016304"},{"town":"舟橋町出須賀四丁目","koaza":"","lat":35.310367,"lng":136.679401,"zip":"5016304"},{"town":"舟橋町本町一丁目","koaza":"","lat":35.314474,"lng":136.685078,"zip":"5016303"},{"town":"舟橋町本町二丁目","koaza":"","lat":35.312661,"lng":136.684094,"zip":"5016303"},{"town":"舟橋町本町四丁目","koaza":"","lat":35.311084,"lng":136.685345,"zip":"5016303"},{"town":"舟橋町本町五丁目","koaza":"","lat":35.309814,"lng":136.685197,"zip":"5016303"},{"town":"舟橋町宮北一丁目","koaza":"","lat":35.316264,"lng":136.687601,"zip":"5016301"},{"town":"舟橋町宮北二丁目","koaza":"","lat":35.317978,"lng":136.689782,"zip":"5016301"},{"town":"舟橋町宮北三丁目","koaza":"","lat":35.317526,"lng":136.692575,"zip":"5016301"},{"town":"舟橋町宮北四丁目","koaza":"","lat":35.317229,"lng":136.691166,"zip":"5016301"},{"town":"舟橋町宮北五丁目","koaza":"","lat":35.315984,"lng":136.691279,"zip":"5016301"},{"town":"舟橋町宮北六丁目","koaza":"","lat":35.316079,"lng":136.688856,"zip":"5016301"},{"town":"舟橋町宮北七丁目","koaza":"","lat":35.315287,"lng":136.689737,"zip":"5016301"},{"town":"舟橋町宮北八丁目","koaza":"","lat":35.314451,"lng":136.691416,"zip":"5016301"},{"town":"堀津町","koaza":"","lat":35.297384,"lng":136.678151,"zip":"5016338"},{"town":"堀津町須賀北一丁目","koaza":"","lat":35.307952,"lng":136.680597,"zip":"5016332"},{"town":"堀津町須賀北二丁目","koaza":"","lat":35.308291,"lng":136.678356,"zip":"5016332"},{"town":"堀津町須賀中","koaza":"","lat":35.308546,"lng":136.67543,"zip":"5016338"},{"town":"堀津町須賀西","koaza":"","lat":35.308445,"lng":136.667842,"zip":"5016336"},{"town":"堀津町須賀南一丁目","koaza":"","lat":35.305373,"lng":136.673492,"zip":"5016335"},{"town":"堀津町須賀南二丁目","koaza":"","lat":35.304901,"lng":136.66874,"zip":"5016335"},{"town":"堀津町中屋敷","koaza":"","lat":35.308723,"lng":136.672337,"zip":"5016337"},{"town":"堀津町東山","koaza":"","lat":35.305756,"lng":136.678924,"zip":"5016333"},{"town":"堀津町前谷","koaza":"","lat":35.304694,"lng":136.676008,"zip":"5016334"},{"town":"堀津町横手一丁目","koaza":"","lat":35.311396,"lng":136.675049,"zip":"5016331"},{"town":"堀津町横手二丁目","koaza":"","lat":35.311548,"lng":136.672628,"zip":"5016331"},{"town":"堀津町横手三丁目","koaza":"","lat":35.311635,"lng":136.668002,"zip":"5016331"},{"town":"正木町新井","koaza":"","lat":35.317248,"lng":136.724772,"zip":"5016225"},{"town":"正木町大浦","koaza":"","lat":35.322937,"lng":136.731319,"zip":"5016224"},{"town":"正木町大浦新田十丁目","koaza":"","lat":35.3289,"lng":136.737523,"zip":"5016223"},{"town":"正木町大浦新田一丁目","koaza":"","lat":35.333913,"lng":136.738691,"zip":"5016223"},{"town":"正木町大浦新田二丁目","koaza":"","lat":35.333383,"lng":136.737929,"zip":"5016223"},{"town":"正木町大浦新田三丁目","koaza":"","lat":35.332469,"lng":136.739782,"zip":"5016223"},{"town":"正木町大浦新田四丁目","koaza":"","lat":35.332443,"lng":136.736568,"zip":"5016223"},{"town":"正木町大浦新田五丁目","koaza":"","lat":35.331921,"lng":136.737952,"zip":"5016223"},{"town":"正木町大浦新田六丁目","koaza":"","lat":35.331135,"lng":136.739404,"zip":"5016223"},{"town":"正木町大浦新田七丁目","koaza":"","lat":35.330033,"lng":136.738157,"zip":"5016223"},{"town":"正木町大浦新田八丁目","koaza":"","lat":35.331315,"lng":136.735901,"zip":"5016223"},{"town":"正木町大浦新田九丁目","koaza":"","lat":35.329676,"lng":136.735665,"zip":"5016223"},{"town":"正木町上大浦一丁目","koaza":"","lat":35.341987,"lng":136.739284,"zip":"5016212"},{"town":"正木町上大浦二丁目","koaza":"","lat":35.340605,"lng":136.740403,"zip":"5016212"},{"town":"正木町上大浦三丁目","koaza":"","lat":35.339696,"lng":136.738568,"zip":"5016212"},{"town":"正木町上大浦四丁目","koaza":"","lat":35.338459,"lng":136.743577,"zip":"5016212"},{"town":"正木町上大浦五丁目","koaza":"","lat":35.337345,"lng":136.74309,"zip":"5016212"},{"town":"正木町上大浦六丁目","koaza":"","lat":35.335772,"lng":136.742176,"zip":"5016212"},{"town":"正木町坂丸一丁目","koaza":"","lat":35.335112,"lng":136.732109,"zip":"5016229"},{"town":"正木町坂丸二丁目","koaza":"","lat":35.332957,"lng":136.732343,"zip":"5016229"},{"town":"正木町坂丸三丁目","koaza":"","lat":35.331456,"lng":136.73206,"zip":"5016229"},{"town":"正木町坂丸四丁目","koaza":"","lat":35.329612,"lng":136.731438,"zip":"5016229"},{"town":"正木町坂丸五丁目","koaza":"","lat":35.3308,"lng":136.734146,"zip":"5016229"},{"town":"正木町坂丸六丁目","koaza":"","lat":35.329455,"lng":136.732577,"zip":"5016229"},{"town":"正木町須賀","koaza":"","lat":35.334745,"lng":136.723428,"zip":"5016216"},{"town":"正木町須賀赤松","koaza":"","lat":35.342661,"lng":136.733932,"zip":"5016215"},{"town":"正木町須賀池端","koaza":"","lat":35.344428,"lng":136.740172,"zip":"5016214"},{"town":"正木町須賀小松","koaza":"","lat":35.339639,"lng":136.729559,"zip":"5016217"},{"town":"正木町須賀本村","koaza":"","lat":35.336077,"lng":136.729187,"zip":"5016218"},{"town":"正木町不破一色","koaza":"","lat":35.331752,"lng":136.724064,"zip":"5016228"},{"town":"正木町曲利","koaza":"","lat":35.326836,"lng":136.717767,"zip":"5016227"},{"town":"正木町光法寺一丁目","koaza":"","lat":35.335491,"lng":136.745612,"zip":"5016213"},{"town":"正木町光法寺二丁目","koaza":"","lat":35.333773,"lng":136.744268,"zip":"5016213"},{"town":"正木町三ツ柳","koaza":"","lat":35.307122,"lng":136.727641,"zip":"5016226"},{"town":"正木町南及一丁目","koaza":"","lat":35.344748,"lng":136.745615,"zip":"5016211"},{"town":"正木町南及二丁目","koaza":"","lat":35.342834,"lng":136.744467,"zip":"5016211"},{"town":"正木町南及三丁目","koaza":"","lat":35.343507,"lng":136.742743,"zip":"5016211"},{"town":"正木町南及四丁目","koaza":"","lat":35.3416,"lng":136.742111,"zip":"5016211"},{"town":"正木町南及五丁目","koaza":"","lat":35.344761,"lng":136.749192,"zip":"5016211"},{"town":"正木町南及六丁目","koaza":"","lat":35.342069,"lng":136.747895,"zip":"5016211"},{"town":"正木町南及七丁目","koaza":"","lat":35.341182,"lng":136.744929,"zip":"5016211"},{"town":"正木町南及八丁目","koaza":"","lat":35.33939,"lng":136.746878,"zip":"5016211"},{"town":"正木町南及九丁目","koaza":"","lat":35.339539,"lng":136.743563,"zip":"5016211"},{"town":"正木町森十丁目","koaza":"","lat":35.337473,"lng":136.734708,"zip":"5016221"},{"town":"正木町森十一丁目","koaza":"","lat":35.336434,"lng":136.737725,"zip":"5016221"},{"town":"正木町森十二丁目","koaza":"","lat":35.335527,"lng":136.737179,"zip":"5016221"},{"town":"正木町森十三丁目","koaza":"","lat":35.336181,"lng":136.734273,"zip":"5016221"},{"town":"正木町森十四丁目","koaza":"","lat":35.335268,"lng":136.733911,"zip":"5016221"},{"town":"正木町森十五丁目","koaza":"","lat":35.334085,"lng":136.73633,"zip":"5016221"},{"town":"正木町森十六丁目","koaza":"","lat":35.333862,"lng":136.733866,"zip":"5016221"},{"town":"正木町森一丁目","koaza":"","lat":35.341361,"lng":136.735812,"zip":"5016221"},{"town":"正木町森二丁目","koaza":"","lat":35.340722,"lng":136.734856,"zip":"5016221"},{"town":"正木町森三丁目","koaza":"","lat":35.339773,"lng":136.734895,"zip":"5016221"},{"town":"正木町森四丁目","koaza":"","lat":35.339885,"lng":136.73656,"zip":"5016221"},{"town":"正木町森五丁目","koaza":"","lat":35.33875,"lng":136.738067,"zip":"5016221"},{"town":"正木町森六丁目","koaza":"","lat":35.338202,"lng":136.73998,"zip":"5016221"},{"town":"正木町森七丁目","koaza":"","lat":35.337557,"lng":136.738085,"zip":"5016221"},{"town":"正木町森八丁目","koaza":"","lat":35.338566,"lng":136.735445,"zip":"5016221"},{"town":"正木町森九丁目","koaza":"","lat":35.338663,"lng":136.732658,"zip":"5016221"},{"town":"正木町森新田一丁目","koaza":"","lat":35.336216,"lng":136.740037,"zip":"5016222"},{"town":"正木町森新田二丁目","koaza":"","lat":35.335357,"lng":136.739514,"zip":"5016222"},{"town":"正木町森新田四丁目","koaza":"","lat":35.33358,"lng":136.741218,"zip":"5016222"},{"town":"正木町森新田五丁目","koaza":"","lat":35.332216,"lng":136.741068,"zip":"5016222"},{"town":"正木町森新田三丁目","koaza":"","lat":35.334377,"lng":136.740132,"zip":"5016222"},{"town":"正木町上大浦七丁目","koaza":"","lat":35.334006,"lng":136.740728,"zip":"5016212"},{"town":"小熊町天王","koaza":"","lat":35.337549,"lng":136.697403,"zip":"5016267"},{"town":"小熊町内粟野","koaza":"","lat":35.338996,"lng":136.69889,"zip":"5016262"},{"town":"竹鼻町","koaza":"梅ヶ枝町","lat":35.320732,"lng":136.696925,"zip":"5016241"},{"town":"竹鼻町","koaza":"日吉町","lat":35.319339,"lng":136.699478,"zip":"5016241"}]