[{"town":"相生町","koaza":"","lat":35.366834,"lng":136.764894,"zip":"5016044"},{"town":"朝日町","koaza":"","lat":35.364506,"lng":136.759197,"zip":"5016056"},{"town":"泉町","koaza":"","lat":35.364601,"lng":136.757699,"zip":"5016061"},{"town":"江川","koaza":"","lat":35.375396,"lng":136.802107,"zip":"5016032"},{"town":"円城寺","koaza":"","lat":35.375255,"lng":136.785144,"zip":"5016035"},{"town":"大池町","koaza":"","lat":35.368123,"lng":136.756398,"zip":"5016087"},{"town":"春日町","koaza":"","lat":35.374855,"lng":136.762213,"zip":"5016082"},{"town":"門間","koaza":"","lat":35.353927,"lng":136.73874,"zip":"5016065"},{"town":"上新町","koaza":"","lat":35.372369,"lng":136.761229,"zip":"5016071"},{"town":"上本町","koaza":"","lat":35.367356,"lng":136.762015,"zip":"5016051"},{"town":"上柳川町","koaza":"","lat":35.366813,"lng":136.759331,"zip":"5016058"},{"town":"如月町","koaza":"","lat":35.372808,"lng":136.759468,"zip":"5016084"},{"town":"北及","koaza":"","lat":35.352092,"lng":136.747455,"zip":"5016064"},{"town":"清住町","koaza":"","lat":35.369663,"lng":136.757296,"zip":"5016086"},{"town":"県町","koaza":"","lat":35.368252,"lng":136.764131,"zip":"5016043"},{"town":"米野","koaza":"","lat":35.378516,"lng":136.811242,"zip":"5016031"},{"town":"桜町","koaza":"","lat":35.372169,"lng":136.754661,"zip":"5016098"},{"town":"下新町","koaza":"","lat":35.369975,"lng":136.76,"zip":"5016073"},{"town":"下本町","koaza":"","lat":35.365545,"lng":136.76161,"zip":"5016052"},{"town":"下柳川町","koaza":"","lat":35.365915,"lng":136.758484,"zip":"5016057"},{"town":"松栄町","koaza":"","lat":35.377017,"lng":136.763718,"zip":"5016091"},{"town":"新町","koaza":"","lat":35.368529,"lng":136.760836,"zip":"5016074"},{"town":"司町","koaza":"","lat":35.366419,"lng":136.763094,"zip":"5016045"},{"town":"月美町","koaza":"","lat":35.377609,"lng":136.760963,"zip":"5016092"},{"town":"田代","koaza":"","lat":35.362054,"lng":136.753286,"zip":"5016062"},{"town":"天王町","koaza":"","lat":35.368902,"lng":136.75854,"zip":"5016077"},{"town":"東陽町","koaza":"","lat":35.37488,"lng":136.763457,"zip":"5016081"},{"town":"常盤町","koaza":"","lat":35.374675,"lng":136.760749,"zip":"5016083"},{"town":"長池","koaza":"","lat":35.356463,"lng":136.751935,"zip":"5016063"},{"town":"中川町","koaza":"","lat":35.373829,"lng":136.757246,"zip":"5016095"},{"town":"中新町","koaza":"","lat":35.371058,"lng":136.760442,"zip":"5016072"},{"town":"中野","koaza":"","lat":35.373051,"lng":136.79379,"zip":"5016034"},{"town":"奈良町","koaza":"","lat":35.372675,"lng":136.763522,"zip":"5016041"},{"town":"西金池町","koaza":"","lat":35.374407,"lng":136.765837,"zip":"5016037"},{"town":"西町","koaza":"","lat":35.36523,"lng":136.760226,"zip":"5016055"},{"town":"西宮町","koaza":"","lat":35.367872,"lng":136.759932,"zip":"5016075"},{"town":"羽衣町","koaza":"","lat":35.37551,"lng":136.756403,"zip":"5016094"},{"town":"八幡町","koaza":"","lat":35.369608,"lng":136.763166,"zip":"5016042"},{"town":"東金池町","koaza":"","lat":35.374755,"lng":136.768546,"zip":"5016038"},{"town":"東宮町","koaza":"","lat":35.366343,"lng":136.760852,"zip":"5016059"},{"town":"瓢町","koaza":"","lat":35.369506,"lng":136.754344,"zip":"5016097"},{"town":"二見町","koaza":"","lat":35.371136,"lng":136.762864,"zip":"5016047"},{"town":"美笠通一丁目","koaza":"","lat":35.374219,"lng":136.758865,"zip":"5016088"},{"town":"美笠通二丁目","koaza":"","lat":35.371466,"lng":136.757118,"zip":"5016088"},{"town":"美笠通三丁目","koaza":"","lat":35.368942,"lng":136.755569,"zip":"5016088"},{"town":"緑町","koaza":"","lat":35.376638,"lng":136.760002,"zip":"5016093"},{"town":"港町","koaza":"","lat":35.364623,"lng":136.762808,"zip":"5016053"},{"town":"宮川町","koaza":"","lat":35.369861,"lng":136.762012,"zip":"5016046"},{"town":"無動寺","koaza":"","lat":35.371101,"lng":136.798701,"zip":"5016033"},{"town":"門前町","koaza":"","lat":35.367457,"lng":136.757866,"zip":"5016076"},{"town":"柳原町","koaza":"","lat":35.363716,"lng":136.760532,"zip":"5016054"},{"town":"弥生町","koaza":"","lat":35.371324,"lng":136.758365,"zip":"5016085"},{"town":"友楽町","koaza":"","lat":35.371444,"lng":136.755615,"zip":"5016096"},{"town":"若葉町","koaza":"","lat":35.370555,"lng":136.766965,"zip":"5016036"},{"town":"米野","koaza":"村中","lat":35.380676,"lng":136.808709,"zip":"5016031"}]