[{"town":"石原瀬一丁目","koaza":"","lat":35.378917,"lng":136.765645,"zip":"5016015"},{"town":"石原瀬二丁目","koaza":"","lat":35.377394,"lng":136.76573,"zip":"5016015"},{"town":"上印食一丁目","koaza":"","lat":35.398165,"lng":136.789,"zip":"5016001"},{"town":"上印食二丁目","koaza":"","lat":35.398634,"lng":136.786194,"zip":"5016001"},{"town":"上印食三丁目","koaza":"","lat":35.397033,"lng":136.786795,"zip":"5016001"},{"town":"上印食四丁目","koaza":"","lat":35.395409,"lng":136.787406,"zip":"5016001"},{"town":"上印食五丁目","koaza":"","lat":35.393703,"lng":136.787589,"zip":"5016001"},{"town":"上印食六丁目","koaza":"","lat":35.39194,"lng":136.788835,"zip":"5016001"},{"town":"上印食七丁目","koaza":"","lat":35.392185,"lng":136.786347,"zip":"5016001"},{"town":"上印食八丁目","koaza":"","lat":35.389572,"lng":136.788869,"zip":"5016001"},{"town":"上印食九丁目","koaza":"","lat":35.389589,"lng":136.786303,"zip":"5016001"},{"town":"下印食一丁目","koaza":"","lat":35.393548,"lng":136.770955,"zip":"5016018"},{"town":"下印食二丁目","koaza":"","lat":35.390905,"lng":136.770495,"zip":"5016018"},{"town":"下印食三丁目","koaza":"","lat":35.389052,"lng":136.770501,"zip":"5016018"},{"town":"下印食四丁目","koaza":"","lat":35.39172,"lng":136.768741,"zip":"5016018"},{"town":"下印食五丁目","koaza":"","lat":35.389089,"lng":136.768273,"zip":"5016018"},{"town":"徳田","koaza":"","lat":35.379311,"lng":136.763758,"zip":"5016016"},{"town":"徳田一丁目","koaza":"","lat":35.387703,"lng":136.775718,"zip":"5016016"},{"town":"徳田二丁目","koaza":"","lat":35.386447,"lng":136.774076,"zip":"5016016"},{"town":"徳田三丁目","koaza":"","lat":35.383103,"lng":136.776631,"zip":"5016016"},{"town":"徳田四丁目","koaza":"","lat":35.383394,"lng":136.772161,"zip":"5016016"},{"town":"徳田五丁目","koaza":"","lat":35.380678,"lng":136.776053,"zip":"5016016"},{"town":"徳田六丁目","koaza":"","lat":35.381097,"lng":136.771015,"zip":"5016016"},{"town":"徳田七丁目","koaza":"","lat":35.378794,"lng":136.771681,"zip":"5016016"},{"town":"徳田八丁目","koaza":"","lat":35.376275,"lng":136.770784,"zip":"5016016"},{"town":"徳田九丁目","koaza":"","lat":35.377792,"lng":136.766959,"zip":"5016016"},{"town":"徳田西一丁目","koaza":"","lat":35.386862,"lng":136.769726,"zip":"5016017"},{"town":"徳田西二丁目","koaza":"","lat":35.384324,"lng":136.770036,"zip":"5016017"},{"town":"徳田西三丁目","koaza":"","lat":35.384381,"lng":136.766996,"zip":"5016017"},{"town":"徳田西四丁目","koaza":"","lat":35.381159,"lng":136.767343,"zip":"5016017"},{"town":"野中一丁目","koaza":"","lat":35.387122,"lng":136.801278,"zip":"5016004"},{"town":"野中二丁目","koaza":"","lat":35.38676,"lng":136.797777,"zip":"5016004"},{"town":"野中三丁目","koaza":"","lat":35.38508,"lng":136.801328,"zip":"5016004"},{"town":"野中四丁目","koaza":"","lat":35.38448,"lng":136.797808,"zip":"5016004"},{"town":"野中五丁目","koaza":"","lat":35.38287,"lng":136.802083,"zip":"5016004"},{"town":"野中六丁目","koaza":"","lat":35.382509,"lng":136.798128,"zip":"5016004"},{"town":"野中七丁目","koaza":"","lat":35.3809,"lng":136.801865,"zip":"5016004"},{"town":"野中八丁目","koaza":"","lat":35.380632,"lng":136.798785,"zip":"5016004"},{"town":"伏屋一丁目","koaza":"","lat":35.38695,"lng":136.791077,"zip":"5016006"},{"town":"伏屋二丁目","koaza":"","lat":35.386942,"lng":136.787181,"zip":"5016006"},{"town":"伏屋三丁目","koaza":"","lat":35.383478,"lng":136.794667,"zip":"5016006"},{"town":"伏屋四丁目","koaza":"","lat":35.383504,"lng":136.791242,"zip":"5016006"},{"town":"伏屋五丁目","koaza":"","lat":35.383539,"lng":136.788448,"zip":"5016006"},{"town":"伏屋六丁目","koaza":"","lat":35.383668,"lng":136.785895,"zip":"5016006"},{"town":"伏屋七丁目","koaza":"","lat":35.37907,"lng":136.793796,"zip":"5016006"},{"town":"伏屋八丁目","koaza":"","lat":35.37949,"lng":136.790855,"zip":"5016006"},{"town":"伏屋九丁目","koaza":"","lat":35.379582,"lng":136.788689,"zip":"5016006"},{"town":"平島一丁目","koaza":"","lat":35.382852,"lng":136.817921,"zip":"5016003"},{"town":"平島二丁目","koaza":"","lat":35.385923,"lng":136.814837,"zip":"5016003"},{"town":"平島三丁目","koaza":"","lat":35.382658,"lng":136.81416,"zip":"5016003"},{"town":"平島四丁目","koaza":"","lat":35.385202,"lng":136.811411,"zip":"5016003"},{"town":"平島五丁目","koaza":"","lat":35.386904,"lng":136.808135,"zip":"5016003"},{"town":"平島六丁目","koaza":"","lat":35.385338,"lng":136.808626,"zip":"5016003"},{"town":"平島七丁目","koaza":"","lat":35.383416,"lng":136.808838,"zip":"5016003"},{"town":"平島八丁目","koaza":"","lat":35.385503,"lng":136.805261,"zip":"5016003"},{"town":"平島九丁目","koaza":"","lat":35.383196,"lng":136.805914,"zip":"5016003"},{"town":"平成一丁目","koaza":"","lat":35.386965,"lng":136.783376,"zip":"5016013"},{"town":"平成二丁目","koaza":"","lat":35.386948,"lng":136.781034,"zip":"5016013"},{"town":"平成三丁目","koaza":"","lat":35.386864,"lng":136.778919,"zip":"5016013"},{"town":"平成四丁目","koaza":"","lat":35.384345,"lng":136.783322,"zip":"5016013"},{"town":"平成五丁目","koaza":"","lat":35.384317,"lng":136.780442,"zip":"5016013"},{"town":"平成六丁目","koaza":"","lat":35.381416,"lng":136.783713,"zip":"5016013"},{"town":"平成七丁目","koaza":"","lat":35.382119,"lng":136.780941,"zip":"5016013"},{"town":"三宅一丁目","koaza":"","lat":35.396113,"lng":136.791365,"zip":"5016002"},{"town":"三宅二丁目","koaza":"","lat":35.393952,"lng":136.792534,"zip":"5016002"},{"town":"三宅三丁目","koaza":"","lat":35.392673,"lng":136.796484,"zip":"5016002"},{"town":"三宅四丁目","koaza":"","lat":35.390915,"lng":136.798533,"zip":"5016002"},{"town":"三宅五丁目","koaza":"","lat":35.391714,"lng":136.792643,"zip":"5016002"},{"town":"三宅六丁目","koaza":"","lat":35.389451,"lng":136.796819,"zip":"5016002"},{"town":"三宅七丁目","koaza":"","lat":35.389283,"lng":136.792625,"zip":"5016002"},{"town":"三宅八丁目","koaza":"","lat":35.389188,"lng":136.800459,"zip":"5016002"},{"town":"三宅九丁目","koaza":"","lat":35.3872,"lng":136.794511,"zip":"5016002"},{"town":"みやまち一丁目","koaza":"","lat":35.394974,"lng":136.772852,"zip":"5016019"},{"town":"みやまち二丁目","koaza":"","lat":35.393178,"lng":136.773392,"zip":"5016019"},{"town":"みやまち三丁目","koaza":"","lat":35.3918,"lng":136.7737,"zip":"5016019"},{"town":"みやまち四丁目","koaza":"","lat":35.389886,"lng":136.774146,"zip":"5016019"},{"town":"薬師寺一丁目","koaza":"","lat":35.379163,"lng":136.777113,"zip":"5016014"},{"town":"薬師寺二丁目","koaza":"","lat":35.378938,"lng":136.775115,"zip":"5016014"},{"town":"薬師寺三丁目","koaza":"","lat":35.377115,"lng":136.775763,"zip":"5016014"},{"town":"薬師寺四丁目","koaza":"","lat":35.375475,"lng":136.771732,"zip":"5016014"},{"town":"薬師寺五丁目","koaza":"","lat":35.375346,"lng":136.77414,"zip":"5016014"},{"town":"薬師寺六丁目","koaza":"","lat":35.374515,"lng":136.776294,"zip":"5016014"},{"town":"薬師寺七丁目","koaza":"","lat":35.374245,"lng":136.774363,"zip":"5016014"},{"town":"薬師寺八丁目","koaza":"","lat":35.374037,"lng":136.771869,"zip":"5016014"},{"town":"薬師寺九丁目","koaza":"","lat":35.371198,"lng":136.775993,"zip":"5016014"},{"town":"八剣一丁目","koaza":"","lat":35.392391,"lng":136.783526,"zip":"5016012"},{"town":"八剣二丁目","koaza":"","lat":35.393366,"lng":136.78053,"zip":"5016012"},{"town":"八剣三丁目","koaza":"","lat":35.393583,"lng":136.77824,"zip":"5016012"},{"town":"八剣四丁目","koaza":"","lat":35.394218,"lng":136.77614,"zip":"5016012"},{"town":"八剣五丁目","koaza":"","lat":35.391655,"lng":136.780417,"zip":"5016012"},{"town":"八剣六丁目","koaza":"","lat":35.391911,"lng":136.777259,"zip":"5016012"},{"town":"八剣七丁目","koaza":"","lat":35.389506,"lng":136.783472,"zip":"5016012"},{"town":"八剣八丁目","koaza":"","lat":35.389603,"lng":136.780151,"zip":"5016012"},{"town":"八剣九丁目","koaza":"","lat":35.389702,"lng":136.777466,"zip":"5016012"},{"town":"八剣北一丁目","koaza":"","lat":35.398181,"lng":136.783815,"zip":"5016011"},{"town":"八剣北二丁目","koaza":"","lat":35.39776,"lng":136.781881,"zip":"5016011"},{"town":"八剣北三丁目","koaza":"","lat":35.397063,"lng":136.779915,"zip":"5016011"},{"town":"八剣北四丁目","koaza":"","lat":35.394968,"lng":136.784162,"zip":"5016011"},{"town":"八剣北五丁目","koaza":"","lat":35.395097,"lng":136.782399,"zip":"5016011"},{"town":"八剣北六丁目","koaza":"","lat":35.395083,"lng":136.780633,"zip":"5016011"},{"town":"八剣北七丁目","koaza":"","lat":35.395527,"lng":136.777732,"zip":"5016011"},{"town":"若宮地一丁目","koaza":"","lat":35.380426,"lng":136.796531,"zip":"5016005"},{"town":"若宮地二丁目","koaza":"","lat":35.378873,"lng":136.797933,"zip":"5016005"},{"town":"若宮地三丁目","koaza":"","lat":35.376914,"lng":136.798061,"zip":"5016005"}]