[{"town":"白鳥町阿多岐","koaza":"","lat":35.922028,"lng":136.939302,"zip":"5015111"},{"town":"白鳥町石徹白","koaza":"","lat":36.007596,"lng":136.781594,"zip":"5015231"},{"town":"白鳥町大島","koaza":"","lat":35.86115,"lng":136.860441,"zip":"5015124"},{"town":"白鳥町恩地","koaza":"","lat":35.884387,"lng":136.884584,"zip":"5015115"},{"town":"白鳥町越佐","koaza":"","lat":35.858401,"lng":136.847033,"zip":"5015125"},{"town":"白鳥町白鳥","koaza":"","lat":35.897286,"lng":136.864361,"zip":"5015121"},{"town":"白鳥町為真","koaza":"","lat":35.878107,"lng":136.868364,"zip":"5015122"},{"town":"白鳥町長滝","koaza":"","lat":35.917111,"lng":136.822815,"zip":"5015104"},{"town":"白鳥町中津屋","koaza":"","lat":35.853777,"lng":136.880866,"zip":"5015123"},{"town":"白鳥町中西","koaza":"","lat":35.895797,"lng":136.888596,"zip":"5015116"},{"town":"白鳥町那留","koaza":"","lat":35.872621,"lng":136.887291,"zip":"5015114"},{"town":"白鳥町野添","koaza":"","lat":35.894667,"lng":136.90366,"zip":"5015113"},{"town":"白鳥町干田野","koaza":"","lat":35.935717,"lng":136.808289,"zip":"5015105"},{"town":"白鳥町二日町","koaza":"","lat":35.905274,"lng":136.834568,"zip":"5015103"},{"town":"白鳥町歩岐島","koaza":"","lat":35.93373,"lng":136.836845,"zip":"5015102"},{"town":"白鳥町前谷","koaza":"","lat":35.968512,"lng":136.824955,"zip":"5015101"},{"town":"白鳥町向小駄良","koaza":"","lat":35.875321,"lng":136.834644,"zip":"5015126"},{"town":"白鳥町六ノ里","koaza":"","lat":35.900279,"lng":136.944564,"zip":"5015112"},{"town":"高鷲町鮎立","koaza":"","lat":35.947413,"lng":136.854537,"zip":"5015304"},{"town":"高鷲町大鷲","koaza":"","lat":35.965896,"lng":136.878375,"zip":"5015303"},{"town":"高鷲町西洞","koaza":"","lat":35.990241,"lng":136.883663,"zip":"5015305"},{"town":"高鷲町ひるがの","koaza":"","lat":36.008367,"lng":136.902068,"zip":"5015301"},{"town":"高鷲町鷲見","koaza":"","lat":35.968805,"lng":136.930759,"zip":"5015302"},{"town":"八幡町相生","koaza":"","lat":35.739988,"lng":136.896922,"zip":"5014236"},{"town":"八幡町安久田","koaza":"","lat":35.73049,"lng":136.971959,"zip":"5014205"},{"town":"八幡町旭","koaza":"","lat":35.758483,"lng":137.015691,"zip":"5014204"},{"town":"八幡町有坂","koaza":"","lat":35.759143,"lng":136.927527,"zip":"5014235"},{"town":"八幡町有穂","koaza":"","lat":35.830914,"lng":137.026045,"zip":"5014201"},{"town":"八幡町市島","koaza":"","lat":35.787934,"lng":137.025626,"zip":"5014202"},{"town":"八幡町稲成","koaza":"","lat":35.734066,"lng":136.955998,"zip":"5014223"},{"town":"八幡町入間","koaza":"","lat":35.755931,"lng":137.043363,"zip":"5014451"},{"town":"八幡町大手町","koaza":"","lat":35.751567,"lng":136.956721,"zip":"5014219"},{"town":"八幡町尾崎町","koaza":"","lat":35.751194,"lng":136.9514,"zip":"5014217"},{"town":"八幡町小那比","koaza":"","lat":35.67112,"lng":137.03011,"zip":"5014455"},{"town":"八幡町小野","koaza":"","lat":35.761089,"lng":136.972811,"zip":"5014221"},{"town":"八幡町小野二丁目","koaza":"","lat":35.754345,"lng":136.967549,"zip":"5014221"},{"town":"八幡町小野三丁目","koaza":"","lat":35.755608,"lng":136.966755,"zip":"5014221"},{"town":"八幡町小野四丁目","koaza":"","lat":35.755307,"lng":136.969563,"zip":"5014221"},{"town":"八幡町小野五丁目","koaza":"","lat":35.757201,"lng":136.96919,"zip":"5014221"},{"town":"八幡町小野六丁目","koaza":"","lat":35.75586,"lng":136.971767,"zip":"5014221"},{"town":"八幡町小野七丁目","koaza":"","lat":35.759004,"lng":136.97434,"zip":"5014221"},{"town":"八幡町小野八丁目","koaza":"","lat":35.757305,"lng":136.973757,"zip":"5014221"},{"town":"八幡町河鹿","koaza":"","lat":35.820134,"lng":136.991079,"zip":"5014231"},{"town":"八幡町鍛冶屋町","koaza":"","lat":35.751933,"lng":136.956033,"zip":"5014218"},{"town":"八幡町五町","koaza":"","lat":35.759174,"lng":136.945826,"zip":"5014234"},{"town":"八幡町五町一丁目","koaza":"","lat":35.75428,"lng":136.945504,"zip":"5014234"},{"town":"八幡町五町二丁目","koaza":"","lat":35.753844,"lng":136.94397,"zip":"5014234"},{"town":"八幡町五町三丁目","koaza":"","lat":35.759118,"lng":136.942516,"zip":"5014234"},{"town":"八幡町五町四丁目","koaza":"","lat":35.758067,"lng":136.940723,"zip":"5014234"},{"town":"八幡町肴町","koaza":"","lat":35.750019,"lng":136.957437,"zip":"5014215"},{"town":"八幡町桜町","koaza":"","lat":35.751583,"lng":136.961252,"zip":"5014228"},{"town":"八幡町島","koaza":"","lat":35.77046,"lng":136.921646,"zip":"5014238"},{"town":"八幡町島谷","koaza":"","lat":35.74539,"lng":136.9617,"zip":"5014222"},{"town":"八幡町城南町","koaza":"","lat":35.74332,"lng":136.949152,"zip":"5014224"},{"town":"八幡町職人町","koaza":"","lat":35.753412,"lng":136.955916,"zip":"5014212"},{"town":"八幡町初納","koaza":"","lat":35.792638,"lng":136.998857,"zip":"5014203"},{"town":"八幡町新町","koaza":"","lat":35.748711,"lng":136.956263,"zip":"5014226"},{"town":"八幡町洲河","koaza":"","lat":35.706403,"lng":137.025939,"zip":"5014453"},{"town":"八幡町瀬取","koaza":"","lat":35.775619,"lng":136.934227,"zip":"5014233"},{"town":"八幡町大正町","koaza":"","lat":35.747578,"lng":136.951013,"zip":"5014225"},{"town":"八幡町殿町","koaza":"","lat":35.752316,"lng":136.957137,"zip":"5014213"},{"town":"八幡町中坪","koaza":"","lat":35.760672,"lng":136.955457,"zip":"5014211"},{"town":"八幡町中坪一丁目","koaza":"","lat":35.756868,"lng":136.954549,"zip":"5014211"},{"town":"八幡町中坪二丁目","koaza":"","lat":35.758814,"lng":136.952358,"zip":"5014211"},{"town":"八幡町中坪三丁目","koaza":"","lat":35.760263,"lng":136.951153,"zip":"5014211"},{"town":"八幡町那比","koaza":"","lat":35.699002,"lng":136.878896,"zip":"5014237"},{"town":"八幡町西乙原","koaza":"","lat":35.696655,"lng":136.93383,"zip":"5014207"},{"town":"八幡町野々倉","koaza":"","lat":35.685176,"lng":137.005969,"zip":"5014454"},{"town":"八幡町橋本町","koaza":"","lat":35.748916,"lng":136.958025,"zip":"5014227"},{"town":"八幡町初音","koaza":"","lat":35.784,"lng":136.960035,"zip":"5014232"},{"town":"八幡町本町","koaza":"","lat":35.750308,"lng":136.956568,"zip":"5014216"},{"town":"八幡町美山","koaza":"","lat":35.73383,"lng":137.003232,"zip":"5014452"},{"town":"八幡町向山","koaza":"","lat":35.754564,"lng":136.95504,"zip":"5014241"},{"town":"八幡町柳町","koaza":"","lat":35.752442,"lng":136.959208,"zip":"5014214"},{"town":"八幡町吉野","koaza":"","lat":35.709875,"lng":136.96075,"zip":"5014206"},{"town":"美並町梅原","koaza":"","lat":35.705354,"lng":136.980879,"zip":"5014104"},{"town":"美並町大原","koaza":"","lat":35.625877,"lng":136.967317,"zip":"5014107"},{"town":"美並町上田","koaza":"","lat":35.628454,"lng":136.926862,"zip":"5014101"},{"town":"美並町高砂","koaza":"","lat":35.665538,"lng":136.910824,"zip":"5014102"},{"town":"美並町白山","koaza":"","lat":35.658297,"lng":136.972137,"zip":"5014106"},{"town":"美並町三戸","koaza":"","lat":35.682029,"lng":136.979744,"zip":"5014105"},{"town":"美並町山田","koaza":"","lat":35.67741,"lng":136.950012,"zip":"5014103"},{"town":"明宝大谷","koaza":"","lat":35.853885,"lng":137.014708,"zip":"5014301"},{"town":"明宝小川","koaza":"","lat":35.882743,"lng":137.109534,"zip":"5014305"},{"town":"明宝奥住","koaza":"","lat":35.914902,"lng":137.048076,"zip":"5014304"},{"town":"明宝寒水","koaza":"","lat":35.876763,"lng":136.982292,"zip":"5014302"},{"town":"明宝気良","koaza":"","lat":35.890085,"lng":137.014408,"zip":"5014303"},{"town":"明宝畑佐","koaza":"","lat":35.853298,"lng":137.06214,"zip":"5014306"},{"town":"明宝二間手","koaza":"","lat":35.85928,"lng":137.042102,"zip":"5014307"},{"town":"大和町内ヶ谷","koaza":"","lat":35.796316,"lng":136.82883,"zip":"5014200"},{"town":"大和町大間見","koaza":"","lat":35.848981,"lng":136.907185,"zip":"5014601"},{"town":"大和町落部","koaza":"","lat":35.81224,"lng":136.87341,"zip":"5014619"},{"town":"大和町河辺","koaza":"","lat":35.795958,"lng":136.913879,"zip":"5014606"},{"town":"大和町神路","koaza":"","lat":35.793919,"lng":136.932901,"zip":"5014605"},{"town":"大和町栗巣","koaza":"","lat":35.850231,"lng":136.942404,"zip":"5014603"},{"town":"大和町小間見","koaza":"","lat":35.841331,"lng":136.924582,"zip":"5014602"},{"town":"大和町島","koaza":"","lat":35.779288,"lng":136.899412,"zip":"5014610"},{"town":"大和町剣","koaza":"","lat":35.831351,"lng":136.891765,"zip":"5014612"},{"town":"大和町徳永","koaza":"","lat":35.809374,"lng":136.902343,"zip":"5014607"},{"town":"大和町名皿部","koaza":"","lat":35.813196,"lng":136.890032,"zip":"5014613"},{"town":"大和町古道","koaza":"","lat":35.835856,"lng":136.963999,"zip":"5014604"},{"town":"大和町牧","koaza":"","lat":35.815941,"lng":136.925143,"zip":"5014608"},{"town":"大和町万場","koaza":"","lat":35.835494,"lng":136.875503,"zip":"5014611"},{"town":"和良町安郷野","koaza":"","lat":35.752555,"lng":137.102157,"zip":"5014514"},{"town":"和良町鹿倉","koaza":"","lat":35.811112,"lng":137.070347,"zip":"5014501"},{"town":"和良町沢","koaza":"","lat":35.740225,"lng":137.078304,"zip":"5014517"},{"town":"和良町下洞","koaza":"","lat":35.760788,"lng":137.088573,"zip":"5014511"},{"town":"和良町土京","koaza":"","lat":35.800821,"lng":137.114347,"zip":"5014518"},{"town":"和良町野尻","koaza":"","lat":35.74972,"lng":137.065108,"zip":"5014503"},{"town":"和良町方須","koaza":"","lat":35.745883,"lng":137.114723,"zip":"5014515"},{"town":"和良町法師丸","koaza":"","lat":35.736826,"lng":137.090622,"zip":"5014510"},{"town":"和良町三庫","koaza":"","lat":35.722856,"lng":137.049595,"zip":"5014516"},{"town":"和良町宮地","koaza":"","lat":35.738897,"lng":137.073809,"zip":"5014507"},{"town":"和良町宮代","koaza":"","lat":35.766459,"lng":137.070616,"zip":"5014502"},{"town":"和良町横野","koaza":"","lat":35.736295,"lng":137.065679,"zip":"5014506"},{"town":"八幡町有坂","koaza":"古新田場","lat":35.743841,"lng":136.946707,"zip":"5014235"}]