[{"town":"相生町","koaza":"","lat":35.482293,"lng":136.920663,"zip":"5013851"},{"town":"赤渕","koaza":"","lat":35.479012,"lng":136.914313,"zip":"5013978"},{"town":"上利町","koaza":"","lat":35.481117,"lng":136.920654,"zip":"5013852"},{"town":"安桜台","koaza":"","lat":35.491788,"lng":136.913732,"zip":"5013808"},{"town":"朝倉町","koaza":"","lat":35.481058,"lng":136.919996,"zip":"5013853"},{"town":"安桜山","koaza":"","lat":35.489217,"lng":136.917958,"zip":"5013807"},{"town":"旭ケ丘一丁目","koaza":"","lat":35.48439,"lng":136.928637,"zip":"5013829"},{"town":"旭ケ丘二丁目","koaza":"","lat":35.482847,"lng":136.928046,"zip":"5013829"},{"town":"旭ケ丘三丁目","koaza":"","lat":35.481499,"lng":136.929086,"zip":"5013829"},{"town":"吾妻町","koaza":"","lat":35.484239,"lng":136.921513,"zip":"5013845"},{"town":"池尻","koaza":"","lat":35.509606,"lng":136.885438,"zip":"5013264"},{"town":"池田町","koaza":"","lat":35.496157,"lng":136.899188,"zip":"5013247"},{"town":"居敷町","koaza":"","lat":35.481554,"lng":136.908211,"zip":"5013966"},{"town":"伊勢町","koaza":"","lat":35.486169,"lng":136.921778,"zip":"5013841"},{"town":"板取","koaza":"","lat":35.724923,"lng":136.76853,"zip":"5012901"},{"town":"市平賀","koaza":"","lat":35.490181,"lng":136.948278,"zip":"5013822"},{"town":"一本木町","koaza":"","lat":35.48154,"lng":136.913338,"zip":"5013979"},{"town":"稲口","koaza":"","lat":35.464082,"lng":136.915813,"zip":"5013932"},{"town":"稲河町","koaza":"","lat":35.471366,"lng":136.930077,"zip":"5013913"},{"town":"鋳物師屋","koaza":"","lat":35.477246,"lng":136.938103,"zip":"5013914"},{"town":"鋳物師屋一丁目","koaza":"","lat":35.476705,"lng":136.934506,"zip":"5013914"},{"town":"鋳物師屋二丁目","koaza":"","lat":35.476405,"lng":136.935973,"zip":"5013914"},{"town":"鋳物師屋三丁目","koaza":"","lat":35.474348,"lng":136.933308,"zip":"5013914"},{"town":"鋳物師屋四丁目","koaza":"","lat":35.47496,"lng":136.936504,"zip":"5013914"},{"town":"鋳物師屋五丁目","koaza":"","lat":35.47327,"lng":136.935753,"zip":"5013914"},{"town":"鋳物師屋六丁目","koaza":"","lat":35.472082,"lng":136.932881,"zip":"5013914"},{"town":"鋳物師屋七丁目","koaza":"","lat":35.471711,"lng":136.934327,"zip":"5013914"},{"town":"いろは町","koaza":"","lat":35.481293,"lng":136.918074,"zip":"5013855"},{"town":"植野","koaza":"","lat":35.499281,"lng":136.850567,"zip":"5013951"},{"town":"梅ケ枝町","koaza":"","lat":35.479517,"lng":136.918345,"zip":"5013974"},{"town":"円保通一丁目","koaza":"","lat":35.488914,"lng":136.92731,"zip":"5013804"},{"town":"円保通二丁目","koaza":"","lat":35.488649,"lng":136.928964,"zip":"5013804"},{"town":"円保通三丁目","koaza":"","lat":35.488502,"lng":136.930416,"zip":"5013804"},{"town":"大杉","koaza":"","lat":35.452312,"lng":136.951951,"zip":"5013922"},{"town":"大坪","koaza":"","lat":35.495513,"lng":136.912827,"zip":"5013801"},{"town":"小瀬","koaza":"","lat":35.495141,"lng":136.883543,"zip":"5013265"},{"town":"小瀬長池町","koaza":"","lat":35.494385,"lng":136.894378,"zip":"5013268"},{"town":"小瀬南一丁目","koaza":"","lat":35.491831,"lng":136.892377,"zip":"5013266"},{"town":"小瀬南二丁目","koaza":"","lat":35.492098,"lng":136.888533,"zip":"5013266"},{"town":"小野","koaza":"","lat":35.535402,"lng":136.943549,"zip":"5013201"},{"town":"尾太町","koaza":"","lat":35.509108,"lng":136.927166,"zip":"5013210"},{"town":"小屋名","koaza":"","lat":35.482415,"lng":136.870084,"zip":"5013941"},{"town":"貸上町","koaza":"","lat":35.495766,"lng":136.91006,"zip":"5013214"},{"town":"鍛冶町","koaza":"","lat":35.484935,"lng":136.914417,"zip":"5013871"},{"town":"春日町一丁目","koaza":"","lat":35.483114,"lng":136.919506,"zip":"5013865"},{"town":"春日町二丁目","koaza":"","lat":35.483467,"lng":136.918194,"zip":"5013865"},{"town":"春日町三丁目","koaza":"","lat":35.483546,"lng":136.916786,"zip":"5013865"},{"town":"片倉町","koaza":"","lat":35.48247,"lng":136.910837,"zip":"5013963"},{"town":"金屋町","koaza":"","lat":35.484883,"lng":136.915577,"zip":"5013872"},{"town":"兼永町","koaza":"","lat":35.485099,"lng":136.919282,"zip":"5013862"},{"town":"上大野","koaza":"","lat":35.512842,"lng":136.98286,"zip":"5013204"},{"town":"上白金","koaza":"","lat":35.481719,"lng":136.858206,"zip":"5013947"},{"town":"神野","koaza":"","lat":35.532889,"lng":136.978741,"zip":"5013203"},{"town":"上之保","koaza":"","lat":35.644102,"lng":137.063817,"zip":"5013601"},{"town":"河合町","koaza":"","lat":35.486207,"lng":136.912314,"zip":"5013877"},{"town":"川間町","koaza":"","lat":35.489038,"lng":136.91012,"zip":"5013235"},{"town":"観音前","koaza":"","lat":35.481957,"lng":136.922267,"zip":"5013835"},{"town":"観音山","koaza":"","lat":35.487291,"lng":136.924014,"zip":"5013806"},{"town":"北天神一丁目","koaza":"","lat":35.479158,"lng":136.932503,"zip":"5013917"},{"town":"北天神二丁目","koaza":"","lat":35.478963,"lng":136.934267,"zip":"5013917"},{"town":"北天神三丁目","koaza":"","lat":35.478826,"lng":136.936387,"zip":"5013917"},{"town":"北福野町一丁目","koaza":"","lat":35.489041,"lng":136.902533,"zip":"5013245"},{"town":"北福野町二丁目","koaza":"","lat":35.489768,"lng":136.90043,"zip":"5013245"},{"town":"吉田町","koaza":"","lat":35.48607,"lng":136.923996,"zip":"5013843"},{"town":"貴船町","koaza":"","lat":35.485667,"lng":136.912033,"zip":"5013876"},{"town":"希望ケ丘町","koaza":"","lat":35.470977,"lng":136.883735,"zip":"5013200"},{"town":"桐ケ丘一丁目","koaza":"","lat":35.459532,"lng":136.90081,"zip":"5013200"},{"town":"桐ケ丘二丁目","koaza":"","lat":35.458471,"lng":136.898031,"zip":"5013200"},{"town":"桐ケ丘三丁目","koaza":"","lat":35.453612,"lng":136.899964,"zip":"5013200"},{"town":"桐谷台一丁目","koaza":"","lat":35.459465,"lng":136.893859,"zip":"5013934"},{"town":"桐谷台二丁目","koaza":"","lat":35.457283,"lng":136.892541,"zip":"5013934"},{"town":"桐谷台三丁目","koaza":"","lat":35.456702,"lng":136.890722,"zip":"5013934"},{"town":"倉知","koaza":"","lat":35.463462,"lng":136.898404,"zip":"5013936"},{"town":"倉知南","koaza":"","lat":35.44826,"lng":136.902841,"zip":"5013930"},{"town":"黒屋","koaza":"","lat":35.501308,"lng":136.928936,"zip":"5013207"},{"town":"向陽台","koaza":"","lat":35.461584,"lng":136.939244,"zip":"5013927"},{"town":"寿町一丁目","koaza":"","lat":35.478145,"lng":136.923444,"zip":"5013908"},{"town":"寿町二丁目","koaza":"","lat":35.476733,"lng":136.924394,"zip":"5013908"},{"town":"小迫間","koaza":"","lat":35.460461,"lng":136.931313,"zip":"5013926"},{"town":"小柳町","koaza":"","lat":35.485074,"lng":136.918547,"zip":"5013861"},{"town":"西仙房","koaza":"","lat":35.492056,"lng":136.904549,"zip":"5013241"},{"town":"栄町一丁目","koaza":"","lat":35.48712,"lng":136.911319,"zip":"5013253"},{"town":"栄町二丁目","koaza":"","lat":35.486874,"lng":136.909761,"zip":"5013253"},{"town":"栄町三丁目","koaza":"","lat":35.48575,"lng":136.906433,"zip":"5013253"},{"town":"栄町四丁目","koaza":"","lat":35.485752,"lng":136.9012,"zip":"5013253"},{"town":"栄町五丁目","koaza":"","lat":35.485317,"lng":136.89682,"zip":"5013253"},{"town":"坂下町","koaza":"","lat":35.487877,"lng":136.913915,"zip":"5013888"},{"town":"桜ケ丘一丁目","koaza":"","lat":35.474854,"lng":136.927459,"zip":"5013903"},{"town":"桜ケ丘二丁目","koaza":"","lat":35.47501,"lng":136.929549,"zip":"5013903"},{"town":"桜ケ丘三丁目","koaza":"","lat":35.473044,"lng":136.929891,"zip":"5013903"},{"town":"桜木町","koaza":"","lat":35.481178,"lng":136.916557,"zip":"5013856"},{"town":"桜台一丁目","koaza":"","lat":35.468096,"lng":136.926572,"zip":"5013931"},{"town":"桜台二丁目","koaza":"","lat":35.466134,"lng":136.92572,"zip":"5013931"},{"town":"桜台三丁目","koaza":"","lat":35.465167,"lng":136.928998,"zip":"5013931"},{"town":"桜台四丁目","koaza":"","lat":35.465924,"lng":136.931187,"zip":"5013931"},{"town":"桜本町一丁目","koaza":"","lat":35.488544,"lng":136.911838,"zip":"5013232"},{"town":"桜本町二丁目","koaza":"","lat":35.490748,"lng":136.911039,"zip":"5013232"},{"town":"山王通一丁目","koaza":"","lat":35.487474,"lng":136.897933,"zip":"5013252"},{"town":"山王通二丁目","koaza":"","lat":35.489931,"lng":136.898855,"zip":"5013252"},{"town":"山王通西","koaza":"","lat":35.487332,"lng":136.895829,"zip":"5013251"},{"town":"四季ノ台","koaza":"","lat":35.46075,"lng":136.893185,"zip":"5013935"},{"town":"十軒町","koaza":"","lat":35.485197,"lng":136.913783,"zip":"5013878"},{"town":"志津野","koaza":"","lat":35.516381,"lng":136.952302,"zip":"5013205"},{"town":"寺内町","koaza":"","lat":35.480935,"lng":136.915027,"zip":"5013972"},{"town":"清水町","koaza":"","lat":35.477956,"lng":136.91784,"zip":"5013977"},{"town":"下有知","koaza":"","lat":35.510746,"lng":136.920413,"zip":"5013217"},{"town":"下白金","koaza":"","lat":35.473426,"lng":136.852028,"zip":"5013955"},{"town":"下之保","koaza":"","lat":35.5593,"lng":136.982536,"zip":"5013521"},{"town":"十三塚北","koaza":"","lat":35.48921,"lng":136.896785,"zip":"5013259"},{"town":"十三塚町","koaza":"","lat":35.486658,"lng":136.894823,"zip":"5013250"},{"town":"十三塚南","koaza":"","lat":35.4855,"lng":136.894594,"zip":"5013258"},{"town":"十六所","koaza":"","lat":35.479624,"lng":136.907882,"zip":"5013965"},{"town":"白川町","koaza":"","lat":35.485334,"lng":136.916737,"zip":"5013868"},{"town":"新田","koaza":"","lat":35.485839,"lng":136.891892,"zip":"5013257"},{"town":"新迫間","koaza":"","lat":35.444012,"lng":136.94625,"zip":"5013923"},{"town":"新堀町","koaza":"","lat":35.478786,"lng":136.922964,"zip":"5013909"},{"town":"新町","koaza":"","lat":35.484435,"lng":136.919848,"zip":"5013847"},{"town":"神明町一丁目","koaza":"","lat":35.475817,"lng":136.922057,"zip":"5013905"},{"town":"神明町二丁目","koaza":"","lat":35.475051,"lng":136.923253,"zip":"5013905"},{"town":"神明町三丁目","koaza":"","lat":35.47476,"lng":136.92444,"zip":"5013905"},{"town":"神明町四丁目","koaza":"","lat":35.474933,"lng":136.920151,"zip":"5013905"},{"town":"末広町","koaza":"","lat":35.484977,"lng":136.921126,"zip":"5013848"},{"town":"住吉町","koaza":"","lat":35.48366,"lng":136.921123,"zip":"5013846"},{"town":"清蔵寺","koaza":"","lat":35.484344,"lng":136.907784,"zip":"5013961"},{"town":"関口町一丁目","koaza":"","lat":35.48037,"lng":136.92843,"zip":"5013826"},{"town":"関口町二丁目","koaza":"","lat":35.480301,"lng":136.930702,"zip":"5013826"},{"town":"関口町四丁目","koaza":"","lat":35.480235,"lng":136.932215,"zip":"5013826"},{"town":"関ノ上一丁目","koaza":"","lat":35.5234,"lng":136.911848,"zip":"5013211"},{"town":"関ノ上二丁目","koaza":"","lat":35.522329,"lng":136.91303,"zip":"5013211"},{"town":"関ノ上三丁目","koaza":"","lat":35.524254,"lng":136.91495,"zip":"5013211"},{"town":"千年町一丁目","koaza":"","lat":35.485079,"lng":136.917743,"zip":"5013866"},{"town":"千年町二丁目","koaza":"","lat":35.48399,"lng":136.917684,"zip":"5013866"},{"town":"千年町三丁目","koaza":"","lat":35.482794,"lng":136.917601,"zip":"5013866"},{"town":"千疋","koaza":"","lat":35.494162,"lng":136.862222,"zip":"5013954"},{"town":"千疋北一丁目","koaza":"","lat":35.493652,"lng":136.856753,"zip":"5013953"},{"town":"千疋北二丁目","koaza":"","lat":35.495311,"lng":136.857421,"zip":"5013953"},{"town":"側島","koaza":"","lat":35.472422,"lng":136.839934,"zip":"5013957"},{"town":"大平台","koaza":"","lat":35.496837,"lng":136.859722,"zip":"5013952"},{"town":"大平町一丁目","koaza":"","lat":35.484231,"lng":136.925144,"zip":"5013833"},{"town":"大平町二丁目","koaza":"","lat":35.482811,"lng":136.924342,"zip":"5013833"},{"town":"大平町三丁目","koaza":"","lat":35.481712,"lng":136.924058,"zip":"5013833"},{"town":"大門町一丁目","koaza":"","lat":35.481163,"lng":136.921491,"zip":"5013834"},{"town":"大門町二丁目","koaza":"","lat":35.481036,"lng":136.922492,"zip":"5013834"},{"town":"大門町三丁目","koaza":"","lat":35.48031,"lng":136.924016,"zip":"5013834"},{"town":"宝山町","koaza":"","lat":35.479984,"lng":136.91137,"zip":"5013964"},{"town":"竪切北","koaza":"","lat":35.4945,"lng":136.908301,"zip":"5013228"},{"town":"竪切南","koaza":"","lat":35.491738,"lng":136.908857,"zip":"5013223"},{"town":"段下","koaza":"","lat":35.484141,"lng":136.895952,"zip":"5013255"},{"town":"力山","koaza":"","lat":35.483534,"lng":136.904819,"zip":"5013968"},{"town":"月見町","koaza":"","lat":35.481428,"lng":136.919173,"zip":"5013854"},{"town":"辻井戸町","koaza":"","lat":35.48788,"lng":136.909403,"zip":"5013236"},{"town":"津保川台一丁目","koaza":"","lat":35.474264,"lng":136.867304,"zip":"5013946"},{"town":"津保川台二丁目","koaza":"","lat":35.472101,"lng":136.866565,"zip":"5013946"},{"town":"出来町","koaza":"","lat":35.485827,"lng":136.922789,"zip":"5013842"},{"town":"寺田一丁目","koaza":"","lat":35.509006,"lng":136.916017,"zip":"5013212"},{"town":"寺田二丁目","koaza":"","lat":35.508176,"lng":136.916584,"zip":"5013212"},{"town":"天徳町一丁目","koaza":"","lat":35.477312,"lng":136.932495,"zip":"5013915"},{"town":"天徳町二丁目","koaza":"","lat":35.476202,"lng":136.93242,"zip":"5013915"},{"town":"桃紅大地","koaza":"","lat":35.451006,"lng":136.901568,"zip":"5013939"},{"town":"東新町一丁目","koaza":"","lat":35.481245,"lng":136.930926,"zip":"5013824"},{"town":"東新町二丁目","koaza":"","lat":35.481291,"lng":136.933254,"zip":"5013824"},{"town":"東新町三丁目","koaza":"","lat":35.480272,"lng":136.934324,"zip":"5013824"},{"town":"東新町四丁目","koaza":"","lat":35.481783,"lng":136.936707,"zip":"5013824"},{"town":"東新町五丁目","koaza":"","lat":35.480304,"lng":136.937919,"zip":"5013824"},{"town":"東新町六丁目","koaza":"","lat":35.482464,"lng":136.940613,"zip":"5013824"},{"town":"東新町七丁目","koaza":"","lat":35.480273,"lng":136.941562,"zip":"5013824"},{"town":"塔ノ洞","koaza":"","lat":35.502509,"lng":136.942332,"zip":"5013206"},{"town":"常盤町","koaza":"","lat":35.484492,"lng":136.916835,"zip":"5013867"},{"town":"吐月町","koaza":"","lat":35.48594,"lng":136.914033,"zip":"5013887"},{"town":"戸田","koaza":"","lat":35.482458,"lng":136.846732,"zip":"5013958"},{"town":"富之保","koaza":"","lat":35.608713,"lng":136.996182,"zip":"5013501"},{"town":"富本町","koaza":"","lat":35.484519,"lng":136.918572,"zip":"5013863"},{"town":"豊岡町一丁目","koaza":"","lat":35.478826,"lng":136.930608,"zip":"5013916"},{"town":"豊岡町二丁目","koaza":"","lat":35.476806,"lng":136.93043,"zip":"5013916"},{"town":"豊岡町三丁目","koaza":"","lat":35.475073,"lng":136.931599,"zip":"5013916"},{"town":"豊岡町四丁目","koaza":"","lat":35.472835,"lng":136.931479,"zip":"5013916"},{"town":"豊川町","koaza":"","lat":35.480191,"lng":136.920407,"zip":"5013975"},{"town":"長住町","koaza":"","lat":35.482532,"lng":136.923084,"zip":"5013839"},{"town":"中之保","koaza":"","lat":35.578285,"lng":137.045413,"zip":"5013511"},{"town":"中福野町","koaza":"","lat":35.487811,"lng":136.90432,"zip":"5013243"},{"town":"仲町","koaza":"","lat":35.486149,"lng":136.928798,"zip":"5013817"},{"town":"西旭ケ丘","koaza":"","lat":35.482356,"lng":136.925456,"zip":"5013828"},{"town":"西居敷","koaza":"","lat":35.481763,"lng":136.907037,"zip":"5013967"},{"town":"虹ケ丘北","koaza":"","lat":35.471182,"lng":136.865611,"zip":"5013945"},{"town":"虹ケ丘南","koaza":"","lat":35.4673,"lng":136.866588,"zip":"5013943"},{"town":"西欠ノ下","koaza":"","lat":35.477955,"lng":136.91938,"zip":"5013906"},{"town":"西貸上","koaza":"","lat":35.494278,"lng":136.909868,"zip":"5013221"},{"town":"西神野","koaza":"","lat":35.532352,"lng":136.96076,"zip":"5013202"},{"town":"西木戸町","koaza":"","lat":35.488315,"lng":136.912797,"zip":"5013233"},{"town":"西境松町","koaza":"","lat":35.496963,"lng":136.909864,"zip":"5013215"},{"town":"西田原","koaza":"","lat":35.456396,"lng":136.942831,"zip":"5013928"},{"town":"西日吉町","koaza":"","lat":35.48917,"lng":136.914749,"zip":"5013882"},{"town":"西福野町一丁目","koaza":"","lat":35.48744,"lng":136.902162,"zip":"5013244"},{"town":"西福野町二丁目","koaza":"","lat":35.487483,"lng":136.900232,"zip":"5013244"},{"town":"西本郷","koaza":"","lat":35.495257,"lng":136.919577,"zip":"5013803"},{"town":"西本郷通一丁目","koaza":"","lat":35.493229,"lng":136.912517,"zip":"5013803"},{"town":"西本郷通二丁目","koaza":"","lat":35.493292,"lng":136.914157,"zip":"5013803"},{"town":"西本郷通三丁目","koaza":"","lat":35.493077,"lng":136.916386,"zip":"5013803"},{"town":"西本郷通四丁目","koaza":"","lat":35.492878,"lng":136.918344,"zip":"5013803"},{"town":"西本郷通五丁目","koaza":"","lat":35.491581,"lng":136.920001,"zip":"5013803"},{"town":"西本郷通六丁目","koaza":"","lat":35.490504,"lng":136.922281,"zip":"5013803"},{"town":"西本郷通七丁目","koaza":"","lat":35.489516,"lng":136.924436,"zip":"5013803"},{"town":"西町","koaza":"","lat":35.485526,"lng":136.925304,"zip":"5013819"},{"town":"西門前町","koaza":"","lat":35.483679,"lng":136.922494,"zip":"5013837"},{"town":"のぞみケ丘","koaza":"","lat":35.515089,"lng":136.925538,"zip":"5013219"},{"town":"梅竜寺山","koaza":"","lat":35.479381,"lng":136.921299,"zip":"5013976"},{"town":"迫間","koaza":"","lat":35.441407,"lng":136.927335,"zip":"5013924"},{"town":"迫間台一丁目","koaza":"","lat":35.452167,"lng":136.924228,"zip":"5013925"},{"town":"迫間台二丁目","koaza":"","lat":35.450397,"lng":136.92701,"zip":"5013925"},{"town":"長谷寺町","koaza":"","lat":35.484511,"lng":136.923444,"zip":"5013831"},{"town":"花園町","koaza":"","lat":35.484559,"lng":136.926035,"zip":"5013832"},{"town":"巾一丁目","koaza":"","lat":35.484565,"lng":136.891584,"zip":"5013256"},{"town":"巾二丁目","koaza":"","lat":35.484462,"lng":136.887315,"zip":"5013256"},{"town":"巾三丁目","koaza":"","lat":35.483889,"lng":136.881131,"zip":"5013256"},{"town":"馬場出","koaza":"","lat":35.481978,"lng":136.90366,"zip":"5013969"},{"town":"春里町一丁目","koaza":"","lat":35.479623,"lng":136.925746,"zip":"5013901"},{"town":"春里町二丁目","koaza":"","lat":35.478378,"lng":136.925799,"zip":"5013901"},{"town":"春里町三丁目","koaza":"","lat":35.476758,"lng":136.92616,"zip":"5013901"},{"town":"東貸上","koaza":"","lat":35.494242,"lng":136.911349,"zip":"5013213"},{"town":"東桜町","koaza":"","lat":35.491044,"lng":136.912196,"zip":"5013231"},{"town":"東志摩","koaza":"","lat":35.514386,"lng":136.898458,"zip":"5013218"},{"town":"東仙房","koaza":"","lat":35.491327,"lng":136.907522,"zip":"5013224"},{"town":"東田原","koaza":"","lat":35.461507,"lng":136.957682,"zip":"5013921"},{"town":"東出町","koaza":"","lat":35.484824,"lng":136.937112,"zip":"5013823"},{"town":"東野町","koaza":"","lat":35.490001,"lng":136.94037,"zip":"5013813"},{"town":"東日吉町","koaza":"","lat":35.48806,"lng":136.915593,"zip":"5013883"},{"town":"東福野町","koaza":"","lat":35.487938,"lng":136.905889,"zip":"5013242"},{"town":"東本郷","koaza":"","lat":35.492837,"lng":136.927203,"zip":"5013812"},{"town":"東本郷通一丁目","koaza":"","lat":35.48862,"lng":136.931926,"zip":"5013811"},{"town":"東本郷通二丁目","koaza":"","lat":35.488933,"lng":136.9335,"zip":"5013811"},{"town":"東本郷通三丁目","koaza":"","lat":35.489188,"lng":136.934918,"zip":"5013811"},{"town":"東本郷通四丁目","koaza":"","lat":35.489456,"lng":136.936258,"zip":"5013811"},{"town":"東本郷通五丁目","koaza":"","lat":35.48971,"lng":136.937606,"zip":"5013811"},{"town":"東本郷通六丁目","koaza":"","lat":35.48977,"lng":136.939028,"zip":"5013811"},{"town":"東町一丁目","koaza":"","lat":35.487242,"lng":136.933679,"zip":"5013815"},{"town":"東町二丁目","koaza":"","lat":35.48771,"lng":136.935245,"zip":"5013815"},{"town":"東町三丁目","koaza":"","lat":35.488211,"lng":136.936946,"zip":"5013815"},{"town":"東町四丁目","koaza":"","lat":35.488554,"lng":136.93847,"zip":"5013815"},{"town":"東町五丁目","koaza":"","lat":35.488567,"lng":136.940286,"zip":"5013815"},{"town":"東門前町","koaza":"","lat":35.483386,"lng":136.92337,"zip":"5013838"},{"town":"東山","koaza":"","lat":35.488385,"lng":136.943219,"zip":"5013814"},{"town":"東山一丁目","koaza":"","lat":35.489795,"lng":136.943937,"zip":"5013814"},{"town":"東山二丁目","koaza":"","lat":35.49038,"lng":136.941694,"zip":"5013814"},{"town":"東山三丁目","koaza":"","lat":35.492193,"lng":136.940956,"zip":"5013814"},{"town":"東山四丁目","koaza":"","lat":35.491101,"lng":136.945902,"zip":"5013814"},{"town":"肥田瀬","koaza":"","lat":35.476677,"lng":136.948315,"zip":"5013911"},{"town":"一ツ山町","koaza":"","lat":35.479331,"lng":136.916334,"zip":"5013973"},{"town":"日ノ出町一丁目","koaza":"","lat":35.483551,"lng":136.915154,"zip":"5013873"},{"town":"日ノ出町二丁目","koaza":"","lat":35.484298,"lng":136.912821,"zip":"5013873"},{"town":"平賀町一丁目","koaza":"","lat":35.484292,"lng":136.932147,"zip":"5013821"},{"town":"平賀町二丁目","koaza":"","lat":35.485839,"lng":136.933855,"zip":"5013821"},{"town":"平賀町三丁目","koaza":"","lat":35.486374,"lng":136.935885,"zip":"5013821"},{"town":"平賀町四丁目","koaza":"","lat":35.486357,"lng":136.937608,"zip":"5013821"},{"town":"平賀町五丁目","koaza":"","lat":35.486975,"lng":136.939169,"zip":"5013821"},{"town":"平賀町六丁目","koaza":"","lat":35.486756,"lng":136.940539,"zip":"5013821"},{"town":"平賀町七丁目","koaza":"","lat":35.486484,"lng":136.943156,"zip":"5013821"},{"town":"平賀町八丁目","koaza":"","lat":35.48687,"lng":136.947216,"zip":"5013821"},{"town":"広見","koaza":"","lat":35.511173,"lng":136.867803,"zip":"5013263"},{"town":"広見北町","koaza":"","lat":35.516436,"lng":136.867424,"zip":"5013261"},{"town":"広見東町","koaza":"","lat":35.513431,"lng":136.87215,"zip":"5013262"},{"town":"古屋敷町","koaza":"","lat":35.481889,"lng":136.914398,"zip":"5013971"},{"town":"平成通一丁目","koaza":"","lat":35.471917,"lng":136.936422,"zip":"5013919"},{"town":"平成通二丁目","koaza":"","lat":35.472104,"lng":136.937318,"zip":"5013919"},{"town":"平和通一丁目","koaza":"","lat":35.482402,"lng":136.919576,"zip":"5013874"},{"town":"平和通二丁目","koaza":"","lat":35.48248,"lng":136.918323,"zip":"5013874"},{"town":"平和通三丁目","koaza":"","lat":35.482619,"lng":136.916247,"zip":"5013874"},{"town":"平和通四丁目","koaza":"","lat":35.482036,"lng":136.915211,"zip":"5013874"},{"town":"平和通五丁目","koaza":"","lat":35.483015,"lng":136.913633,"zip":"5013874"},{"town":"平和通六丁目","koaza":"","lat":35.483193,"lng":136.912464,"zip":"5013874"},{"town":"平和通七丁目","koaza":"","lat":35.48446,"lng":136.911062,"zip":"5013874"},{"town":"平和通八丁目","koaza":"","lat":35.485114,"lng":136.910038,"zip":"5013874"},{"town":"保明","koaza":"","lat":35.472124,"lng":136.844122,"zip":"5013956"},{"town":"北仙房","koaza":"","lat":35.493875,"lng":136.906914,"zip":"5013227"},{"town":"星ケ丘","koaza":"","lat":35.489959,"lng":136.879016,"zip":"5013267"},{"town":"洞戸阿部","koaza":"","lat":35.635252,"lng":136.810857,"zip":"5012807"},{"town":"洞戸市場","koaza":"","lat":35.602968,"lng":136.815133,"zip":"5012812"},{"town":"洞戸大野","koaza":"","lat":35.607774,"lng":136.84352,"zip":"5012816"},{"town":"洞戸尾倉","koaza":"","lat":35.627383,"lng":136.81943,"zip":"5012805"},{"town":"洞戸小瀬見","koaza":"","lat":35.657284,"lng":136.811328,"zip":"5012809"},{"town":"洞戸片","koaza":"","lat":35.616895,"lng":136.80848,"zip":"5012811"},{"town":"洞戸栗原","koaza":"","lat":35.619832,"lng":136.836727,"zip":"5012801"},{"town":"洞戸黒谷","koaza":"","lat":35.606585,"lng":136.830717,"zip":"5012815"},{"town":"洞戸高賀","koaza":"","lat":35.650819,"lng":136.859708,"zip":"5012806"},{"town":"洞戸高見","koaza":"","lat":35.646996,"lng":136.814808,"zip":"5012808"},{"town":"洞戸小坂","koaza":"","lat":35.59819,"lng":136.839908,"zip":"5012817"},{"town":"洞戸菅谷","koaza":"","lat":35.586189,"lng":136.802499,"zip":"5012814"},{"town":"洞戸通元寺","koaza":"","lat":35.61043,"lng":136.816413,"zip":"5012802"},{"town":"洞戸飛瀬","koaza":"","lat":35.618503,"lng":136.816551,"zip":"5012803"},{"town":"本郷町","koaza":"","lat":35.487477,"lng":136.926498,"zip":"5013805"},{"town":"本町一丁目","koaza":"","lat":35.485512,"lng":136.920123,"zip":"5013886"},{"town":"本町二丁目","koaza":"","lat":35.485839,"lng":136.918646,"zip":"5013886"},{"town":"本町三丁目","koaza":"","lat":35.485885,"lng":136.917328,"zip":"5013886"},{"town":"本町四丁目","koaza":"","lat":35.486188,"lng":136.916254,"zip":"5013886"},{"town":"本町五丁目","koaza":"","lat":35.486145,"lng":136.915333,"zip":"5013886"},{"town":"本町六丁目","koaza":"","lat":35.486725,"lng":136.914839,"zip":"5013886"},{"town":"本町七丁目","koaza":"","lat":35.48675,"lng":136.913923,"zip":"5013886"},{"town":"本町八丁目","koaza":"","lat":35.486885,"lng":136.912761,"zip":"5013886"},{"town":"前町","koaza":"","lat":35.483761,"lng":136.919483,"zip":"5013864"},{"town":"前山町","koaza":"","lat":35.472327,"lng":136.911809,"zip":"5013937"},{"town":"孫六町","koaza":"","lat":35.486968,"lng":136.915845,"zip":"5013884"},{"town":"水ノ輪町","koaza":"","lat":35.500716,"lng":136.909144,"zip":"5013216"},{"town":"美園町","koaza":"","lat":35.482781,"lng":136.922035,"zip":"5013836"},{"town":"緑ケ丘一丁目","koaza":"","lat":35.490073,"lng":136.903191,"zip":"5013246"},{"town":"緑ケ丘二丁目","koaza":"","lat":35.492148,"lng":136.901256,"zip":"5013246"},{"town":"緑町一丁目","koaza":"","lat":35.48857,"lng":136.908761,"zip":"5013237"},{"town":"緑町二丁目","koaza":"","lat":35.488329,"lng":136.907237,"zip":"5013237"},{"town":"南貸上","koaza":"","lat":35.491879,"lng":136.91013,"zip":"5013222"},{"town":"南春日町","koaza":"","lat":35.481986,"lng":136.916584,"zip":"5013857"},{"town":"南仙房","koaza":"","lat":35.490829,"lng":136.906276,"zip":"5013225"},{"town":"南出","koaza":"","lat":35.482514,"lng":136.931032,"zip":"5013825"},{"town":"南天神一丁目","koaza":"","lat":35.478302,"lng":136.93378,"zip":"5013918"},{"town":"南天神二丁目","koaza":"","lat":35.477845,"lng":136.93526,"zip":"5013918"},{"town":"南天神三丁目","koaza":"","lat":35.477855,"lng":136.933577,"zip":"5013918"},{"town":"南町一丁目","koaza":"","lat":35.478214,"lng":136.920515,"zip":"5013907"},{"town":"宮河町一丁目","koaza":"","lat":35.468406,"lng":136.933434,"zip":"5013912"},{"town":"宮河町二丁目","koaza":"","lat":35.4681,"lng":136.935698,"zip":"5013912"},{"town":"宮地町","koaza":"","lat":35.480911,"lng":136.925813,"zip":"5013827"},{"town":"美和町","koaza":"","lat":35.484798,"lng":136.9223,"zip":"5013844"},{"town":"向西仙房","koaza":"","lat":35.493545,"lng":136.904868,"zip":"5013226"},{"town":"武芸川町跡部","koaza":"","lat":35.515762,"lng":136.849545,"zip":"5012605"},{"town":"武芸川町宇多院","koaza":"","lat":35.536365,"lng":136.822139,"zip":"5012607"},{"town":"武芸川町小知野","koaza":"","lat":35.544517,"lng":136.842943,"zip":"5012602"},{"town":"武芸川町高野","koaza":"","lat":35.524239,"lng":136.855004,"zip":"5012604"},{"town":"武芸川町谷口","koaza":"","lat":35.565383,"lng":136.830241,"zip":"5012601"},{"town":"武芸川町八幡","koaza":"","lat":35.536496,"lng":136.850785,"zip":"5012603"},{"town":"武芸川町平","koaza":"","lat":35.527619,"lng":136.835055,"zip":"5012606"},{"town":"向山町一丁目","koaza":"","lat":35.454573,"lng":136.902295,"zip":"5013933"},{"town":"向山町二丁目","koaza":"","lat":35.455514,"lng":136.903184,"zip":"5013933"},{"town":"向山町三丁目","koaza":"","lat":35.452652,"lng":136.903271,"zip":"5013933"},{"town":"向山町四丁目","koaza":"","lat":35.453384,"lng":136.905272,"zip":"5013933"},{"town":"明生町一丁目","koaza":"","lat":35.474457,"lng":136.925356,"zip":"5013904"},{"town":"明生町二丁目","koaza":"","lat":35.473973,"lng":136.926711,"zip":"5013904"},{"town":"明生町三丁目","koaza":"","lat":35.47273,"lng":136.927491,"zip":"5013904"},{"town":"明生町四丁目","koaza":"","lat":35.471122,"lng":136.927773,"zip":"5013904"},{"town":"明生町五丁目","koaza":"","lat":35.472512,"lng":136.92434,"zip":"5013904"},{"town":"元重町","koaza":"","lat":35.490112,"lng":136.913116,"zip":"5013881"},{"town":"森西町","koaza":"","lat":35.486037,"lng":136.910448,"zip":"5013875"},{"town":"柳町","koaza":"","lat":35.48345,"lng":136.910053,"zip":"5013962"},{"town":"山田","koaza":"","lat":35.467386,"lng":136.877327,"zip":"5013944"},{"town":"山ノ手一丁目","koaza":"","lat":35.486476,"lng":136.920183,"zip":"5013885"},{"town":"山ノ手二丁目","koaza":"","lat":35.486491,"lng":136.918745,"zip":"5013885"},{"town":"山ノ手三丁目","koaza":"","lat":35.486542,"lng":136.917505,"zip":"5013885"},{"town":"弥生町一丁目","koaza":"","lat":35.479484,"lng":136.928229,"zip":"5013902"},{"town":"弥生町二丁目","koaza":"","lat":35.478326,"lng":136.928286,"zip":"5013902"},{"town":"弥生町三丁目","koaza":"","lat":35.477249,"lng":136.92827,"zip":"5013902"},{"town":"弥生町四丁目","koaza":"","lat":35.47631,"lng":136.928257,"zip":"5013902"},{"town":"雄飛ケ丘","koaza":"","lat":35.484455,"lng":136.901482,"zip":"5013254"},{"town":"吉野町","koaza":"","lat":35.486509,"lng":136.931467,"zip":"5013816"},{"town":"吉本町","koaza":"","lat":35.485525,"lng":136.926658,"zip":"5013818"},{"town":"若草通一丁目","koaza":"","lat":35.495544,"lng":136.913797,"zip":"5013802"},{"town":"若草通二丁目","koaza":"","lat":35.495735,"lng":136.915632,"zip":"5013802"},{"town":"若草通三丁目","koaza":"","lat":35.495519,"lng":136.917986,"zip":"5013802"},{"town":"若草通五丁目","koaza":"","lat":35.494185,"lng":136.92107,"zip":"5013802"},{"town":"若宮町","koaza":"","lat":35.487719,"lng":136.912032,"zip":"5013234"},{"town":"小屋名","koaza":"竹之腰","lat":35.485173,"lng":136.872938,"zip":"5013941"},{"town":"小屋名","koaza":"薄原","lat":35.485379,"lng":136.875826,"zip":"5013941"},{"town":"下有知","koaza":"前洞新田","lat":35.498557,"lng":136.901434,"zip":"5013217"},{"town":"下有知","koaza":"松ヶ洞","lat":35.514035,"lng":136.913539,"zip":"5013217"},{"town":"下有知","koaza":"道教","lat":35.499922,"lng":136.911018,"zip":"5013217"},{"town":"小瀬","koaza":"首次","lat":35.490595,"lng":136.897999,"zip":"5013265"}]