[{"town":"神岡町東雲","koaza":"","lat":36.313326,"lng":137.312101,"zip":"5061147"},{"town":"神岡町阿曽保","koaza":"","lat":36.302279,"lng":137.328636,"zip":"5061149"},{"town":"神岡町麻生野","koaza":"","lat":36.325187,"lng":137.348899,"zip":"5061131"},{"town":"神岡町朝浦","koaza":"","lat":36.325272,"lng":137.295439,"zip":"5061162"},{"town":"神岡町跡津川","koaza":"","lat":36.409658,"lng":137.326599,"zip":"5061212"},{"town":"神岡町石神","koaza":"","lat":36.307967,"lng":137.35094,"zip":"5061132"},{"town":"神岡町伊西","koaza":"","lat":36.375598,"lng":137.338941,"zip":"5061106"},{"town":"神岡町岩井谷","koaza":"","lat":36.377855,"lng":137.399638,"zip":"5061103"},{"town":"神岡町打保","koaza":"","lat":36.397658,"lng":137.467172,"zip":"5061102"},{"town":"神岡町江馬町","koaza":"","lat":36.330068,"lng":137.304568,"zip":"5061125"},{"town":"神岡町大笠","koaza":"","lat":36.28106,"lng":137.227322,"zip":"5061100"},{"town":"神岡町大多和","koaza":"","lat":36.436241,"lng":137.376592,"zip":"5061100"},{"town":"神岡町柏原","koaza":"","lat":36.269494,"lng":137.233809,"zip":"5061158"},{"town":"神岡町釜崎","koaza":"","lat":36.317994,"lng":137.298023,"zip":"5061145"},{"town":"神岡町小萱","koaza":"","lat":36.296645,"lng":137.30542,"zip":"5061143"},{"town":"神岡町坂富町","koaza":"","lat":36.327107,"lng":137.302245,"zip":"5061122"},{"town":"神岡町桜ケ丘","koaza":"","lat":36.327722,"lng":137.304283,"zip":"5061126"},{"town":"神岡町佐古","koaza":"","lat":36.414117,"lng":137.356864,"zip":"5061211"},{"town":"神岡町鹿間","koaza":"","lat":36.359518,"lng":137.305303,"zip":"5061114"},{"town":"神岡町下之本","koaza":"","lat":36.399971,"lng":137.375494,"zip":"5061107"},{"town":"神岡町城ケ丘","koaza":"","lat":36.329973,"lng":137.302948,"zip":"5061123"},{"town":"神岡町杉山","koaza":"","lat":36.450337,"lng":137.300355,"zip":"5061204"},{"town":"神岡町数河","koaza":"","lat":36.302226,"lng":137.344899,"zip":"5061133"},{"town":"神岡町巣山","koaza":"","lat":36.276164,"lng":137.260255,"zip":"5061157"},{"town":"神岡町瀬戸","koaza":"","lat":36.411431,"lng":137.391584,"zip":"5061108"},{"town":"神岡町館野町","koaza":"","lat":36.319001,"lng":137.30498,"zip":"5061148"},{"town":"神岡町谷","koaza":"","lat":36.454786,"lng":137.242935,"zip":"5061201"},{"town":"神岡町寺林","koaza":"","lat":36.323841,"lng":137.272384,"zip":"5061152"},{"town":"神岡町土","koaza":"","lat":36.416355,"lng":137.300955,"zip":"5061213"},{"town":"神岡町殿","koaza":"","lat":36.324116,"lng":137.308098,"zip":"5061121"},{"town":"神岡町中山","koaza":"","lat":36.449319,"lng":137.25085,"zip":"5061202"},{"town":"神岡町梨ケ根","koaza":"","lat":36.329881,"lng":137.279371,"zip":"5061151"},{"town":"神岡町西","koaza":"","lat":36.305823,"lng":137.235009,"zip":"5061155"},{"town":"神岡町西漆山","koaza":"","lat":36.402615,"lng":137.281063,"zip":"5061215"},{"town":"神岡町西茂住","koaza":"","lat":36.42511,"lng":137.265076,"zip":"5061206"},{"town":"神岡町野首","koaza":"","lat":36.297999,"lng":137.322411,"zip":"5061141"},{"town":"神岡町東漆山","koaza":"","lat":36.388509,"lng":137.28532,"zip":"5061216"},{"town":"神岡町東町","koaza":"","lat":36.337599,"lng":137.304513,"zip":"5061111"},{"town":"神岡町東茂住","koaza":"","lat":36.436744,"lng":137.289814,"zip":"5061205"},{"town":"神岡町伏方","koaza":"","lat":36.316271,"lng":137.249188,"zip":"5061154"},{"town":"神岡町二ツ屋","koaza":"","lat":36.357066,"lng":137.259125,"zip":"5061217"},{"town":"神岡町船津","koaza":"","lat":36.337545,"lng":137.289757,"zip":"5061161"},{"town":"神岡町堀之内","koaza":"","lat":36.320691,"lng":137.260793,"zip":"5061153"},{"town":"神岡町牧","koaza":"","lat":36.398402,"lng":137.30485,"zip":"5061214"},{"town":"神岡町丸山","koaza":"","lat":36.298013,"lng":137.313553,"zip":"5061142"},{"town":"神岡町緑ケ丘","koaza":"","lat":36.322823,"lng":137.302885,"zip":"5061146"},{"town":"神岡町森茂","koaza":"","lat":36.369007,"lng":137.37219,"zip":"5061104"},{"town":"神岡町山田","koaza":"","lat":36.291047,"lng":137.255286,"zip":"5061156"},{"town":"神岡町夕陽ケ丘","koaza":"","lat":36.332095,"lng":137.307748,"zip":"5061124"},{"town":"神岡町横山","koaza":"","lat":36.455699,"lng":137.279969,"zip":"5061203"},{"town":"神岡町吉ケ原","koaza":"","lat":36.362527,"lng":137.293307,"zip":"5061113"},{"town":"神岡町吉田","koaza":"","lat":36.300734,"lng":137.282773,"zip":"5061144"},{"town":"神岡町和佐府","koaza":"","lat":36.410197,"lng":137.409845,"zip":"5061101"},{"town":"神岡町和佐保","koaza":"","lat":36.339898,"lng":137.328979,"zip":"5061105"},{"town":"神岡町割石","koaza":"","lat":36.358543,"lng":137.280503,"zip":"5061112"},{"town":"河合町天生","koaza":"","lat":36.264082,"lng":136.994813,"zip":"5094315"},{"town":"河合町稲越","koaza":"","lat":36.247514,"lng":137.075086,"zip":"5094312"},{"town":"河合町有家","koaza":"","lat":36.297499,"lng":137.08535,"zip":"5094303"},{"town":"河合町大谷","koaza":"","lat":36.28685,"lng":137.097213,"zip":"5094311"},{"town":"河合町元田","koaza":"","lat":36.275581,"lng":137.042733,"zip":"5094316"},{"town":"河合町小無雁","koaza":"","lat":36.288988,"lng":137.118548,"zip":"5094302"},{"town":"河合町上ケ島","koaza":"","lat":36.302999,"lng":137.031535,"zip":"5094317"},{"town":"河合町新名","koaza":"","lat":36.276782,"lng":137.073258,"zip":"5094318"},{"town":"河合町月ケ瀬","koaza":"","lat":36.251154,"lng":137.005339,"zip":"5094314"},{"town":"河合町角川","koaza":"","lat":36.320161,"lng":137.108484,"zip":"5094301"},{"town":"河合町中澤上","koaza":"","lat":36.306534,"lng":137.080647,"zip":"5061100"},{"town":"河合町羽根","koaza":"","lat":36.308999,"lng":137.052405,"zip":"5094304"},{"town":"河合町二ツ屋","koaza":"","lat":36.350603,"lng":137.065813,"zip":"5061100"},{"town":"河合町舟原","koaza":"","lat":36.208103,"lng":137.056555,"zip":"5060271"},{"town":"河合町保","koaza":"","lat":36.223804,"lng":136.997595,"zip":"5094313"},{"town":"河合町保木林","koaza":"","lat":36.30891,"lng":137.066693,"zip":"5094305"},{"town":"古川町朝開町","koaza":"","lat":36.233366,"lng":137.180384,"zip":"5094252"},{"town":"古川町壱之町","koaza":"","lat":36.235555,"lng":137.185858,"zip":"5094234"},{"town":"古川町畦畑","koaza":"","lat":36.205078,"lng":137.13214,"zip":"5094265"},{"town":"古川町大野町","koaza":"","lat":36.216,"lng":137.203486,"zip":"5094255"},{"town":"古川町片原町","koaza":"","lat":36.233447,"lng":137.193122,"zip":"5094222"},{"town":"古川町金森町","koaza":"","lat":36.236162,"lng":137.189109,"zip":"5094225"},{"town":"古川町上気多","koaza":"","lat":36.243489,"lng":137.203833,"zip":"5094212"},{"town":"古川町上野","koaza":"","lat":36.241495,"lng":137.167669,"zip":"5094263"},{"town":"古川町上町","koaza":"","lat":36.222205,"lng":137.196485,"zip":"5094254"},{"town":"古川町貴船町","koaza":"","lat":36.230185,"lng":137.191556,"zip":"5094243"},{"town":"古川町黒内","koaza":"","lat":36.232574,"lng":137.106074,"zip":"5094275"},{"town":"古川町袈裟丸","koaza":"","lat":36.262238,"lng":137.148934,"zip":"5094203"},{"town":"古川町幸栄町","koaza":"","lat":36.229168,"lng":137.187467,"zip":"5094245"},{"town":"古川町是重","koaza":"","lat":36.226707,"lng":137.197479,"zip":"5094244"},{"town":"古川町是重一丁目","koaza":"","lat":36.228129,"lng":137.192935,"zip":"5094244"},{"town":"古川町是重二丁目","koaza":"","lat":36.227745,"lng":137.189453,"zip":"5094244"},{"town":"古川町栄一丁目","koaza":"","lat":36.23958,"lng":137.179767,"zip":"5094237"},{"town":"古川町栄二丁目","koaza":"","lat":36.24017,"lng":137.181147,"zip":"5094237"},{"town":"古川町笹ヶ洞","koaza":"","lat":36.231768,"lng":137.135768,"zip":"5061100"},{"town":"古川町三之町","koaza":"","lat":36.23469,"lng":137.184021,"zip":"5094236"},{"town":"古川町下気多","koaza":"","lat":36.246833,"lng":137.188506,"zip":"5094213"},{"town":"古川町下野","koaza":"","lat":36.251646,"lng":137.147694,"zip":"5094261"},{"town":"古川町新栄町","koaza":"","lat":36.24086,"lng":137.182109,"zip":"5094231"},{"town":"古川町末真","koaza":"","lat":36.278457,"lng":137.148341,"zip":"5094205"},{"town":"古川町末広町","koaza":"","lat":36.237764,"lng":137.183868,"zip":"5094233"},{"town":"古川町杉崎","koaza":"","lat":36.261166,"lng":137.162992,"zip":"5094215"},{"town":"古川町数河","koaza":"","lat":36.295415,"lng":137.195984,"zip":"5094201"},{"town":"古川町太江","koaza":"","lat":36.264736,"lng":137.196427,"zip":"5094211"},{"town":"古川町高野","koaza":"","lat":36.224063,"lng":137.175807,"zip":"5094256"},{"town":"古川町谷","koaza":"","lat":36.270078,"lng":137.125281,"zip":"5094271"},{"town":"古川町寺地","koaza":"","lat":36.237794,"lng":137.145527,"zip":"5094273"},{"town":"古川町戸市","koaza":"","lat":36.282118,"lng":137.164579,"zip":"5094202"},{"town":"古川町殿町","koaza":"","lat":36.235116,"lng":137.188231,"zip":"5094224"},{"town":"古川町中野","koaza":"","lat":36.238994,"lng":137.154129,"zip":"5094262"},{"town":"古川町南成町","koaza":"","lat":36.22751,"lng":137.184559,"zip":"5094253"},{"town":"古川町弐之町","koaza":"","lat":36.23566,"lng":137.184358,"zip":"5094235"},{"town":"古川町沼町","koaza":"","lat":36.248214,"lng":137.176178,"zip":"5094214"},{"town":"古川町野口","koaza":"","lat":36.277625,"lng":137.138474,"zip":"5094204"},{"town":"古川町信包","koaza":"","lat":36.256587,"lng":137.117937,"zip":"5094272"},{"town":"古川町東町","koaza":"","lat":36.231501,"lng":137.194268,"zip":"5094223"},{"town":"古川町平岩","koaza":"","lat":36.228926,"lng":137.163454,"zip":"5094264"},{"town":"古川町本町","koaza":"","lat":36.238202,"lng":137.186124,"zip":"5094232"},{"town":"古川町増島町","koaza":"","lat":36.231617,"lng":137.190085,"zip":"5094242"},{"town":"古川町宮城町","koaza":"","lat":36.239482,"lng":137.176468,"zip":"5094251"},{"town":"古川町向町","koaza":"","lat":36.22416,"lng":137.186552,"zip":"5094241"},{"town":"古川町向町一丁目","koaza":"","lat":36.232402,"lng":137.18828,"zip":"5094241"},{"town":"古川町向町二丁目","koaza":"","lat":36.230403,"lng":137.185527,"zip":"5094241"},{"town":"古川町向町三丁目","koaza":"","lat":36.231754,"lng":137.18379,"zip":"5094241"},{"town":"古川町若宮一丁目","koaza":"","lat":36.234398,"lng":137.19455,"zip":"5094221"},{"town":"古川町若宮二丁目","koaza":"","lat":36.238277,"lng":137.188729,"zip":"5094221"},{"town":"古川町若宮三丁目","koaza":"","lat":36.241789,"lng":137.18342,"zip":"5094221"},{"town":"宮川町小豆沢","koaza":"","lat":36.43526,"lng":137.191944,"zip":"5094541"},{"town":"宮川町鮎飛","koaza":"","lat":36.424855,"lng":137.213366,"zip":"5094531"},{"town":"宮川町打保","koaza":"","lat":36.373132,"lng":137.155534,"zip":"5094545"},{"town":"宮川町大無雁","koaza":"","lat":36.301713,"lng":137.124166,"zip":"5094414"},{"town":"宮川町落合","koaza":"","lat":36.30928,"lng":137.11945,"zip":"5094415"},{"town":"宮川町加賀沢","koaza":"","lat":36.436184,"lng":137.232913,"zip":"5061100"},{"town":"宮川町岸奥","koaza":"","lat":36.313688,"lng":137.139487,"zip":"5094412"},{"town":"宮川町桑野","koaza":"","lat":36.411019,"lng":137.171946,"zip":"5094543"},{"town":"宮川町小谷","koaza":"","lat":36.301402,"lng":137.154794,"zip":"5094413"},{"town":"宮川町三川原","koaza":"","lat":36.357528,"lng":137.181646,"zip":"5094403"},{"town":"宮川町塩屋","koaza":"","lat":36.378037,"lng":137.200233,"zip":"5094533"},{"town":"宮川町菅沼","koaza":"","lat":36.337064,"lng":137.22696,"zip":"5094401"},{"town":"宮川町杉原","koaza":"","lat":36.418274,"lng":137.186404,"zip":"5094542"},{"town":"宮川町巣之内","koaza":"","lat":36.344387,"lng":137.181764,"zip":"5094404"},{"town":"宮川町巣納谷","koaza":"","lat":36.41758,"lng":137.202599,"zip":"5094531"},{"town":"宮川町高牧","koaza":"","lat":36.34292,"lng":137.160873,"zip":"5094421"},{"town":"宮川町種蔵","koaza":"","lat":36.354172,"lng":137.194607,"zip":"5094402"},{"town":"宮川町戸谷","koaza":"","lat":36.39733,"lng":137.160201,"zip":"5094544"},{"town":"宮川町中沢上","koaza":"","lat":36.395997,"lng":137.180635,"zip":"5094534"},{"town":"宮川町西忍","koaza":"","lat":36.341356,"lng":137.141824,"zip":"5094422"},{"town":"宮川町祢宜ケ沢上","koaza":"","lat":36.405409,"lng":137.192609,"zip":"5094535"},{"town":"宮川町野首","koaza":"","lat":36.323417,"lng":137.138749,"zip":"5094411"},{"town":"宮川町林","koaza":"","lat":36.321955,"lng":137.14948,"zip":"5094423"},{"town":"宮川町洞","koaza":"","lat":36.398547,"lng":137.221603,"zip":"5094532"},{"town":"宮川町牧戸","koaza":"","lat":36.325942,"lng":137.160417,"zip":"5094406"},{"town":"宮川町丸山","koaza":"","lat":36.324672,"lng":137.182678,"zip":"5094405"},{"town":"宮川町万波","koaza":"","lat":36.405702,"lng":137.128635,"zip":"5061100"},{"town":"宮川町森安","koaza":"","lat":36.338494,"lng":137.115758,"zip":"5094424"},{"town":"宮川町山之山","koaza":"","lat":36.386559,"lng":137.195694,"zip":"5061100"},{"town":"神岡町殿","koaza":"久保","lat":36.323965,"lng":137.308384,"zip":"5061121"}]