[{"town":"有尾","koaza":"","lat":35.256983,"lng":136.584193,"zip":"5031277"},{"town":"飯積","koaza":"","lat":35.319364,"lng":136.579044,"zip":"5031336"},{"town":"飯田","koaza":"","lat":35.325347,"lng":136.572599,"zip":"5031304"},{"town":"石畑","koaza":"","lat":35.302169,"lng":136.548836,"zip":"5031251"},{"town":"泉町","koaza":"","lat":35.317018,"lng":136.551351,"zip":"5031311"},{"town":"五日市","koaza":"","lat":35.315354,"lng":136.542048,"zip":"5031243"},{"town":"一色","koaza":"","lat":35.262182,"lng":136.55315,"zip":"5031264"},{"town":"色目","koaza":"","lat":35.333312,"lng":136.558436,"zip":"5031333"},{"town":"岩道","koaza":"","lat":35.294396,"lng":136.586086,"zip":"5031321"},{"town":"宇田","koaza":"","lat":35.326058,"lng":136.559819,"zip":"5031335"},{"town":"上方","koaza":"","lat":35.312519,"lng":136.53566,"zip":"5031245"},{"town":"江月","koaza":"","lat":35.314661,"lng":136.590769,"zip":"5031306"},{"town":"大跡","koaza":"","lat":35.286684,"lng":136.573487,"zip":"5031324"},{"town":"大坪","koaza":"","lat":35.334503,"lng":136.567722,"zip":"5031302"},{"town":"大野","koaza":"","lat":35.281306,"lng":136.606321,"zip":"5031383"},{"town":"大場","koaza":"","lat":35.267082,"lng":136.589815,"zip":"5031272"},{"town":"大巻","koaza":"","lat":35.243314,"lng":136.609492,"zip":"5031275"},{"town":"小倉","koaza":"","lat":35.270987,"lng":136.546373,"zip":"5031262"},{"town":"押越","koaza":"","lat":35.303424,"lng":136.55717,"zip":"5031316"},{"town":"柏尾","koaza":"","lat":35.29486,"lng":136.540248,"zip":"5031253"},{"town":"金屋","koaza":"","lat":35.31901,"lng":136.565649,"zip":"5031339"},{"town":"釜段","koaza":"","lat":35.243057,"lng":136.596423,"zip":"5031276"},{"town":"上之郷","koaza":"","lat":35.292818,"lng":136.592627,"zip":"5031385"},{"town":"烏江","koaza":"","lat":35.305063,"lng":136.587181,"zip":"5031315"},{"town":"京ケ脇","koaza":"","lat":35.278114,"lng":136.54766,"zip":"5031266"},{"town":"口ケ島","koaza":"","lat":35.293402,"lng":136.574578,"zip":"5031323"},{"town":"栗笠","koaza":"","lat":35.296978,"lng":136.595201,"zip":"5031381"},{"town":"桜井","koaza":"","lat":35.315389,"lng":136.528915,"zip":"5031242"},{"town":"沢田","koaza":"","lat":35.318491,"lng":136.517002,"zip":"5031241"},{"town":"下笠","koaza":"","lat":35.279825,"lng":136.583791,"zip":"5031384"},{"town":"蛇持","koaza":"","lat":35.330744,"lng":136.577243,"zip":"5031303"},{"town":"勢至","koaza":"","lat":35.298911,"lng":136.533188,"zip":"5031256"},{"town":"祖父江","koaza":"","lat":35.32439,"lng":136.583331,"zip":"5031305"},{"town":"田","koaza":"","lat":35.265831,"lng":136.58069,"zip":"5031271"},{"town":"高田","koaza":"","lat":35.305543,"lng":136.569867,"zip":"5031314"},{"town":"高田馬場町","koaza":"","lat":35.313005,"lng":136.555244,"zip":"5031313"},{"town":"高林","koaza":"","lat":35.282237,"lng":136.547825,"zip":"5031267"},{"town":"滝見町","koaza":"","lat":35.313639,"lng":136.545998,"zip":"5031317"},{"town":"豊","koaza":"","lat":35.328973,"lng":136.555993,"zip":"5031334"},{"town":"直江","koaza":"","lat":35.314722,"lng":136.570244,"zip":"5031337"},{"town":"中","koaza":"","lat":35.328893,"lng":136.550898,"zip":"5031332"},{"town":"西岩道","koaza":"","lat":35.296243,"lng":136.58168,"zip":"5031322"},{"town":"西小倉","koaza":"","lat":35.276027,"lng":136.555577,"zip":"5031268"},{"town":"根古地","koaza":"","lat":35.268218,"lng":136.603101,"zip":"5031273"},{"town":"橋爪","koaza":"","lat":35.327114,"lng":136.536925,"zip":"5031331"},{"town":"飯ノ木","koaza":"","lat":35.292069,"lng":136.563837,"zip":"5031325"},{"town":"船附","koaza":"","lat":35.287843,"lng":136.60097,"zip":"5031382"},{"town":"船見","koaza":"","lat":35.266738,"lng":136.561952,"zip":"5031263"},{"town":"三神町","koaza":"","lat":35.314809,"lng":136.550057,"zip":"5031312"},{"town":"瑞穂","koaza":"","lat":35.258521,"lng":136.599696,"zip":"5031274"},{"town":"明徳","koaza":"","lat":35.293104,"lng":136.554521,"zip":"5031252"},{"town":"室原","koaza":"","lat":35.339253,"lng":136.566898,"zip":"5031301"},{"town":"安久","koaza":"","lat":35.319629,"lng":136.553168,"zip":"5031338"},{"town":"養老","koaza":"","lat":35.29039,"lng":136.53165,"zip":"5031255"},{"town":"養老公園","koaza":"","lat":35.279988,"lng":136.53456,"zip":"5031254"},{"town":"横屋","koaza":"","lat":35.260367,"lng":136.574874,"zip":"5031278"},{"town":"竜泉寺","koaza":"","lat":35.305876,"lng":136.531669,"zip":"5031244"},{"town":"若宮","koaza":"","lat":35.26707,"lng":136.552017,"zip":"5031265"},{"town":"鷲巣","koaza":"","lat":35.286163,"lng":136.560108,"zip":"5031261"},{"town":"石畑","koaza":"北ノ口","lat":35.301495,"lng":136.550826,"zip":"5031251"},{"town":"宇田","koaza":"郷勺","lat":35.330521,"lng":136.563994,"zip":"5031335"},{"town":"飯積","koaza":"一丁目","lat":35.320514,"lng":136.571038,"zip":"5031336"},{"town":"金屋","koaza":"二丁目","lat":35.318059,"lng":136.569396,"zip":"5031339"},{"town":"金屋","koaza":"一丁目","lat":35.319471,"lng":136.572689,"zip":"5031339"},{"town":"飯積","koaza":"二丁目","lat":35.320376,"lng":136.580034,"zip":"5031336"},{"town":"祖父江","koaza":"向野","lat":35.311784,"lng":136.582789,"zip":"5031305"}]