[{"town":"旭町","koaza":"","lat":34.474406,"lng":136.695607,"zip":"5160045"},{"town":"朝熊町","koaza":"","lat":34.475959,"lng":136.779724,"zip":"5170081"},{"town":"有滝町","koaza":"","lat":34.539991,"lng":136.698426,"zip":"5150501"},{"town":"粟野町","koaza":"","lat":34.484636,"lng":136.665062,"zip":"5160054"},{"town":"磯町","koaza":"","lat":34.517387,"lng":136.697449,"zip":"5150504"},{"town":"一宇田町","koaza":"","lat":34.470123,"lng":136.752992,"zip":"5160022"},{"town":"一志町","koaza":"","lat":34.49092,"lng":136.703791,"zip":"5160075"},{"town":"一之木一丁目","koaza":"","lat":34.493243,"lng":136.704345,"zip":"5160071"},{"town":"一之木二丁目","koaza":"","lat":34.494954,"lng":136.705451,"zip":"5160071"},{"town":"一之木三丁目","koaza":"","lat":34.496612,"lng":136.706541,"zip":"5160071"},{"town":"一之木四丁目","koaza":"","lat":34.501402,"lng":136.705749,"zip":"5160071"},{"town":"一之木五丁目","koaza":"","lat":34.501482,"lng":136.708804,"zip":"5160071"},{"town":"一色町","koaza":"","lat":34.506761,"lng":136.746528,"zip":"5160011"},{"town":"岩渕一丁目","koaza":"","lat":34.48764,"lng":136.710309,"zip":"5160037"},{"town":"岩渕二丁目","koaza":"","lat":34.487562,"lng":136.714595,"zip":"5160037"},{"town":"岩渕三丁目","koaza":"","lat":34.48695,"lng":136.717564,"zip":"5160037"},{"town":"岩渕町","koaza":"","lat":34.485795,"lng":136.719692,"zip":"5160038"},{"town":"上地町","koaza":"","lat":34.492261,"lng":136.659692,"zip":"5160051"},{"town":"上野町","koaza":"","lat":34.425861,"lng":136.666631,"zip":"5161104"},{"town":"植山町","koaza":"","lat":34.532838,"lng":136.684769,"zip":"5150506"},{"town":"宇治今在家町","koaza":"","lat":34.423472,"lng":136.729814,"zip":"5160024"},{"town":"宇治浦田一丁目","koaza":"","lat":34.466638,"lng":136.724056,"zip":"5160026"},{"town":"宇治浦田二丁目","koaza":"","lat":34.468004,"lng":136.719809,"zip":"5160026"},{"town":"宇治浦田三丁目","koaza":"","lat":34.466998,"lng":136.716134,"zip":"5160026"},{"town":"宇治浦田町","koaza":"","lat":34.462942,"lng":136.71743,"zip":"5160000"},{"town":"宇治館町","koaza":"","lat":34.439827,"lng":136.762276,"zip":"5160023"},{"town":"宇治中之切町","koaza":"","lat":34.462473,"lng":136.721516,"zip":"5160025"},{"town":"浦口一丁目","koaza":"","lat":34.494564,"lng":136.692628,"zip":"5160062"},{"town":"浦口二丁目","koaza":"","lat":34.492586,"lng":136.694513,"zip":"5160062"},{"town":"浦口三丁目","koaza":"","lat":34.489049,"lng":136.693721,"zip":"5160062"},{"town":"浦口四丁目","koaza":"","lat":34.485186,"lng":136.691636,"zip":"5160062"},{"town":"浦口町","koaza":"","lat":34.478585,"lng":136.691112,"zip":"5160063"},{"town":"円座町","koaza":"","lat":34.441523,"lng":136.64902,"zip":"5161108"},{"town":"大倉町","koaza":"","lat":34.474726,"lng":136.67436,"zip":"5161101"},{"town":"大世古一丁目","koaza":"","lat":34.492888,"lng":136.702604,"zip":"5160079"},{"town":"大世古二丁目","koaza":"","lat":34.495655,"lng":136.703039,"zip":"5160079"},{"town":"大世古三丁目","koaza":"","lat":34.497749,"lng":136.703041,"zip":"5160079"},{"town":"大世古四丁目","koaza":"","lat":34.499609,"lng":136.703131,"zip":"5160079"},{"town":"大湊町","koaza":"","lat":34.528614,"lng":136.73788,"zip":"5160001"},{"town":"岡本一丁目","koaza":"","lat":34.484848,"lng":136.711499,"zip":"5160036"},{"town":"岡本二丁目","koaza":"","lat":34.4828,"lng":136.713016,"zip":"5160036"},{"town":"岡本三丁目","koaza":"","lat":34.482895,"lng":136.708156,"zip":"5160036"},{"town":"尾上町","koaza":"","lat":34.484689,"lng":136.717382,"zip":"5160031"},{"town":"小俣町明野","koaza":"","lat":34.527054,"lng":136.670853,"zip":"5190501"},{"town":"小俣町新村","koaza":"","lat":34.517264,"lng":136.656229,"zip":"5190507"},{"town":"小俣町相合","koaza":"","lat":34.511496,"lng":136.665704,"zip":"5190502"},{"town":"小俣町本町","koaza":"","lat":34.501813,"lng":136.66712,"zip":"5190505"},{"town":"小俣町宮前","koaza":"","lat":34.496636,"lng":136.67628,"zip":"5190504"},{"town":"小俣町元町","koaza":"","lat":34.507769,"lng":136.679618,"zip":"5190503"},{"town":"小俣町湯田","koaza":"","lat":34.505551,"lng":136.650676,"zip":"5190506"},{"town":"柏町","koaza":"","lat":34.542924,"lng":136.653278,"zip":"5150508"},{"town":"樫原町","koaza":"","lat":34.531318,"lng":136.722086,"zip":"5150503"},{"town":"鹿海町","koaza":"","lat":34.490574,"lng":136.747353,"zip":"5160013"},{"town":"神薗町","koaza":"","lat":34.431752,"lng":136.64187,"zip":"5161107"},{"town":"神社港","koaza":"","lat":34.512693,"lng":136.734118,"zip":"5160004"},{"town":"河崎一丁目","koaza":"","lat":34.494978,"lng":136.712503,"zip":"5160009"},{"town":"河崎二丁目","koaza":"","lat":34.494919,"lng":136.714948,"zip":"5160009"},{"town":"河崎三丁目","koaza":"","lat":34.494318,"lng":136.716674,"zip":"5160009"},{"town":"川端町","koaza":"","lat":34.489299,"lng":136.681973,"zip":"5160052"},{"town":"楠部町","koaza":"","lat":34.47766,"lng":136.738632,"zip":"5160014"},{"town":"久世戸町","koaza":"","lat":34.480405,"lng":136.724619,"zip":"5160015"},{"town":"黒瀬町","koaza":"","lat":34.493252,"lng":136.735395,"zip":"5160018"},{"town":"小木町","koaza":"","lat":34.504903,"lng":136.725621,"zip":"5160007"},{"town":"神田久志本町","koaza":"","lat":34.489397,"lng":136.726414,"zip":"5160016"},{"town":"桜木町","koaza":"","lat":34.472875,"lng":136.716475,"zip":"5160027"},{"town":"下野町","koaza":"","lat":34.516158,"lng":136.737762,"zip":"5160003"},{"town":"神久一丁目","koaza":"","lat":34.490395,"lng":136.717838,"zip":"5160017"},{"town":"神久二丁目","koaza":"","lat":34.491288,"lng":136.720223,"zip":"5160017"},{"town":"神久三丁目","koaza":"","lat":34.494583,"lng":136.71898,"zip":"5160017"},{"town":"神久四丁目","koaza":"","lat":34.495437,"lng":136.723333,"zip":"5160017"},{"town":"神久五丁目","koaza":"","lat":34.497881,"lng":136.722748,"zip":"5160017"},{"town":"神久六丁目","koaza":"","lat":34.495725,"lng":136.726996,"zip":"5160017"},{"town":"勢田町","koaza":"","lat":34.47059,"lng":136.709939,"zip":"5160035"},{"town":"佐八町","koaza":"","lat":34.459856,"lng":136.660912,"zip":"5161102"},{"town":"曽祢一丁目","koaza":"","lat":34.49317,"lng":136.7018,"zip":"5160078"},{"town":"曽祢二丁目","koaza":"","lat":34.4961,"lng":136.700398,"zip":"5160078"},{"town":"竹ケ鼻町","koaza":"","lat":34.507639,"lng":136.730774,"zip":"5160005"},{"town":"田尻町","koaza":"","lat":34.501048,"lng":136.73052,"zip":"5160006"},{"town":"辻久留一丁目","koaza":"","lat":34.489461,"lng":136.689721,"zip":"5160066"},{"town":"辻久留二丁目","koaza":"","lat":34.486238,"lng":136.685453,"zip":"5160066"},{"town":"辻久留三丁目","koaza":"","lat":34.480359,"lng":136.684141,"zip":"5160066"},{"town":"辻久留町","koaza":"","lat":34.474514,"lng":136.686945,"zip":"5160046"},{"town":"津村町","koaza":"","lat":34.451768,"lng":136.660389,"zip":"5161103"},{"town":"通町","koaza":"","lat":34.50039,"lng":136.74283,"zip":"5160012"},{"town":"常磐一丁目","koaza":"","lat":34.495177,"lng":136.695055,"zip":"5160041"},{"town":"常磐二丁目","koaza":"","lat":34.492641,"lng":136.697261,"zip":"5160041"},{"town":"常磐三丁目","koaza":"","lat":34.489538,"lng":136.696742,"zip":"5160041"},{"town":"常磐町","koaza":"","lat":34.484352,"lng":136.695653,"zip":"5160047"},{"town":"豊川町","koaza":"","lat":34.483476,"lng":136.702303,"zip":"5160042"},{"town":"中島一丁目","koaza":"","lat":34.494223,"lng":136.686914,"zip":"5160067"},{"town":"中島二丁目","koaza":"","lat":34.490411,"lng":136.687008,"zip":"5160067"},{"town":"中須町","koaza":"","lat":34.484841,"lng":136.677277,"zip":"5160053"},{"town":"中之町","koaza":"","lat":34.476405,"lng":136.721133,"zip":"5160034"},{"town":"中村町","koaza":"","lat":34.471347,"lng":136.728518,"zip":"5160028"},{"town":"西豊浜町","koaza":"","lat":34.52758,"lng":136.689341,"zip":"5150505"},{"town":"野村町","koaza":"","lat":34.525973,"lng":136.662256,"zip":"5150511"},{"town":"東大淀町","koaza":"","lat":34.550648,"lng":136.667605,"zip":"5150509"},{"town":"東豊浜町","koaza":"","lat":34.535477,"lng":136.713419,"zip":"5150502"},{"town":"吹上一丁目","koaza":"","lat":34.490893,"lng":136.710633,"zip":"5160073"},{"town":"吹上二丁目","koaza":"","lat":34.490746,"lng":136.714601,"zip":"5160073"},{"town":"藤里町","koaza":"","lat":34.468148,"lng":136.700309,"zip":"5160043"},{"town":"二俣一丁目","koaza":"","lat":34.491489,"lng":136.69155,"zip":"5160064"},{"town":"二俣二丁目","koaza":"","lat":34.488454,"lng":136.69119,"zip":"5160064"},{"town":"二俣三丁目","koaza":"","lat":34.48631,"lng":136.688688,"zip":"5160064"},{"town":"二俣四丁目","koaza":"","lat":34.481837,"lng":136.689149,"zip":"5160064"},{"town":"二俣町","koaza":"","lat":34.477956,"lng":136.685618,"zip":"5160065"},{"town":"二見町今一色","koaza":"","lat":34.518979,"lng":136.750508,"zip":"5190608"},{"town":"二見町江","koaza":"","lat":34.50264,"lng":136.789888,"zip":"5190602"},{"town":"二見町荘","koaza":"","lat":34.508389,"lng":136.770664,"zip":"5190606"},{"town":"二見町茶屋","koaza":"","lat":34.506152,"lng":136.781602,"zip":"5190609"},{"town":"二見町西","koaza":"","lat":34.511839,"lng":136.759004,"zip":"5190607"},{"town":"二見町光の街","koaza":"","lat":34.495667,"lng":136.762816,"zip":"5190611"},{"town":"二見町松下","koaza":"","lat":34.496178,"lng":136.802936,"zip":"5190601"},{"town":"二見町溝口","koaza":"","lat":34.502298,"lng":136.757109,"zip":"5190605"},{"town":"二見町三津","koaza":"","lat":34.500154,"lng":136.776734,"zip":"5190603"},{"town":"二見町山田原","koaza":"","lat":34.500533,"lng":136.765689,"zip":"5190604"},{"town":"船江一丁目","koaza":"","lat":34.499808,"lng":136.71307,"zip":"5160008"},{"town":"船江二丁目","koaza":"","lat":34.49993,"lng":136.722239,"zip":"5160008"},{"town":"船江三丁目","koaza":"","lat":34.502438,"lng":136.718743,"zip":"5160008"},{"town":"船江四丁目","koaza":"","lat":34.504719,"lng":136.714516,"zip":"5160008"},{"town":"古市町","koaza":"","lat":34.481136,"lng":136.721964,"zip":"5160033"},{"town":"本町","koaza":"","lat":34.489162,"lng":136.706362,"zip":"5160074"},{"town":"前山町","koaza":"","lat":34.455435,"lng":136.692754,"zip":"5160044"},{"town":"馬瀬町","koaza":"","lat":34.518642,"lng":136.72829,"zip":"5160002"},{"town":"御薗町王中島","koaza":"","lat":34.511267,"lng":136.716913,"zip":"5160803"},{"town":"御薗町小林","koaza":"","lat":34.521083,"lng":136.720692,"zip":"5160801"},{"town":"御薗町上條","koaza":"","lat":34.520027,"lng":136.712901,"zip":"5150521"},{"town":"御薗町新開","koaza":"","lat":34.51097,"lng":136.72267,"zip":"5160802"},{"town":"御薗町高向","koaza":"","lat":34.504754,"lng":136.694936,"zip":"5160805"},{"town":"御薗町長屋","koaza":"","lat":34.507831,"lng":136.70975,"zip":"5160804"},{"town":"宮川一丁目","koaza":"","lat":34.496198,"lng":136.689152,"zip":"5160061"},{"town":"宮川二丁目","koaza":"","lat":34.49783,"lng":136.686666,"zip":"5160061"},{"town":"宮後一丁目","koaza":"","lat":34.491866,"lng":136.706987,"zip":"5160072"},{"town":"宮後二丁目","koaza":"","lat":34.493691,"lng":136.709304,"zip":"5160072"},{"town":"宮後三丁目","koaza":"","lat":34.497707,"lng":136.709424,"zip":"5160072"},{"town":"宮町一丁目","koaza":"","lat":34.492586,"lng":136.699812,"zip":"5160077"},{"town":"宮町二丁目","koaza":"","lat":34.495776,"lng":136.698163,"zip":"5160077"},{"town":"村松町","koaza":"","lat":34.541167,"lng":136.677229,"zip":"5150507"},{"town":"倭町","koaza":"","lat":34.485112,"lng":136.720598,"zip":"5160032"},{"town":"矢持町","koaza":"","lat":34.405565,"lng":136.694839,"zip":"5161105"},{"town":"八日市場町","koaza":"","lat":34.490538,"lng":136.700371,"zip":"5160076"},{"town":"横輪町","koaza":"","lat":34.409002,"lng":136.66713,"zip":"5161106"},{"town":"上地町","koaza":"芝切","lat":34.49278,"lng":136.659737,"zip":"5160051"},{"town":"上地町","koaza":"下起","lat":34.500215,"lng":136.662225,"zip":"5160051"},{"town":"御薗町長屋","koaza":"清水","lat":34.506897,"lng":136.70695,"zip":"5160804"},{"town":"磯町","koaza":"尾立","lat":34.51459,"lng":136.71014,"zip":"5150504"},{"town":"御薗町長屋","koaza":"桜本","lat":34.508592,"lng":136.713823,"zip":"5160804"},{"town":"中村町","koaza":"桜が丘","lat":34.472149,"lng":136.72011,"zip":"5160028"},{"town":"小木町","koaza":"曽祢","lat":34.506028,"lng":136.722552,"zip":"5160007"},{"town":"神田久志本町","koaza":"牛場","lat":34.490764,"lng":136.72579,"zip":"5160016"},{"town":"小木町","koaza":"須賀野","lat":34.507809,"lng":136.726354,"zip":"5160007"},{"town":"小木町","koaza":"箕曲","lat":34.506172,"lng":136.729879,"zip":"5160007"}]