[{"town":"愛田","koaza":"","lat":34.810465,"lng":136.225268,"zip":"5191413"},{"town":"阿保","koaza":"","lat":34.66631,"lng":136.178221,"zip":"5180226"},{"town":"青山羽根","koaza":"","lat":34.657392,"lng":136.170003,"zip":"5180227"},{"town":"朝日ケ丘町","koaza":"","lat":34.678363,"lng":136.150711,"zip":"5180114"},{"town":"阿山ハイツ","koaza":"","lat":34.814231,"lng":136.170824,"zip":"5181316"},{"town":"荒木","koaza":"","lat":34.764527,"lng":136.167846,"zip":"5180818"},{"town":"石川","koaza":"","lat":34.844148,"lng":136.152774,"zip":"5181323"},{"town":"印代","koaza":"","lat":34.788572,"lng":136.14598,"zip":"5180008"},{"town":"出後","koaza":"","lat":34.747556,"lng":136.228421,"zip":"5181407"},{"town":"伊勢路","koaza":"","lat":34.667488,"lng":136.257335,"zip":"5180205"},{"town":"猪田","koaza":"","lat":34.717238,"lng":136.141646,"zip":"5180123"},{"town":"一之宮","koaza":"","lat":34.786877,"lng":136.163016,"zip":"5180003"},{"town":"市部","koaza":"","lat":34.73003,"lng":136.18218,"zip":"5180102"},{"town":"依那具","koaza":"","lat":34.737239,"lng":136.144162,"zip":"5180101"},{"town":"岩倉","koaza":"","lat":34.779519,"lng":136.098479,"zip":"5180026"},{"town":"上野相生町","koaza":"","lat":34.764891,"lng":136.132515,"zip":"5180859"},{"town":"上野赤坂町","koaza":"","lat":34.768258,"lng":136.134935,"zip":"5180871"},{"town":"上野愛宕町","koaza":"","lat":34.759827,"lng":136.129147,"zip":"5180846"},{"town":"上野池町","koaza":"","lat":34.761793,"lng":136.133482,"zip":"5180853"},{"town":"上野伊予町","koaza":"","lat":34.764693,"lng":136.135878,"zip":"5180852"},{"town":"上野魚町","koaza":"","lat":34.765516,"lng":136.131429,"zip":"5180865"},{"town":"上野恵美須町","koaza":"","lat":34.761067,"lng":136.132657,"zip":"5180841"},{"town":"上野鍛冶町","koaza":"","lat":34.76572,"lng":136.133097,"zip":"5180864"},{"town":"上野片原町","koaza":"","lat":34.766134,"lng":136.133007,"zip":"5180862"},{"town":"上野茅町","koaza":"","lat":34.76133,"lng":136.135857,"zip":"5180838"},{"town":"上野車坂町","koaza":"","lat":34.767606,"lng":136.142591,"zip":"5180832"},{"town":"上野桑町","koaza":"","lat":34.75788,"lng":136.134265,"zip":"5180842"},{"town":"上野玄蕃町","koaza":"","lat":34.768639,"lng":136.134007,"zip":"5180872"},{"town":"上野幸坂町","koaza":"","lat":34.766111,"lng":136.12463,"zip":"5180874"},{"town":"上野小玉町","koaza":"","lat":34.765249,"lng":136.128563,"zip":"5180866"},{"town":"上野紺屋町","koaza":"","lat":34.764502,"lng":136.130069,"zip":"5180858"},{"town":"上野三之西町","koaza":"","lat":34.764329,"lng":136.127671,"zip":"5180857"},{"town":"上野忍町","koaza":"","lat":34.763242,"lng":136.130302,"zip":"5180854"},{"town":"上野下幸坂町","koaza":"","lat":34.766266,"lng":136.120504,"zip":"5180877"},{"town":"上野新町","koaza":"","lat":34.765648,"lng":136.133712,"zip":"5180863"},{"town":"上野田端町","koaza":"","lat":34.764688,"lng":136.138781,"zip":"5180839"},{"town":"上野鉄砲町","koaza":"","lat":34.760712,"lng":136.127957,"zip":"5180847"},{"town":"上野寺町","koaza":"","lat":34.763962,"lng":136.134845,"zip":"5180851"},{"town":"上野徳居町","koaza":"","lat":34.763371,"lng":136.124907,"zip":"5180856"},{"town":"上野中町","koaza":"","lat":34.765989,"lng":136.128337,"zip":"5180869"},{"town":"上野西大手町","koaza":"","lat":34.767751,"lng":136.122868,"zip":"5180878"},{"town":"上野西日南町","koaza":"","lat":34.760514,"lng":136.130288,"zip":"5180848"},{"town":"上野西町","koaza":"","lat":34.765679,"lng":136.12595,"zip":"5180868"},{"town":"上野農人町","koaza":"","lat":34.767257,"lng":136.136678,"zip":"5180831"},{"town":"上野東日南町","koaza":"","lat":34.760611,"lng":136.131222,"zip":"5180849"},{"town":"上野東町","koaza":"","lat":34.76628,"lng":136.131492,"zip":"5180861"},{"town":"上野福居町","koaza":"","lat":34.76479,"lng":136.125298,"zip":"5180867"},{"town":"上野丸之内","koaza":"","lat":34.769566,"lng":136.128784,"zip":"5180873"},{"town":"上野向島町","koaza":"","lat":34.765318,"lng":136.123542,"zip":"5180875"},{"town":"上野万町","koaza":"","lat":34.760302,"lng":136.12608,"zip":"5180855"},{"town":"上林","koaza":"","lat":34.687887,"lng":136.163047,"zip":"5180112"},{"town":"上村","koaza":"","lat":34.830176,"lng":136.228725,"zip":"5191403"},{"town":"内保","koaza":"","lat":34.882192,"lng":136.171535,"zip":"5181321"},{"town":"円徳院","koaza":"","lat":34.81153,"lng":136.177313,"zip":"5181314"},{"town":"老川","koaza":"","lat":34.642201,"lng":136.207235,"zip":"5180219"},{"town":"大内","koaza":"","lat":34.737436,"lng":136.106459,"zip":"5180034"},{"town":"大滝","koaza":"","lat":34.69127,"lng":136.08416,"zip":"5181154"},{"town":"大谷","koaza":"","lat":34.79794,"lng":136.134269,"zip":"5180017"},{"town":"大野木","koaza":"","lat":34.745787,"lng":136.105988,"zip":"5180033"},{"town":"岡田","koaza":"","lat":34.678791,"lng":136.194089,"zip":"5180223"},{"town":"岡波","koaza":"","lat":34.696894,"lng":136.18744,"zip":"5180106"},{"town":"沖","koaza":"","lat":34.718002,"lng":136.171821,"zip":"5180103"},{"town":"奥鹿野","koaza":"","lat":34.652337,"lng":136.243151,"zip":"5180211"},{"town":"奥馬野","koaza":"","lat":34.72492,"lng":136.287635,"zip":"5181427"},{"town":"小田町","koaza":"","lat":34.774187,"lng":136.119149,"zip":"5180825"},{"town":"音羽","koaza":"","lat":34.819941,"lng":136.132252,"zip":"5181324"},{"town":"界外","koaza":"","lat":34.746118,"lng":136.180656,"zip":"5180815"},{"town":"笠部","koaza":"","lat":34.734921,"lng":136.129982,"zip":"5180122"},{"town":"柏尾","koaza":"","lat":34.669732,"lng":136.195965,"zip":"5180224"},{"town":"炊村","koaza":"","lat":34.782089,"lng":136.204847,"zip":"5181403"},{"town":"鍛冶屋","koaza":"","lat":34.699739,"lng":136.124957,"zip":"5181143"},{"town":"柏野","koaza":"","lat":34.81769,"lng":136.189942,"zip":"5191415"},{"town":"勝地","koaza":"","lat":34.694745,"lng":136.265424,"zip":"5180203"},{"town":"桂","koaza":"","lat":34.679529,"lng":136.092267,"zip":"5181153"},{"town":"上阿波","koaza":"","lat":34.778378,"lng":136.306104,"zip":"5181412"},{"town":"上神戸","koaza":"","lat":34.679255,"lng":136.138288,"zip":"5180116"},{"town":"上郡","koaza":"","lat":34.702843,"lng":136.146841,"zip":"5180125"},{"town":"上友田","koaza":"","lat":34.849413,"lng":136.212647,"zip":"5181303"},{"town":"上友生","koaza":"","lat":34.739652,"lng":136.187224,"zip":"5180814"},{"town":"上之庄","koaza":"","lat":34.732858,"lng":136.114745,"zip":"5180121"},{"town":"川合","koaza":"","lat":34.819998,"lng":136.169139,"zip":"5181315"},{"town":"川上","koaza":"","lat":34.645026,"lng":136.182297,"zip":"5180218"},{"town":"川上一丁目","koaza":"","lat":34.677457,"lng":136.178474,"zip":"5180218"},{"town":"川上二丁目","koaza":"","lat":34.676894,"lng":136.179657,"zip":"5180218"},{"town":"川上三丁目","koaza":"","lat":34.676237,"lng":136.179835,"zip":"5180218"},{"town":"川北","koaza":"","lat":34.758024,"lng":136.246343,"zip":"5181425"},{"town":"川西","koaza":"","lat":34.796373,"lng":136.200392,"zip":"5191425"},{"town":"川東","koaza":"","lat":34.798511,"lng":136.214821,"zip":"5191424"},{"town":"木興町","koaza":"","lat":34.761019,"lng":136.119761,"zip":"5180845"},{"town":"北山","koaza":"","lat":34.68546,"lng":136.222879,"zip":"5180204"},{"town":"希望ヶ丘西一丁目","koaza":"","lat":34.783777,"lng":136.220967,"zip":"5180000"},{"town":"希望ヶ丘西二丁目","koaza":"","lat":34.78513,"lng":136.223897,"zip":"5180000"},{"town":"希望ヶ丘西三丁目","koaza":"","lat":34.785893,"lng":136.226716,"zip":"5180000"},{"town":"希望ヶ丘西四丁目","koaza":"","lat":34.785983,"lng":136.229283,"zip":"5180000"},{"town":"希望ヶ丘西五丁目","koaza":"","lat":34.783851,"lng":136.228328,"zip":"5180000"},{"town":"希望ヶ丘東一丁目","koaza":"","lat":34.787532,"lng":136.232577,"zip":"5180000"},{"town":"希望ヶ丘東二丁目","koaza":"","lat":34.785472,"lng":136.232104,"zip":"5180000"},{"town":"希望ヶ丘東三丁目","koaza":"","lat":34.784145,"lng":136.238929,"zip":"5180000"},{"town":"希望ヶ丘東四丁目","koaza":"","lat":34.783684,"lng":136.235134,"zip":"5180000"},{"town":"希望ヶ丘東五丁目","koaza":"","lat":34.782846,"lng":136.238148,"zip":"5180000"},{"town":"桐ケ丘一丁目","koaza":"","lat":34.66526,"lng":136.186818,"zip":"5180225"},{"town":"桐ケ丘二丁目","koaza":"","lat":34.66301,"lng":136.187689,"zip":"5180225"},{"town":"桐ケ丘三丁目","koaza":"","lat":34.662676,"lng":136.190918,"zip":"5180225"},{"town":"桐ケ丘四丁目","koaza":"","lat":34.659485,"lng":136.192293,"zip":"5180225"},{"town":"桐ケ丘五丁目","koaza":"","lat":34.661934,"lng":136.195674,"zip":"5180225"},{"town":"桐ケ丘六丁目","koaza":"","lat":34.659616,"lng":136.196488,"zip":"5180225"},{"town":"桐ケ丘七丁目","koaza":"","lat":34.661676,"lng":136.200297,"zip":"5180225"},{"town":"桐ケ丘八丁目","koaza":"","lat":34.65866,"lng":136.199956,"zip":"5180225"},{"town":"霧生","koaza":"","lat":34.607034,"lng":136.229793,"zip":"5180215"},{"town":"久米町","koaza":"","lat":34.754622,"lng":136.140668,"zip":"5180843"},{"town":"蔵縄手","koaza":"","lat":34.696123,"lng":136.113634,"zip":"5181147"},{"town":"甲野","koaza":"","lat":34.775544,"lng":136.228431,"zip":"5181404"},{"town":"腰山","koaza":"","lat":34.626804,"lng":136.216619,"zip":"5180214"},{"town":"小杉","koaza":"","lat":34.854533,"lng":136.232062,"zip":"5191406"},{"town":"西明寺","koaza":"","lat":34.765245,"lng":136.15416,"zip":"5180809"},{"town":"才良","koaza":"","lat":34.710598,"lng":136.1791,"zip":"5180108"},{"town":"坂下","koaza":"","lat":34.714435,"lng":136.24697,"zip":"5181429"},{"town":"坂之下","koaza":"","lat":34.804991,"lng":136.156264,"zip":"5180012"},{"town":"佐那具町","koaza":"","lat":34.799715,"lng":136.169509,"zip":"5180001"},{"town":"四十九町","koaza":"","lat":34.744391,"lng":136.135738,"zip":"5180823"},{"town":"七本木","koaza":"","lat":34.731955,"lng":136.092255,"zip":"5180035"},{"town":"島ヶ原","koaza":"","lat":34.770733,"lng":136.05433,"zip":"5180000"},{"town":"下阿波","koaza":"","lat":34.749248,"lng":136.268714,"zip":"5181416"},{"town":"下川原","koaza":"","lat":34.684995,"lng":136.199399,"zip":"5180206"},{"town":"下神戸","koaza":"","lat":34.69143,"lng":136.181053,"zip":"5180111"},{"town":"下郡","koaza":"","lat":34.712737,"lng":136.147714,"zip":"5180124"},{"town":"下柘植","koaza":"","lat":34.818022,"lng":136.23677,"zip":"5191412"},{"town":"下友田","koaza":"","lat":34.840846,"lng":136.191238,"zip":"5181305"},{"town":"下友生","koaza":"","lat":34.750084,"lng":136.157252,"zip":"5180817"},{"town":"菖蒲池","koaza":"","lat":34.704925,"lng":136.115234,"zip":"5181141"},{"town":"白樫","koaza":"","lat":34.729774,"lng":136.076336,"zip":"5181151"},{"town":"新堂","koaza":"","lat":34.825747,"lng":136.202714,"zip":"5191416"},{"town":"摺見","koaza":"","lat":34.716591,"lng":136.199585,"zip":"5180104"},{"town":"諏訪","koaza":"","lat":34.821919,"lng":136.107872,"zip":"5180021"},{"town":"千貝","koaza":"","lat":34.83489,"lng":136.169805,"zip":"5181319"},{"town":"千歳","koaza":"","lat":34.791602,"lng":136.168757,"zip":"5180002"},{"town":"千戸","koaza":"","lat":34.782523,"lng":136.185846,"zip":"5181401"},{"town":"高尾","koaza":"","lat":34.590251,"lng":136.210764,"zip":"5180216"},{"town":"高畑","koaza":"","lat":34.779773,"lng":136.157189,"zip":"5180005"},{"town":"高山","koaza":"","lat":34.723178,"lng":136.21606,"zip":"5180812"},{"town":"瀧","koaza":"","lat":34.707116,"lng":136.245699,"zip":"5180201"},{"town":"楯岡","koaza":"","lat":34.831595,"lng":136.214272,"zip":"5191411"},{"town":"種生","koaza":"","lat":34.63072,"lng":136.190818,"zip":"5180217"},{"town":"田中","koaza":"","lat":34.826445,"lng":136.185865,"zip":"5181312"},{"town":"玉瀧","koaza":"","lat":34.868503,"lng":136.172631,"zip":"5180000"},{"town":"朝屋","koaza":"","lat":34.755229,"lng":136.10542,"zip":"5180032"},{"town":"柘植町","koaza":"","lat":34.846303,"lng":136.255628,"zip":"5191402"},{"town":"土橋","koaza":"","lat":34.800079,"lng":136.146729,"zip":"5180015"},{"town":"寺田","koaza":"","lat":34.779393,"lng":136.169473,"zip":"5180004"},{"town":"寺脇","koaza":"","lat":34.677852,"lng":136.186479,"zip":"5180222"},{"town":"富岡","koaza":"","lat":34.755272,"lng":136.214036,"zip":"5181424"},{"town":"富永","koaza":"","lat":34.779089,"lng":136.26439,"zip":"5181417"},{"town":"外山","koaza":"","lat":34.804835,"lng":136.161964,"zip":"5180011"},{"town":"問屋町","koaza":"","lat":34.751655,"lng":136.1443,"zip":"5180822"},{"town":"長田","koaza":"","lat":34.76715,"lng":136.093566,"zip":"5180031"},{"town":"中柘植","koaza":"","lat":34.835048,"lng":136.22838,"zip":"5191404"},{"town":"中友田","koaza":"","lat":34.847871,"lng":136.195019,"zip":"5181304"},{"town":"中友生","koaza":"","lat":34.749234,"lng":136.168731,"zip":"5180816"},{"town":"中馬野","koaza":"","lat":34.718091,"lng":136.26818,"zip":"5181428"},{"town":"中村","koaza":"","lat":34.758086,"lng":136.232617,"zip":"5181406"},{"town":"西条","koaza":"","lat":34.800064,"lng":136.151376,"zip":"5180014"},{"town":"西高倉","koaza":"","lat":34.794799,"lng":136.094135,"zip":"5180025"},{"town":"西之澤","koaza":"","lat":34.800611,"lng":136.186001,"zip":"5191426"},{"town":"西山","koaza":"","lat":34.790815,"lng":136.077805,"zip":"5180027"},{"town":"西湯舟","koaza":"","lat":34.862314,"lng":136.192374,"zip":"5181301"},{"town":"野間","koaza":"","lat":34.794615,"lng":136.117788,"zip":"5180023"},{"town":"野村","koaza":"","lat":34.83816,"lng":136.234695,"zip":"5191405"},{"town":"波敷野","koaza":"","lat":34.821828,"lng":136.151829,"zip":"5181318"},{"town":"蓮池","koaza":"","lat":34.737883,"lng":136.208174,"zip":"5180813"},{"town":"馬田","koaza":"","lat":34.837772,"lng":136.178556,"zip":"5181311"},{"town":"畑村","koaza":"","lat":34.771769,"lng":136.202624,"zip":"5181408"},{"town":"治田","koaza":"","lat":34.710864,"lng":136.075153,"zip":"5181155"},{"town":"服部町","koaza":"","lat":34.781188,"lng":136.138056,"zip":"5180007"},{"town":"服部町一丁目","koaza":"","lat":34.77537,"lng":136.134431,"zip":"5180007"},{"town":"服部町二丁目","koaza":"","lat":34.77322,"lng":136.14031,"zip":"5180007"},{"town":"服部町三丁目","koaza":"","lat":34.772404,"lng":136.142279,"zip":"5180007"},{"town":"羽根","koaza":"","lat":34.780277,"lng":136.150676,"zip":"5180006"},{"town":"馬場","koaza":"","lat":34.82662,"lng":136.173653,"zip":"5181313"},{"town":"東条","koaza":"","lat":34.796978,"lng":136.155053,"zip":"5180013"},{"town":"東高倉","koaza":"","lat":34.790292,"lng":136.111441,"zip":"5180024"},{"town":"東谷","koaza":"","lat":34.689985,"lng":136.124526,"zip":"5181144"},{"town":"東湯舟","koaza":"","lat":34.863368,"lng":136.210038,"zip":"5181302"},{"town":"比自岐","koaza":"","lat":34.703225,"lng":136.197749,"zip":"5180105"},{"town":"枅川","koaza":"","lat":34.703034,"lng":136.162341,"zip":"5180107"},{"town":"比土","koaza":"","lat":34.653651,"lng":136.156837,"zip":"5180115"},{"town":"一ツ家","koaza":"","lat":34.850807,"lng":136.282745,"zip":"5191401"},{"town":"平田","koaza":"","lat":34.76267,"lng":136.213119,"zip":"5181422"},{"town":"平野北谷","koaza":"","lat":34.773784,"lng":136.128013,"zip":"5180826"},{"town":"平野蔵垣内","koaza":"","lat":34.769696,"lng":136.140967,"zip":"5180808"},{"town":"平野清水","koaza":"","lat":34.776985,"lng":136.130208,"zip":"5180827"},{"town":"平野城北町","koaza":"","lat":34.774183,"lng":136.13205,"zip":"5180830"},{"town":"平野中川原","koaza":"","lat":34.775833,"lng":136.129336,"zip":"5180828"},{"town":"平野西町","koaza":"","lat":34.77274,"lng":136.135776,"zip":"5180820"},{"town":"平野東町","koaza":"","lat":34.771415,"lng":136.139004,"zip":"5180810"},{"town":"平野樋之口","koaza":"","lat":34.770779,"lng":136.134288,"zip":"5180802"},{"town":"平野見能","koaza":"","lat":34.772089,"lng":136.132853,"zip":"5180801"},{"town":"平野山之下","koaza":"","lat":34.773047,"lng":136.130539,"zip":"5180829"},{"town":"平野六反田","koaza":"","lat":34.770472,"lng":136.13631,"zip":"5180804"},{"town":"広瀬","koaza":"","lat":34.743331,"lng":136.249098,"zip":"5181426"},{"town":"福川","koaza":"","lat":34.649247,"lng":136.222603,"zip":"5180212"},{"town":"古郡","koaza":"","lat":34.680678,"lng":136.158371,"zip":"5180113"},{"town":"生琉里","koaza":"","lat":34.754485,"lng":136.152308,"zip":"5180821"},{"town":"古山界外","koaza":"","lat":34.702779,"lng":136.12443,"zip":"5181142"},{"town":"別府","koaza":"","lat":34.672559,"lng":136.182926,"zip":"5180221"},{"town":"鳳凰寺","koaza":"","lat":34.766843,"lng":136.227545,"zip":"5181405"},{"town":"喰代","koaza":"","lat":34.740597,"lng":136.219845,"zip":"5180811"},{"town":"法花","koaza":"","lat":34.743161,"lng":136.079799,"zip":"5180036"},{"town":"槙山","koaza":"","lat":34.879022,"lng":136.11734,"zip":"5181326"},{"town":"猿野","koaza":"","lat":34.752937,"lng":136.289381,"zip":"5181414"},{"town":"丸柱","koaza":"","lat":34.846226,"lng":136.122176,"zip":"5181325"},{"town":"三田","koaza":"","lat":34.794361,"lng":136.127279,"zip":"5180022"},{"town":"御代","koaza":"","lat":34.812178,"lng":136.206369,"zip":"5191414"},{"town":"緑ケ丘中町","koaza":"","lat":34.761515,"lng":136.146704,"zip":"5180834"},{"town":"緑ケ丘西町","koaza":"","lat":34.758866,"lng":136.138828,"zip":"5180837"},{"town":"緑ケ丘東町","koaza":"","lat":34.764047,"lng":136.145446,"zip":"5180833"},{"town":"緑ケ丘本町","koaza":"","lat":34.761112,"lng":136.141304,"zip":"5180836"},{"town":"緑ケ丘南町","koaza":"","lat":34.75767,"lng":136.145878,"zip":"5180835"},{"town":"真泥","koaza":"","lat":34.765171,"lng":136.190666,"zip":"5181421"},{"town":"妙楽地","koaza":"","lat":34.700703,"lng":136.232456,"zip":"5180202"},{"town":"守田町","koaza":"","lat":34.748513,"lng":136.120782,"zip":"5180824"},{"town":"森寺","koaza":"","lat":34.694364,"lng":136.137794,"zip":"5180126"},{"town":"諸木","koaza":"","lat":34.637258,"lng":136.228079,"zip":"5180213"},{"town":"山神","koaza":"","lat":34.79718,"lng":136.141428,"zip":"5180016"},{"town":"安場","koaza":"","lat":34.680163,"lng":136.109635,"zip":"5181145"},{"town":"山畑","koaza":"","lat":34.800168,"lng":136.246058,"zip":"5191421"},{"town":"八幡町","koaza":"","lat":34.755471,"lng":136.125223,"zip":"5180844"},{"town":"山出","koaza":"","lat":34.716297,"lng":136.123291,"zip":"5180127"},{"town":"湯舟","koaza":"","lat":34.849978,"lng":136.179012,"zip":"5181306"},{"town":"ゆめが丘一丁目","koaza":"","lat":34.740468,"lng":136.155524,"zip":"5180131"},{"town":"ゆめが丘二丁目","koaza":"","lat":34.73773,"lng":136.163437,"zip":"5180131"},{"town":"ゆめが丘三丁目","koaza":"","lat":34.736377,"lng":136.160659,"zip":"5180131"},{"town":"ゆめが丘四丁目","koaza":"","lat":34.734778,"lng":136.158071,"zip":"5180131"},{"town":"ゆめが丘五丁目","koaza":"","lat":34.733701,"lng":136.162181,"zip":"5180131"},{"town":"ゆめが丘六丁目","koaza":"","lat":34.731618,"lng":136.165048,"zip":"5180131"},{"town":"ゆめが丘七丁目","koaza":"","lat":34.736406,"lng":136.170369,"zip":"5180131"},{"town":"湯屋谷","koaza":"","lat":34.69555,"lng":136.106434,"zip":"5181146"},{"town":"陽光台","koaza":"","lat":34.748957,"lng":136.127331,"zip":"5180840"},{"town":"予野","koaza":"","lat":34.712052,"lng":136.099969,"zip":"5181152"},{"town":"島ヶ原","koaza":"川南","lat":34.739786,"lng":136.057776,"zip":"5180000"},{"town":"小田町","koaza":"平松","lat":34.767037,"lng":136.118712,"zip":"5180825"},{"town":"小田町","koaza":"瓜谷","lat":34.776298,"lng":136.122643,"zip":"5180825"},{"town":"小田町","koaza":"稲久保","lat":34.77435,"lng":136.124443,"zip":"5180825"},{"town":"服部町","koaza":"小芝","lat":34.781349,"lng":136.135263,"zip":"5180007"},{"town":"西明寺","koaza":"有井","lat":34.770604,"lng":136.147019,"zip":"5180809"},{"town":"青山羽根","koaza":"下向","lat":34.661452,"lng":136.165951,"zip":"5180227"},{"town":"新堂","koaza":"一本木","lat":34.823535,"lng":136.210487,"zip":"5191416"},{"town":"下友生","koaza":"広川原","lat":34.751345,"lng":136.149308,"zip":"5180817"}]