[{"town":"大原","koaza":"","lat":34.221556,"lng":136.277104,"zip":"5193202"},{"town":"海野","koaza":"","lat":34.187406,"lng":136.320382,"zip":"5193206"},{"town":"島原","koaza":"","lat":34.199733,"lng":136.269978,"zip":"5193203"},{"town":"十須","koaza":"","lat":34.248575,"lng":136.27149,"zip":"5193201"},{"town":"道瀬","koaza":"","lat":34.179072,"lng":136.29171,"zip":"5193207"},{"town":"長島","koaza":"","lat":34.201498,"lng":136.323758,"zip":"5193205"},{"town":"東長島","koaza":"","lat":34.220498,"lng":136.349397,"zip":"5193204"},{"town":"古里","koaza":"","lat":34.186339,"lng":136.302396,"zip":"5193209"},{"town":"三浦","koaza":"","lat":34.166985,"lng":136.274707,"zip":"5193208"},{"town":"相賀","koaza":"","lat":34.144316,"lng":136.145435,"zip":"5193406"},{"town":"馬瀬","koaza":"","lat":34.158899,"lng":136.253633,"zip":"5193401"},{"town":"小浦","koaza":"","lat":34.122147,"lng":136.247501,"zip":"5193414"},{"town":"小山浦","koaza":"","lat":34.093221,"lng":136.205629,"zip":"5193407"},{"town":"上里","koaza":"","lat":34.140405,"lng":136.235558,"zip":"5193403"},{"town":"河内","koaza":"","lat":34.184498,"lng":136.216829,"zip":"5193402"},{"town":"島勝浦","koaza":"","lat":34.110683,"lng":136.292295,"zip":"5193412"},{"town":"白浦","koaza":"","lat":34.128973,"lng":136.282246,"zip":"5193411"},{"town":"中里","koaza":"","lat":34.145995,"lng":136.213553,"zip":"5193404"},{"town":"引本浦","koaza":"","lat":34.107557,"lng":136.263432,"zip":"5193413"},{"town":"便ノ山","koaza":"","lat":34.114397,"lng":136.185584,"zip":"5193408"},{"town":"矢口浦","koaza":"","lat":34.136308,"lng":136.268297,"zip":"5193415"},{"town":"船津","koaza":"","lat":34.155267,"lng":136.191463,"zip":"5193405"}]