[{"town":"浅里","koaza":"","lat":33.768214,"lng":135.931014,"zip":"5195718"},{"town":"井田","koaza":"","lat":33.760535,"lng":136.021673,"zip":"5195711"},{"town":"井内","koaza":"","lat":33.789086,"lng":135.994874,"zip":"5195834"},{"town":"鵜殿","koaza":"","lat":33.734626,"lng":136.007072,"zip":"5195701"},{"town":"大里","koaza":"","lat":33.773573,"lng":135.99056,"zip":"5195835"},{"town":"北檜杖","koaza":"","lat":33.732504,"lng":135.964624,"zip":"5195700"},{"town":"桐原","koaza":"","lat":33.809481,"lng":135.958073,"zip":"5195831"},{"town":"神内","koaza":"","lat":33.757355,"lng":136.007457,"zip":"5195712"},{"town":"阪松原","koaza":"","lat":33.804109,"lng":135.984802,"zip":"5195832"},{"town":"瀬原","koaza":"","lat":33.737861,"lng":135.950379,"zip":"5195717"},{"town":"高岡","koaza":"","lat":33.769928,"lng":135.968129,"zip":"5195715"},{"town":"成川","koaza":"","lat":33.741815,"lng":135.996039,"zip":"5195713"},{"town":"平尾井","koaza":"","lat":33.795712,"lng":135.987128,"zip":"5195833"},{"town":"鮒田","koaza":"","lat":33.749584,"lng":135.970711,"zip":"5195714"}]