[{"town":"大字阿田和","koaza":"","lat":33.800662,"lng":136.037102,"zip":"5195200"},{"town":"大字上野","koaza":"","lat":33.854056,"lng":135.981349,"zip":"5195200"},{"town":"大字柿原","koaza":"","lat":33.799242,"lng":136.019948,"zip":"5195200"},{"town":"大字片川","koaza":"","lat":33.832572,"lng":135.967379,"zip":"5195200"},{"town":"大字上市木","koaza":"","lat":33.831648,"lng":136.03086,"zip":"5195200"},{"town":"大字川瀬","koaza":"","lat":33.858413,"lng":135.977348,"zip":"5195200"},{"town":"大字栗須","koaza":"","lat":33.852377,"lng":135.97592,"zip":"5195200"},{"town":"大字神木","koaza":"","lat":33.868778,"lng":136.028238,"zip":"5195200"},{"town":"大字阪本","koaza":"","lat":33.860807,"lng":135.996566,"zip":"5195200"},{"town":"大字志原","koaza":"","lat":33.848656,"lng":136.053043,"zip":"5195200"},{"town":"大字下市木","koaza":"","lat":33.829838,"lng":136.049929,"zip":"5195200"},{"town":"大字中立","koaza":"","lat":33.817495,"lng":136.009458,"zip":"5195200"},{"town":"大字西原","koaza":"","lat":33.830939,"lng":135.993961,"zip":"5195200"},{"town":"大字引作","koaza":"","lat":33.793743,"lng":136.012857,"zip":"5195200"}]