[{"town":"赤目町一ノ井","koaza":"","lat":34.59151,"lng":136.07617,"zip":"5180468"},{"town":"赤目町柏原","koaza":"","lat":34.596977,"lng":136.079919,"zip":"5180464"},{"town":"赤目町相楽","koaza":"","lat":34.606691,"lng":136.078704,"zip":"5180467"},{"town":"赤目町丈六","koaza":"","lat":34.599813,"lng":136.07261,"zip":"5180465"},{"town":"赤目町新川","koaza":"","lat":34.603627,"lng":136.077634,"zip":"5180466"},{"town":"赤目町すみれが丘","koaza":"","lat":34.5985,"lng":136.091202,"zip":"5180461"},{"town":"赤目町檀","koaza":"","lat":34.600389,"lng":136.078191,"zip":"5180463"},{"town":"赤目町長坂","koaza":"","lat":34.57247,"lng":136.085333,"zip":"5180469"},{"town":"赤目町星川","koaza":"","lat":34.596336,"lng":136.087784,"zip":"5180462"},{"town":"朝日町","koaza":"","lat":34.626376,"lng":136.085567,"zip":"5180721"},{"town":"安部田","koaza":"","lat":34.595581,"lng":136.056793,"zip":"5180737"},{"town":"家野","koaza":"","lat":34.655547,"lng":136.074347,"zip":"5180607"},{"town":"井手","koaza":"","lat":34.609919,"lng":136.065312,"zip":"5180736"},{"town":"上本町","koaza":"","lat":34.620268,"lng":136.090142,"zip":"5180716"},{"town":"梅が丘北一番町","koaza":"","lat":34.637652,"lng":136.092247,"zip":"5180400"},{"town":"梅が丘北二番町","koaza":"","lat":34.638168,"lng":136.088715,"zip":"5180400"},{"town":"梅が丘北三番町","koaza":"","lat":34.638163,"lng":136.086386,"zip":"5180400"},{"town":"梅が丘北四番町","koaza":"","lat":34.639637,"lng":136.084594,"zip":"5180400"},{"town":"梅が丘北五番町","koaza":"","lat":34.641606,"lng":136.086495,"zip":"5180400"},{"town":"梅が丘南一番町","koaza":"","lat":34.634765,"lng":136.091089,"zip":"5180400"},{"town":"梅が丘南二番町","koaza":"","lat":34.635048,"lng":136.088456,"zip":"5180400"},{"town":"梅が丘南三番町","koaza":"","lat":34.635058,"lng":136.08613,"zip":"5180400"},{"town":"梅が丘南四番町","koaza":"","lat":34.635061,"lng":136.083873,"zip":"5180400"},{"town":"梅が丘南五番町","koaza":"","lat":34.63271,"lng":136.086702,"zip":"5180400"},{"town":"鵜山","koaza":"","lat":34.667372,"lng":136.090582,"zip":"5180608"},{"town":"大谷","koaza":"","lat":34.625936,"lng":136.076026,"zip":"5180400"},{"town":"大屋戸","koaza":"","lat":34.631331,"lng":136.091449,"zip":"5180733"},{"town":"鍛冶町","koaza":"","lat":34.618491,"lng":136.090808,"zip":"5180714"},{"town":"春日丘一番町","koaza":"","lat":34.615237,"lng":136.113548,"zip":"5180400"},{"town":"春日丘二番町","koaza":"","lat":34.616048,"lng":136.116563,"zip":"5180400"},{"town":"春日丘三番町","koaza":"","lat":34.613823,"lng":136.116266,"zip":"5180400"},{"town":"春日丘四番町","koaza":"","lat":34.613826,"lng":136.119485,"zip":"5180400"},{"town":"春日丘五番町","koaza":"","lat":34.611009,"lng":136.120525,"zip":"5180400"},{"town":"春日丘六番町","koaza":"","lat":34.611041,"lng":136.122392,"zip":"5180400"},{"town":"春日丘七番町","koaza":"","lat":34.614981,"lng":136.120994,"zip":"5180400"},{"town":"上小波田","koaza":"","lat":34.641513,"lng":136.138329,"zip":"5180613"},{"town":"上長瀬","koaza":"","lat":34.573895,"lng":136.182244,"zip":"5180502"},{"town":"上八町","koaza":"","lat":34.625549,"lng":136.091514,"zip":"5180710"},{"town":"上比奈知","koaza":"","lat":34.61277,"lng":136.154388,"zip":"5180412"},{"town":"上三谷","koaza":"","lat":34.580306,"lng":136.066409,"zip":"5180762"},{"town":"神屋","koaza":"","lat":34.58146,"lng":136.136716,"zip":"5180504"},{"town":"希央台一番町","koaza":"","lat":34.624298,"lng":136.103113,"zip":"5180400"},{"town":"希央台二番町","koaza":"","lat":34.627377,"lng":136.099827,"zip":"5180400"},{"town":"希央台三番町","koaza":"","lat":34.622165,"lng":136.103924,"zip":"5180400"},{"town":"希央台四番町","koaza":"","lat":34.623645,"lng":136.101207,"zip":"5180400"},{"town":"希央台五番町","koaza":"","lat":34.624155,"lng":136.098393,"zip":"5180400"},{"town":"桔梗が丘一番町","koaza":"","lat":34.644152,"lng":136.115314,"zip":"5180400"},{"town":"桔梗が丘二番町","koaza":"","lat":34.640495,"lng":136.117848,"zip":"5180400"},{"town":"桔梗が丘三番町","koaza":"","lat":34.644335,"lng":136.1189,"zip":"5180400"},{"town":"桔梗が丘四番町","koaza":"","lat":34.649833,"lng":136.122084,"zip":"5180400"},{"town":"桔梗が丘五番町","koaza":"","lat":34.641129,"lng":136.127172,"zip":"5180400"},{"town":"桔梗が丘六番町","koaza":"","lat":34.645377,"lng":136.122311,"zip":"5180400"},{"town":"桔梗が丘七番町","koaza":"","lat":34.646018,"lng":136.126989,"zip":"5180400"},{"town":"桔梗が丘八番町","koaza":"","lat":34.648598,"lng":136.126885,"zip":"5180400"},{"town":"桔梗が丘西一番町","koaza":"","lat":34.644065,"lng":136.105369,"zip":"5180400"},{"town":"桔梗が丘西二番町","koaza":"","lat":34.641908,"lng":136.110566,"zip":"5180400"},{"town":"桔梗が丘西三番町","koaza":"","lat":34.643814,"lng":136.112303,"zip":"5180400"},{"town":"桔梗が丘西四番町","koaza":"","lat":34.647705,"lng":136.112587,"zip":"5180400"},{"town":"桔梗が丘西五番町","koaza":"","lat":34.646441,"lng":136.109474,"zip":"5180400"},{"town":"桔梗が丘西六番町","koaza":"","lat":34.646566,"lng":136.10664,"zip":"5180400"},{"town":"桔梗が丘西七番町","koaza":"","lat":34.648618,"lng":136.107838,"zip":"5180400"},{"town":"桔梗が丘南一番町","koaza":"","lat":34.634846,"lng":136.121177,"zip":"5180400"},{"town":"桔梗が丘南二番町","koaza":"","lat":34.632959,"lng":136.123572,"zip":"5180400"},{"town":"木屋町","koaza":"","lat":34.622695,"lng":136.086997,"zip":"5180723"},{"town":"葛尾","koaza":"","lat":34.65706,"lng":136.048072,"zip":"5180607"},{"town":"蔵持町里","koaza":"","lat":34.640426,"lng":136.10815,"zip":"5180753"},{"town":"蔵持町芝出","koaza":"","lat":34.630447,"lng":136.104311,"zip":"5180751"},{"town":"蔵持町原出","koaza":"","lat":34.634653,"lng":136.110089,"zip":"5180752"},{"town":"黒田","koaza":"","lat":34.616388,"lng":136.075141,"zip":"5180734"},{"town":"結馬","koaza":"","lat":34.612274,"lng":136.069159,"zip":"5180735"},{"town":"鴻之台一番町","koaza":"","lat":34.628908,"lng":136.10843,"zip":"5180400"},{"town":"鴻之台二番町","koaza":"","lat":34.625322,"lng":136.106503,"zip":"5180400"},{"town":"鴻之台三番町","koaza":"","lat":34.626266,"lng":136.104407,"zip":"5180400"},{"town":"鴻之台四番町","koaza":"","lat":34.62711,"lng":136.102372,"zip":"5180400"},{"town":"鴻之台五番町","koaza":"","lat":34.628359,"lng":136.102033,"zip":"5180400"},{"town":"薦生","koaza":"","lat":34.653109,"lng":136.086363,"zip":"5180606"},{"town":"栄町","koaza":"","lat":34.623686,"lng":136.093355,"zip":"5180719"},{"town":"榊町","koaza":"","lat":34.622455,"lng":136.088755,"zip":"5180724"},{"town":"桜ケ丘","koaza":"","lat":34.620987,"lng":136.099634,"zip":"5180712"},{"town":"さつき台一番町","koaza":"","lat":34.653637,"lng":136.108744,"zip":"5180400"},{"town":"さつき台二番町","koaza":"","lat":34.650328,"lng":136.106479,"zip":"5180400"},{"town":"下小波田","koaza":"","lat":34.653619,"lng":136.143785,"zip":"5180612"},{"town":"下比奈知","koaza":"","lat":34.622549,"lng":136.133284,"zip":"5180413"},{"town":"下三谷","koaza":"","lat":34.643143,"lng":136.080681,"zip":"5180739"},{"town":"青蓮寺","koaza":"","lat":34.57795,"lng":136.107408,"zip":"5180443"},{"town":"新田","koaza":"","lat":34.663499,"lng":136.140444,"zip":"5180611"},{"town":"新町","koaza":"","lat":34.618793,"lng":136.085466,"zip":"5180727"},{"town":"すずらん台西一番町","koaza":"","lat":34.642874,"lng":136.153923,"zip":"5180400"},{"town":"すずらん台西二番町","koaza":"","lat":34.640069,"lng":136.159795,"zip":"5180400"},{"town":"すずらん台西三番町","koaza":"","lat":34.63766,"lng":136.157654,"zip":"5180400"},{"town":"すずらん台西四番町","koaza":"","lat":34.638916,"lng":136.159859,"zip":"5180400"},{"town":"すずらん台東一番町","koaza":"","lat":34.637046,"lng":136.162793,"zip":"5180400"},{"town":"すずらん台東二番町","koaza":"","lat":34.635499,"lng":136.160727,"zip":"5180400"},{"town":"すずらん台東三番町","koaza":"","lat":34.633447,"lng":136.163028,"zip":"5180400"},{"town":"すずらん台東四番町","koaza":"","lat":34.633729,"lng":136.169457,"zip":"5180400"},{"town":"すずらん台東五番町","koaza":"","lat":34.635955,"lng":136.166206,"zip":"5180400"},{"town":"瀬古口","koaza":"","lat":34.613171,"lng":136.091835,"zip":"5180445"},{"town":"滝之原","koaza":"","lat":34.626469,"lng":136.161066,"zip":"5180411"},{"town":"つつじが丘北十番町","koaza":"","lat":34.612152,"lng":136.13367,"zip":"5180400"},{"town":"つつじが丘北一番町","koaza":"","lat":34.606085,"lng":136.127647,"zip":"5180400"},{"town":"つつじが丘北二番町","koaza":"","lat":34.608088,"lng":136.127458,"zip":"5180400"},{"town":"つつじが丘北三番町","koaza":"","lat":34.606126,"lng":136.131325,"zip":"5180400"},{"town":"つつじが丘北四番町","koaza":"","lat":34.61051,"lng":136.128916,"zip":"5180400"},{"town":"つつじが丘北五番町","koaza":"","lat":34.607105,"lng":136.133778,"zip":"5180400"},{"town":"つつじが丘北六番町","koaza":"","lat":34.610233,"lng":136.131992,"zip":"5180400"},{"town":"つつじが丘北七番町","koaza":"","lat":34.612407,"lng":136.13075,"zip":"5180400"},{"town":"つつじが丘北八番町","koaza":"","lat":34.614684,"lng":136.129058,"zip":"5180400"},{"town":"つつじが丘北九番町","koaza":"","lat":34.615845,"lng":136.132004,"zip":"5180400"},{"town":"つつじが丘南一番町","koaza":"","lat":34.607548,"lng":136.13737,"zip":"5180400"},{"town":"つつじが丘南二番町","koaza":"","lat":34.602753,"lng":136.138905,"zip":"5180400"},{"town":"つつじが丘南三番町","koaza":"","lat":34.603515,"lng":136.13583,"zip":"5180400"},{"town":"つつじが丘南四番町","koaza":"","lat":34.601379,"lng":136.13705,"zip":"5180400"},{"town":"つつじが丘南五番町","koaza":"","lat":34.598001,"lng":136.13656,"zip":"5180400"},{"town":"つつじが丘南六番町","koaza":"","lat":34.599544,"lng":136.134171,"zip":"5180400"},{"town":"つつじが丘南七番町","koaza":"","lat":34.602653,"lng":136.133307,"zip":"5180400"},{"town":"つつじが丘南八番町","koaza":"","lat":34.603249,"lng":136.129955,"zip":"5180400"},{"town":"奈垣","koaza":"","lat":34.601726,"lng":136.144,"zip":"5180505"},{"town":"長瀬","koaza":"","lat":34.594907,"lng":136.17114,"zip":"5180501"},{"town":"中知山","koaza":"","lat":34.580794,"lng":136.120411,"zip":"5180442"},{"town":"中町","koaza":"","lat":34.621189,"lng":136.089074,"zip":"5180717"},{"town":"夏秋","koaza":"","lat":34.641511,"lng":136.09433,"zip":"5180731"},{"town":"夏見","koaza":"","lat":34.615276,"lng":136.104327,"zip":"5180441"},{"town":"西田原","koaza":"","lat":34.661944,"lng":136.106195,"zip":"5180609"},{"town":"西原町","koaza":"","lat":34.653332,"lng":136.115563,"zip":"5180603"},{"town":"東田原","koaza":"","lat":34.666797,"lng":136.115519,"zip":"5180602"},{"town":"東町","koaza":"","lat":34.629439,"lng":136.095158,"zip":"5180711"},{"town":"平尾","koaza":"","lat":34.620612,"lng":136.095534,"zip":"5180713"},{"town":"富貴ケ丘一番町","koaza":"","lat":34.629085,"lng":136.122114,"zip":"5180400"},{"town":"富貴ケ丘二番町","koaza":"","lat":34.627133,"lng":136.122236,"zip":"5180400"},{"town":"富貴ケ丘三番町","koaza":"","lat":34.625624,"lng":136.123151,"zip":"5180400"},{"town":"富貴ケ丘四番町","koaza":"","lat":34.623361,"lng":136.119968,"zip":"5180400"},{"town":"富貴ケ丘五番町","koaza":"","lat":34.620636,"lng":136.118352,"zip":"5180400"},{"town":"富貴ケ丘六番町","koaza":"","lat":34.620164,"lng":136.121974,"zip":"5180400"},{"town":"布生","koaza":"","lat":34.568875,"lng":136.154322,"zip":"5180503"},{"town":"豊後町","koaza":"","lat":34.620627,"lng":136.085363,"zip":"5180728"},{"town":"本町","koaza":"","lat":34.619247,"lng":136.088047,"zip":"5180726"},{"town":"松崎町","koaza":"","lat":34.624054,"lng":136.089524,"zip":"5180722"},{"town":"松原町","koaza":"","lat":34.634974,"lng":136.097615,"zip":"5180732"},{"town":"丸之内","koaza":"","lat":34.621405,"lng":136.091708,"zip":"5180718"},{"town":"短野","koaza":"","lat":34.632034,"lng":136.078195,"zip":"5180738"},{"town":"緑が丘中","koaza":"","lat":34.641807,"lng":136.10218,"zip":"5180755"},{"town":"緑が丘西","koaza":"","lat":34.641756,"lng":136.100206,"zip":"5180754"},{"town":"緑が丘東","koaza":"","lat":34.642305,"lng":136.104577,"zip":"5180756"},{"town":"南古山","koaza":"","lat":34.681655,"lng":136.123757,"zip":"5180601"},{"town":"南町","koaza":"","lat":34.621864,"lng":136.082135,"zip":"5180729"},{"town":"南百合が丘","koaza":"","lat":34.601327,"lng":136.096532,"zip":"5180446"},{"town":"箕曲中村","koaza":"","lat":34.609882,"lng":136.087215,"zip":"5180444"},{"town":"美旗町池の台西","koaza":"","lat":34.65215,"lng":136.132515,"zip":"5180614"},{"town":"美旗町池の台東","koaza":"","lat":34.649716,"lng":136.134932,"zip":"5180614"},{"town":"美旗町中一番","koaza":"","lat":34.661864,"lng":136.134078,"zip":"5180400"},{"town":"美旗町中二番","koaza":"","lat":34.663639,"lng":136.131171,"zip":"5180400"},{"town":"美旗町中三番","koaza":"","lat":34.662308,"lng":136.129103,"zip":"5180400"},{"town":"美旗町藤が丘","koaza":"","lat":34.667951,"lng":136.122914,"zip":"5180610"},{"town":"美旗町南西原","koaza":"","lat":34.656979,"lng":136.123738,"zip":"5180616"},{"town":"美旗中村","koaza":"","lat":34.654666,"lng":136.130377,"zip":"5180615"},{"town":"元町","koaza":"","lat":34.620877,"lng":136.087284,"zip":"5180725"},{"town":"矢川","koaza":"","lat":34.593494,"lng":136.06602,"zip":"5180763"},{"town":"柳原町","koaza":"","lat":34.619291,"lng":136.090493,"zip":"5180715"},{"town":"八幡","koaza":"","lat":34.649078,"lng":136.093364,"zip":"5180605"},{"town":"百合が丘西一番町","koaza":"","lat":34.609844,"lng":136.100297,"zip":"5180400"},{"town":"百合が丘西二番町","koaza":"","lat":34.607019,"lng":136.09754,"zip":"5180400"},{"town":"百合が丘西三番町","koaza":"","lat":34.605036,"lng":136.099607,"zip":"5180400"},{"town":"百合が丘西四番町","koaza":"","lat":34.605308,"lng":136.096655,"zip":"5180400"},{"town":"百合が丘西五番町","koaza":"","lat":34.606064,"lng":136.093852,"zip":"5180400"},{"town":"百合が丘西六番町","koaza":"","lat":34.603547,"lng":136.100506,"zip":"5180400"},{"town":"百合が丘東一番町","koaza":"","lat":34.609725,"lng":136.103985,"zip":"5180400"},{"town":"百合が丘東二番町","koaza":"","lat":34.607037,"lng":136.101663,"zip":"5180400"},{"town":"百合が丘東三番町","koaza":"","lat":34.605093,"lng":136.102964,"zip":"5180400"},{"town":"百合が丘東四番町","koaza":"","lat":34.608028,"lng":136.104194,"zip":"5180400"},{"town":"百合が丘東五番町","koaza":"","lat":34.606489,"lng":136.105607,"zip":"5180400"},{"town":"百合が丘東六番町","koaza":"","lat":34.608774,"lng":136.10751,"zip":"5180400"},{"town":"百合が丘東七番町","koaza":"","lat":34.605278,"lng":136.111248,"zip":"5180400"},{"town":"百合が丘東八番町","koaza":"","lat":34.604278,"lng":136.108609,"zip":"5180400"},{"town":"百合が丘東九番町","koaza":"","lat":34.603208,"lng":136.107185,"zip":"5180400"},{"town":"竜口","koaza":"","lat":34.571214,"lng":136.066444,"zip":"5180761"},{"town":"桔梗が丘南三番町","koaza":"","lat":34.635321,"lng":136.123773,"zip":"5180400"},{"town":"桔梗が丘南四番町","koaza":"","lat":34.634249,"lng":136.125689,"zip":"5180400"},{"town":"夏見","koaza":"下川原","lat":34.615997,"lng":136.097414,"zip":"5180441"},{"town":"夏見","koaza":"浅尾","lat":34.617189,"lng":136.100855,"zip":"5180441"},{"town":"夏見","koaza":"下出","lat":34.618263,"lng":136.102636,"zip":"5180441"},{"town":"西田原","koaza":"水越","lat":34.669689,"lng":136.109835,"zip":"5180609"},{"town":"下比奈知","koaza":"黒田","lat":34.629058,"lng":136.125142,"zip":"5180413"},{"town":"上小波田","koaza":"狭間","lat":34.645859,"lng":136.13368,"zip":"5180613"}]