[{"town":"大字穴太","koaza":"","lat":35.081892,"lng":136.603252,"zip":"5110200"},{"town":"大字大木","koaza":"","lat":35.103962,"lng":136.58597,"zip":"5110200"},{"town":"大字北大社","koaza":"","lat":35.075109,"lng":136.577121,"zip":"5110200"},{"town":"大字瀬古泉","koaza":"","lat":35.067206,"lng":136.596293,"zip":"5110200"},{"town":"大字筑紫","koaza":"","lat":35.065784,"lng":136.60751,"zip":"5110200"},{"town":"大字鳥取","koaza":"","lat":35.091658,"lng":136.588129,"zip":"5110200"},{"town":"大字中上","koaza":"","lat":35.057238,"lng":136.597147,"zip":"5110200"},{"town":"大字長深","koaza":"","lat":35.059309,"lng":136.578508,"zip":"5110200"},{"town":"大字八幡新田","koaza":"","lat":35.093465,"lng":136.579313,"zip":"5110200"},{"town":"大字南大社","koaza":"","lat":35.072282,"lng":136.568788,"zip":"5110200"},{"town":"大字山田","koaza":"","lat":35.073624,"lng":136.585917,"zip":"5110200"},{"town":"大字六把野新田","koaza":"","lat":35.082292,"lng":136.59637,"zip":"5110200"},{"town":"笹尾西一丁目","koaza":"","lat":35.096546,"lng":136.592742,"zip":"5110231"},{"town":"笹尾西二丁目","koaza":"","lat":35.100521,"lng":136.59375,"zip":"5110231"},{"town":"笹尾西三丁目","koaza":"","lat":35.103969,"lng":136.59549,"zip":"5110231"},{"town":"笹尾西四丁目","koaza":"","lat":35.105911,"lng":136.599353,"zip":"5110231"},{"town":"笹尾東一丁目","koaza":"","lat":35.09402,"lng":136.59732,"zip":"5110232"},{"town":"笹尾東二丁目","koaza":"","lat":35.097009,"lng":136.598481,"zip":"5110232"},{"town":"笹尾東三丁目","koaza":"","lat":35.100129,"lng":136.599538,"zip":"5110232"},{"town":"笹尾東四丁目","koaza":"","lat":35.102818,"lng":136.600724,"zip":"5110232"},{"town":"城山一丁目","koaza":"","lat":35.091211,"lng":136.603517,"zip":"5110233"},{"town":"城山二丁目","koaza":"","lat":35.097379,"lng":136.603212,"zip":"5110233"},{"town":"城山三丁目","koaza":"","lat":35.095146,"lng":136.605612,"zip":"5110233"},{"town":"大字長深","koaza":"築田","lat":35.061816,"lng":136.579914,"zip":"5110200"},{"town":"大字六把野新田","koaza":"嶋畑","lat":35.080929,"lng":136.590754,"zip":"5110200"},{"town":"大字山田","koaza":"木之倉","lat":35.08851,"lng":136.594817,"zip":"5110200"},{"town":"大字大木","koaza":"下仮宿","lat":35.091035,"lng":136.577021,"zip":"5110200"},{"town":"大字穴太","koaza":"西ノ坪","lat":35.082248,"lng":136.601961,"zip":"5110200"}]