[{"town":"相生町","koaza":"","lat":34.963176,"lng":136.632056,"zip":"5100044"},{"town":"青葉町","koaza":"","lat":34.97067,"lng":136.581493,"zip":"5100839"},{"town":"あがたが丘一丁目","koaza":"","lat":35.022263,"lng":136.570623,"zip":"5121202"},{"town":"あがたが丘二丁目","koaza":"","lat":35.024293,"lng":136.569044,"zip":"5121202"},{"town":"あがたが丘三丁目","koaza":"","lat":35.024863,"lng":136.566012,"zip":"5121202"},{"town":"あかつき台一丁目","koaza":"","lat":35.024245,"lng":136.598979,"zip":"5128046"},{"town":"あかつき台二丁目","koaza":"","lat":35.026783,"lng":136.599898,"zip":"5128046"},{"town":"あかつき台三丁目","koaza":"","lat":35.028594,"lng":136.597945,"zip":"5128046"},{"town":"あかつき台四丁目","koaza":"","lat":35.026573,"lng":136.603967,"zip":"5128046"},{"town":"あかつき台五丁目","koaza":"","lat":35.0282,"lng":136.594794,"zip":"5128046"},{"town":"あかつき台六丁目","koaza":"","lat":35.031694,"lng":136.596816,"zip":"5128046"},{"town":"赤堀一丁目","koaza":"","lat":34.959446,"lng":136.612401,"zip":"5100826"},{"town":"赤堀二丁目","koaza":"","lat":34.960895,"lng":136.609125,"zip":"5100826"},{"town":"赤堀三丁目","koaza":"","lat":34.959294,"lng":136.606565,"zip":"5100826"},{"town":"赤堀新町","koaza":"","lat":34.961841,"lng":136.611857,"zip":"5100825"},{"town":"赤堀南町","koaza":"","lat":34.957159,"lng":136.610582,"zip":"5100827"},{"town":"阿倉川新町","koaza":"","lat":34.993827,"lng":136.620558,"zip":"5100810"},{"town":"阿倉川町","koaza":"","lat":34.985361,"lng":136.627354,"zip":"5100803"},{"town":"曙一丁目","koaza":"","lat":34.955028,"lng":136.624588,"zip":"5100053"},{"town":"曙二丁目","koaza":"","lat":34.953083,"lng":136.622877,"zip":"5100053"},{"town":"曙町","koaza":"","lat":34.9522,"lng":136.626244,"zip":"5100054"},{"town":"赤水町","koaza":"","lat":35.012161,"lng":136.556433,"zip":"5121204"},{"town":"あさけが丘一丁目","koaza":"","lat":35.035271,"lng":136.580954,"zip":"5128055"},{"town":"あさけが丘二丁目","koaza":"","lat":35.035163,"lng":136.57778,"zip":"5128055"},{"town":"あさけが丘三丁目","koaza":"","lat":35.033027,"lng":136.576526,"zip":"5128055"},{"town":"朝明町","koaza":"","lat":35.0395,"lng":136.586987,"zip":"5128054"},{"town":"朝日町","koaza":"","lat":34.961308,"lng":136.627649,"zip":"5100061"},{"town":"雨池町","koaza":"","lat":34.946702,"lng":136.619168,"zip":"5100000"},{"town":"天カ須賀一丁目","koaza":"","lat":35.008993,"lng":136.667472,"zip":"5108001"},{"town":"天カ須賀二丁目","koaza":"","lat":35.010831,"lng":136.669131,"zip":"5108001"},{"town":"天カ須賀三丁目","koaza":"","lat":35.012719,"lng":136.672038,"zip":"5108001"},{"town":"天カ須賀四丁目","koaza":"","lat":35.015223,"lng":136.669823,"zip":"5108001"},{"town":"天カ須賀五丁目","koaza":"","lat":35.013112,"lng":136.665453,"zip":"5108001"},{"town":"天カ須賀新町","koaza":"","lat":35.006135,"lng":136.670159,"zip":"5108002"},{"town":"伊倉一丁目","koaza":"","lat":34.97214,"lng":136.604709,"zip":"5100832"},{"town":"伊倉二丁目","koaza":"","lat":34.973063,"lng":136.601268,"zip":"5100832"},{"town":"伊倉三丁目","koaza":"","lat":34.974094,"lng":136.597368,"zip":"5100832"},{"town":"生桑町","koaza":"","lat":34.983888,"lng":136.600019,"zip":"5120911"},{"town":"伊坂台一丁目","koaza":"","lat":35.042127,"lng":136.628816,"zip":"5128066"},{"town":"伊坂台二丁目","koaza":"","lat":35.041528,"lng":136.626285,"zip":"5128066"},{"town":"伊坂台三丁目","koaza":"","lat":35.044992,"lng":136.62458,"zip":"5128066"},{"town":"伊坂町","koaza":"","lat":35.039218,"lng":136.62396,"zip":"5128064"},{"town":"石塚町","koaza":"","lat":34.961058,"lng":136.60322,"zip":"5100828"},{"town":"石原町","koaza":"","lat":34.939623,"lng":136.646383,"zip":"5100842"},{"town":"市場町","koaza":"","lat":35.058525,"lng":136.561189,"zip":"5121302"},{"town":"稲葉町","koaza":"","lat":34.963745,"lng":136.637957,"zip":"5100041"},{"town":"浮橋一丁目","koaza":"","lat":34.969659,"lng":136.576891,"zip":"5120931"},{"town":"浮橋二丁目","koaza":"","lat":34.969054,"lng":136.574665,"zip":"5120931"},{"town":"内山町","koaza":"","lat":34.963576,"lng":136.539577,"zip":"5121101"},{"town":"内堀町","koaza":"","lat":34.922702,"lng":136.609517,"zip":"5100872"},{"town":"釆女が丘一丁目","koaza":"","lat":34.918269,"lng":136.583718,"zip":"5100953"},{"town":"釆女が丘二丁目","koaza":"","lat":34.915217,"lng":136.583721,"zip":"5100953"},{"town":"釆女が丘三丁目","koaza":"","lat":34.915907,"lng":136.580448,"zip":"5100953"},{"town":"釆女が丘四丁目","koaza":"","lat":34.91329,"lng":136.57939,"zip":"5100953"},{"town":"釆女が丘五丁目","koaza":"","lat":34.912492,"lng":136.582054,"zip":"5100953"},{"town":"釆女町","koaza":"","lat":34.922336,"lng":136.576323,"zip":"5100954"},{"town":"鵜の森一丁目","koaza":"","lat":34.965324,"lng":136.615538,"zip":"5100074"},{"town":"鵜の森二丁目","koaza":"","lat":34.967157,"lng":136.611569,"zip":"5100074"},{"town":"午起一丁目","koaza":"","lat":34.970359,"lng":136.637868,"zip":"5100023"},{"town":"午起二丁目","koaza":"","lat":34.973735,"lng":136.639503,"zip":"5100023"},{"town":"午起三丁目","koaza":"","lat":34.974116,"lng":136.642048,"zip":"5100023"},{"town":"江村町","koaza":"","lat":35.008886,"lng":136.545908,"zip":"5121206"},{"town":"追分一丁目","koaza":"","lat":34.936082,"lng":136.599269,"zip":"5100882"},{"town":"追分二丁目","koaza":"","lat":34.935716,"lng":136.597194,"zip":"5100882"},{"town":"追分三丁目","koaza":"","lat":34.934767,"lng":136.597829,"zip":"5100882"},{"town":"桜花台一丁目","koaza":"","lat":34.988256,"lng":136.528923,"zip":"5121216"},{"town":"桜花台二丁目","koaza":"","lat":34.9881,"lng":136.525064,"zip":"5121216"},{"town":"大字塩浜","koaza":"","lat":34.929366,"lng":136.61742,"zip":"5100000"},{"town":"大字末永","koaza":"","lat":34.983714,"lng":136.611627,"zip":"5100000"},{"town":"大字泊村","koaza":"","lat":34.940582,"lng":136.587242,"zip":"5100000"},{"town":"大字西阿倉川","koaza":"","lat":34.989249,"lng":136.617521,"zip":"5100000"},{"town":"大字馳出","koaza":"","lat":34.94676,"lng":136.61691,"zip":"5100000"},{"town":"大字羽津","koaza":"","lat":35.004201,"lng":136.63093,"zip":"5100000"},{"town":"大字東阿倉川","koaza":"","lat":34.986485,"lng":136.623177,"zip":"5100000"},{"town":"大字日永","koaza":"","lat":34.945863,"lng":136.590028,"zip":"5100000"},{"town":"大字松本","koaza":"","lat":34.965109,"lng":136.58203,"zip":"5100000"},{"town":"大字茂福","koaza":"","lat":35.007733,"lng":136.639534,"zip":"5100000"},{"town":"大字六呂見","koaza":"","lat":34.938891,"lng":136.610669,"zip":"5100000"},{"town":"大池町","koaza":"","lat":34.9353,"lng":136.61717,"zip":"5100866"},{"town":"大井手一丁目","koaza":"","lat":34.970999,"lng":136.593119,"zip":"5100835"},{"town":"大井手二丁目","koaza":"","lat":34.973582,"lng":136.593861,"zip":"5100835"},{"town":"大井手三丁目","koaza":"","lat":34.972835,"lng":136.589479,"zip":"5100835"},{"town":"大井の川町一丁目","koaza":"","lat":34.949335,"lng":136.624199,"zip":"5100846"},{"town":"大井の川町二丁目","koaza":"","lat":34.947454,"lng":136.623589,"zip":"5100846"},{"town":"大井の川町三丁目","koaza":"","lat":34.945941,"lng":136.623695,"zip":"5100846"},{"town":"大鐘町","koaza":"","lat":35.038002,"lng":136.606464,"zip":"5128053"},{"town":"大谷台一丁目","koaza":"","lat":34.999678,"lng":136.614669,"zip":"5120901"},{"town":"大谷台二丁目","koaza":"","lat":35.000367,"lng":136.612216,"zip":"5120901"},{"town":"大浜町","koaza":"","lat":34.947028,"lng":136.626672,"zip":"5100847"},{"town":"大宮町","koaza":"","lat":34.990979,"lng":136.630545,"zip":"5100003"},{"town":"大宮西町","koaza":"","lat":34.992669,"lng":136.628266,"zip":"5100004"},{"town":"大矢知新町","koaza":"","lat":35.023116,"lng":136.627973,"zip":"5108039"},{"town":"大矢知町","koaza":"","lat":35.017252,"lng":136.631216,"zip":"5108034"},{"town":"沖の島町","koaza":"","lat":34.965946,"lng":136.627432,"zip":"5100083"},{"town":"小古曽一丁目","koaza":"","lat":34.932417,"lng":136.594456,"zip":"5100958"},{"town":"小古曽二丁目","koaza":"","lat":34.929647,"lng":136.591333,"zip":"5100958"},{"town":"小古曽三丁目","koaza":"","lat":34.92586,"lng":136.588108,"zip":"5100958"},{"town":"小古曽四丁目","koaza":"","lat":34.93398,"lng":136.590767,"zip":"5100958"},{"town":"小古曽五丁目","koaza":"","lat":34.932078,"lng":136.588276,"zip":"5100958"},{"town":"小古曽六丁目","koaza":"","lat":34.928345,"lng":136.586822,"zip":"5100958"},{"town":"小古曽町","koaza":"","lat":34.918739,"lng":136.590545,"zip":"5100952"},{"town":"小古曽東一丁目","koaza":"","lat":34.930691,"lng":136.596634,"zip":"5100951"},{"town":"小古曽東二丁目","koaza":"","lat":34.92429,"lng":136.59425,"zip":"5100951"},{"town":"小古曽東三丁目","koaza":"","lat":34.924007,"lng":136.587984,"zip":"5100951"},{"town":"尾上町","koaza":"","lat":34.960205,"lng":136.633996,"zip":"5100059"},{"town":"大治田一丁目","koaza":"","lat":34.932603,"lng":136.601319,"zip":"5100875"},{"town":"大治田二丁目","koaza":"","lat":34.930507,"lng":136.600933,"zip":"5100875"},{"town":"大治田三丁目","koaza":"","lat":34.924047,"lng":136.599866,"zip":"5100875"},{"town":"尾平町","koaza":"","lat":34.978475,"lng":136.588807,"zip":"5120921"},{"town":"小山町","koaza":"","lat":34.966058,"lng":136.525597,"zip":"5121102"},{"town":"貝家町","koaza":"","lat":34.930248,"lng":136.56649,"zip":"5100956"},{"town":"貝塚町","koaza":"","lat":34.916191,"lng":136.612988,"zip":"5100873"},{"town":"霞一丁目","koaza":"","lat":34.982938,"lng":136.661619,"zip":"5100011"},{"town":"霞二丁目","koaza":"","lat":34.992468,"lng":136.658972,"zip":"5100011"},{"town":"金場町","koaza":"","lat":34.98457,"lng":136.634404,"zip":"5100014"},{"town":"上海老町","koaza":"","lat":35.025615,"lng":136.559364,"zip":"5121201"},{"town":"萱生町","koaza":"","lat":35.022288,"lng":136.603507,"zip":"5128045"},{"town":"川合町","koaza":"","lat":34.927907,"lng":136.625735,"zip":"5100853"},{"town":"川北一丁目","koaza":"","lat":35.020503,"lng":136.64743,"zip":"5108032"},{"town":"川北二丁目","koaza":"","lat":35.023567,"lng":136.648753,"zip":"5108032"},{"town":"川北三丁目","koaza":"","lat":35.024222,"lng":136.644271,"zip":"5108032"},{"town":"川北町","koaza":"","lat":35.026895,"lng":136.650054,"zip":"5108032"},{"town":"川島新町","koaza":"","lat":34.976266,"lng":136.559457,"zip":"5120935"},{"town":"川島町","koaza":"","lat":34.968713,"lng":136.549944,"zip":"5120934"},{"town":"川尻町","koaza":"","lat":34.928929,"lng":136.608099,"zip":"5100871"},{"town":"河原田町","koaza":"","lat":34.914242,"lng":136.598174,"zip":"5100874"},{"town":"川原町","koaza":"","lat":34.974515,"lng":136.628446,"zip":"5100033"},{"town":"北小松町","koaza":"","lat":34.928639,"lng":136.553744,"zip":"5100955"},{"town":"北条町","koaza":"","lat":34.970429,"lng":136.63185,"zip":"5100098"},{"town":"北納屋町","koaza":"","lat":34.966162,"lng":136.637415,"zip":"5100047"},{"town":"北野町","koaza":"","lat":35.014836,"lng":136.543726,"zip":"5121208"},{"town":"北浜田町","koaza":"","lat":34.961531,"lng":136.623006,"zip":"5100062"},{"town":"北浜町","koaza":"","lat":34.969033,"lng":136.63343,"zip":"5100091"},{"town":"北町","koaza":"","lat":34.97149,"lng":136.626834,"zip":"5100081"},{"town":"北山町","koaza":"","lat":35.042877,"lng":136.589153,"zip":"5128051"},{"town":"京町","koaza":"","lat":34.976382,"lng":136.630548,"zip":"5100032"},{"town":"楠町小倉","koaza":"","lat":34.923532,"lng":136.629054,"zip":"5100101"},{"town":"楠町北一色","koaza":"","lat":34.917711,"lng":136.619778,"zip":"5100107"},{"town":"楠町北五味塚","koaza":"","lat":34.913867,"lng":136.632289,"zip":"5100103"},{"town":"楠町本郷","koaza":"","lat":34.911446,"lng":136.616952,"zip":"5100106"},{"town":"楠町南川","koaza":"","lat":34.905725,"lng":136.619979,"zip":"5100105"},{"town":"楠町南五味塚","koaza":"","lat":34.906405,"lng":136.637954,"zip":"5100104"},{"town":"楠町吉崎","koaza":"","lat":34.915993,"lng":136.642462,"zip":"5100102"},{"town":"九の城町","koaza":"","lat":34.96382,"lng":136.614473,"zip":"5100072"},{"town":"久保田一丁目","koaza":"","lat":34.973391,"lng":136.608248,"zip":"5100821"},{"town":"久保田二丁目","koaza":"","lat":34.974873,"lng":136.609967,"zip":"5100821"},{"town":"蔵町","koaza":"","lat":34.965371,"lng":136.63306,"zip":"5100045"},{"town":"黒田町","koaza":"","lat":35.012701,"lng":136.538347,"zip":"5121207"},{"town":"黄金町","koaza":"","lat":35.027284,"lng":136.637441,"zip":"5128062"},{"town":"小杉新町","koaza":"","lat":34.998992,"lng":136.608182,"zip":"5120903"},{"town":"小杉町","koaza":"","lat":34.99104,"lng":136.607757,"zip":"5120902"},{"town":"寿町","koaza":"","lat":34.951669,"lng":136.622173,"zip":"5100055"},{"town":"小浜町","koaza":"","lat":34.933475,"lng":136.616896,"zip":"5100865"},{"town":"小林町","koaza":"","lat":34.957184,"lng":136.540563,"zip":"5100946"},{"town":"小牧町","koaza":"","lat":35.044574,"lng":136.572093,"zip":"5121303"},{"town":"小生町","koaza":"","lat":34.975133,"lng":136.577287,"zip":"5120932"},{"town":"幸町","koaza":"","lat":34.962196,"lng":136.625387,"zip":"5100069"},{"town":"栄町","koaza":"","lat":34.964228,"lng":136.627017,"zip":"5100084"},{"town":"坂部が丘一丁目","koaza":"","lat":35.001427,"lng":136.599053,"zip":"5120905"},{"town":"坂部が丘二丁目","koaza":"","lat":35.00433,"lng":136.598581,"zip":"5120905"},{"town":"坂部が丘三丁目","koaza":"","lat":35.002897,"lng":136.597734,"zip":"5120905"},{"town":"坂部が丘四丁目","koaza":"","lat":35.001672,"lng":136.596213,"zip":"5120905"},{"town":"坂部が丘五丁目","koaza":"","lat":35.003408,"lng":136.594675,"zip":"5120905"},{"town":"坂部台一丁目","koaza":"","lat":35.004715,"lng":136.607031,"zip":"5120908"},{"town":"坂部台二丁目","koaza":"","lat":35.004416,"lng":136.604409,"zip":"5120908"},{"town":"桜新町一丁目","koaza":"","lat":34.98346,"lng":136.522452,"zip":"5121215"},{"town":"桜新町二丁目","koaza":"","lat":34.982151,"lng":136.523491,"zip":"5121215"},{"town":"桜台一丁目","koaza":"","lat":34.987421,"lng":136.534496,"zip":"5121214"},{"town":"桜台二丁目","koaza":"","lat":34.981765,"lng":136.531117,"zip":"5121214"},{"town":"桜台三丁目","koaza":"","lat":34.98081,"lng":136.534659,"zip":"5121214"},{"town":"桜台本町","koaza":"","lat":34.988753,"lng":136.538244,"zip":"5121213"},{"town":"桜町","koaza":"","lat":34.98796,"lng":136.50624,"zip":"5121211"},{"town":"笹川一丁目","koaza":"","lat":34.949681,"lng":136.580864,"zip":"5100944"},{"town":"笹川二丁目","koaza":"","lat":34.951163,"lng":136.576288,"zip":"5100944"},{"town":"笹川三丁目","koaza":"","lat":34.95093,"lng":136.572198,"zip":"5100944"},{"town":"笹川四丁目","koaza":"","lat":34.946796,"lng":136.568664,"zip":"5100944"},{"town":"笹川五丁目","koaza":"","lat":34.947071,"lng":136.572341,"zip":"5100944"},{"town":"笹川六丁目","koaza":"","lat":34.946846,"lng":136.575596,"zip":"5100944"},{"town":"笹川七丁目","koaza":"","lat":34.946241,"lng":136.578757,"zip":"5100944"},{"town":"笹川八丁目","koaza":"","lat":34.942002,"lng":136.575787,"zip":"5100944"},{"town":"笹川九丁目","koaza":"","lat":34.942084,"lng":136.571508,"zip":"5100944"},{"town":"札場町","koaza":"","lat":35.037121,"lng":136.573298,"zip":"5128056"},{"town":"三郎町","koaza":"","lat":34.974751,"lng":136.646747,"zip":"5100021"},{"town":"三栄町","koaza":"","lat":34.963636,"lng":136.623588,"zip":"5100068"},{"town":"塩浜町","koaza":"","lat":34.936542,"lng":136.634859,"zip":"5100851"},{"town":"塩浜本町一丁目","koaza":"","lat":34.931037,"lng":136.624183,"zip":"5100854"},{"town":"塩浜本町二丁目","koaza":"","lat":34.930956,"lng":136.621425,"zip":"5100854"},{"town":"塩浜本町三丁目","koaza":"","lat":34.929276,"lng":136.623199,"zip":"5100854"},{"town":"鹿間町","koaza":"","lat":34.93033,"lng":136.533362,"zip":"5121113"},{"town":"芝田一丁目","koaza":"","lat":34.96909,"lng":136.607809,"zip":"5100822"},{"town":"芝田二丁目","koaza":"","lat":34.971313,"lng":136.608197,"zip":"5100822"},{"town":"清水町","koaza":"","lat":34.981265,"lng":136.614911,"zip":"5100814"},{"town":"下海老町","koaza":"","lat":35.016077,"lng":136.574677,"zip":"5121203"},{"town":"下さざらい町","koaza":"","lat":35.019763,"lng":136.642652,"zip":"5108033"},{"town":"下之宮町","koaza":"","lat":35.015406,"lng":136.641342,"zip":"5108028"},{"town":"十七軒町","koaza":"","lat":34.959013,"lng":136.623616,"zip":"5100063"},{"town":"十志町","koaza":"","lat":35.01155,"lng":136.644763,"zip":"5108026"},{"town":"昌栄町","koaza":"","lat":34.958103,"lng":136.628292,"zip":"5100057"},{"town":"松泉町","koaza":"","lat":34.937946,"lng":136.617542,"zip":"5100867"},{"town":"白須賀一丁目","koaza":"","lat":34.989988,"lng":136.643178,"zip":"5100018"},{"town":"白須賀二丁目","koaza":"","lat":34.992234,"lng":136.645169,"zip":"5100018"},{"town":"白須賀三丁目","koaza":"","lat":34.994788,"lng":136.646722,"zip":"5100018"},{"town":"城北町","koaza":"","lat":34.965311,"lng":136.61054,"zip":"5100823"},{"town":"城西町","koaza":"","lat":34.964846,"lng":136.603564,"zip":"5100829"},{"town":"城東町","koaza":"","lat":34.963451,"lng":136.609269,"zip":"5100824"},{"town":"城山町","koaza":"","lat":34.986202,"lng":136.63229,"zip":"5100015"},{"town":"新正一丁目","koaza":"","lat":34.959005,"lng":136.616075,"zip":"5100064"},{"town":"新正二丁目","koaza":"","lat":34.958061,"lng":136.619433,"zip":"5100064"},{"town":"新正三丁目","koaza":"","lat":34.955854,"lng":136.622466,"zip":"5100064"},{"town":"新正四丁目","koaza":"","lat":34.955107,"lng":136.616375,"zip":"5100064"},{"town":"新正五丁目","koaza":"","lat":34.956414,"lng":136.613911,"zip":"5100064"},{"town":"新々町","koaza":"","lat":34.96671,"lng":136.629766,"zip":"5100094"},{"town":"新町","koaza":"","lat":34.966273,"lng":136.631012,"zip":"5100092"},{"town":"新浜町","koaza":"","lat":34.972303,"lng":136.634154,"zip":"5100024"},{"town":"水沢町","koaza":"","lat":34.976724,"lng":136.48754,"zip":"5121105"},{"town":"水沢野田町","koaza":"","lat":34.960491,"lng":136.482782,"zip":"5120301"},{"town":"末広町","koaza":"","lat":34.953764,"lng":136.630737,"zip":"5100052"},{"town":"菅原町","koaza":"","lat":34.9946,"lng":136.555705,"zip":"5120925"},{"town":"住吉町","koaza":"","lat":35.009726,"lng":136.664645,"zip":"5108003"},{"town":"諏訪栄町","koaza":"","lat":34.967147,"lng":136.620986,"zip":"5100086"},{"town":"諏訪町","koaza":"","lat":34.965813,"lng":136.624235,"zip":"5100085"},{"town":"曽井町","koaza":"","lat":34.986929,"lng":136.575427,"zip":"5120922"},{"town":"大協町一丁目","koaza":"","lat":34.962192,"lng":136.643247,"zip":"5100022"},{"town":"大協町二丁目","koaza":"","lat":34.968134,"lng":136.642872,"zip":"5100022"},{"town":"平町","koaza":"","lat":35.013619,"lng":136.656734,"zip":"5108017"},{"town":"高旭町","koaza":"","lat":34.935881,"lng":136.625632,"zip":"5100857"},{"town":"高砂町","koaza":"","lat":34.961751,"lng":136.63654,"zip":"5100042"},{"town":"高角町","koaza":"","lat":34.98535,"lng":136.558569,"zip":"5120923"},{"town":"高花平一丁目","koaza":"","lat":34.956546,"lng":136.552136,"zip":"5100945"},{"town":"高花平二丁目","koaza":"","lat":34.954028,"lng":136.553084,"zip":"5100945"},{"town":"高花平三丁目","koaza":"","lat":34.954,"lng":136.550067,"zip":"5100945"},{"town":"高花平四丁目","koaza":"","lat":34.951516,"lng":136.551123,"zip":"5100945"},{"town":"高花平五丁目","koaza":"","lat":34.951716,"lng":136.553986,"zip":"5100945"},{"town":"高浜新町","koaza":"","lat":34.976827,"lng":136.641005,"zip":"5100027"},{"town":"高浜町","koaza":"","lat":34.977706,"lng":136.637276,"zip":"5100026"},{"town":"高見台一丁目","koaza":"","lat":35.060818,"lng":136.562542,"zip":"5121301"},{"town":"高見台二丁目","koaza":"","lat":35.062928,"lng":136.56058,"zip":"5121301"},{"town":"宝町","koaza":"","lat":34.937298,"lng":136.620176,"zip":"5100844"},{"town":"垂坂新町","koaza":"","lat":35.002824,"lng":136.609426,"zip":"5108038"},{"town":"垂坂町","koaza":"","lat":35.008097,"lng":136.614816,"zip":"5108037"},{"town":"智積町","koaza":"","lat":34.987647,"lng":136.546924,"zip":"5121212"},{"town":"千歳町","koaza":"","lat":34.954598,"lng":136.635694,"zip":"5100051"},{"town":"中部","koaza":"","lat":34.968674,"lng":136.62557,"zip":"5100082"},{"town":"千代田町","koaza":"","lat":35.031613,"lng":136.620504,"zip":"5128065"},{"town":"寺方町","koaza":"","lat":34.993087,"lng":136.564505,"zip":"5120924"},{"town":"堂ケ山町","koaza":"","lat":34.951636,"lng":136.508563,"zip":"5121115"},{"town":"東新町","koaza":"","lat":34.974783,"lng":136.635148,"zip":"5100025"},{"town":"東邦町","koaza":"","lat":34.944493,"lng":136.630591,"zip":"5100848"},{"town":"ときわ一丁目","koaza":"","lat":34.966984,"lng":136.598381,"zip":"5100834"},{"town":"ときわ二丁目","koaza":"","lat":34.968299,"lng":136.595575,"zip":"5100834"},{"town":"ときわ三丁目","koaza":"","lat":34.964174,"lng":136.593612,"zip":"5100834"},{"town":"ときわ四丁目","koaza":"","lat":34.963293,"lng":136.596339,"zip":"5100834"},{"town":"ときわ五丁目","koaza":"","lat":34.962213,"lng":136.599473,"zip":"5100834"},{"town":"泊小柳町","koaza":"","lat":34.937527,"lng":136.602934,"zip":"5100883"},{"town":"泊町","koaza":"","lat":34.939336,"lng":136.599258,"zip":"5100884"},{"town":"泊山崎町","koaza":"","lat":34.940877,"lng":136.595954,"zip":"5100892"},{"town":"富州原町","koaza":"","lat":35.009382,"lng":136.658793,"zip":"5108016"},{"town":"富田一丁目","koaza":"","lat":35.004636,"lng":136.650954,"zip":"5108014"},{"town":"富田二丁目","koaza":"","lat":35.005321,"lng":136.655354,"zip":"5108014"},{"town":"富田三丁目","koaza":"","lat":35.008079,"lng":136.652029,"zip":"5108014"},{"town":"富田四丁目","koaza":"","lat":35.008629,"lng":136.648856,"zip":"5108014"},{"town":"富田一色町","koaza":"","lat":35.006568,"lng":136.662842,"zip":"5108004"},{"town":"富田栄町","koaza":"","lat":35.010022,"lng":136.646737,"zip":"5108025"},{"town":"富田浜町","koaza":"","lat":34.996462,"lng":136.651504,"zip":"5108008"},{"town":"富田浜元町","koaza":"","lat":35.000146,"lng":136.653622,"zip":"5108007"},{"town":"中川原一丁目","koaza":"","lat":34.967124,"lng":136.6047,"zip":"5100833"},{"town":"中川原二丁目","koaza":"","lat":34.969754,"lng":136.603493,"zip":"5100833"},{"town":"中川原三丁目","koaza":"","lat":34.9702,"lng":136.600791,"zip":"5100833"},{"town":"中川原四丁目","koaza":"","lat":34.971084,"lng":136.597519,"zip":"5100833"},{"town":"中里町","koaza":"","lat":34.931053,"lng":136.617037,"zip":"5100864"},{"town":"中納屋町","koaza":"","lat":34.964253,"lng":136.634915,"zip":"5100048"},{"town":"中野町","koaza":"","lat":35.043992,"lng":136.560243,"zip":"5121304"},{"town":"中浜田町","koaza":"","lat":34.961928,"lng":136.61886,"zip":"5100065"},{"town":"中町","koaza":"","lat":34.969153,"lng":136.629331,"zip":"5100096"},{"town":"中村町","koaza":"","lat":35.026525,"lng":136.610062,"zip":"5128044"},{"town":"七つ屋町","koaza":"","lat":34.937678,"lng":136.625533,"zip":"5100856"},{"town":"西伊倉町","koaza":"","lat":34.975109,"lng":136.60095,"zip":"5100831"},{"town":"西浦一丁目","koaza":"","lat":34.969917,"lng":136.617213,"zip":"5100071"},{"town":"西浦二丁目","koaza":"","lat":34.972988,"lng":136.618679,"zip":"5100071"},{"town":"西大鐘町","koaza":"","lat":35.043313,"lng":136.602125,"zip":"5128052"},{"town":"西坂部町","koaza":"","lat":35.004115,"lng":136.585335,"zip":"5120913"},{"town":"西新地","koaza":"","lat":34.969737,"lng":136.621613,"zip":"5100087"},{"town":"西末広町","koaza":"","lat":34.960003,"lng":136.630734,"zip":"5100058"},{"town":"西富田二丁目","koaza":"","lat":35.014132,"lng":136.652037,"zip":"5108023"},{"town":"西富田三丁目","koaza":"","lat":35.017164,"lng":136.646262,"zip":"5108023"},{"town":"西富田町","koaza":"","lat":35.0136,"lng":136.646724,"zip":"5108024"},{"town":"西浜田町","koaza":"","lat":34.962661,"lng":136.613816,"zip":"5100073"},{"town":"西日野町","koaza":"","lat":34.953326,"lng":136.587007,"zip":"5100943"},{"town":"西町","koaza":"","lat":34.972235,"lng":136.622504,"zip":"5100089"},{"town":"西松本町","koaza":"","lat":34.9695,"lng":136.58453,"zip":"5100837"},{"town":"西村町","koaza":"","lat":35.054045,"lng":136.554585,"zip":"5121305"},{"town":"西山町","koaza":"","lat":34.962854,"lng":136.518435,"zip":"5121103"},{"town":"野田一丁目","koaza":"","lat":34.979201,"lng":136.61275,"zip":"5100815"},{"town":"野田二丁目","koaza":"","lat":34.980756,"lng":136.607539,"zip":"5100815"},{"town":"波木が丘町","koaza":"","lat":34.94175,"lng":136.56761,"zip":"5100962"},{"town":"波木町","koaza":"","lat":34.942744,"lng":136.558679,"zip":"5100961"},{"town":"波木南台一丁目","koaza":"","lat":34.932909,"lng":136.573824,"zip":"5100963"},{"town":"波木南台二丁目","koaza":"","lat":34.934445,"lng":136.572081,"zip":"5100963"},{"town":"波木南台三丁目","koaza":"","lat":34.936082,"lng":136.571269,"zip":"5100963"},{"town":"波木南台四丁目","koaza":"","lat":34.935741,"lng":136.574327,"zip":"5100963"},{"town":"馳出町一丁目","koaza":"","lat":34.938018,"lng":136.623284,"zip":"5100855"},{"town":"馳出町二丁目","koaza":"","lat":34.93584,"lng":136.62358,"zip":"5100855"},{"town":"馳出町三丁目","koaza":"","lat":34.934409,"lng":136.62406,"zip":"5100855"},{"town":"八王子町","koaza":"","lat":34.954455,"lng":136.564019,"zip":"5100947"},{"town":"八幡町","koaza":"","lat":34.971257,"lng":136.629892,"zip":"5100097"},{"town":"八田一丁目","koaza":"","lat":34.992051,"lng":136.63941,"zip":"5100001"},{"town":"八田二丁目","koaza":"","lat":34.994027,"lng":136.640847,"zip":"5100001"},{"town":"八田三丁目","koaza":"","lat":34.996844,"lng":136.642807,"zip":"5100001"},{"town":"羽津町","koaza":"","lat":34.989095,"lng":136.636045,"zip":"5100017"},{"town":"羽津中一丁目","koaza":"","lat":34.992092,"lng":136.634281,"zip":"5100002"},{"town":"羽津中二丁目","koaza":"","lat":34.994139,"lng":136.635287,"zip":"5100002"},{"town":"羽津中三丁目","koaza":"","lat":34.995918,"lng":136.636924,"zip":"5100002"},{"town":"羽津山町","koaza":"","lat":34.988656,"lng":136.627874,"zip":"5100016"},{"town":"浜旭町","koaza":"","lat":34.92977,"lng":136.625396,"zip":"5100852"},{"town":"浜一色町","koaza":"","lat":34.978177,"lng":136.631319,"zip":"5100031"},{"town":"浜園町","koaza":"","lat":34.995627,"lng":136.653361,"zip":"5108009"},{"town":"浜田町","koaza":"","lat":34.963971,"lng":136.62004,"zip":"5100067"},{"town":"浜町","koaza":"","lat":34.967633,"lng":136.635245,"zip":"5100046"},{"town":"万古町","koaza":"","lat":34.982512,"lng":136.625415,"zip":"5100804"},{"town":"東ケ谷","koaza":"","lat":35.001589,"lng":136.607022,"zip":"5120907"},{"town":"東坂部町","koaza":"","lat":34.997461,"lng":136.599799,"zip":"5120904"},{"town":"東垂坂町","koaza":"","lat":35.005989,"lng":136.620297,"zip":"5108035"},{"town":"東富田町","koaza":"","lat":35.002112,"lng":136.655773,"zip":"5108006"},{"town":"東日野一丁目","koaza":"","lat":34.958543,"lng":136.598175,"zip":"5100941"},{"town":"東日野二丁目","koaza":"","lat":34.954957,"lng":136.597018,"zip":"5100941"},{"town":"東日野町","koaza":"","lat":34.958068,"lng":136.593195,"zip":"5100942"},{"town":"東茂福町","koaza":"","lat":34.997592,"lng":136.649126,"zip":"5108011"},{"town":"日永一丁目","koaza":"","lat":34.95504,"lng":136.608472,"zip":"5100885"},{"town":"日永二丁目","koaza":"","lat":34.952916,"lng":136.605869,"zip":"5100885"},{"town":"日永三丁目","koaza":"","lat":34.950962,"lng":136.603487,"zip":"5100885"},{"town":"日永四丁目","koaza":"","lat":34.948226,"lng":136.603765,"zip":"5100885"},{"town":"日永五丁目","koaza":"","lat":34.944087,"lng":136.60178,"zip":"5100885"},{"town":"日永西一丁目","koaza":"","lat":34.956808,"lng":136.601711,"zip":"5100891"},{"town":"日永西二丁目","koaza":"","lat":34.953108,"lng":136.59898,"zip":"5100891"},{"town":"日永西三丁目","koaza":"","lat":34.950143,"lng":136.597181,"zip":"5100891"},{"town":"日永西四丁目","koaza":"","lat":34.947285,"lng":136.596744,"zip":"5100891"},{"town":"日永西五丁目","koaza":"","lat":34.944272,"lng":136.596525,"zip":"5100891"},{"town":"日永東一丁目","koaza":"","lat":34.95193,"lng":136.615045,"zip":"5100886"},{"town":"日永東二丁目","koaza":"","lat":34.948143,"lng":136.611794,"zip":"5100886"},{"town":"日永東三丁目","koaza":"","lat":34.94411,"lng":136.608136,"zip":"5100886"},{"town":"平尾町","koaza":"","lat":35.002782,"lng":136.557614,"zip":"5121205"},{"town":"広永町","koaza":"","lat":35.030744,"lng":136.640995,"zip":"5128061"},{"town":"富士町","koaza":"","lat":34.984415,"lng":136.639697,"zip":"5100013"},{"town":"富双一丁目","koaza":"","lat":35.000498,"lng":136.658141,"zip":"5108005"},{"town":"富双二丁目","koaza":"","lat":35.003806,"lng":136.662801,"zip":"5108005"},{"town":"平津新町","koaza":"","lat":35.024829,"lng":136.623466,"zip":"5128043"},{"town":"平津町","koaza":"","lat":35.02402,"lng":136.618043,"zip":"5128042"},{"town":"別名一丁目","koaza":"","lat":34.994757,"lng":136.627097,"zip":"5100007"},{"town":"別名二丁目","koaza":"","lat":34.996186,"lng":136.623918,"zip":"5100007"},{"town":"別名三丁目","koaza":"","lat":34.999004,"lng":136.626566,"zip":"5100007"},{"town":"別名四丁目","koaza":"","lat":34.997118,"lng":136.628732,"zip":"5100007"},{"town":"別名五丁目","koaza":"","lat":34.996273,"lng":136.632735,"zip":"5100007"},{"town":"別名六丁目","koaza":"","lat":34.998767,"lng":136.632511,"zip":"5100007"},{"town":"別山一丁目","koaza":"","lat":34.971565,"lng":136.559711,"zip":"5120936"},{"town":"別山二丁目","koaza":"","lat":34.969293,"lng":136.561679,"zip":"5120936"},{"town":"別山三丁目","koaza":"","lat":34.96799,"lng":136.559267,"zip":"5120936"},{"town":"別山四丁目","koaza":"","lat":34.970162,"lng":136.5582,"zip":"5120936"},{"town":"堀木一丁目","koaza":"","lat":34.971527,"lng":136.614048,"zip":"5100076"},{"town":"堀木二丁目","koaza":"","lat":34.974477,"lng":136.615722,"zip":"5100076"},{"town":"本町","koaza":"","lat":34.962304,"lng":136.630242,"zip":"5100093"},{"town":"前田町","koaza":"","lat":34.936699,"lng":136.59379,"zip":"5100893"},{"town":"蒔田一丁目","koaza":"","lat":35.016117,"lng":136.650089,"zip":"5108022"},{"town":"蒔田二丁目","koaza":"","lat":35.016851,"lng":136.651821,"zip":"5108022"},{"town":"蒔田三丁目","koaza":"","lat":35.018054,"lng":136.653375,"zip":"5108022"},{"town":"蒔田四丁目","koaza":"","lat":35.018175,"lng":136.648065,"zip":"5108022"},{"town":"まきの木台一丁目","koaza":"","lat":35.03724,"lng":136.570137,"zip":"5121306"},{"town":"まきの木台二丁目","koaza":"","lat":35.038831,"lng":136.568613,"zip":"5121306"},{"town":"まきの木台三丁目","koaza":"","lat":35.03871,"lng":136.571397,"zip":"5121306"},{"town":"松寺一丁目","koaza":"","lat":35.020391,"lng":136.654574,"zip":"5108021"},{"town":"松寺二丁目","koaza":"","lat":35.022772,"lng":136.655521,"zip":"5108021"},{"town":"松寺三丁目","koaza":"","lat":35.022774,"lng":136.652093,"zip":"5108021"},{"town":"松原町","koaza":"","lat":35.010914,"lng":136.655209,"zip":"5108015"},{"town":"松本一丁目","koaza":"","lat":34.965405,"lng":136.591706,"zip":"5100836"},{"town":"松本二丁目","koaza":"","lat":34.968698,"lng":136.592815,"zip":"5100836"},{"town":"松本三丁目","koaza":"","lat":34.970118,"lng":136.589371,"zip":"5100836"},{"town":"松本四丁目","koaza":"","lat":34.967953,"lng":136.58728,"zip":"5100836"},{"town":"松本五丁目","koaza":"","lat":34.966881,"lng":136.589524,"zip":"5100836"},{"town":"松本六丁目","koaza":"","lat":34.964986,"lng":136.588095,"zip":"5100836"},{"town":"三重一丁目","koaza":"","lat":34.99256,"lng":136.589619,"zip":"5120912"},{"town":"三重二丁目","koaza":"","lat":34.992149,"lng":136.585751,"zip":"5120912"},{"town":"三重三丁目","koaza":"","lat":34.989745,"lng":136.587709,"zip":"5120912"},{"town":"三重四丁目","koaza":"","lat":34.98973,"lng":136.590626,"zip":"5120912"},{"town":"三重五丁目","koaza":"","lat":34.986732,"lng":136.588321,"zip":"5120912"},{"town":"三重六丁目","koaza":"","lat":34.98885,"lng":136.586081,"zip":"5120912"},{"town":"三重七丁目","koaza":"","lat":34.986752,"lng":136.585236,"zip":"5120912"},{"town":"三重八丁目","koaza":"","lat":34.988252,"lng":136.583312,"zip":"5120912"},{"town":"三重九丁目","koaza":"","lat":34.989268,"lng":136.582084,"zip":"5120912"},{"town":"美里町","koaza":"","lat":34.960789,"lng":136.508754,"zip":"5121104"},{"town":"御薗町一丁目","koaza":"","lat":34.932669,"lng":136.623869,"zip":"5100862"},{"town":"御薗町二丁目","koaza":"","lat":34.93338,"lng":136.620821,"zip":"5100862"},{"town":"三滝台一丁目","koaza":"","lat":34.976466,"lng":136.572346,"zip":"5120933"},{"town":"三滝台二丁目","koaza":"","lat":34.973332,"lng":136.572631,"zip":"5120933"},{"town":"三滝台三丁目","koaza":"","lat":34.974645,"lng":136.569723,"zip":"5120933"},{"town":"三滝台四丁目","koaza":"","lat":34.974913,"lng":136.566687,"zip":"5120933"},{"town":"三田町","koaza":"","lat":34.941285,"lng":136.659102,"zip":"5100841"},{"town":"三ツ谷町","koaza":"","lat":34.982426,"lng":136.629872,"zip":"5100802"},{"town":"三ツ谷東町","koaza":"","lat":34.981219,"lng":136.633565,"zip":"5100801"},{"town":"緑丘町","koaza":"","lat":34.994364,"lng":136.622509,"zip":"5100006"},{"town":"南いかるが町","koaza":"","lat":35.001197,"lng":136.629059,"zip":"5100008"},{"town":"南起町","koaza":"","lat":34.95489,"lng":136.627068,"zip":"5100056"},{"town":"南小松町","koaza":"","lat":34.921555,"lng":136.558347,"zip":"5100971"},{"town":"南坂部町","koaza":"","lat":34.991292,"lng":136.592814,"zip":"5120914"},{"town":"南垂坂町","koaza":"","lat":35.004095,"lng":136.612243,"zip":"5108036"},{"town":"南富田町","koaza":"","lat":35.002729,"lng":136.649538,"zip":"5108013"},{"town":"南納屋町","koaza":"","lat":34.962295,"lng":136.633368,"zip":"5100043"},{"town":"南浜田町","koaza":"","lat":34.961102,"lng":136.616761,"zip":"5100066"},{"town":"南松本町","koaza":"","lat":34.967145,"lng":136.579811,"zip":"5100838"},{"town":"宮東町一丁目","koaza":"","lat":34.942367,"lng":136.624846,"zip":"5100843"},{"town":"宮東町二丁目","koaza":"","lat":34.940486,"lng":136.623505,"zip":"5100843"},{"town":"宮東町三丁目","koaza":"","lat":34.93932,"lng":136.623524,"zip":"5100843"},{"town":"海山道町一丁目","koaza":"","lat":34.944666,"lng":136.620614,"zip":"5100845"},{"town":"海山道町二丁目","koaza":"","lat":34.943146,"lng":136.623346,"zip":"5100845"},{"town":"海山道町三丁目","koaza":"","lat":34.940431,"lng":136.620126,"zip":"5100845"},{"town":"みゆきケ丘一丁目","koaza":"","lat":34.994033,"lng":136.61688,"zip":"5100811"},{"town":"みゆきケ丘二丁目","koaza":"","lat":34.998172,"lng":136.616326,"zip":"5100811"},{"town":"室山町","koaza":"","lat":34.955993,"lng":136.578089,"zip":"5100948"},{"town":"茂福町","koaza":"","lat":35.00003,"lng":136.646837,"zip":"5108012"},{"town":"元新町","koaza":"","lat":34.967682,"lng":136.628376,"zip":"5100095"},{"town":"元町","koaza":"","lat":34.97103,"lng":136.621855,"zip":"5100088"},{"town":"森カ山町","koaza":"","lat":34.931301,"lng":136.583018,"zip":"5100957"},{"town":"安島一丁目","koaza":"","lat":34.967657,"lng":136.616384,"zip":"5100075"},{"town":"安島二丁目","koaza":"","lat":34.969588,"lng":136.612881,"zip":"5100075"},{"town":"八千代台一丁目","koaza":"","lat":35.029482,"lng":136.58559,"zip":"5128047"},{"town":"八千代台二丁目","koaza":"","lat":35.028489,"lng":136.582959,"zip":"5128047"},{"town":"八千代台三丁目","koaza":"","lat":35.030554,"lng":136.581218,"zip":"5128047"},{"town":"柳町","koaza":"","lat":34.934221,"lng":136.620183,"zip":"5100861"},{"town":"山分町","koaza":"","lat":35.026782,"lng":136.63245,"zip":"5128041"},{"town":"山城町","koaza":"","lat":35.028638,"lng":136.577323,"zip":"5128048"},{"town":"山田町","koaza":"","lat":34.945129,"lng":136.537141,"zip":"5121111"},{"town":"山手町","koaza":"","lat":34.992589,"lng":136.624478,"zip":"5100005"},{"town":"山之一色町","koaza":"","lat":35.012655,"lng":136.600898,"zip":"5120906"},{"town":"山村町","koaza":"","lat":35.03809,"lng":136.637627,"zip":"5128063"},{"town":"六名町","koaza":"","lat":34.939773,"lng":136.527672,"zip":"5121116"},{"town":"和無田町","koaza":"","lat":34.939495,"lng":136.517379,"zip":"5121114"},{"town":"陶栄町","koaza":"","lat":34.978516,"lng":136.625586,"zip":"5100035"},{"town":"本郷町","koaza":"","lat":34.978477,"lng":136.621114,"zip":"5100806"},{"town":"滝川町","koaza":"","lat":34.975505,"lng":136.623877,"zip":"5100034"},{"town":"末永町","koaza":"","lat":34.976339,"lng":136.620491,"zip":"5100807"},{"town":"尾平町","koaza":"天王川原","lat":34.977097,"lng":136.591002,"zip":"5120921"},{"town":"生桑町","koaza":"榎下","lat":34.987366,"lng":136.600092,"zip":"5120911"},{"town":"生桑町","koaza":"菰池","lat":34.980493,"lng":136.602933,"zip":"5120911"},{"town":"中村町","koaza":"半谷","lat":35.026148,"lng":136.609735,"zip":"5128044"},{"town":"小杉町","koaza":"東川原","lat":34.984259,"lng":136.609169,"zip":"5120902"},{"town":"大字末永","koaza":"一本木","lat":34.983077,"lng":136.610987,"zip":"5100000"},{"town":"大字羽津","koaza":"甲","lat":34.989517,"lng":136.646452,"zip":"5100000"},{"town":"大字茂福","koaza":"小宮","lat":35.006644,"lng":136.633929,"zip":"5100000"},{"town":"大矢知町","koaza":"下沢","lat":35.01885,"lng":136.637837,"zip":"5108034"},{"town":"大字茂福","koaza":"横座","lat":35.007983,"lng":136.642066,"zip":"5100000"},{"town":"尾平町","koaza":"永代寺","lat":34.981906,"lng":136.592293,"zip":"5120921"},{"town":"智積町","koaza":"北清水","lat":34.993085,"lng":136.547534,"zip":"5121212"},{"town":"智積町","koaza":"間渡","lat":34.990036,"lng":136.549573,"zip":"5121212"},{"town":"高角町","koaza":"中川原","lat":34.987634,"lng":136.552997,"zip":"5120923"},{"town":"八王子町","koaza":"高花","lat":34.953006,"lng":136.559745,"zip":"5100947"},{"town":"内堀町","koaza":"一之縄","lat":34.922216,"lng":136.608615,"zip":"5100872"},{"town":"西日野町","koaza":"八幡","lat":34.95203,"lng":136.585062,"zip":"5100943"},{"town":"楠町吉崎","koaza":"字四之割","lat":34.911736,"lng":136.645847,"zip":"5100102"}]