[{"town":"朝長","koaza":"","lat":34.519128,"lng":136.56702,"zip":"5192151"},{"town":"朝柄","koaza":"","lat":34.45485,"lng":136.441676,"zip":"5192215"},{"town":"荒蒔","koaza":"","lat":34.505652,"lng":136.551924,"zip":"5192158"},{"town":"井内林","koaza":"","lat":34.494021,"lng":136.511738,"zip":"5192186"},{"town":"兄国","koaza":"","lat":34.511392,"lng":136.558613,"zip":"5192159"},{"town":"相可","koaza":"","lat":34.497618,"lng":136.541041,"zip":"5192181"},{"town":"相鹿瀬","koaza":"","lat":34.455911,"lng":136.559959,"zip":"5192167"},{"town":"相可台","koaza":"","lat":34.500256,"lng":136.548547,"zip":"5192182"},{"town":"弟国","koaza":"","lat":34.519133,"lng":136.574437,"zip":"5192152"},{"town":"笠木","koaza":"","lat":34.490369,"lng":136.580094,"zip":"5192162"},{"town":"片野","koaza":"","lat":34.47363,"lng":136.451176,"zip":"5192203"},{"town":"上出江","koaza":"","lat":34.476221,"lng":136.46346,"zip":"5192201"},{"town":"車川","koaza":"","lat":34.431364,"lng":136.438047,"zip":"5192214"},{"town":"鍬形","koaza":"","lat":34.495874,"lng":136.50138,"zip":"5192187"},{"town":"神坂","koaza":"","lat":34.477846,"lng":136.521858,"zip":"5192177"},{"town":"河田","koaza":"","lat":34.516955,"lng":136.584005,"zip":"5192153"},{"town":"五桂","koaza":"","lat":34.469845,"lng":136.546347,"zip":"5192174"},{"town":"五佐奈","koaza":"","lat":34.497366,"lng":136.562948,"zip":"5192157"},{"town":"佐伯中","koaza":"","lat":34.495757,"lng":136.518525,"zip":"5192185"},{"town":"三疋田","koaza":"","lat":34.494344,"lng":136.523044,"zip":"5192184"},{"town":"色太","koaza":"","lat":34.450225,"lng":136.492421,"zip":"5192212"},{"town":"四神田","koaza":"","lat":34.479395,"lng":136.56297,"zip":"5192172"},{"town":"四疋田","koaza":"","lat":34.494747,"lng":136.530398,"zip":"5192183"},{"town":"下出江","koaza":"","lat":34.474159,"lng":136.474385,"zip":"5192202"},{"town":"多気","koaza":"","lat":34.515643,"lng":136.570467,"zip":"5192154"},{"town":"田中","koaza":"","lat":34.481429,"lng":136.570039,"zip":"5192165"},{"town":"土屋","koaza":"","lat":34.443529,"lng":136.46709,"zip":"5192213"},{"town":"津留","koaza":"","lat":34.495402,"lng":136.488144,"zip":"5192189"},{"town":"土羽","koaza":"","lat":34.501084,"lng":136.585617,"zip":"5192161"},{"town":"丹生","koaza":"","lat":34.473504,"lng":136.49629,"zip":"5192211"},{"town":"西池上","koaza":"","lat":34.506512,"lng":136.565024,"zip":"5192156"},{"town":"西山","koaza":"","lat":34.489563,"lng":136.556903,"zip":"5192171"},{"town":"仁田","koaza":"","lat":34.487368,"lng":136.544239,"zip":"5192179"},{"town":"野中","koaza":"","lat":34.46596,"lng":136.572356,"zip":"5192166"},{"town":"長谷","koaza":"","lat":34.481672,"lng":136.511235,"zip":"5192176"},{"town":"波多瀬","koaza":"","lat":34.472455,"lng":136.422495,"zip":"5192204"},{"town":"東池上","koaza":"","lat":34.50818,"lng":136.577946,"zip":"5192155"},{"town":"平谷","koaza":"","lat":34.477381,"lng":136.537506,"zip":"5192178"},{"town":"古江","koaza":"","lat":34.461489,"lng":136.479201,"zip":"5192216"},{"town":"前村","koaza":"","lat":34.465688,"lng":136.522875,"zip":"5192175"},{"town":"牧","koaza":"","lat":34.502775,"lng":136.490494,"zip":"5192188"},{"town":"森荘","koaza":"","lat":34.482674,"lng":136.57826,"zip":"5192164"},{"town":"矢田","koaza":"","lat":34.490011,"lng":136.569672,"zip":"5192163"},{"town":"油夫","koaza":"","lat":34.473428,"lng":136.558643,"zip":"5192173"}]