[{"town":"阿曽浦","koaza":"","lat":34.260002,"lng":136.595635,"zip":"5161305"},{"town":"泉","koaza":"","lat":34.357696,"lng":136.725487,"zip":"5160103"},{"town":"伊勢路","koaza":"","lat":34.366164,"lng":136.655595,"zip":"5160112"},{"town":"大江","koaza":"","lat":34.299928,"lng":136.609321,"zip":"5161302"},{"town":"相賀浦","koaza":"","lat":34.29366,"lng":136.63879,"zip":"5160118"},{"town":"大方竈","koaza":"","lat":34.265909,"lng":136.596442,"zip":"5161304"},{"town":"小方竈","koaza":"","lat":34.246224,"lng":136.49087,"zip":"5161532"},{"town":"押渕","koaza":"","lat":34.321942,"lng":136.614312,"zip":"5160115"},{"town":"神前浦","koaza":"","lat":34.260021,"lng":136.505371,"zip":"5161422"},{"town":"木谷","koaza":"","lat":34.322944,"lng":136.722674,"zip":"5160106"},{"town":"切原","koaza":"","lat":34.373753,"lng":136.713443,"zip":"5160102"},{"town":"河内","koaza":"","lat":34.299453,"lng":136.518833,"zip":"5161421"},{"town":"五ヶ所浦","koaza":"","lat":34.355484,"lng":136.702194,"zip":"5160100"},{"town":"古和浦","koaza":"","lat":34.269681,"lng":136.451053,"zip":"5161534"},{"town":"神津佐","koaza":"","lat":34.351515,"lng":136.735325,"zip":"5160104"},{"town":"斎田","koaza":"","lat":34.352223,"lng":136.623164,"zip":"5160113"},{"town":"礫浦","koaza":"","lat":34.309082,"lng":136.667627,"zip":"5160117"},{"town":"新桑竈","koaza":"","lat":34.232896,"lng":136.436883,"zip":"5161536"},{"town":"下津浦","koaza":"","lat":34.330191,"lng":136.735003,"zip":"5160105"},{"town":"宿浦","koaza":"","lat":34.308193,"lng":136.699569,"zip":"5160221"},{"town":"慥柄浦","koaza":"","lat":34.292142,"lng":136.561495,"zip":"5161306"},{"town":"田曽浦","koaza":"","lat":34.294982,"lng":136.701744,"zip":"5160222"},{"town":"棚橋竈","koaza":"","lat":34.254914,"lng":136.429226,"zip":"5161535"},{"town":"東宮","koaza":"","lat":34.292051,"lng":136.543468,"zip":"5161309"},{"town":"栃木竈","koaza":"","lat":34.24461,"lng":136.471099,"zip":"5161533"},{"town":"内瀬","koaza":"","lat":34.348613,"lng":136.658795,"zip":"5160111"},{"town":"中津浜浦","koaza":"","lat":34.330078,"lng":136.686576,"zip":"5160108"},{"town":"奈屋浦","koaza":"","lat":34.278908,"lng":136.542068,"zip":"5161308"},{"town":"贄浦","koaza":"","lat":34.283462,"lng":136.553291,"zip":"5161307"},{"town":"迫間浦","koaza":"","lat":34.317639,"lng":136.637661,"zip":"5160116"},{"town":"始神","koaza":"","lat":34.340029,"lng":136.615602,"zip":"5160114"},{"town":"飯満","koaza":"","lat":34.345999,"lng":136.71089,"zip":"5160107"},{"town":"船越","koaza":"","lat":34.348395,"lng":136.680977,"zip":"5160109"},{"town":"方座浦","koaza":"","lat":34.252618,"lng":136.506496,"zip":"5161531"},{"town":"道方","koaza":"","lat":34.305308,"lng":136.572252,"zip":"5161301"},{"town":"道行竈","koaza":"","lat":34.282908,"lng":136.606781,"zip":"5161303"},{"town":"村山","koaza":"","lat":34.29957,"lng":136.480182,"zip":"5161423"}]