[{"town":"阿曽","koaza":"","lat":34.334242,"lng":136.420146,"zip":"5192704"},{"town":"打見","koaza":"","lat":34.410966,"lng":136.478123,"zip":"5192736"},{"town":"永会","koaza":"","lat":34.363285,"lng":136.484158,"zip":"5192734"},{"town":"大内山","koaza":"","lat":34.274538,"lng":136.326565,"zip":"5193111"},{"town":"柏野","koaza":"","lat":34.309297,"lng":136.426726,"zip":"5192801"},{"town":"金輪","koaza":"","lat":34.389409,"lng":136.503558,"zip":"5192733"},{"town":"神原","koaza":"","lat":34.394167,"lng":136.456903,"zip":"5192735"},{"town":"崎","koaza":"","lat":34.29875,"lng":136.396437,"zip":"5192802"},{"town":"滝原","koaza":"","lat":34.367638,"lng":136.430624,"zip":"5192703"},{"town":"錦","koaza":"","lat":34.236819,"lng":136.39543,"zip":"5192911"},{"town":"野添","koaza":"","lat":34.411734,"lng":136.494229,"zip":"5192732"},{"town":"野原","koaza":"","lat":34.41445,"lng":136.519304,"zip":"5192731"},{"town":"船木","koaza":"","lat":34.393781,"lng":136.417578,"zip":"5192701"},{"town":"三瀬川","koaza":"","lat":34.390735,"lng":136.42741,"zip":"5192702"}]