[{"town":"市場","koaza":"","lat":34.356488,"lng":136.58509,"zip":"5161242"},{"town":"大久保","koaza":"","lat":34.441684,"lng":136.586136,"zip":"5162106"},{"town":"大野木","koaza":"","lat":34.442307,"lng":136.635902,"zip":"5162102"},{"town":"小川","koaza":"","lat":34.387368,"lng":136.574739,"zip":"5161236"},{"town":"上久具","koaza":"","lat":34.425637,"lng":136.602761,"zip":"5162112"},{"town":"川上","koaza":"","lat":34.350198,"lng":136.541789,"zip":"5161245"},{"town":"川口","koaza":"","lat":34.411544,"lng":136.631872,"zip":"5161231"},{"town":"葛原","koaza":"","lat":34.450389,"lng":136.644618,"zip":"5162101"},{"town":"栗原","koaza":"","lat":34.412382,"lng":136.608313,"zip":"5161232"},{"town":"五ケ町","koaza":"","lat":34.395714,"lng":136.584955,"zip":"5161237"},{"town":"小萩","koaza":"","lat":34.370515,"lng":136.565428,"zip":"5161247"},{"town":"駒ケ野","koaza":"","lat":34.37632,"lng":136.597308,"zip":"5161235"},{"town":"坂井","koaza":"","lat":34.44382,"lng":136.568098,"zip":"5162116"},{"town":"注連指","koaza":"","lat":34.404086,"lng":136.540502,"zip":"5162119"},{"town":"下久具","koaza":"","lat":34.427013,"lng":136.617266,"zip":"5162111"},{"town":"田口","koaza":"","lat":34.43957,"lng":136.550012,"zip":"5162118"},{"town":"立岡","koaza":"","lat":34.438787,"lng":136.580645,"zip":"5162107"},{"town":"棚橋","koaza":"","lat":34.444273,"lng":136.619923,"zip":"5162103"},{"town":"田間","koaza":"","lat":34.434351,"lng":136.599516,"zip":"5162113"},{"town":"當津","koaza":"","lat":34.428338,"lng":136.589764,"zip":"5162100"},{"town":"中之郷","koaza":"","lat":34.40319,"lng":136.597943,"zip":"5161238"},{"town":"長原","koaza":"","lat":34.417936,"lng":136.565933,"zip":"5162115"},{"town":"鮠川","koaza":"","lat":34.417649,"lng":136.586382,"zip":"5162108"},{"town":"火打石","koaza":"","lat":34.378287,"lng":136.620175,"zip":"5161234"},{"town":"日向","koaza":"","lat":34.393733,"lng":136.611714,"zip":"5161233"},{"town":"平生","koaza":"","lat":34.446479,"lng":136.598464,"zip":"5162105"},{"town":"麻加江","koaza":"","lat":34.43611,"lng":136.557366,"zip":"5162117"},{"town":"牧戸","koaza":"","lat":34.444443,"lng":136.609612,"zip":"5162104"},{"town":"南中村","koaza":"","lat":34.331039,"lng":136.589585,"zip":"5161244"},{"town":"柳","koaza":"","lat":34.367715,"lng":136.591101,"zip":"5161241"},{"town":"和井野","koaza":"","lat":34.355593,"lng":136.600237,"zip":"5161243"},{"town":"脇出","koaza":"","lat":34.350904,"lng":136.579908,"zip":"5161246"}]