[{"town":"井倉","koaza":"","lat":34.511057,"lng":136.640644,"zip":"5190403"},{"town":"岩出","koaza":"","lat":34.463393,"lng":136.647362,"zip":"5190425"},{"town":"岡出","koaza":"","lat":34.480484,"lng":136.640892,"zip":"5190428"},{"town":"岡村","koaza":"","lat":34.499414,"lng":136.628304,"zip":"5190406"},{"town":"小社曽根","koaza":"","lat":34.478689,"lng":136.651867,"zip":"5190422"},{"town":"勝田","koaza":"","lat":34.474633,"lng":136.621263,"zip":"5190433"},{"town":"蚊野","koaza":"","lat":34.487284,"lng":136.599225,"zip":"5190431"},{"town":"上田辺","koaza":"","lat":34.49859,"lng":136.610322,"zip":"5190417"},{"town":"久保","koaza":"","lat":34.50074,"lng":136.653726,"zip":"5190411"},{"town":"坂本","koaza":"","lat":34.508882,"lng":136.621232,"zip":"5190408"},{"town":"佐田","koaza":"","lat":34.488436,"lng":136.639539,"zip":"5190414"},{"town":"下田辺","koaza":"","lat":34.493691,"lng":136.623784,"zip":"5190416"},{"town":"世古","koaza":"","lat":34.514367,"lng":136.626816,"zip":"5190401"},{"town":"玉川","koaza":"","lat":34.502859,"lng":136.62081,"zip":"5190407"},{"town":"田丸","koaza":"","lat":34.491371,"lng":136.632658,"zip":"5190415"},{"town":"田宮寺","koaza":"","lat":34.470024,"lng":136.61418,"zip":"5190434"},{"town":"中楽","koaza":"","lat":34.497376,"lng":136.645245,"zip":"5190412"},{"town":"積良","koaza":"","lat":34.463934,"lng":136.596506,"zip":"5190437"},{"town":"冨岡","koaza":"","lat":34.485194,"lng":136.652198,"zip":"5190421"},{"town":"中角","koaza":"","lat":34.46816,"lng":136.645483,"zip":"5190426"},{"town":"長更","koaza":"","lat":34.50385,"lng":136.637901,"zip":"5190404"},{"town":"野篠","koaza":"","lat":34.485431,"lng":136.615948,"zip":"5190432"},{"town":"原","koaza":"","lat":34.470377,"lng":136.586718,"zip":"5190438"},{"town":"日向","koaza":"","lat":34.506066,"lng":136.627702,"zip":"5190405"},{"town":"昼田","koaza":"","lat":34.475432,"lng":136.665258,"zip":"5190423"},{"town":"宮古","koaza":"","lat":34.465617,"lng":136.630496,"zip":"5190427"},{"town":"妙法寺","koaza":"","lat":34.495733,"lng":136.639084,"zip":"5190413"},{"town":"門前","koaza":"","lat":34.509738,"lng":136.629459,"zip":"5190402"},{"town":"矢野","koaza":"","lat":34.48149,"lng":136.609075,"zip":"5190435"},{"town":"山岡","koaza":"","lat":34.475218,"lng":136.65449,"zip":"5190424"},{"town":"山神","koaza":"","lat":34.464923,"lng":136.60643,"zip":"5190436"}]