[{"town":"阿児町安乗","koaza":"","lat":34.358668,"lng":136.897086,"zip":"5170507"},{"town":"阿児町鵜方","koaza":"","lat":34.329957,"lng":136.823738,"zip":"5170501"},{"town":"阿児町国府","koaza":"","lat":34.336917,"lng":136.865457,"zip":"5170506"},{"town":"阿児町甲賀","koaza":"","lat":34.3162,"lng":136.872646,"zip":"5170505"},{"town":"阿児町志島","koaza":"","lat":34.308323,"lng":136.882835,"zip":"5170504"},{"town":"阿児町神明","koaza":"","lat":34.316288,"lng":136.833603,"zip":"5170502"},{"town":"阿児町立神","koaza":"","lat":34.29963,"lng":136.862862,"zip":"5170503"},{"town":"磯部町穴川","koaza":"","lat":34.352275,"lng":136.809334,"zip":"5170213"},{"town":"磯部町飯浜","koaza":"","lat":34.369528,"lng":136.834427,"zip":"5170206"},{"town":"磯部町恵利原","koaza":"","lat":34.396013,"lng":136.788346,"zip":"5170209"},{"town":"磯部町上之郷","koaza":"","lat":34.383149,"lng":136.812417,"zip":"5170208"},{"town":"磯部町沓掛","koaza":"","lat":34.398112,"lng":136.817712,"zip":"5170202"},{"town":"磯部町栗木広","koaza":"","lat":34.36482,"lng":136.777512,"zip":"5170216"},{"town":"磯部町五知","koaza":"","lat":34.409739,"lng":136.803383,"zip":"5170201"},{"town":"磯部町坂崎","koaza":"","lat":34.356753,"lng":136.84281,"zip":"5170212"},{"town":"磯部町三ケ所","koaza":"","lat":34.356293,"lng":136.86026,"zip":"5170211"},{"town":"磯部町下之郷","koaza":"","lat":34.37312,"lng":136.814791,"zip":"5170207"},{"town":"磯部町築地","koaza":"","lat":34.383717,"lng":136.763642,"zip":"5170218"},{"town":"磯部町迫間","koaza":"","lat":34.365357,"lng":136.795523,"zip":"5170214"},{"town":"磯部町桧山","koaza":"","lat":34.348085,"lng":136.763736,"zip":"5170500"},{"town":"磯部町的矢","koaza":"","lat":34.379339,"lng":136.86935,"zip":"5170204"},{"town":"磯部町山田","koaza":"","lat":34.389458,"lng":136.838861,"zip":"5170203"},{"town":"磯部町山原","koaza":"","lat":34.361814,"lng":136.763077,"zip":"5170217"},{"town":"磯部町渡鹿野","koaza":"","lat":34.361284,"lng":136.873598,"zip":"5170205"},{"town":"志摩町片田","koaza":"","lat":34.260573,"lng":136.844467,"zip":"5170701"},{"town":"志摩町御座","koaza":"","lat":34.269543,"lng":136.766729,"zip":"5170705"},{"town":"志摩町越賀","koaza":"","lat":34.2666,"lng":136.785147,"zip":"5170704"},{"town":"志摩町布施田","koaza":"","lat":34.262311,"lng":136.824709,"zip":"5170702"},{"town":"志摩町和具","koaza":"","lat":34.262365,"lng":136.811365,"zip":"5170703"},{"town":"大王町畔名","koaza":"","lat":34.297883,"lng":136.881296,"zip":"5170601"},{"town":"大王町波切","koaza":"","lat":34.285595,"lng":136.873836,"zip":"5170603"},{"town":"大王町名田","koaza":"","lat":34.291097,"lng":136.889472,"zip":"5170602"},{"town":"大王町船越","koaza":"","lat":34.275229,"lng":136.869864,"zip":"5170604"},{"town":"浜島町塩屋","koaza":"","lat":34.321163,"lng":136.76567,"zip":"5170402"},{"town":"浜島町南張","koaza":"","lat":34.313468,"lng":136.725561,"zip":"5170405"},{"town":"浜島町迫子","koaza":"","lat":34.318139,"lng":136.780637,"zip":"5170403"},{"town":"浜島町浜島","koaza":"","lat":34.303261,"lng":136.746612,"zip":"5170404"},{"town":"浜島町桧山路","koaza":"","lat":34.327288,"lng":136.752983,"zip":"5170401"},{"town":"磯部町穴川","koaza":"山ノ谷","lat":34.362176,"lng":136.811056,"zip":"5170213"},{"town":"阿児町鵜方","koaza":"小向井","lat":34.327382,"lng":136.81209,"zip":"5170501"},{"town":"阿児町鵜方","koaza":"山口","lat":34.348052,"lng":136.812245,"zip":"5170501"},{"town":"志摩町布施田","koaza":"水深","lat":34.253357,"lng":136.825586,"zip":"5170702"},{"town":"阿児町鵜方","koaza":"野田","lat":34.330418,"lng":136.832941,"zip":"5170501"},{"town":"阿児町鵜方","koaza":"金谷","lat":34.326952,"lng":136.839534,"zip":"5170501"}]