[{"town":"阿形町","koaza":"","lat":34.560537,"lng":136.504433,"zip":"5150823"},{"town":"朝田町","koaza":"","lat":34.568129,"lng":136.564977,"zip":"5150027"},{"town":"朝日町","koaza":"","lat":34.580337,"lng":136.53629,"zip":"5150004"},{"town":"朝日町一区","koaza":"","lat":34.579697,"lng":136.537469,"zip":"5150003"},{"town":"愛宕町","koaza":"","lat":34.571772,"lng":136.538087,"zip":"5150037"},{"town":"愛宕町一丁目","koaza":"","lat":34.571036,"lng":136.535795,"zip":"5150037"},{"town":"愛宕町二丁目","koaza":"","lat":34.569971,"lng":136.537896,"zip":"5150037"},{"town":"愛宕町三丁目","koaza":"","lat":34.570998,"lng":136.537672,"zip":"5150037"},{"town":"愛宕町四丁目","koaza":"","lat":34.571963,"lng":136.537122,"zip":"5150037"},{"town":"荒木町","koaza":"","lat":34.590717,"lng":136.544545,"zip":"5150007"},{"town":"阿波曽町","koaza":"","lat":34.5105,"lng":136.524765,"zip":"5192146"},{"town":"安楽町","koaza":"","lat":34.538299,"lng":136.572131,"zip":"5150207"},{"town":"飯高町赤桶","koaza":"","lat":34.445506,"lng":136.304219,"zip":"5151505"},{"town":"飯高町粟野","koaza":"","lat":34.424978,"lng":136.253009,"zip":"5151613"},{"town":"飯高町猿山","koaza":"","lat":34.362257,"lng":136.182191,"zip":"5151617"},{"town":"飯高町青田","koaza":"","lat":34.383653,"lng":136.142352,"zip":"5151616"},{"town":"飯高町落方","koaza":"","lat":34.415153,"lng":136.131463,"zip":"5151732"},{"town":"飯高町乙栗子","koaza":"","lat":34.407137,"lng":136.194557,"zip":"5151723"},{"town":"飯高町加波","koaza":"","lat":34.413098,"lng":136.17088,"zip":"5151722"},{"town":"飯高町木梶","koaza":"","lat":34.401451,"lng":136.099834,"zip":"5151734"},{"town":"飯高町桑原","koaza":"","lat":34.426586,"lng":136.168921,"zip":"5151724"},{"town":"飯高町作滝","koaza":"","lat":34.431146,"lng":136.316478,"zip":"5151504"},{"town":"飯高町下滝野","koaza":"","lat":34.448075,"lng":136.350587,"zip":"5151501"},{"town":"飯高町草鹿野","koaza":"","lat":34.431889,"lng":136.119339,"zip":"5151727"},{"town":"飯高町田引","koaza":"","lat":34.429139,"lng":136.280076,"zip":"5151506"},{"town":"飯高町太良木","koaza":"","lat":34.435952,"lng":136.134133,"zip":"5151726"},{"town":"飯高町月出","koaza":"","lat":34.440039,"lng":136.178018,"zip":"5151721"},{"town":"飯高町栃谷","koaza":"","lat":34.400586,"lng":136.13099,"zip":"5151733"},{"town":"飯高町富永","koaza":"","lat":34.430276,"lng":136.214558,"zip":"5151612"},{"town":"飯高町七日市","koaza":"","lat":34.411759,"lng":136.217408,"zip":"5151611"},{"town":"飯高町野々口","koaza":"","lat":34.41686,"lng":136.320263,"zip":"5151503"},{"town":"飯高町波瀬","koaza":"","lat":34.423128,"lng":136.146112,"zip":"5151725"},{"town":"飯高町蓮","koaza":"","lat":34.340192,"lng":136.143576,"zip":"5151618"},{"town":"飯高町舟戸","koaza":"","lat":34.425541,"lng":136.108444,"zip":"5151731"},{"town":"飯高町宮前","koaza":"","lat":34.444198,"lng":136.33327,"zip":"5151502"},{"town":"飯高町宮本","koaza":"","lat":34.397722,"lng":136.242758,"zip":"5151614"},{"town":"飯高町森","koaza":"","lat":34.375935,"lng":136.234472,"zip":"5151615"},{"town":"飯南町有間野","koaza":"","lat":34.422453,"lng":136.347632,"zip":"5151413"},{"town":"飯南町上仁柿","koaza":"","lat":34.485896,"lng":136.350935,"zip":"5151304"},{"town":"飯南町粥見","koaza":"","lat":34.453904,"lng":136.386066,"zip":"5151411"},{"town":"飯南町下仁柿","koaza":"","lat":34.475908,"lng":136.375897,"zip":"5151303"},{"town":"飯南町深野","koaza":"","lat":34.489968,"lng":136.398461,"zip":"5151301"},{"town":"飯南町向粥見","koaza":"","lat":34.431123,"lng":136.391578,"zip":"5151412"},{"town":"飯南町横野","koaza":"","lat":34.488536,"lng":136.386459,"zip":"5151302"},{"town":"井口中町","koaza":"","lat":34.558897,"lng":136.601928,"zip":"5150126"},{"town":"射和町","koaza":"","lat":34.510968,"lng":136.540681,"zip":"5192145"},{"town":"石津町","koaza":"","lat":34.588319,"lng":136.53924,"zip":"5150006"},{"town":"五十鈴町","koaza":"","lat":34.570921,"lng":136.533791,"zip":"5150086"},{"town":"出間町","koaza":"","lat":34.586385,"lng":136.605383,"zip":"5150113"},{"town":"泉町","koaza":"","lat":34.567747,"lng":136.521823,"zip":"5150066"},{"town":"伊勢寺町","koaza":"","lat":34.56438,"lng":136.465506,"zip":"5150845"},{"town":"伊勢場町","koaza":"","lat":34.52917,"lng":136.590589,"zip":"5150213"},{"town":"市場庄町","koaza":"","lat":34.605665,"lng":136.514567,"zip":"5152121"},{"town":"稲木町","koaza":"","lat":34.541387,"lng":136.597086,"zip":"5150212"},{"town":"飯福田町","koaza":"","lat":34.564576,"lng":136.398741,"zip":"5152412"},{"town":"井村町","koaza":"","lat":34.575805,"lng":136.510403,"zip":"5150817"},{"town":"上川町","koaza":"","lat":34.551133,"lng":136.560648,"zip":"5150041"},{"town":"魚町","koaza":"","lat":34.577231,"lng":136.52978,"zip":"5150082"},{"town":"魚見町","koaza":"","lat":34.570163,"lng":136.596674,"zip":"5150128"},{"town":"牛草町","koaza":"","lat":34.583718,"lng":136.597117,"zip":"5150116"},{"town":"後山町","koaza":"","lat":34.547348,"lng":136.401375,"zip":"5152413"},{"town":"内五曲町","koaza":"","lat":34.575331,"lng":136.521583,"zip":"5150072"},{"town":"嬉野一志町","koaza":"","lat":34.62733,"lng":136.461229,"zip":"5152305"},{"town":"嬉野井之上町","koaza":"","lat":34.613793,"lng":136.444152,"zip":"5152351"},{"town":"嬉野岩倉町","koaza":"","lat":34.571461,"lng":136.408429,"zip":"5152403"},{"town":"嬉野上野町","koaza":"","lat":34.614397,"lng":136.470153,"zip":"5152356"},{"town":"嬉野小原町","koaza":"","lat":34.554703,"lng":136.377687,"zip":"5152405"},{"town":"嬉野上小川町","koaza":"","lat":34.525941,"lng":136.354221,"zip":"5152404"},{"town":"嬉野神ノ木町","koaza":"","lat":34.614309,"lng":136.463235,"zip":"5152357"},{"town":"嬉野釜生田町","koaza":"","lat":34.61672,"lng":136.423399,"zip":"5152401"},{"town":"嬉野川北町","koaza":"","lat":34.630208,"lng":136.492547,"zip":"5152316"},{"town":"嬉野川原木造町","koaza":"","lat":34.644503,"lng":136.490003,"zip":"5152313"},{"town":"嬉野黒田町","koaza":"","lat":34.641807,"lng":136.479363,"zip":"5152311"},{"town":"嬉野黒野町","koaza":"","lat":34.599266,"lng":136.486164,"zip":"5152334"},{"town":"嬉野合ケ野町","koaza":"","lat":34.583584,"lng":136.390028,"zip":"5152406"},{"town":"嬉野小村町","koaza":"","lat":34.632697,"lng":136.507023,"zip":"5152315"},{"town":"嬉野権現前町","koaza":"","lat":34.62045,"lng":136.482202,"zip":"5152323"},{"town":"嬉野算所町","koaza":"","lat":34.615714,"lng":136.47966,"zip":"5152335"},{"town":"嬉野島田町","koaza":"","lat":34.627546,"lng":136.434412,"zip":"5152301"},{"town":"嬉野下之庄町","koaza":"","lat":34.620481,"lng":136.467497,"zip":"5152354"},{"town":"嬉野須賀町","koaza":"","lat":34.622231,"lng":136.492992,"zip":"5152322"},{"town":"嬉野須賀領町","koaza":"","lat":34.614494,"lng":136.492186,"zip":"5152331"},{"town":"嬉野滝之川町","koaza":"","lat":34.609914,"lng":136.422545,"zip":"5152409"},{"town":"嬉野田村町","koaza":"","lat":34.609254,"lng":136.485309,"zip":"5152333"},{"town":"嬉野町","koaza":"","lat":34.625179,"lng":136.480507,"zip":"5152324"},{"town":"嬉野津屋城町","koaza":"","lat":34.618056,"lng":136.499715,"zip":"5152332"},{"town":"嬉野天花寺町","koaza":"","lat":34.634822,"lng":136.460007,"zip":"5152302"},{"town":"嬉野中川新町一丁目","koaza":"","lat":34.634526,"lng":136.4776,"zip":"5152325"},{"town":"嬉野中川新町二丁目","koaza":"","lat":34.635208,"lng":136.48113,"zip":"5152325"},{"town":"嬉野中川新町三丁目","koaza":"","lat":34.632332,"lng":136.481898,"zip":"5152325"},{"town":"嬉野中川新町四丁目","koaza":"","lat":34.631382,"lng":136.478508,"zip":"5152325"},{"town":"嬉野中川町","koaza":"","lat":34.630286,"lng":136.472918,"zip":"5152321"},{"town":"嬉野新屋庄町","koaza":"","lat":34.63793,"lng":136.494402,"zip":"5152314"},{"town":"嬉野野田町","koaza":"","lat":34.636948,"lng":136.485706,"zip":"5152317"},{"town":"嬉野八田町","koaza":"","lat":34.615269,"lng":136.450285,"zip":"5152352"},{"town":"嬉野平生町","koaza":"","lat":34.645308,"lng":136.470741,"zip":"5152304"},{"town":"嬉野堀之内町","koaza":"","lat":34.619268,"lng":136.457803,"zip":"5152353"},{"town":"嬉野見永町","koaza":"","lat":34.641496,"lng":136.486759,"zip":"5152312"},{"town":"嬉野宮古町","koaza":"","lat":34.640484,"lng":136.468727,"zip":"5152303"},{"town":"嬉野宮野町","koaza":"","lat":34.60101,"lng":136.406855,"zip":"5152408"},{"town":"嬉野森本町","koaza":"","lat":34.584212,"lng":136.43865,"zip":"5152402"},{"town":"嬉野矢下町","koaza":"","lat":34.582937,"lng":136.413471,"zip":"5152407"},{"town":"嬉野薬王寺町","koaza":"","lat":34.606046,"lng":136.451115,"zip":"5152355"},{"town":"大石町","koaza":"","lat":34.491858,"lng":136.419089,"zip":"5151205"},{"town":"大阿坂町","koaza":"","lat":34.599958,"lng":136.469987,"zip":"5152342"},{"town":"大垣内町","koaza":"","lat":34.582552,"lng":136.604096,"zip":"5150114"},{"town":"大口町","koaza":"","lat":34.602469,"lng":136.556907,"zip":"5150001"},{"town":"大黒田町","koaza":"","lat":34.565867,"lng":136.526629,"zip":"5150063"},{"town":"大塚町","koaza":"","lat":34.590741,"lng":136.528836,"zip":"5150813"},{"town":"大津町","koaza":"","lat":34.566398,"lng":136.550886,"zip":"5150031"},{"town":"小野町","koaza":"","lat":34.607939,"lng":136.466386,"zip":"5152341"},{"town":"大平尾町","koaza":"","lat":34.595503,"lng":136.536876,"zip":"5150804"},{"town":"大宮田町","koaza":"","lat":34.573796,"lng":136.575223,"zip":"5150024"},{"town":"小片野町","koaza":"","lat":34.491426,"lng":136.441925,"zip":"5151204"},{"town":"岡本町","koaza":"","lat":34.555369,"lng":136.499685,"zip":"5150831"},{"town":"岡山町","koaza":"","lat":34.555754,"lng":136.477448,"zip":"5150834"},{"town":"大河内町","koaza":"","lat":34.518435,"lng":136.473388,"zip":"5151105"},{"town":"白粉町","koaza":"","lat":34.57123,"lng":136.53159,"zip":"5150076"},{"town":"小津町","koaza":"","lat":34.616911,"lng":136.512592,"zip":"5152114"},{"town":"乙部町","koaza":"","lat":34.585663,"lng":136.594183,"zip":"5150117"},{"town":"小野江町","koaza":"","lat":34.642094,"lng":136.515264,"zip":"5152109"},{"town":"大足町","koaza":"","lat":34.567985,"lng":136.506454,"zip":"5150822"},{"town":"垣内田町","koaza":"","lat":34.588296,"lng":136.597169,"zip":"5150118"},{"town":"垣鼻町","koaza":"","lat":34.565335,"lng":136.538617,"zip":"5150033"},{"town":"柿木原町","koaza":"","lat":34.594728,"lng":136.604253,"zip":"5150111"},{"town":"笠松町","koaza":"","lat":34.631452,"lng":136.528167,"zip":"5152103"},{"town":"春日町一丁目","koaza":"","lat":34.566275,"lng":136.533018,"zip":"5150078"},{"town":"春日町二丁目","koaza":"","lat":34.564093,"lng":136.531487,"zip":"5150078"},{"town":"春日町三丁目","koaza":"","lat":34.563771,"lng":136.534076,"zip":"5150078"},{"town":"桂瀬町","koaza":"","lat":34.536814,"lng":136.49174,"zip":"5151104"},{"town":"鎌田町","koaza":"","lat":34.583279,"lng":136.536094,"zip":"5150005"},{"town":"上蛸路町","koaza":"","lat":34.52242,"lng":136.525847,"zip":"5192141"},{"town":"上七見町","koaza":"","lat":34.565978,"lng":136.579472,"zip":"5150201"},{"town":"上ノ庄町","koaza":"","lat":34.599878,"lng":136.497865,"zip":"5152123"},{"town":"川井町","koaza":"","lat":34.581579,"lng":136.516264,"zip":"5150818"},{"town":"川島町","koaza":"","lat":34.579356,"lng":136.595546,"zip":"5150122"},{"town":"神守町","koaza":"","lat":34.586152,"lng":136.598938,"zip":"5150119"},{"town":"喜多村新田町","koaza":"","lat":34.61477,"lng":136.527511,"zip":"5152113"},{"town":"木の郷町","koaza":"","lat":34.53597,"lng":136.501787,"zip":"5150088"},{"town":"京町","koaza":"","lat":34.575658,"lng":136.536226,"zip":"5150017"},{"town":"京町一区","koaza":"","lat":34.577332,"lng":136.53846,"zip":"5150018"},{"town":"櫛田町","koaza":"","lat":34.553135,"lng":136.587189,"zip":"5150204"},{"town":"久保田町","koaza":"","lat":34.589359,"lng":136.533218,"zip":"5150814"},{"town":"久保町","koaza":"","lat":34.548641,"lng":136.534347,"zip":"5150044"},{"town":"久米町","koaza":"","lat":34.596675,"lng":136.511868,"zip":"5152122"},{"town":"黒田町","koaza":"","lat":34.568439,"lng":136.527055,"zip":"5150061"},{"town":"小阿坂町","koaza":"","lat":34.586586,"lng":136.46816,"zip":"5152343"},{"town":"古井町","koaza":"","lat":34.580796,"lng":136.572927,"zip":"5150021"},{"town":"幸生町","koaza":"","lat":34.565357,"lng":136.557762,"zip":"5150013"},{"town":"郷津町","koaza":"","lat":34.586994,"lng":136.54636,"zip":"5150002"},{"town":"広陽町","koaza":"","lat":34.531818,"lng":136.524418,"zip":"5150053"},{"town":"小黒田町","koaza":"","lat":34.55718,"lng":136.517588,"zip":"5150062"},{"town":"五反田町一丁目","koaza":"","lat":34.564679,"lng":136.520684,"zip":"5150064"},{"town":"五反田町二丁目","koaza":"","lat":34.565228,"lng":136.519654,"zip":"5150064"},{"town":"五反田町三丁目","koaza":"","lat":34.565875,"lng":136.518688,"zip":"5150064"},{"town":"五反田町四丁目","koaza":"","lat":34.56596,"lng":136.516914,"zip":"5150064"},{"town":"五反田町五丁目","koaza":"","lat":34.566437,"lng":136.51584,"zip":"5150064"},{"town":"御殿山町","koaza":"","lat":34.554996,"lng":136.522537,"zip":"5150057"},{"town":"五主町","koaza":"","lat":34.629966,"lng":136.540941,"zip":"5152102"},{"town":"小舟江町","koaza":"","lat":34.634882,"lng":136.516797,"zip":"5152104"},{"town":"阪内町","koaza":"","lat":34.525139,"lng":136.420591,"zip":"5151107"},{"town":"佐久米町","koaza":"","lat":34.573927,"lng":136.565048,"zip":"5150028"},{"town":"桜町","koaza":"","lat":34.567667,"lng":136.511466,"zip":"5150071"},{"town":"笹川町","koaza":"","lat":34.53102,"lng":136.485308,"zip":"5151103"},{"town":"五月町","koaza":"","lat":34.568203,"lng":136.518482,"zip":"5150065"},{"town":"清水町","koaza":"","lat":34.559511,"lng":136.588819,"zip":"5150203"},{"town":"下蛸路町","koaza":"","lat":34.528416,"lng":136.547808,"zip":"5192142"},{"town":"下七見町","koaza":"","lat":34.572463,"lng":136.585995,"zip":"5150023"},{"town":"下村町","koaza":"","lat":34.548396,"lng":136.545243,"zip":"5150043"},{"town":"庄町","koaza":"","lat":34.508555,"lng":136.51012,"zip":"5192147"},{"town":"新開町","koaza":"","lat":34.578171,"lng":136.601401,"zip":"5150123"},{"town":"新座町","koaza":"","lat":34.572742,"lng":136.529483,"zip":"5150074"},{"town":"新町","koaza":"","lat":34.572014,"lng":136.530739,"zip":"5150075"},{"town":"新松ヶ島町","koaza":"","lat":34.602891,"lng":136.536604,"zip":"5150000"},{"town":"新屋敷町","koaza":"","lat":34.577168,"lng":136.585504,"zip":"5150022"},{"town":"末広町一丁目","koaza":"","lat":34.575199,"lng":136.539613,"zip":"5150016"},{"town":"末広町二丁目","koaza":"","lat":34.577101,"lng":136.540887,"zip":"5150016"},{"town":"菅生町","koaza":"","lat":34.56422,"lng":136.584616,"zip":"5150202"},{"town":"清生町","koaza":"","lat":34.573048,"lng":136.54242,"zip":"5150039"},{"town":"勢津町","koaza":"","lat":34.531768,"lng":136.445436,"zip":"5151101"},{"town":"外五曲町","koaza":"","lat":34.575802,"lng":136.518055,"zip":"5150821"},{"town":"曽原町","koaza":"","lat":34.62479,"lng":136.519729,"zip":"5152112"},{"town":"田牧町","koaza":"","lat":34.575786,"lng":136.504047,"zip":"5150842"},{"town":"高木町","koaza":"","lat":34.55068,"lng":136.601698,"zip":"5150211"},{"town":"高須町","koaza":"","lat":34.597233,"lng":136.568487,"zip":"5150104"},{"town":"高町","koaza":"","lat":34.583707,"lng":136.553351,"zip":"5150011"},{"town":"宝塚町","koaza":"","lat":34.55252,"lng":136.516571,"zip":"5150056"},{"town":"立野町","koaza":"","lat":34.544972,"lng":136.502576,"zip":"5150054"},{"town":"立田町","koaza":"","lat":34.562309,"lng":136.571869,"zip":"5150026"},{"town":"田村町","koaza":"","lat":34.555284,"lng":136.507743,"zip":"5150055"},{"town":"田原町","koaza":"","lat":34.563817,"lng":136.543853,"zip":"5150032"},{"town":"茅原町","koaza":"","lat":34.496387,"lng":136.466496,"zip":"5151202"},{"town":"茶与町","koaza":"","lat":34.568944,"lng":136.532003,"zip":"5150077"},{"town":"中央町","koaza":"","lat":34.582053,"lng":136.540996,"zip":"5150019"},{"town":"中万町","koaza":"","lat":34.520435,"lng":136.55513,"zip":"5192143"},{"town":"長月町","koaza":"","lat":34.5699,"lng":136.534984,"zip":"5150035"},{"town":"塚本町","koaza":"","lat":34.593222,"lng":136.51855,"zip":"5150811"},{"town":"辻原町","koaza":"","lat":34.514182,"lng":136.444561,"zip":"5151106"},{"town":"土古路町","koaza":"","lat":34.589429,"lng":136.611326,"zip":"5150112"},{"town":"殿町","koaza":"","lat":34.574769,"lng":136.526509,"zip":"5150073"},{"town":"殿村町","koaza":"","lat":34.57291,"lng":136.501352,"zip":"5150843"},{"town":"豊原町","koaza":"","lat":34.547982,"lng":136.576971,"zip":"5150205"},{"town":"中ノ庄町","koaza":"","lat":34.605231,"lng":136.504418,"zip":"5152124"},{"town":"中林町","koaza":"","lat":34.630592,"lng":136.512251,"zip":"5152111"},{"town":"中町","koaza":"","lat":34.577385,"lng":136.531832,"zip":"5150083"},{"town":"中町六丁目","koaza":"","lat":34.577688,"lng":136.533997,"zip":"5150083"},{"town":"中道町","koaza":"","lat":34.619693,"lng":136.51652,"zip":"5152115"},{"town":"虹が丘町","koaza":"","lat":34.542879,"lng":136.555091,"zip":"5150042"},{"town":"西黒部町","koaza":"","lat":34.587386,"lng":136.574256,"zip":"5150103"},{"town":"西之庄町","koaza":"","lat":34.580139,"lng":136.52503,"zip":"5150816"},{"town":"西野町","koaza":"","lat":34.549743,"lng":136.474661,"zip":"5150833"},{"town":"西野々町","koaza":"","lat":34.578832,"lng":136.564313,"zip":"5150029"},{"town":"西肥留町","koaza":"","lat":34.637469,"lng":136.503564,"zip":"5152106"},{"town":"西町","koaza":"","lat":34.583051,"lng":136.525481,"zip":"5150815"},{"town":"丹生寺町","koaza":"","lat":34.54925,"lng":136.488424,"zip":"5150832"},{"town":"野村町","koaza":"","lat":34.584804,"lng":136.495306,"zip":"5150848"},{"town":"甚目町","koaza":"","lat":34.646041,"lng":136.505465,"zip":"5152108"},{"town":"八太町","koaza":"","lat":34.523199,"lng":136.536773,"zip":"5192144"},{"town":"早馬瀬町","koaza":"","lat":34.5435,"lng":136.588065,"zip":"5150217"},{"town":"腹太町","koaza":"","lat":34.567025,"lng":136.614795,"zip":"5150125"},{"town":"日丘町","koaza":"","lat":34.564297,"lng":136.491367,"zip":"5150835"},{"town":"東久保町","koaza":"","lat":34.582973,"lng":136.589386,"zip":"5150121"},{"town":"東黒部町","koaza":"","lat":34.594285,"lng":136.596591,"zip":"5150101"},{"town":"東町","koaza":"","lat":34.575522,"lng":136.551046,"zip":"5150012"},{"town":"光町","koaza":"","lat":34.548554,"lng":136.515653,"zip":"5150051"},{"town":"挽木町","koaza":"","lat":34.572301,"lng":136.537949,"zip":"5150038"},{"town":"日野町","koaza":"","lat":34.574916,"lng":136.533059,"zip":"5150084"},{"town":"平生町","koaza":"","lat":34.571805,"lng":136.534612,"zip":"5150036"},{"town":"肥留町","koaza":"","lat":34.638333,"lng":136.511166,"zip":"5152105"},{"town":"広瀬町","koaza":"","lat":34.508479,"lng":136.482637,"zip":"5151201"},{"town":"深長町","koaza":"","lat":34.576993,"lng":136.48965,"zip":"5150846"},{"town":"藤之木町","koaza":"","lat":34.56174,"lng":136.495653,"zip":"5150825"},{"town":"船江町","koaza":"","lat":34.590712,"lng":136.521282,"zip":"5150812"},{"town":"平成町","koaza":"","lat":34.555141,"lng":136.493934,"zip":"5150824"},{"town":"法田町","koaza":"","lat":34.52719,"lng":136.580618,"zip":"5150214"},{"town":"保津町","koaza":"","lat":34.571293,"lng":136.60521,"zip":"5150124"},{"town":"星合町","koaza":"","lat":34.641055,"lng":136.529234,"zip":"5152101"},{"town":"本町","koaza":"","lat":34.580363,"lng":136.530611,"zip":"5150081"},{"town":"舞出町","koaza":"","lat":34.645794,"lng":136.497324,"zip":"5152107"},{"town":"駅部田町","koaza":"","lat":34.554792,"lng":136.528063,"zip":"5150045"},{"town":"曲町","koaza":"","lat":34.583868,"lng":136.505807,"zip":"5150841"},{"town":"町平尾町","koaza":"","lat":34.600565,"lng":136.540558,"zip":"5150803"},{"town":"松ヶ島町","koaza":"","lat":34.603695,"lng":136.52832,"zip":"5150000"},{"town":"松崎浦町","koaza":"","lat":34.609554,"lng":136.521911,"zip":"5152132"},{"town":"松名瀬町","koaza":"","lat":34.597999,"lng":136.584546,"zip":"5150102"},{"town":"御麻生薗町","koaza":"","lat":34.509562,"lng":136.497573,"zip":"5192148"},{"town":"湊町","koaza":"","lat":34.572454,"lng":136.53382,"zip":"5150085"},{"town":"南虹が丘町","koaza":"","lat":34.53767,"lng":136.554564,"zip":"5150046"},{"town":"南町","koaza":"","lat":34.567918,"lng":136.534152,"zip":"5150034"},{"town":"美濃田町","koaza":"","lat":34.58851,"lng":136.491584,"zip":"5152344"},{"town":"宮町","koaza":"","lat":34.576235,"lng":136.543565,"zip":"5150015"},{"town":"目田町","koaza":"","lat":34.538484,"lng":136.586009,"zip":"5150216"},{"town":"萌木町","koaza":"","lat":34.539421,"lng":136.535913,"zip":"5150087"},{"town":"八重田町","koaza":"","lat":34.570227,"lng":136.491749,"zip":"5150844"},{"town":"矢津町","koaza":"","lat":34.52966,"lng":136.465344,"zip":"5151102"},{"town":"山下町","koaza":"","lat":34.542829,"lng":136.573888,"zip":"5150206"},{"town":"山添町","koaza":"","lat":34.530614,"lng":136.568301,"zip":"5150208"},{"town":"山室町","koaza":"","lat":34.532289,"lng":136.511332,"zip":"5150052"},{"town":"柚原町","koaza":"","lat":34.524322,"lng":136.384484,"zip":"5152414"},{"town":"岩内町","koaza":"","lat":34.570836,"lng":136.449379,"zip":"5150847"},{"town":"横地町","koaza":"","lat":34.53199,"lng":136.582005,"zip":"5150215"},{"town":"与原町","koaza":"","lat":34.555572,"lng":136.423196,"zip":"5152411"},{"town":"猟師町","koaza":"","lat":34.604031,"lng":136.548479,"zip":"5150802"},{"town":"蓮花寺町","koaza":"","lat":34.582887,"lng":136.599393,"zip":"5150115"},{"town":"六呂木町","koaza":"","lat":34.499229,"lng":136.445275,"zip":"5151203"},{"town":"六軒町","koaza":"","lat":34.611766,"lng":136.510304,"zip":"5152131"},{"town":"六根町","koaza":"","lat":34.565299,"lng":136.604215,"zip":"5150127"},{"town":"若葉町","koaza":"","lat":34.581012,"lng":136.543689,"zip":"5150014"},{"town":"和屋町","koaza":"","lat":34.557028,"lng":136.576639,"zip":"5150025"},{"town":"山室町","koaza":"西ノ谷","lat":34.530442,"lng":136.501956,"zip":"5150052"},{"town":"川井町","koaza":"小望","lat":34.582044,"lng":136.510993,"zip":"5150818"},{"town":"塚本町","koaza":"下箱","lat":34.596947,"lng":136.520483,"zip":"5150811"},{"town":"塚本町","koaza":"上箱","lat":34.596154,"lng":136.520923,"zip":"5150811"},{"town":"船江町","koaza":"花田","lat":34.591399,"lng":136.522851,"zip":"5150812"},{"town":"大黒田町","koaza":"宮堀","lat":34.564156,"lng":136.528511,"zip":"5150063"},{"town":"鎌田町","koaza":"西沖","lat":34.585462,"lng":136.531412,"zip":"5150005"},{"town":"高町","koaza":"西林","lat":34.581212,"lng":136.54857,"zip":"5150011"},{"town":"朝田町","koaza":"七見","lat":34.562382,"lng":136.565626,"zip":"5150027"},{"town":"久米町","koaza":"長井","lat":34.601138,"lng":136.517701,"zip":"5152122"},{"town":"川井町","koaza":"添田","lat":34.587392,"lng":136.525635,"zip":"5150818"},{"town":"船江町","koaza":"道慶田","lat":34.589394,"lng":136.52431,"zip":"5150812"},{"town":"船江町","koaza":"鈴御堂","lat":34.589575,"lng":136.525801,"zip":"5150812"},{"town":"久保田町","koaza":"南沖","lat":34.585462,"lng":136.530148,"zip":"5150814"},{"town":"高町","koaza":"北浦","lat":34.587844,"lng":136.550907,"zip":"5150011"},{"town":"田村町","koaza":"六才","lat":34.559472,"lng":136.51428,"zip":"5150055"},{"town":"山室町","koaza":"七反田","lat":34.544126,"lng":136.526927,"zip":"5150052"}]