[{"town":"大字和泉","koaza":"","lat":35.081179,"lng":136.741673,"zip":"4980000"},{"town":"大字近江島","koaza":"","lat":35.079219,"lng":136.725664,"zip":"4980000"},{"town":"大字和富","koaza":"","lat":35.073032,"lng":136.751263,"zip":"4980000"},{"town":"大字加路戸","koaza":"","lat":35.092234,"lng":136.72357,"zip":"4980000"},{"town":"大字雁ヶ地","koaza":"","lat":35.067912,"lng":136.72991,"zip":"4980000"},{"town":"大字見入","koaza":"","lat":35.091184,"lng":136.732613,"zip":"4980000"},{"town":"大字見入流作","koaza":"","lat":35.097186,"lng":136.729508,"zip":"4980000"},{"town":"大字源緑輪中","koaza":"","lat":35.055332,"lng":136.742089,"zip":"4980000"},{"town":"大字小和泉","koaza":"","lat":35.077638,"lng":136.736839,"zip":"4980000"},{"town":"大字小林","koaza":"","lat":35.079723,"lng":136.733328,"zip":"4980000"},{"town":"大字栄","koaza":"","lat":35.070323,"lng":136.739064,"zip":"4980000"},{"town":"大字新加路戸","koaza":"","lat":35.094416,"lng":136.733414,"zip":"4980000"},{"town":"大字外平喜","koaza":"","lat":35.086484,"lng":136.729663,"zip":"4980000"},{"town":"大字田代","koaza":"","lat":35.072094,"lng":136.728418,"zip":"4980000"},{"town":"大字富田子","koaza":"","lat":35.072043,"lng":136.749058,"zip":"4980000"},{"town":"大字中和泉","koaza":"","lat":35.073115,"lng":136.744845,"zip":"4980000"},{"town":"大字西対海地","koaza":"","lat":35.078349,"lng":136.729521,"zip":"4980000"},{"town":"大字白鷺","koaza":"","lat":35.06282,"lng":136.743466,"zip":"4980000"},{"town":"大字松永","koaza":"","lat":35.063919,"lng":136.737536,"zip":"4980000"},{"town":"大字三崎","koaza":"","lat":35.064799,"lng":136.742445,"zip":"4980000"},{"town":"新輪一丁目","koaza":"","lat":35.046414,"lng":136.750562,"zip":"4980824"},{"town":"新輪二丁目","koaza":"","lat":35.027568,"lng":136.763386,"zip":"4980824"}]