[{"town":"相生町","koaza":"","lat":35.066637,"lng":136.692448,"zip":"5110016"},{"town":"相川町","koaza":"","lat":35.057799,"lng":136.685895,"zip":"5110052"},{"town":"青葉町一丁目","koaza":"","lat":35.067574,"lng":136.673935,"zip":"5110817"},{"town":"青葉町二丁目","koaza":"","lat":35.068166,"lng":136.673128,"zip":"5110817"},{"town":"赤尾台一丁目","koaza":"","lat":35.051138,"lng":136.624082,"zip":"5110935"},{"town":"赤尾台二丁目","koaza":"","lat":35.049895,"lng":136.623219,"zip":"5110935"},{"town":"赤尾台三丁目","koaza":"","lat":35.048822,"lng":136.624583,"zip":"5110935"},{"town":"赤尾台四丁目","koaza":"","lat":35.047673,"lng":136.622045,"zip":"5110935"},{"town":"赤尾台五丁目","koaza":"","lat":35.047142,"lng":136.623783,"zip":"5110935"},{"town":"赤尾台六丁目","koaza":"","lat":35.046985,"lng":136.626606,"zip":"5110935"},{"town":"赤尾台七丁目","koaza":"","lat":35.048522,"lng":136.626961,"zip":"5110935"},{"town":"赤尾台八丁目","koaza":"","lat":35.05012,"lng":136.627296,"zip":"5110935"},{"town":"赤尾台九丁目","koaza":"","lat":35.051561,"lng":136.626077,"zip":"5110935"},{"town":"油町","koaza":"","lat":35.064437,"lng":136.694404,"zip":"5110084"},{"town":"伊賀町","koaza":"","lat":35.059468,"lng":136.699104,"zip":"5110036"},{"town":"一色町","koaza":"","lat":35.059309,"lng":136.68963,"zip":"5110046"},{"town":"今片町","koaza":"","lat":35.067428,"lng":136.691405,"zip":"5110017"},{"town":"今北町","koaza":"","lat":35.068567,"lng":136.691235,"zip":"5110006"},{"town":"今中町","koaza":"","lat":35.068165,"lng":136.690323,"zip":"5110018"},{"town":"入江葭町","koaza":"","lat":35.061252,"lng":136.692438,"zip":"5110086"},{"town":"内堀","koaza":"","lat":35.061777,"lng":136.694865,"zip":"5110038"},{"town":"馬道一丁目","koaza":"","lat":35.059303,"lng":136.680713,"zip":"5110822"},{"town":"梅園通","koaza":"","lat":35.066499,"lng":136.673102,"zip":"5110815"},{"town":"駅元町","koaza":"","lat":35.068353,"lng":136.685648,"zip":"5110071"},{"town":"江戸町","koaza":"","lat":35.066048,"lng":136.696287,"zip":"5110022"},{"town":"大字赤須賀","koaza":"","lat":35.059548,"lng":136.702423,"zip":"5110000"},{"town":"大字赤尾","koaza":"","lat":35.050952,"lng":136.629362,"zip":"5110000"},{"town":"大字今島","koaza":"","lat":35.110954,"lng":136.66239,"zip":"5110000"},{"town":"大字上野","koaza":"","lat":35.062858,"lng":136.666543,"zip":"5110000"},{"town":"大字江場","koaza":"","lat":35.051222,"lng":136.692204,"zip":"5110000"},{"town":"大字大貝須","koaza":"","lat":35.040263,"lng":136.69676,"zip":"5110000"},{"town":"大字大仲新田","koaza":"","lat":35.078879,"lng":136.610151,"zip":"5110000"},{"town":"大字尾野山","koaza":"","lat":35.065406,"lng":136.67925,"zip":"5110000"},{"town":"大字蛎塚新田","koaza":"","lat":35.08637,"lng":136.663957,"zip":"5110000"},{"town":"大字上之輪新田","koaza":"","lat":35.084007,"lng":136.683589,"zip":"5110000"},{"town":"大字上深谷部","koaza":"","lat":35.106655,"lng":136.652994,"zip":"5110000"},{"town":"大字萱町","koaza":"","lat":35.031723,"lng":136.695891,"zip":"5110000"},{"town":"大字嘉例川","koaza":"","lat":35.086959,"lng":136.619114,"zip":"5110000"},{"town":"大字北別所","koaza":"","lat":35.071055,"lng":136.674169,"zip":"5110000"},{"town":"大字桑名","koaza":"","lat":35.072865,"lng":136.691952,"zip":"5110000"},{"town":"大字桑部","koaza":"","lat":35.048519,"lng":136.648826,"zip":"5110000"},{"town":"大字小貝須","koaza":"","lat":35.050991,"lng":136.699194,"zip":"5110000"},{"town":"大字坂井","koaza":"","lat":35.059273,"lng":136.63146,"zip":"5110000"},{"town":"大字繁松新田","koaza":"","lat":35.055027,"lng":136.673282,"zip":"5110000"},{"town":"大字地蔵","koaza":"","lat":35.053256,"lng":136.703612,"zip":"5110000"},{"town":"大字志知","koaza":"","lat":35.053421,"lng":136.609417,"zip":"5110000"},{"town":"大字島田","koaza":"","lat":35.054085,"lng":136.620913,"zip":"5110000"},{"town":"大字下深谷部","koaza":"","lat":35.095879,"lng":136.65711,"zip":"5110000"},{"town":"大字大福","koaza":"","lat":35.051818,"lng":136.685771,"zip":"5110000"},{"town":"大字太平町","koaza":"","lat":35.032251,"lng":136.706222,"zip":"5110000"},{"town":"大字立田町","koaza":"","lat":35.041913,"lng":136.704992,"zip":"5110000"},{"town":"大字太夫","koaza":"","lat":35.06413,"lng":136.667524,"zip":"5110000"},{"town":"大字西方","koaza":"","lat":35.074007,"lng":136.665192,"zip":"5110000"},{"town":"大字西金井","koaza":"","lat":35.050531,"lng":136.662636,"zip":"5110000"},{"town":"大字西別所","koaza":"","lat":35.063117,"lng":136.660236,"zip":"5110000"},{"town":"大字西汰上","koaza":"","lat":35.085944,"lng":136.671348,"zip":"5110000"},{"town":"大字額田","koaza":"","lat":35.067009,"lng":136.639182,"zip":"5110000"},{"town":"大字能部","koaza":"","lat":35.051716,"lng":136.636818,"zip":"5110000"},{"town":"大字芳ケ崎","koaza":"","lat":35.071954,"lng":136.617833,"zip":"5110000"},{"town":"大字播磨","koaza":"","lat":35.086125,"lng":136.654318,"zip":"5110000"},{"town":"大字稗田","koaza":"","lat":35.055826,"lng":136.658183,"zip":"5110000"},{"town":"大字東方","koaza":"","lat":35.07058,"lng":136.680518,"zip":"5110000"},{"town":"大字東金井","koaza":"","lat":35.050738,"lng":136.670729,"zip":"5110000"},{"town":"大字東野","koaza":"","lat":35.057393,"lng":136.697226,"zip":"5110000"},{"town":"大字東汰上","koaza":"","lat":35.086188,"lng":136.67533,"zip":"5110000"},{"town":"大字福江","koaza":"","lat":35.033582,"lng":136.695504,"zip":"5110000"},{"town":"大字福岡町","koaza":"","lat":35.026933,"lng":136.705463,"zip":"5110000"},{"town":"大字福島","koaza":"","lat":35.076557,"lng":136.688982,"zip":"5110000"},{"town":"大字福地","koaza":"","lat":35.033128,"lng":136.699461,"zip":"5110000"},{"town":"大字本願寺","koaza":"","lat":35.054985,"lng":136.689105,"zip":"5110000"},{"town":"大字増田","koaza":"","lat":35.056475,"lng":136.64634,"zip":"5110000"},{"town":"大字森忠","koaza":"","lat":35.07236,"lng":136.623513,"zip":"5110000"},{"town":"大字安永","koaza":"","lat":35.04987,"lng":136.679549,"zip":"5110000"},{"town":"大字矢田","koaza":"","lat":35.059386,"lng":136.678553,"zip":"5110000"},{"town":"大字蓮花寺","koaza":"","lat":35.066413,"lng":136.650328,"zip":"5110000"},{"town":"大山田一丁目","koaza":"","lat":35.078884,"lng":136.640439,"zip":"5110903"},{"town":"大山田二丁目","koaza":"","lat":35.08138,"lng":136.639627,"zip":"5110903"},{"town":"大山田三丁目","koaza":"","lat":35.083281,"lng":136.638831,"zip":"5110903"},{"town":"大山田四丁目","koaza":"","lat":35.084756,"lng":136.633663,"zip":"5110903"},{"town":"大山田五丁目","koaza":"","lat":35.08311,"lng":136.634254,"zip":"5110903"},{"town":"大山田六丁目","koaza":"","lat":35.081366,"lng":136.637078,"zip":"5110903"},{"town":"大山田七丁目","koaza":"","lat":35.080852,"lng":136.635242,"zip":"5110903"},{"town":"大山田八丁目","koaza":"","lat":35.078665,"lng":136.637355,"zip":"5110903"},{"town":"神楽町一丁目","koaza":"","lat":35.0631,"lng":136.670358,"zip":"5110829"},{"town":"神楽町二丁目","koaza":"","lat":35.062377,"lng":136.670357,"zip":"5110829"},{"town":"掛樋","koaza":"","lat":35.057837,"lng":136.688155,"zip":"5110067"},{"town":"鍜冶町","koaza":"","lat":35.061179,"lng":136.691009,"zip":"5110047"},{"town":"春日町","koaza":"","lat":35.067819,"lng":136.694566,"zip":"5110012"},{"town":"霞町一丁目","koaza":"","lat":35.064172,"lng":136.670334,"zip":"5110827"},{"town":"霞町二丁目","koaza":"","lat":35.063596,"lng":136.670953,"zip":"5110827"},{"town":"片町","koaza":"","lat":35.064259,"lng":136.695726,"zip":"5110081"},{"town":"川口町","koaza":"","lat":35.067353,"lng":136.696462,"zip":"5110021"},{"town":"川崎町","koaza":"","lat":35.099307,"lng":136.665601,"zip":"5110802"},{"town":"北魚町","koaza":"","lat":35.066181,"lng":136.69502,"zip":"5110024"},{"town":"北川原台","koaza":"","lat":35.099364,"lng":136.662991,"zip":"5110804"},{"town":"北寺町","koaza":"","lat":35.066185,"lng":136.691684,"zip":"5110073"},{"town":"北鍋屋町","koaza":"","lat":35.059335,"lng":136.687549,"zip":"5110066"},{"town":"京橋町","koaza":"","lat":35.063462,"lng":136.69195,"zip":"5110063"},{"town":"京町","koaza":"","lat":35.063391,"lng":136.693991,"zip":"5110039"},{"town":"清竹の丘","koaza":"","lat":35.073868,"lng":136.669418,"zip":"5110810"},{"town":"寿町一丁目","koaza":"","lat":35.066503,"lng":136.686407,"zip":"5110061"},{"town":"寿町二丁目","koaza":"","lat":35.06555,"lng":136.685213,"zip":"5110061"},{"town":"寿町三丁目","koaza":"","lat":35.065614,"lng":136.687882,"zip":"5110061"},{"town":"紺屋町","koaza":"","lat":35.062524,"lng":136.692976,"zip":"5110085"},{"town":"桜通","koaza":"","lat":35.064927,"lng":136.674049,"zip":"5110813"},{"town":"里町","koaza":"","lat":35.06536,"lng":136.623063,"zip":"5110913"},{"town":"三栄町","koaza":"","lat":35.065642,"lng":136.69023,"zip":"5110075"},{"town":"参宮通","koaza":"","lat":35.068957,"lng":136.687888,"zip":"5110007"},{"town":"三之丸","koaza":"","lat":35.066185,"lng":136.69699,"zip":"5110031"},{"town":"汐見町一丁目","koaza":"","lat":35.067026,"lng":136.672194,"zip":"5110816"},{"town":"汐見町二丁目","koaza":"","lat":35.067515,"lng":136.672019,"zip":"5110816"},{"town":"汐見町三丁目","koaza":"","lat":35.067367,"lng":136.669932,"zip":"5110816"},{"town":"清水町","koaza":"","lat":35.067774,"lng":136.692965,"zip":"5110019"},{"town":"職人町","koaza":"","lat":35.064383,"lng":136.694723,"zip":"5110083"},{"town":"城山台","koaza":"","lat":35.051339,"lng":136.656515,"zip":"5110924"},{"town":"新倉持","koaza":"","lat":35.060105,"lng":136.664295,"zip":"5110855"},{"town":"神成町一丁目","koaza":"","lat":35.073929,"lng":136.675885,"zip":"5110866"},{"town":"神成町二丁目","koaza":"","lat":35.07511,"lng":136.676256,"zip":"5110866"},{"town":"新地","koaza":"","lat":35.056679,"lng":136.679915,"zip":"5110832"},{"town":"新築町","koaza":"","lat":35.063314,"lng":136.690511,"zip":"5110064"},{"town":"新西方一丁目","koaza":"","lat":35.072209,"lng":136.662932,"zip":"5110863"},{"town":"新西方二丁目","koaza":"","lat":35.073576,"lng":136.659779,"zip":"5110863"},{"town":"新西方三丁目","koaza":"","lat":35.074384,"lng":136.656448,"zip":"5110863"},{"town":"新西方四丁目","koaza":"","lat":35.070542,"lng":136.656132,"zip":"5110863"},{"town":"新西方五丁目","koaza":"","lat":35.070134,"lng":136.658452,"zip":"5110863"},{"town":"新西方六丁目","koaza":"","lat":35.068962,"lng":136.660332,"zip":"5110863"},{"town":"新西方七丁目","koaza":"","lat":35.066768,"lng":136.660311,"zip":"5110863"},{"town":"新町","koaza":"","lat":35.059415,"lng":136.691252,"zip":"5110048"},{"town":"新屋敷","koaza":"","lat":35.05723,"lng":136.692772,"zip":"5110043"},{"town":"新矢田一丁目","koaza":"","lat":35.059662,"lng":136.682235,"zip":"5110069"},{"town":"新矢田二丁目","koaza":"","lat":35.060905,"lng":136.683652,"zip":"5110069"},{"town":"末広町","koaza":"","lat":35.067105,"lng":136.688211,"zip":"5110077"},{"town":"住吉町","koaza":"","lat":35.069647,"lng":136.694428,"zip":"5110004"},{"town":"船馬町","koaza":"","lat":35.068721,"lng":136.695657,"zip":"5110011"},{"town":"桑栄町","koaza":"","lat":35.066694,"lng":136.684726,"zip":"5110078"},{"town":"外堀","koaza":"","lat":35.060038,"lng":136.694479,"zip":"5110041"},{"town":"大央町","koaza":"","lat":35.061482,"lng":136.689876,"zip":"5110065"},{"town":"太一丸","koaza":"","lat":35.070127,"lng":136.69248,"zip":"5110005"},{"town":"高塚町一丁目","koaza":"","lat":35.070148,"lng":136.673231,"zip":"5110818"},{"town":"高塚町二丁目","koaza":"","lat":35.072037,"lng":136.673133,"zip":"5110818"},{"town":"高塚町三丁目","koaza":"","lat":35.070594,"lng":136.671678,"zip":"5110818"},{"town":"高塚町四丁目","koaza":"","lat":35.072254,"lng":136.671532,"zip":"5110818"},{"town":"高塚町五丁目","koaza":"","lat":35.070711,"lng":136.670179,"zip":"5110818"},{"town":"高塚町六丁目","koaza":"","lat":35.071347,"lng":136.668858,"zip":"5110818"},{"town":"立花町一丁目","koaza":"","lat":35.063923,"lng":136.673931,"zip":"5110828"},{"town":"立花町二丁目","koaza":"","lat":35.063103,"lng":136.673893,"zip":"5110828"},{"town":"多度町猪飼","koaza":"","lat":35.119193,"lng":136.623021,"zip":"5110124"},{"town":"多度町大鳥居","koaza":"","lat":35.120908,"lng":136.66157,"zip":"5110116"},{"town":"多度町小山","koaza":"","lat":35.12847,"lng":136.636589,"zip":"5110105"},{"town":"多度町香取","koaza":"","lat":35.136433,"lng":136.652348,"zip":"5110102"},{"town":"多度町上之郷","koaza":"","lat":35.13748,"lng":136.661221,"zip":"5110113"},{"town":"多度町北猪飼","koaza":"","lat":35.122927,"lng":136.617131,"zip":"5110123"},{"town":"多度町古野","koaza":"","lat":35.143991,"lng":136.599657,"zip":"5110122"},{"town":"多度町下野代","koaza":"","lat":35.115377,"lng":136.648941,"zip":"5110117"},{"town":"多度町多度","koaza":"","lat":35.147652,"lng":136.614122,"zip":"5110106"},{"town":"多度町多度一丁目","koaza":"","lat":35.132378,"lng":136.631436,"zip":"5110106"},{"town":"多度町多度二丁目","koaza":"","lat":35.130332,"lng":136.630406,"zip":"5110106"},{"town":"多度町力尾","koaza":"","lat":35.106507,"lng":136.613616,"zip":"5110125"},{"town":"多度町戸津","koaza":"","lat":35.132559,"lng":136.644894,"zip":"5110103"},{"town":"多度町中須","koaza":"","lat":35.129011,"lng":136.657128,"zip":"5110114"},{"town":"多度町東平賀","koaza":"","lat":35.162513,"lng":136.646203,"zip":"5110000"},{"town":"多度町肱江","koaza":"","lat":35.125468,"lng":136.648791,"zip":"5110104"},{"town":"多度町平古","koaza":"","lat":35.158204,"lng":136.6514,"zip":"5110111"},{"town":"多度町美鹿","koaza":"","lat":35.155117,"lng":136.584837,"zip":"5110121"},{"town":"多度町福永","koaza":"","lat":35.146287,"lng":136.65497,"zip":"5110112"},{"town":"多度町御衣野","koaza":"","lat":35.108227,"lng":136.633078,"zip":"5110118"},{"town":"多度町南之郷","koaza":"","lat":35.127902,"lng":136.666455,"zip":"5110115"},{"town":"多度町柚井","koaza":"","lat":35.142449,"lng":136.635051,"zip":"5110101"},{"town":"田町","koaza":"","lat":35.065872,"lng":136.694127,"zip":"5110089"},{"town":"中央町一丁目","koaza":"","lat":35.064079,"lng":136.684353,"zip":"5110068"},{"town":"中央町二丁目","koaza":"","lat":35.062566,"lng":136.684038,"zip":"5110068"},{"town":"中央町三丁目","koaza":"","lat":35.063602,"lng":136.687832,"zip":"5110068"},{"town":"中央町四丁目","koaza":"","lat":35.062105,"lng":136.687395,"zip":"5110068"},{"town":"中央町五丁目","koaza":"","lat":35.060611,"lng":136.686689,"zip":"5110068"},{"town":"千代田町","koaza":"","lat":35.059186,"lng":136.683896,"zip":"5110058"},{"town":"筒尾一丁目","koaza":"","lat":35.078726,"lng":136.649092,"zip":"5110901"},{"town":"筒尾二丁目","koaza":"","lat":35.080018,"lng":136.649706,"zip":"5110901"},{"town":"筒尾三丁目","koaza":"","lat":35.081743,"lng":136.651546,"zip":"5110901"},{"town":"筒尾四丁目","koaza":"","lat":35.082635,"lng":136.648352,"zip":"5110901"},{"town":"筒尾五丁目","koaza":"","lat":35.083427,"lng":136.643845,"zip":"5110901"},{"town":"筒尾六丁目","koaza":"","lat":35.081921,"lng":136.646027,"zip":"5110901"},{"town":"筒尾七丁目","koaza":"","lat":35.082119,"lng":136.642871,"zip":"5110901"},{"town":"筒尾八丁目","koaza":"","lat":35.079901,"lng":136.643206,"zip":"5110901"},{"town":"筒尾九丁目","koaza":"","lat":35.079873,"lng":136.646004,"zip":"5110901"},{"town":"堤原","koaza":"","lat":35.06775,"lng":136.689205,"zip":"5110072"},{"town":"伝馬町","koaza":"","lat":35.056892,"lng":136.689399,"zip":"5110045"},{"town":"常盤町","koaza":"","lat":35.064724,"lng":136.690308,"zip":"5110062"},{"town":"殿町","koaza":"","lat":35.066241,"lng":136.693137,"zip":"5110015"},{"town":"長島町赤地","koaza":"","lat":35.069857,"lng":136.713042,"zip":"5111131"},{"town":"長島町浦安","koaza":"","lat":35.030585,"lng":136.732281,"zip":"5111135"},{"town":"長島町老松","koaza":"","lat":35.039747,"lng":136.749632,"zip":"5110000"},{"town":"長島町大倉","koaza":"","lat":35.107328,"lng":136.701399,"zip":"5111112"},{"town":"長島町大島","koaza":"","lat":35.075518,"lng":136.706533,"zip":"5111145"},{"town":"長島町押付","koaza":"","lat":35.102675,"lng":136.704382,"zip":"5111113"},{"town":"長島町鎌ケ地","koaza":"","lat":35.081609,"lng":136.71393,"zip":"5111123"},{"town":"長島町上坂手","koaza":"","lat":35.1186,"lng":136.676929,"zip":"5111107"},{"town":"長島町北殿名","koaza":"","lat":35.103858,"lng":136.702863,"zip":"5111148"},{"town":"長島町源部外面","koaza":"","lat":35.086942,"lng":136.708329,"zip":"5111125"},{"town":"長島町高座","koaza":"","lat":35.108276,"lng":136.687908,"zip":"5111104"},{"town":"長島町小島","koaza":"","lat":35.111192,"lng":136.701611,"zip":"5111111"},{"town":"長島町駒江","koaza":"","lat":35.080822,"lng":136.704009,"zip":"5111144"},{"town":"長島町下坂手","koaza":"","lat":35.112554,"lng":136.676035,"zip":"5111106"},{"town":"長島町新所","koaza":"","lat":35.1231,"lng":136.684405,"zip":"5111101"},{"town":"長島町杉江","koaza":"","lat":35.121903,"lng":136.67877,"zip":"5111108"},{"town":"長島町千倉","koaza":"","lat":35.102584,"lng":136.680154,"zip":"5111105"},{"town":"長島町出口","koaza":"","lat":35.10192,"lng":136.697292,"zip":"5111142"},{"town":"長島町十日外面","koaza":"","lat":35.084329,"lng":136.697529,"zip":"5111146"},{"town":"長島町殿名","koaza":"","lat":35.095675,"lng":136.706495,"zip":"5111127"},{"town":"長島町中川","koaza":"","lat":35.114552,"lng":136.69088,"zip":"5111103"},{"town":"長島町長島萱町","koaza":"","lat":35.094475,"lng":136.700925,"zip":"5111116"},{"town":"長島町長島下町","koaza":"","lat":35.092345,"lng":136.700082,"zip":"5111114"},{"town":"長島町長島中町","koaza":"","lat":35.093421,"lng":136.700093,"zip":"5111115"},{"town":"長島町西川","koaza":"","lat":35.116896,"lng":136.686028,"zip":"5111102"},{"town":"長島町西外面","koaza":"","lat":35.093864,"lng":136.68998,"zip":"5111143"},{"town":"長島町西外面市街","koaza":"","lat":35.092392,"lng":136.699188,"zip":"5111149"},{"town":"長島町白鶏","koaza":"","lat":35.04381,"lng":136.719317,"zip":"5111136"},{"town":"長島町東殿名","koaza":"","lat":35.09736,"lng":136.711405,"zip":"5111121"},{"town":"長島町平方","koaza":"","lat":35.102206,"lng":136.689071,"zip":"5111147"},{"town":"長島町福豊","koaza":"","lat":35.06435,"lng":136.715326,"zip":"5111132"},{"town":"長島町福吉","koaza":"","lat":35.055255,"lng":136.716615,"zip":"5111137"},{"town":"長島町又木","koaza":"","lat":35.093677,"lng":136.703353,"zip":"5111126"},{"town":"長島町又木市街","koaza":"","lat":35.094597,"lng":136.699565,"zip":"5111128"},{"town":"長島町松蔭","koaza":"","lat":35.038525,"lng":136.732045,"zip":"5111134"},{"town":"長島町松ケ島","koaza":"","lat":35.088559,"lng":136.713112,"zip":"5111122"},{"town":"長島町松之木","koaza":"","lat":35.128931,"lng":136.673663,"zip":"5111109"},{"town":"長島町間々","koaza":"","lat":35.106835,"lng":136.692719,"zip":"5111141"},{"town":"長島町横満蔵","koaza":"","lat":35.053392,"lng":136.727528,"zip":"5111133"},{"town":"長島町葭ケ須","koaza":"","lat":35.077011,"lng":136.715532,"zip":"5111124"},{"town":"中山町","koaza":"","lat":35.068199,"lng":136.624314,"zip":"5110914"},{"town":"西正和台一丁目","koaza":"","lat":35.051407,"lng":136.631726,"zip":"5110933"},{"town":"西正和台二丁目","koaza":"","lat":35.050017,"lng":136.632587,"zip":"5110933"},{"town":"西正和台三丁目","koaza":"","lat":35.04965,"lng":136.630787,"zip":"5110933"},{"town":"西正和台四丁目","koaza":"","lat":35.048646,"lng":136.631181,"zip":"5110933"},{"town":"西正和台五丁目","koaza":"","lat":35.048012,"lng":136.631903,"zip":"5110933"},{"town":"西鍋屋町","koaza":"","lat":35.056664,"lng":136.68706,"zip":"5110054"},{"town":"西矢田町","koaza":"","lat":35.057352,"lng":136.683156,"zip":"5110056"},{"town":"野田一丁目","koaza":"","lat":35.078433,"lng":136.633607,"zip":"5110904"},{"town":"野田二丁目","koaza":"","lat":35.079889,"lng":136.632963,"zip":"5110904"},{"town":"野田三丁目","koaza":"","lat":35.08167,"lng":136.631383,"zip":"5110904"},{"town":"野田四丁目","koaza":"","lat":35.083859,"lng":136.630139,"zip":"5110904"},{"town":"野田五丁目","koaza":"","lat":35.081305,"lng":136.628627,"zip":"5110904"},{"town":"野田六丁目","koaza":"","lat":35.078336,"lng":136.629939,"zip":"5110904"},{"town":"蓮見町","koaza":"","lat":35.069546,"lng":136.689814,"zip":"5110008"},{"town":"八間通","koaza":"","lat":35.06669,"lng":136.690255,"zip":"5110076"},{"town":"八幡町","koaza":"","lat":35.05905,"lng":136.693536,"zip":"5110049"},{"town":"東正和台一丁目","koaza":"","lat":35.050999,"lng":136.633441,"zip":"5110932"},{"town":"東正和台二丁目","koaza":"","lat":35.048386,"lng":136.633566,"zip":"5110932"},{"town":"東正和台三丁目","koaza":"","lat":35.047374,"lng":136.635256,"zip":"5110932"},{"town":"東正和台四丁目","koaza":"","lat":35.049096,"lng":136.635849,"zip":"5110932"},{"town":"東正和台五丁目","koaza":"","lat":35.050666,"lng":136.637779,"zip":"5110932"},{"town":"東正和台六丁目","koaza":"","lat":35.049287,"lng":136.637869,"zip":"5110932"},{"town":"東正和台七丁目","koaza":"","lat":35.048233,"lng":136.637944,"zip":"5110932"},{"town":"東太一丸","koaza":"","lat":35.071942,"lng":136.692632,"zip":"5110003"},{"town":"東鍋屋町","koaza":"","lat":35.055769,"lng":136.688584,"zip":"5110053"},{"town":"東矢田町","koaza":"","lat":35.057142,"lng":136.685102,"zip":"5110055"},{"town":"陽だまりの丘一丁目","koaza":"","lat":35.085973,"lng":136.648477,"zip":"5110867"},{"town":"陽だまりの丘二丁目","koaza":"","lat":35.086456,"lng":136.643827,"zip":"5110867"},{"town":"陽だまりの丘三丁目","koaza":"","lat":35.091189,"lng":136.64383,"zip":"5110867"},{"town":"陽だまりの丘四丁目","koaza":"","lat":35.090055,"lng":136.639782,"zip":"5110867"},{"town":"陽だまりの丘五丁目","koaza":"","lat":35.093327,"lng":136.636651,"zip":"5110867"},{"town":"陽だまりの丘六丁目","koaza":"","lat":35.090902,"lng":136.635888,"zip":"5110867"},{"town":"陽だまりの丘七丁目","koaza":"","lat":35.08706,"lng":136.638117,"zip":"5110867"},{"town":"陽だまりの丘八丁目","koaza":"","lat":35.085712,"lng":136.63547,"zip":"5110867"},{"town":"枇杷島台","koaza":"","lat":35.09964,"lng":136.66456,"zip":"5110803"},{"town":"福江町","koaza":"","lat":35.056611,"lng":136.681491,"zip":"5110833"},{"town":"福島新町","koaza":"","lat":35.077536,"lng":136.682186,"zip":"5110027"},{"town":"藤が丘一丁目","koaza":"","lat":35.077793,"lng":136.654745,"zip":"5110865"},{"town":"藤が丘二丁目","koaza":"","lat":35.080582,"lng":136.653167,"zip":"5110865"},{"town":"藤が丘三丁目","koaza":"","lat":35.077758,"lng":136.652043,"zip":"5110865"},{"town":"藤が丘四丁目","koaza":"","lat":35.075965,"lng":136.650589,"zip":"5110865"},{"town":"藤が丘五丁目","koaza":"","lat":35.073758,"lng":136.649901,"zip":"5110865"},{"town":"藤が丘六丁目","koaza":"","lat":35.07441,"lng":136.647778,"zip":"5110865"},{"town":"藤が丘七丁目","koaza":"","lat":35.072076,"lng":136.647611,"zip":"5110865"},{"town":"藤が丘八丁目","koaza":"","lat":35.072885,"lng":136.650733,"zip":"5110865"},{"town":"藤が丘九丁目","koaza":"","lat":35.075246,"lng":136.653913,"zip":"5110865"},{"town":"風呂町","koaza":"","lat":35.067123,"lng":136.695125,"zip":"5110025"},{"town":"宝殿町","koaza":"","lat":35.067601,"lng":136.693982,"zip":"5110013"},{"town":"星見ヶ丘一丁目","koaza":"","lat":35.075732,"lng":136.635285,"zip":"5110000"},{"town":"星見ヶ丘二丁目","koaza":"","lat":35.075558,"lng":136.632957,"zip":"5110000"},{"town":"星見ヶ丘三丁目","koaza":"","lat":35.075169,"lng":136.630478,"zip":"5110000"},{"town":"星見ヶ丘四丁目","koaza":"","lat":35.071708,"lng":136.62925,"zip":"5110000"},{"town":"星見ヶ丘五丁目","koaza":"","lat":35.069428,"lng":136.630743,"zip":"5110000"},{"town":"星見ヶ丘六丁目","koaza":"","lat":35.067008,"lng":136.633722,"zip":"5110000"},{"town":"星見ヶ丘七丁目","koaza":"","lat":35.06825,"lng":136.63513,"zip":"5110000"},{"town":"星見ヶ丘八丁目","koaza":"","lat":35.071034,"lng":136.634512,"zip":"5110000"},{"town":"星見ヶ丘九丁目","koaza":"","lat":35.073422,"lng":136.634011,"zip":"5110000"},{"town":"本町","koaza":"","lat":35.066657,"lng":136.695701,"zip":"5110023"},{"town":"益生町","koaza":"","lat":35.058068,"lng":136.68022,"zip":"5110831"},{"town":"松並町一丁目","koaza":"","lat":35.065897,"lng":136.675193,"zip":"5110814"},{"town":"松並町二丁目","koaza":"","lat":35.065753,"lng":136.672799,"zip":"5110814"},{"town":"松ノ木一丁目","koaza":"","lat":35.077235,"lng":136.64716,"zip":"5110902"},{"town":"松ノ木二丁目","koaza":"","lat":35.076187,"lng":136.643756,"zip":"5110902"},{"town":"松ノ木三丁目","koaza":"","lat":35.077367,"lng":136.640742,"zip":"5110902"},{"town":"松ノ木四丁目","koaza":"","lat":35.077111,"lng":136.636922,"zip":"5110902"},{"town":"松ノ木五丁目","koaza":"","lat":35.075177,"lng":136.638968,"zip":"5110902"},{"town":"松ノ木六丁目","koaza":"","lat":35.075311,"lng":136.641271,"zip":"5110902"},{"town":"松ノ木七丁目","koaza":"","lat":35.072656,"lng":136.643696,"zip":"5110902"},{"town":"松ノ木八丁目","koaza":"","lat":35.075117,"lng":136.645961,"zip":"5110902"},{"town":"三崎通","koaza":"","lat":35.066758,"lng":136.693722,"zip":"5110014"},{"town":"三ツ矢橋","koaza":"","lat":35.058329,"lng":136.682842,"zip":"5110057"},{"town":"南魚町","koaza":"","lat":35.064828,"lng":136.693742,"zip":"5110088"},{"town":"南寺町","koaza":"","lat":35.06446,"lng":136.692318,"zip":"5110074"},{"town":"宮通","koaza":"","lat":35.064269,"lng":136.695216,"zip":"5110082"},{"town":"宮町","koaza":"","lat":35.067767,"lng":136.695204,"zip":"5110026"},{"town":"明正町","koaza":"","lat":35.058066,"lng":136.675441,"zip":"5110823"},{"town":"元赤須賀","koaza":"","lat":35.061204,"lng":136.699936,"zip":"5110037"},{"town":"矢田磧","koaza":"","lat":35.058902,"lng":136.685509,"zip":"5110051"},{"town":"柳原","koaza":"","lat":35.058747,"lng":136.696262,"zip":"5110042"},{"town":"有楽町","koaza":"","lat":35.067567,"lng":136.685656,"zip":"5110079"},{"town":"吉之丸","koaza":"","lat":35.065605,"lng":136.699735,"zip":"5110032"},{"town":"吉津屋町","koaza":"","lat":35.062755,"lng":136.692304,"zip":"5110087"},{"town":"大字五反田","koaza":"","lat":35.077428,"lng":136.61469,"zip":"5110000"},{"town":"筑紫","koaza":"","lat":35.07214,"lng":136.611522,"zip":"5110945"},{"town":"大字友村","koaza":"","lat":35.058892,"lng":136.624018,"zip":"5110000"},{"town":"巖新田","koaza":"","lat":35.06334,"lng":136.624903,"zip":"5110000"},{"town":"大字星川","koaza":"","lat":35.068843,"lng":136.627199,"zip":"5110000"},{"town":"大字小泉","koaza":"","lat":35.037573,"lng":136.688487,"zip":"5110000"},{"town":"縄生","koaza":"","lat":35.040322,"lng":136.684572,"zip":"5110000"},{"town":"大字和泉","koaza":"","lat":35.043486,"lng":136.686485,"zip":"5110000"},{"town":"大字安永","koaza":"九区割","lat":35.047955,"lng":136.682597,"zip":"5110000"},{"town":"大字江場","koaza":"中野","lat":35.046991,"lng":136.686202,"zip":"5110000"},{"town":"大字大福","koaza":"寺跡","lat":35.051411,"lng":136.686006,"zip":"5110000"},{"town":"大字江場","koaza":"宮乃島","lat":35.052386,"lng":136.690467,"zip":"5110000"},{"town":"大字小貝須","koaza":"新堀北","lat":35.054604,"lng":136.699096,"zip":"5110000"},{"town":"長島町駒江","koaza":"漆畑","lat":35.081675,"lng":136.703312,"zip":"5111144"},{"town":"大字和泉","koaza":"イノ割","lat":35.044387,"lng":136.685213,"zip":"5110000"},{"town":"大字志知","koaza":"東山","lat":35.049327,"lng":136.609843,"zip":"5110000"},{"town":"大字五反田","koaza":"口山","lat":35.081184,"lng":136.617072,"zip":"5110000"},{"town":"多度町柚井","koaza":"境川","lat":35.140033,"lng":136.645752,"zip":"5110101"},{"town":"大字下深谷部","koaza":"山王","lat":35.093742,"lng":136.659868,"zip":"5110000"},{"town":"大字東方","koaza":"尾弓田","lat":35.076621,"lng":136.680377,"zip":"5110000"},{"town":"大字東方","koaza":"福島前","lat":35.075153,"lng":136.682519,"zip":"5110000"},{"town":"さくらの丘","koaza":"","lat":null,"lng":null,"zip":null}]