[{"town":"相生町","koaza":"","lat":34.724247,"lng":136.515009,"zip":"5140017"},{"town":"青葉台一丁目","koaza":"","lat":34.675078,"lng":136.445025,"zip":"5141139"},{"town":"青葉台二丁目","koaza":"","lat":34.674188,"lng":136.440541,"zip":"5141139"},{"town":"阿漕町津興","koaza":"","lat":34.70129,"lng":136.51722,"zip":"5140000"},{"town":"愛宕町","koaza":"","lat":34.724994,"lng":136.51282,"zip":"5140022"},{"town":"安濃町安濃","koaza":"","lat":34.775058,"lng":136.457534,"zip":"5142302"},{"town":"安濃町安部","koaza":"","lat":34.757278,"lng":136.42671,"zip":"5142327"},{"town":"安濃町荒木","koaza":"","lat":34.778703,"lng":136.44806,"zip":"5142301"},{"town":"安濃町内多","koaza":"","lat":34.767707,"lng":136.469253,"zip":"5142303"},{"town":"安濃町粟加","koaza":"","lat":34.774645,"lng":136.439798,"zip":"5142324"},{"town":"安濃町太田","koaza":"","lat":34.758641,"lng":136.474037,"zip":"5142304"},{"town":"安濃町大塚","koaza":"","lat":34.781488,"lng":136.438122,"zip":"5142323"},{"town":"安濃町川西","koaza":"","lat":34.757937,"lng":136.451403,"zip":"5142308"},{"town":"安濃町草生","koaza":"","lat":34.764871,"lng":136.413261,"zip":"5142328"},{"town":"安濃町神田","koaza":"","lat":34.750866,"lng":136.440855,"zip":"5142311"},{"town":"安濃町光明寺","koaza":"","lat":34.740801,"lng":136.431644,"zip":"5142315"},{"town":"安濃町今徳","koaza":"","lat":34.742682,"lng":136.44241,"zip":"5142313"},{"town":"安濃町清水","koaza":"","lat":34.748132,"lng":136.469969,"zip":"5142305"},{"town":"安濃町浄土寺","koaza":"","lat":34.747218,"lng":136.455558,"zip":"5142307"},{"town":"安濃町曽根","koaza":"","lat":34.749896,"lng":136.462733,"zip":"5142306"},{"town":"安濃町田端上野","koaza":"","lat":34.765769,"lng":136.443265,"zip":"5142325"},{"town":"安濃町連部","koaza":"","lat":34.750193,"lng":136.448137,"zip":"5142312"},{"town":"安濃町東観音寺","koaza":"","lat":34.760691,"lng":136.441992,"zip":"5142326"},{"town":"安濃町戸島","koaza":"","lat":34.782248,"lng":136.427386,"zip":"5142322"},{"town":"安濃町中川","koaza":"","lat":34.752266,"lng":136.431385,"zip":"5142318"},{"town":"安濃町野口","koaza":"","lat":34.777804,"lng":136.404227,"zip":"5142321"},{"town":"安濃町前野","koaza":"","lat":34.747063,"lng":136.43624,"zip":"5142317"},{"town":"安濃町南神山","koaza":"","lat":34.744458,"lng":136.427188,"zip":"5142316"},{"town":"安濃町妙法寺","koaza":"","lat":34.739118,"lng":136.44472,"zip":"5142314"},{"town":"あのつ台一丁目","koaza":"","lat":34.786043,"lng":136.498842,"zip":"5140131"},{"town":"あのつ台二丁目","koaza":"","lat":34.786636,"lng":136.49449,"zip":"5140131"},{"town":"あのつ台三丁目","koaza":"","lat":34.790621,"lng":136.494537,"zip":"5140131"},{"town":"あのつ台四丁目","koaza":"","lat":34.791354,"lng":136.499842,"zip":"5140131"},{"town":"あのつ台五丁目","koaza":"","lat":34.794733,"lng":136.502534,"zip":"5140131"},{"town":"安東町","koaza":"","lat":34.738767,"lng":136.469104,"zip":"5140058"},{"town":"一志町井生","koaza":"","lat":34.645779,"lng":136.384432,"zip":"5152523"},{"town":"一志町石橋","koaza":"","lat":34.659262,"lng":136.406426,"zip":"5152525"},{"town":"一志町井関","koaza":"","lat":34.64254,"lng":136.417222,"zip":"5152521"},{"town":"一志町大仰","koaza":"","lat":34.65144,"lng":136.403517,"zip":"5152524"},{"town":"一志町小山","koaza":"","lat":34.637227,"lng":136.440197,"zip":"5152514"},{"town":"一志町片野","koaza":"","lat":34.643419,"lng":136.459333,"zip":"5152511"},{"town":"一志町小戸木","koaza":"","lat":34.66409,"lng":136.453367,"zip":"5152505"},{"town":"一志町庄村","koaza":"","lat":34.664945,"lng":136.449183,"zip":"5152501"},{"town":"一志町新沢田","koaza":"","lat":34.643507,"lng":136.453552,"zip":"5152512"},{"town":"一志町其倉","koaza":"","lat":34.666165,"lng":136.408863,"zip":"5152526"},{"town":"一志町其村","koaza":"","lat":34.660118,"lng":136.455135,"zip":"5152502"},{"town":"一志町高野","koaza":"","lat":34.660926,"lng":136.427058,"zip":"5152504"},{"town":"一志町田尻","koaza":"","lat":34.651612,"lng":136.431202,"zip":"5152516"},{"town":"一志町虹が丘","koaza":"","lat":34.639227,"lng":136.455739,"zip":"5152513"},{"town":"一志町波瀬","koaza":"","lat":34.607075,"lng":136.373373,"zip":"5152522"},{"town":"一志町八太","koaza":"","lat":34.650279,"lng":136.446484,"zip":"5152515"},{"town":"一志町日置","koaza":"","lat":34.661311,"lng":136.44438,"zip":"5152503"},{"town":"一志町みのりヶ丘","koaza":"","lat":34.645916,"lng":136.441522,"zip":"5140000"},{"town":"一色町","koaza":"","lat":34.728875,"lng":136.472112,"zip":"5140057"},{"town":"一身田大古曽","koaza":"","lat":34.758005,"lng":136.497892,"zip":"5140113"},{"town":"一身田上津部田","koaza":"","lat":34.74658,"lng":136.49899,"zip":"5140061"},{"town":"一身田町","koaza":"","lat":34.762043,"lng":136.506841,"zip":"5140114"},{"town":"一身田豊野","koaza":"","lat":34.768508,"lng":136.511277,"zip":"5140115"},{"town":"一身田中野","koaza":"","lat":34.75093,"lng":136.508181,"zip":"5140112"},{"town":"一身田平野","koaza":"","lat":34.75548,"lng":136.513359,"zip":"5140111"},{"town":"稲葉町","koaza":"","lat":34.701614,"lng":136.404329,"zip":"5141252"},{"town":"岩田","koaza":"","lat":34.711402,"lng":136.506935,"zip":"5140838"},{"town":"産品","koaza":"","lat":34.722996,"lng":136.443943,"zip":"5140076"},{"town":"江戸橋一丁目","koaza":"","lat":34.743207,"lng":136.518217,"zip":"5140001"},{"town":"江戸橋二丁目","koaza":"","lat":34.74144,"lng":136.523156,"zip":"5140001"},{"town":"江戸橋三丁目","koaza":"","lat":34.738569,"lng":136.525739,"zip":"5140001"},{"town":"大倉","koaza":"","lat":34.702993,"lng":136.506057,"zip":"5140834"},{"town":"大里川北町","koaza":"","lat":34.777691,"lng":136.508959,"zip":"5140124"},{"town":"大里窪田町","koaza":"","lat":34.768084,"lng":136.491262,"zip":"5140125"},{"town":"大里小野田町","koaza":"","lat":34.778934,"lng":136.494721,"zip":"5140123"},{"town":"大里野田町","koaza":"","lat":34.786352,"lng":136.478017,"zip":"5140122"},{"town":"大里睦合町","koaza":"","lat":34.778801,"lng":136.478603,"zip":"5140126"},{"town":"大里山室町","koaza":"","lat":34.792471,"lng":136.486584,"zip":"5140121"},{"town":"大園町","koaza":"","lat":34.715298,"lng":136.493005,"zip":"5140046"},{"town":"大谷町","koaza":"","lat":34.736598,"lng":136.506229,"zip":"5140007"},{"town":"大鳥町","koaza":"","lat":34.687835,"lng":136.393451,"zip":"5141257"},{"town":"押加部町","koaza":"","lat":34.723344,"lng":136.493959,"zip":"5140039"},{"town":"乙部","koaza":"","lat":34.720096,"lng":136.517654,"zip":"5140016"},{"town":"小舟","koaza":"","lat":34.7289,"lng":136.462699,"zip":"5140072"},{"town":"海岸町","koaza":"","lat":34.716912,"lng":136.522815,"zip":"5140013"},{"town":"片田井戸町","koaza":"","lat":34.702937,"lng":136.442892,"zip":"5140082"},{"town":"片田久保町","koaza":"","lat":34.703253,"lng":136.427062,"zip":"5140085"},{"town":"片田志袋町","koaza":"","lat":34.715699,"lng":136.439038,"zip":"5140075"},{"town":"片田新町","koaza":"","lat":34.701869,"lng":136.438823,"zip":"5140083"},{"town":"片田田中町","koaza":"","lat":34.707751,"lng":136.450801,"zip":"5140081"},{"town":"片田町","koaza":"","lat":34.694376,"lng":136.442572,"zip":"5140084"},{"town":"片田長谷町","koaza":"","lat":34.726387,"lng":136.428394,"zip":"5140077"},{"town":"片田長谷場町","koaza":"","lat":34.713359,"lng":136.456364,"zip":"5140074"},{"town":"片田薬王寺町","koaza":"","lat":34.716026,"lng":136.418774,"zip":"5140086"},{"town":"神納","koaza":"","lat":34.718748,"lng":136.487267,"zip":"5140054"},{"town":"神納町","koaza":"","lat":34.723561,"lng":136.486138,"zip":"5140052"},{"town":"上浜町一丁目","koaza":"","lat":34.737883,"lng":136.51309,"zip":"5140008"},{"town":"上浜町二丁目","koaza":"","lat":34.739968,"lng":136.514097,"zip":"5140008"},{"town":"上浜町三丁目","koaza":"","lat":34.74373,"lng":136.514882,"zip":"5140008"},{"town":"上浜町四丁目","koaza":"","lat":34.740735,"lng":136.511271,"zip":"5140008"},{"town":"上浜町五丁目","koaza":"","lat":34.744874,"lng":136.510782,"zip":"5140008"},{"town":"上浜町六丁目","koaza":"","lat":34.741119,"lng":136.504827,"zip":"5140008"},{"town":"上弁財町","koaza":"","lat":34.70131,"lng":136.508489,"zip":"5140806"},{"town":"上弁財町津興","koaza":"","lat":34.706585,"lng":136.511755,"zip":"5140804"},{"town":"香良洲町","koaza":"","lat":34.649369,"lng":136.537367,"zip":"5140311"},{"town":"川方町","koaza":"","lat":34.662769,"lng":136.472307,"zip":"5141122"},{"town":"河芸町赤部","koaza":"","lat":34.792712,"lng":136.524599,"zip":"5100313"},{"town":"河芸町一色","koaza":"","lat":34.78116,"lng":136.542294,"zip":"5100306"},{"town":"河芸町上野","koaza":"","lat":34.792673,"lng":136.544948,"zip":"5100304"},{"town":"河芸町影重","koaza":"","lat":34.777047,"lng":136.538203,"zip":"5100307"},{"town":"河芸町北黒田","koaza":"","lat":34.79011,"lng":136.517556,"zip":"5100317"},{"town":"河芸町久知野","koaza":"","lat":34.79965,"lng":136.531667,"zip":"5100312"},{"town":"河芸町高佐","koaza":"","lat":34.778533,"lng":136.520896,"zip":"5100315"},{"town":"河芸町千里ヶ丘","koaza":"","lat":34.804854,"lng":136.545846,"zip":"5140000"},{"town":"河芸町中瀬","koaza":"","lat":34.779927,"lng":136.53297,"zip":"5100308"},{"town":"河芸町中別保","koaza":"","lat":34.78652,"lng":136.546299,"zip":"5100305"},{"town":"河芸町西千里","koaza":"","lat":34.809047,"lng":136.549013,"zip":"5100301"},{"town":"河芸町浜田","koaza":"","lat":34.785209,"lng":136.529185,"zip":"5100314"},{"town":"河芸町東千里","koaza":"","lat":34.802198,"lng":136.559898,"zip":"5100303"},{"town":"河芸町南黒田","koaza":"","lat":34.786929,"lng":136.506988,"zip":"5100316"},{"town":"河芸町三行","koaza":"","lat":34.803898,"lng":136.511257,"zip":"5100311"},{"town":"河芸町杜の街一丁目","koaza":"","lat":34.804871,"lng":136.538738,"zip":"5100318"},{"town":"河芸町杜の街二丁目","koaza":"","lat":34.802738,"lng":136.53426,"zip":"5100318"},{"town":"河芸町杜の街三丁目","koaza":"","lat":34.804053,"lng":136.528979,"zip":"5100318"},{"town":"河芸町杜の街四丁目","koaza":"","lat":34.808321,"lng":136.524654,"zip":"5100318"},{"town":"河芸町杜の街五丁目","koaza":"","lat":34.80793,"lng":136.530334,"zip":"5100318"},{"town":"川添町","koaza":"","lat":34.711834,"lng":136.495579,"zip":"5140044"},{"town":"観音寺町","koaza":"","lat":34.730514,"lng":136.499527,"zip":"5140062"},{"town":"神戸","koaza":"","lat":34.705827,"lng":136.474019,"zip":"5140824"},{"town":"北河路町","koaza":"","lat":34.725682,"lng":136.477569,"zip":"5140056"},{"town":"北町津","koaza":"","lat":34.722793,"lng":136.51187,"zip":"5140023"},{"town":"北丸之内","koaza":"","lat":34.723709,"lng":136.509072,"zip":"5140031"},{"town":"雲出伊倉津町","koaza":"","lat":34.661888,"lng":136.536624,"zip":"5140302"},{"town":"雲出鋼管町","koaza":"","lat":34.675056,"lng":136.537615,"zip":"5140301"},{"town":"雲出島貫町","koaza":"","lat":34.655907,"lng":136.513407,"zip":"5140305"},{"town":"雲出長常町","koaza":"","lat":34.665069,"lng":136.527535,"zip":"5140303"},{"town":"雲出本郷町","koaza":"","lat":34.664723,"lng":136.518233,"zip":"5140304"},{"town":"栗真小川町","koaza":"","lat":34.76916,"lng":136.524317,"zip":"5140104"},{"town":"栗真中山町","koaza":"","lat":34.758686,"lng":136.520588,"zip":"5140103"},{"town":"芸濃町雲林院","koaza":"","lat":34.804692,"lng":136.402937,"zip":"5142204"},{"town":"芸濃町岡本","koaza":"","lat":34.787725,"lng":136.447616,"zip":"5142212"},{"town":"芸濃町忍田","koaza":"","lat":34.816278,"lng":136.39903,"zip":"5142208"},{"town":"芸濃町小野平","koaza":"","lat":34.792035,"lng":136.406551,"zip":"5142206"},{"town":"芸濃町北神山","koaza":"","lat":34.794412,"lng":136.427419,"zip":"5142213"},{"town":"芸濃町楠原","koaza":"","lat":34.830814,"lng":136.400907,"zip":"5142201"},{"town":"芸濃町河内","koaza":"","lat":34.794177,"lng":136.354775,"zip":"5142207"},{"town":"芸濃町多門","koaza":"","lat":34.800486,"lng":136.415831,"zip":"5142205"},{"town":"芸濃町中縄","koaza":"","lat":34.818377,"lng":136.413375,"zip":"5142203"},{"town":"芸濃町萩野","koaza":"","lat":34.797424,"lng":136.441703,"zip":"5142214"},{"town":"芸濃町林","koaza":"","lat":34.832399,"lng":136.427045,"zip":"5142202"},{"town":"芸濃町椋本","koaza":"","lat":34.811753,"lng":136.432484,"zip":"5142211"},{"town":"河辺町","koaza":"","lat":34.74536,"lng":136.48041,"zip":"5140065"},{"town":"広明町","koaza":"","lat":34.731281,"lng":136.507031,"zip":"5140006"},{"town":"木造町","koaza":"","lat":34.654682,"lng":136.499169,"zip":"5141115"},{"town":"寿町","koaza":"","lat":34.714333,"lng":136.516904,"zip":"5140015"},{"town":"幸町","koaza":"","lat":34.707477,"lng":136.504534,"zip":"5140835"},{"town":"栄町一丁目","koaza":"","lat":34.727834,"lng":136.510058,"zip":"5140004"},{"town":"栄町二丁目","koaza":"","lat":34.730426,"lng":136.512436,"zip":"5140004"},{"town":"栄町三丁目","koaza":"","lat":34.733274,"lng":136.513116,"zip":"5140004"},{"town":"栄町四丁目","koaza":"","lat":34.735503,"lng":136.513304,"zip":"5140004"},{"town":"榊原町","koaza":"","lat":34.706676,"lng":136.355809,"zip":"5141251"},{"town":"桜田町","koaza":"","lat":34.71698,"lng":136.489352,"zip":"5140047"},{"town":"桜橋一丁目","koaza":"","lat":34.728655,"lng":136.515654,"zip":"5140003"},{"town":"桜橋二丁目","koaza":"","lat":34.731631,"lng":136.516747,"zip":"5140003"},{"town":"桜橋三丁目","koaza":"","lat":34.737428,"lng":136.518587,"zip":"5140003"},{"town":"渋見町","koaza":"","lat":34.734904,"lng":136.493794,"zip":"5140063"},{"town":"島崎町","koaza":"","lat":34.732213,"lng":136.524235,"zip":"5140002"},{"town":"下弁財町津興","koaza":"","lat":34.704314,"lng":136.515506,"zip":"5140805"},{"town":"修成町","koaza":"","lat":34.711047,"lng":136.502766,"zip":"5140837"},{"town":"庄田町","koaza":"","lat":34.674512,"lng":136.425906,"zip":"5141255"},{"town":"白塚町","koaza":"","lat":34.7641,"lng":136.531672,"zip":"5140101"},{"town":"城山一丁目","koaza":"","lat":34.675591,"lng":136.507565,"zip":"5140818"},{"town":"城山二丁目","koaza":"","lat":34.67944,"lng":136.50723,"zip":"5140818"},{"town":"城山三丁目","koaza":"","lat":34.676761,"lng":136.502073,"zip":"5140818"},{"town":"新立町津","koaza":"","lat":34.722108,"lng":136.511398,"zip":"5140024"},{"town":"新東町塔世","koaza":"","lat":34.722222,"lng":136.513477,"zip":"5140026"},{"town":"新町一丁目","koaza":"","lat":34.715976,"lng":136.498184,"zip":"5140042"},{"town":"新町二丁目","koaza":"","lat":34.717718,"lng":136.49447,"zip":"5140042"},{"town":"新町三丁目","koaza":"","lat":34.719147,"lng":136.490633,"zip":"5140042"},{"town":"末広町","koaza":"","lat":34.721258,"lng":136.524181,"zip":"5140012"},{"town":"須ヶ瀬町","koaza":"","lat":34.652944,"lng":136.46658,"zip":"5140000"},{"town":"住吉町","koaza":"","lat":34.727447,"lng":136.520543,"zip":"5140019"},{"town":"船頭町津興","koaza":"","lat":34.71087,"lng":136.514276,"zip":"5140801"},{"town":"大門","koaza":"","lat":34.719343,"lng":136.513236,"zip":"5140027"},{"town":"高洲町","koaza":"","lat":34.72768,"lng":136.525539,"zip":"5140011"},{"town":"高茶屋一丁目","koaza":"","lat":34.669476,"lng":136.512106,"zip":"5140819"},{"town":"高茶屋二丁目","koaza":"","lat":34.677188,"lng":136.511194,"zip":"5140819"},{"town":"高茶屋三丁目","koaza":"","lat":34.672233,"lng":136.507321,"zip":"5140819"},{"town":"高茶屋四丁目","koaza":"","lat":34.668352,"lng":136.507205,"zip":"5140819"},{"town":"高茶屋五丁目","koaza":"","lat":34.669075,"lng":136.501189,"zip":"5140819"},{"town":"高茶屋六丁目","koaza":"","lat":34.673357,"lng":136.501962,"zip":"5140819"},{"town":"高茶屋七丁目","koaza":"","lat":34.67172,"lng":136.497793,"zip":"5140819"},{"town":"高茶屋小森上野町","koaza":"","lat":34.678541,"lng":136.518052,"zip":"5140816"},{"town":"高茶屋小森町","koaza":"","lat":34.669262,"lng":136.490975,"zip":"5140817"},{"town":"高野尾町","koaza":"","lat":34.795846,"lng":136.462694,"zip":"5142221"},{"town":"垂水","koaza":"","lat":34.690871,"lng":136.506858,"zip":"5140821"},{"town":"中央","koaza":"","lat":34.720241,"lng":136.508973,"zip":"5140032"},{"town":"津興","koaza":"","lat":34.69549,"lng":136.518473,"zip":"5140812"},{"town":"殿村","koaza":"","lat":34.723002,"lng":136.461816,"zip":"5140073"},{"town":"豊が丘一丁目","koaza":"","lat":34.803325,"lng":136.472241,"zip":"5142222"},{"town":"豊が丘二丁目","koaza":"","lat":34.807247,"lng":136.471657,"zip":"5142222"},{"town":"豊が丘三丁目","koaza":"","lat":34.803388,"lng":136.468495,"zip":"5142222"},{"town":"豊が丘四丁目","koaza":"","lat":34.80763,"lng":136.464322,"zip":"5142222"},{"town":"豊が丘五丁目","koaza":"","lat":34.809716,"lng":136.462763,"zip":"5142222"},{"town":"鳥居町","koaza":"","lat":34.726174,"lng":136.505638,"zip":"5140005"},{"town":"長岡町","koaza":"","lat":34.74018,"lng":136.488603,"zip":"5140064"},{"town":"中河原","koaza":"","lat":34.724006,"lng":136.519809,"zip":"5140018"},{"town":"中村町","koaza":"","lat":34.677397,"lng":136.395069,"zip":"5141256"},{"town":"なぎさまち","koaza":"","lat":34.711915,"lng":136.524339,"zip":"5140010"},{"town":"西阿漕町岩田","koaza":"","lat":34.700498,"lng":136.504436,"zip":"5140833"},{"town":"西古河町","koaza":"","lat":34.722404,"lng":136.497865,"zip":"5140038"},{"town":"西丸之内","koaza":"","lat":34.718313,"lng":136.503513,"zip":"5140035"},{"town":"新家町","koaza":"","lat":34.655035,"lng":136.48338,"zip":"5141116"},{"town":"納所町","koaza":"","lat":34.728727,"lng":136.484092,"zip":"5140051"},{"town":"野崎垣内岩田","koaza":"","lat":34.707531,"lng":136.501076,"zip":"5140836"},{"town":"野田","koaza":"","lat":34.710151,"lng":136.46302,"zip":"5140826"},{"town":"博多町","koaza":"","lat":34.720879,"lng":136.486888,"zip":"5140053"},{"town":"白山町伊勢見","koaza":"","lat":34.655546,"lng":136.266336,"zip":"5152614"},{"town":"白山町稲垣","koaza":"","lat":34.656364,"lng":136.329263,"zip":"5152616"},{"town":"白山町大原","koaza":"","lat":34.636889,"lng":136.262098,"zip":"5153137"},{"town":"白山町岡","koaza":"","lat":34.667397,"lng":136.354042,"zip":"5152604"},{"town":"白山町垣内","koaza":"","lat":34.68558,"lng":136.283662,"zip":"5152624"},{"town":"白山町上ノ村","koaza":"","lat":34.677949,"lng":136.317978,"zip":"5152623"},{"town":"白山町川口","koaza":"","lat":34.625125,"lng":136.352838,"zip":"5152603"},{"town":"白山町北家城","koaza":"","lat":34.636313,"lng":136.332313,"zip":"5153132"},{"town":"白山町小杉","koaza":"","lat":34.628567,"lng":136.26786,"zip":"5153138"},{"town":"白山町佐田","koaza":"","lat":34.680333,"lng":136.340419,"zip":"5152621"},{"town":"白山町城立","koaza":"","lat":34.623185,"lng":136.281562,"zip":"5153139"},{"town":"白山町中ノ村","koaza":"","lat":34.666256,"lng":136.343394,"zip":"5152622"},{"town":"白山町二本木","koaza":"","lat":34.66476,"lng":136.370785,"zip":"5152602"},{"town":"白山町八対野","koaza":"","lat":34.65502,"lng":136.309985,"zip":"5152615"},{"town":"白山町福田山","koaza":"","lat":34.607278,"lng":136.266219,"zip":"5153136"},{"town":"白山町藤","koaza":"","lat":34.637556,"lng":136.291519,"zip":"5153131"},{"town":"白山町二俣","koaza":"","lat":34.620881,"lng":136.298679,"zip":"5153135"},{"town":"白山町古市","koaza":"","lat":34.651795,"lng":136.344882,"zip":"5152612"},{"town":"白山町真見","koaza":"","lat":34.619645,"lng":136.311549,"zip":"5153134"},{"town":"白山町三ヶ野","koaza":"","lat":34.672651,"lng":136.384204,"zip":"5140000"},{"town":"白山町南家城","koaza":"","lat":34.61627,"lng":136.326848,"zip":"5153133"},{"town":"白山町南出","koaza":"","lat":34.658888,"lng":136.341424,"zip":"5152611"},{"town":"白山町山田野","koaza":"","lat":34.646109,"lng":136.305471,"zip":"5152613"},{"town":"八町一丁目","koaza":"","lat":34.718189,"lng":136.499126,"zip":"5140041"},{"town":"八町二丁目","koaza":"","lat":34.719509,"lng":136.496091,"zip":"5140041"},{"town":"八町三丁目","koaza":"","lat":34.720974,"lng":136.492397,"zip":"5140041"},{"town":"羽所町","koaza":"","lat":34.733402,"lng":136.511153,"zip":"5140009"},{"town":"半田","koaza":"","lat":34.701529,"lng":136.494537,"zip":"5140823"},{"town":"東古河町","koaza":"","lat":34.720796,"lng":136.500316,"zip":"5140037"},{"town":"東町津","koaza":"","lat":34.721856,"lng":136.512091,"zip":"5140025"},{"town":"東丸之内","koaza":"","lat":34.715812,"lng":136.512022,"zip":"5140028"},{"town":"久居相川町","koaza":"","lat":34.688024,"lng":136.486914,"zip":"5141103"},{"town":"久居一色町","koaza":"","lat":34.688368,"lng":136.400969,"zip":"5141253"},{"town":"久居井戸山町","koaza":"","lat":34.670689,"lng":136.484828,"zip":"5141114"},{"town":"久居射場町","koaza":"","lat":34.680642,"lng":136.467433,"zip":"5141108"},{"town":"久居烏木町","koaza":"","lat":34.680408,"lng":136.471575,"zip":"5141109"},{"town":"久居北口町","koaza":"","lat":34.684169,"lng":136.475925,"zip":"5141105"},{"town":"久居小野辺町","koaza":"","lat":34.680941,"lng":136.498368,"zip":"5141112"},{"town":"久居小戸木町","koaza":"","lat":34.665743,"lng":136.456825,"zip":"5141137"},{"town":"久居桜が丘町","koaza":"","lat":34.683406,"lng":136.489644,"zip":"5141111"},{"town":"久居幸町","koaza":"","lat":34.676447,"lng":136.469974,"zip":"5141132"},{"town":"久居新町","koaza":"","lat":34.6784,"lng":136.477325,"zip":"5141118"},{"town":"久居寺町","koaza":"","lat":34.676582,"lng":136.473904,"zip":"5141106"},{"town":"久居中町","koaza":"","lat":34.679092,"lng":136.465863,"zip":"5141107"},{"town":"久居西鷹跡町","koaza":"","lat":34.675899,"lng":136.462012,"zip":"5141131"},{"town":"久居二ノ町","koaza":"","lat":34.672876,"lng":136.472746,"zip":"5141121"},{"town":"久居野口町","koaza":"","lat":34.670124,"lng":136.478358,"zip":"5141117"},{"town":"久居野村町","koaza":"","lat":34.67961,"lng":136.489637,"zip":"5141113"},{"town":"久居旅籠町","koaza":"","lat":34.675819,"lng":136.471688,"zip":"5141134"},{"town":"久居東鷹跡町","koaza":"","lat":34.673987,"lng":136.468014,"zip":"5141136"},{"town":"久居藤ヶ丘町","koaza":"","lat":34.690098,"lng":136.482197,"zip":"5140000"},{"town":"久居本町","koaza":"","lat":34.672322,"lng":136.470542,"zip":"5141135"},{"town":"久居緑が丘町一丁目","koaza":"","lat":34.691465,"lng":136.406641,"zip":"5141258"},{"town":"久居緑が丘町二丁目","koaza":"","lat":34.695967,"lng":136.404382,"zip":"5141258"},{"town":"久居明神町","koaza":"","lat":34.689287,"lng":136.468496,"zip":"5141101"},{"town":"久居持川町","koaza":"","lat":34.684008,"lng":136.480402,"zip":"5141104"},{"town":"久居元町","koaza":"","lat":34.664998,"lng":136.465139,"zip":"5141125"},{"town":"久居万町","koaza":"","lat":34.678199,"lng":136.465356,"zip":"5141133"},{"town":"藤枝町","koaza":"","lat":34.693611,"lng":136.511535,"zip":"5140814"},{"town":"戸木町","koaza":"","lat":34.682544,"lng":136.442415,"zip":"5141138"},{"town":"本町","koaza":"","lat":34.711091,"lng":136.510355,"zip":"5140831"},{"town":"牧町","koaza":"","lat":34.660107,"lng":136.476351,"zip":"5141123"},{"town":"丸之内","koaza":"","lat":34.716339,"lng":136.507331,"zip":"5140033"},{"town":"丸之内養正町","koaza":"","lat":34.721711,"lng":136.504899,"zip":"5140036"},{"town":"三重町津興","koaza":"","lat":34.710792,"lng":136.517997,"zip":"5140802"},{"town":"美川町","koaza":"","lat":34.712762,"lng":136.491525,"zip":"5140045"},{"town":"美里町足坂","koaza":"","lat":34.721117,"lng":136.392471,"zip":"5142106"},{"town":"美里町穴倉","koaza":"","lat":34.748768,"lng":136.387753,"zip":"5142107"},{"town":"美里町家所","koaza":"","lat":34.731529,"lng":136.414345,"zip":"5142104"},{"town":"美里町五百野","koaza":"","lat":34.71574,"lng":136.402367,"zip":"5142105"},{"town":"美里町桂畑","koaza":"","lat":34.740719,"lng":136.326402,"zip":"5142115"},{"town":"美里町北長野","koaza":"","lat":34.750621,"lng":136.368092,"zip":"5142112"},{"town":"美里町高座原","koaza":"","lat":34.755812,"lng":136.393114,"zip":"5142101"},{"town":"美里町日南田","koaza":"","lat":34.747166,"lng":136.414454,"zip":"5142103"},{"town":"美里町平木","koaza":"","lat":34.762239,"lng":136.346284,"zip":"5142111"},{"town":"美里町船山","koaza":"","lat":34.757239,"lng":136.402143,"zip":"5142102"},{"town":"美里町三郷","koaza":"","lat":34.732138,"lng":136.384708,"zip":"5142113"},{"town":"美里町南長野","koaza":"","lat":34.731587,"lng":136.366631,"zip":"5142114"},{"town":"美杉町石名原","koaza":"","lat":34.50998,"lng":136.239144,"zip":"5153533"},{"town":"美杉町奥津","koaza":"","lat":34.514619,"lng":136.27053,"zip":"5153531"},{"town":"美杉町上多気","koaza":"","lat":34.506471,"lng":136.316649,"zip":"5153312"},{"town":"美杉町川上","koaza":"","lat":34.479833,"lng":136.252422,"zip":"5153532"},{"town":"美杉町下多気","koaza":"","lat":34.539023,"lng":136.300704,"zip":"5153311"},{"town":"美杉町下之川","koaza":"","lat":34.558048,"lng":136.333666,"zip":"5153203"},{"town":"美杉町杉平","koaza":"","lat":34.505831,"lng":136.219966,"zip":"5153534"},{"town":"美杉町竹原","koaza":"","lat":34.590386,"lng":136.295508,"zip":"5153201"},{"town":"美杉町太郎生","koaza":"","lat":34.5427,"lng":136.188403,"zip":"5153536"},{"town":"美杉町丹生俣","koaza":"","lat":34.482125,"lng":136.306107,"zip":"5153313"},{"town":"美杉町八手俣","koaza":"","lat":34.585748,"lng":136.333639,"zip":"5153202"},{"town":"美杉町三多気","koaza":"","lat":34.521944,"lng":136.224406,"zip":"5153535"},{"town":"美杉町八知","koaza":"","lat":34.558367,"lng":136.257504,"zip":"5153421"},{"town":"緑が丘一丁目","koaza":"","lat":34.711225,"lng":136.471484,"zip":"5140825"},{"town":"緑が丘二丁目","koaza":"","lat":34.71043,"lng":136.46836,"zip":"5140825"},{"town":"港町","koaza":"","lat":34.713807,"lng":136.523406,"zip":"5140014"},{"town":"南が丘一丁目","koaza":"","lat":34.691542,"lng":136.498366,"zip":"5140822"},{"town":"南が丘二丁目","koaza":"","lat":34.694588,"lng":136.500898,"zip":"5140822"},{"town":"南が丘三丁目","koaza":"","lat":34.690821,"lng":136.500787,"zip":"5140822"},{"town":"南が丘四丁目","koaza":"","lat":34.688332,"lng":136.49784,"zip":"5140822"},{"town":"南河路","koaza":"","lat":34.721453,"lng":136.478548,"zip":"5140055"},{"town":"南新町","koaza":"","lat":34.71351,"lng":136.497254,"zip":"5140043"},{"town":"南中央","koaza":"","lat":34.706323,"lng":136.509052,"zip":"5140832"},{"town":"南丸之内","koaza":"","lat":34.714013,"lng":136.502362,"zip":"5140034"},{"town":"森町","koaza":"","lat":34.68488,"lng":136.421199,"zip":"5141254"},{"town":"柳山津興","koaza":"","lat":34.707766,"lng":136.517738,"zip":"5140803"},{"town":"夢が丘一丁目","koaza":"","lat":34.759942,"lng":136.486308,"zip":"5140116"},{"town":"夢が丘二丁目","koaza":"","lat":34.756839,"lng":136.48576,"zip":"5140116"},{"town":"万町津","koaza":"","lat":34.724795,"lng":136.511252,"zip":"5140021"},{"town":"分部","koaza":"","lat":34.73371,"lng":136.452496,"zip":"5140071"},{"town":"栗真町屋町","koaza":"","lat":34.749829,"lng":136.524903,"zip":"5140102"},{"town":"八幡町津","koaza":"","lat":34.698419,"lng":136.512153,"zip":"5140000"},{"town":"藤方","koaza":"","lat":34.69036,"lng":136.516325,"zip":"5140815"},{"town":"八幡町藤方","koaza":"","lat":34.696948,"lng":136.514537,"zip":"5140000"},{"town":"久居明神町","koaza":"風早","lat":34.68265,"lng":136.463231,"zip":"5141101"},{"town":"高茶屋小森町","koaza":"瓦ヶ野","lat":34.66925,"lng":136.494089,"zip":"5140817"},{"town":"大里窪田町","koaza":"花村","lat":34.768155,"lng":136.494964,"zip":"5140125"},{"town":"久居小野辺町","koaza":"君ヶ池","lat":34.679431,"lng":136.501464,"zip":"5141112"},{"town":"高茶屋小森町","koaza":"中山","lat":34.665881,"lng":136.501957,"zip":"5140817"},{"town":"垂水","koaza":"中境","lat":34.694073,"lng":136.510422,"zip":"5140821"},{"town":"藤方","koaza":"茨ク子","lat":34.690346,"lng":136.512225,"zip":"5140815"},{"town":"高茶屋小森上野町","koaza":"小森川","lat":34.679136,"lng":136.513868,"zip":"5140816"},{"town":"藤方","koaza":"南八木田","lat":34.686868,"lng":136.518192,"zip":"5140815"},{"town":"高茶屋小森町","koaza":"大新田","lat":34.676047,"lng":136.519813,"zip":"5140817"},{"town":"雲出本郷町","koaza":"杉縄","lat":34.667993,"lng":136.519178,"zip":"5140304"},{"town":"栗真町屋町","koaza":"蒲池","lat":34.75314,"lng":136.521653,"zip":"5140102"},{"town":"栗真町屋町","koaza":"松本","lat":34.749433,"lng":136.521665,"zip":"5140102"},{"town":"栗真小川町","koaza":"中沢","lat":34.773341,"lng":136.528197,"zip":"5140104"},{"town":"白塚町","koaza":"鎌田","lat":34.768277,"lng":136.529078,"zip":"5140101"},{"town":"芸濃町椋本","koaza":"一ツ谷","lat":34.805427,"lng":136.44631,"zip":"5142211"},{"town":"河芸町中別保","koaza":"丸垣内","lat":34.787673,"lng":136.544695,"zip":"5100305"},{"town":"垂水","koaza":"入江","lat":34.699232,"lng":136.508919,"zip":"5140821"}]