[{"town":"飛鳥町大又","koaza":"","lat":33.988403,"lng":136.108446,"zip":"5194561"},{"town":"飛鳥町神山","koaza":"","lat":33.947392,"lng":136.061191,"zip":"5194566"},{"town":"飛鳥町小阪","koaza":"","lat":33.945481,"lng":136.101609,"zip":"5194563"},{"town":"飛鳥町小又","koaza":"","lat":33.966852,"lng":136.126807,"zip":"5194562"},{"town":"飛鳥町佐渡","koaza":"","lat":33.941463,"lng":136.08459,"zip":"5194564"},{"town":"飛鳥町野口","koaza":"","lat":33.946758,"lng":136.078865,"zip":"5194565"},{"town":"新鹿町","koaza":"","lat":33.942873,"lng":136.13899,"zip":"5194206"},{"town":"有馬町","koaza":"","lat":33.880947,"lng":136.079376,"zip":"5194325"},{"town":"育生町赤倉","koaza":"","lat":33.912378,"lng":136.016594,"zip":"5194446"},{"town":"育生町大井","koaza":"","lat":33.933489,"lng":135.975797,"zip":"5194448"},{"town":"育生町尾川","koaza":"","lat":33.905783,"lng":135.995803,"zip":"5194447"},{"town":"育生町粉所","koaza":"","lat":33.925154,"lng":136.002128,"zip":"5194445"},{"town":"育生町長井","koaza":"","lat":33.929516,"lng":135.987396,"zip":"5194449"},{"town":"五郷町大井谷","koaza":"","lat":33.975161,"lng":136.026475,"zip":"5194675"},{"town":"五郷町寺谷","koaza":"","lat":33.972958,"lng":136.072651,"zip":"5194673"},{"town":"五郷町桃崎","koaza":"","lat":34.006773,"lng":136.039934,"zip":"5194671"},{"town":"五郷町湯谷","koaza":"","lat":33.997322,"lng":136.066443,"zip":"5194672"},{"town":"五郷町和田","koaza":"","lat":33.969505,"lng":136.051561,"zip":"5194674"},{"town":"磯崎町","koaza":"","lat":33.895222,"lng":136.131856,"zip":"5194321"},{"town":"井戸町","koaza":"","lat":33.909025,"lng":136.068666,"zip":"5194324"},{"town":"大泊町","koaza":"","lat":33.912865,"lng":136.111833,"zip":"5194322"},{"town":"金山町","koaza":"","lat":33.882895,"lng":136.04939,"zip":"5194327"},{"town":"神川町神上","koaza":"","lat":33.947502,"lng":135.998514,"zip":"5194442"},{"town":"神川町長原","koaza":"","lat":33.935836,"lng":136.02497,"zip":"5194444"},{"town":"神川町花知","koaza":"","lat":33.958115,"lng":135.986564,"zip":"5194441"},{"town":"神川町柳谷","koaza":"","lat":33.987103,"lng":136.009711,"zip":"5194443"},{"town":"木本町","koaza":"","lat":33.902997,"lng":136.100353,"zip":"5194323"},{"town":"紀和町赤木","koaza":"","lat":33.892877,"lng":135.948862,"zip":"5195404"},{"town":"紀和町板屋","koaza":"","lat":33.877205,"lng":135.91442,"zip":"5195413"},{"town":"紀和町大栗須","koaza":"","lat":33.895981,"lng":135.920459,"zip":"5195412"},{"town":"紀和町大河内","koaza":"","lat":33.843469,"lng":135.899233,"zip":"5195415"},{"town":"紀和町木津呂","koaza":"","lat":33.900429,"lng":135.894538,"zip":"5195411"},{"town":"紀和町花井","koaza":"","lat":33.860773,"lng":135.85939,"zip":"6471321"},{"town":"紀和町小川口","koaza":"","lat":33.880836,"lng":135.904344,"zip":"5195417"},{"town":"紀和町小栗須","koaza":"","lat":33.84683,"lng":135.924204,"zip":"5195414"},{"town":"紀和町小船","koaza":"","lat":33.841615,"lng":135.867343,"zip":"6471322"},{"town":"紀和町小森","koaza":"","lat":33.923177,"lng":135.923484,"zip":"5195401"},{"town":"紀和町長尾","koaza":"","lat":33.895719,"lng":135.968977,"zip":"5195403"},{"town":"紀和町平谷","koaza":"","lat":33.912784,"lng":135.957767,"zip":"5195402"},{"town":"紀和町丸山","koaza":"","lat":33.877948,"lng":135.956996,"zip":"5195405"},{"town":"紀和町矢ノ川","koaza":"","lat":33.859642,"lng":135.947897,"zip":"5195406"},{"town":"紀和町湯ノ口","koaza":"","lat":33.861809,"lng":135.892185,"zip":"5195416"},{"town":"紀和町楊枝","koaza":"","lat":33.821003,"lng":135.862673,"zip":"6471325"},{"town":"紀和町楊枝川","koaza":"","lat":33.828844,"lng":135.886409,"zip":"6471323"},{"town":"紀和町和気","koaza":"","lat":33.811327,"lng":135.903174,"zip":"6471324"},{"town":"久生屋町","koaza":"","lat":33.860859,"lng":136.066409,"zip":"5194326"},{"town":"須野町","koaza":"","lat":33.948031,"lng":136.216425,"zip":"5194201"},{"town":"二木島里町","koaza":"","lat":33.944097,"lng":136.189787,"zip":"5194203"},{"town":"二木島町","koaza":"","lat":33.941477,"lng":136.177607,"zip":"5194204"},{"town":"波田須町","koaza":"","lat":33.912195,"lng":136.134784,"zip":"5194207"},{"town":"甫母町","koaza":"","lat":33.943244,"lng":136.208497,"zip":"5194202"},{"town":"遊木町","koaza":"","lat":33.925653,"lng":136.179383,"zip":"5194205"},{"town":"井戸町","koaza":"赤坂","lat":33.889345,"lng":136.095579,"zip":"5194324"},{"town":"有馬町","koaza":"丁塚","lat":33.855912,"lng":136.072751,"zip":"5194325"},{"town":"有馬町","koaza":"松原","lat":33.854944,"lng":136.071333,"zip":"5194325"}]