[{"town":"秋永町","koaza":"","lat":34.816532,"lng":136.55084,"zip":"5100258"},{"town":"阿古曽町","koaza":"","lat":34.869004,"lng":136.545146,"zip":"5130828"},{"town":"飯野寺家町","koaza":"","lat":34.874245,"lng":136.580611,"zip":"5130802"},{"town":"池田町","koaza":"","lat":34.898249,"lng":136.609656,"zip":"5130032"},{"town":"石垣一丁目","koaza":"","lat":34.855619,"lng":136.567527,"zip":"5130855"},{"town":"石垣二丁目","koaza":"","lat":34.85518,"lng":136.563101,"zip":"5130855"},{"town":"石垣三丁目","koaza":"","lat":34.857107,"lng":136.564804,"zip":"5130855"},{"town":"石薬師町","koaza":"","lat":34.91056,"lng":136.538473,"zip":"5130012"},{"town":"和泉町","koaza":"","lat":34.868189,"lng":136.505439,"zip":"5130006"},{"town":"磯山一丁目","koaza":"","lat":34.81077,"lng":136.564395,"zip":"5100256"},{"town":"磯山二丁目","koaza":"","lat":34.814723,"lng":136.567509,"zip":"5100256"},{"town":"磯山三丁目","koaza":"","lat":34.81679,"lng":136.570009,"zip":"5100256"},{"town":"磯山四丁目","koaza":"","lat":34.819306,"lng":136.572368,"zip":"5100256"},{"town":"磯山町","koaza":"","lat":34.815054,"lng":136.562492,"zip":"5100255"},{"town":"一ノ宮町","koaza":"","lat":34.89851,"lng":136.600361,"zip":"5130031"},{"town":"稲生一丁目","koaza":"","lat":34.831908,"lng":136.557754,"zip":"5100205"},{"town":"稲生二丁目","koaza":"","lat":34.83521,"lng":136.559662,"zip":"5100205"},{"town":"稲生三丁目","koaza":"","lat":34.838597,"lng":136.560089,"zip":"5100205"},{"town":"稲生四丁目","koaza":"","lat":34.840507,"lng":136.561036,"zip":"5100205"},{"town":"稲生こがね園","koaza":"","lat":34.83153,"lng":136.560671,"zip":"5100206"},{"town":"稲生塩屋一丁目","koaza":"","lat":34.828557,"lng":136.567536,"zip":"5100207"},{"town":"稲生塩屋二丁目","koaza":"","lat":34.831634,"lng":136.565129,"zip":"5100207"},{"town":"稲生塩屋三丁目","koaza":"","lat":34.835498,"lng":136.564462,"zip":"5100207"},{"town":"稲生町","koaza":"","lat":34.839043,"lng":136.546152,"zip":"5100201"},{"town":"稲生西一丁目","koaza":"","lat":34.836299,"lng":136.550762,"zip":"5100204"},{"town":"稲生西二丁目","koaza":"","lat":34.837824,"lng":136.554497,"zip":"5100204"},{"town":"稲生西三丁目","koaza":"","lat":34.840993,"lng":136.556902,"zip":"5100204"},{"town":"伊船町","koaza":"","lat":34.921804,"lng":136.484836,"zip":"5190323"},{"town":"五祝町","koaza":"","lat":34.819016,"lng":136.561612,"zip":"5100252"},{"town":"上田町","koaza":"","lat":34.904122,"lng":136.529768,"zip":"5130018"},{"town":"上野町","koaza":"","lat":34.894706,"lng":136.550146,"zip":"5130017"},{"town":"釆女が丘町","koaza":"","lat":34.913379,"lng":136.58409,"zip":"5130010"},{"town":"江島台一丁目","koaza":"","lat":34.843721,"lng":136.592126,"zip":"5100231"},{"town":"江島台二丁目","koaza":"","lat":34.844758,"lng":136.590284,"zip":"5100231"},{"town":"江島町","koaza":"","lat":34.844085,"lng":136.586704,"zip":"5100237"},{"town":"江島本町","koaza":"","lat":34.834971,"lng":136.595449,"zip":"5100234"},{"town":"追分町","koaza":"","lat":34.941368,"lng":136.491602,"zip":"5190313"},{"town":"大池一丁目","koaza":"","lat":34.867561,"lng":136.542479,"zip":"5130827"},{"town":"大池二丁目","koaza":"","lat":34.867343,"lng":136.539506,"zip":"5130827"},{"town":"大池三丁目","koaza":"","lat":34.867675,"lng":136.535478,"zip":"5130827"},{"town":"大久保町","koaza":"","lat":34.971627,"lng":136.458862,"zip":"5190311"},{"town":"越知町","koaza":"","lat":34.820709,"lng":136.532584,"zip":"5100262"},{"town":"岡田一丁目","koaza":"","lat":34.88043,"lng":136.545967,"zip":"5130027"},{"town":"岡田二丁目","koaza":"","lat":34.877818,"lng":136.546686,"zip":"5130027"},{"town":"岡田三丁目","koaza":"","lat":34.879421,"lng":136.550485,"zip":"5130027"},{"town":"岡田町","koaza":"","lat":34.883451,"lng":136.549239,"zip":"5130028"},{"town":"小岐須町","koaza":"","lat":34.96303,"lng":136.422856,"zip":"5190316"},{"town":"小田町","koaza":"","lat":34.871759,"lng":136.495822,"zip":"5130007"},{"town":"甲斐町","koaza":"","lat":34.889774,"lng":136.555165,"zip":"5130021"},{"town":"加佐登一丁目","koaza":"","lat":34.89197,"lng":136.532634,"zip":"5130004"},{"town":"加佐登二丁目","koaza":"","lat":34.892489,"lng":136.528169,"zip":"5130004"},{"town":"加佐登三丁目","koaza":"","lat":34.892922,"lng":136.525827,"zip":"5130004"},{"town":"加佐登四丁目","koaza":"","lat":34.895815,"lng":136.522124,"zip":"5130004"},{"town":"加佐登町","koaza":"","lat":34.901624,"lng":136.52208,"zip":"5130003"},{"town":"上箕田一丁目","koaza":"","lat":34.880451,"lng":136.610542,"zip":"5130056"},{"town":"上箕田二丁目","koaza":"","lat":34.881153,"lng":136.608225,"zip":"5130056"},{"town":"上箕田町","koaza":"","lat":34.885474,"lng":136.612142,"zip":"5130055"},{"town":"神戸一丁目","koaza":"","lat":34.881834,"lng":136.583708,"zip":"5130801"},{"town":"神戸二丁目","koaza":"","lat":34.882266,"lng":136.579739,"zip":"5130801"},{"town":"神戸三丁目","koaza":"","lat":34.876735,"lng":136.584344,"zip":"5130801"},{"town":"神戸四丁目","koaza":"","lat":34.878158,"lng":136.579652,"zip":"5130801"},{"town":"神戸五丁目","koaza":"","lat":34.879774,"lng":136.576512,"zip":"5130801"},{"town":"神戸六丁目","koaza":"","lat":34.883227,"lng":136.576029,"zip":"5130801"},{"town":"神戸七丁目","koaza":"","lat":34.88581,"lng":136.578241,"zip":"5130801"},{"town":"神戸八丁目","koaza":"","lat":34.886812,"lng":136.581989,"zip":"5130801"},{"town":"神戸九丁目","koaza":"","lat":34.88403,"lng":136.58478,"zip":"5130801"},{"town":"神戸寺家町","koaza":"","lat":34.87295,"lng":136.585678,"zip":"5130000"},{"town":"神戸地子町","koaza":"","lat":34.872724,"lng":136.586665,"zip":"5130000"},{"town":"神戸本多町","koaza":"","lat":34.877354,"lng":136.576204,"zip":"5130801"},{"town":"岸岡町","koaza":"","lat":34.854337,"lng":136.602406,"zip":"5100226"},{"town":"岸田町","koaza":"","lat":34.942816,"lng":136.509449,"zip":"5131121"},{"town":"北江島町","koaza":"","lat":34.843691,"lng":136.5973,"zip":"5100232"},{"town":"北玉垣町","koaza":"","lat":34.866167,"lng":136.58699,"zip":"5130813"},{"town":"木田町","koaza":"","lat":34.903589,"lng":136.561658,"zip":"5130015"},{"town":"北長太町","koaza":"","lat":34.898287,"lng":136.628743,"zip":"5130049"},{"town":"北堀江一丁目","koaza":"","lat":34.885198,"lng":136.622771,"zip":"5130045"},{"town":"北堀江二丁目","koaza":"","lat":34.883172,"lng":136.625671,"zip":"5130045"},{"town":"北堀江町","koaza":"","lat":34.884259,"lng":136.626664,"zip":"5130044"},{"town":"北若松町","koaza":"","lat":34.873564,"lng":136.619243,"zip":"5100221"},{"town":"汲川原町","koaza":"","lat":34.87824,"lng":136.519502,"zip":"5130005"},{"town":"河田町","koaza":"","lat":34.890716,"lng":136.571158,"zip":"5130023"},{"town":"国府町","koaza":"","lat":34.850305,"lng":136.507861,"zip":"5130836"},{"town":"郡山町","koaza":"","lat":34.814398,"lng":136.534455,"zip":"5100263"},{"town":"国分町","koaza":"","lat":34.906456,"lng":136.570947,"zip":"5130013"},{"town":"小社町","koaza":"","lat":34.946449,"lng":136.461949,"zip":"5190324"},{"town":"桜島町一丁目","koaza":"","lat":34.85364,"lng":136.571713,"zip":"5130817"},{"town":"桜島町二丁目","koaza":"","lat":34.852148,"lng":136.57552,"zip":"5130817"},{"town":"桜島町三丁目","koaza":"","lat":34.853484,"lng":136.57603,"zip":"5130817"},{"town":"桜島町四丁目","koaza":"","lat":34.856426,"lng":136.576327,"zip":"5130817"},{"town":"桜島町五丁目","koaza":"","lat":34.85768,"lng":136.573685,"zip":"5130817"},{"town":"桜島町六丁目","koaza":"","lat":34.855617,"lng":136.572534,"zip":"5130817"},{"town":"桜島町七丁目","koaza":"","lat":34.856543,"lng":136.569401,"zip":"5130817"},{"town":"算所一丁目","koaza":"","lat":34.872112,"lng":136.543541,"zip":"5130806"},{"town":"算所二丁目","koaza":"","lat":34.872563,"lng":136.54668,"zip":"5130806"},{"town":"算所三丁目","koaza":"","lat":34.875689,"lng":136.545601,"zip":"5130806"},{"town":"算所四丁目","koaza":"","lat":34.878712,"lng":136.55249,"zip":"5130806"},{"town":"算所五丁目","koaza":"","lat":34.876546,"lng":136.551673,"zip":"5130806"},{"town":"算所町","koaza":"","lat":34.870678,"lng":136.551099,"zip":"5130805"},{"town":"寺家一丁目","koaza":"","lat":34.817318,"lng":136.578917,"zip":"5100254"},{"town":"寺家二丁目","koaza":"","lat":34.818626,"lng":136.57663,"zip":"5100254"},{"town":"寺家三丁目","koaza":"","lat":34.822567,"lng":136.58208,"zip":"5100254"},{"town":"寺家四丁目","koaza":"","lat":34.825516,"lng":136.582442,"zip":"5100254"},{"town":"寺家五丁目","koaza":"","lat":34.827967,"lng":136.581275,"zip":"5100254"},{"town":"寺家六丁目","koaza":"","lat":34.823773,"lng":136.577505,"zip":"5100254"},{"town":"寺家七丁目","koaza":"","lat":34.825802,"lng":136.574998,"zip":"5100254"},{"town":"寺家八丁目","koaza":"","lat":34.823118,"lng":136.573691,"zip":"5100254"},{"town":"寺家町","koaza":"","lat":34.828607,"lng":136.574768,"zip":"5100253"},{"town":"地子町","koaza":"","lat":34.869411,"lng":136.568722,"zip":"5130821"},{"town":"下大久保町","koaza":"","lat":34.923562,"lng":136.533091,"zip":"5131123"},{"town":"下箕田一丁目","koaza":"","lat":34.880033,"lng":136.629002,"zip":"5130052"},{"town":"下箕田二丁目","koaza":"","lat":34.875625,"lng":136.627553,"zip":"5130052"},{"town":"下箕田三丁目","koaza":"","lat":34.877055,"lng":136.625672,"zip":"5130052"},{"town":"下箕田四丁目","koaza":"","lat":34.880925,"lng":136.626528,"zip":"5130052"},{"town":"下箕田町","koaza":"","lat":34.876286,"lng":136.620072,"zip":"5130051"},{"town":"自由ヶ丘一丁目","koaza":"","lat":34.912411,"lng":136.550852,"zip":"5131124"},{"town":"自由ヶ丘二丁目","koaza":"","lat":34.91526,"lng":136.550467,"zip":"5131124"},{"town":"自由ヶ丘三丁目","koaza":"","lat":34.913718,"lng":136.547174,"zip":"5131124"},{"town":"自由ヶ丘四丁目","koaza":"","lat":34.911624,"lng":136.547948,"zip":"5131124"},{"town":"庄野共進一丁目","koaza":"","lat":34.875753,"lng":136.534064,"zip":"5130833"},{"town":"庄野共進二丁目","koaza":"","lat":34.875103,"lng":136.531309,"zip":"5130833"},{"town":"庄野共進三丁目","koaza":"","lat":34.876479,"lng":136.53146,"zip":"5130833"},{"town":"庄野町","koaza":"","lat":34.881888,"lng":136.525614,"zip":"5130831"},{"town":"庄野羽山一丁目","koaza":"","lat":34.875221,"lng":136.528718,"zip":"5130834"},{"town":"庄野羽山二丁目","koaza":"","lat":34.874826,"lng":136.526718,"zip":"5130834"},{"town":"庄野羽山三丁目","koaza":"","lat":34.871848,"lng":136.52373,"zip":"5130834"},{"town":"庄野羽山四丁目","koaza":"","lat":34.871619,"lng":136.529256,"zip":"5130834"},{"town":"庄野東一丁目","koaza":"","lat":34.878497,"lng":136.532629,"zip":"5130832"},{"town":"庄野東二丁目","koaza":"","lat":34.878499,"lng":136.529484,"zip":"5130832"},{"town":"庄野東三丁目","koaza":"","lat":34.879973,"lng":136.531016,"zip":"5130832"},{"town":"白子一丁目","koaza":"","lat":34.829522,"lng":136.588177,"zip":"5100243"},{"town":"白子二丁目","koaza":"","lat":34.82713,"lng":136.586252,"zip":"5100243"},{"town":"白子三丁目","koaza":"","lat":34.831347,"lng":136.58486,"zip":"5100243"},{"town":"白子四丁目","koaza":"","lat":34.833849,"lng":136.583185,"zip":"5100243"},{"town":"白子駅前","koaza":"","lat":34.835934,"lng":136.589546,"zip":"5100241"},{"town":"白子町","koaza":"","lat":34.839308,"lng":136.574838,"zip":"5100244"},{"town":"白子本町","koaza":"","lat":34.833326,"lng":136.591019,"zip":"5100242"},{"town":"末広北一丁目","koaza":"","lat":34.861388,"lng":136.56642,"zip":"5130854"},{"town":"末広北二丁目","koaza":"","lat":34.861375,"lng":136.562186,"zip":"5130854"},{"town":"末広北三丁目","koaza":"","lat":34.861309,"lng":136.559357,"zip":"5130854"},{"town":"末広町","koaza":"","lat":34.863342,"lng":136.560331,"zip":"5130822"},{"town":"末広西","koaza":"","lat":34.859503,"lng":136.557218,"zip":"5130852"},{"town":"末広東","koaza":"","lat":34.859724,"lng":136.570249,"zip":"5130851"},{"town":"末広南一丁目","koaza":"","lat":34.859477,"lng":136.564415,"zip":"5130853"},{"town":"末広南二丁目","koaza":"","lat":34.858747,"lng":136.561057,"zip":"5130853"},{"town":"末広南三丁目","koaza":"","lat":34.857441,"lng":136.56033,"zip":"5130853"},{"town":"須賀一丁目","koaza":"","lat":34.886514,"lng":136.58663,"zip":"5130034"},{"town":"須賀二丁目","koaza":"","lat":34.888967,"lng":136.587575,"zip":"5130034"},{"town":"須賀三丁目","koaza":"","lat":34.889352,"lng":136.584142,"zip":"5130034"},{"town":"須賀町","koaza":"","lat":34.889638,"lng":136.593943,"zip":"5130033"},{"town":"鈴鹿ハイツ","koaza":"","lat":34.854591,"lng":136.551387,"zip":"5100208"},{"town":"住吉一丁目","koaza":"","lat":34.864689,"lng":136.538062,"zip":"5130826"},{"town":"住吉二丁目","koaza":"","lat":34.862201,"lng":136.539661,"zip":"5130826"},{"town":"住吉三丁目","koaza":"","lat":34.861291,"lng":136.53553,"zip":"5130826"},{"town":"住吉四丁目","koaza":"","lat":34.861014,"lng":136.531915,"zip":"5130826"},{"town":"住吉五丁目","koaza":"","lat":34.859815,"lng":136.527572,"zip":"5130826"},{"town":"住吉町","koaza":"","lat":34.851884,"lng":136.533131,"zip":"5130825"},{"town":"高岡台一丁目","koaza":"","lat":34.907788,"lng":136.592939,"zip":"5130019"},{"town":"高岡台二丁目","koaza":"","lat":34.909257,"lng":136.58814,"zip":"5130019"},{"town":"高岡台三丁目","koaza":"","lat":34.907301,"lng":136.589032,"zip":"5130019"},{"town":"高岡台四丁目","koaza":"","lat":34.90826,"lng":136.58547,"zip":"5130019"},{"town":"高岡台五丁目","koaza":"","lat":34.904518,"lng":136.586668,"zip":"5130019"},{"town":"高岡町","koaza":"","lat":34.900873,"lng":136.58629,"zip":"5130014"},{"town":"高塚町","koaza":"","lat":34.902914,"lng":136.514934,"zip":"5130011"},{"town":"竹野一丁目","koaza":"","lat":34.882403,"lng":136.56026,"zip":"5130025"},{"town":"竹野二丁目","koaza":"","lat":34.881683,"lng":136.55673,"zip":"5130025"},{"town":"竹野町","koaza":"","lat":34.883736,"lng":136.556953,"zip":"5130026"},{"town":"長法寺町","koaza":"","lat":34.830759,"lng":136.503245,"zip":"5100266"},{"town":"津賀町","koaza":"","lat":34.889584,"lng":136.515,"zip":"5130002"},{"town":"椿一宮町","koaza":"","lat":34.948989,"lng":136.492757,"zip":"5190312"},{"town":"道伯一丁目","koaza":"","lat":34.863934,"lng":136.543177,"zip":"5130823"},{"town":"道伯二丁目","koaza":"","lat":34.863196,"lng":136.545651,"zip":"5130823"},{"town":"道伯三丁目","koaza":"","lat":34.866167,"lng":136.545947,"zip":"5130823"},{"town":"道伯四丁目","koaza":"","lat":34.866378,"lng":136.549255,"zip":"5130823"},{"town":"道伯五丁目","koaza":"","lat":34.862991,"lng":136.549555,"zip":"5130823"},{"town":"道伯町","koaza":"","lat":34.857848,"lng":136.549456,"zip":"5130824"},{"town":"徳居町","koaza":"","lat":34.817397,"lng":136.516913,"zip":"5100264"},{"town":"徳田町","koaza":"","lat":34.825993,"lng":136.545369,"zip":"5100251"},{"town":"十宮一丁目","koaza":"","lat":34.892946,"lng":136.580598,"zip":"5130037"},{"town":"十宮二丁目","koaza":"","lat":34.891197,"lng":136.582581,"zip":"5130037"},{"town":"十宮三丁目","koaza":"","lat":34.890361,"lng":136.580394,"zip":"5130037"},{"town":"十宮四丁目","koaza":"","lat":34.888036,"lng":136.579263,"zip":"5130037"},{"town":"十宮町","koaza":"","lat":34.893465,"lng":136.575697,"zip":"5130038"},{"town":"中旭が丘一丁目","koaza":"","lat":34.84792,"lng":136.571532,"zip":"5100212"},{"town":"中旭が丘二丁目","koaza":"","lat":34.845816,"lng":136.574057,"zip":"5100212"},{"town":"中旭が丘三丁目","koaza":"","lat":34.843687,"lng":136.576607,"zip":"5100212"},{"town":"中旭が丘四丁目","koaza":"","lat":34.84162,"lng":136.579036,"zip":"5100212"},{"town":"中江島町","koaza":"","lat":34.841198,"lng":136.594258,"zip":"5100236"},{"town":"長澤町","koaza":"","lat":34.938924,"lng":136.477767,"zip":"5190314"},{"town":"中瀬古町","koaza":"","lat":34.813393,"lng":136.546152,"zip":"5100259"},{"town":"中冨田町","koaza":"","lat":34.880869,"lng":136.509915,"zip":"5130009"},{"town":"中箕田一丁目","koaza":"","lat":34.880978,"lng":136.616041,"zip":"5130054"},{"town":"中箕田二丁目","koaza":"","lat":34.87962,"lng":136.619102,"zip":"5130054"},{"town":"中箕田町","koaza":"","lat":34.878667,"lng":136.614657,"zip":"5130053"},{"town":"長太旭町一丁目","koaza":"","lat":34.896782,"lng":136.622701,"zip":"5130042"},{"town":"長太旭町二丁目","koaza":"","lat":34.89582,"lng":136.625977,"zip":"5130042"},{"town":"長太旭町三丁目","koaza":"","lat":34.893462,"lng":136.625445,"zip":"5130042"},{"town":"長太旭町四丁目","koaza":"","lat":34.893456,"lng":136.628333,"zip":"5130042"},{"town":"長太旭町五丁目","koaza":"","lat":34.892721,"lng":136.631499,"zip":"5130042"},{"town":"長太旭町六丁目","koaza":"","lat":34.895282,"lng":136.63524,"zip":"5130042"},{"town":"長太栄町一丁目","koaza":"","lat":34.893575,"lng":136.623127,"zip":"5130043"},{"town":"長太栄町二丁目","koaza":"","lat":34.890824,"lng":136.624371,"zip":"5130043"},{"town":"長太栄町三丁目","koaza":"","lat":34.889466,"lng":136.628169,"zip":"5130043"},{"town":"長太栄町四丁目","koaza":"","lat":34.890998,"lng":136.632958,"zip":"5130043"},{"town":"長太栄町五丁目","koaza":"","lat":34.887546,"lng":136.630792,"zip":"5130043"},{"town":"長太新町一丁目","koaza":"","lat":34.90278,"lng":136.628374,"zip":"5130041"},{"town":"長太新町二丁目","koaza":"","lat":34.902727,"lng":136.633548,"zip":"5130041"},{"town":"長太新町三丁目","koaza":"","lat":34.901075,"lng":136.638463,"zip":"5130041"},{"town":"長太新町四丁目","koaza":"","lat":34.899024,"lng":136.637248,"zip":"5130041"},{"town":"西条一丁目","koaza":"","lat":34.881317,"lng":136.57278,"zip":"5130809"},{"town":"西条二丁目","koaza":"","lat":34.883,"lng":136.571067,"zip":"5130809"},{"town":"西条三丁目","koaza":"","lat":34.880341,"lng":136.566628,"zip":"5130809"},{"town":"西条四丁目","koaza":"","lat":34.879256,"lng":136.572557,"zip":"5130809"},{"town":"西条五丁目","koaza":"","lat":34.878658,"lng":136.568478,"zip":"5130809"},{"town":"西条六丁目","koaza":"","lat":34.876567,"lng":136.569328,"zip":"5130809"},{"town":"西条七丁目","koaza":"","lat":34.878158,"lng":136.564484,"zip":"5130809"},{"town":"西条八丁目","koaza":"","lat":34.87641,"lng":136.563556,"zip":"5130809"},{"town":"西条九丁目","koaza":"","lat":34.874879,"lng":136.563576,"zip":"5130809"},{"town":"西條町","koaza":"","lat":34.872223,"lng":136.564432,"zip":"5130808"},{"town":"西庄内町","koaza":"","lat":34.939402,"lng":136.442631,"zip":"5190271"},{"town":"西玉垣町","koaza":"","lat":34.862396,"lng":136.58466,"zip":"5130815"},{"town":"西冨田町","koaza":"","lat":34.878424,"lng":136.501644,"zip":"5130008"},{"town":"野町","koaza":"","lat":34.848923,"lng":136.564295,"zip":"5100202"},{"town":"野町中一丁目","koaza":"","lat":34.85288,"lng":136.567297,"zip":"5100216"},{"town":"野町中二丁目","koaza":"","lat":34.850954,"lng":136.56565,"zip":"5100216"},{"town":"野町中三丁目","koaza":"","lat":34.849619,"lng":136.563004,"zip":"5100216"},{"town":"野町西一丁目","koaza":"","lat":34.854469,"lng":136.563632,"zip":"5100218"},{"town":"野町西二丁目","koaza":"","lat":34.85237,"lng":136.563787,"zip":"5100218"},{"town":"野町西三丁目","koaza":"","lat":34.853665,"lng":136.562198,"zip":"5100218"},{"town":"野町東一丁目","koaza":"","lat":34.851629,"lng":136.570408,"zip":"5100217"},{"town":"野町東二丁目","koaza":"","lat":34.849748,"lng":136.569063,"zip":"5100217"},{"town":"野町南一丁目","koaza":"","lat":34.850403,"lng":136.561829,"zip":"5100219"},{"town":"野村町","koaza":"","lat":34.84094,"lng":136.567546,"zip":"5100203"},{"town":"野辺一丁目","koaza":"","lat":34.884791,"lng":136.564273,"zip":"5130024"},{"town":"野辺二丁目","koaza":"","lat":34.881807,"lng":136.564773,"zip":"5130024"},{"town":"野辺町","koaza":"","lat":34.888181,"lng":136.5639,"zip":"5130022"},{"town":"土師町","koaza":"","lat":34.872137,"lng":136.606063,"zip":"5130812"},{"town":"八野町","koaza":"","lat":34.841748,"lng":136.489934,"zip":"5130837"},{"town":"花川町","koaza":"","lat":34.932338,"lng":136.514068,"zip":"5131122"},{"town":"林崎一丁目","koaza":"","lat":34.883697,"lng":136.606915,"zip":"5130058"},{"town":"林崎二丁目","koaza":"","lat":34.88459,"lng":136.603811,"zip":"5130058"},{"town":"林崎町","koaza":"","lat":34.88791,"lng":136.604454,"zip":"5130059"},{"town":"東旭が丘一丁目","koaza":"","lat":34.849352,"lng":136.573144,"zip":"5100211"},{"town":"東旭が丘二丁目","koaza":"","lat":34.848786,"lng":136.576813,"zip":"5100211"},{"town":"東旭が丘三丁目","koaza":"","lat":34.845811,"lng":136.578335,"zip":"5100211"},{"town":"東旭が丘四丁目","koaza":"","lat":34.843796,"lng":136.581081,"zip":"5100211"},{"town":"東旭が丘五丁目","koaza":"","lat":34.846443,"lng":136.581274,"zip":"5100211"},{"town":"東旭が丘六丁目","koaza":"","lat":34.845306,"lng":136.584115,"zip":"5100211"},{"town":"東磯山一丁目","koaza":"","lat":34.808757,"lng":136.568766,"zip":"5100257"},{"town":"東磯山二丁目","koaza":"","lat":34.811288,"lng":136.57251,"zip":"5100257"},{"town":"東磯山三丁目","koaza":"","lat":34.813999,"lng":136.575386,"zip":"5100257"},{"town":"東磯山四丁目","koaza":"","lat":34.81544,"lng":136.572671,"zip":"5100257"},{"town":"東江島町","koaza":"","lat":34.839824,"lng":136.59764,"zip":"5100233"},{"town":"東庄内町","koaza":"","lat":34.913606,"lng":136.465199,"zip":"5190272"},{"town":"東玉垣町","koaza":"","lat":34.860227,"lng":136.592228,"zip":"5130814"},{"town":"肥田町","koaza":"","lat":34.877115,"lng":136.593921,"zip":"5130819"},{"town":"平田一丁目","koaza":"","lat":34.876728,"lng":136.53985,"zip":"5130844"},{"town":"平田二丁目","koaza":"","lat":34.875989,"lng":136.536769,"zip":"5130844"},{"town":"平田新町","koaza":"","lat":34.871873,"lng":136.541449,"zip":"5130845"},{"town":"平田町","koaza":"","lat":34.867515,"lng":136.532418,"zip":"5130847"},{"town":"平田中町","koaza":"","lat":34.871751,"lng":136.537017,"zip":"5130846"},{"town":"平田東町","koaza":"","lat":34.876672,"lng":136.54334,"zip":"5130843"},{"town":"平田本町一丁目","koaza":"","lat":34.881368,"lng":136.53779,"zip":"5130848"},{"town":"平田本町二丁目","koaza":"","lat":34.878566,"lng":136.536981,"zip":"5130848"},{"town":"平野町","koaza":"","lat":34.868639,"lng":136.513815,"zip":"5130835"},{"town":"広瀬町","koaza":"","lat":34.891836,"lng":136.500138,"zip":"5130001"},{"town":"深溝町","koaza":"","lat":34.924065,"lng":136.505314,"zip":"5190321"},{"town":"御薗町","koaza":"","lat":34.833911,"lng":136.523425,"zip":"5100261"},{"town":"三日市一丁目","koaza":"","lat":34.879521,"lng":136.556596,"zip":"5130807"},{"town":"三日市二丁目","koaza":"","lat":34.878845,"lng":136.559396,"zip":"5130807"},{"town":"三日市三丁目","koaza":"","lat":34.876547,"lng":136.556835,"zip":"5130807"},{"town":"三日市町","koaza":"","lat":34.871182,"lng":136.558208,"zip":"5130803"},{"town":"三日市南一丁目","koaza":"","lat":34.865103,"lng":136.55093,"zip":"5130804"},{"town":"三日市南二丁目","koaza":"","lat":34.863095,"lng":136.552855,"zip":"5130804"},{"town":"三日市南三丁目","koaza":"","lat":34.864728,"lng":136.555769,"zip":"5130804"},{"town":"南旭が丘一丁目","koaza":"","lat":34.846244,"lng":136.569657,"zip":"5100213"},{"town":"南旭が丘二丁目","koaza":"","lat":34.844242,"lng":136.570735,"zip":"5100213"},{"town":"南旭が丘三丁目","koaza":"","lat":34.842494,"lng":136.573982,"zip":"5100213"},{"town":"南江島町","koaza":"","lat":34.839683,"lng":136.590638,"zip":"5100235"},{"town":"南玉垣町","koaza":"","lat":34.85582,"lng":136.584548,"zip":"5130816"},{"town":"南長太町","koaza":"","lat":34.88875,"lng":136.617885,"zip":"5130048"},{"town":"南林崎町","koaza":"","lat":34.881381,"lng":136.602846,"zip":"5130057"},{"town":"南堀江一丁目","koaza":"","lat":34.881096,"lng":136.620449,"zip":"5130046"},{"town":"南堀江二丁目","koaza":"","lat":34.880691,"lng":136.62377,"zip":"5130046"},{"town":"南堀江町","koaza":"","lat":34.883386,"lng":136.62137,"zip":"5130047"},{"town":"南若松町","koaza":"","lat":34.843727,"lng":136.603369,"zip":"5100227"},{"town":"三畑町","koaza":"","lat":34.910262,"lng":136.50029,"zip":"5190322"},{"town":"三宅町","koaza":"","lat":34.817622,"lng":136.499153,"zip":"5100265"},{"town":"安塚町","koaza":"","lat":34.868148,"lng":136.577673,"zip":"5130818"},{"town":"柳町","koaza":"","lat":34.871874,"lng":136.597813,"zip":"5130811"},{"town":"矢橋一丁目","koaza":"","lat":34.879165,"lng":136.587063,"zip":"5130036"},{"town":"矢橋二丁目","koaza":"","lat":34.88207,"lng":136.588161,"zip":"5130036"},{"town":"矢橋三丁目","koaza":"","lat":34.885027,"lng":136.589439,"zip":"5130036"},{"town":"矢橋町","koaza":"","lat":34.880553,"lng":136.591718,"zip":"5130035"},{"town":"山辺町","koaza":"","lat":34.897884,"lng":136.563762,"zip":"5130016"},{"town":"山本町","koaza":"","lat":34.959911,"lng":136.460145,"zip":"5190315"},{"town":"弓削一丁目","koaza":"","lat":34.881445,"lng":136.540522,"zip":"5130842"},{"town":"弓削二丁目","koaza":"","lat":34.878605,"lng":136.542769,"zip":"5130842"},{"town":"弓削町","koaza":"","lat":34.885194,"lng":136.541699,"zip":"5130841"},{"town":"若松北一丁目","koaza":"","lat":34.865433,"lng":136.616948,"zip":"5100223"},{"town":"若松北二丁目","koaza":"","lat":34.869357,"lng":136.619508,"zip":"5100223"},{"town":"若松北三丁目","koaza":"","lat":34.87224,"lng":136.623153,"zip":"5100223"},{"town":"若松中一丁目","koaza":"","lat":34.857614,"lng":136.61215,"zip":"5100224"},{"town":"若松中二丁目","koaza":"","lat":34.861671,"lng":136.614674,"zip":"5100224"},{"town":"若松西一丁目","koaza":"","lat":34.863062,"lng":136.610166,"zip":"5100222"},{"town":"若松西二丁目","koaza":"","lat":34.865355,"lng":136.6111,"zip":"5100222"},{"town":"若松西三丁目","koaza":"","lat":34.867338,"lng":136.611934,"zip":"5100222"},{"town":"若松西四丁目","koaza":"","lat":34.869128,"lng":136.612928,"zip":"5100222"},{"town":"若松西五丁目","koaza":"","lat":34.871136,"lng":136.613809,"zip":"5100222"},{"town":"若松西六丁目","koaza":"","lat":34.874431,"lng":136.61287,"zip":"5100222"},{"town":"若松東一丁目","koaza":"","lat":34.857321,"lng":136.615264,"zip":"5100225"},{"town":"若松東二丁目","koaza":"","lat":34.863416,"lng":136.619504,"zip":"5100225"},{"town":"若松東三丁目","koaza":"","lat":34.868638,"lng":136.623265,"zip":"5100225"},{"town":"東旭が丘七丁目","koaza":"","lat":34.848697,"lng":136.581634,"zip":"5100211"},{"town":"道伯町","koaza":"東浦","lat":34.861006,"lng":136.546443,"zip":"5130824"},{"town":"算所町","koaza":"新開","lat":34.872844,"lng":136.548724,"zip":"5130805"},{"town":"算所町","koaza":"山之相","lat":34.874336,"lng":136.552281,"zip":"5130805"},{"town":"安塚町","koaza":"山之花","lat":34.86614,"lng":136.569922,"zip":"5130818"},{"town":"三日市町","koaza":"東新田場","lat":34.867689,"lng":136.550605,"zip":"5130803"},{"town":"伊船町","koaza":"東境塚","lat":34.922551,"lng":136.493335,"zip":"5190323"},{"town":"石薬師町","koaza":"寺東","lat":34.903676,"lng":136.552534,"zip":"5130012"},{"town":"中冨田町","koaza":"中谷","lat":34.882015,"lng":136.505478,"zip":"5130009"},{"town":"安塚町","koaza":"筧ノ内","lat":34.869585,"lng":136.585337,"zip":"5130818"},{"town":"北玉垣町","koaza":"中野","lat":34.868397,"lng":136.587831,"zip":"5130813"},{"town":"安塚町","koaza":"須田","lat":34.870374,"lng":136.586984,"zip":"5130818"},{"town":"南玉垣町","koaza":"稲狭間","lat":34.856793,"lng":136.589273,"zip":"5130816"},{"town":"白子町","koaza":"生水","lat":34.8391,"lng":136.583998,"zip":"5100244"},{"town":"飯野寺家町","koaza":"柳原","lat":34.876481,"lng":136.574734,"zip":"5130802"},{"town":"神戸本多町","koaza":"本多町","lat":34.87652,"lng":136.577369,"zip":"5130801"}]