[{"town":"畔蛸町","koaza":"","lat":34.39425,"lng":136.88994,"zip":"5170033"},{"town":"安楽島町","koaza":"","lat":34.463592,"lng":136.865802,"zip":"5170021"},{"town":"池上町","koaza":"","lat":34.480798,"lng":136.829623,"zip":"5170012"},{"town":"石鏡町","koaza":"","lat":34.441433,"lng":136.917741,"zip":"5170026"},{"town":"岩倉町","koaza":"","lat":34.444072,"lng":136.85531,"zip":"5170041"},{"town":"浦村町","koaza":"","lat":34.433197,"lng":136.901249,"zip":"5170025"},{"town":"大明西町","koaza":"","lat":34.467834,"lng":136.846204,"zip":"5170023"},{"town":"大明東町","koaza":"","lat":34.469298,"lng":136.851274,"zip":"5170022"},{"town":"相差町","koaza":"","lat":34.394882,"lng":136.901629,"zip":"5170032"},{"town":"小浜町","koaza":"","lat":34.49671,"lng":136.831265,"zip":"5170015"},{"town":"堅神町","koaza":"","lat":34.472593,"lng":136.817687,"zip":"5170014"},{"town":"堅子町","koaza":"","lat":34.390327,"lng":136.871376,"zip":"5170035"},{"town":"神島町","koaza":"","lat":34.545666,"lng":136.981915,"zip":"5170001"},{"town":"国崎町","koaza":"","lat":34.416224,"lng":136.915252,"zip":"5170031"},{"town":"河内町","koaza":"","lat":34.440669,"lng":136.808523,"zip":"5170044"},{"town":"坂手町","koaza":"","lat":34.486496,"lng":136.858203,"zip":"5170005"},{"town":"幸丘","koaza":"","lat":34.457843,"lng":136.84476,"zip":"5170046"},{"town":"白木町","koaza":"","lat":34.420992,"lng":136.815645,"zip":"5170043"},{"town":"菅島町","koaza":"","lat":34.489938,"lng":136.888162,"zip":"5170004"},{"town":"千賀町","koaza":"","lat":34.391336,"lng":136.880175,"zip":"5170034"},{"town":"高丘町","koaza":"","lat":34.462882,"lng":136.857835,"zip":"5170024"},{"town":"答志町","koaza":"","lat":34.524463,"lng":136.891855,"zip":"5170002"},{"town":"鳥羽一丁目","koaza":"","lat":34.487879,"lng":136.840414,"zip":"5170011"},{"town":"鳥羽二丁目","koaza":"","lat":34.481565,"lng":136.83898,"zip":"5170011"},{"town":"鳥羽三丁目","koaza":"","lat":34.480488,"lng":136.843988,"zip":"5170011"},{"town":"鳥羽四丁目","koaza":"","lat":34.474656,"lng":136.845378,"zip":"5170011"},{"town":"鳥羽五丁目","koaza":"","lat":34.469265,"lng":136.841629,"zip":"5170011"},{"town":"鳥羽町","koaza":"","lat":34.476952,"lng":136.836214,"zip":"5170000"},{"town":"船津町","koaza":"","lat":34.463553,"lng":136.837264,"zip":"5170045"},{"town":"松尾町","koaza":"","lat":34.422091,"lng":136.842096,"zip":"5170042"},{"town":"桃取町","koaza":"","lat":34.517914,"lng":136.874594,"zip":"5170003"},{"town":"屋内町","koaza":"","lat":34.47864,"lng":136.824896,"zip":"5170013"},{"town":"若杉町","koaza":"","lat":34.452693,"lng":136.841702,"zip":"5170047"},{"town":"船津町","koaza":"石代","lat":34.463475,"lng":136.841027,"zip":"5170045"}]