[{"town":"青山一丁目","koaza":"","lat":34.98274,"lng":135.968774,"zip":"5202101"},{"town":"青山二丁目","koaza":"","lat":34.982838,"lng":135.972031,"zip":"5202101"},{"town":"青山三丁目","koaza":"","lat":34.980064,"lng":135.973061,"zip":"5202101"},{"town":"青山四丁目","koaza":"","lat":34.980415,"lng":135.969033,"zip":"5202101"},{"town":"青山五丁目","koaza":"","lat":34.979484,"lng":135.966794,"zip":"5202101"},{"town":"青山六丁目","koaza":"","lat":34.977649,"lng":135.97197,"zip":"5202101"},{"town":"青山七丁目","koaza":"","lat":34.975333,"lng":135.972433,"zip":"5202101"},{"town":"青山八丁目","koaza":"","lat":34.975475,"lng":135.975072,"zip":"5202101"},{"town":"赤尾町","koaza":"","lat":34.942668,"lng":135.899597,"zip":"5200864"},{"town":"あかね町","koaza":"","lat":35.042651,"lng":135.863475,"zip":"5200003"},{"town":"秋葉台","koaza":"","lat":34.988599,"lng":135.883157,"zip":"5200822"},{"town":"朝日一丁目","koaza":"","lat":35.140133,"lng":135.916437,"zip":"5200533"},{"town":"朝日二丁目","koaza":"","lat":35.144159,"lng":135.914367,"zip":"5200533"},{"town":"朝日が丘一丁目","koaza":"","lat":35.000367,"lng":135.868752,"zip":"5200052"},{"town":"朝日が丘二丁目","koaza":"","lat":34.997522,"lng":135.869116,"zip":"5200052"},{"town":"穴太一丁目","koaza":"","lat":35.055769,"lng":135.867613,"zip":"5200114"},{"town":"穴太二丁目","koaza":"","lat":35.053806,"lng":135.866412,"zip":"5200114"},{"town":"穴太三丁目","koaza":"","lat":35.054352,"lng":135.863054,"zip":"5200114"},{"town":"荒川","koaza":"","lat":35.214224,"lng":135.910833,"zip":"5200513"},{"town":"粟津町","koaza":"","lat":34.979402,"lng":135.900029,"zip":"5200832"},{"town":"伊香立上在地町","koaza":"","lat":35.146914,"lng":135.856097,"zip":"5200356"},{"town":"伊香立上龍華町","koaza":"","lat":35.166096,"lng":135.876172,"zip":"5200362"},{"town":"伊香立北在地町","koaza":"","lat":35.150071,"lng":135.865018,"zip":"5200351"},{"town":"伊香立下在地町","koaza":"","lat":35.146203,"lng":135.883335,"zip":"5200352"},{"town":"伊香立下龍華町","koaza":"","lat":35.156553,"lng":135.893984,"zip":"5200363"},{"town":"伊香立途中町","koaza":"","lat":35.170524,"lng":135.855428,"zip":"5200361"},{"town":"伊香立生津町","koaza":"","lat":35.137272,"lng":135.860742,"zip":"5200355"},{"town":"伊香立南庄町","koaza":"","lat":35.126381,"lng":135.873439,"zip":"5200354"},{"town":"伊香立向在地町","koaza":"","lat":35.136915,"lng":135.876679,"zip":"5200353"},{"town":"池の里","koaza":"","lat":34.989697,"lng":135.873153,"zip":"5200827"},{"town":"石居一丁目","koaza":"","lat":34.947411,"lng":135.925377,"zip":"5202272"},{"town":"石居二丁目","koaza":"","lat":34.946411,"lng":135.929569,"zip":"5202272"},{"town":"石居三丁目","koaza":"","lat":34.950531,"lng":135.932685,"zip":"5202272"},{"town":"石場","koaza":"","lat":35.002644,"lng":135.875635,"zip":"5200805"},{"town":"石山内畑町","koaza":"","lat":34.928216,"lng":135.878836,"zip":"5200869"},{"town":"石山千町","koaza":"","lat":34.943726,"lng":135.881269,"zip":"5200860"},{"town":"石山外畑町","koaza":"","lat":34.92112,"lng":135.893393,"zip":"5200868"},{"town":"石山寺一丁目","koaza":"","lat":34.962506,"lng":135.901024,"zip":"5200861"},{"town":"石山寺二丁目","koaza":"","lat":34.958117,"lng":135.905831,"zip":"5200861"},{"town":"石山寺三丁目","koaza":"","lat":34.957221,"lng":135.909497,"zip":"5200861"},{"town":"石山寺四丁目","koaza":"","lat":34.957534,"lng":135.895335,"zip":"5200861"},{"town":"石山寺五丁目","koaza":"","lat":34.952244,"lng":135.901764,"zip":"5200861"},{"town":"石山寺辺町","koaza":"","lat":34.955511,"lng":135.883872,"zip":"5200866"},{"town":"石山南郷町","koaza":"","lat":34.925063,"lng":135.90533,"zip":"5200000"},{"town":"石山平津町","koaza":"","lat":34.934049,"lng":135.888163,"zip":"5200000"},{"town":"一里山一丁目","koaza":"","lat":34.984967,"lng":135.927546,"zip":"5202153"},{"town":"一里山二丁目","koaza":"","lat":34.982915,"lng":135.929565,"zip":"5202153"},{"town":"一里山三丁目","koaza":"","lat":34.983151,"lng":135.934733,"zip":"5202153"},{"town":"一里山四丁目","koaza":"","lat":34.978934,"lng":135.931612,"zip":"5202153"},{"town":"一里山五丁目","koaza":"","lat":34.978907,"lng":135.935803,"zip":"5202153"},{"town":"一里山六丁目","koaza":"","lat":34.975419,"lng":135.938956,"zip":"5202153"},{"town":"一里山七丁目","koaza":"","lat":34.973548,"lng":135.933497,"zip":"5202153"},{"town":"稲津一丁目","koaza":"","lat":34.948633,"lng":135.913525,"zip":"5202271"},{"town":"稲津二丁目","koaza":"","lat":34.945564,"lng":135.917119,"zip":"5202271"},{"town":"稲津三丁目","koaza":"","lat":34.944957,"lng":135.919282,"zip":"5202271"},{"town":"稲津四丁目","koaza":"","lat":34.941268,"lng":135.920381,"zip":"5202271"},{"town":"稲津五丁目","koaza":"","lat":34.946127,"lng":135.921672,"zip":"5202271"},{"town":"稲葉台","koaza":"","lat":34.997932,"lng":135.84214,"zip":"5200065"},{"town":"今堅田一丁目","koaza":"","lat":35.119971,"lng":135.925335,"zip":"5200241"},{"town":"今堅田二丁目","koaza":"","lat":35.122593,"lng":135.921925,"zip":"5200241"},{"town":"今堅田三丁目","koaza":"","lat":35.126797,"lng":135.926364,"zip":"5200241"},{"town":"打出浜","koaza":"","lat":35.00491,"lng":135.877382,"zip":"5200806"},{"town":"梅林一丁目","koaza":"","lat":35.003488,"lng":135.868857,"zip":"5200051"},{"town":"梅林二丁目","koaza":"","lat":35.002506,"lng":135.868693,"zip":"5200051"},{"town":"梅林町","koaza":"","lat":34.995863,"lng":135.865958,"zip":"5200000"},{"town":"枝一丁目","koaza":"","lat":34.943177,"lng":135.930698,"zip":"5202275"},{"town":"枝二丁目","koaza":"","lat":34.941776,"lng":135.935508,"zip":"5202275"},{"town":"枝三丁目","koaza":"","lat":34.934865,"lng":135.939344,"zip":"5202275"},{"town":"枝四丁目","koaza":"","lat":34.933341,"lng":135.936948,"zip":"5202275"},{"town":"追分町","koaza":"","lat":34.992755,"lng":135.840607,"zip":"5200064"},{"town":"逢坂一丁目","koaza":"","lat":34.991806,"lng":135.860142,"zip":"5200054"},{"town":"逢坂二丁目","koaza":"","lat":35.005104,"lng":135.858839,"zip":"5200054"},{"town":"皇子が丘一丁目","koaza":"","lat":35.025604,"lng":135.852175,"zip":"5200025"},{"town":"皇子が丘二丁目","koaza":"","lat":35.023527,"lng":135.8567,"zip":"5200025"},{"town":"皇子が丘三丁目","koaza":"","lat":35.023411,"lng":135.859998,"zip":"5200025"},{"town":"大石小田原一丁目","koaza":"","lat":34.88279,"lng":135.898321,"zip":"5202267"},{"town":"大石小田原二丁目","koaza":"","lat":34.883538,"lng":135.900106,"zip":"5202267"},{"town":"大石小田原町","koaza":"","lat":34.880174,"lng":135.900825,"zip":"5202267"},{"town":"大石曽束一丁目","koaza":"","lat":34.907849,"lng":135.875629,"zip":"5202261"},{"town":"大石曽束二丁目","koaza":"","lat":34.905002,"lng":135.87863,"zip":"5202261"},{"town":"大石曽束三丁目","koaza":"","lat":34.90204,"lng":135.881179,"zip":"5202261"},{"town":"大石曽束四丁目","koaza":"","lat":34.90593,"lng":135.873312,"zip":"5202261"},{"town":"大石曽束五丁目","koaza":"","lat":34.904128,"lng":135.873779,"zip":"5202261"},{"town":"大石曽束町","koaza":"","lat":34.899399,"lng":135.87998,"zip":"5202261"},{"town":"大石富川一丁目","koaza":"","lat":34.904533,"lng":135.950982,"zip":"5202265"},{"town":"大石富川二丁目","koaza":"","lat":34.900634,"lng":135.952379,"zip":"5202265"},{"town":"大石富川三丁目","koaza":"","lat":34.895903,"lng":135.950143,"zip":"5202265"},{"town":"大石富川四丁目","koaza":"","lat":34.884552,"lng":135.953172,"zip":"5202265"},{"town":"大石富川町","koaza":"","lat":34.898211,"lng":135.968778,"zip":"5202265"},{"town":"大石中一丁目","koaza":"","lat":34.910058,"lng":135.911633,"zip":"5202263"},{"town":"大石中二丁目","koaza":"","lat":34.908512,"lng":135.912371,"zip":"5202263"},{"town":"大石中三丁目","koaza":"","lat":34.909042,"lng":135.913912,"zip":"5202263"},{"town":"大石中四丁目","koaza":"","lat":34.907979,"lng":135.915455,"zip":"5202263"},{"town":"大石中五丁目","koaza":"","lat":34.907538,"lng":135.918852,"zip":"5202263"},{"town":"大石中六丁目","koaza":"","lat":34.904311,"lng":135.919754,"zip":"5202263"},{"town":"大石中七丁目","koaza":"","lat":34.905695,"lng":135.915858,"zip":"5202263"},{"town":"大石中町","koaza":"","lat":34.900814,"lng":135.935887,"zip":"5200000"},{"town":"大石東一丁目","koaza":"","lat":34.917209,"lng":135.918154,"zip":"5202264"},{"town":"大石東二丁目","koaza":"","lat":34.918234,"lng":135.923862,"zip":"5202264"},{"town":"大石東三丁目","koaza":"","lat":34.914591,"lng":135.926714,"zip":"5202264"},{"town":"大石東四丁目","koaza":"","lat":34.915099,"lng":135.923282,"zip":"5202264"},{"town":"大石東五丁目","koaza":"","lat":34.912207,"lng":135.920304,"zip":"5202264"},{"town":"大石東六丁目","koaza":"","lat":34.913694,"lng":135.917329,"zip":"5202264"},{"town":"大石東七丁目","koaza":"","lat":34.910964,"lng":135.915801,"zip":"5202264"},{"town":"大石東町","koaza":"","lat":34.912061,"lng":135.931791,"zip":"5200000"},{"town":"大石淀一丁目","koaza":"","lat":34.909267,"lng":135.908345,"zip":"5202262"},{"town":"大石淀二丁目","koaza":"","lat":34.904171,"lng":135.908401,"zip":"5202262"},{"town":"大石淀三丁目","koaza":"","lat":34.908134,"lng":135.904884,"zip":"5202262"},{"town":"大石淀町","koaza":"","lat":34.901409,"lng":135.898051,"zip":"5202262"},{"town":"大石龍門一丁目","koaza":"","lat":34.90232,"lng":135.910359,"zip":"5202266"},{"town":"大石龍門二丁目","koaza":"","lat":34.903532,"lng":135.914496,"zip":"5202266"},{"town":"大石龍門三丁目","koaza":"","lat":34.901563,"lng":135.9194,"zip":"5202266"},{"town":"大石龍門四丁目","koaza":"","lat":34.895545,"lng":135.917592,"zip":"5202266"},{"town":"大石龍門五丁目","koaza":"","lat":34.897415,"lng":135.909504,"zip":"5202266"},{"town":"大石龍門六丁目","koaza":"","lat":34.89431,"lng":135.90947,"zip":"5202266"},{"town":"大石龍門町","koaza":"","lat":34.890366,"lng":135.922186,"zip":"5200000"},{"town":"大江一丁目","koaza":"","lat":34.983618,"lng":135.915226,"zip":"5202141"},{"town":"大江二丁目","koaza":"","lat":34.9796,"lng":135.913993,"zip":"5202141"},{"town":"大江三丁目","koaza":"","lat":34.978565,"lng":135.917993,"zip":"5202141"},{"town":"大江四丁目","koaza":"","lat":34.981009,"lng":135.924034,"zip":"5202141"},{"town":"大江五丁目","koaza":"","lat":34.977642,"lng":135.924235,"zip":"5202141"},{"town":"大江六丁目","koaza":"","lat":34.974835,"lng":135.922879,"zip":"5202141"},{"town":"大江七丁目","koaza":"","lat":34.97543,"lng":135.929919,"zip":"5202141"},{"town":"大江八丁目","koaza":"","lat":34.971012,"lng":135.929491,"zip":"5202141"},{"town":"大萱一丁目","koaza":"","lat":34.985454,"lng":135.924631,"zip":"5202144"},{"town":"大萱二丁目","koaza":"","lat":34.987254,"lng":135.923035,"zip":"5202144"},{"town":"大萱三丁目","koaza":"","lat":34.988268,"lng":135.919648,"zip":"5202144"},{"town":"大萱四丁目","koaza":"","lat":34.98718,"lng":135.914665,"zip":"5202144"},{"town":"大萱五丁目","koaza":"","lat":34.989887,"lng":135.916243,"zip":"5202144"},{"town":"大萱六丁目","koaza":"","lat":34.992726,"lng":135.915505,"zip":"5202144"},{"town":"大萱七丁目","koaza":"","lat":34.994422,"lng":135.915237,"zip":"5202144"},{"town":"仰木一丁目","koaza":"","lat":35.09803,"lng":135.88474,"zip":"5200247"},{"town":"仰木二丁目","koaza":"","lat":35.101019,"lng":135.871706,"zip":"5200247"},{"town":"仰木三丁目","koaza":"","lat":35.106229,"lng":135.883814,"zip":"5200247"},{"town":"仰木四丁目","koaza":"","lat":35.11183,"lng":135.879732,"zip":"5200247"},{"town":"仰木五丁目","koaza":"","lat":35.11607,"lng":135.884442,"zip":"5200247"},{"town":"仰木六丁目","koaza":"","lat":35.11083,"lng":135.887634,"zip":"5200247"},{"town":"仰木七丁目","koaza":"","lat":35.117571,"lng":135.894681,"zip":"5200247"},{"town":"仰木町","koaza":"","lat":35.114655,"lng":135.864021,"zip":"5200245"},{"town":"仰木の里一丁目","koaza":"","lat":35.102736,"lng":135.890275,"zip":"5200246"},{"town":"仰木の里二丁目","koaza":"","lat":35.102593,"lng":135.885065,"zip":"5200246"},{"town":"仰木の里三丁目","koaza":"","lat":35.105968,"lng":135.887878,"zip":"5200246"},{"town":"仰木の里四丁目","koaza":"","lat":35.106046,"lng":135.891918,"zip":"5200246"},{"town":"仰木の里五丁目","koaza":"","lat":35.109856,"lng":135.890263,"zip":"5200246"},{"town":"仰木の里六丁目","koaza":"","lat":35.109471,"lng":135.892193,"zip":"5200246"},{"town":"仰木の里七丁目","koaza":"","lat":35.110935,"lng":135.895039,"zip":"5200246"},{"town":"仰木の里東一丁目","koaza":"","lat":35.101593,"lng":135.893508,"zip":"5200248"},{"town":"仰木の里東二丁目","koaza":"","lat":35.104384,"lng":135.898613,"zip":"5200248"},{"town":"仰木の里東三丁目","koaza":"","lat":35.106544,"lng":135.897301,"zip":"5200248"},{"town":"仰木の里東四丁目","koaza":"","lat":35.109983,"lng":135.902418,"zip":"5200248"},{"town":"仰木の里東五丁目","koaza":"","lat":35.108024,"lng":135.897271,"zip":"5200248"},{"town":"仰木の里東六丁目","koaza":"","lat":35.109514,"lng":135.898629,"zip":"5200248"},{"town":"仰木の里東七丁目","koaza":"","lat":35.111494,"lng":135.898306,"zip":"5200248"},{"town":"仰木の里東八丁目","koaza":"","lat":35.112923,"lng":135.90151,"zip":"5200248"},{"town":"大谷町","koaza":"","lat":34.993918,"lng":135.851708,"zip":"5200062"},{"town":"大鳥居","koaza":"","lat":34.962606,"lng":135.953106,"zip":"5202118"},{"town":"大平一丁目","koaza":"","lat":34.955617,"lng":135.895252,"zip":"5200867"},{"town":"大平二丁目","koaza":"","lat":34.952834,"lng":135.899072,"zip":"5200867"},{"town":"雄琴一丁目","koaza":"","lat":35.090111,"lng":135.892391,"zip":"5200101"},{"town":"雄琴二丁目","koaza":"","lat":35.094236,"lng":135.895866,"zip":"5200101"},{"town":"雄琴三丁目","koaza":"","lat":35.099589,"lng":135.90151,"zip":"5200101"},{"town":"雄琴四丁目","koaza":"","lat":35.097765,"lng":135.905039,"zip":"5200101"},{"town":"雄琴五丁目","koaza":"","lat":35.09465,"lng":135.903208,"zip":"5200101"},{"town":"雄琴六丁目","koaza":"","lat":35.090189,"lng":135.899037,"zip":"5200101"},{"town":"雄琴北一丁目","koaza":"","lat":35.099901,"lng":135.898579,"zip":"5200107"},{"town":"雄琴北二丁目","koaza":"","lat":35.100365,"lng":135.895979,"zip":"5200107"},{"town":"音羽台","koaza":"","lat":34.999923,"lng":135.862401,"zip":"5200053"},{"town":"小野","koaza":"","lat":35.146365,"lng":135.923995,"zip":"5200525"},{"town":"尾花川","koaza":"","lat":35.019346,"lng":135.859653,"zip":"5200031"},{"town":"園城寺町","koaza":"","lat":35.012734,"lng":135.849668,"zip":"5200036"},{"town":"鏡が浜","koaza":"","lat":35.032333,"lng":135.865798,"zip":"5200012"},{"town":"春日町","koaza":"","lat":35.003748,"lng":135.862629,"zip":"5200055"},{"town":"堅田一丁目","koaza":"","lat":35.107164,"lng":135.910401,"zip":"5200243"},{"town":"堅田二丁目","koaza":"","lat":35.108008,"lng":135.915188,"zip":"5200243"},{"town":"葛川梅ノ木町","koaza":"","lat":35.268921,"lng":135.861011,"zip":"5200473"},{"town":"葛川木戸口町","koaza":"","lat":35.218233,"lng":135.876729,"zip":"5200477"},{"town":"葛川坂下町","koaza":"","lat":35.202011,"lng":135.851095,"zip":"5200478"},{"town":"葛川中村町","koaza":"","lat":35.232581,"lng":135.85893,"zip":"5200476"},{"town":"葛川貫井町","koaza":"","lat":35.271666,"lng":135.881911,"zip":"5200472"},{"town":"葛川坊村町","koaza":"","lat":35.241914,"lng":135.885316,"zip":"5200475"},{"town":"葛川細川町","koaza":"","lat":35.275565,"lng":135.895402,"zip":"5200471"},{"town":"葛川町居町","koaza":"","lat":35.259283,"lng":135.862169,"zip":"5200474"},{"town":"上田上大鳥居町","koaza":"","lat":34.938948,"lng":136.026392,"zip":"5200000"},{"town":"上田上桐生町","koaza":"","lat":34.961064,"lng":135.989655,"zip":"5202161"},{"town":"上田上芝原町","koaza":"","lat":34.964039,"lng":135.947587,"zip":"5202167"},{"town":"上田上新免町","koaza":"","lat":34.943934,"lng":135.953908,"zip":"5202165"},{"town":"上田上堂町","koaza":"","lat":34.958344,"lng":135.940952,"zip":"5202166"},{"town":"上田上中野町","koaza":"","lat":34.946659,"lng":135.960635,"zip":"5202164"},{"town":"上田上平野町","koaza":"","lat":34.967315,"lng":135.971301,"zip":"5202163"},{"town":"上田上牧町","koaza":"","lat":34.947579,"lng":135.981657,"zip":"5202162"},{"town":"神出開町","koaza":"","lat":35.003182,"lng":135.851424,"zip":"5200061"},{"town":"萱野浦","koaza":"","lat":34.990083,"lng":135.911244,"zip":"5202143"},{"town":"唐崎一丁目","koaza":"","lat":35.048084,"lng":135.872236,"zip":"5200106"},{"town":"唐崎二丁目","koaza":"","lat":35.04968,"lng":135.869187,"zip":"5200106"},{"town":"唐崎三丁目","koaza":"","lat":35.050053,"lng":135.865432,"zip":"5200106"},{"town":"唐崎四丁目","koaza":"","lat":35.053342,"lng":135.870588,"zip":"5200106"},{"town":"唐橋町","koaza":"","lat":34.974406,"lng":135.9049,"zip":"5200851"},{"town":"勧学一丁目","koaza":"","lat":35.033969,"lng":135.858619,"zip":"5200013"},{"town":"勧学二丁目","koaza":"","lat":35.033903,"lng":135.863136,"zip":"5200013"},{"town":"観音寺","koaza":"","lat":35.015526,"lng":135.85999,"zip":"5200032"},{"town":"北大路一丁目","koaza":"","lat":34.975699,"lng":135.897584,"zip":"5200843"},{"town":"北大路二丁目","koaza":"","lat":34.973338,"lng":135.895049,"zip":"5200843"},{"town":"北大路三丁目","koaza":"","lat":34.969994,"lng":135.882547,"zip":"5200843"},{"town":"北小松","koaza":"","lat":35.259444,"lng":135.961656,"zip":"5200501"},{"town":"北比良","koaza":"","lat":35.247101,"lng":135.921047,"zip":"5200503"},{"town":"木戸","koaza":"","lat":35.202559,"lng":135.909324,"zip":"5200514"},{"town":"衣川一丁目","koaza":"","lat":35.10738,"lng":135.906179,"zip":"5200244"},{"town":"衣川二丁目","koaza":"","lat":35.111121,"lng":135.905913,"zip":"5200244"},{"town":"衣川三丁目","koaza":"","lat":35.118709,"lng":135.904111,"zip":"5200244"},{"town":"木下町","koaza":"","lat":34.999883,"lng":135.890654,"zip":"5200812"},{"town":"京町一丁目","koaza":"","lat":35.006896,"lng":135.863042,"zip":"5200044"},{"town":"京町二丁目","koaza":"","lat":35.006259,"lng":135.865103,"zip":"5200044"},{"town":"京町三丁目","koaza":"","lat":35.005196,"lng":135.866934,"zip":"5200044"},{"town":"京町四丁目","koaza":"","lat":35.004626,"lng":135.869773,"zip":"5200044"},{"town":"桐生一丁目","koaza":"","lat":34.973802,"lng":135.986543,"zip":"5202111"},{"town":"桐生二丁目","koaza":"","lat":34.969718,"lng":135.986023,"zip":"5202111"},{"town":"桐生三丁目","koaza":"","lat":34.979192,"lng":135.981568,"zip":"5202111"},{"town":"栗林町","koaza":"","lat":34.991187,"lng":135.939083,"zip":"5202151"},{"town":"栗原","koaza":"","lat":35.174588,"lng":135.885087,"zip":"5200527"},{"town":"黒津一丁目","koaza":"","lat":34.944229,"lng":135.912217,"zip":"5202279"},{"town":"黒津二丁目","koaza":"","lat":34.942674,"lng":135.916468,"zip":"5202279"},{"town":"黒津三丁目","koaza":"","lat":34.938121,"lng":135.913333,"zip":"5202279"},{"town":"黒津四丁目","koaza":"","lat":34.938303,"lng":135.911677,"zip":"5202279"},{"town":"黒津五丁目","koaza":"","lat":34.939024,"lng":135.916506,"zip":"5202279"},{"town":"向陽町","koaza":"","lat":35.137099,"lng":135.915315,"zip":"5200224"},{"town":"国分一丁目","koaza":"","lat":34.9682,"lng":135.893304,"zip":"5200844"},{"town":"国分二丁目","koaza":"","lat":34.960933,"lng":135.879192,"zip":"5200844"},{"town":"湖城が丘","koaza":"","lat":34.993929,"lng":135.881518,"zip":"5200821"},{"town":"湖青一丁目","koaza":"","lat":35.140171,"lng":135.921701,"zip":"5200532"},{"town":"湖青二丁目","koaza":"","lat":35.141209,"lng":135.919486,"zip":"5200532"},{"town":"小関町","koaza":"","lat":35.007705,"lng":135.854749,"zip":"5200035"},{"town":"御殿浜","koaza":"","lat":34.987484,"lng":135.896959,"zip":"5200834"},{"town":"木の岡町","koaza":"","lat":35.077734,"lng":135.884842,"zip":"5200103"},{"town":"御陵町","koaza":"","lat":35.018665,"lng":135.855868,"zip":"5200037"},{"town":"際川一丁目","koaza":"","lat":35.037229,"lng":135.867206,"zip":"5200002"},{"town":"際川二丁目","koaza":"","lat":35.038742,"lng":135.863451,"zip":"5200002"},{"town":"際川三丁目","koaza":"","lat":35.042535,"lng":135.866538,"zip":"5200002"},{"town":"際川四丁目","koaza":"","lat":35.045089,"lng":135.868727,"zip":"5200002"},{"town":"栄町","koaza":"","lat":34.976021,"lng":135.901258,"zip":"5200855"},{"town":"相模町","koaza":"","lat":34.995093,"lng":135.8859,"zip":"5200816"},{"town":"坂本一丁目","koaza":"","lat":35.061828,"lng":135.867044,"zip":"5200113"},{"town":"坂本二丁目","koaza":"","lat":35.062721,"lng":135.870637,"zip":"5200113"},{"town":"坂本三丁目","koaza":"","lat":35.067733,"lng":135.874313,"zip":"5200113"},{"town":"坂本四丁目","koaza":"","lat":35.06834,"lng":135.867484,"zip":"5200113"},{"town":"坂本五丁目","koaza":"","lat":35.07635,"lng":135.867438,"zip":"5200113"},{"town":"坂本六丁目","koaza":"","lat":35.076086,"lng":135.872546,"zip":"5200113"},{"town":"坂本七丁目","koaza":"","lat":35.074547,"lng":135.878104,"zip":"5200113"},{"town":"坂本八丁目","koaza":"","lat":35.081616,"lng":135.870547,"zip":"5200113"},{"town":"坂本穴太町","koaza":"","lat":35.057142,"lng":135.855505,"zip":"5200000"},{"town":"坂本本町","koaza":"","lat":35.081059,"lng":135.850948,"zip":"5200116"},{"town":"桜野町一丁目","koaza":"","lat":35.026403,"lng":135.856622,"zip":"5200026"},{"town":"桜野町二丁目","koaza":"","lat":35.026487,"lng":135.860005,"zip":"5200026"},{"town":"里一丁目","koaza":"","lat":34.941632,"lng":135.923994,"zip":"5202276"},{"town":"里二丁目","koaza":"","lat":34.937787,"lng":135.922842,"zip":"5202276"},{"town":"里三丁目","koaza":"","lat":34.940083,"lng":135.928178,"zip":"5202276"},{"town":"里四丁目","koaza":"","lat":34.936638,"lng":135.92613,"zip":"5202276"},{"town":"里五丁目","koaza":"","lat":34.936958,"lng":135.930907,"zip":"5202276"},{"town":"里六丁目","koaza":"","lat":34.934971,"lng":135.933984,"zip":"5202276"},{"town":"里七丁目","koaza":"","lat":34.931542,"lng":135.9344,"zip":"5202276"},{"town":"三大寺","koaza":"","lat":34.97441,"lng":135.916575,"zip":"5202131"},{"town":"滋賀里一丁目","koaza":"","lat":35.043275,"lng":135.855296,"zip":"5200006"},{"town":"滋賀里二丁目","koaza":"","lat":35.045889,"lng":135.856788,"zip":"5200006"},{"town":"滋賀里三丁目","koaza":"","lat":35.049301,"lng":135.858782,"zip":"5200006"},{"town":"滋賀里四丁目","koaza":"","lat":35.047025,"lng":135.861518,"zip":"5200006"},{"town":"滋賀里町乙","koaza":"","lat":35.049755,"lng":135.852203,"zip":"5200000"},{"town":"滋賀里町甲","koaza":"","lat":35.048046,"lng":135.843276,"zip":"5200000"},{"town":"芝原一丁目","koaza":"","lat":34.961249,"lng":135.948242,"zip":"5202117"},{"town":"芝原二丁目","koaza":"","lat":34.95527,"lng":135.944414,"zip":"5202117"},{"town":"島の関","koaza":"","lat":35.008632,"lng":135.869948,"zip":"5200042"},{"town":"下阪本一丁目","koaza":"","lat":35.055384,"lng":135.875997,"zip":"5200105"},{"town":"下阪本二丁目","koaza":"","lat":35.057807,"lng":135.871505,"zip":"5200105"},{"town":"下阪本三丁目","koaza":"","lat":35.060993,"lng":135.875317,"zip":"5200105"},{"town":"下阪本四丁目","koaza":"","lat":35.063682,"lng":135.877339,"zip":"5200105"},{"town":"下阪本五丁目","koaza":"","lat":35.065655,"lng":135.879901,"zip":"5200105"},{"town":"下阪本六丁目","koaza":"","lat":35.068812,"lng":135.882205,"zip":"5200105"},{"town":"松陽一丁目","koaza":"","lat":34.961941,"lng":135.9155,"zip":"5202135"},{"town":"松陽二丁目","koaza":"","lat":34.963618,"lng":135.91844,"zip":"5202135"},{"town":"松陽三丁目","koaza":"","lat":34.965281,"lng":135.920461,"zip":"5202135"},{"town":"松陽四丁目","koaza":"","lat":34.967157,"lng":135.923667,"zip":"5202135"},{"town":"昭和町","koaza":"","lat":34.998428,"lng":135.886798,"zip":"5200817"},{"town":"神宮町","koaza":"","lat":35.032062,"lng":135.852442,"zip":"5200015"},{"town":"新免一丁目","koaza":"","lat":34.948184,"lng":135.946196,"zip":"5202115"},{"town":"新免二丁目","koaza":"","lat":34.946845,"lng":135.951424,"zip":"5202115"},{"town":"神領一丁目","koaza":"","lat":34.973791,"lng":135.912475,"zip":"5202132"},{"town":"神領二丁目","koaza":"","lat":34.971203,"lng":135.919516,"zip":"5202132"},{"town":"神領三丁目","koaza":"","lat":34.970637,"lng":135.912977,"zip":"5202132"},{"town":"神領四丁目","koaza":"","lat":34.967917,"lng":135.925771,"zip":"5202132"},{"town":"神領五丁目","koaza":"","lat":34.966816,"lng":135.921057,"zip":"5202132"},{"town":"水明一丁目","koaza":"","lat":35.145061,"lng":135.920674,"zip":"5200531"},{"town":"水明二丁目","koaza":"","lat":35.145152,"lng":135.917053,"zip":"5200531"},{"town":"末広町","koaza":"","lat":35.004777,"lng":135.864597,"zip":"5200056"},{"town":"杉浦町","koaza":"","lat":34.986353,"lng":135.8931,"zip":"5200836"},{"town":"清風町","koaza":"","lat":35.138462,"lng":135.908762,"zip":"5200225"},{"town":"晴嵐一丁目","koaza":"","lat":34.983165,"lng":135.902593,"zip":"5200833"},{"town":"晴嵐二丁目","koaza":"","lat":34.982787,"lng":135.898467,"zip":"5200833"},{"town":"清和町","koaza":"","lat":35.145689,"lng":135.906338,"zip":"5200227"},{"town":"関津一丁目","koaza":"","lat":34.929596,"lng":135.91968,"zip":"5202277"},{"town":"関津二丁目","koaza":"","lat":34.922495,"lng":135.916228,"zip":"5202277"},{"town":"関津三丁目","koaza":"","lat":34.92536,"lng":135.923396,"zip":"5202277"},{"town":"関津四丁目","koaza":"","lat":34.929623,"lng":135.930015,"zip":"5202277"},{"town":"関津五丁目","koaza":"","lat":34.933091,"lng":135.923751,"zip":"5202277"},{"town":"関津六丁目","koaza":"","lat":34.934153,"lng":135.929783,"zip":"5202277"},{"town":"膳所一丁目","koaza":"","lat":34.993298,"lng":135.888837,"zip":"5200815"},{"town":"膳所二丁目","koaza":"","lat":34.996446,"lng":135.8893,"zip":"5200815"},{"town":"膳所池ノ内町","koaza":"","lat":34.980922,"lng":135.865493,"zip":"5200825"},{"town":"膳所上別保町","koaza":"","lat":34.978018,"lng":135.877479,"zip":"5200823"},{"town":"膳所雲雀丘町","koaza":"","lat":34.980069,"lng":135.873505,"zip":"5200000"},{"town":"膳所平尾町","koaza":"","lat":34.978783,"lng":135.868351,"zip":"5200824"},{"town":"膳所焼野町","koaza":"","lat":34.96633,"lng":135.86487,"zip":"5200000"},{"town":"瀬田一丁目","koaza":"","lat":34.97646,"lng":135.909639,"zip":"5202134"},{"town":"瀬田二丁目","koaza":"","lat":34.971039,"lng":135.907803,"zip":"5202134"},{"town":"瀬田三丁目","koaza":"","lat":34.966273,"lng":135.909168,"zip":"5202134"},{"town":"瀬田四丁目","koaza":"","lat":34.963482,"lng":135.908761,"zip":"5202134"},{"town":"瀬田五丁目","koaza":"","lat":34.960689,"lng":135.913531,"zip":"5202134"},{"town":"瀬田六丁目","koaza":"","lat":34.953699,"lng":135.911974,"zip":"5202134"},{"town":"瀬田大江町","koaza":"","lat":34.964172,"lng":135.936075,"zip":"5202123"},{"town":"瀬田神領町","koaza":"","lat":34.962267,"lng":135.925334,"zip":"5202124"},{"town":"瀬田月輪町","koaza":"","lat":34.974438,"lng":135.946915,"zip":"5202121"},{"town":"瀬田橋本町","koaza":"","lat":34.955853,"lng":135.92105,"zip":"5202125"},{"town":"瀬田南大萱町","koaza":"","lat":34.966947,"lng":135.942353,"zip":"5202122"},{"town":"千石台","koaza":"","lat":35.026143,"lng":135.847401,"zip":"5200028"},{"town":"千町一丁目","koaza":"","lat":34.946636,"lng":135.901844,"zip":"5200863"},{"town":"千町二丁目","koaza":"","lat":34.944926,"lng":135.89971,"zip":"5200863"},{"town":"千町三丁目","koaza":"","lat":34.943806,"lng":135.894098,"zip":"5200863"},{"town":"千町四丁目","koaza":"","lat":34.946403,"lng":135.892691,"zip":"5200863"},{"town":"園山一丁目","koaza":"","lat":34.978482,"lng":135.894797,"zip":"5200842"},{"town":"園山二丁目","koaza":"","lat":34.978306,"lng":135.887291,"zip":"5200842"},{"town":"園山三丁目","koaza":"","lat":34.974604,"lng":135.888694,"zip":"5200842"},{"town":"太子一丁目","koaza":"","lat":34.935225,"lng":135.916567,"zip":"5202278"},{"town":"太子二丁目","koaza":"","lat":34.932884,"lng":135.917989,"zip":"5202278"},{"town":"大将軍一丁目","koaza":"","lat":34.993172,"lng":135.924938,"zip":"5202145"},{"town":"大将軍二丁目","koaza":"","lat":34.993919,"lng":135.933001,"zip":"5202145"},{"town":"大将軍三丁目","koaza":"","lat":34.990033,"lng":135.927835,"zip":"5202145"},{"town":"大物","koaza":"","lat":35.221412,"lng":135.919129,"zip":"5200512"},{"town":"大門通","koaza":"","lat":35.013154,"lng":135.857309,"zip":"5200033"},{"town":"高砂町","koaza":"","lat":35.040674,"lng":135.85293,"zip":"5200005"},{"town":"竜が丘","koaza":"","lat":34.996343,"lng":135.878233,"zip":"5200803"},{"town":"田上石居町","koaza":"","lat":34.955565,"lng":135.931105,"zip":"5200000"},{"town":"田上稲津町","koaza":"","lat":34.949989,"lng":135.918533,"zip":"5200000"},{"town":"田上里町","koaza":"","lat":34.917591,"lng":135.959824,"zip":"5200000"},{"town":"田上関津町","koaza":"","lat":34.923393,"lng":135.932334,"zip":"5200000"},{"town":"田上羽栗町","koaza":"","lat":34.933129,"lng":135.977608,"zip":"5200000"},{"town":"田上森町","koaza":"","lat":34.921154,"lng":135.985111,"zip":"5200000"},{"town":"田辺町","koaza":"","lat":34.970515,"lng":135.8996,"zip":"5200852"},{"town":"玉野浦","koaza":"","lat":34.983465,"lng":135.909528,"zip":"5202142"},{"town":"千野一丁目","koaza":"","lat":35.092441,"lng":135.884159,"zip":"5200111"},{"town":"千野二丁目","koaza":"","lat":35.089421,"lng":135.878753,"zip":"5200111"},{"town":"千野三丁目","koaza":"","lat":35.087173,"lng":135.875502,"zip":"5200111"},{"town":"茶が崎","koaza":"","lat":35.021217,"lng":135.862388,"zip":"5200023"},{"town":"茶戸町","koaza":"","lat":34.995386,"lng":135.832418,"zip":"5200066"},{"town":"中央一丁目","koaza":"","lat":35.008781,"lng":135.863679,"zip":"5200043"},{"town":"中央二丁目","koaza":"","lat":35.007919,"lng":135.866364,"zip":"5200043"},{"town":"中央三丁目","koaza":"","lat":35.0066,"lng":135.868506,"zip":"5200043"},{"town":"中央四丁目","koaza":"","lat":35.006994,"lng":135.871548,"zip":"5200043"},{"town":"月輪一丁目","koaza":"","lat":34.989826,"lng":135.932497,"zip":"5202152"},{"town":"月輪二丁目","koaza":"","lat":34.988944,"lng":135.936497,"zip":"5202152"},{"town":"月輪三丁目","koaza":"","lat":34.985109,"lng":135.939849,"zip":"5202152"},{"town":"月輪四丁目","koaza":"","lat":34.981338,"lng":135.943826,"zip":"5202152"},{"town":"月輪五丁目","koaza":"","lat":34.978116,"lng":135.945352,"zip":"5202152"},{"town":"鶴の里","koaza":"","lat":34.992452,"lng":135.872967,"zip":"5200826"},{"town":"堂一丁目","koaza":"","lat":34.953513,"lng":135.941187,"zip":"5202116"},{"town":"堂二丁目","koaza":"","lat":34.950608,"lng":135.94409,"zip":"5202116"},{"town":"鳥居川町","koaza":"","lat":34.973646,"lng":135.901799,"zip":"5200854"},{"town":"中庄一丁目","koaza":"","lat":34.989972,"lng":135.89415,"zip":"5200837"},{"town":"中庄二丁目","koaza":"","lat":34.990438,"lng":135.889127,"zip":"5200837"},{"town":"中野一丁目","koaza":"","lat":34.958751,"lng":135.951425,"zip":"5202114"},{"town":"中野二丁目","koaza":"","lat":34.954541,"lng":135.955153,"zip":"5202114"},{"town":"中野三丁目","koaza":"","lat":34.951639,"lng":135.954913,"zip":"5202114"},{"town":"長等一丁目","koaza":"","lat":35.007361,"lng":135.859048,"zip":"5200046"},{"town":"長等二丁目","koaza":"","lat":35.009125,"lng":135.860312,"zip":"5200046"},{"town":"長等三丁目","koaza":"","lat":35.010643,"lng":135.860183,"zip":"5200046"},{"town":"南郷一丁目","koaza":"","lat":34.940738,"lng":135.908289,"zip":"5200865"},{"town":"南郷二丁目","koaza":"","lat":34.941673,"lng":135.902712,"zip":"5200865"},{"town":"南郷三丁目","koaza":"","lat":34.937766,"lng":135.898091,"zip":"5200865"},{"town":"南郷四丁目","koaza":"","lat":34.934351,"lng":135.904038,"zip":"5200865"},{"town":"南郷五丁目","koaza":"","lat":34.934552,"lng":135.908989,"zip":"5200865"},{"town":"南郷六丁目","koaza":"","lat":34.929095,"lng":135.911429,"zip":"5200865"},{"town":"南郷上山町","koaza":"","lat":34.935774,"lng":135.901409,"zip":"5200871"},{"town":"におの浜一丁目","koaza":"","lat":35.005991,"lng":135.878765,"zip":"5200801"},{"town":"におの浜二丁目","koaza":"","lat":35.005203,"lng":135.881458,"zip":"5200801"},{"town":"におの浜三丁目","koaza":"","lat":35.004604,"lng":135.883995,"zip":"5200801"},{"town":"におの浜四丁目","koaza":"","lat":35.004236,"lng":135.887607,"zip":"5200801"},{"town":"錦織一丁目","koaza":"","lat":35.028849,"lng":135.851454,"zip":"5200027"},{"town":"錦織二丁目","koaza":"","lat":35.029323,"lng":135.856422,"zip":"5200027"},{"town":"錦織三丁目","koaza":"","lat":35.029337,"lng":135.859923,"zip":"5200027"},{"town":"錦織町","koaza":"","lat":35.032029,"lng":135.843781,"zip":"5200000"},{"town":"西の庄","koaza":"","lat":35.000868,"lng":135.886875,"zip":"5200818"},{"town":"二本松","koaza":"","lat":35.029567,"lng":135.863648,"zip":"5200021"},{"town":"苗鹿一丁目","koaza":"","lat":35.082141,"lng":135.886357,"zip":"5200102"},{"town":"苗鹿二丁目","koaza":"","lat":35.086927,"lng":135.889544,"zip":"5200102"},{"town":"苗鹿三丁目","koaza":"","lat":35.081605,"lng":135.892365,"zip":"5200102"},{"town":"野郷原一丁目","koaza":"","lat":34.967327,"lng":135.917232,"zip":"5202133"},{"town":"野郷原二丁目","koaza":"","lat":34.966333,"lng":135.91436,"zip":"5202133"},{"town":"羽栗一丁目","koaza":"","lat":34.953156,"lng":135.935504,"zip":"5202273"},{"town":"羽栗二丁目","koaza":"","lat":34.946192,"lng":135.942646,"zip":"5202273"},{"town":"羽栗三丁目","koaza":"","lat":34.942085,"lng":135.946592,"zip":"5202273"},{"town":"蓮池町","koaza":"","lat":35.046019,"lng":135.864666,"zip":"5200001"},{"town":"八屋戸","koaza":"","lat":35.194212,"lng":135.899581,"zip":"5200515"},{"town":"花園町","koaza":"","lat":35.138596,"lng":135.914564,"zip":"5200222"},{"town":"浜大津一丁目","koaza":"","lat":35.010856,"lng":135.864316,"zip":"5200047"},{"town":"浜大津二丁目","koaza":"","lat":35.011616,"lng":135.862266,"zip":"5200047"},{"town":"浜大津三丁目","koaza":"","lat":35.01238,"lng":135.859891,"zip":"5200047"},{"town":"浜大津四丁目","koaza":"","lat":35.013395,"lng":135.862318,"zip":"5200047"},{"town":"浜大津五丁目","koaza":"","lat":35.012059,"lng":135.865676,"zip":"5200047"},{"town":"浜町","koaza":"","lat":35.009946,"lng":135.867388,"zip":"5200041"},{"town":"馬場一丁目","koaza":"","lat":35.002071,"lng":135.882458,"zip":"5200802"},{"town":"馬場二丁目","koaza":"","lat":35.000188,"lng":135.879562,"zip":"5200802"},{"town":"馬場三丁目","koaza":"","lat":34.998273,"lng":135.883427,"zip":"5200802"},{"town":"比叡平一丁目","koaza":"","lat":35.030503,"lng":135.833302,"zip":"5200016"},{"town":"比叡平二丁目","koaza":"","lat":35.027034,"lng":135.831389,"zip":"5200016"},{"town":"比叡平三丁目","koaza":"","lat":35.033426,"lng":135.829228,"zip":"5200016"},{"town":"比叡辻一丁目","koaza":"","lat":35.070631,"lng":135.885869,"zip":"5200104"},{"town":"比叡辻二丁目","koaza":"","lat":35.07333,"lng":135.886454,"zip":"5200104"},{"town":"光が丘町","koaza":"","lat":34.972481,"lng":135.898749,"zip":"5200856"},{"town":"日吉台一丁目","koaza":"","lat":35.078675,"lng":135.879815,"zip":"5200112"},{"town":"日吉台二丁目","koaza":"","lat":35.079767,"lng":135.876657,"zip":"5200112"},{"town":"日吉台三丁目","koaza":"","lat":35.083974,"lng":135.87669,"zip":"5200112"},{"town":"日吉台四丁目","koaza":"","lat":35.083015,"lng":135.881128,"zip":"5200112"},{"town":"平津一丁目","koaza":"","lat":34.949783,"lng":135.909775,"zip":"5200862"},{"town":"平津二丁目","koaza":"","lat":34.950307,"lng":135.904717,"zip":"5200862"},{"town":"平野一丁目","koaza":"","lat":34.963005,"lng":135.962859,"zip":"5202113"},{"town":"平野二丁目","koaza":"","lat":34.967588,"lng":135.957812,"zip":"5202113"},{"town":"平野三丁目","koaza":"","lat":34.971181,"lng":135.97322,"zip":"5202113"},{"town":"藤尾奥町","koaza":"","lat":35.005955,"lng":135.83826,"zip":"5200067"},{"town":"富士見台","koaza":"","lat":34.982457,"lng":135.884823,"zip":"5200846"},{"town":"札の辻","koaza":"","lat":35.006754,"lng":135.861038,"zip":"5200045"},{"town":"別保一丁目","koaza":"","lat":34.98321,"lng":135.894572,"zip":"5200835"},{"town":"別保二丁目","koaza":"","lat":34.982542,"lng":135.892441,"zip":"5200835"},{"town":"別保三丁目","koaza":"","lat":34.986299,"lng":135.889561,"zip":"5200835"},{"town":"螢谷","koaza":"","lat":34.969412,"lng":135.902734,"zip":"5200853"},{"town":"本堅田一丁目","koaza":"","lat":35.110236,"lng":135.919145,"zip":"5200242"},{"town":"本堅田二丁目","koaza":"","lat":35.115519,"lng":135.921841,"zip":"5200242"},{"town":"本堅田三丁目","koaza":"","lat":35.114375,"lng":135.91622,"zip":"5200242"},{"town":"本堅田四丁目","koaza":"","lat":35.11827,"lng":135.918583,"zip":"5200242"},{"town":"本堅田五丁目","koaza":"","lat":35.117675,"lng":135.913895,"zip":"5200242"},{"town":"本堅田六丁目","koaza":"","lat":35.118538,"lng":135.910596,"zip":"5200242"},{"town":"本丸町","koaza":"","lat":34.993892,"lng":135.893225,"zip":"5200814"},{"town":"牧一丁目","koaza":"","lat":34.958153,"lng":135.964906,"zip":"5202112"},{"town":"牧二丁目","koaza":"","lat":34.956642,"lng":135.961044,"zip":"5202112"},{"town":"牧三丁目","koaza":"","lat":34.953085,"lng":135.97358,"zip":"5202112"},{"town":"松が丘一丁目","koaza":"","lat":34.97528,"lng":135.96963,"zip":"5202102"},{"town":"松が丘二丁目","koaza":"","lat":34.972566,"lng":135.970121,"zip":"5202102"},{"town":"松が丘三丁目","koaza":"","lat":34.972055,"lng":135.967474,"zip":"5202102"},{"town":"松が丘四丁目","koaza":"","lat":34.973808,"lng":135.966964,"zip":"5202102"},{"town":"松が丘五丁目","koaza":"","lat":34.972835,"lng":135.963552,"zip":"5202102"},{"town":"松が丘六丁目","koaza":"","lat":34.973235,"lng":135.961154,"zip":"5202102"},{"town":"松が丘七丁目","koaza":"","lat":34.969645,"lng":135.962356,"zip":"5202102"},{"town":"松原町","koaza":"","lat":34.978598,"lng":135.904232,"zip":"5200831"},{"town":"松本一丁目","koaza":"","lat":35.003508,"lng":135.872922,"zip":"5200807"},{"town":"松本二丁目","koaza":"","lat":35.005436,"lng":135.87369,"zip":"5200807"},{"town":"松本本宮町","koaza":"","lat":34.991601,"lng":135.866812,"zip":"5200000"},{"town":"松山町","koaza":"","lat":35.026907,"lng":135.863202,"zip":"5200024"},{"town":"真野一丁目","koaza":"","lat":35.123112,"lng":135.912242,"zip":"5200232"},{"town":"真野二丁目","koaza":"","lat":35.125126,"lng":135.917334,"zip":"5200232"},{"town":"真野三丁目","koaza":"","lat":35.128094,"lng":135.912864,"zip":"5200232"},{"town":"真野四丁目","koaza":"","lat":35.132058,"lng":135.916619,"zip":"5200232"},{"town":"真野五丁目","koaza":"","lat":35.132694,"lng":135.923595,"zip":"5200232"},{"town":"真野六丁目","koaza":"","lat":35.13582,"lng":135.921393,"zip":"5200232"},{"town":"真野家田町","koaza":"","lat":35.129219,"lng":135.90285,"zip":"5200234"},{"town":"真野大野一丁目","koaza":"","lat":35.135874,"lng":135.893196,"zip":"5200235"},{"town":"真野大野二丁目","koaza":"","lat":35.132073,"lng":135.896998,"zip":"5200235"},{"town":"真野佐川町","koaza":"","lat":35.141711,"lng":135.896468,"zip":"5200236"},{"town":"真野谷口町","koaza":"","lat":35.12407,"lng":135.904321,"zip":"5200233"},{"town":"真野普門一丁目","koaza":"","lat":35.133314,"lng":135.910005,"zip":"5200231"},{"town":"真野普門二丁目","koaza":"","lat":35.131303,"lng":135.907859,"zip":"5200231"},{"town":"真野普門三丁目","koaza":"","lat":35.141585,"lng":135.90278,"zip":"5200231"},{"town":"真野普門町","koaza":"","lat":35.14239,"lng":135.912063,"zip":"5200000"},{"town":"丸の内町","koaza":"","lat":34.996505,"lng":135.892932,"zip":"5200813"},{"town":"三井寺町","koaza":"","lat":35.010126,"lng":135.856803,"zip":"5200034"},{"town":"美崎町","koaza":"","lat":34.982541,"lng":135.889892,"zip":"5200841"},{"town":"見世一丁目","koaza":"","lat":35.039657,"lng":135.859842,"zip":"5200004"},{"town":"見世二丁目","koaza":"","lat":35.04297,"lng":135.860587,"zip":"5200004"},{"town":"美空町","koaza":"","lat":35.137016,"lng":135.918509,"zip":"5200223"},{"town":"緑町","koaza":"","lat":35.145022,"lng":135.90904,"zip":"5200221"},{"town":"南小松","koaza":"","lat":35.242514,"lng":135.946758,"zip":"5200502"},{"town":"南志賀一丁目","koaza":"","lat":35.03502,"lng":135.853539,"zip":"5200011"},{"town":"南志賀二丁目","koaza":"","lat":35.03828,"lng":135.853838,"zip":"5200011"},{"town":"南志賀三丁目","koaza":"","lat":35.036632,"lng":135.859427,"zip":"5200011"},{"town":"南志賀四丁目","koaza":"","lat":35.036383,"lng":135.863344,"zip":"5200011"},{"town":"南滋賀町","koaza":"","lat":35.039066,"lng":135.843931,"zip":"5200018"},{"town":"南比良","koaza":"","lat":35.230193,"lng":135.928897,"zip":"5200511"},{"town":"南船路","koaza":"","lat":35.179094,"lng":135.904955,"zip":"5200516"},{"town":"御幸町","koaza":"","lat":35.00522,"lng":135.862463,"zip":"5200057"},{"town":"本宮一丁目","koaza":"","lat":35.001364,"lng":135.875794,"zip":"5200804"},{"town":"本宮二丁目","koaza":"","lat":34.99879,"lng":135.874291,"zip":"5200804"},{"town":"森一丁目","koaza":"","lat":34.94705,"lng":135.934542,"zip":"5202274"},{"town":"森二丁目","koaza":"","lat":34.943291,"lng":135.939327,"zip":"5202274"},{"town":"森三丁目","koaza":"","lat":34.939061,"lng":135.941289,"zip":"5202274"},{"town":"柳が崎","koaza":"","lat":35.027931,"lng":135.867048,"zip":"5200022"},{"town":"柳川一丁目","koaza":"","lat":35.031955,"lng":135.858466,"zip":"5200014"},{"town":"柳川二丁目","koaza":"","lat":35.031967,"lng":135.862236,"zip":"5200014"},{"town":"山上町","koaza":"","lat":35.027056,"lng":135.840369,"zip":"5200038"},{"town":"山中町","koaza":"","lat":35.043836,"lng":135.827452,"zip":"5200017"},{"town":"山百合の丘","koaza":"","lat":35.138769,"lng":135.888577,"zip":"5200357"},{"town":"弥生町","koaza":"","lat":35.050635,"lng":135.862315,"zip":"5200115"},{"town":"由美浜","koaza":"","lat":35.001706,"lng":135.891488,"zip":"5200811"},{"town":"陽明町","koaza":"","lat":35.143934,"lng":135.904108,"zip":"5200226"},{"town":"横木一丁目","koaza":"","lat":34.991539,"lng":135.831648,"zip":"5200063"},{"town":"横木二丁目","koaza":"","lat":34.993246,"lng":135.831659,"zip":"5200063"},{"town":"若葉台","koaza":"","lat":34.974599,"lng":135.878951,"zip":"5200845"},{"town":"和邇今宿","koaza":"","lat":35.153797,"lng":135.928357,"zip":"5200524"},{"town":"和邇春日一丁目","koaza":"","lat":35.160649,"lng":135.912262,"zip":"5200529"},{"town":"和邇春日二丁目","koaza":"","lat":35.158238,"lng":135.912436,"zip":"5200529"},{"town":"和邇春日三丁目","koaza":"","lat":35.158717,"lng":135.910324,"zip":"5200529"},{"town":"和邇北浜","koaza":"","lat":35.1833,"lng":135.887468,"zip":"5200521"},{"town":"和邇高城","koaza":"","lat":35.162378,"lng":135.915528,"zip":"5200528"},{"town":"和邇中","koaza":"","lat":35.158542,"lng":135.904046,"zip":"5200526"},{"town":"和邇中浜","koaza":"","lat":35.163309,"lng":135.922987,"zip":"5200522"},{"town":"和邇南浜","koaza":"","lat":35.158763,"lng":135.926949,"zip":"5200523"}]