[{"town":"赤野井町","koaza":"","lat":35.07941,"lng":135.960921,"zip":"5240061"},{"town":"阿村町","koaza":"","lat":35.03993,"lng":135.992387,"zip":"5240035"},{"town":"荒見町","koaza":"","lat":35.082586,"lng":135.982046,"zip":"5240016"},{"town":"石田町","koaza":"","lat":35.071458,"lng":135.976761,"zip":"5240014"},{"town":"伊勢町","koaza":"","lat":35.041959,"lng":135.985897,"zip":"5240036"},{"town":"今市町","koaza":"","lat":35.080484,"lng":135.988879,"zip":"5240011"},{"town":"今宿一丁目","koaza":"","lat":35.054047,"lng":135.989085,"zip":"5240046"},{"town":"今宿二丁目","koaza":"","lat":35.052121,"lng":135.987146,"zip":"5240046"},{"town":"今宿三丁目","koaza":"","lat":35.055817,"lng":135.985307,"zip":"5240046"},{"town":"今宿四丁目","koaza":"","lat":35.053805,"lng":135.9842,"zip":"5240046"},{"town":"今宿町","koaza":"","lat":35.053594,"lng":135.981228,"zip":"5240046"},{"town":"今浜町","koaza":"","lat":35.115341,"lng":135.95811,"zip":"5240101"},{"town":"梅田町","koaza":"","lat":35.052304,"lng":135.995432,"zip":"5240037"},{"town":"焔魔堂町","koaza":"","lat":35.049111,"lng":135.984315,"zip":"5240042"},{"town":"大林町","koaza":"","lat":35.06016,"lng":135.966828,"zip":"5240054"},{"town":"岡町","koaza":"","lat":35.050888,"lng":136.00399,"zip":"5240032"},{"town":"笠原町","koaza":"","lat":35.089253,"lng":135.990141,"zip":"5240004"},{"town":"勝部一丁目","koaza":"","lat":35.051401,"lng":135.991365,"zip":"5240041"},{"town":"勝部二丁目","koaza":"","lat":35.048704,"lng":135.989997,"zip":"5240041"},{"town":"勝部三丁目","koaza":"","lat":35.046433,"lng":135.98792,"zip":"5240041"},{"town":"勝部四丁目","koaza":"","lat":35.044056,"lng":135.991938,"zip":"5240041"},{"town":"勝部五丁目","koaza":"","lat":35.046125,"lng":135.99381,"zip":"5240041"},{"town":"勝部六丁目","koaza":"","lat":35.048703,"lng":135.995361,"zip":"5240041"},{"town":"勝部町","koaza":"","lat":35.047908,"lng":135.998715,"zip":"5240041"},{"town":"金森町","koaza":"","lat":35.059611,"lng":135.980651,"zip":"5240045"},{"town":"川田町","koaza":"","lat":35.079708,"lng":136.0036,"zip":"5240001"},{"town":"小島町","koaza":"","lat":35.075121,"lng":135.99796,"zip":"5240002"},{"town":"木浜町","koaza":"","lat":35.097213,"lng":135.950683,"zip":"5240104"},{"town":"小浜町","koaza":"","lat":35.118376,"lng":135.984465,"zip":"5240211"},{"town":"幸津川町","koaza":"","lat":35.1127,"lng":135.977592,"zip":"5240215"},{"town":"下之郷一丁目","koaza":"","lat":35.065012,"lng":135.990447,"zip":"5240013"},{"town":"下之郷二丁目","koaza":"","lat":35.068307,"lng":135.987355,"zip":"5240013"},{"town":"下之郷三丁目","koaza":"","lat":35.066603,"lng":135.985761,"zip":"5240013"},{"town":"下之郷町","koaza":"","lat":35.065037,"lng":135.983707,"zip":"5240013"},{"town":"十二里町","koaza":"","lat":35.068163,"lng":135.970259,"zip":"5240055"},{"town":"新庄町","koaza":"","lat":35.095952,"lng":135.996382,"zip":"5240213"},{"town":"杉江町","koaza":"","lat":35.073547,"lng":135.959647,"zip":"5240062"},{"town":"洲本町","koaza":"","lat":35.089394,"lng":135.975849,"zip":"5240103"},{"town":"大門町","koaza":"","lat":35.052497,"lng":135.970789,"zip":"5240052"},{"town":"立田町","koaza":"","lat":35.102634,"lng":135.97671,"zip":"5240214"},{"town":"立入町","koaza":"","lat":35.053311,"lng":136.00864,"zip":"5240031"},{"town":"千代町","koaza":"","lat":35.042767,"lng":135.99754,"zip":"5240034"},{"town":"中町","koaza":"","lat":35.086044,"lng":135.995513,"zip":"5240003"},{"town":"服部町","koaza":"","lat":35.103728,"lng":135.996378,"zip":"5240212"},{"town":"播磨田町","koaza":"","lat":35.072405,"lng":135.989167,"zip":"5240012"},{"town":"浮気町","koaza":"","lat":35.049495,"lng":136.001065,"zip":"5240033"},{"town":"二町町","koaza":"","lat":35.045985,"lng":135.980463,"zip":"5240043"},{"town":"古高町","koaza":"","lat":35.049722,"lng":135.975503,"zip":"5240044"},{"town":"欲賀町","koaza":"","lat":35.062373,"lng":135.961217,"zip":"5240063"},{"town":"水保町","koaza":"","lat":35.105535,"lng":135.958528,"zip":"5240102"},{"town":"三宅町","koaza":"","lat":35.061839,"lng":135.974018,"zip":"5240051"},{"town":"森川原町","koaza":"","lat":35.064982,"lng":135.953526,"zip":"5240064"},{"town":"守山一丁目","koaza":"","lat":35.054306,"lng":135.992484,"zip":"5240022"},{"town":"守山二丁目","koaza":"","lat":35.05781,"lng":135.991689,"zip":"5240022"},{"town":"守山三丁目","koaza":"","lat":35.058215,"lng":135.987448,"zip":"5240022"},{"town":"守山四丁目","koaza":"","lat":35.060346,"lng":135.991012,"zip":"5240022"},{"town":"守山五丁目","koaza":"","lat":35.06214,"lng":135.987412,"zip":"5240022"},{"town":"守山六丁目","koaza":"","lat":35.062518,"lng":135.993633,"zip":"5240022"},{"town":"守山町","koaza":"","lat":35.062949,"lng":135.984507,"zip":"5240022"},{"town":"矢島町","koaza":"","lat":35.084787,"lng":135.969268,"zip":"5240015"},{"town":"山賀町","koaza":"","lat":35.071646,"lng":135.951245,"zip":"5240065"},{"town":"横江町","koaza":"","lat":35.053373,"lng":135.967425,"zip":"5240053"},{"town":"吉身一丁目","koaza":"","lat":35.055661,"lng":135.996729,"zip":"5240021"},{"town":"吉身二丁目","koaza":"","lat":35.057866,"lng":135.994669,"zip":"5240021"},{"town":"吉身三丁目","koaza":"","lat":35.059866,"lng":135.996598,"zip":"5240021"},{"town":"吉身四丁目","koaza":"","lat":35.059999,"lng":136.000366,"zip":"5240021"},{"town":"吉身五丁目","koaza":"","lat":35.056862,"lng":136.00239,"zip":"5240021"},{"town":"吉身六丁目","koaza":"","lat":35.054735,"lng":135.999491,"zip":"5240021"},{"town":"吉身七丁目","koaza":"","lat":35.053238,"lng":136.000369,"zip":"5240021"},{"town":"吉身町","koaza":"","lat":35.054398,"lng":136.00192,"zip":"5240021"},{"town":"水保町","koaza":"北川","lat":35.116784,"lng":135.947182,"zip":"5240102"},{"town":"播磨田町","koaza":"平城の里","lat":35.070039,"lng":135.99301,"zip":"5240012"},{"town":"岡町","koaza":"久保","lat":35.049789,"lng":136.004416,"zip":"5240032"}]