[{"town":"旭町","koaza":"","lat":35.273953,"lng":136.261864,"zip":"5220073"},{"town":"安食中町","koaza":"","lat":35.209701,"lng":136.217785,"zip":"5291152"},{"town":"池州町","koaza":"","lat":35.270179,"lng":136.24676,"zip":"5220065"},{"town":"石寺町","koaza":"","lat":35.236909,"lng":136.185344,"zip":"5211101"},{"town":"稲枝町","koaza":"","lat":35.200741,"lng":136.191919,"zip":"5211125"},{"town":"稲里町","koaza":"","lat":35.222931,"lng":136.197154,"zip":"5211111"},{"town":"稲部町","koaza":"","lat":35.208177,"lng":136.194924,"zip":"5211113"},{"town":"犬方町","koaza":"","lat":35.233606,"lng":136.24588,"zip":"5220236"},{"town":"宇尾町","koaza":"","lat":35.24261,"lng":136.233021,"zip":"5220239"},{"town":"大橋町","koaza":"","lat":35.260015,"lng":136.257308,"zip":"5220034"},{"town":"大堀町","koaza":"","lat":35.242792,"lng":136.267743,"zip":"5220026"},{"town":"大藪町","koaza":"","lat":35.268075,"lng":136.232671,"zip":"5220053"},{"town":"男鬼町","koaza":"","lat":35.272434,"lng":136.335531,"zip":"5220017"},{"town":"岡町","koaza":"","lat":35.254131,"lng":136.255637,"zip":"5220037"},{"town":"尾末町","koaza":"","lat":35.276717,"lng":136.257651,"zip":"5220001"},{"town":"小野町","koaza":"","lat":35.269596,"lng":136.282664,"zip":"5220005"},{"town":"海瀬町","koaza":"","lat":35.207694,"lng":136.210326,"zip":"5211121"},{"town":"開出今町","koaza":"","lat":35.256266,"lng":136.226131,"zip":"5220056"},{"town":"賀田山町","koaza":"","lat":35.220797,"lng":136.21029,"zip":"5291155"},{"town":"金沢町","koaza":"","lat":35.211988,"lng":136.201096,"zip":"5211112"},{"town":"金田町","koaza":"","lat":35.213066,"lng":136.187909,"zip":"5211115"},{"town":"上稲葉町","koaza":"","lat":35.199813,"lng":136.184562,"zip":"5211131"},{"town":"上岡部町","koaza":"","lat":35.222933,"lng":136.186689,"zip":"5211103"},{"town":"上西川町","koaza":"","lat":35.219808,"lng":136.174594,"zip":"5211143"},{"town":"川瀬馬場町","koaza":"","lat":35.226775,"lng":136.230254,"zip":"5220223"},{"town":"河原一丁目","koaza":"","lat":35.262926,"lng":136.257037,"zip":"5220083"},{"town":"河原二丁目","koaza":"","lat":35.264766,"lng":136.25452,"zip":"5220083"},{"town":"河原三丁目","koaza":"","lat":35.264708,"lng":136.256775,"zip":"5220083"},{"town":"甘呂町","koaza":"","lat":35.247678,"lng":136.219016,"zip":"5220046"},{"town":"京町一丁目","koaza":"","lat":35.26772,"lng":136.258976,"zip":"5220081"},{"town":"京町二丁目","koaza":"","lat":35.268385,"lng":136.256769,"zip":"5220081"},{"town":"京町三丁目","koaza":"","lat":35.271105,"lng":136.258736,"zip":"5220081"},{"town":"清崎町","koaza":"","lat":35.227692,"lng":136.210389,"zip":"5291156"},{"town":"銀座町","koaza":"","lat":35.267287,"lng":136.25374,"zip":"5220088"},{"town":"小泉町","koaza":"","lat":35.249386,"lng":136.248535,"zip":"5220043"},{"town":"甲崎町","koaza":"","lat":35.225517,"lng":136.168174,"zip":"5211141"},{"town":"甲田町","koaza":"","lat":35.295135,"lng":136.287002,"zip":"5220012"},{"town":"広野町","koaza":"","lat":35.238019,"lng":136.244305,"zip":"5220238"},{"town":"極楽寺町","koaza":"","lat":35.229895,"lng":136.233796,"zip":"5220231"},{"town":"後三条町","koaza":"","lat":35.262882,"lng":136.250093,"zip":"5220086"},{"town":"金亀町","koaza":"","lat":35.276556,"lng":136.251825,"zip":"5220061"},{"town":"金剛寺町","koaza":"","lat":35.232175,"lng":136.238957,"zip":"5220235"},{"town":"幸町","koaza":"","lat":35.264355,"lng":136.269136,"zip":"5220021"},{"town":"栄町一丁目","koaza":"","lat":35.272641,"lng":136.245845,"zip":"5220066"},{"town":"栄町二丁目","koaza":"","lat":35.274097,"lng":136.242495,"zip":"5220066"},{"town":"笹尾町","koaza":"","lat":35.26131,"lng":136.300931,"zip":"5220019"},{"town":"薩摩町","koaza":"","lat":35.232319,"lng":136.166747,"zip":"5211147"},{"town":"里根町","koaza":"","lat":35.267513,"lng":136.270849,"zip":"5220022"},{"town":"佐和町","koaza":"","lat":35.272985,"lng":136.259362,"zip":"5220075"},{"town":"佐和山町","koaza":"","lat":35.280493,"lng":136.27427,"zip":"5220006"},{"town":"地蔵町","koaza":"","lat":35.253765,"lng":136.268826,"zip":"5220029"},{"town":"下稲葉町","koaza":"","lat":35.199568,"lng":136.17907,"zip":"5211132"},{"town":"下岡部町","koaza":"","lat":35.224962,"lng":136.182479,"zip":"5211102"},{"town":"下西川町","koaza":"","lat":35.229541,"lng":136.179798,"zip":"5211142"},{"town":"下矢倉町","koaza":"","lat":35.291067,"lng":136.284468,"zip":"5220011"},{"town":"荘厳寺町","koaza":"","lat":35.277827,"lng":136.304033,"zip":"5220015"},{"town":"正法寺町","koaza":"","lat":35.251686,"lng":136.276863,"zip":"5220024"},{"town":"城町一丁目","koaza":"","lat":35.274026,"lng":136.247399,"zip":"5220068"},{"town":"城町二丁目","koaza":"","lat":35.276311,"lng":136.244542,"zip":"5220068"},{"town":"新海町","koaza":"","lat":35.214828,"lng":136.135403,"zip":"5211135"},{"town":"新海浜一丁目","koaza":"","lat":35.215181,"lng":136.119449,"zip":"5211136"},{"town":"新海浜二丁目","koaza":"","lat":35.21575,"lng":136.124202,"zip":"5211136"},{"town":"新町","koaza":"","lat":35.263113,"lng":136.255015,"zip":"5220085"},{"town":"須越町","koaza":"","lat":35.250097,"lng":136.201201,"zip":"5220058"},{"town":"芹川町","koaza":"","lat":35.260096,"lng":136.262369,"zip":"5220033"},{"town":"芹中町","koaza":"","lat":35.261491,"lng":136.256206,"zip":"5220031"},{"town":"芹橋一丁目","koaza":"","lat":35.266333,"lng":136.252375,"zip":"5220087"},{"town":"芹橋二丁目","koaza":"","lat":35.268285,"lng":136.249372,"zip":"5220087"},{"town":"芹町","koaza":"","lat":35.261568,"lng":136.258834,"zip":"5220032"},{"town":"善谷町","koaza":"","lat":35.285968,"lng":136.312729,"zip":"5220014"},{"town":"太堂町","koaza":"","lat":35.214175,"lng":136.210404,"zip":"5291153"},{"town":"大東町","koaza":"","lat":35.270454,"lng":136.261304,"zip":"5220074"},{"town":"高宮町","koaza":"","lat":35.235438,"lng":136.260158,"zip":"5220201"},{"town":"竹ケ鼻町","koaza":"","lat":35.242443,"lng":136.243504,"zip":"5220044"},{"town":"立花町","koaza":"","lat":35.272102,"lng":136.256447,"zip":"5220062"},{"town":"田附町","koaza":"","lat":35.214844,"lng":136.149279,"zip":"5211134"},{"town":"田原町","koaza":"","lat":35.215465,"lng":136.176949,"zip":"5211105"},{"town":"千尋町","koaza":"","lat":35.215685,"lng":136.215227,"zip":"5291154"},{"town":"中央町","koaza":"","lat":35.269452,"lng":136.254758,"zip":"5220063"},{"town":"辻堂町","koaza":"","lat":35.235266,"lng":136.23253,"zip":"5220233"},{"town":"葛籠町","koaza":"","lat":35.220945,"lng":136.248114,"zip":"5220212"},{"town":"出路町","koaza":"","lat":35.209552,"lng":136.178231,"zip":"5211104"},{"town":"出町","koaza":"","lat":35.216549,"lng":136.239315,"zip":"5220214"},{"town":"戸賀町","koaza":"","lat":35.25383,"lng":136.240522,"zip":"5220042"},{"town":"外町","koaza":"","lat":35.266095,"lng":136.265007,"zip":"5220009"},{"town":"鳥居本町","koaza":"","lat":35.280972,"lng":136.287521,"zip":"5220004"},{"town":"長曽根町","koaza":"","lat":35.276439,"lng":136.23973,"zip":"5220067"},{"town":"長曽根南町","koaza":"","lat":35.26363,"lng":136.243528,"zip":"5220052"},{"town":"中藪一丁目","koaza":"","lat":35.271272,"lng":136.243858,"zip":"5220051"},{"town":"中藪二丁目","koaza":"","lat":35.272565,"lng":136.240929,"zip":"5220051"},{"town":"中藪町","koaza":"","lat":35.269831,"lng":136.241285,"zip":"5220051"},{"town":"中山町","koaza":"","lat":35.291745,"lng":136.301344,"zip":"5220013"},{"town":"西今町","koaza":"","lat":35.25204,"lng":136.238942,"zip":"5220054"},{"town":"錦町","koaza":"","lat":35.266479,"lng":136.256061,"zip":"5220089"},{"town":"西葛籠町","koaza":"","lat":35.224333,"lng":136.243088,"zip":"5220213"},{"town":"西沼波町","koaza":"","lat":35.256909,"lng":136.263446,"zip":"5220038"},{"town":"楡町","koaza":"","lat":35.216814,"lng":136.220731,"zip":"5291151"},{"town":"野口町","koaza":"","lat":35.221132,"lng":136.237717,"zip":"5220221"},{"town":"野瀬町","koaza":"","lat":35.252063,"lng":136.234186,"zip":"5220055"},{"town":"野田山町","koaza":"","lat":35.247683,"lng":136.284446,"zip":"5220025"},{"town":"沼波町","koaza":"","lat":35.257041,"lng":136.258338,"zip":"5220036"},{"town":"野良田町","koaza":"","lat":35.19958,"lng":136.197117,"zip":"5211124"},{"town":"橋向町","koaza":"","lat":35.263699,"lng":136.252698,"zip":"5220084"},{"town":"八坂町","koaza":"","lat":35.260655,"lng":136.219379,"zip":"5220057"},{"town":"服部町","koaza":"","lat":35.194823,"lng":136.186283,"zip":"5211126"},{"town":"原町","koaza":"","lat":35.26053,"lng":136.278864,"zip":"5220023"},{"town":"馬場一丁目","koaza":"","lat":35.279628,"lng":136.247178,"zip":"5220069"},{"town":"馬場二丁目","koaza":"","lat":35.280735,"lng":136.245228,"zip":"5220069"},{"town":"東沼波町","koaza":"","lat":35.250354,"lng":136.259491,"zip":"5220027"},{"town":"彦富町","koaza":"","lat":35.205083,"lng":136.186563,"zip":"5211114"},{"town":"肥田町","koaza":"","lat":35.200343,"lng":136.205058,"zip":"5211123"},{"town":"日夏町","koaza":"","lat":35.238871,"lng":136.212409,"zip":"5220047"},{"town":"平田町","koaza":"","lat":35.257957,"lng":136.242515,"zip":"5220041"},{"town":"普光寺町","koaza":"","lat":35.220468,"lng":136.164587,"zip":"5211144"},{"town":"仏生寺町","koaza":"","lat":35.274054,"lng":136.312867,"zip":"5220018"},{"town":"武奈町","koaza":"","lat":35.286091,"lng":136.335743,"zip":"5220016"},{"town":"船町","koaza":"","lat":35.275807,"lng":136.262217,"zip":"5220072"},{"town":"古沢町","koaza":"","lat":35.277533,"lng":136.266164,"zip":"5220007"},{"town":"法士町","koaza":"","lat":35.227754,"lng":136.248929,"zip":"5220211"},{"town":"堀町","koaza":"","lat":35.237377,"lng":136.235867,"zip":"5220237"},{"town":"本庄町","koaza":"","lat":35.207781,"lng":136.168396,"zip":"5211133"},{"town":"本町一丁目","koaza":"","lat":35.270308,"lng":136.25252,"zip":"5220064"},{"town":"本町二丁目","koaza":"","lat":35.271446,"lng":136.250643,"zip":"5220064"},{"town":"本町三丁目","koaza":"","lat":35.272636,"lng":136.249093,"zip":"5220064"},{"town":"松原一丁目","koaza":"","lat":35.283454,"lng":136.251739,"zip":"5220002"},{"town":"松原二丁目","koaza":"","lat":35.284725,"lng":136.249313,"zip":"5220002"},{"town":"松原町","koaza":"","lat":35.28882,"lng":136.26092,"zip":"5220002"},{"town":"三津町","koaza":"","lat":35.202961,"lng":136.21229,"zip":"5211122"},{"town":"三津屋町","koaza":"","lat":35.24263,"lng":136.194406,"zip":"5220059"},{"town":"南川瀬町","koaza":"","lat":35.219391,"lng":136.230895,"zip":"5220222"},{"town":"南三ツ谷町","koaza":"","lat":35.217476,"lng":136.156398,"zip":"5211145"},{"town":"宮田町","koaza":"","lat":35.289019,"lng":136.275915,"zip":"5220003"},{"town":"元岡町","koaza":"","lat":35.258354,"lng":136.25782,"zip":"5220035"},{"town":"元町","koaza":"","lat":35.275292,"lng":136.259369,"zip":"5220071"},{"town":"森堂町","koaza":"","lat":35.230212,"lng":136.236987,"zip":"5220234"},{"town":"安清町","koaza":"","lat":35.265559,"lng":136.260029,"zip":"5220082"},{"town":"安清東町","koaza":"","lat":35.268239,"lng":136.263072,"zip":"5220008"},{"town":"柳川町","koaza":"","lat":35.226443,"lng":136.155135,"zip":"5211146"},{"town":"山之脇町","koaza":"","lat":35.255652,"lng":136.251067,"zip":"5220038"},{"town":"蓮台寺町","koaza":"","lat":35.236061,"lng":136.227923,"zip":"5220232"},{"town":"和田町","koaza":"","lat":35.258237,"lng":136.250948,"zip":"5220039"},{"town":"川瀬馬場町","koaza":"大吉","lat":35.225357,"lng":136.23888,"zip":"5220223"},{"town":"西沼波町","koaza":"高橋田","lat":35.259486,"lng":136.266849,"zip":"5220038"}]