[{"town":"安孫子","koaza":"","lat":35.175795,"lng":136.246629,"zip":"5291234"},{"town":"石橋","koaza":"","lat":35.183202,"lng":136.219512,"zip":"5291311"},{"town":"岩倉","koaza":"","lat":35.173047,"lng":136.266847,"zip":"5291207"},{"town":"円城寺","koaza":"","lat":35.185487,"lng":136.252954,"zip":"5291231"},{"town":"沖","koaza":"","lat":35.163309,"lng":136.239805,"zip":"5291213"},{"town":"蚊野","koaza":"","lat":35.166986,"lng":136.258313,"zip":"5291206"},{"town":"蚊野外","koaza":"","lat":35.159238,"lng":136.264411,"zip":"5291204"},{"town":"上蚊野","koaza":"","lat":35.156097,"lng":136.273133,"zip":"5291203"},{"town":"苅間","koaza":"","lat":35.148706,"lng":136.220242,"zip":"5291324"},{"town":"軽野","koaza":"","lat":35.165674,"lng":136.247224,"zip":"5291205"},{"town":"川久保","koaza":"","lat":35.184562,"lng":136.223315,"zip":"5291312"},{"town":"北八木","koaza":"","lat":35.171853,"lng":136.240996,"zip":"5291222"},{"town":"栗田","koaza":"","lat":35.161123,"lng":136.229905,"zip":"5291225"},{"town":"香之庄","koaza":"","lat":35.158262,"lng":136.249322,"zip":"5291211"},{"town":"島川","koaza":"","lat":35.171665,"lng":136.23291,"zip":"5291223"},{"town":"下八木","koaza":"","lat":35.175653,"lng":136.233822,"zip":"5291221"},{"town":"常安寺","koaza":"","lat":35.183849,"lng":136.262645,"zip":"5291232"},{"town":"竹原","koaza":"","lat":35.177731,"lng":136.265906,"zip":"5291208"},{"town":"東円堂","koaza":"","lat":35.153727,"lng":136.212967,"zip":"5291325"},{"town":"長塚","koaza":"","lat":35.164522,"lng":136.231791,"zip":"5291224"},{"town":"西出","koaza":"","lat":35.186518,"lng":136.24624,"zip":"5291237"},{"town":"野々目","koaza":"","lat":35.16883,"lng":136.225926,"zip":"5291227"},{"town":"畑田","koaza":"","lat":35.149077,"lng":136.22751,"zip":"5291323"},{"town":"東出","koaza":"","lat":35.179186,"lng":136.254621,"zip":"5291233"},{"town":"平居","koaza":"","lat":35.15428,"lng":136.224934,"zip":"5291322"},{"town":"深草","koaza":"","lat":35.188359,"lng":136.242343,"zip":"5291236"},{"town":"松尾寺","koaza":"","lat":35.154752,"lng":136.286099,"zip":"5291202"},{"town":"南野々目","koaza":"","lat":35.165622,"lng":136.224112,"zip":"5291226"},{"town":"宮後","koaza":"","lat":35.167769,"lng":136.241361,"zip":"5291214"},{"town":"目加田","koaza":"","lat":35.185735,"lng":136.237549,"zip":"5291235"},{"town":"元持","koaza":"","lat":35.156995,"lng":136.242717,"zip":"5291212"},{"town":"矢守","koaza":"","lat":35.170661,"lng":136.222138,"zip":"5291228"},{"town":"斧磨","koaza":"","lat":35.173622,"lng":136.283632,"zip":"5291201"},{"town":"山川原","koaza":"","lat":35.192856,"lng":136.194651,"zip":"5291301"},{"town":"川原","koaza":"","lat":35.191433,"lng":136.202643,"zip":"5291302"},{"town":"沓掛","koaza":"","lat":35.180398,"lng":136.213462,"zip":"5291315"},{"town":"長野","koaza":"","lat":35.185506,"lng":136.20704,"zip":"5291303"},{"town":"中宿","koaza":"","lat":35.176569,"lng":136.207612,"zip":"5291314"},{"town":"愛知川","koaza":"","lat":35.168395,"lng":136.205891,"zip":"5291331"},{"town":"豊満","koaza":"","lat":35.163924,"lng":136.217452,"zip":"5291321"},{"town":"市","koaza":"","lat":35.17328,"lng":136.216177,"zip":"5291313"},{"town":"豊満","koaza":"砂川原","lat":35.165978,"lng":136.215023,"zip":"5291321"}]