[{"town":"愛東外町","koaza":"","lat":35.093206,"lng":136.296782,"zip":"5270166"},{"town":"青野町","koaza":"","lat":35.081534,"lng":136.276677,"zip":"5270232"},{"town":"青葉町","koaza":"","lat":35.106621,"lng":136.199008,"zip":"5270039"},{"town":"青山町","koaza":"","lat":35.096818,"lng":136.266269,"zip":"5270164"},{"town":"阿弥陀堂町","koaza":"","lat":35.20208,"lng":136.157442,"zip":"5211202"},{"town":"池庄町","koaza":"","lat":35.127341,"lng":136.240491,"zip":"5270113"},{"town":"池田町","koaza":"","lat":35.088714,"lng":136.267137,"zip":"5270054"},{"town":"池之尻町","koaza":"","lat":35.118093,"lng":136.25541,"zip":"5270171"},{"town":"池之脇町","koaza":"","lat":35.062784,"lng":136.292717,"zip":"5270222"},{"town":"石谷町","koaza":"","lat":35.073246,"lng":136.254219,"zip":"5270227"},{"town":"石塔町","koaza":"","lat":35.072174,"lng":136.208584,"zip":"5291501"},{"town":"市ケ原町","koaza":"","lat":35.11521,"lng":136.278661,"zip":"5270151"},{"town":"市子沖町","koaza":"","lat":35.053952,"lng":136.17648,"zip":"5291533"},{"town":"市子川原町","koaza":"","lat":35.058273,"lng":136.183,"zip":"5291531"},{"town":"市子殿町","koaza":"","lat":35.059517,"lng":136.176125,"zip":"5291537"},{"town":"市子松井町","koaza":"","lat":35.052161,"lng":136.182433,"zip":"5291532"},{"town":"市辺町","koaza":"","lat":35.098592,"lng":136.174393,"zip":"5270074"},{"town":"市原野町","koaza":"","lat":35.07171,"lng":136.267893,"zip":"5270224"},{"town":"一式町","koaza":"","lat":35.071974,"lng":136.258668,"zip":"5270226"},{"town":"稲垂町","koaza":"","lat":35.079926,"lng":136.169726,"zip":"5291561"},{"town":"猪子町","koaza":"","lat":35.175818,"lng":136.166929,"zip":"5211223"},{"town":"伊庭町","koaza":"","lat":35.178333,"lng":136.149507,"zip":"5211235"},{"town":"茨川町","koaza":"","lat":35.155463,"lng":136.440044,"zip":"5270216"},{"town":"今在家町","koaza":"","lat":35.148144,"lng":136.255324,"zip":"5270107"},{"town":"今崎町","koaza":"","lat":35.100114,"lng":136.190559,"zip":"5270016"},{"town":"今代町","koaza":"","lat":35.090542,"lng":136.257495,"zip":"5270053"},{"town":"今町","koaza":"","lat":35.190515,"lng":136.175054,"zip":"5211211"},{"town":"今堀町","koaza":"","lat":35.091743,"lng":136.191784,"zip":"5270071"},{"town":"妹町","koaza":"","lat":35.103497,"lng":136.254346,"zip":"5270162"},{"town":"鋳物師町","koaza":"","lat":35.03177,"lng":136.198778,"zip":"5291522"},{"town":"上中野町","koaza":"","lat":35.120141,"lng":136.26639,"zip":"5270156"},{"town":"梅林町","koaza":"","lat":35.121628,"lng":136.241671,"zip":"5270175"},{"town":"瓜生津町","koaza":"","lat":35.077583,"lng":136.248848,"zip":"5270055"},{"town":"永源寺相谷町","koaza":"","lat":35.067838,"lng":136.326087,"zip":"5270211"},{"town":"永源寺高野町","koaza":"","lat":35.094108,"lng":136.323147,"zip":"5270212"},{"town":"大沢町","koaza":"","lat":35.134008,"lng":136.252578,"zip":"5270114"},{"town":"大清水町","koaza":"","lat":35.137015,"lng":136.215352,"zip":"5270126"},{"town":"大塚町","koaza":"","lat":35.051163,"lng":136.192356,"zip":"5291512"},{"town":"大萩町","koaza":"","lat":35.118462,"lng":136.243332,"zip":"5270174"},{"town":"大林町","koaza":"","lat":35.110757,"lng":136.274122,"zip":"5270155"},{"town":"大森町","koaza":"","lat":35.081116,"lng":136.227454,"zip":"5270063"},{"town":"岡田町","koaza":"","lat":35.091047,"lng":136.248216,"zip":"5270057"},{"town":"小川町","koaza":"","lat":35.193374,"lng":136.161372,"zip":"5211204"},{"town":"沖野一丁目","koaza":"","lat":35.102315,"lng":136.20628,"zip":"5270034"},{"town":"沖野二丁目","koaza":"","lat":35.100099,"lng":136.205464,"zip":"5270034"},{"town":"沖野三丁目","koaza":"","lat":35.096416,"lng":136.207341,"zip":"5270034"},{"town":"沖野四丁目","koaza":"","lat":35.097892,"lng":136.211111,"zip":"5270034"},{"town":"沖野五丁目","koaza":"","lat":35.094708,"lng":136.213846,"zip":"5270034"},{"town":"小倉町","koaza":"","lat":35.093395,"lng":136.277855,"zip":"5270165"},{"town":"長町","koaza":"","lat":35.131535,"lng":136.228504,"zip":"5270122"},{"town":"乙女浜町","koaza":"","lat":35.192141,"lng":136.139499,"zip":"5211241"},{"town":"小脇町","koaza":"","lat":35.115106,"lng":136.178464,"zip":"5270091"},{"town":"垣見町","koaza":"","lat":35.183042,"lng":136.168571,"zip":"5211221"},{"town":"柏木町","koaza":"","lat":35.097477,"lng":136.152763,"zip":"5270083"},{"town":"春日町","koaza":"","lat":35.105279,"lng":136.204535,"zip":"5270032"},{"town":"葛巻町","koaza":"","lat":35.061045,"lng":136.151019,"zip":"5291566"},{"town":"綺田町","koaza":"","lat":35.058444,"lng":136.210277,"zip":"5291503"},{"town":"上麻生町","koaza":"","lat":35.038246,"lng":136.191525,"zip":"5291523"},{"town":"上大森町","koaza":"","lat":35.08,"lng":136.236913,"zip":"5270062"},{"town":"上岸本町","koaza":"","lat":35.114152,"lng":136.235327,"zip":"5270173"},{"town":"上南町","koaza":"","lat":35.05521,"lng":136.170696,"zip":"5291535"},{"town":"上羽田町","koaza":"","lat":35.083341,"lng":136.159062,"zip":"5270082"},{"town":"上平木町","koaza":"","lat":35.10073,"lng":136.140475,"zip":"5270086"},{"town":"上二俣町","koaza":"","lat":35.066073,"lng":136.286043,"zip":"5270221"},{"town":"上山町","koaza":"","lat":35.12274,"lng":136.290173,"zip":"5270142"},{"town":"蒲生大森町","koaza":"","lat":35.041772,"lng":136.181686,"zip":"5291514"},{"town":"蒲生岡本町","koaza":"","lat":35.040827,"lng":136.200765,"zip":"5291521"},{"town":"蒲生寺町","koaza":"","lat":35.06052,"lng":136.199949,"zip":"5291504"},{"town":"蒲生堂町","koaza":"","lat":35.040806,"lng":136.166327,"zip":"5291541"},{"town":"萱尾町","koaza":"","lat":35.080441,"lng":136.362604,"zip":"5270208"},{"town":"川合町","koaza":"","lat":35.071916,"lng":136.180286,"zip":"5291571"},{"town":"川合寺町","koaza":"","lat":35.119933,"lng":136.21363,"zip":"5270041"},{"town":"川南町","koaza":"","lat":35.199371,"lng":136.167406,"zip":"5211203"},{"town":"祇園町","koaza":"","lat":35.151855,"lng":136.273777,"zip":"5270101"},{"town":"北坂町","koaza":"","lat":35.137377,"lng":136.283256,"zip":"5270145"},{"town":"北清水町","koaza":"","lat":35.14462,"lng":136.218462,"zip":"5270129"},{"town":"北須田町","koaza":"","lat":35.157241,"lng":136.157703,"zip":"5211232"},{"town":"北花沢町","koaza":"","lat":35.127576,"lng":136.260308,"zip":"5270111"},{"town":"北菩提寺町","koaza":"","lat":35.145067,"lng":136.235449,"zip":"5270138"},{"town":"きぬがさ町","koaza":"","lat":35.164804,"lng":136.145468,"zip":"5211234"},{"town":"君ヶ畑町","koaza":"","lat":35.164375,"lng":136.402288,"zip":"5270000"},{"town":"木村町","koaza":"","lat":35.072212,"lng":136.16444,"zip":"5291562"},{"town":"黄和田町","koaza":"","lat":35.095561,"lng":136.405657,"zip":"5270205"},{"town":"九居瀬町","koaza":"","lat":35.087601,"lng":136.348691,"zip":"5270215"},{"town":"栗見新田町","koaza":"","lat":35.204924,"lng":136.121646,"zip":"5211243"},{"town":"栗見出在家町","koaza":"","lat":35.210833,"lng":136.116604,"zip":"5211245"},{"town":"小池町","koaza":"","lat":35.133993,"lng":136.230303,"zip":"5270121"},{"town":"小今町","koaza":"","lat":35.103926,"lng":136.18402,"zip":"5270092"},{"town":"甲津畑町","koaza":"","lat":35.041138,"lng":136.341751,"zip":"5270214"},{"town":"合戸町","koaza":"","lat":35.061057,"lng":136.166199,"zip":"5291536"},{"town":"五個荘石川町","koaza":"","lat":35.149852,"lng":136.182007,"zip":"5291425"},{"town":"五個荘石塚町","koaza":"","lat":35.144774,"lng":136.179538,"zip":"5291444"},{"town":"五個荘石馬寺町","koaza":"","lat":35.161514,"lng":136.168906,"zip":"5291401"},{"town":"五個荘伊野部町","koaza":"","lat":35.130702,"lng":136.188212,"zip":"5291435"},{"town":"五個荘奥町","koaza":"","lat":35.143541,"lng":136.20267,"zip":"5291423"},{"town":"五個荘小幡町","koaza":"","lat":35.153343,"lng":136.198499,"zip":"5291422"},{"town":"五個荘河曲町","koaza":"","lat":35.169391,"lng":136.188579,"zip":"5291411"},{"town":"五個荘川並町","koaza":"","lat":35.149829,"lng":136.168218,"zip":"5291441"},{"town":"五個荘北町屋町","koaza":"","lat":35.147112,"lng":136.183747,"zip":"5291443"},{"town":"五個荘木流町","koaza":"","lat":35.143098,"lng":136.194146,"zip":"5291433"},{"town":"五個荘五位田町","koaza":"","lat":35.159795,"lng":136.193248,"zip":"5291415"},{"town":"五個荘金堂町","koaza":"","lat":35.155328,"lng":136.180693,"zip":"5291405"},{"town":"五個荘七里町","koaza":"","lat":35.165819,"lng":136.176291,"zip":"5291402"},{"town":"五個荘清水鼻町","koaza":"","lat":35.135346,"lng":136.174369,"zip":"5291445"},{"town":"五個荘新堂町","koaza":"","lat":35.145493,"lng":136.188421,"zip":"5291432"},{"town":"五個荘竜田町","koaza":"","lat":35.15263,"lng":136.187577,"zip":"5291421"},{"town":"五個荘塚本町","koaza":"","lat":35.152686,"lng":136.175831,"zip":"5291442"},{"town":"五個荘中町","koaza":"","lat":35.160642,"lng":136.19901,"zip":"5291414"},{"town":"五個荘日吉町","koaza":"","lat":35.169865,"lng":136.16935,"zip":"5291403"},{"town":"五個荘平阪町","koaza":"","lat":35.137142,"lng":136.191238,"zip":"5291434"},{"town":"五個荘三俣町","koaza":"","lat":35.149195,"lng":136.192939,"zip":"5291424"},{"town":"五個荘簗瀬町","koaza":"","lat":35.165116,"lng":136.192117,"zip":"5291413"},{"town":"五個荘山本町","koaza":"","lat":35.139024,"lng":136.183546,"zip":"5291431"},{"town":"五個荘和田町","koaza":"","lat":35.171816,"lng":136.192163,"zip":"5291412"},{"town":"小田苅町","koaza":"","lat":35.128356,"lng":136.220847,"zip":"5270125"},{"town":"五智町","koaza":"","lat":35.097977,"lng":136.23279,"zip":"5270044"},{"town":"小八木町","koaza":"","lat":35.153334,"lng":136.258406,"zip":"5270108"},{"town":"幸町","koaza":"","lat":35.107022,"lng":136.204267,"zip":"5270031"},{"town":"栄町","koaza":"","lat":35.109264,"lng":136.194919,"zip":"5270027"},{"town":"桜川西町","koaza":"","lat":35.062658,"lng":136.184573,"zip":"5291572"},{"town":"桜川東町","koaza":"","lat":35.065071,"lng":136.19446,"zip":"5291511"},{"town":"佐生町","koaza":"","lat":35.174549,"lng":136.179302,"zip":"5211215"},{"town":"佐野町","koaza":"","lat":35.178828,"lng":136.175472,"zip":"5211222"},{"town":"佐目町","koaza":"","lat":35.055497,"lng":136.38236,"zip":"5270209"},{"town":"尻無町","koaza":"","lat":35.083964,"lng":136.216833,"zip":"5270064"},{"town":"芝原町","koaza":"","lat":35.09003,"lng":136.196848,"zip":"5270067"},{"town":"柴原南町","koaza":"","lat":35.082554,"lng":136.202274,"zip":"5270066"},{"town":"下麻生町","koaza":"","lat":35.041315,"lng":136.188458,"zip":"5291524"},{"town":"下一色町","koaza":"","lat":35.14968,"lng":136.243695,"zip":"5270132"},{"town":"下岸本町","koaza":"","lat":35.122323,"lng":136.22571,"zip":"5270124"},{"town":"下里町","koaza":"","lat":35.139117,"lng":136.255419,"zip":"5270115"},{"town":"下中野町","koaza":"","lat":35.112916,"lng":136.266218,"zip":"5270157"},{"town":"下羽田町","koaza":"","lat":35.092312,"lng":136.138213,"zip":"5270085"},{"town":"下二俣町","koaza":"","lat":35.086185,"lng":136.209972,"zip":"5270065"},{"town":"清水中町","koaza":"","lat":35.141028,"lng":136.224165,"zip":"5270128"},{"town":"勝堂町","koaza":"","lat":35.153475,"lng":136.234464,"zip":"5270131"},{"town":"昭和町","koaza":"","lat":35.106797,"lng":136.190266,"zip":"5270017"},{"town":"新宮町","koaza":"","lat":35.200753,"lng":136.148763,"zip":"5211201"},{"town":"神郷町","koaza":"","lat":35.178483,"lng":136.190224,"zip":"5211213"},{"town":"新出町","koaza":"","lat":35.063957,"lng":136.264676,"zip":"5270225"},{"town":"神田町","koaza":"","lat":35.112707,"lng":136.224266,"zip":"5270043"},{"town":"鈴町","koaza":"","lat":35.035191,"lng":136.175329,"zip":"5291534"},{"town":"聖徳町","koaza":"","lat":35.102916,"lng":136.198868,"zip":"5270038"},{"town":"聖和町","koaza":"","lat":35.099808,"lng":136.201697,"zip":"5270036"},{"town":"僧坊町","koaza":"","lat":35.142203,"lng":136.257853,"zip":"5270106"},{"town":"曽根町","koaza":"","lat":35.100097,"lng":136.27165,"zip":"5270163"},{"town":"園町","koaza":"","lat":35.105648,"lng":136.278274,"zip":"5270154"},{"town":"大覚寺町","koaza":"","lat":35.116401,"lng":136.296108,"zip":"5270152"},{"town":"躰光寺町","koaza":"","lat":35.189166,"lng":136.157986,"zip":"5211205"},{"town":"田井町","koaza":"","lat":35.04691,"lng":136.186927,"zip":"5291513"},{"town":"大中町","koaza":"","lat":35.186805,"lng":136.130272,"zip":"5211244"},{"town":"高木町","koaza":"","lat":35.068828,"lng":136.27927,"zip":"5270223"},{"town":"蓼畑町","koaza":"","lat":35.099767,"lng":136.369914,"zip":"5270207"},{"town":"建部上中町","koaza":"","lat":35.127838,"lng":136.199342,"zip":"5270002"},{"town":"建部瓦屋寺町","koaza":"","lat":35.120608,"lng":136.188879,"zip":"5270007"},{"town":"建部北町","koaza":"","lat":35.126224,"lng":136.205434,"zip":"5270003"},{"town":"建部堺町","koaza":"","lat":35.121837,"lng":136.208918,"zip":"5270004"},{"town":"建部下野町","koaza":"","lat":35.132566,"lng":136.197711,"zip":"5270001"},{"town":"建部日吉町","koaza":"","lat":35.121049,"lng":136.196013,"zip":"5270006"},{"town":"建部南町","koaza":"","lat":35.120759,"lng":136.201874,"zip":"5270005"},{"town":"種町","koaza":"","lat":35.186795,"lng":136.186444,"zip":"5211212"},{"town":"長勝寺町","koaza":"","lat":35.174685,"lng":136.184411,"zip":"5211214"},{"town":"寺町","koaza":"","lat":35.091926,"lng":136.253305,"zip":"5270052"},{"town":"土器町","koaza":"","lat":35.073928,"lng":136.243747,"zip":"5270061"},{"town":"外町","koaza":"","lat":35.115518,"lng":136.216617,"zip":"5270042"},{"town":"外原町","koaza":"","lat":35.055054,"lng":136.156624,"zip":"5291565"},{"town":"中一色町","koaza":"","lat":35.144005,"lng":136.244527,"zip":"5270133"},{"town":"中岸本町","koaza":"","lat":35.12081,"lng":136.234727,"zip":"5270123"},{"town":"中里町","koaza":"","lat":35.133697,"lng":136.265583,"zip":"5270105"},{"town":"中戸町","koaza":"","lat":35.107313,"lng":136.249754,"zip":"5270161"},{"town":"中野町","koaza":"","lat":35.105072,"lng":136.188943,"zip":"5270015"},{"town":"中羽田町","koaza":"","lat":35.085927,"lng":136.145046,"zip":"5270084"},{"town":"中小路町","koaza":"","lat":35.100373,"lng":136.230748,"zip":"5270045"},{"town":"鯰江町","koaza":"","lat":35.110302,"lng":136.244703,"zip":"5270172"},{"town":"西中野町","koaza":"","lat":35.10634,"lng":136.192711,"zip":"5270014"},{"town":"西菩提寺町","koaza":"","lat":35.14234,"lng":136.229125,"zip":"5270137"},{"town":"糠塚町","koaza":"","lat":35.107565,"lng":136.168208,"zip":"5270093"},{"town":"布引台一丁目","koaza":"","lat":35.087195,"lng":136.187358,"zip":"5270072"},{"town":"布引台二丁目","koaza":"","lat":35.087065,"lng":136.189374,"zip":"5270072"},{"town":"野口町","koaza":"","lat":35.104923,"lng":136.159621,"zip":"5270076"},{"town":"能登川町","koaza":"","lat":35.169161,"lng":136.156496,"zip":"5211231"},{"town":"野村町","koaza":"","lat":35.10774,"lng":136.217419,"zip":"5270047"},{"town":"林田町","koaza":"","lat":35.095554,"lng":136.239799,"zip":"5270051"},{"town":"林町","koaza":"","lat":35.18135,"lng":136.161001,"zip":"5211224"},{"town":"東今崎町","koaza":"","lat":35.09967,"lng":136.197637,"zip":"5270037"},{"town":"東沖野一丁目","koaza":"","lat":35.104582,"lng":136.210846,"zip":"5270033"},{"town":"東沖野二丁目","koaza":"","lat":35.103323,"lng":136.208873,"zip":"5270033"},{"town":"東沖野三丁目","koaza":"","lat":35.100606,"lng":136.212787,"zip":"5270033"},{"town":"東沖野四丁目","koaza":"","lat":35.100143,"lng":136.218256,"zip":"5270033"},{"town":"東沖野五丁目","koaza":"","lat":35.096714,"lng":136.216552,"zip":"5270033"},{"town":"東中野町","koaza":"","lat":35.105836,"lng":136.195287,"zip":"5270013"},{"town":"ひばり丘町","koaza":"","lat":35.104106,"lng":136.201663,"zip":"5270035"},{"town":"百済寺甲町","koaza":"","lat":35.125569,"lng":136.329891,"zip":"5270141"},{"town":"百済寺町","koaza":"","lat":35.130686,"lng":136.288686,"zip":"5270144"},{"town":"百済寺本町","koaza":"","lat":35.123511,"lng":136.274942,"zip":"5270143"},{"town":"平尾町","koaza":"","lat":35.103666,"lng":136.294881,"zip":"5270153"},{"town":"平田町","koaza":"","lat":35.108425,"lng":136.145768,"zip":"5270087"},{"town":"平林町","koaza":"","lat":35.065113,"lng":136.219539,"zip":"5291502"},{"town":"平松町","koaza":"","lat":35.143133,"lng":136.250253,"zip":"5270134"},{"town":"平柳町","koaza":"","lat":35.146146,"lng":136.290242,"zip":"5270102"},{"town":"蛭谷町","koaza":"","lat":35.130278,"lng":136.38943,"zip":"5270201"},{"town":"福堂町","koaza":"","lat":35.203262,"lng":136.133526,"zip":"5211242"},{"town":"布施町","koaza":"","lat":35.086299,"lng":136.176815,"zip":"5270081"},{"town":"札の辻一丁目","koaza":"","lat":35.105515,"lng":136.212083,"zip":"5270024"},{"town":"札の辻二丁目","koaza":"","lat":35.102429,"lng":136.217549,"zip":"5270024"},{"town":"蛇溝町","koaza":"","lat":35.079133,"lng":136.188525,"zip":"5270073"},{"town":"政所町","koaza":"","lat":35.113535,"lng":136.394354,"zip":"5270204"},{"town":"御園町","koaza":"","lat":35.088202,"lng":136.244892,"zip":"5270056"},{"town":"三津屋町","koaza":"","lat":35.098626,"lng":136.161819,"zip":"5270075"},{"town":"南清水町","koaza":"","lat":35.143085,"lng":136.212424,"zip":"5270127"},{"town":"南須田町","koaza":"","lat":35.157579,"lng":136.151027,"zip":"5211233"},{"town":"南花沢町","koaza":"","lat":35.12429,"lng":136.255865,"zip":"5270112"},{"town":"南菩提寺町","koaza":"","lat":35.139736,"lng":136.241159,"zip":"5270136"},{"town":"箕川町","koaza":"","lat":35.125137,"lng":136.362334,"zip":"5270203"},{"town":"宮井町","koaza":"","lat":35.056858,"lng":136.160563,"zip":"5291564"},{"town":"宮川町","koaza":"","lat":35.040899,"lng":136.15776,"zip":"5291551"},{"town":"宮荘町","koaza":"","lat":35.160371,"lng":136.185982,"zip":"5291404"},{"town":"妙法寺町","koaza":"","lat":35.102369,"lng":136.225168,"zip":"5270046"},{"town":"山上町","koaza":"","lat":35.076762,"lng":136.294705,"zip":"5270231"},{"town":"山路町","koaza":"","lat":35.185664,"lng":136.152762,"zip":"5211225"},{"town":"杠葉尾町","koaza":"","lat":35.07374,"lng":136.41048,"zip":"5270206"},{"town":"湯屋町","koaza":"","lat":35.140644,"lng":136.265705,"zip":"5270103"},{"town":"八日市金屋一丁目","koaza":"","lat":35.11071,"lng":136.196315,"zip":"5270028"},{"town":"八日市金屋二丁目","koaza":"","lat":35.110433,"lng":136.198734,"zip":"5270028"},{"town":"八日市金屋三丁目","koaza":"","lat":35.110237,"lng":136.201212,"zip":"5270028"},{"town":"八日市上之町","koaza":"","lat":35.113255,"lng":136.203654,"zip":"5270022"},{"town":"八日市清水一丁目","koaza":"","lat":35.111162,"lng":136.194401,"zip":"5270018"},{"town":"八日市清水二丁目","koaza":"","lat":35.112371,"lng":136.190645,"zip":"5270018"},{"town":"八日市清水三丁目","koaza":"","lat":35.109583,"lng":136.190798,"zip":"5270018"},{"town":"八日市町","koaza":"","lat":35.112916,"lng":136.200421,"zip":"5270029"},{"town":"八日市野々宮町","koaza":"","lat":35.108654,"lng":136.199405,"zip":"5270026"},{"town":"八日市浜野町","koaza":"","lat":35.116018,"lng":136.196613,"zip":"5270011"},{"town":"八日市東浜町","koaza":"","lat":35.115776,"lng":136.200015,"zip":"5270021"},{"town":"八日市東本町","koaza":"","lat":35.108782,"lng":136.2053,"zip":"5270025"},{"town":"八日市本町","koaza":"","lat":35.113028,"lng":136.195949,"zip":"5270012"},{"town":"八日市松尾町","koaza":"","lat":35.11481,"lng":136.192449,"zip":"5270019"},{"town":"八日市緑町","koaza":"","lat":35.112553,"lng":136.208075,"zip":"5270023"},{"town":"横溝町","koaza":"","lat":35.133594,"lng":136.245383,"zip":"5270135"},{"town":"横山町","koaza":"","lat":35.067029,"lng":136.156955,"zip":"5291563"},{"town":"読合堂町","koaza":"","lat":35.128298,"lng":136.270033,"zip":"5270104"},{"town":"和南町","koaza":"","lat":35.057747,"lng":136.318906,"zip":"5270213"},{"town":"芝原町","koaza":"芦田","lat":35.090971,"lng":136.194535,"zip":"5270067"},{"town":"横溝町","koaza":"出口野","lat":35.131527,"lng":136.244976,"zip":"5270135"},{"town":"寺町","koaza":"栗林","lat":35.088161,"lng":136.253214,"zip":"5270052"}]