[{"town":"荒張","koaza":"","lat":34.967197,"lng":136.026113,"zip":"5203003"},{"town":"安養寺","koaza":"","lat":35.014444,"lng":136.002067,"zip":"5203015"},{"town":"安養寺一丁目","koaza":"","lat":35.02225,"lng":135.999011,"zip":"5203015"},{"town":"安養寺二丁目","koaza":"","lat":35.021223,"lng":136.000859,"zip":"5203015"},{"town":"安養寺三丁目","koaza":"","lat":35.020095,"lng":136.003648,"zip":"5203015"},{"town":"安養寺四丁目","koaza":"","lat":35.01828,"lng":136.001198,"zip":"5203015"},{"town":"安養寺五丁目","koaza":"","lat":35.018193,"lng":135.997723,"zip":"5203015"},{"town":"安養寺六丁目","koaza":"","lat":35.019921,"lng":135.996578,"zip":"5203015"},{"town":"安養寺七丁目","koaza":"","lat":35.021109,"lng":135.99519,"zip":"5203015"},{"town":"安養寺八丁目","koaza":"","lat":35.023073,"lng":135.996716,"zip":"5203015"},{"town":"伊勢落","koaza":"","lat":35.02558,"lng":136.032942,"zip":"5203044"},{"town":"井上","koaza":"","lat":34.982069,"lng":136.035318,"zip":"5203006"},{"town":"大橋一丁目","koaza":"","lat":35.031111,"lng":136.002702,"zip":"5203046"},{"town":"大橋二丁目","koaza":"","lat":35.032447,"lng":136.001138,"zip":"5203046"},{"town":"大橋三丁目","koaza":"","lat":35.034876,"lng":136.003477,"zip":"5203046"},{"town":"大橋四丁目","koaza":"","lat":35.033167,"lng":136.005161,"zip":"5203046"},{"town":"大橋五丁目","koaza":"","lat":35.032157,"lng":136.00841,"zip":"5203046"},{"town":"大橋六丁目","koaza":"","lat":35.030837,"lng":136.005461,"zip":"5203046"},{"town":"大橋七丁目","koaza":"","lat":35.028689,"lng":136.006408,"zip":"5203046"},{"town":"岡","koaza":"","lat":35.013092,"lng":135.978355,"zip":"5203012"},{"town":"小柿十丁目","koaza":"","lat":35.016359,"lng":135.972498,"zip":"5203024"},{"town":"小柿一丁目","koaza":"","lat":35.025835,"lng":135.976704,"zip":"5203024"},{"town":"小柿二丁目","koaza":"","lat":35.024299,"lng":135.978942,"zip":"5203024"},{"town":"小柿三丁目","koaza":"","lat":35.022023,"lng":135.977904,"zip":"5203024"},{"town":"小柿四丁目","koaza":"","lat":35.023299,"lng":135.975265,"zip":"5203024"},{"town":"小柿五丁目","koaza":"","lat":35.024363,"lng":135.972617,"zip":"5203024"},{"town":"小柿六丁目","koaza":"","lat":35.022355,"lng":135.970267,"zip":"5203024"},{"town":"小柿七丁目","koaza":"","lat":35.021314,"lng":135.972871,"zip":"5203024"},{"town":"小柿八丁目","koaza":"","lat":35.019802,"lng":135.972098,"zip":"5203024"},{"town":"小柿九丁目","koaza":"","lat":35.019297,"lng":135.974937,"zip":"5203024"},{"town":"小野","koaza":"","lat":35.018767,"lng":136.01389,"zip":"5203016"},{"town":"笠川","koaza":"","lat":35.033265,"lng":135.972118,"zip":"5203033"},{"town":"上砥山","koaza":"","lat":35.005467,"lng":136.011785,"zip":"5203004"},{"town":"上鈎","koaza":"","lat":35.025156,"lng":135.991656,"zip":"5203022"},{"town":"苅原","koaza":"","lat":35.032918,"lng":135.976628,"zip":"5203032"},{"town":"川辺","koaza":"","lat":35.017384,"lng":135.991124,"zip":"5203014"},{"town":"観音寺","koaza":"","lat":34.963945,"lng":136.050769,"zip":"5203002"},{"town":"北中小路","koaza":"","lat":35.043514,"lng":135.972051,"zip":"5203037"},{"town":"小平井一丁目","koaza":"","lat":35.036621,"lng":135.968443,"zip":"5203034"},{"town":"小平井二丁目","koaza":"","lat":35.034715,"lng":135.968113,"zip":"5203034"},{"town":"小平井三丁目","koaza":"","lat":35.037244,"lng":135.963497,"zip":"5203034"},{"town":"小平井四丁目","koaza":"","lat":35.038447,"lng":135.965551,"zip":"5203034"},{"town":"下戸山","koaza":"","lat":35.003768,"lng":135.99873,"zip":"5203011"},{"town":"下鈎","koaza":"","lat":35.028205,"lng":135.983623,"zip":"5203026"},{"town":"十里","koaza":"","lat":35.046709,"lng":135.963501,"zip":"5203036"},{"town":"高野","koaza":"","lat":35.032755,"lng":136.014554,"zip":"5203045"},{"town":"辻","koaza":"","lat":35.039233,"lng":136.016074,"zip":"5203042"},{"town":"出庭","koaza":"","lat":35.042712,"lng":136.006846,"zip":"5203041"},{"town":"手原一丁目","koaza":"","lat":35.025987,"lng":136.003351,"zip":"5203047"},{"town":"手原二丁目","koaza":"","lat":35.023564,"lng":136.001767,"zip":"5203047"},{"town":"手原三丁目","koaza":"","lat":35.026077,"lng":136.000472,"zip":"5203047"},{"town":"手原四丁目","koaza":"","lat":35.026136,"lng":135.998262,"zip":"5203047"},{"town":"手原五丁目","koaza":"","lat":35.026046,"lng":135.996147,"zip":"5203047"},{"town":"手原六丁目","koaza":"","lat":35.029242,"lng":135.998502,"zip":"5203047"},{"town":"手原七丁目","koaza":"","lat":35.028717,"lng":136.000797,"zip":"5203047"},{"town":"手原八丁目","koaza":"","lat":35.028301,"lng":136.003607,"zip":"5203047"},{"town":"中沢一丁目","koaza":"","lat":35.027528,"lng":135.975785,"zip":"5203025"},{"town":"中沢二丁目","koaza":"","lat":35.025838,"lng":135.970327,"zip":"5203025"},{"town":"中沢三丁目","koaza":"","lat":35.029131,"lng":135.973644,"zip":"5203025"},{"town":"野尻","koaza":"","lat":35.03538,"lng":135.988355,"zip":"5203027"},{"town":"蜂屋","koaza":"","lat":35.033107,"lng":135.996035,"zip":"5203021"},{"town":"林","koaza":"","lat":35.033737,"lng":136.023731,"zip":"5203043"},{"town":"東坂","koaza":"","lat":34.989276,"lng":136.038473,"zip":"5203001"},{"town":"綣十丁目","koaza":"","lat":35.044544,"lng":135.97672,"zip":"5203031"},{"town":"綣一丁目","koaza":"","lat":35.038091,"lng":135.984054,"zip":"5203031"},{"town":"綣二丁目","koaza":"","lat":35.036577,"lng":135.982743,"zip":"5203031"},{"town":"綣三丁目","koaza":"","lat":35.035228,"lng":135.980963,"zip":"5203031"},{"town":"綣四丁目","koaza":"","lat":35.035306,"lng":135.974091,"zip":"5203031"},{"town":"綣五丁目","koaza":"","lat":35.037806,"lng":135.975612,"zip":"5203031"},{"town":"綣六丁目","koaza":"","lat":35.03669,"lng":135.977426,"zip":"5203031"},{"town":"綣七丁目","koaza":"","lat":35.039289,"lng":135.98004,"zip":"5203031"},{"town":"綣八丁目","koaza":"","lat":35.04052,"lng":135.977574,"zip":"5203031"},{"town":"綣九丁目","koaza":"","lat":35.042878,"lng":135.97972,"zip":"5203031"},{"town":"坊袋","koaza":"","lat":35.020405,"lng":135.983398,"zip":"5203023"},{"town":"御園","koaza":"","lat":34.99849,"lng":136.023851,"zip":"5203005"},{"town":"目川","koaza":"","lat":35.015969,"lng":135.982362,"zip":"5203013"},{"town":"霊仙寺一丁目","koaza":"","lat":35.038681,"lng":135.973224,"zip":"5203035"},{"town":"霊仙寺二丁目","koaza":"","lat":35.036561,"lng":135.971395,"zip":"5203035"},{"town":"霊仙寺三丁目","koaza":"","lat":35.03982,"lng":135.965597,"zip":"5203035"},{"town":"霊仙寺四丁目","koaza":"","lat":35.042192,"lng":135.966751,"zip":"5203035"},{"town":"霊仙寺五丁目","koaza":"","lat":35.040867,"lng":135.969262,"zip":"5203035"},{"town":"霊仙寺六丁目","koaza":"","lat":35.039772,"lng":135.971298,"zip":"5203035"},{"town":"六地蔵","koaza":"","lat":35.017542,"lng":136.031209,"zip":"5203017"}]