[{"town":"朝国","koaza":"","lat":34.990005,"lng":136.119941,"zip":"5203251"},{"town":"雨山一丁目","koaza":"","lat":35.005596,"lng":136.047226,"zip":"5203116"},{"town":"雨山二丁目","koaza":"","lat":35.004819,"lng":136.043996,"zip":"5203116"},{"town":"石部","koaza":"","lat":35.001067,"lng":136.044824,"zip":"5203101"},{"town":"石部が丘一丁目","koaza":"","lat":35.000527,"lng":136.057547,"zip":"5203109"},{"town":"石部が丘二丁目","koaza":"","lat":35.002289,"lng":136.055625,"zip":"5203109"},{"town":"石部北一丁目","koaza":"","lat":35.016066,"lng":136.05796,"zip":"5203113"},{"town":"石部北二丁目","koaza":"","lat":35.019714,"lng":136.051508,"zip":"5203113"},{"town":"石部北三丁目","koaza":"","lat":35.023339,"lng":136.043197,"zip":"5203113"},{"town":"石部北四丁目","koaza":"","lat":35.024249,"lng":136.043869,"zip":"5203113"},{"town":"石部北五丁目","koaza":"","lat":35.019714,"lng":136.056276,"zip":"5203113"},{"town":"石部口一丁目","koaza":"","lat":35.011285,"lng":136.066001,"zip":"5203114"},{"town":"石部口二丁目","koaza":"","lat":35.014752,"lng":136.065927,"zip":"5203114"},{"town":"石部口三丁目","koaza":"","lat":35.012531,"lng":136.072077,"zip":"5203114"},{"town":"石部口四丁目","koaza":"","lat":35.009386,"lng":136.069918,"zip":"5203114"},{"town":"石部中央一丁目","koaza":"","lat":35.009762,"lng":136.058983,"zip":"5203106"},{"town":"石部中央二丁目","koaza":"","lat":35.006356,"lng":136.056709,"zip":"5203106"},{"town":"石部中央三丁目","koaza":"","lat":35.008201,"lng":136.055004,"zip":"5203106"},{"town":"石部中央四丁目","koaza":"","lat":35.010946,"lng":136.056384,"zip":"5203106"},{"town":"石部中央五丁目","koaza":"","lat":35.013521,"lng":136.058066,"zip":"5203106"},{"town":"石部中央六丁目","koaza":"","lat":35.011666,"lng":136.060637,"zip":"5203106"},{"town":"石部西一丁目","koaza":"","lat":35.010438,"lng":136.052196,"zip":"5203105"},{"town":"石部西二丁目","koaza":"","lat":35.0139,"lng":136.051929,"zip":"5203105"},{"town":"石部西三丁目","koaza":"","lat":35.017181,"lng":136.052932,"zip":"5203105"},{"town":"石部東一丁目","koaza":"","lat":35.007741,"lng":136.061067,"zip":"5203107"},{"town":"石部東二丁目","koaza":"","lat":35.010224,"lng":136.063009,"zip":"5203107"},{"town":"石部東三丁目","koaza":"","lat":35.007334,"lng":136.066073,"zip":"5203107"},{"town":"石部東四丁目","koaza":"","lat":35.006695,"lng":136.068236,"zip":"5203107"},{"town":"石部東五丁目","koaza":"","lat":35.003341,"lng":136.0643,"zip":"5203107"},{"town":"石部東六丁目","koaza":"","lat":35.006675,"lng":136.064518,"zip":"5203107"},{"town":"石部東七丁目","koaza":"","lat":35.005056,"lng":136.063501,"zip":"5203107"},{"town":"石部東八丁目","koaza":"","lat":35.005253,"lng":136.059298,"zip":"5203107"},{"town":"石部緑台一丁目","koaza":"","lat":35.01158,"lng":136.042815,"zip":"5203115"},{"town":"石部緑台二丁目","koaza":"","lat":35.01986,"lng":136.043085,"zip":"5203115"},{"town":"石部南一丁目","koaza":"","lat":35.000017,"lng":136.06178,"zip":"5203108"},{"town":"石部南二丁目","koaza":"","lat":34.997276,"lng":136.062911,"zip":"5203108"},{"town":"石部南三丁目","koaza":"","lat":34.994093,"lng":136.061858,"zip":"5203108"},{"town":"石部南四丁目","koaza":"","lat":34.996264,"lng":136.061331,"zip":"5203108"},{"town":"石部南五丁目","koaza":"","lat":34.993786,"lng":136.059852,"zip":"5203108"},{"town":"石部南六丁目","koaza":"","lat":34.995758,"lng":136.057781,"zip":"5203108"},{"town":"石部南七丁目","koaza":"","lat":34.997471,"lng":136.060471,"zip":"5203108"},{"town":"石部南八丁目","koaza":"","lat":34.997584,"lng":136.058312,"zip":"5203108"},{"town":"岩根中央一丁目","koaza":"","lat":35.000334,"lng":136.119721,"zip":"5203254"},{"town":"岩根中央二丁目","koaza":"","lat":35.001946,"lng":136.11767,"zip":"5203254"},{"town":"岩根中央三丁目","koaza":"","lat":35.002486,"lng":136.118967,"zip":"5203254"},{"town":"梅影町","koaza":"","lat":35.009491,"lng":136.124103,"zip":"5203214"},{"town":"近江台一丁目","koaza":"","lat":35.036693,"lng":136.075832,"zip":"5203245"},{"town":"近江台二丁目","koaza":"","lat":35.037879,"lng":136.074183,"zip":"5203245"},{"town":"大池町","koaza":"","lat":35.00278,"lng":136.125453,"zip":"5203213"},{"town":"岡出一丁目","koaza":"","lat":35.006322,"lng":136.052768,"zip":"5203104"},{"town":"岡出二丁目","koaza":"","lat":35.00814,"lng":136.052275,"zip":"5203104"},{"town":"北山台一丁目","koaza":"","lat":35.025739,"lng":136.071255,"zip":"5203241"},{"town":"北山台二丁目","koaza":"","lat":35.028749,"lng":136.070239,"zip":"5203241"},{"town":"北山台三丁目","koaza":"","lat":35.02792,"lng":136.068154,"zip":"5203241"},{"town":"北山台四丁目","koaza":"","lat":35.030406,"lng":136.066768,"zip":"5203241"},{"town":"柑子袋","koaza":"","lat":35.001392,"lng":136.070536,"zip":"5203233"},{"town":"小砂町","koaza":"","lat":35.007479,"lng":136.128313,"zip":"5203212"},{"town":"サイドタウン一丁目","koaza":"","lat":35.043699,"lng":136.065641,"zip":"5203244"},{"town":"サイドタウン二丁目","koaza":"","lat":35.045909,"lng":136.064741,"zip":"5203244"},{"town":"サイドタウン三丁目","koaza":"","lat":35.045968,"lng":136.062789,"zip":"5203244"},{"town":"サイドタウン四丁目","koaza":"","lat":35.045209,"lng":136.05994,"zip":"5203244"},{"town":"下田","koaza":"","lat":35.02721,"lng":136.129821,"zip":"5203201"},{"town":"正福寺","koaza":"","lat":35.022074,"lng":136.086971,"zip":"5203253"},{"town":"高松町","koaza":"","lat":35.014161,"lng":136.131885,"zip":"5203211"},{"town":"中央一丁目","koaza":"","lat":35.003233,"lng":136.085264,"zip":"5203234"},{"town":"中央二丁目","koaza":"","lat":35.005023,"lng":136.081842,"zip":"5203234"},{"town":"中央三丁目","koaza":"","lat":35.007347,"lng":136.080097,"zip":"5203234"},{"town":"中央四丁目","koaza":"","lat":35.006844,"lng":136.082831,"zip":"5203234"},{"town":"中央五丁目","koaza":"","lat":35.005212,"lng":136.085877,"zip":"5203234"},{"town":"夏見","koaza":"","lat":34.990887,"lng":136.094899,"zip":"5203223"},{"town":"西寺","koaza":"","lat":34.980351,"lng":136.053435,"zip":"5203121"},{"town":"西寺一丁目","koaza":"","lat":34.992158,"lng":136.058484,"zip":"5203121"},{"town":"西寺二丁目","koaza":"","lat":34.989127,"lng":136.055372,"zip":"5203121"},{"town":"西寺三丁目","koaza":"","lat":34.991907,"lng":136.05495,"zip":"5203121"},{"town":"西寺四丁目","koaza":"","lat":34.994119,"lng":136.053535,"zip":"5203121"},{"town":"西寺五丁目","koaza":"","lat":34.992299,"lng":136.051637,"zip":"5203121"},{"town":"西寺六丁目","koaza":"","lat":34.988112,"lng":136.051525,"zip":"5203121"},{"town":"西寺七丁目","koaza":"","lat":34.984786,"lng":136.05707,"zip":"5203121"},{"town":"西峰町","koaza":"","lat":35.016192,"lng":136.127259,"zip":"5203202"},{"town":"針","koaza":"","lat":34.98635,"lng":136.079677,"zip":"5203231"},{"town":"日枝町","koaza":"","lat":35.023404,"lng":136.125314,"zip":"5203203"},{"town":"東寺","koaza":"","lat":34.979273,"lng":136.062861,"zip":"5203111"},{"town":"東寺一丁目","koaza":"","lat":34.996392,"lng":136.064168,"zip":"5203111"},{"town":"東寺二丁目","koaza":"","lat":34.988757,"lng":136.065432,"zip":"5203111"},{"town":"東寺三丁目","koaza":"","lat":34.99065,"lng":136.063063,"zip":"5203111"},{"town":"東寺四丁目","koaza":"","lat":34.989853,"lng":136.060562,"zip":"5203111"},{"town":"東寺五丁目","koaza":"","lat":34.983542,"lng":136.059212,"zip":"5203111"},{"town":"平松","koaza":"","lat":34.985311,"lng":136.072144,"zip":"5203232"},{"town":"平松北一丁目","koaza":"","lat":35.002227,"lng":136.082487,"zip":"5203235"},{"town":"平松北二丁目","koaza":"","lat":35.002853,"lng":136.081276,"zip":"5203235"},{"town":"平松北三丁目","koaza":"","lat":35.003641,"lng":136.079815,"zip":"5203235"},{"town":"宝来坂一丁目","koaza":"","lat":35.002385,"lng":136.052857,"zip":"5203103"},{"town":"宝来坂二丁目","koaza":"","lat":35.003691,"lng":136.052413,"zip":"5203103"},{"town":"宝来坂三丁目","koaza":"","lat":35.005441,"lng":136.050827,"zip":"5203103"},{"town":"宝来坂四丁目","koaza":"","lat":35.002353,"lng":136.049079,"zip":"5203103"},{"town":"菩提寺","koaza":"","lat":35.039377,"lng":136.078072,"zip":"5203242"},{"town":"菩提寺北一丁目","koaza":"","lat":35.039924,"lng":136.069999,"zip":"5203246"},{"town":"菩提寺北二丁目","koaza":"","lat":35.040477,"lng":136.067688,"zip":"5203246"},{"town":"菩提寺北三丁目","koaza":"","lat":35.040203,"lng":136.064977,"zip":"5203246"},{"town":"菩提寺北四丁目","koaza":"","lat":35.041832,"lng":136.063561,"zip":"5203246"},{"town":"菩提寺北五丁目","koaza":"","lat":35.041193,"lng":136.06026,"zip":"5203246"},{"town":"菩提寺北六丁目","koaza":"","lat":35.038478,"lng":136.066137,"zip":"5203246"},{"town":"菩提寺西一丁目","koaza":"","lat":35.032261,"lng":136.062417,"zip":"5203248"},{"town":"菩提寺西二丁目","koaza":"","lat":35.032507,"lng":136.061139,"zip":"5203248"},{"town":"菩提寺西三丁目","koaza":"","lat":35.037326,"lng":136.061322,"zip":"5203248"},{"town":"菩提寺西四丁目","koaza":"","lat":35.03678,"lng":136.059363,"zip":"5203248"},{"town":"菩提寺西五丁目","koaza":"","lat":35.039442,"lng":136.058484,"zip":"5203248"},{"town":"菩提寺西六丁目","koaza":"","lat":35.038391,"lng":136.056857,"zip":"5203248"},{"town":"菩提寺西七丁目","koaza":"","lat":35.037258,"lng":136.055662,"zip":"5203248"},{"town":"菩提寺東一丁目","koaza":"","lat":35.030596,"lng":136.063961,"zip":"5203247"},{"town":"菩提寺東二丁目","koaza":"","lat":35.033293,"lng":136.063256,"zip":"5203247"},{"town":"菩提寺東三丁目","koaza":"","lat":35.03755,"lng":136.062745,"zip":"5203247"},{"town":"菩提寺東四丁目","koaza":"","lat":35.036683,"lng":136.064055,"zip":"5203247"},{"town":"丸山一丁目","koaza":"","lat":34.998186,"lng":136.053053,"zip":"5203112"},{"town":"丸山二丁目","koaza":"","lat":34.995774,"lng":136.051001,"zip":"5203112"},{"town":"丸山三丁目","koaza":"","lat":34.994445,"lng":136.048492,"zip":"5203112"},{"town":"丸山四丁目","koaza":"","lat":34.997711,"lng":136.047503,"zip":"5203112"},{"town":"三雲","koaza":"","lat":34.968178,"lng":136.106283,"zip":"5203221"},{"town":"水戸町","koaza":"","lat":35.008893,"lng":136.120985,"zip":"5203215"},{"town":"宮の森一丁目","koaza":"","lat":35.003057,"lng":136.062036,"zip":"5203102"},{"town":"宮の森二丁目","koaza":"","lat":35.001783,"lng":136.06298,"zip":"5203102"},{"town":"吉永","koaza":"","lat":34.984936,"lng":136.101888,"zip":"5203222"},{"town":"若竹町","koaza":"","lat":35.017009,"lng":136.12401,"zip":"5203216"},{"town":"日枝山手台一丁目","koaza":"","lat":35.017535,"lng":136.117994,"zip":"5203255"},{"town":"岩根","koaza":"","lat":35.009347,"lng":136.103198,"zip":"5203252"},{"town":"柑子袋西一丁目","koaza":"","lat":35.000036,"lng":136.066531,"zip":"5203237"},{"town":"柑子袋西三丁目","koaza":"","lat":35.002773,"lng":136.065821,"zip":"5203237"},{"town":"柑子袋西四丁目","koaza":"","lat":35.000001,"lng":136.064406,"zip":"5203237"},{"town":"柑子袋西二丁目","koaza":"","lat":35.000946,"lng":136.065992,"zip":"5203237"},{"town":"岩根","koaza":"山の神","lat":35.004707,"lng":136.120359,"zip":"5203252"}]