[{"town":"大字雨降野","koaza":"","lat":35.192316,"lng":136.250015,"zip":"5291100"},{"town":"大字安食西","koaza":"","lat":35.212239,"lng":136.22892,"zip":"5291100"},{"town":"大字安食南","koaza":"","lat":35.204951,"lng":136.225404,"zip":"5291100"},{"town":"大字石畑","koaza":"","lat":35.199792,"lng":136.233463,"zip":"5291100"},{"town":"大字大町","koaza":"","lat":35.202088,"lng":136.219229,"zip":"5291100"},{"town":"大字上枝","koaza":"","lat":35.194244,"lng":136.226985,"zip":"5291100"},{"town":"大字沢","koaza":"","lat":35.194718,"lng":136.218881,"zip":"5291100"},{"town":"大字四十九院","koaza":"","lat":35.208004,"lng":136.238778,"zip":"5291100"},{"town":"大字下枝","koaza":"","lat":35.191557,"lng":136.221647,"zip":"5291100"},{"town":"大字杉","koaza":"","lat":35.195385,"lng":136.22797,"zip":"5291100"},{"town":"大字高野瀬","koaza":"","lat":35.200589,"lng":136.22496,"zip":"5291100"},{"town":"大字八目","koaza":"","lat":35.198181,"lng":136.22966,"zip":"5291100"},{"town":"大字八町","koaza":"","lat":35.196916,"lng":136.239663,"zip":"5291100"},{"town":"大字日栄","koaza":"","lat":35.192389,"lng":136.228769,"zip":"5291100"},{"town":"大字三ツ池","koaza":"","lat":35.202908,"lng":136.227975,"zip":"5291100"},{"town":"大字吉田","koaza":"","lat":35.184848,"lng":136.228996,"zip":"5291100"}]