[{"town":"甲賀町油日","koaza":"","lat":34.878963,"lng":136.25822,"zip":"5203413"},{"town":"甲賀町櫟野","koaza":"","lat":34.88694,"lng":136.282792,"zip":"5203412"},{"town":"甲賀町岩室","koaza":"","lat":34.930241,"lng":136.251533,"zip":"5203401"},{"town":"甲賀町上野","koaza":"","lat":34.892548,"lng":136.232707,"zip":"5203421"},{"town":"甲賀町大久保","koaza":"","lat":34.904681,"lng":136.234688,"zip":"5203414"},{"town":"甲賀町大原市場","koaza":"","lat":34.903327,"lng":136.210445,"zip":"5203433"},{"town":"甲賀町大原上田","koaza":"","lat":34.914938,"lng":136.258332,"zip":"5203415"},{"town":"甲賀町大原中","koaza":"","lat":34.912212,"lng":136.232133,"zip":"5203431"},{"town":"甲賀町隠岐","koaza":"","lat":34.927036,"lng":136.197079,"zip":"5203405"},{"town":"甲賀町鹿深台","koaza":"","lat":34.896381,"lng":136.233892,"zip":"5203427"},{"town":"甲賀町神","koaza":"","lat":34.89614,"lng":136.299218,"zip":"5203411"},{"town":"甲賀町小佐治","koaza":"","lat":34.932887,"lng":136.225122,"zip":"5203402"},{"town":"甲賀町五反田","koaza":"","lat":34.866162,"lng":136.240578,"zip":"5203423"},{"town":"甲賀町相模","koaza":"","lat":34.908137,"lng":136.216969,"zip":"5203435"},{"town":"甲賀町神保","koaza":"","lat":34.927137,"lng":136.214539,"zip":"5203404"},{"town":"甲賀町高野","koaza":"","lat":34.91004,"lng":136.204604,"zip":"5203434"},{"town":"甲賀町高嶺","koaza":"","lat":34.868097,"lng":136.223996,"zip":"5203424"},{"town":"甲賀町滝","koaza":"","lat":34.891894,"lng":136.207368,"zip":"5203432"},{"town":"甲賀町田堵野","koaza":"","lat":34.895163,"lng":136.225025,"zip":"5203426"},{"town":"甲賀町鳥居野","koaza":"","lat":34.913868,"lng":136.223744,"zip":"5203403"},{"town":"甲賀町拝坂","koaza":"","lat":34.902439,"lng":136.224836,"zip":"5203436"},{"town":"甲賀町毛枚","koaza":"","lat":34.884769,"lng":136.216114,"zip":"5203425"},{"town":"甲賀町和田","koaza":"","lat":34.880458,"lng":136.227596,"zip":"5203422"},{"town":"甲南町池田","koaza":"","lat":34.903424,"lng":136.190268,"zip":"5203302"},{"town":"甲南町磯尾","koaza":"","lat":34.893366,"lng":136.150516,"zip":"5203312"},{"town":"甲南町市原","koaza":"","lat":34.933829,"lng":136.156283,"zip":"5203316"},{"town":"甲南町葛木","koaza":"","lat":34.929197,"lng":136.179638,"zip":"5203321"},{"town":"甲南町上馬杉","koaza":"","lat":34.872344,"lng":136.208185,"zip":"5203303"},{"town":"甲南町希望ケ丘一丁目","koaza":"","lat":34.950145,"lng":136.17767,"zip":"5203333"},{"town":"甲南町希望ケ丘二丁目","koaza":"","lat":34.952418,"lng":136.175117,"zip":"5203333"},{"town":"甲南町希望ケ丘三丁目","koaza":"","lat":34.948835,"lng":136.173359,"zip":"5203333"},{"town":"甲南町希望ケ丘四丁目","koaza":"","lat":34.944045,"lng":136.174042,"zip":"5203333"},{"town":"甲南町希望ケ丘五丁目","koaza":"","lat":34.938683,"lng":136.171209,"zip":"5203333"},{"town":"甲南町希望ケ丘本町十丁目","koaza":"","lat":34.938101,"lng":136.178513,"zip":"5203332"},{"town":"甲南町希望ケ丘本町一丁目","koaza":"","lat":34.947596,"lng":136.17834,"zip":"5203332"},{"town":"甲南町希望ケ丘本町二丁目","koaza":"","lat":34.946712,"lng":136.176519,"zip":"5203332"},{"town":"甲南町希望ケ丘本町三丁目","koaza":"","lat":34.946579,"lng":136.175143,"zip":"5203332"},{"town":"甲南町希望ケ丘本町四丁目","koaza":"","lat":34.943667,"lng":136.177848,"zip":"5203332"},{"town":"甲南町希望ケ丘本町五丁目","koaza":"","lat":34.943728,"lng":136.1767,"zip":"5203332"},{"town":"甲南町希望ケ丘本町六丁目","koaza":"","lat":34.943592,"lng":136.175465,"zip":"5203332"},{"town":"甲南町希望ケ丘本町七丁目","koaza":"","lat":34.940651,"lng":136.177127,"zip":"5203332"},{"town":"甲南町希望ケ丘本町八丁目","koaza":"","lat":34.940871,"lng":136.17576,"zip":"5203332"},{"town":"甲南町希望ケ丘本町九丁目","koaza":"","lat":34.939472,"lng":136.174337,"zip":"5203332"},{"town":"甲南町柑子","koaza":"","lat":34.897842,"lng":136.175035,"zip":"5203306"},{"town":"甲南町耕心一丁目","koaza":"","lat":34.942223,"lng":136.162653,"zip":"5203326"},{"town":"甲南町耕心二丁目","koaza":"","lat":34.942763,"lng":136.163496,"zip":"5203326"},{"town":"甲南町耕心三丁目","koaza":"","lat":34.943482,"lng":136.164524,"zip":"5203326"},{"town":"甲南町耕心四丁目","koaza":"","lat":34.944373,"lng":136.165829,"zip":"5203326"},{"town":"甲南町塩野","koaza":"","lat":34.922586,"lng":136.130704,"zip":"5203315"},{"town":"甲南町下馬杉","koaza":"","lat":34.879915,"lng":136.196452,"zip":"5203304"},{"town":"甲南町新治","koaza":"","lat":34.915734,"lng":136.160061,"zip":"5203313"},{"town":"甲南町杉谷","koaza":"","lat":34.908198,"lng":136.12876,"zip":"5203314"},{"town":"甲南町寺庄","koaza":"","lat":34.919908,"lng":136.189503,"zip":"5203301"},{"town":"甲南町野川","koaza":"","lat":34.887773,"lng":136.184074,"zip":"5203305"},{"town":"甲南町野尻","koaza":"","lat":34.914781,"lng":136.178189,"zip":"5203307"},{"town":"甲南町野田","koaza":"","lat":34.923695,"lng":136.168039,"zip":"5203308"},{"town":"甲南町稗谷","koaza":"","lat":34.945522,"lng":136.18465,"zip":"5203331"},{"town":"甲南町深川","koaza":"","lat":34.938681,"lng":136.167053,"zip":"5203322"},{"town":"甲南町深川市場","koaza":"","lat":34.931139,"lng":136.162234,"zip":"5203323"},{"town":"甲南町宝木","koaza":"","lat":34.943836,"lng":136.158799,"zip":"5203325"},{"town":"甲南町森尻","koaza":"","lat":34.93988,"lng":136.160075,"zip":"5203324"},{"town":"甲南町竜法師","koaza":"","lat":34.909512,"lng":136.169562,"zip":"5203311"},{"town":"信楽町江田","koaza":"","lat":34.864289,"lng":136.048481,"zip":"5291811"},{"town":"信楽町小川","koaza":"","lat":34.844249,"lng":136.03332,"zip":"5291833"},{"town":"信楽町小川出","koaza":"","lat":34.856717,"lng":136.041062,"zip":"5291832"},{"town":"信楽町上朝宮","koaza":"","lat":34.856749,"lng":135.992243,"zip":"5291841"},{"town":"信楽町黄瀬","koaza":"","lat":34.933098,"lng":136.057236,"zip":"5291802"},{"town":"信楽町神山","koaza":"","lat":34.857247,"lng":136.083435,"zip":"5291812"},{"town":"信楽町下朝宮","koaza":"","lat":34.869586,"lng":135.98231,"zip":"5291842"},{"town":"信楽町杉山","koaza":"","lat":34.839853,"lng":136.015427,"zip":"5291834"},{"town":"信楽町田代","koaza":"","lat":34.906811,"lng":136.013631,"zip":"5291814"},{"town":"信楽町多羅尾","koaza":"","lat":34.817133,"lng":136.060933,"zip":"5291821"},{"town":"信楽町勅旨","koaza":"","lat":34.891642,"lng":136.0751,"zip":"5291804"},{"town":"信楽町中野","koaza":"","lat":34.862635,"lng":136.017269,"zip":"5291835"},{"town":"信楽町長野","koaza":"","lat":34.881008,"lng":136.047179,"zip":"5291851"},{"town":"信楽町西","koaza":"","lat":34.872309,"lng":136.041767,"zip":"5291831"},{"town":"信楽町畑","koaza":"","lat":34.884753,"lng":136.010994,"zip":"5291813"},{"town":"信楽町柞原","koaza":"","lat":34.864537,"lng":136.030499,"zip":"5291836"},{"town":"信楽町牧","koaza":"","lat":34.911238,"lng":136.086969,"zip":"5291803"},{"town":"信楽町宮尻","koaza":"","lat":34.872976,"lng":135.960865,"zip":"5291843"},{"town":"信楽町宮町","koaza":"","lat":34.941659,"lng":136.090668,"zip":"5291801"},{"town":"土山町山女原","koaza":"","lat":34.915579,"lng":136.354126,"zip":"5280204"},{"town":"土山町鮎河","koaza":"","lat":34.957598,"lng":136.343885,"zip":"5280202"},{"town":"土山町市場","koaza":"","lat":34.940161,"lng":136.248087,"zip":"5280233"},{"town":"土山町猪鼻","koaza":"","lat":34.920292,"lng":136.312183,"zip":"5280207"},{"town":"土山町大河原","koaza":"","lat":34.995071,"lng":136.377965,"zip":"5280201"},{"town":"土山町大澤","koaza":"","lat":34.925202,"lng":136.270594,"zip":"5280213"},{"town":"土山町青土","koaza":"","lat":34.965327,"lng":136.30362,"zip":"5280221"},{"town":"土山町大野","koaza":"","lat":34.956386,"lng":136.238872,"zip":"5280235"},{"town":"土山町北土山","koaza":"","lat":34.939641,"lng":136.293414,"zip":"5280211"},{"town":"土山町黒川","koaza":"","lat":34.932457,"lng":136.332128,"zip":"5280208"},{"town":"土山町黒滝","koaza":"","lat":34.949399,"lng":136.369506,"zip":"5280203"},{"town":"土山町瀬ノ音","koaza":"","lat":34.961129,"lng":136.28303,"zip":"5280223"},{"town":"土山町笹路","koaza":"","lat":34.906665,"lng":136.343392,"zip":"5280205"},{"town":"土山町徳原","koaza":"","lat":34.945806,"lng":136.229871,"zip":"5280234"},{"town":"土山町頓宮","koaza":"","lat":34.950461,"lng":136.265235,"zip":"5280231"},{"town":"土山町野上野","koaza":"","lat":34.951379,"lng":136.273648,"zip":"5280224"},{"town":"土山町平子","koaza":"","lat":34.951071,"lng":136.287366,"zip":"5280222"},{"town":"土山町前野","koaza":"","lat":34.937661,"lng":136.259867,"zip":"5280232"},{"town":"土山町南土山","koaza":"","lat":34.9252,"lng":136.291659,"zip":"5280212"},{"town":"土山町山中","koaza":"","lat":34.903845,"lng":136.325241,"zip":"5280206"},{"town":"水口町暁","koaza":"","lat":34.965989,"lng":136.171627,"zip":"5280012"},{"town":"水口町秋葉","koaza":"","lat":34.966956,"lng":136.184515,"zip":"5280071"},{"town":"水口町朝日が丘","koaza":"","lat":34.974183,"lng":136.178988,"zip":"5280072"},{"town":"水口町綾野","koaza":"","lat":34.974971,"lng":136.169577,"zip":"5280033"},{"town":"水口町泉","koaza":"","lat":34.98351,"lng":136.1327,"zip":"5280056"},{"town":"水口町今郷","koaza":"","lat":34.963515,"lng":136.208395,"zip":"5280002"},{"town":"水口町岩坂","koaza":"","lat":34.957662,"lng":136.129962,"zip":"5280047"},{"town":"水口町植","koaza":"","lat":34.97463,"lng":136.143812,"zip":"5280055"},{"town":"水口町宇川","koaza":"","lat":34.964617,"lng":136.142034,"zip":"5280052"},{"town":"水口町牛飼","koaza":"","lat":34.93694,"lng":136.117539,"zip":"5280045"},{"town":"水口町宇田","koaza":"","lat":34.971077,"lng":136.147516,"zip":"5280053"},{"town":"水口町梅が丘","koaza":"","lat":34.970226,"lng":136.167337,"zip":"5280022"},{"town":"水口町春日","koaza":"","lat":35.017442,"lng":136.163638,"zip":"5280065"},{"town":"水口町嶬峨","koaza":"","lat":34.95078,"lng":136.197701,"zip":"5280004"},{"town":"水口町北泉一丁目","koaza":"","lat":34.984275,"lng":136.144334,"zip":"5280058"},{"town":"水口町北泉二丁目","koaza":"","lat":34.985025,"lng":136.138859,"zip":"5280058"},{"town":"水口町北内貴","koaza":"","lat":34.960038,"lng":136.162018,"zip":"5280051"},{"town":"水口町北脇","koaza":"","lat":34.97883,"lng":136.151427,"zip":"5280057"},{"town":"水口町貴生川","koaza":"","lat":34.955787,"lng":136.147108,"zip":"5280049"},{"town":"水口町貴生川一丁目","koaza":"","lat":34.956747,"lng":136.152754,"zip":"5280049"},{"town":"水口町貴生川二丁目","koaza":"","lat":34.955285,"lng":136.151558,"zip":"5280049"},{"town":"水口町京町","koaza":"","lat":34.968161,"lng":136.179502,"zip":"5280017"},{"town":"水口町古城が丘","koaza":"","lat":34.974667,"lng":136.182999,"zip":"5280073"},{"town":"水口町酒人","koaza":"","lat":34.975308,"lng":136.134181,"zip":"5280054"},{"town":"水口町笹が丘","koaza":"","lat":34.98666,"lng":136.160055,"zip":"5280061"},{"town":"水口町さつきが丘","koaza":"","lat":34.987363,"lng":136.146023,"zip":"5280062"},{"town":"水口町三大寺","koaza":"","lat":34.944317,"lng":136.127931,"zip":"5280046"},{"town":"水口町下山","koaza":"","lat":34.996072,"lng":136.133212,"zip":"5280063"},{"town":"水口町松栄","koaza":"","lat":34.968045,"lng":136.173589,"zip":"5280015"},{"town":"水口町城東","koaza":"","lat":34.972989,"lng":136.168778,"zip":"5280028"},{"town":"水口町城内","koaza":"","lat":34.973878,"lng":136.16551,"zip":"5280027"},{"town":"水口町新城","koaza":"","lat":34.966893,"lng":136.195171,"zip":"5280007"},{"town":"水口町新町一丁目","koaza":"","lat":34.972452,"lng":136.177059,"zip":"5280038"},{"town":"水口町新町二丁目","koaza":"","lat":34.975397,"lng":136.177136,"zip":"5280038"},{"town":"水口町神明","koaza":"","lat":34.967349,"lng":136.175624,"zip":"5280016"},{"town":"水口町杣中","koaza":"","lat":34.938537,"lng":136.151017,"zip":"5280043"},{"town":"水口町高塚","koaza":"","lat":34.964829,"lng":136.176256,"zip":"5280011"},{"town":"水口町高山","koaza":"","lat":34.953596,"lng":136.139573,"zip":"5280048"},{"town":"水口町中畑","koaza":"","lat":34.978444,"lng":136.210966,"zip":"5280001"},{"town":"水口町中邸","koaza":"","lat":34.971137,"lng":136.161633,"zip":"5280024"},{"town":"水口町名坂","koaza":"","lat":34.982295,"lng":136.170548,"zip":"5280035"},{"town":"水口町西林口","koaza":"","lat":34.975066,"lng":136.160731,"zip":"5280025"},{"town":"水口町日電","koaza":"","lat":34.976286,"lng":136.16591,"zip":"5280034"},{"town":"水口町八光","koaza":"","lat":34.970123,"lng":136.170066,"zip":"5280021"},{"town":"水口町八田","koaza":"","lat":35.01641,"lng":136.146207,"zip":"5280066"},{"town":"水口町林口","koaza":"","lat":34.97235,"lng":136.157864,"zip":"5280000"},{"town":"水口町伴中山","koaza":"","lat":34.996024,"lng":136.149711,"zip":"5280064"},{"town":"水口町東名坂","koaza":"","lat":34.979642,"lng":136.172302,"zip":"5280036"},{"town":"水口町東林口","koaza":"","lat":34.974866,"lng":136.16335,"zip":"5280026"},{"town":"水口町ひのきが丘","koaza":"","lat":34.992441,"lng":136.159595,"zip":"5280068"},{"town":"水口町本町一丁目","koaza":"","lat":34.969446,"lng":136.176911,"zip":"5280031"},{"town":"水口町本町二丁目","koaza":"","lat":34.970428,"lng":136.175225,"zip":"5280031"},{"town":"水口町本町三丁目","koaza":"","lat":34.97125,"lng":136.173596,"zip":"5280031"},{"town":"水口町本丸","koaza":"","lat":34.970911,"lng":136.164172,"zip":"5280023"},{"town":"水口町松尾","koaza":"","lat":34.987329,"lng":136.185244,"zip":"5280074"},{"town":"水口町的場","koaza":"","lat":34.968653,"lng":136.162466,"zip":"5280020"},{"town":"水口町水口","koaza":"","lat":34.980461,"lng":136.192891,"zip":"5280005"},{"town":"水口町南林口","koaza":"","lat":34.971427,"lng":136.159923,"zip":"5280029"},{"town":"水口町宮の前","koaza":"","lat":34.967387,"lng":136.169714,"zip":"5280013"},{"town":"水口町虫生野","koaza":"","lat":34.950969,"lng":136.166069,"zip":"5280041"},{"town":"水口町虫生野中央","koaza":"","lat":34.952059,"lng":136.156164,"zip":"5280042"},{"town":"水口町虫生野虹の町","koaza":"","lat":34.949266,"lng":136.155147,"zip":"5280069"},{"town":"水口町本綾野","koaza":"","lat":34.976248,"lng":136.173144,"zip":"5280037"},{"town":"水口町元町","koaza":"","lat":34.966081,"lng":136.182057,"zip":"5280006"},{"town":"水口町八坂","koaza":"","lat":34.972658,"lng":136.172028,"zip":"5280032"},{"town":"水口町山","koaza":"","lat":35.002056,"lng":136.175901,"zip":"5280067"},{"town":"水口町山上","koaza":"","lat":34.92985,"lng":136.134629,"zip":"5280044"},{"town":"水口町鹿深","koaza":"","lat":34.969003,"lng":136.171521,"zip":"5280014"},{"town":"水口町和野","koaza":"","lat":34.944424,"lng":136.217672,"zip":"5280003"},{"town":"水口町三本柳","koaza":"","lat":34.950186,"lng":136.149335,"zip":"5280040"},{"town":"水口町北脇","koaza":"岡本","lat":34.983119,"lng":136.14797,"zip":"5280057"},{"town":"水口町名坂","koaza":"下代","lat":34.978841,"lng":136.162994,"zip":"5280035"},{"town":"甲南町野尻","koaza":"大西","lat":34.916999,"lng":136.180096,"zip":"5203307"},{"town":"土山町大野","koaza":"沢","lat":34.945622,"lng":136.245499,"zip":"5280235"}]