[{"town":"朝妻筑摩","koaza":"","lat":35.324545,"lng":136.272739,"zip":"5210001"},{"town":"岩脇","koaza":"","lat":35.325782,"lng":136.295303,"zip":"5210091"},{"town":"磯","koaza":"","lat":35.306845,"lng":136.261792,"zip":"5210004"},{"town":"一色","koaza":"","lat":35.336803,"lng":136.358184,"zip":"5210031"},{"town":"入江","koaza":"","lat":35.307777,"lng":136.273924,"zip":"5210003"},{"town":"梅ケ原","koaza":"","lat":35.304832,"lng":136.290679,"zip":"5210013"},{"town":"梅ケ原栄","koaza":"","lat":35.311543,"lng":136.286316,"zip":"5210014"},{"town":"大鹿","koaza":"","lat":35.352136,"lng":136.345387,"zip":"5210214"},{"town":"大清水","koaza":"","lat":35.377291,"lng":136.404855,"zip":"5210324"},{"town":"大野木","koaza":"","lat":35.364472,"lng":136.40276,"zip":"5210244"},{"town":"加勢野","koaza":"","lat":35.367637,"lng":136.35933,"zip":"5210219"},{"town":"上多良","koaza":"","lat":35.324973,"lng":136.285261,"zip":"5210002"},{"town":"北方","koaza":"","lat":35.364632,"lng":136.345585,"zip":"5210217"},{"town":"清滝","koaza":"","lat":35.351444,"lng":136.391561,"zip":"5210203"},{"town":"榑ケ畑","koaza":"","lat":35.286232,"lng":136.356322,"zip":"5210000"},{"town":"甲津原","koaza":"","lat":35.512992,"lng":136.364899,"zip":"5210301"},{"town":"醒井","koaza":"","lat":35.33098,"lng":136.348298,"zip":"5210035"},{"town":"志賀谷","koaza":"","lat":35.36134,"lng":136.357154,"zip":"5210218"},{"town":"下多良","koaza":"","lat":35.318749,"lng":136.285883,"zip":"5210016"},{"town":"下多良一丁目","koaza":"","lat":35.316096,"lng":136.285996,"zip":"5210016"},{"town":"下多良二丁目","koaza":"","lat":35.313156,"lng":136.285607,"zip":"5210016"},{"town":"下多良三丁目","koaza":"","lat":35.315909,"lng":136.283233,"zip":"5210016"},{"town":"上平寺","koaza":"","lat":35.388824,"lng":136.416208,"zip":"5210327"},{"town":"新庄","koaza":"","lat":35.335933,"lng":136.312823,"zip":"5210083"},{"town":"春照","koaza":"","lat":35.38513,"lng":136.378173,"zip":"5210314"},{"town":"菅江","koaza":"","lat":35.371589,"lng":136.338764,"zip":"5210216"},{"town":"須川","koaza":"","lat":35.354669,"lng":136.406705,"zip":"5210245"},{"town":"杉澤","koaza":"","lat":35.372364,"lng":136.386971,"zip":"5210000"},{"town":"太平寺","koaza":"","lat":35.412846,"lng":136.39073,"zip":"5210000"},{"town":"高番","koaza":"","lat":35.374762,"lng":136.37889,"zip":"5210321"},{"town":"多和田","koaza":"","lat":35.338821,"lng":136.336325,"zip":"5210081"},{"town":"長久寺","koaza":"","lat":35.348681,"lng":136.418249,"zip":"5210201"},{"town":"寺倉","koaza":"","lat":35.322585,"lng":136.3138,"zip":"5210093"},{"town":"堂谷","koaza":"","lat":35.345565,"lng":136.351741,"zip":"5210213"},{"town":"長岡","koaza":"","lat":35.354116,"lng":136.366428,"zip":"5210242"},{"town":"中多良","koaza":"","lat":35.319591,"lng":136.281291,"zip":"5210011"},{"town":"中多良一丁目","koaza":"","lat":35.316696,"lng":136.280869,"zip":"5210011"},{"town":"中多良二丁目","koaza":"","lat":35.315226,"lng":136.281622,"zip":"5210011"},{"town":"西山","koaza":"","lat":35.370596,"lng":136.369555,"zip":"5210241"},{"town":"日光寺","koaza":"","lat":35.340071,"lng":136.320273,"zip":"5210084"},{"town":"能登瀬","koaza":"","lat":35.3302,"lng":136.322771,"zip":"5210082"},{"town":"藤川","koaza":"","lat":35.380922,"lng":136.429629,"zip":"5210325"},{"town":"舟崎","koaza":"","lat":35.347426,"lng":136.30659,"zip":"5210071"},{"town":"本郷","koaza":"","lat":35.340347,"lng":136.352513,"zip":"5210212"},{"town":"米原","koaza":"","lat":35.314593,"lng":136.293935,"zip":"5210012"},{"town":"米原西","koaza":"","lat":35.314314,"lng":136.288148,"zip":"5210015"},{"town":"万願寺","koaza":"","lat":35.355373,"lng":136.380879,"zip":"5210243"},{"town":"箕浦","koaza":"","lat":35.333297,"lng":136.300258,"zip":"5210073"},{"town":"村木","koaza":"","lat":35.361752,"lng":136.386015,"zip":"5210323"},{"town":"弥高","koaza":"","lat":35.387132,"lng":136.396413,"zip":"5210313"},{"town":"山室","koaza":"","lat":35.357903,"lng":136.333642,"zip":"5210215"},{"town":"間田","koaza":"","lat":35.387744,"lng":136.363962,"zip":"5210236"},{"town":"本市場","koaza":"","lat":35.380891,"lng":136.362858,"zip":"5210223"},{"town":"天満","koaza":"","lat":35.37779,"lng":136.367939,"zip":"5210222"},{"town":"下板並","koaza":"","lat":35.429613,"lng":136.36997,"zip":"5210306"},{"town":"上板並","koaza":"","lat":35.435499,"lng":136.369317,"zip":"5210305"},{"town":"大久保","koaza":"","lat":35.424911,"lng":136.371926,"zip":"5210307"},{"town":"小泉","koaza":"","lat":35.413377,"lng":136.374429,"zip":"5210308"},{"town":"烏脇","koaza":"","lat":35.392287,"lng":136.341054,"zip":"5210227"},{"town":"村居田","koaza":"","lat":35.398498,"lng":136.337874,"zip":"5210231"},{"town":"坂口","koaza":"","lat":35.396876,"lng":136.34771,"zip":"5210232"},{"town":"野一色","koaza":"","lat":35.389031,"lng":136.354897,"zip":"5210233"},{"town":"朝日","koaza":"","lat":35.384458,"lng":136.342846,"zip":"5210226"},{"town":"池下","koaza":"","lat":35.373884,"lng":136.359937,"zip":"5210221"},{"town":"市場","koaza":"","lat":35.381216,"lng":136.355667,"zip":"5210225"},{"town":"夫馬","koaza":"","lat":35.376002,"lng":136.34603,"zip":"5210224"},{"town":"上野","koaza":"","lat":35.394298,"lng":136.382067,"zip":"5210312"},{"town":"高溝","koaza":"","lat":35.346335,"lng":136.296569,"zip":"5210074"},{"town":"長沢","koaza":"","lat":35.349601,"lng":136.286534,"zip":"5210061"},{"town":"世継","koaza":"","lat":35.334158,"lng":136.279484,"zip":"5210064"},{"town":"顔戸","koaza":"","lat":35.343034,"lng":136.305804,"zip":"5210072"},{"town":"宇賀野","koaza":"","lat":35.341364,"lng":136.284436,"zip":"5210062"},{"town":"飯","koaza":"","lat":35.332441,"lng":136.290518,"zip":"5210063"},{"town":"西円寺","koaza":"","lat":35.319209,"lng":136.302812,"zip":"5210092"},{"town":"番場","koaza":"","lat":35.308712,"lng":136.311032,"zip":"5210025"},{"town":"柏原","koaza":"","lat":35.334671,"lng":136.398783,"zip":"5210202"},{"town":"梓河内","koaza":"","lat":35.321524,"lng":136.379547,"zip":"5210211"},{"town":"上丹生","koaza":"","lat":35.302888,"lng":136.350355,"zip":"5210033"},{"town":"枝折","koaza":"","lat":35.317957,"lng":136.356482,"zip":"5210032"},{"town":"下丹生","koaza":"","lat":35.312909,"lng":136.344099,"zip":"5210034"},{"town":"三吉","koaza":"","lat":35.317497,"lng":136.322692,"zip":"5210023"},{"town":"西坂","koaza":"","lat":35.311307,"lng":136.325826,"zip":"5210024"},{"town":"河南","koaza":"","lat":35.32232,"lng":136.336195,"zip":"5210021"},{"town":"樋口","koaza":"","lat":35.320449,"lng":136.329337,"zip":"5210022"},{"town":"曲谷","koaza":"","lat":35.477011,"lng":136.349375,"zip":"5210302"},{"town":"吉槻","koaza":"","lat":35.460006,"lng":136.359944,"zip":"5210304"},{"town":"甲賀","koaza":"","lat":35.466475,"lng":136.348817,"zip":"5210303"},{"town":"小田","koaza":"","lat":35.394863,"lng":136.365302,"zip":"5210235"},{"town":"井之口","koaza":"","lat":35.39752,"lng":136.35683,"zip":"5210234"},{"town":"伊吹","koaza":"","lat":35.403274,"lng":136.37779,"zip":"5210311"}]