[{"town":"間之町","koaza":"","lat":35.13905,"lng":136.092612,"zip":"5230836"},{"town":"赤尾町","koaza":"","lat":35.117965,"lng":136.079413,"zip":"5230052"},{"town":"浅小井町","koaza":"","lat":35.146024,"lng":136.110698,"zip":"5230817"},{"town":"安土町石寺","koaza":"","lat":35.137733,"lng":136.163642,"zip":"5211331"},{"town":"安土町内野","koaza":"","lat":35.112786,"lng":136.160838,"zip":"5211333"},{"town":"安土町上出","koaza":"","lat":35.132408,"lng":136.152406,"zip":"5211342"},{"town":"安土町上豊浦","koaza":"","lat":35.139342,"lng":136.145875,"zip":"5211341"},{"town":"安土町桑実寺","koaza":"","lat":35.143758,"lng":136.153854,"zip":"5211321"},{"town":"安土町小中","koaza":"","lat":35.136717,"lng":136.136818,"zip":"5211343"},{"town":"安土町香庄","koaza":"","lat":35.141753,"lng":136.123241,"zip":"5211346"},{"town":"安土町慈恩寺","koaza":"","lat":35.136108,"lng":136.1295,"zip":"5211345"},{"town":"安土町下豊浦","koaza":"","lat":35.154993,"lng":136.13501,"zip":"5211311"},{"town":"安土町常楽寺","koaza":"","lat":35.15069,"lng":136.120146,"zip":"5211351"},{"town":"安土町大中","koaza":"","lat":35.175415,"lng":136.120685,"zip":"5211301"},{"town":"安土町中屋","koaza":"","lat":35.130424,"lng":136.135274,"zip":"5211344"},{"town":"安土町西老蘇","koaza":"","lat":35.123283,"lng":136.153979,"zip":"5211334"},{"town":"安土町東老蘇","koaza":"","lat":35.125455,"lng":136.169773,"zip":"5211332"},{"town":"安土町宮津","koaza":"","lat":35.142521,"lng":136.14955,"zip":"5211322"},{"town":"安養寺町","koaza":"","lat":35.098435,"lng":136.081043,"zip":"5230045"},{"town":"生須町","koaza":"","lat":35.142579,"lng":136.093818,"zip":"5230823"},{"town":"池田本町","koaza":"","lat":35.104959,"lng":136.083468,"zip":"5230043"},{"town":"池田町一丁目","koaza":"","lat":35.13891,"lng":136.085112,"zip":"5230877"},{"town":"池田町二丁目","koaza":"","lat":35.137985,"lng":136.085863,"zip":"5230877"},{"town":"池田町三丁目","koaza":"","lat":35.137017,"lng":136.086672,"zip":"5230877"},{"town":"池田町四丁目","koaza":"","lat":35.136054,"lng":136.087428,"zip":"5230877"},{"town":"池田町五丁目","koaza":"","lat":35.134887,"lng":136.088371,"zip":"5230877"},{"town":"為心町上","koaza":"","lat":35.136984,"lng":136.092498,"zip":"5230866"},{"town":"為心町中","koaza":"","lat":35.138128,"lng":136.091514,"zip":"5230865"},{"town":"為心町元","koaza":"","lat":35.139068,"lng":136.090813,"zip":"5230864"},{"town":"板屋町","koaza":"","lat":35.133759,"lng":136.087482,"zip":"5230885"},{"town":"市井町","koaza":"","lat":35.138314,"lng":136.099075,"zip":"5230851"},{"town":"上田町","koaza":"","lat":35.113478,"lng":136.113587,"zip":"5230015"},{"town":"上野町","koaza":"","lat":35.10078,"lng":136.072183,"zip":"5230046"},{"town":"上畑町","koaza":"","lat":35.090946,"lng":136.114795,"zip":"5230026"},{"town":"宇津呂町","koaza":"","lat":35.135245,"lng":136.092645,"zip":"5230895"},{"town":"魚屋町上","koaza":"","lat":35.136619,"lng":136.091636,"zip":"5230869"},{"town":"魚屋町中","koaza":"","lat":35.137784,"lng":136.090738,"zip":"5230868"},{"town":"魚屋町元","koaza":"","lat":35.138687,"lng":136.090113,"zip":"5230867"},{"town":"江頭町","koaza":"","lat":35.115491,"lng":136.05591,"zip":"5230061"},{"town":"江南町","koaza":"","lat":35.140093,"lng":136.093389,"zip":"5230832"},{"town":"大杉町","koaza":"","lat":35.139762,"lng":136.090708,"zip":"5230837"},{"town":"大房町","koaza":"","lat":35.132556,"lng":136.073575,"zip":"5230071"},{"town":"大森町","koaza":"","lat":35.111594,"lng":136.088853,"zip":"5230042"},{"town":"沖島町","koaza":"","lat":35.184077,"lng":136.07947,"zip":"5230801"},{"town":"長田町","koaza":"","lat":35.13218,"lng":136.121987,"zip":"5230811"},{"town":"小田町","koaza":"","lat":35.117799,"lng":136.043435,"zip":"5230064"},{"town":"音羽町","koaza":"","lat":35.134985,"lng":136.103266,"zip":"5230856"},{"town":"小幡町上","koaza":"","lat":35.135792,"lng":136.089966,"zip":"5230875"},{"town":"小幡町中","koaza":"","lat":35.136942,"lng":136.089067,"zip":"5230874"},{"town":"鍵之手町","koaza":"","lat":35.138384,"lng":136.096573,"zip":"5230852"},{"town":"鍛治屋町","koaza":"","lat":35.140481,"lng":136.094062,"zip":"5230833"},{"town":"加茂町","koaza":"","lat":35.124706,"lng":136.066933,"zip":"5230058"},{"town":"川原町一丁目","koaza":"","lat":35.104365,"lng":136.078372,"zip":"5230047"},{"town":"川原町二丁目","koaza":"","lat":35.104982,"lng":136.079505,"zip":"5230047"},{"town":"北末町","koaza":"","lat":35.134673,"lng":136.087419,"zip":"5230884"},{"town":"北津田町","koaza":"","lat":35.166041,"lng":136.080752,"zip":"5230087"},{"town":"北之庄町","koaza":"","lat":35.149416,"lng":136.094877,"zip":"5230806"},{"town":"北元町","koaza":"","lat":35.136003,"lng":136.086361,"zip":"5230883"},{"town":"倉橋部町","koaza":"","lat":35.093151,"lng":136.123475,"zip":"5230023"},{"town":"御所内町","koaza":"","lat":35.123528,"lng":136.128808,"zip":"5230003"},{"town":"小船木町","koaza":"","lat":35.129698,"lng":136.079516,"zip":"5230083"},{"town":"金剛寺町","koaza":"","lat":35.124866,"lng":136.117268,"zip":"5230001"},{"town":"佐久間町","koaza":"","lat":35.138559,"lng":136.084309,"zip":"5230881"},{"town":"桜宮町","koaza":"","lat":35.129809,"lng":136.095428,"zip":"5230893"},{"town":"佐波江町","koaza":"","lat":35.143129,"lng":136.022375,"zip":"5230076"},{"town":"慈恩寺町上","koaza":"","lat":35.13807,"lng":136.095859,"zip":"5230843"},{"town":"慈恩寺町中","koaza":"","lat":35.138731,"lng":136.095388,"zip":"5230842"},{"town":"慈恩寺町元","koaza":"","lat":35.139516,"lng":136.094847,"zip":"5230841"},{"town":"篠原町一丁目","koaza":"","lat":35.099155,"lng":136.075778,"zip":"5230044"},{"town":"篠原町二丁目","koaza":"","lat":35.09997,"lng":136.076767,"zip":"5230044"},{"town":"篠原町三丁目","koaza":"","lat":35.100543,"lng":136.077721,"zip":"5230044"},{"town":"島町","koaza":"","lat":35.17438,"lng":136.082058,"zip":"5230804"},{"town":"十王町","koaza":"","lat":35.109968,"lng":136.05259,"zip":"5230063"},{"town":"正神町","koaza":"","lat":35.137899,"lng":136.088326,"zip":"5230873"},{"town":"浄土寺町","koaza":"","lat":35.087512,"lng":136.132284,"zip":"5230024"},{"town":"白王町","koaza":"","lat":35.184578,"lng":136.093312,"zip":"5230803"},{"town":"白鳥町","koaza":"","lat":35.121297,"lng":136.096603,"zip":"5230032"},{"town":"新左衛門町","koaza":"","lat":35.141083,"lng":136.093626,"zip":"5230825"},{"town":"新栄町","koaza":"","lat":35.13398,"lng":136.085736,"zip":"5230081"},{"town":"新巻町","koaza":"","lat":35.079032,"lng":136.138444,"zip":"5230025"},{"town":"新町一丁目","koaza":"","lat":35.139455,"lng":136.088215,"zip":"5230871"},{"town":"新町二丁目","koaza":"","lat":35.138367,"lng":136.089105,"zip":"5230871"},{"town":"新町三丁目","koaza":"","lat":35.13738,"lng":136.089901,"zip":"5230871"},{"town":"新町四丁目","koaza":"","lat":35.136245,"lng":136.090779,"zip":"5230871"},{"town":"水茎町","koaza":"","lat":35.131558,"lng":136.040765,"zip":"5230074"},{"town":"末広町","koaza":"","lat":35.111301,"lng":136.150462,"zip":"5230005"},{"town":"杉森町","koaza":"","lat":35.127747,"lng":136.121425,"zip":"5230812"},{"town":"仲屋町上","koaza":"","lat":35.137375,"lng":136.093333,"zip":"5230863"},{"town":"仲屋町中","koaza":"","lat":35.138502,"lng":136.092356,"zip":"5230862"},{"town":"仲屋町元","koaza":"","lat":35.13939,"lng":136.091761,"zip":"5230861"},{"town":"千僧供町","koaza":"","lat":35.106145,"lng":136.115294,"zip":"5230016"},{"town":"大工町","koaza":"","lat":35.141351,"lng":136.092765,"zip":"5230824"},{"town":"大中町","koaza":"","lat":35.182471,"lng":136.107777,"zip":"5230802"},{"town":"鷹飼町","koaza":"","lat":35.118141,"lng":136.105084,"zip":"5230891"},{"town":"鷹飼町北一丁目","koaza":"","lat":35.128569,"lng":136.107759,"zip":"5230896"},{"town":"鷹飼町北二丁目","koaza":"","lat":35.126652,"lng":136.1057,"zip":"5230896"},{"town":"鷹飼町北三丁目","koaza":"","lat":35.130563,"lng":136.105366,"zip":"5230896"},{"town":"鷹飼町北四丁目","koaza":"","lat":35.127605,"lng":136.103539,"zip":"5230896"},{"town":"鷹飼町東一丁目","koaza":"","lat":35.125531,"lng":136.108471,"zip":"5230897"},{"town":"鷹飼町東二丁目","koaza":"","lat":35.124742,"lng":136.105829,"zip":"5230897"},{"town":"鷹飼町南一丁目","koaza":"","lat":35.120084,"lng":136.107201,"zip":"5230898"},{"town":"鷹飼町南三丁目","koaza":"","lat":35.121863,"lng":136.103323,"zip":"5230898"},{"town":"鷹飼町南四丁目","koaza":"","lat":35.120487,"lng":136.101135,"zip":"5230898"},{"town":"多賀町","koaza":"","lat":35.142291,"lng":136.098309,"zip":"5230821"},{"town":"竹町","koaza":"","lat":35.101535,"lng":136.09278,"zip":"5230036"},{"town":"田中江町","koaza":"","lat":35.119577,"lng":136.059386,"zip":"5230057"},{"town":"玉木町一丁目","koaza":"","lat":35.139718,"lng":136.086838,"zip":"5230872"},{"town":"玉木町二丁目","koaza":"","lat":35.138852,"lng":136.087514,"zip":"5230872"},{"town":"玉屋町","koaza":"","lat":35.140307,"lng":136.09247,"zip":"5230831"},{"town":"長光寺町","koaza":"","lat":35.109684,"lng":136.1326,"zip":"5230013"},{"town":"長福寺町","koaza":"","lat":35.107717,"lng":136.125043,"zip":"5230021"},{"town":"長命寺町","koaza":"","lat":35.163799,"lng":136.06227,"zip":"5230808"},{"town":"津田町","koaza":"","lat":35.155642,"lng":136.072785,"zip":"5230086"},{"town":"土田町","koaza":"","lat":35.126925,"lng":136.088486,"zip":"5230082"},{"town":"鉄炮町","koaza":"","lat":35.142854,"lng":136.093101,"zip":"5230827"},{"town":"出町","koaza":"","lat":35.131825,"lng":136.09938,"zip":"5230892"},{"town":"友定町","koaza":"","lat":35.119224,"lng":136.131294,"zip":"5230011"},{"town":"中小森町","koaza":"","lat":35.113821,"lng":136.084745,"zip":"5230041"},{"town":"中之庄町","koaza":"","lat":35.164445,"lng":136.072337,"zip":"5230807"},{"town":"永原町上","koaza":"","lat":35.137723,"lng":136.094097,"zip":"5230849"},{"town":"永原町中","koaza":"","lat":35.138814,"lng":136.093465,"zip":"5230848"},{"town":"永原町元","koaza":"","lat":35.139756,"lng":136.092532,"zip":"5230847"},{"town":"中村町","koaza":"","lat":35.128215,"lng":136.093711,"zip":"5230894"},{"town":"縄手町末","koaza":"","lat":35.135492,"lng":136.099449,"zip":"5230855"},{"town":"縄手町中","koaza":"","lat":35.136555,"lng":136.098678,"zip":"5230854"},{"town":"縄手町元","koaza":"","lat":35.137798,"lng":136.097668,"zip":"5230853"},{"town":"西宿町","koaza":"","lat":35.115373,"lng":136.125343,"zip":"5230014"},{"town":"西末町","koaza":"","lat":35.134079,"lng":136.086831,"zip":"5230886"},{"town":"西畳屋町","koaza":"","lat":35.139423,"lng":136.093391,"zip":"5230835"},{"town":"西庄町","koaza":"","lat":35.137213,"lng":136.111231,"zip":"5230816"},{"town":"西本郷町","koaza":"","lat":35.121883,"lng":136.112002,"zip":"5230813"},{"town":"西本郷町西","koaza":"","lat":35.122311,"lng":136.107767,"zip":"5230819"},{"town":"西本郷町東","koaza":"","lat":35.123827,"lng":136.11005,"zip":"5230818"},{"town":"西元町","koaza":"","lat":35.135542,"lng":136.085214,"zip":"5230887"},{"town":"西生来町","koaza":"","lat":35.120125,"lng":136.144877,"zip":"5230004"},{"town":"野田町","koaza":"","lat":35.120404,"lng":136.12167,"zip":"5230002"},{"town":"野村町","koaza":"","lat":35.128643,"lng":136.033776,"zip":"5230075"},{"town":"博労町上","koaza":"","lat":35.137537,"lng":136.095115,"zip":"5230846"},{"town":"博労町中","koaza":"","lat":35.138325,"lng":136.094772,"zip":"5230845"},{"town":"博労町元","koaza":"","lat":35.139162,"lng":136.094144,"zip":"5230844"},{"town":"八幡町","koaza":"","lat":35.136015,"lng":136.096666,"zip":"5230857"},{"town":"東川町","koaza":"","lat":35.094976,"lng":136.107011,"zip":"5230027"},{"town":"東畳屋町","koaza":"","lat":35.139796,"lng":136.09407,"zip":"5230834"},{"town":"東町","koaza":"","lat":35.106887,"lng":136.089825,"zip":"5230037"},{"town":"東横関町","koaza":"","lat":35.101048,"lng":136.100811,"zip":"5230035"},{"town":"日杉町","koaza":"","lat":35.138884,"lng":136.082348,"zip":"5230889"},{"town":"日吉野町","koaza":"","lat":35.115343,"lng":136.098087,"zip":"5230033"},{"town":"船木町","koaza":"","lat":35.136785,"lng":136.078114,"zip":"5230084"},{"town":"船町","koaza":"","lat":35.143605,"lng":136.09376,"zip":"5230822"},{"town":"古川町","koaza":"","lat":35.107109,"lng":136.070667,"zip":"5230056"},{"town":"堀上町","koaza":"","lat":35.119969,"lng":136.092557,"zip":"5230031"},{"town":"本町一丁目","koaza":"","lat":35.139352,"lng":136.085936,"zip":"5230876"},{"town":"本町二丁目","koaza":"","lat":35.13842,"lng":136.086689,"zip":"5230876"},{"town":"本町三丁目","koaza":"","lat":35.137451,"lng":136.087481,"zip":"5230876"},{"town":"本町四丁目","koaza":"","lat":35.136496,"lng":136.088241,"zip":"5230876"},{"town":"本町五丁目","koaza":"","lat":35.135475,"lng":136.089144,"zip":"5230876"},{"town":"牧町","koaza":"","lat":35.13689,"lng":136.054684,"zip":"5230072"},{"town":"孫平治町一丁目","koaza":"","lat":35.138254,"lng":136.083392,"zip":"5230888"},{"town":"孫平治町二丁目","koaza":"","lat":35.137012,"lng":136.084342,"zip":"5230888"},{"town":"益田町","koaza":"","lat":35.115863,"lng":136.071845,"zip":"5230053"},{"town":"馬淵町","koaza":"","lat":35.104036,"lng":136.108439,"zip":"5230022"},{"town":"丸の内町","koaza":"","lat":35.111044,"lng":136.057181,"zip":"5230062"},{"town":"円山町","koaza":"","lat":35.160423,"lng":136.097192,"zip":"5230805"},{"town":"緑町一丁目","koaza":"","lat":35.105347,"lng":136.076277,"zip":"5230048"},{"town":"緑町二丁目","koaza":"","lat":35.106895,"lng":136.075165,"zip":"5230048"},{"town":"緑町三丁目","koaza":"","lat":35.108678,"lng":136.073542,"zip":"5230048"},{"town":"緑町四丁目","koaza":"","lat":35.108818,"lng":136.072039,"zip":"5230048"},{"town":"南津田町","koaza":"","lat":35.148697,"lng":136.077285,"zip":"5230085"},{"town":"南本郷町一丁目","koaza":"","lat":35.118573,"lng":136.110676,"zip":"5230814"},{"town":"南本郷町二丁目","koaza":"","lat":35.119196,"lng":136.11126,"zip":"5230814"},{"town":"南本郷町三丁目","koaza":"","lat":35.11964,"lng":136.112035,"zip":"5230814"},{"town":"宮内町","koaza":"","lat":35.141966,"lng":136.085336,"zip":"5230828"},{"town":"武佐町","koaza":"","lat":35.114537,"lng":136.141353,"zip":"5230012"},{"town":"元水茎町","koaza":"","lat":35.129834,"lng":136.052292,"zip":"5230073"},{"town":"元玉屋町","koaza":"","lat":35.137567,"lng":136.085094,"zip":"5230882"},{"town":"森尻町","koaza":"","lat":35.113316,"lng":136.077756,"zip":"5230054"},{"town":"八木町","koaza":"","lat":35.121503,"lng":136.083787,"zip":"5230051"},{"town":"薬師町","koaza":"","lat":35.141952,"lng":136.092472,"zip":"5230826"},{"town":"柳町一丁目","koaza":"","lat":35.111719,"lng":136.072401,"zip":"5230055"},{"town":"柳町二丁目","koaza":"","lat":35.11253,"lng":136.071618,"zip":"5230055"},{"town":"柳町三丁目","koaza":"","lat":35.113297,"lng":136.070907,"zip":"5230055"},{"town":"若葉町一丁目","koaza":"","lat":35.120108,"lng":136.113171,"zip":"5230815"},{"town":"若葉町二丁目","koaza":"","lat":35.119589,"lng":136.115098,"zip":"5230815"},{"town":"若葉町三丁目","koaza":"","lat":35.119004,"lng":136.114099,"zip":"5230815"},{"town":"若葉町四丁目","koaza":"","lat":35.118413,"lng":136.113042,"zip":"5230815"},{"town":"若葉町五丁目","koaza":"","lat":35.11801,"lng":136.111912,"zip":"5230815"},{"town":"若宮町","koaza":"","lat":35.107184,"lng":136.098374,"zip":"5230034"},{"town":"白鳥町","koaza":"大町","lat":35.12261,"lng":136.096269,"zip":"5230032"},{"town":"上田町","koaza":"端間","lat":35.110515,"lng":136.116753,"zip":"5230015"}]