[{"town":"菖蒲","koaza":"","lat":35.134833,"lng":135.999997,"zip":"5240202"},{"town":"安治","koaza":"","lat":35.125458,"lng":136.009665,"zip":"5202411"},{"town":"市三宅","koaza":"","lat":35.080241,"lng":136.016642,"zip":"5202362"},{"town":"井口","koaza":"","lat":35.11137,"lng":136.001647,"zip":"5202414"},{"town":"入町","koaza":"","lat":35.092044,"lng":136.073139,"zip":"5202312"},{"town":"近江富士一丁目","koaza":"","lat":35.040131,"lng":136.038033,"zip":"5202324"},{"town":"近江富士二丁目","koaza":"","lat":35.038145,"lng":136.036704,"zip":"5202324"},{"town":"近江富士三丁目","koaza":"","lat":35.037444,"lng":136.03455,"zip":"5202324"},{"town":"近江富士四丁目","koaza":"","lat":35.038782,"lng":136.032232,"zip":"5202324"},{"town":"近江富士五丁目","koaza":"","lat":35.03767,"lng":136.030303,"zip":"5202324"},{"town":"近江富士六丁目","koaza":"","lat":35.038805,"lng":136.028028,"zip":"5202324"},{"town":"大篠原","koaza":"","lat":35.072488,"lng":136.068988,"zip":"5202313"},{"town":"大畑","koaza":"","lat":35.056618,"lng":136.015,"zip":"5202343"},{"town":"乙窪","koaza":"","lat":35.098702,"lng":136.006518,"zip":"5202435"},{"town":"上屋","koaza":"","lat":35.086768,"lng":136.04773,"zip":"5202316"},{"town":"喜合","koaza":"","lat":35.132325,"lng":136.003824,"zip":"5240203"},{"town":"北","koaza":"","lat":35.098862,"lng":136.043203,"zip":"5202305"},{"town":"北櫻","koaza":"","lat":35.05014,"lng":136.050533,"zip":"5202300"},{"town":"北野一丁目","koaza":"","lat":35.069838,"lng":136.022532,"zip":"5202361"},{"town":"北比江","koaza":"","lat":35.096718,"lng":136.009328,"zip":"5202436"},{"town":"木部","koaza":"","lat":35.100719,"lng":136.023089,"zip":"5202431"},{"town":"久野部","koaza":"","lat":35.074099,"lng":136.027803,"zip":"5202353"},{"town":"小篠原","koaza":"","lat":35.067709,"lng":136.035328,"zip":"5202331"},{"town":"五条","koaza":"","lat":35.116069,"lng":136.01435,"zip":"5202424"},{"town":"小堤","koaza":"","lat":35.07043,"lng":136.055232,"zip":"5202314"},{"town":"五之里","koaza":"","lat":35.081863,"lng":136.025118,"zip":"5202364"},{"town":"小比江","koaza":"","lat":35.096117,"lng":136.011827,"zip":"5202437"},{"town":"小南","koaza":"","lat":35.105802,"lng":136.04787,"zip":"5202301"},{"town":"栄","koaza":"","lat":35.072263,"lng":136.031911,"zip":"5202333"},{"town":"須原","koaza":"","lat":35.124866,"lng":136.004368,"zip":"5202415"},{"town":"高木","koaza":"","lat":35.096326,"lng":136.055319,"zip":"5202302"},{"town":"竹ヶ丘","koaza":"","lat":35.081027,"lng":136.012231,"zip":"5202365"},{"town":"竹生","koaza":"","lat":35.084009,"lng":136.010918,"zip":"5202363"},{"town":"辻町","koaza":"","lat":35.074188,"lng":136.04698,"zip":"5202315"},{"town":"堤","koaza":"","lat":35.119507,"lng":135.995851,"zip":"5202416"},{"town":"冨波乙","koaza":"","lat":35.078904,"lng":136.033247,"zip":"5202352"},{"town":"冨波甲","koaza":"","lat":35.082536,"lng":136.037842,"zip":"5202351"},{"town":"中北","koaza":"","lat":35.095349,"lng":136.035136,"zip":"5202303"},{"town":"長島","koaza":"","lat":35.093758,"lng":136.06356,"zip":"5202311"},{"town":"永原","koaza":"","lat":35.089418,"lng":136.03707,"zip":"5202304"},{"town":"西河原","koaza":"","lat":35.1038,"lng":136.016746,"zip":"5202423"},{"town":"野田","koaza":"","lat":35.128267,"lng":136.020746,"zip":"5202421"},{"town":"比江","koaza":"","lat":35.088428,"lng":136.012532,"zip":"5202434"},{"town":"比留田","koaza":"","lat":35.116651,"lng":136.025969,"zip":"5202422"},{"town":"三上","koaza":"","lat":35.049728,"lng":136.031134,"zip":"5202323"},{"town":"南櫻","koaza":"","lat":35.033584,"lng":136.039422,"zip":"5202300"},{"town":"妙光寺","koaza":"","lat":35.059045,"lng":136.03372,"zip":"5202332"},{"town":"虫生","koaza":"","lat":35.102213,"lng":136.033084,"zip":"5202432"},{"town":"野洲","koaza":"","lat":35.063887,"lng":136.007133,"zip":"5202342"},{"town":"八夫","koaza":"","lat":35.092149,"lng":136.020981,"zip":"5202433"},{"town":"行畑","koaza":"","lat":35.061966,"lng":136.024445,"zip":"5202341"},{"town":"行畑一丁目","koaza":"","lat":35.063085,"lng":136.019071,"zip":"5202341"},{"town":"行畑二丁目","koaza":"","lat":35.061232,"lng":136.01991,"zip":"5202341"},{"town":"吉川","koaza":"","lat":35.13111,"lng":135.990406,"zip":"5240201"},{"town":"吉地","koaza":"","lat":35.10698,"lng":136.013575,"zip":"5202413"},{"town":"六条","koaza":"","lat":35.108916,"lng":136.007712,"zip":"5202412"},{"town":"野洲","koaza":"芦田","lat":35.062785,"lng":135.998317,"zip":"5202342"},{"town":"乙窪","koaza":"長繰","lat":35.102194,"lng":136.006725,"zip":"5202435"}]