[{"town":"朝日町","koaza":"","lat":35.376471,"lng":136.26955,"zip":"5260056"},{"town":"安養寺町","koaza":"","lat":35.426311,"lng":136.213999,"zip":"5260126"},{"town":"池奥町","koaza":"","lat":35.463427,"lng":136.283925,"zip":"5260274"},{"town":"石田町","koaza":"","lat":35.386505,"lng":136.327943,"zip":"5260814"},{"town":"泉町","koaza":"","lat":35.404553,"lng":136.283069,"zip":"5260003"},{"town":"一の宮町","koaza":"","lat":35.387297,"lng":136.274517,"zip":"5260051"},{"town":"稲葉町","koaza":"","lat":35.42297,"lng":136.236348,"zip":"5260133"},{"town":"今川町","koaza":"","lat":35.380994,"lng":136.304445,"zip":"5260816"},{"town":"今荘町","koaza":"","lat":35.416517,"lng":136.347252,"zip":"5260233"},{"town":"今町","koaza":"","lat":35.41102,"lng":136.298149,"zip":"5260806"},{"town":"飯山町","koaza":"","lat":35.441771,"lng":136.331601,"zip":"5260211"},{"town":"内保町","koaza":"","lat":35.427182,"lng":136.294372,"zip":"5260244"},{"town":"瓜生町","koaza":"","lat":35.451441,"lng":136.287741,"zip":"5260275"},{"town":"上野町","koaza":"","lat":35.45482,"lng":136.311296,"zip":"5260264"},{"town":"永久寺町","koaza":"","lat":35.370916,"lng":136.298987,"zip":"5260833"},{"town":"榎木町","koaza":"","lat":35.402874,"lng":136.298019,"zip":"5260805"},{"town":"大井町","koaza":"","lat":35.413508,"lng":136.262525,"zip":"5290113"},{"town":"大戌亥町","koaza":"","lat":35.369108,"lng":136.287062,"zip":"5260043"},{"town":"大島町","koaza":"","lat":35.37495,"lng":136.262016,"zip":"5260066"},{"town":"太田町","koaza":"","lat":35.467309,"lng":136.31306,"zip":"5260207"},{"town":"大辰巳町","koaza":"","lat":35.373312,"lng":136.292049,"zip":"5260834"},{"town":"大浜町","koaza":"","lat":35.397045,"lng":136.220849,"zip":"5260115"},{"town":"大東町","koaza":"","lat":35.377348,"lng":136.299478,"zip":"5260832"},{"town":"大宮町","koaza":"","lat":35.380661,"lng":136.270133,"zip":"5260054"},{"town":"大依町","koaza":"","lat":35.435266,"lng":136.31142,"zip":"5260251"},{"town":"岡谷町","koaza":"","lat":35.448936,"lng":136.333569,"zip":"5260205"},{"town":"小谷上山田町","koaza":"","lat":35.476813,"lng":136.271382,"zip":"5290301"},{"town":"小谷郡上町","koaza":"","lat":35.456797,"lng":136.268666,"zip":"5290312"},{"town":"小谷美濃山町","koaza":"","lat":35.454545,"lng":136.260724,"zip":"5290311"},{"town":"小谷丁野町","koaza":"","lat":35.459866,"lng":136.256216,"zip":"5290304"},{"town":"落合町","koaza":"","lat":35.414474,"lng":136.234087,"zip":"5260102"},{"town":"大路町","koaza":"","lat":35.419373,"lng":136.300273,"zip":"5260243"},{"town":"小野寺町","koaza":"","lat":35.427204,"lng":136.346999,"zip":"5260221"},{"town":"垣籠町","koaza":"","lat":35.40339,"lng":136.328035,"zip":"5260811"},{"town":"柿ノ木","koaza":"","lat":35.414337,"lng":136.247136,"zip":"5290131"},{"town":"鍛冶屋町","koaza":"","lat":35.457697,"lng":136.331009,"zip":"5260204"},{"town":"加田今町","koaza":"","lat":35.353771,"lng":136.301146,"zip":"5260827"},{"town":"加田町","koaza":"","lat":35.361199,"lng":136.297727,"zip":"5260828"},{"town":"勝町","koaza":"","lat":35.373551,"lng":136.285888,"zip":"5260042"},{"town":"鐘紡町","koaza":"","lat":35.380808,"lng":136.258538,"zip":"5260068"},{"town":"加納町","koaza":"","lat":35.395745,"lng":136.299741,"zip":"5260804"},{"town":"神照町","koaza":"","lat":35.396305,"lng":136.273575,"zip":"5260015"},{"town":"上八木町","koaza":"","lat":35.418327,"lng":136.226062,"zip":"5260122"},{"town":"唐国町","koaza":"","lat":35.420163,"lng":136.245259,"zip":"5290101"},{"town":"川崎町","koaza":"","lat":35.392147,"lng":136.284203,"zip":"5260846"},{"town":"川道町","koaza":"","lat":35.397038,"lng":136.234355,"zip":"5260111"},{"town":"木尾町","koaza":"","lat":35.44572,"lng":136.309567,"zip":"5260265"},{"town":"祇園町","koaza":"","lat":35.386346,"lng":136.255129,"zip":"5260061"},{"town":"北池町","koaza":"","lat":35.421578,"lng":136.337987,"zip":"5260231"},{"town":"北ノ郷町","koaza":"","lat":35.434385,"lng":136.330969,"zip":"5260214"},{"town":"北野町","koaza":"","lat":35.464723,"lng":136.2916,"zip":"5260272"},{"town":"北船町","koaza":"","lat":35.377752,"lng":136.265976,"zip":"5260057"},{"town":"木之本町赤尾","koaza":"","lat":35.484336,"lng":136.203409,"zip":"5290435"},{"town":"木之本町石道","koaza":"","lat":35.502005,"lng":136.266323,"zip":"5290412"},{"town":"木之本町大音","koaza":"","lat":35.502928,"lng":136.197321,"zip":"5290431"},{"town":"木之本町大見","koaza":"","lat":35.534513,"lng":136.238939,"zip":"5290415"},{"town":"木之本町音羽","koaza":"","lat":35.540039,"lng":136.258079,"zip":"5290403"},{"town":"木之本町金居原","koaza":"","lat":35.580873,"lng":136.299609,"zip":"5290401"},{"town":"木之本町川合","koaza":"","lat":35.52258,"lng":136.243992,"zip":"5290414"},{"town":"木之本町北布施","koaza":"","lat":35.491069,"lng":136.20222,"zip":"5290434"},{"town":"木之本町木之本","koaza":"","lat":35.512487,"lng":136.230536,"zip":"5290425"},{"town":"木之本町黒田","koaza":"","lat":35.513572,"lng":136.2136,"zip":"5290426"},{"town":"木之本町小山","koaza":"","lat":35.497596,"lng":136.256756,"zip":"5290413"},{"town":"木之本町杉野","koaza":"","lat":35.568383,"lng":136.26066,"zip":"5290402"},{"town":"木之本町杉本","koaza":"","lat":35.555943,"lng":136.251653,"zip":"5290404"},{"town":"木之本町千田","koaza":"","lat":35.493917,"lng":136.225626,"zip":"5290423"},{"town":"木之本町田居","koaza":"","lat":35.501383,"lng":136.204756,"zip":"5290432"},{"town":"木之本町田部","koaza":"","lat":35.502167,"lng":136.234252,"zip":"5290422"},{"town":"木之本町西山","koaza":"","lat":35.496171,"lng":136.204177,"zip":"5290433"},{"town":"木之本町飯浦","koaza":"","lat":35.506612,"lng":136.183884,"zip":"5290541"},{"town":"木之本町廣瀬","koaza":"","lat":35.499597,"lng":136.225607,"zip":"5290424"},{"town":"木之本町古橋","koaza":"","lat":35.518541,"lng":136.269389,"zip":"5290411"},{"town":"木之本町山梨子","koaza":"","lat":35.493986,"lng":136.193843,"zip":"5290436"},{"town":"草野町","koaza":"","lat":35.471274,"lng":136.318546,"zip":"5260202"},{"town":"国友町","koaza":"","lat":35.411657,"lng":136.28204,"zip":"5260001"},{"town":"口分田町","koaza":"","lat":35.39898,"lng":136.2865,"zip":"5260014"},{"town":"黒部町","koaza":"","lat":35.460719,"lng":136.301382,"zip":"5260262"},{"town":"小一条町","koaza":"","lat":35.34741,"lng":136.3134,"zip":"5260826"},{"town":"公園町","koaza":"","lat":35.378666,"lng":136.261562,"zip":"5260065"},{"town":"香花寺町","koaza":"","lat":35.426622,"lng":136.230365,"zip":"5260132"},{"town":"郷野町","koaza":"","lat":35.462063,"lng":136.322426,"zip":"5260206"},{"town":"小観音寺町","koaza":"","lat":35.426289,"lng":136.239026,"zip":"5260134"},{"town":"小沢町","koaza":"","lat":35.406057,"lng":136.271034,"zip":"5260004"},{"town":"湖北今町","koaza":"","lat":35.450564,"lng":136.230385,"zip":"5290333"},{"town":"湖北高田町","koaza":"","lat":35.440209,"lng":136.237237,"zip":"5290342"},{"town":"湖北町青名","koaza":"","lat":35.454368,"lng":136.236109,"zip":"5290332"},{"town":"湖北町石川","koaza":"","lat":35.451355,"lng":136.204583,"zip":"5290361"},{"town":"湖北町伊部","koaza":"","lat":35.452696,"lng":136.273506,"zip":"5290313"},{"town":"湖北町今西","koaza":"","lat":35.442901,"lng":136.193939,"zip":"5290365"},{"town":"湖北町海老江","koaza":"","lat":35.426925,"lng":136.203922,"zip":"5290367"},{"town":"湖北町延勝寺","koaza":"","lat":35.433707,"lng":136.202558,"zip":"5290366"},{"town":"湖北町小倉","koaza":"","lat":35.435171,"lng":136.240681,"zip":"5290343"},{"town":"湖北町尾上","koaza":"","lat":35.448682,"lng":136.189847,"zip":"5290364"},{"town":"湖北町賀","koaza":"","lat":35.437289,"lng":136.248774,"zip":"5290321"},{"town":"湖北町河毛","koaza":"","lat":35.445155,"lng":136.25421,"zip":"5290316"},{"town":"湖北町小今","koaza":"","lat":35.431012,"lng":136.250872,"zip":"5290322"},{"town":"湖北町五坪","koaza":"","lat":35.441817,"lng":136.223933,"zip":"5290352"},{"town":"湖北町沢","koaza":"","lat":35.45338,"lng":136.227949,"zip":"5290334"},{"town":"湖北町大安寺","koaza":"","lat":35.431968,"lng":136.232859,"zip":"5290345"},{"town":"湖北町田中","koaza":"","lat":35.437087,"lng":136.221394,"zip":"5290353"},{"town":"湖北町津里","koaza":"","lat":35.446041,"lng":136.202361,"zip":"5290362"},{"town":"湖北町留目","koaza":"","lat":35.441027,"lng":136.271858,"zip":"5290314"},{"town":"湖北町猫口","koaza":"","lat":35.455144,"lng":136.230632,"zip":"5290335"},{"town":"湖北町速水","koaza":"","lat":35.445861,"lng":136.236492,"zip":"5290341"},{"town":"湖北町二俣","koaza":"","lat":35.463177,"lng":136.251537,"zip":"5290303"},{"town":"湖北町別所","koaza":"","lat":35.443887,"lng":136.267897,"zip":"5290315"},{"town":"湖北町南速水","koaza":"","lat":35.433094,"lng":136.227382,"zip":"5290346"},{"town":"湖北町馬渡","koaza":"","lat":35.426745,"lng":136.241449,"zip":"5290344"},{"town":"湖北町山本","koaza":"","lat":35.442248,"lng":136.21434,"zip":"5290354"},{"town":"湖北町山脇","koaza":"","lat":35.451913,"lng":136.252222,"zip":"5290317"},{"town":"湖北町八日市","koaza":"","lat":35.456208,"lng":136.240754,"zip":"5290331"},{"town":"湖北東尾上町","koaza":"","lat":35.448556,"lng":136.195694,"zip":"5290363"},{"town":"小堀町","koaza":"","lat":35.386453,"lng":136.287827,"zip":"5260845"},{"town":"五村","koaza":"","lat":35.42128,"lng":136.262767,"zip":"5290141"},{"town":"小室町","koaza":"","lat":35.461078,"lng":136.310216,"zip":"5260263"},{"town":"桜町","koaza":"","lat":35.41628,"lng":136.255919,"zip":"5290121"},{"town":"佐野町","koaza":"","lat":35.418559,"lng":136.344693,"zip":"5260235"},{"town":"三和町","koaza":"","lat":35.375246,"lng":136.272247,"zip":"5260055"},{"town":"七条町","koaza":"","lat":35.386638,"lng":136.311319,"zip":"5260817"},{"town":"地福寺町","koaza":"","lat":35.375668,"lng":136.276903,"zip":"5260036"},{"town":"下坂中町","koaza":"","lat":35.366671,"lng":136.290025,"zip":"5260044"},{"town":"下坂浜町","koaza":"","lat":35.36715,"lng":136.276715,"zip":"5260047"},{"town":"下之郷町","koaza":"","lat":35.407192,"lng":136.265143,"zip":"5260005"},{"town":"下八木町","koaza":"","lat":35.410942,"lng":136.218751,"zip":"5260123"},{"town":"下山田","koaza":"","lat":35.470295,"lng":136.261221,"zip":"5290302"},{"town":"十里町","koaza":"","lat":35.393856,"lng":136.263,"zip":"5260016"},{"town":"十九町","koaza":"","lat":35.421442,"lng":136.225025,"zip":"5260121"},{"town":"常喜町","koaza":"","lat":35.366529,"lng":136.314653,"zip":"5260823"},{"town":"新旭町","koaza":"","lat":35.421027,"lng":136.249525,"zip":"5290133"},{"town":"新庄寺町","koaza":"","lat":35.402684,"lng":136.275356,"zip":"5260013"},{"town":"新庄中町","koaza":"","lat":35.398674,"lng":136.262637,"zip":"5260012"},{"town":"新庄馬場町","koaza":"","lat":35.401505,"lng":136.262619,"zip":"5260011"},{"town":"神前町","koaza":"","lat":35.384495,"lng":136.272343,"zip":"5260052"},{"town":"酢","koaza":"","lat":35.415012,"lng":136.250283,"zip":"5290122"},{"town":"末広町","koaza":"","lat":35.38377,"lng":136.259916,"zip":"5260063"},{"town":"須賀谷町","koaza":"","lat":35.454723,"lng":136.281139,"zip":"5260277"},{"town":"相撲町","koaza":"","lat":35.39116,"lng":136.253146,"zip":"5260017"},{"town":"相撲庭町","koaza":"","lat":35.411141,"lng":136.352891,"zip":"5260234"},{"town":"曽根町","koaza":"","lat":35.408157,"lng":136.252079,"zip":"5260103"},{"town":"尊勝寺町","koaza":"","lat":35.439181,"lng":136.283821,"zip":"5260256"},{"town":"尊野町","koaza":"","lat":35.432296,"lng":136.284232,"zip":"5260254"},{"town":"大光寺町","koaza":"","lat":35.439883,"lng":136.228898,"zip":"5290351"},{"town":"醍醐町","koaza":"","lat":35.435731,"lng":136.349735,"zip":"5260213"},{"town":"大寺町","koaza":"","lat":35.429983,"lng":136.263044,"zip":"5290144"},{"town":"大門町","koaza":"","lat":35.441466,"lng":136.323587,"zip":"5260216"},{"town":"高田町","koaza":"","lat":35.37988,"lng":136.273297,"zip":"5260037"},{"town":"高月町雨森","koaza":"","lat":35.486563,"lng":136.246765,"zip":"5290222"},{"town":"高月町磯野","koaza":"","lat":35.478713,"lng":136.210283,"zip":"5290203"},{"town":"高月町井口","koaza":"","lat":35.488231,"lng":136.234757,"zip":"5290212"},{"town":"高月町宇根","koaza":"","lat":35.45969,"lng":136.231414,"zip":"5290251"},{"town":"高月町落川","koaza":"","lat":35.472276,"lng":136.241452,"zip":"5290232"},{"town":"高月町尾山","koaza":"","lat":35.498639,"lng":136.246333,"zip":"5290215"},{"town":"高月町柏原","koaza":"","lat":35.478755,"lng":136.23814,"zip":"5290234"},{"town":"高月町片山","koaza":"","lat":35.469983,"lng":136.145413,"zip":"5290272"},{"town":"高月町唐川","koaza":"","lat":35.491115,"lng":136.21737,"zip":"5290205"},{"town":"高月町熊野","koaza":"","lat":35.460373,"lng":136.204383,"zip":"5290271"},{"town":"高月町重則","koaza":"","lat":35.47131,"lng":136.209781,"zip":"5290275"},{"town":"高月町高月","koaza":"","lat":35.466628,"lng":136.2319,"zip":"5290241"},{"town":"高月町高野","koaza":"","lat":35.491138,"lng":136.265034,"zip":"5290221"},{"town":"高月町渡岸寺","koaza":"","lat":35.474961,"lng":136.237822,"zip":"5290233"},{"town":"高月町西阿閉","koaza":"","lat":35.455537,"lng":136.213448,"zip":"5290253"},{"town":"高月町西野","koaza":"","lat":35.472804,"lng":136.199591,"zip":"5290273"},{"town":"高月町西物部","koaza":"","lat":35.474939,"lng":136.222611,"zip":"5290262"},{"town":"高月町西柳野","koaza":"","lat":35.465353,"lng":136.209018,"zip":"5290265"},{"town":"高月町東阿閉","koaza":"","lat":35.459019,"lng":136.221436,"zip":"5290252"},{"town":"高月町東高田","koaza":"","lat":35.487657,"lng":136.213439,"zip":"5290202"},{"town":"高月町東物部","koaza":"","lat":35.478238,"lng":136.226358,"zip":"5290261"},{"town":"高月町東柳野","koaza":"","lat":35.470503,"lng":136.217499,"zip":"5290263"},{"town":"高月町布施","koaza":"","lat":35.488002,"lng":136.210109,"zip":"5290204"},{"town":"高月町保延寺","koaza":"","lat":35.493585,"lng":136.245885,"zip":"5290211"},{"town":"高月町洞戸","koaza":"","lat":35.498806,"lng":136.239594,"zip":"5290214"},{"town":"高月町馬上","koaza":"","lat":35.475996,"lng":136.24994,"zip":"5290223"},{"town":"高月町松尾","koaza":"","lat":35.474506,"lng":136.207418,"zip":"5290274"},{"town":"高月町持寺","koaza":"","lat":35.492843,"lng":136.239684,"zip":"5290213"},{"town":"高月町森本","koaza":"","lat":35.467274,"lng":136.240511,"zip":"5290231"},{"town":"高月町柳野中","koaza":"","lat":35.466608,"lng":136.213894,"zip":"5290264"},{"town":"高月町横山","koaza":"","lat":35.483609,"lng":136.223423,"zip":"5290201"},{"town":"高橋町","koaza":"","lat":35.36222,"lng":136.280463,"zip":"5260046"},{"town":"高畑町","koaza":"","lat":35.452452,"lng":136.29356,"zip":"5260273"},{"town":"高山町","koaza":"","lat":35.51172,"lng":136.313082,"zip":"5260201"},{"town":"田川町","koaza":"","lat":35.446067,"lng":136.283675,"zip":"5260276"},{"town":"田町","koaza":"","lat":35.422194,"lng":136.256723,"zip":"5290142"},{"town":"谷口町","koaza":"","lat":35.48175,"lng":136.288819,"zip":"5260271"},{"town":"田村町","koaza":"","lat":35.355647,"lng":136.284562,"zip":"5260829"},{"town":"千草町","koaza":"","lat":35.410671,"lng":136.310393,"zip":"5260801"},{"town":"月ヶ瀬町","koaza":"","lat":35.42608,"lng":136.250991,"zip":"5290102"},{"town":"寺師町","koaza":"","lat":35.485227,"lng":136.301287,"zip":"5260209"},{"town":"寺田町","koaza":"","lat":35.362394,"lng":136.286097,"zip":"5260045"},{"town":"当目町","koaza":"","lat":35.441303,"lng":136.327914,"zip":"5260215"},{"town":"徳山町","koaza":"","lat":35.444593,"lng":136.342574,"zip":"5260212"},{"town":"殿町","koaza":"","lat":35.382106,"lng":136.261876,"zip":"5260064"},{"town":"鳥羽上町","koaza":"","lat":35.373573,"lng":136.328272,"zip":"5260822"},{"town":"富田町","koaza":"","lat":35.428071,"lng":136.223328,"zip":"5260131"},{"town":"長田町","koaza":"","lat":35.416823,"lng":136.246262,"zip":"5290132"},{"town":"中野町","koaza":"","lat":35.436805,"lng":136.25936,"zip":"5290103"},{"town":"中山町","koaza":"","lat":35.389127,"lng":136.272547,"zip":"5260022"},{"town":"名越町","koaza":"","lat":35.360143,"lng":136.317515,"zip":"5260824"},{"town":"南郷町","koaza":"","lat":35.433084,"lng":136.326923,"zip":"5260225"},{"town":"難波町","koaza":"","lat":35.408588,"lng":136.241038,"zip":"5260108"},{"town":"新栄町","koaza":"","lat":35.3934,"lng":136.307425,"zip":"5260841"},{"town":"西浅井町大浦","koaza":"","lat":35.48237,"lng":136.106608,"zip":"5290721"},{"town":"西浅井町小山","koaza":"","lat":35.49876,"lng":136.133626,"zip":"5290714"},{"town":"西浅井町沓掛","koaza":"","lat":35.56326,"lng":136.128862,"zip":"5290708"},{"town":"西浅井町黒山","koaza":"","lat":35.497646,"lng":136.10883,"zip":"5290725"},{"town":"西浅井町塩津中","koaza":"","lat":35.530399,"lng":136.153669,"zip":"5290704"},{"town":"西浅井町塩津浜","koaza":"","lat":35.514966,"lng":136.171471,"zip":"5290701"},{"town":"西浅井町集福寺","koaza":"","lat":35.557078,"lng":136.159354,"zip":"5290707"},{"town":"西浅井町庄","koaza":"","lat":35.512761,"lng":136.121422,"zip":"5290722"},{"town":"西浅井町菅浦","koaza":"","lat":35.455888,"lng":136.146236,"zip":"5290726"},{"town":"西浅井町月出","koaza":"","lat":35.497095,"lng":136.158735,"zip":"5290712"},{"town":"西浅井町中","koaza":"","lat":35.520695,"lng":136.111921,"zip":"5290723"},{"town":"西浅井町野坂","koaza":"","lat":35.532902,"lng":136.164729,"zip":"5290703"},{"town":"西浅井町八田部","koaza":"","lat":35.5048,"lng":136.146119,"zip":"5290713"},{"town":"西浅井町祝山","koaza":"","lat":35.528178,"lng":136.170336,"zip":"5290702"},{"town":"西浅井町岩熊","koaza":"","lat":35.514261,"lng":136.152595,"zip":"5290711"},{"town":"西浅井町山門","koaza":"","lat":35.539361,"lng":136.121723,"zip":"5290724"},{"town":"西浅井町山田","koaza":"","lat":35.492507,"lng":136.145185,"zip":"5290715"},{"town":"西浅井町余","koaza":"","lat":35.540692,"lng":136.153795,"zip":"5290706"},{"town":"西浅井町横波","koaza":"","lat":35.52503,"lng":136.142331,"zip":"5290705"},{"town":"西大井町","koaza":"","lat":35.417997,"lng":136.260017,"zip":"5290123"},{"town":"西主計町","koaza":"","lat":35.42713,"lng":136.316994,"zip":"5260227"},{"town":"西上坂町","koaza":"","lat":35.403437,"lng":136.31043,"zip":"5260803"},{"town":"錦織町","koaza":"","lat":35.416298,"lng":136.240437,"zip":"5260101"},{"town":"西野町","koaza":"","lat":35.436433,"lng":136.274599,"zip":"5260255"},{"town":"西村町","koaza":"","lat":35.473065,"lng":136.307178,"zip":"5260208"},{"town":"新居町","koaza":"","lat":35.407444,"lng":136.233105,"zip":"5260107"},{"town":"乗倉町","koaza":"","lat":35.437554,"lng":136.32006,"zip":"5260217"},{"town":"野瀬町","koaza":"","lat":35.472819,"lng":136.328252,"zip":"5260203"},{"town":"野田町","koaza":"","lat":35.451201,"lng":136.300031,"zip":"5260266"},{"town":"野寺町","koaza":"","lat":35.403163,"lng":136.230467,"zip":"5260106"},{"town":"野村町","koaza":"","lat":35.419254,"lng":136.323396,"zip":"5260236"},{"town":"八条町","koaza":"","lat":35.380256,"lng":136.316099,"zip":"5260815"},{"town":"早崎町","koaza":"","lat":35.415428,"lng":136.210686,"zip":"5260124"},{"town":"春近町","koaza":"","lat":35.397325,"lng":136.317466,"zip":"5260842"},{"town":"東主計町","koaza":"","lat":35.428957,"lng":136.323329,"zip":"5260226"},{"town":"東上坂町","koaza":"","lat":35.407643,"lng":136.325308,"zip":"5260802"},{"town":"東野町","koaza":"","lat":35.434777,"lng":136.338887,"zip":"5260224"},{"town":"平方町","koaza":"","lat":35.371325,"lng":136.273874,"zip":"5260033"},{"town":"平方南町","koaza":"","lat":35.371356,"lng":136.280116,"zip":"5260035"},{"town":"平塚町","koaza":"","lat":35.435283,"lng":136.288377,"zip":"5260253"},{"town":"布勢町","koaza":"","lat":35.351942,"lng":136.317893,"zip":"5260825"},{"town":"分木町","koaza":"","lat":35.388982,"lng":136.26787,"zip":"5260025"},{"town":"保田町","koaza":"","lat":35.405573,"lng":136.289183,"zip":"5260002"},{"town":"法楽寺町","koaza":"","lat":35.427332,"lng":136.331658,"zip":"5260223"},{"town":"細江町","koaza":"","lat":35.394639,"lng":136.244808,"zip":"5260105"},{"town":"保多町","koaza":"","lat":35.39924,"lng":136.327192,"zip":"5260812"},{"town":"堀部町","koaza":"","lat":35.394029,"lng":136.325222,"zip":"5260813"},{"town":"本庄町","koaza":"","lat":35.373602,"lng":136.312681,"zip":"5260821"},{"town":"益田町","koaza":"","lat":35.423788,"lng":136.216415,"zip":"5260125"},{"town":"三川町","koaza":"","lat":35.431321,"lng":136.27355,"zip":"5290111"},{"town":"三田町","koaza":"","lat":35.42019,"lng":136.312712,"zip":"5260242"},{"town":"三ツ矢町","koaza":"","lat":35.386297,"lng":136.269732,"zip":"5260023"},{"town":"三ツ矢元町","koaza":"","lat":35.386459,"lng":136.265491,"zip":"5260024"},{"town":"港町","koaza":"","lat":35.374318,"lng":136.265247,"zip":"5260067"},{"town":"南池町","koaza":"","lat":35.418022,"lng":136.333995,"zip":"5260232"},{"town":"南小足町","koaza":"","lat":35.391585,"lng":136.31043,"zip":"5260843"},{"town":"南呉服町","koaza":"","lat":35.381128,"lng":136.264241,"zip":"5260058"},{"town":"南高田町","koaza":"","lat":35.378931,"lng":136.278522,"zip":"5260032"},{"town":"南田附町","koaza":"","lat":35.387777,"lng":136.300185,"zip":"5260844"},{"town":"南浜町","koaza":"","lat":35.39192,"lng":136.223913,"zip":"5260113"},{"town":"宮司町","koaza":"","lat":35.381766,"lng":136.29283,"zip":"5260831"},{"town":"宮部町","koaza":"","lat":35.419668,"lng":136.279685,"zip":"5290112"},{"town":"宮前町","koaza":"","lat":35.383643,"lng":136.274336,"zip":"5260053"},{"town":"室町","koaza":"","lat":35.376462,"lng":136.292132,"zip":"5260835"},{"town":"元浜町","koaza":"","lat":35.38206,"lng":136.268039,"zip":"5260059"},{"town":"森町","koaza":"","lat":35.399136,"lng":136.255955,"zip":"5260018"},{"town":"八木浜町","koaza":"","lat":35.404444,"lng":136.220059,"zip":"5260116"},{"town":"八島町","koaza":"","lat":35.43874,"lng":136.299121,"zip":"5260252"},{"town":"弥高町","koaza":"","lat":35.372974,"lng":136.27897,"zip":"5260034"},{"town":"山階町","koaza":"","lat":35.39338,"lng":136.289933,"zip":"5260847"},{"town":"山ノ前町","koaza":"","lat":35.441364,"lng":136.279912,"zip":"5260257"},{"town":"八幡中山町","koaza":"","lat":35.390673,"lng":136.273752,"zip":"5260021"},{"town":"八幡東町","koaza":"","lat":35.384059,"lng":136.280435,"zip":"5260031"},{"town":"弓削町","koaza":"","lat":35.420775,"lng":136.231561,"zip":"5260135"},{"town":"湯次町","koaza":"","lat":35.42588,"lng":136.282583,"zip":"5260245"},{"town":"余呉町池原","koaza":"","lat":35.559613,"lng":136.17935,"zip":"5290536"},{"town":"余呉町今市","koaza":"","lat":35.561694,"lng":136.200434,"zip":"5290535"},{"town":"余呉町小谷","koaza":"","lat":35.572535,"lng":136.186789,"zip":"5290534"},{"town":"余呉町奥川並","koaza":"","lat":35.626162,"lng":136.258766,"zip":"5290503"},{"town":"余呉町尾羽梨","koaza":"","lat":35.654699,"lng":136.247853,"zip":"5290502"},{"town":"余呉町小原","koaza":"","lat":35.611577,"lng":136.22295,"zip":"5290505"},{"town":"余呉町上丹生","koaza":"","lat":35.575548,"lng":136.231935,"zip":"5290512"},{"town":"余呉町川並","koaza":"","lat":35.520854,"lng":136.185812,"zip":"5290523"},{"town":"余呉町国安","koaza":"","lat":35.550966,"lng":136.185061,"zip":"5290526"},{"town":"余呉町坂口","koaza":"","lat":35.527049,"lng":136.215464,"zip":"5290522"},{"town":"余呉町下丹生","koaza":"","lat":35.552049,"lng":136.23193,"zip":"5290514"},{"town":"余呉町下余呉","koaza":"","lat":35.531156,"lng":136.207239,"zip":"5290521"},{"town":"余呉町新堂","koaza":"","lat":35.56202,"lng":136.193438,"zip":"5290537"},{"town":"余呉町菅並","koaza":"","lat":35.596889,"lng":136.22987,"zip":"5290511"},{"town":"余呉町摺墨","koaza":"","lat":35.582669,"lng":136.203991,"zip":"5290513"},{"town":"余呉町田戸","koaza":"","lat":35.619982,"lng":136.228401,"zip":"5290504"},{"town":"余呉町椿坂","koaza":"","lat":35.622904,"lng":136.172498,"zip":"5290532"},{"town":"余呉町中河内","koaza":"","lat":35.669414,"lng":136.163226,"zip":"5290531"},{"town":"余呉町中之郷","koaza":"","lat":35.545812,"lng":136.211932,"zip":"5290515"},{"town":"余呉町針川","koaza":"","lat":35.667904,"lng":136.217652,"zip":"5290501"},{"town":"余呉町東野","koaza":"","lat":35.55363,"lng":136.202548,"zip":"5290527"},{"town":"余呉町文室","koaza":"","lat":35.539163,"lng":136.181583,"zip":"5290525"},{"town":"余呉町八戸","koaza":"","lat":35.536715,"lng":136.192159,"zip":"5290524"},{"town":"余呉町柳ケ瀬","koaza":"","lat":35.596553,"lng":136.188265,"zip":"5290533"},{"town":"余呉町鷲見","koaza":"","lat":35.630094,"lng":136.199467,"zip":"5290506"},{"town":"四ツ塚町","koaza":"","lat":35.374198,"lng":136.281732,"zip":"5260041"},{"town":"力丸町","koaza":"","lat":35.456461,"lng":136.29704,"zip":"5260267"},{"town":"竜安寺町","koaza":"","lat":35.465943,"lng":136.299753,"zip":"5260261"},{"town":"列見町","koaza":"","lat":35.388101,"lng":136.261962,"zip":"5260062"},{"town":"木之本町木之本","koaza":"五位","lat":35.503872,"lng":136.220424,"zip":"5290425"},{"town":"八幡東町","koaza":"下正号寺","lat":35.38277,"lng":136.282264,"zip":"5260031"},{"town":"川崎町","koaza":"羽織町","lat":35.393791,"lng":136.283779,"zip":"5260846"},{"town":"南高田町","koaza":"辻村","lat":35.37952,"lng":136.285721,"zip":"5260032"},{"town":"宮司町","koaza":"辻村","lat":35.379985,"lng":136.286361,"zip":"5260831"},{"town":"内保町","koaza":"下三双","lat":35.428046,"lng":136.302135,"zip":"5260244"}]