[{"town":"安曇川町青柳","koaza":"","lat":35.329925,"lng":136.034823,"zip":"5201221"},{"town":"安曇川町上小川","koaza":"","lat":35.322035,"lng":136.028074,"zip":"5201224"},{"town":"安曇川町上古賀","koaza":"","lat":35.380182,"lng":135.963103,"zip":"5201201"},{"town":"安曇川町川島","koaza":"","lat":35.327431,"lng":136.049418,"zip":"5201231"},{"town":"安曇川町北船木","koaza":"","lat":35.32706,"lng":136.070114,"zip":"5201232"},{"town":"安曇川町五番領","koaza":"","lat":35.337408,"lng":136.018198,"zip":"5201213"},{"town":"安曇川町下小川","koaza":"","lat":35.313518,"lng":136.037104,"zip":"5201223"},{"town":"安曇川町下古賀","koaza":"","lat":35.361165,"lng":136.001618,"zip":"5201202"},{"town":"安曇川町末広一丁目","koaza":"","lat":35.329341,"lng":136.021345,"zip":"5201214"},{"town":"安曇川町末広二丁目","koaza":"","lat":35.328623,"lng":136.022671,"zip":"5201214"},{"town":"安曇川町末広三丁目","koaza":"","lat":35.326773,"lng":136.022431,"zip":"5201214"},{"town":"安曇川町末広四丁目","koaza":"","lat":35.327036,"lng":136.020676,"zip":"5201214"},{"town":"安曇川町田中","koaza":"","lat":35.331827,"lng":135.999695,"zip":"5201217"},{"town":"安曇川町中央一丁目","koaza":"","lat":35.329623,"lng":136.019007,"zip":"5201216"},{"town":"安曇川町中央二丁目","koaza":"","lat":35.327186,"lng":136.018527,"zip":"5201216"},{"town":"安曇川町中央三丁目","koaza":"","lat":35.327633,"lng":136.016275,"zip":"5201216"},{"town":"安曇川町中央四丁目","koaza":"","lat":35.329862,"lng":136.017313,"zip":"5201216"},{"town":"安曇川町常磐木","koaza":"","lat":35.343484,"lng":136.015977,"zip":"5201211"},{"town":"安曇川町長尾","koaza":"","lat":35.353645,"lng":135.957531,"zip":"5201205"},{"town":"安曇川町中野","koaza":"","lat":35.347359,"lng":135.970786,"zip":"5201204"},{"town":"安曇川町西万木","koaza":"","lat":35.33145,"lng":136.027222,"zip":"5201212"},{"town":"安曇川町三尾里","koaza":"","lat":35.323791,"lng":136.015734,"zip":"5201215"},{"town":"安曇川町南古賀","koaza":"","lat":35.345559,"lng":135.993816,"zip":"5201203"},{"town":"安曇川町南船木","koaza":"","lat":35.318813,"lng":136.064745,"zip":"5201233"},{"town":"安曇川町横江","koaza":"","lat":35.321706,"lng":136.043338,"zip":"5201222"},{"town":"安曇川町横江浜","koaza":"","lat":35.306438,"lng":136.047359,"zip":"5201235"},{"town":"安曇川町四津川","koaza":"","lat":35.311211,"lng":136.048819,"zip":"5201234"},{"town":"今津町天増川","koaza":"","lat":35.479467,"lng":135.934752,"zip":"5201647"},{"town":"今津町今津","koaza":"","lat":35.398608,"lng":136.035149,"zip":"5201621"},{"town":"今津町梅原","koaza":"","lat":35.426475,"lng":135.972507,"zip":"5201654"},{"town":"今津町大供","koaza":"","lat":35.395006,"lng":136.01176,"zip":"5201635"},{"town":"今津町大供大門一丁目","koaza":"","lat":35.399766,"lng":136.026156,"zip":"5201634"},{"town":"今津町大供大門二丁目","koaza":"","lat":35.397625,"lng":136.025763,"zip":"5201634"},{"town":"今津町桂","koaza":"","lat":35.428566,"lng":136.026553,"zip":"5201602"},{"town":"今津町上弘部","koaza":"","lat":35.403747,"lng":135.998306,"zip":"5201613"},{"town":"今津町岸脇","koaza":"","lat":35.416395,"lng":136.006419,"zip":"5201653"},{"town":"今津町北生見","koaza":"","lat":35.404581,"lng":135.970728,"zip":"5201642"},{"town":"今津町北仰","koaza":"","lat":35.42518,"lng":136.036697,"zip":"5201603"},{"town":"今津町桜町一丁目","koaza":"","lat":35.399597,"lng":136.028471,"zip":"5201632"},{"town":"今津町桜町二丁目","koaza":"","lat":35.398397,"lng":136.029118,"zip":"5201632"},{"town":"今津町酒波","koaza":"","lat":35.438834,"lng":135.999765,"zip":"5201651"},{"town":"今津町下弘部","koaza":"","lat":35.404966,"lng":136.011665,"zip":"5201612"},{"town":"今津町松陽台一丁目","koaza":"","lat":35.396733,"lng":136.028079,"zip":"5201633"},{"town":"今津町松陽台二丁目","koaza":"","lat":35.393273,"lng":136.027996,"zip":"5201633"},{"town":"今津町杉山","koaza":"","lat":35.433825,"lng":135.9282,"zip":"5201646"},{"town":"今津町住吉一丁目","koaza":"","lat":35.40109,"lng":136.034303,"zip":"5201623"},{"town":"今津町住吉二丁目","koaza":"","lat":35.401407,"lng":136.031951,"zip":"5201623"},{"town":"今津町角川","koaza":"","lat":35.449133,"lng":135.949567,"zip":"5201648"},{"town":"今津町途中谷","koaza":"","lat":35.392559,"lng":135.920742,"zip":"5201644"},{"town":"今津町中沼一丁目","koaza":"","lat":35.398586,"lng":136.033615,"zip":"5201622"},{"town":"今津町中沼二丁目","koaza":"","lat":35.397012,"lng":136.033213,"zip":"5201622"},{"town":"今津町名小路一丁目","koaza":"","lat":35.399147,"lng":136.031569,"zip":"5201631"},{"town":"今津町名小路二丁目","koaza":"","lat":35.397568,"lng":136.031356,"zip":"5201631"},{"town":"今津町浜分","koaza":"","lat":35.414546,"lng":136.039567,"zip":"5201604"},{"town":"今津町日置前","koaza":"","lat":35.463095,"lng":135.974334,"zip":"5201655"},{"town":"今津町弘川","koaza":"","lat":35.41008,"lng":136.026504,"zip":"5201611"},{"town":"今津町深清水","koaza":"","lat":35.450745,"lng":136.006811,"zip":"5201601"},{"town":"今津町福岡","koaza":"","lat":35.417619,"lng":136.023668,"zip":"5201652"},{"town":"今津町舟橋一丁目","koaza":"","lat":35.402742,"lng":136.02958,"zip":"5201636"},{"town":"今津町舟橋二丁目","koaza":"","lat":35.40144,"lng":136.029033,"zip":"5201636"},{"town":"今津町保坂","koaza":"","lat":35.409834,"lng":135.946606,"zip":"5201643"},{"town":"今津町南生見","koaza":"","lat":35.399067,"lng":135.976373,"zip":"5201641"},{"town":"今津町南新保","koaza":"","lat":35.409448,"lng":136.038288,"zip":"5201605"},{"town":"今津町椋川","koaza":"","lat":35.403838,"lng":135.908317,"zip":"5201645"},{"town":"今津町藺生","koaza":"","lat":35.404139,"lng":135.988475,"zip":"5201614"},{"town":"鵜川","koaza":"","lat":35.276893,"lng":135.98746,"zip":"5201122"},{"town":"音羽","koaza":"","lat":35.295083,"lng":135.9915,"zip":"5201131"},{"town":"勝野","koaza":"","lat":35.292926,"lng":136.002547,"zip":"5201121"},{"town":"鴨","koaza":"","lat":35.313827,"lng":136.018133,"zip":"5201111"},{"town":"鴨川平一丁目","koaza":"","lat":35.311487,"lng":135.991355,"zip":"5201133"},{"town":"鴨川平二丁目","koaza":"","lat":35.311348,"lng":135.992665,"zip":"5201133"},{"town":"鴨川平三丁目","koaza":"","lat":35.311485,"lng":135.994026,"zip":"5201133"},{"town":"朽木麻生","koaza":"","lat":35.388227,"lng":135.846548,"zip":"5201451"},{"town":"朽木荒川","koaza":"","lat":35.371828,"lng":135.939365,"zip":"5201411"},{"town":"朽木市場","koaza":"","lat":35.358534,"lng":135.915808,"zip":"5201401"},{"town":"朽木岩瀬","koaza":"","lat":35.337568,"lng":135.88971,"zip":"5201421"},{"town":"朽木雲洞谷","koaza":"","lat":35.335676,"lng":135.866773,"zip":"5201453"},{"town":"朽木生杉","koaza":"","lat":35.356166,"lng":135.781133,"zip":"5201442"},{"town":"朽木大野","koaza":"","lat":35.321056,"lng":135.908206,"zip":"5201423"},{"town":"朽木小入谷","koaza":"","lat":35.373029,"lng":135.794068,"zip":"5201443"},{"town":"朽木柏","koaza":"","lat":35.33585,"lng":135.922654,"zip":"5201415"},{"town":"朽木桑原","koaza":"","lat":35.324827,"lng":135.812933,"zip":"5201433"},{"town":"朽木小川","koaza":"","lat":35.291526,"lng":135.840153,"zip":"5201431"},{"town":"朽木地子原","koaza":"","lat":35.355361,"lng":135.892536,"zip":"5201452"},{"town":"朽木栃生","koaza":"","lat":35.291572,"lng":135.886345,"zip":"5201425"},{"town":"朽木中牧","koaza":"","lat":35.354032,"lng":135.802311,"zip":"5201444"},{"town":"朽木能家","koaza":"","lat":35.355259,"lng":135.825833,"zip":"5201454"},{"town":"朽木野尻","koaza":"","lat":35.370671,"lng":135.921638,"zip":"5201412"},{"town":"朽木古川","koaza":"","lat":35.329228,"lng":135.893393,"zip":"5201422"},{"town":"朽木古屋","koaza":"","lat":35.339885,"lng":135.798937,"zip":"5201441"},{"town":"朽木平良","koaza":"","lat":35.308527,"lng":135.828656,"zip":"5201432"},{"town":"朽木宮前坊","koaza":"","lat":35.349085,"lng":135.933538,"zip":"5201414"},{"town":"朽木村井","koaza":"","lat":35.308449,"lng":135.895046,"zip":"5201424"},{"town":"黒谷","koaza":"","lat":35.28445,"lng":135.921749,"zip":"5201143"},{"town":"鹿ケ瀬","koaza":"","lat":35.281048,"lng":135.945186,"zip":"5201142"},{"town":"城山台一丁目","koaza":"","lat":35.292664,"lng":136.00875,"zip":"5201123"},{"town":"城山台二丁目","koaza":"","lat":35.291678,"lng":136.007629,"zip":"5201123"},{"town":"新旭町饗庭","koaza":"","lat":35.381365,"lng":136.005041,"zip":"5201531"},{"town":"新旭町旭","koaza":"","lat":35.364022,"lng":136.039389,"zip":"5201501"},{"town":"新旭町旭一丁目","koaza":"","lat":35.355289,"lng":136.033993,"zip":"5201501"},{"town":"新旭町旭二丁目","koaza":"","lat":35.358225,"lng":136.035131,"zip":"5201501"},{"town":"新旭町太田","koaza":"","lat":35.336091,"lng":136.056455,"zip":"5201512"},{"town":"新旭町北畑","koaza":"","lat":35.350515,"lng":136.040524,"zip":"5201521"},{"town":"新旭町北畑一丁目","koaza":"","lat":35.352939,"lng":136.03328,"zip":"5201521"},{"town":"新旭町北畑二丁目","koaza":"","lat":35.351296,"lng":136.032509,"zip":"5201521"},{"town":"新旭町北畑三丁目","koaza":"","lat":35.351426,"lng":136.030106,"zip":"5201521"},{"town":"新旭町熊野本","koaza":"","lat":35.36001,"lng":136.025488,"zip":"5201532"},{"town":"新旭町熊野本一丁目","koaza":"","lat":35.355661,"lng":136.030994,"zip":"5201532"},{"town":"新旭町熊野本二丁目","koaza":"","lat":35.358641,"lng":136.032056,"zip":"5201532"},{"town":"新旭町新庄","koaza":"","lat":35.344616,"lng":136.034922,"zip":"5201522"},{"town":"新旭町新庄一丁目","koaza":"","lat":35.349893,"lng":136.031846,"zip":"5201522"},{"town":"新旭町新庄二丁目","koaza":"","lat":35.349758,"lng":136.030377,"zip":"5201522"},{"town":"新旭町針江","koaza":"","lat":35.364391,"lng":136.048838,"zip":"5201502"},{"town":"新旭町深溝","koaza":"","lat":35.358188,"lng":136.057632,"zip":"5201503"},{"town":"新旭町安井川","koaza":"","lat":35.355903,"lng":136.017711,"zip":"5201533"},{"town":"新旭町安井川一丁目","koaza":"","lat":35.352875,"lng":136.030475,"zip":"5201533"},{"town":"新旭町安井川二丁目","koaza":"","lat":35.351883,"lng":136.030034,"zip":"5201533"},{"town":"新旭町藁園","koaza":"","lat":35.34524,"lng":136.056785,"zip":"5201511"},{"town":"高島","koaza":"","lat":35.304672,"lng":135.963061,"zip":"5201141"},{"town":"永田","koaza":"","lat":35.305041,"lng":136.017257,"zip":"5201112"},{"town":"野田","koaza":"","lat":35.31758,"lng":135.997438,"zip":"5201102"},{"town":"拝戸","koaza":"","lat":35.304181,"lng":135.984524,"zip":"5201132"},{"town":"畑","koaza":"","lat":35.29702,"lng":135.926414,"zip":"5201144"},{"town":"マキノ町在原","koaza":"","lat":35.517638,"lng":136.069446,"zip":"5201801"},{"town":"マキノ町石庭","koaza":"","lat":35.484752,"lng":136.00687,"zip":"5201835"},{"town":"マキノ町浦","koaza":"","lat":35.484538,"lng":136.06329,"zip":"5201804"},{"town":"マキノ町大沼","koaza":"","lat":35.442023,"lng":136.027849,"zip":"5201824"},{"town":"マキノ町海津","koaza":"","lat":35.465439,"lng":136.080899,"zip":"5201811"},{"town":"マキノ町上開田","koaza":"","lat":35.484468,"lng":136.047252,"zip":"5201831"},{"town":"マキノ町小荒路","koaza":"","lat":35.484068,"lng":136.089009,"zip":"5201803"},{"town":"マキノ町沢","koaza":"","lat":35.458903,"lng":136.036218,"zip":"5201821"},{"town":"マキノ町下","koaza":"","lat":35.497429,"lng":136.055892,"zip":"5201805"},{"town":"マキノ町下開田","koaza":"","lat":35.476293,"lng":136.056144,"zip":"5201832"},{"town":"マキノ町白谷","koaza":"","lat":35.513444,"lng":136.039679,"zip":"5201837"},{"town":"マキノ町新保","koaza":"","lat":35.450273,"lng":136.025281,"zip":"5201822"},{"town":"マキノ町高木浜一丁目","koaza":"","lat":35.460645,"lng":136.062687,"zip":"5201813"},{"town":"マキノ町高木浜二丁目","koaza":"","lat":35.45907,"lng":136.063893,"zip":"5201813"},{"town":"マキノ町知内","koaza":"","lat":35.452657,"lng":136.053088,"zip":"5201814"},{"town":"マキノ町辻","koaza":"","lat":35.469671,"lng":136.020786,"zip":"5201826"},{"town":"マキノ町寺久保","koaza":"","lat":35.473885,"lng":136.042157,"zip":"5201834"},{"town":"マキノ町中庄","koaza":"","lat":35.44236,"lng":136.039288,"zip":"5201823"},{"town":"マキノ町西浜","koaza":"","lat":35.465182,"lng":136.06289,"zip":"5201812"},{"town":"マキノ町野口","koaza":"","lat":35.513824,"lng":136.095062,"zip":"5201802"},{"town":"マキノ町蛭口","koaza":"","lat":35.46384,"lng":136.047806,"zip":"5201833"},{"town":"マキノ町牧野","koaza":"","lat":35.497524,"lng":136.029048,"zip":"5201836"},{"town":"マキノ町森西","koaza":"","lat":35.461929,"lng":136.019566,"zip":"5201825"},{"town":"マキノ町山中","koaza":"","lat":35.496219,"lng":136.071206,"zip":"5201806"},{"town":"宮野","koaza":"","lat":35.309736,"lng":135.998851,"zip":"5201103"},{"town":"武曽横山","koaza":"","lat":35.328437,"lng":135.963376,"zip":"5201101"},{"town":"勝野","koaza":"尾萱","lat":35.300286,"lng":136.015142,"zip":"5201121"}]